{
"type": "FeatureCollection",
"name": "-100_-90",
"crs": { "type": "name", "properties": { "name": "urn:ogc:def:crs:OGC:1.3:CRS84" } },
"xy_coordinate_resolution": 1e-15,
"features": [
{ "type": "Feature", "properties": { "FID": 307096, "id": 612, "left": -100.0, "top": -85.0, "right": -95.0, "bottom": -90.0, "row_index": 35, "col_index": 16, "min_lon": -100.0, "min_lat": -90.0, "tile_id": "-100_-90" }, "geometry": { "type": "MultiPolygon", "coordinates": [ [ [ [ -96.0, -90.0 ], [ -97.0, -90.0 ], [ -98.0, -90.0 ], [ -99.0, -90.0 ], [ -100.0, -90.0 ], [ -100.0, -85.0 ], [ -95.0, -85.0 ], [ -95.0, -90.0 ], [ -96.0, -90.0 ] ] ] ] } }
]
}
