{
"type": "FeatureCollection",
"name": "-100_-75",
"crs": { "type": "name", "properties": { "name": "urn:ogc:def:crs:OGC:1.3:CRS84" } },
"xy_coordinate_resolution": 1e-15,
"features": [
{ "type": "Feature", "properties": { "FID": 307096, "id": 609, "left": -100.0, "top": -70.0, "right": -95.0, "bottom": -75.0, "row_index": 32, "col_index": 16, "min_lon": -100.0, "min_lat": -75.0, "tile_id": "-100_-75" }, "geometry": { "type": "MultiPolygon", "coordinates": [ [ [ [ -99.9975244, -71.8718151 ], [ -99.9930542, -71.8725148 ], [ -99.9900828, -71.8732838 ], [ -99.9840298, -71.8737672 ], [ -99.9805028, -71.8744149 ], [ -99.9759175, -71.8766356 ], [ -99.9720005, -71.877456 ], [ -99.9685553, -71.8782504 ], [ -99.9666923, -71.8792613 ], [ -99.9642993, -71.8810586 ], [ -99.9619634, -71.8820953 ], [ -99.958517, -71.8828896 ], [ -99.9587081, -71.8840911 ], [ -99.9596204, -71.8857077 ], [ -99.9596712, -71.8875229 ], [ -99.9603747, -71.8897161 ], [ -99.959947, -71.8899356 ], [ -99.9554385, -71.8922484 ], [ -99.9498008, -71.893768 ], [ -99.9460527, -71.8951845 ], [ -99.943454, -71.896336 ], [ -99.9388863, -71.8986048 ], [ -99.9332773, -71.9013342 ], [ -99.9294474, -71.9037644 ], [ -99.9259166, -71.9055724 ], [ -99.9235358, -71.9071157 ], [ -99.9186316, -71.9087962 ], [ -99.9143269, -71.909232 ], [ -99.9047551, -71.9095496 ], [ -99.8971557, -71.90875 ], [ -99.8935326, -71.9069267 ], [ -99.8919078, -71.906302 ], [ -99.8937766, -71.9050453 ], [ -99.896075, -71.9021941 ], [ -99.9001215, -71.899854 ], [ -99.903364, -71.8969515 ], [ -99.9021034, -71.893839 ], [ -99.8995528, -71.8927657 ], [ -99.8938811, -71.8930734 ], [ -99.8893408, -71.8945314 ], [ -99.8826007, -71.8964113 ], [ -99.8771745, -71.8971596 ], [ -99.8742762, -71.8980738 ], [ -99.8684378, -71.8980867 ], [ -99.8648811, -71.8978247 ], [ -99.8595157, -71.8978117 ], [ -99.8535327, -71.8984379 ], [ -99.8497891, -71.9004574 ], [ -99.8427533, -71.903563 ], [ -99.8379601, -71.9045787 ], [ -99.8310471, -71.9061628 ], [ -99.8239687, -71.9074524 ], [ -99.8127764, -71.9083572 ], [ -99.8064788, -71.9093013 ], [ -99.8030375, -71.9110004 ], [ -99.7993502, -71.9122584 ], [ -99.7930506, -71.913202 ], [ -99.8011364, -71.918977 ], [ -99.7937379, -71.9161938 ], [ -99.7850686, -71.9128727 ], [ -99.7777569, -71.9102358 ], [ -99.7706258, -71.9088005 ], [ -99.7626971, -71.9068019 ], [ -99.7514061, -71.9066483 ], [ -99.7435236, -71.9073718 ], [ -99.7342879, -71.9074102 ], [ -99.7217936, -71.9059563 ], [ -99.7127075, -71.9053801 ], [ -99.7071654, -71.904161 ], [ -99.6994947, -71.9030549 ], [ -99.6954211, -71.9053906 ], [ -99.6907925, -71.9076042 ], [ -99.6837034, -71.9088886 ], [ -99.6763016, -71.9104918 ], [ -99.6728366, -71.9112809 ], [ -99.6642437, -71.9124926 ], [ -99.6582592, -71.9140201 ], [ -99.6517097, -71.9145175 ], [ -99.6441322, -71.9149176 ], [ -99.6386099, -71.9155118 ], [ -99.6323809, -71.9165971 ], [ -99.6257578, -71.9178543 ], [ -99.6199208, -71.918767 ], [ -99.6157451, -71.9200462 ], [ -99.6109345, -71.921056 ], [ -99.6019248, -71.9206215 ], [ -99.5983745, -71.921262 ], [ -99.5892913, -71.9215874 ], [ -99.5846391, -71.9228908 ], [ -99.5815677, -71.9244138 ], [ -99.5763534, -71.9248628 ], [ -99.5705652, -71.9248492 ], [ -99.5652749, -71.925126 ], [ -99.5597096, -71.9255227 ], [ -99.5539799, -71.9262444 ], [ -99.5471994, -71.9262819 ], [ -99.5415221, -71.9264727 ], [ -99.5341885, -71.9261163 ], [ -99.5248155, -71.9257603 ], [ -99.5156626, -71.9251813 ], [ -99.5107576, -71.9255421 ], [ -99.5080563, -71.925577 ], [ -99.4983002, -71.926084 ], [ -99.490472, -71.9260683 ], [ -99.482037, -71.9255559 ], [ -99.470791, -71.9255054 ], [ -99.4674286, -71.925574 ], [ -99.462026, -71.9250093 ], [ -99.4567894, -71.9241193 ], [ -99.4496792, -71.9235371 ], [ -99.4415222, -71.9229031 ], [ -99.4328712, -71.9213446 ], [ -99.42907, -71.9205909 ], [ -99.4239461, -71.9199054 ], [ -99.4201453, -71.9191515 ], [ -99.4165111, -71.9180725 ], [ -99.41365, -71.9165315 ], [ -99.4114507, -71.9149564 ], [ -99.4084769, -71.9144764 ], [ -99.4034674, -71.9133626 ], [ -99.3958709, -71.911854 ], [ -99.3888246, -71.9107389 ], [ -99.3773851, -71.9071059 ], [ -99.372325, -71.9058885 ], [ -99.3616655, -71.901793 ], [ -99.3586429, -71.9008928 ], [ -99.3535391, -71.8983058 ], [ -99.3497538, -71.8962842 ], [ -99.3473995, -71.8944004 ], [ -99.3435074, -71.8921733 ], [ -99.3411499, -71.8909226 ], [ -99.3370784, -71.8909198 ], [ -99.3305327, -71.890727 ], [ -99.3243665, -71.891253 ], [ -99.3219953, -71.8919015 ], [ -99.3172092, -71.8918293 ], [ -99.3129696, -71.892151 ], [ -99.3091036, -71.8938249 ], [ -99.3046248, -71.8962683 ], [ -99.3019221, -71.8969334 ], [ -99.2936624, -71.8973538 ], [ -99.2885382, -71.8979309 ], [ -99.2830228, -71.899055 ], [ -99.2761175, -71.9014098 ], [ -99.2709848, -71.9026196 ], [ -99.2627615, -71.9044077 ], [ -99.2620717, -71.906974 ], [ -99.2579859, -71.9079193 ], [ -99.2546724, -71.9087199 ], [ -99.2503199, -71.9088348 ], [ -99.2447682, -71.9079555 ], [ -99.2387788, -71.9068873 ], [ -99.2368087, -71.9102563 ], [ -99.2302487, -71.9106931 ], [ -99.221981, -71.9111104 ], [ -99.2192813, -71.911141 ], [ -99.2131404, -71.9091306 ], [ -99.2083054, -71.9083196 ], [ -99.2044533, -71.9080918 ], [ -99.2061332, -71.9100108 ], [ -99.2034154, -71.9113077 ], [ -99.2007602, -71.912074 ], [ -99.1980952, -71.9134736 ], [ -99.1922922, -71.9147145 ], [ -99.1863375, -71.9150137 ], [ -99.1819397, -71.914391 ], [ -99.180319, -71.9158432 ], [ -99.1777258, -71.9160788 ], [ -99.1737021, -71.9161753 ], [ -99.1717806, -71.9157444 ], [ -99.1709275, -71.9173688 ], [ -99.1691339, -71.9158771 ], [ -99.1617803, -71.9141368 ], [ -99.1578851, -71.913172 ], [ -99.1524541, -71.9118623 ], [ -99.148507, -71.9107945 ], [ -99.1466514, -71.9098331 ], [ -99.1475287, -71.9069424 ], [ -99.1474556, -71.9048372 ], [ -99.146657, -71.9032957 ], [ -99.1433201, -71.902092 ], [ -99.1403254, -71.9002386 ], [ -99.1376624, -71.8983685 ], [ -99.1346807, -71.8958818 ], [ -99.1322842, -71.8945257 ], [ -99.1297288, -71.8928611 ], [ -99.1316289, -71.8912901 ], [ -99.132909, -71.8904881 ], [ -99.1321539, -71.8896825 ], [ -99.1301301, -71.8890457 ], [ -99.1263896, -71.8890218 ], [ -99.1210213, -71.887814 ], [ -99.1127053, -71.8854882 ], [ -99.1075106, -71.8839553 ], [ -99.1023697, -71.882525 ], [ -99.1009281, -71.8803831 ], [ -99.0994213, -71.8787715 ], [ -99.0952861, -71.8766586 ], [ -99.0930799, -71.874344 ], [ -99.0893955, -71.8717869 ], [ -99.0827417, -71.8693776 ], [ -99.0792503, -71.8681811 ], [ -99.075608, -71.8663596 ], [ -99.0689441, -71.864583 ], [ -99.0617792, -71.8631472 ], [ -99.051091, -71.862097 ], [ -99.0435988, -71.8606768 ], [ -99.0378472, -71.8600134 ], [ -99.028257, -71.8591184 ], [ -99.022297, -71.8580433 ], [ -99.0165106, -71.8566433 ], [ -99.0132956, -71.8556431 ], [ -99.0099926, -71.853804 ], [ -99.0060306, -71.8519975 ], [ -99.0017233, -71.8508403 ], [ -98.9978509, -71.8498724 ], [ -98.9920167, -71.8483689 ], [ -98.9866697, -71.8471574 ], [ -98.9821563, -71.8455885 ], [ -98.9747286, -71.8442685 ], [ -98.9693667, -71.8436895 ], [ -98.9651675, -71.8427371 ], [ -98.9637801, -71.8413303 ], [ -98.9607447, -71.8400045 ], [ -98.9563394, -71.8386407 ], [ -98.9518308, -71.8370711 ], [ -98.9480005, -71.834836 ], [ -98.945367, -71.8329635 ], [ -98.9401315, -71.8319563 ], [ -98.9330607, -71.8299854 ], [ -98.9277326, -71.8284558 ], [ -98.9213234, -71.8264522 ], [ -98.9179835, -71.8245088 ], [ -98.9160328, -71.8219707 ], [ -98.9147608, -71.8187673 ], [ -98.9128177, -71.8142274 ], [ -98.9113723, -71.8113487 ], [ -98.9113793, -71.8093468 ], [ -98.9118895, -71.8070044 ], [ -98.9118964, -71.8050026 ], [ -98.9116966, -71.8025896 ], [ -98.9093173, -71.799862 ], [ -98.9110916, -71.7973523 ], [ -98.9113561, -71.7958647 ], [ -98.9101186, -71.7933973 ], [ -98.9123046, -71.7917101 ], [ -98.914819, -71.7900067 ], [ -98.9163467, -71.7883518 ], [ -98.91547, -71.786604 ], [ -98.9110616, -71.7858723 ], [ -98.9059131, -71.7843341 ], [ -98.8998108, -71.7835798 ], [ -98.8958556, -71.7824042 ], [ -98.8920952, -71.7802711 ], [ -98.8882127, -71.7785653 ], [ -98.8855222, -71.7772224 ], [ -98.8848544, -71.7758858 ], [ -98.8860037, -71.7741444 ], [ -98.8880154, -71.7727821 ], [ -98.8889899, -71.7713651 ], [ -98.8860232, -71.7701412 ], [ -98.8810349, -71.7689108 ], [ -98.8788594, -71.7685959 ], [ -98.8766531, -71.7675453 ], [ -98.8738417, -71.7666295 ], [ -98.867952, -71.7662855 ], [ -98.8597125, -71.7659506 ], [ -98.8561432, -71.764861 ], [ -98.8528516, -71.7636525 ], [ -98.8475393, -71.7624372 ], [ -98.8397545, -71.7616582 ], [ -98.8363182, -71.7615096 ], [ -98.8320436, -71.7603487 ], [ -98.8278653, -71.7580248 ], [ -98.824073, -71.7571562 ], [ -98.820202, -71.755449 ], [ -98.8191835, -71.7533926 ], [ -98.8166037, -71.7522544 ], [ -98.8122359, -71.752256 ], [ -98.8091807, -71.7521938 ], [ -98.8059365, -71.7518982 ], [ -98.8024408, -71.7512695 ], [ -98.7995192, -71.7505131 ], [ -98.7947761, -71.7486473 ], [ -98.7918776, -71.7472908 ], [ -98.7865879, -71.7462498 ], [ -98.7822544, -71.7445637 ], [ -98.7797646, -71.7433869 ], [ -98.7756014, -71.7426903 ], [ -98.7726823, -71.7419334 ], [ -98.7692608, -71.7408017 ], [ -98.7661752, -71.7403521 ], [ -98.7588332, -71.7403077 ], [ -98.7547437, -71.7404055 ], [ -98.7513237, -71.7405706 ], [ -98.7483343, -71.7403157 ], [ -98.7428101, -71.7400832 ], [ -98.740586, -71.7400907 ], [ -98.737788, -71.7402256 ], [ -98.7325258, -71.7411775 ], [ -98.7291057, -71.7413422 ], [ -98.7269769, -71.7415444 ], [ -98.723675, -71.7426013 ], [ -98.7206132, -71.7428483 ], [ -98.7157581, -71.7426826 ], [ -98.7116201, -71.7426818 ], [ -98.7049024, -71.7413083 ], [ -98.7006221, -71.7410149 ], [ -98.694809, -71.7414932 ], [ -98.6906458, -71.7420918 ], [ -98.688469, -71.7421961 ], [ -98.6835668, -71.7419321 ], [ -98.6804094, -71.7419835 ], [ -98.6755074, -71.7417192 ], [ -98.6710587, -71.7417325 ], [ -98.6654136, -71.7419024 ], [ -98.6607487, -71.7421253 ], [ -98.6564894, -71.7425282 ], [ -98.6533524, -71.7432765 ], [ -98.6505731, -71.7441073 ], [ -98.6474356, -71.7448554 ], [ -98.6421004, -71.7450099 ], [ -98.6343235, -71.7453803 ], [ -98.6290297, -71.7446346 ], [ -98.6217615, -71.7440825 ], [ -98.614164, -71.7428474 ], [ -98.6102245, -71.7419372 ], [ -98.608368, -71.7407286 ], [ -98.6068231, -71.7395053 ], [ -98.6017347, -71.738849 ], [ -98.5981908, -71.739416 ], [ -98.5990373, -71.7411713 ], [ -98.5954931, -71.7417383 ], [ -98.5926935, -71.7418709 ], [ -98.5887148, -71.7428573 ], [ -98.5876761, -71.7440036 ], [ -98.5850819, -71.7452235 ], [ -98.5824753, -71.7477406 ], [ -98.5801149, -71.7494481 ], [ -98.5784234, -71.7512237 ], [ -98.5757803, -71.752346 ], [ -98.5710349, -71.7530688 ], [ -98.5667241, -71.7533722 ], [ -98.5614325, -71.7536219 ], [ -98.5571984, -71.7534225 ], [ -98.5544437, -71.7536521 ], [ -98.5485759, -71.7540283 ], [ -98.5445759, -71.7543163 ], [ -98.5396418, -71.7546483 ], [ -98.538195, -71.7566112 ], [ -98.5361561, -71.7590009 ], [ -98.5335607, -71.7607955 ], [ -98.5335252, -71.76082 ], [ -98.5298347, -71.7610932 ], [ -98.5266424, -71.7617417 ], [ -98.524571, -71.7627365 ], [ -98.5215495, -71.7630779 ], [ -98.5187462, -71.7632094 ], [ -98.5142921, -71.7632187 ], [ -98.5092299, -71.7639546 ], [ -98.4986529, -71.7651479 ], [ -98.4889627, -71.7661994 ], [ -98.4785418, -71.7663869 ], [ -98.4707523, -71.7667503 ], [ -98.4646469, -71.766636 ], [ -98.4598804, -71.7666586 ], [ -98.4553327, -71.7664715 ], [ -98.4481661, -71.7668049 ], [ -98.4430077, -71.7673439 ], [ -98.4344327, -71.7687392 ], [ -98.4273223, -71.7698668 ], [ -98.4204306, -71.7707845 ], [ -98.4129609, -71.7718284 ], [ -98.4074528, -71.7729806 ], [ -98.4032017, -71.7747725 ], [ -98.4002965, -71.7757043 ], [ -98.3967954, -71.7770626 ], [ -98.3929922, -71.7791324 ], [ -98.3868108, -71.7802153 ], [ -98.3791056, -71.78077 ], [ -98.3743811, -71.7808879 ], [ -98.3623083, -71.7816429 ], [ -98.3551797, -71.7820703 ], [ -98.349968, -71.782509 ], [ -98.346462, -71.7838663 ], [ -98.3458089, -71.7851922 ], [ -98.3468617, -71.7874367 ], [ -98.3493838, -71.7894145 ], [ -98.3552106, -71.7916394 ], [ -98.3496214, -71.7906 ], [ -98.3437581, -71.7889748 ], [ -98.3411701, -71.7888941 ], [ -98.3371211, -71.7897775 ], [ -98.3330341, -71.7912608 ], [ -98.3306439, -71.7929652 ], [ -98.3294568, -71.7945149 ], [ -98.3328607, -71.795655 ], [ -98.3368436, -71.7966689 ], [ -98.3337216, -71.7968118 ], [ -98.3286348, -71.7968453 ], [ -98.3259162, -71.7971691 ], [ -98.3221844, -71.7987354 ], [ -98.3176062, -71.8005396 ], [ -98.3142311, -71.8021891 ], [ -98.3132171, -71.8034317 ], [ -98.3113764, -71.8046122 ], [ -98.3056305, -71.805971 ], [ -98.3003653, -71.8063108 ], [ -98.3037308, -71.8080513 ], [ -98.3035332, -71.8082932 ], [ -98.3027157, -71.8092938 ], [ -98.2917733, -71.8090945 ], [ -98.283297, -71.8100783 ], [ -98.2781783, -71.8121053 ], [ -98.270234, -71.8128648 ], [ -98.2629598, -71.8136933 ], [ -98.2596626, -71.8148396 ], [ -98.25994, -71.8161228 ], [ -98.256819, -71.816962 ], [ -98.2518169, -71.8171886 ], [ -98.2431037, -71.8169849 ], [ -98.2363613, -71.8175888 ], [ -98.2318604, -71.8195863 ], [ -98.2283831, -71.8210389 ], [ -98.2211072, -71.8225633 ], [ -98.2168224, -71.8236535 ], [ -98.2121369, -71.82526 ], [ -98.2104436, -71.8264325 ], [ -98.2105324, -71.8272786 ], [ -98.2081836, -71.8291056 ], [ -98.2071291, -71.830526 ], [ -98.2056623, -71.8315836 ], [ -98.2014555, -71.8320016 ], [ -98.1957445, -71.8328685 ], [ -98.1918452, -71.833425 ], [ -98.1866795, -71.8338858 ], [ -98.1797006, -71.8346565 ], [ -98.1768263, -71.8347853 ], [ -98.1749459, -71.8354798 ], [ -98.1737851, -71.8366757 ], [ -98.1728625, -71.8373272 ], [ -98.1709473, -71.8379469 ], [ -98.1631098, -71.8384502 ], [ -98.1573596, -71.8387074 ], [ -98.1529102, -71.8391351 ], [ -98.1472282, -71.8395414 ], [ -98.1419572, -71.8403105 ], [ -98.1383287, -71.8409299 ], [ -98.134871, -71.8413892 ], [ -98.1298729, -71.8416881 ], [ -98.1262437, -71.8423073 ], [ -98.1235728, -71.8428837 ], [ -98.1209022, -71.8429264 ], [ -98.1202867, -71.8415811 ], [ -98.120082, -71.8405989 ], [ -98.1169666, -71.8407375 ], [ -98.1088866, -71.8412491 ], [ -98.1033046, -71.8424122 ], [ -98.0975164, -71.8436604 ], [ -98.0939185, -71.8448875 ], [ -98.092478, -71.8460189 ], [ -98.0874059, -71.8477687 ], [ -98.0811335, -71.8495715 ], [ -98.0745538, -71.8507014 ], [ -98.069244, -71.8508598 ], [ -98.0656488, -71.850485 ], [ -98.0622915, -71.8506332 ], [ -98.0584965, -71.8513053 ], [ -98.0569058, -71.8515871 ], [ -98.0524045, -71.8517557 ], [ -98.0490468, -71.8519037 ], [ -98.0450035, -71.8521581 ], [ -98.0322914, -71.8527176 ], [ -98.02969, -71.8523746 ], [ -98.0272266, -71.8517967 ], [ -98.0231831, -71.8520506 ], [ -98.0194097, -71.8529025 ], [ -98.0163894, -71.8537975 ], [ -98.0141594, -71.8542766 ], [ -98.012274, -71.8544355 ], [ -98.0100813, -71.8544555 ], [ -98.0079898, -71.8546997 ], [ -98.004796, -71.8557545 ], [ -98.0013995, -71.8563607 ], [ -97.99951, -71.8570534 ], [ -97.9992622, -71.8581316 ], [ -97.9980923, -71.8587927 ], [ -97.9950739, -71.8591535 ], [ -97.9897106, -71.8613703 ], [ -97.9892935, -71.8620747 ], [ -97.9882913, -71.8631096 ], [ -97.9885189, -71.8647007 ], [ -97.9876217, -71.865426 ], [ -97.9879923, -71.8662484 ], [ -97.9891168, -71.8671142 ], [ -97.9898581, -71.868759 ], [ -97.9897822, -71.8696772 ], [ -97.988472, -71.870573 ], [ -97.9908905, -71.8726783 ], [ -97.9939662, -71.8740687 ], [ -97.9954033, -71.8745396 ], [ -97.997009, -71.8753842 ], [ -97.9981008, -71.8761751 ], [ -97.9989466, -71.8770621 ], [ -97.9905764, -71.8786075 ], [ -97.9733444, -71.8819269 ], [ -97.9601605, -71.8843971 ], [ -97.9507255, -71.8868874 ], [ -97.9401645, -71.8886712 ], [ -97.931806, -71.8890337 ], [ -97.9235617, -71.8880656 ], [ -97.9171957, -71.8881202 ], [ -97.90796, -71.889037 ], [ -97.8998776, -71.8890894 ], [ -97.8934906, -71.8906901 ], [ -97.8866199, -71.8912071 ], [ -97.8789555, -71.8915372 ], [ -97.872875, -71.8927354 ], [ -97.8651287, -71.8946104 ], [ -97.8548369, -71.8969492 ], [ -97.8484672, -71.899384 ], [ -97.8421092, -71.8987142 ], [ -97.836447, -71.8977371 ], [ -97.831437, -71.8942931 ], [ -97.8311589, -71.892679 ], [ -97.829347, -71.8915371 ], [ -97.8249439, -71.8884737 ], [ -97.8217658, -71.8852223 ], [ -97.819427, -71.8828835 ], [ -97.8179855, -71.8815902 ], [ -97.8171175, -71.8806413 ], [ -97.8162038, -71.8792305 ], [ -97.8145789, -71.8788469 ], [ -97.8123322, -71.8790334 ], [ -97.8097602, -71.8791432 ], [ -97.8076424, -71.8789618 ], [ -97.8054463, -71.8786025 ], [ -97.8033286, -71.878421 ], [ -97.8001578, -71.8778314 ], [ -97.7956095, -71.8767568 ], [ -97.7901926, -71.8763532 ], [ -97.7875037, -71.876196 ], [ -97.7833473, -71.8760104 ], [ -97.7798015, -71.8758894 ], [ -97.7764633, -71.8755784 ], [ -97.7719823, -71.8753158 ], [ -97.768969, -71.8750814 ], [ -97.7654753, -71.8744143 ], [ -97.759489, -71.872041 ], [ -97.7568534, -71.8713374 ], [ -97.7538154, -71.8703791 ], [ -97.7474805, -71.8691981 ], [ -97.7437806, -71.8687207 ], [ -97.7380042, -71.8681499 ], [ -97.7309162, -71.8679061 ], [ -97.7251402, -71.8673349 ], [ -97.7173506, -71.8674827 ], [ -97.7126733, -71.868767 ], [ -97.7092454, -71.8689116 ], [ -97.7072071, -71.8689068 ], [ -97.7022734, -71.8689335 ], [ -97.6986214, -71.8699026 ], [ -97.6959575, -71.8704676 ], [ -97.6914633, -71.8708378 ], [ -97.6876178, -71.8713618 ], [ -97.6840735, -71.8712389 ], [ -97.681749, -71.871246 ], [ -97.6795179, -71.8707962 ], [ -97.674529, -71.8713679 ], [ -97.6697322, -71.8723843 ], [ -97.6628573, -71.8733065 ], [ -97.655696, -71.8742403 ], [ -97.6479453, -71.8758325 ], [ -97.6453173, -71.8764857 ], [ -97.641727, -71.8772698 ], [ -97.6387011, -71.8790264 ], [ -97.6347577, -71.8800061 ], [ -97.6313859, -71.8809618 ], [ -97.6270614, -71.8824101 ], [ -97.6251747, -71.8827604 ], [ -97.6226979, -71.8837693 ], [ -97.6201442, -71.8846001 ], [ -97.6171715, -71.8858108 ], [ -97.6162569, -71.8863922 ], [ -97.6126351, -71.8874485 ], [ -97.6092986, -71.8884929 ], [ -97.604322, -71.8897864 ], [ -97.6011565, -71.8905519 ], [ -97.5967316, -71.8910977 ], [ -97.5926689, -71.8918097 ], [ -97.5878619, -71.8928239 ], [ -97.5819283, -71.8946092 ], [ -97.5766038, -71.8964597 ], [ -97.5720048, -71.8972838 ], [ -97.5702296, -71.8979006 ], [ -97.5646748, -71.8992167 ], [ -97.5592713, -71.9008887 ], [ -97.5533146, -71.9019493 ], [ -97.5445994, -71.9030329 ], [ -97.5404181, -71.9034766 ], [ -97.5340005, -71.9048273 ], [ -97.5296458, -71.9055495 ], [ -97.5251935, -71.9067285 ], [ -97.5222106, -71.9079376 ], [ -97.5183678, -71.9091819 ], [ -97.512941, -71.9101287 ], [ -97.5112203, -71.910519 ], [ -97.48146, -71.9099669 ], [ -97.4637316, -71.9100274 ], [ -97.4458202, -71.9096524 ], [ -97.4304296, -71.9085117 ], [ -97.4051481, -71.9057839 ], [ -97.3825757, -71.9027232 ], [ -97.362466, -71.9004437 ], [ -97.3432388, -71.8985679 ], [ -97.322979, -71.8976138 ], [ -97.3086623, -71.897303 ], [ -97.2993212, -71.8970136 ], [ -97.2877078, -71.8963729 ], [ -97.269903, -71.8961979 ], [ -97.2599541, -71.8961511 ], [ -97.2550684, -71.8963446 ], [ -97.23517, -71.8962491 ], [ -97.2189297, -71.8946842 ], [ -97.2021781, -71.8953432 ], [ -97.1892617, -71.8949683 ], [ -97.1712836, -71.8943496 ], [ -97.1595892, -71.8934838 ], [ -97.1502498, -71.891423 ], [ -97.138035, -71.8910172 ], [ -97.1246869, -71.8895524 ], [ -97.1102075, -71.8870282 ], [ -97.0978255, -71.8844218 ], [ -97.0878819, -71.8817301 ], [ -97.0830799, -71.8804855 ], [ -97.0711645, -71.8768452 ], [ -97.063252, -71.8754621 ], [ -97.0570155, -71.8724461 ], [ -97.0525947, -71.869119 ], [ -97.0471766, -71.8652273 ], [ -97.0444728, -71.8623164 ], [ -97.0434834, -71.859822 ], [ -97.0385835, -71.8582017 ], [ -97.035209, -71.8565225 ], [ -97.0318822, -71.8549622 ], [ -97.0301328, -71.852497 ], [ -97.02924, -71.8502401 ], [ -97.0272511, -71.8481459 ], [ -97.0192665, -71.8455585 ], [ -97.0140384, -71.8440709 ], [ -97.0072874, -71.8426417 ], [ -96.9996285, -71.8418499 ], [ -96.9900586, -71.8420955 ], [ -96.9820668, -71.8414362 ], [ -96.9722337, -71.8390383 ], [ -96.9644384, -71.8378887 ], [ -96.958502, -71.8365474 ], [ -96.9488143, -71.8345047 ], [ -96.9408932, -71.8320328 ], [ -96.9365862, -71.8299057 ], [ -96.9320386, -71.8281494 ], [ -96.9238129, -71.8278585 ], [ -96.9078756, -71.8281002 ], [ -96.9009766, -71.8282403 ], [ -96.8929356, -71.8284233 ], [ -96.8780871, -71.8289828 ], [ -96.8727108, -71.8290646 ], [ -96.8666187, -71.8292936 ], [ -96.8609987, -71.8297457 ], [ -96.8547086, -71.830464 ], [ -96.8447774, -71.8327648 ], [ -96.8395215, -71.834167 ], [ -96.8356969, -71.8352742 ], [ -96.831598, -71.8356686 ], [ -96.8268284, -71.8363289 ], [ -96.8233381, -71.837303 ], [ -96.819541, -71.8394937 ], [ -96.8149809, -71.8417127 ], [ -96.8100553, -71.842981 ], [ -96.8046118, -71.8439067 ], [ -96.8017901, -71.8446144 ], [ -96.7980063, -71.8458398 ], [ -96.793995, -71.846471 ], [ -96.7890215, -71.8476199 ], [ -96.784719, -71.8485026 ], [ -96.7806427, -71.8499796 ], [ -96.7756674, -71.8511281 ], [ -96.7709369, -71.8519058 ], [ -96.7667778, -71.8526623 ], [ -96.7594024, -71.8546222 ], [ -96.7532149, -71.8566584 ], [ -96.7494252, -71.8578829 ], [ -96.7481747, -71.860701 ], [ -96.7470342, -71.8627919 ], [ -96.7452208, -71.8651486 ], [ -96.7436981, -71.8672535 ], [ -96.7395032, -71.8694569 ], [ -96.7350366, -71.8709469 ], [ -96.7317006, -71.8721301 ], [ -96.7275387, -71.8736328 ], [ -96.7141973, -71.8752069 ], [ -96.7005844, -71.8760668 ], [ -96.6889248, -71.8769749 ], [ -96.6688362, -71.8791532 ], [ -96.6608144, -71.8794449 ], [ -96.6579313, -71.8794303 ], [ -96.6491763, -71.8793855 ], [ -96.641842, -71.8789284 ], [ -96.6287301, -71.8769931 ], [ -96.6217489, -71.8759201 ], [ -96.6158529, -71.8736027 ], [ -96.6108996, -71.8717332 ], [ -96.6050952, -71.8696532 ], [ -96.5978532, -71.8678659 ], [ -96.5910826, -71.8663023 ], [ -96.5859134, -71.8638377 ], [ -96.5807162, -71.8623378 ], [ -96.5766649, -71.8607966 ], [ -96.5720409, -71.8608421 ], [ -96.5626612, -71.8605762 ], [ -96.5580681, -71.8596565 ], [ -96.5527997, -71.8590018 ], [ -96.5506284, -71.8583567 ], [ -96.5427333, -71.8579161 ], [ -96.5365397, -71.8578964 ], [ -96.532668, -71.8568299 ], [ -96.5289276, -71.8561201 ], [ -96.5178723, -71.8533819 ], [ -96.5125097, -71.8514045 ], [ -96.5053515, -71.8476839 ], [ -96.5023938, -71.8464641 ], [ -96.4986136, -71.8456347 ], [ -96.4935158, -71.8443703 ], [ -96.4842674, -71.8433732 ], [ -96.4761722, -71.8434191 ], [ -96.4707463, -71.8433701 ], [ -96.4584631, -71.8446473 ], [ -96.4501152, -71.8450621 ], [ -96.440149, -71.8442088 ], [ -96.430565, -71.8433414 ], [ -96.4249678, -71.8428155 ], [ -96.418098, -71.8419727 ], [ -96.4086406, -71.8403772 ], [ -96.4013912, -71.8395472 ], [ -96.3920647, -71.8383077 ], [ -96.3870222, -71.8382429 ], [ -96.3807929, -71.838099 ], [ -96.3740548, -71.8376114 ], [ -96.3689274, -71.8373083 ], [ -96.3629527, -71.8367937 ], [ -96.3583769, -71.8369528 ], [ -96.3521067, -71.8377728 ], [ -96.3457936, -71.8384735 ], [ -96.3433786, -71.8403635 ], [ -96.3401577, -71.842161 ], [ -96.335919, -71.8443549 ], [ -96.3310442, -71.8447644 ], [ -96.3250246, -71.8452134 ], [ -96.3192815, -71.8448096 ], [ -96.3133475, -71.8444124 ], [ -96.3083476, -71.8433807 ], [ -96.3018201, -71.8434852 ], [ -96.2963082, -71.844277 ], [ -96.2904141, -71.8450817 ], [ -96.2852404, -71.845741 ], [ -96.2790934, -71.8458316 ], [ -96.2712945, -71.8456174 ], [ -96.2669671, -71.846488 ], [ -96.2628114, -71.8467506 ], [ -96.2578506, -71.8469203 ], [ -96.2548396, -71.8471436 ], [ -96.2496225, -71.847683 ], [ -96.2452518, -71.8484342 ], [ -96.242616, -71.849728 ], [ -96.2395565, -71.8509158 ], [ -96.2348029, -71.8516797 ], [ -96.2286536, -71.8517686 ], [ -96.2194919, -71.8520801 ], [ -96.2153342, -71.8523416 ], [ -96.2133763, -71.8533712 ], [ -96.210696, -71.8545456 ], [ -96.2104311, -71.8559993 ], [ -96.2052265, -71.8571388 ], [ -96.199407, -71.8581786 ], [ -96.195073, -71.8590476 ], [ -96.1881896, -71.8603638 ], [ -96.1813557, -71.8607149 ], [ -96.1751518, -71.8617668 ], [ -96.1689883, -71.8629374 ], [ -96.1570602, -71.8675521 ], [ -96.153486, -71.8683944 ], [ -96.1432797, -71.8701813 ], [ -96.1358701, -71.8722352 ], [ -96.1310524, -71.8739613 ], [ -96.1253461, -71.8753558 ], [ -96.1140269, -71.8772984 ], [ -96.1066518, -71.8794702 ], [ -96.0998617, -71.882224 ], [ -96.0970323, -71.8841237 ], [ -96.0945848, -71.8860107 ], [ -96.0933255, -71.8879784 ], [ -96.0943616, -71.88987 ], [ -96.0955614, -71.8922377 ], [ -96.093603, -71.8955529 ], [ -96.0898676, -71.8982049 ], [ -96.086774, -71.9004742 ], [ -96.0835575, -71.9023864 ], [ -96.0799728, -71.9032275 ], [ -96.0724364, -71.903838 ], [ -96.0677426, -71.9048357 ], [ -96.0662348, -71.9060893 ], [ -96.069266, -71.9081559 ], [ -96.0766749, -71.9105592 ], [ -96.0819501, -71.9135146 ], [ -96.0862157, -71.9157809 ], [ -96.0888114, -71.918825 ], [ -96.0911471, -71.9222388 ], [ -96.0935615, -71.9292616 ], [ -96.0950657, -71.9313787 ], [ -96.0970355, -71.9337212 ], [ -96.0971811, -71.9386525 ], [ -96.0927774, -71.9427713 ], [ -96.0891698, -71.9446965 ], [ -96.0880414, -71.9476233 ], [ -96.0862955, -71.9504501 ], [ -96.0871144, -71.9528308 ], [ -96.0881537, -71.9547228 ], [ -96.0880258, -71.9577369 ], [ -96.0870628, -71.9594544 ], [ -96.0871137, -71.9618605 ], [ -96.0869803, -71.9620883 ], [ -96.0868208, -71.9621087 ], [ -96.0823541, -71.9635766 ], [ -96.0670971, -71.9667202 ], [ -96.0643311, -71.9690118 ], [ -96.0623417, -71.9714977 ], [ -96.056689, -71.973664 ], [ -96.0469254, -71.9742046 ], [ -96.0357554, -71.9747906 ], [ -96.0210704, -71.9754909 ], [ -96.009973, -71.976293 ], [ -95.9989482, -71.9773121 ], [ -95.9835567, -71.9780322 ], [ -95.975824, -71.978283 ], [ -95.9784816, -71.9819372 ], [ -95.9813277, -71.9840451 ], [ -95.9799812, -71.9926699 ], [ -95.9730515, -71.9953145 ], [ -95.974452, -71.9983915 ], [ -95.9661832, -72.0023575 ], [ -95.9593212, -72.0052194 ], [ -95.9494936, -72.0077365 ], [ -95.9371385, -72.0112144 ], [ -95.9248254, -72.0127098 ], [ -95.9040556, -72.0144747 ], [ -95.8866598, -72.0156897 ], [ -95.8665873, -72.017428 ], [ -95.8529266, -72.019181 ], [ -95.8249638, -72.0229241 ], [ -95.8149633, -72.0249988 ], [ -95.8043987, -72.0275305 ], [ -95.7890372, -72.0306517 ], [ -95.7818498, -72.0326362 ], [ -95.7691593, -72.0352322 ], [ -95.7631011, -72.0385006 ], [ -95.7642409, -72.0419846 ], [ -95.7658435, -72.0450412 ], [ -95.7705438, -72.0481675 ], [ -95.7716143, -72.0514339 ], [ -95.7670349, -72.0548762 ], [ -95.7662078, -72.0561621 ], [ -95.7605762, -72.0553212 ], [ -95.7492936, -72.0566346 ], [ -95.7424141, -72.0570886 ], [ -95.7375448, -72.0577209 ], [ -95.7322887, -72.058365 ], [ -95.7272257, -72.0596048 ], [ -95.717948, -72.0598913 ], [ -95.714198, -72.0603681 ], [ -95.7112598, -72.0609401 ], [ -95.7080508, -72.0618814 ], [ -95.7010914, -72.0620957 ], [ -95.697573, -72.0620835 ], [ -95.6941703, -72.0624288 ], [ -95.6913852, -72.0634771 ], [ -95.6843442, -72.0658594 ], [ -95.6802053, -72.0663473 ], [ -95.6767246, -72.066454 ], [ -95.6739403, -72.0662985 ], [ -95.6672915, -72.0650578 ], [ -95.6629225, -72.0648304 ], [ -95.656275, -72.0635893 ], [ -95.6507886, -72.0623127 ], [ -95.6457235, -72.0623467 ], [ -95.6406965, -72.0624998 ], [ -95.6356312, -72.0625335 ], [ -95.6308764, -72.0623171 ], [ -95.6261597, -72.0622197 ], [ -95.6209741, -72.0630991 ], [ -95.6177979, -72.064158 ], [ -95.6130362, -72.0651445 ], [ -95.6099352, -72.0664417 ], [ -95.6050135, -72.0681548 ], [ -95.6004472, -72.0685335 ], [ -95.5964949, -72.0696154 ], [ -95.5935893, -72.0703047 ], [ -95.5927316, -72.0712932 ], [ -95.5931863, -72.0727234 ], [ -95.5916304, -72.0739737 ], [ -95.5912733, -72.075308 ], [ -95.5902556, -72.0770233 ], [ -95.5905966, -72.078096 ], [ -95.591552, -72.079872 ], [ -95.5935175, -72.0811364 ], [ -95.5955591, -72.0826391 ], [ -95.6004255, -72.0844176 ], [ -95.6048673, -72.0860885 ], [ -95.6090819, -72.0870442 ], [ -95.6139192, -72.0874996 ], [ -95.6186807, -72.0877165 ], [ -95.626693, -72.088316 ], [ -95.6331567, -72.0889623 ], [ -95.6395444, -72.08937 ], [ -95.6499544, -72.09134 ], [ -95.6564929, -72.0934274 ], [ -95.6598605, -72.0941672 ], [ -95.6625623, -72.0976952 ], [ -95.6637951, -72.1003053 ], [ -95.6644454, -72.1035349 ], [ -95.6626898, -72.1078007 ], [ -95.659267, -72.1117563 ], [ -95.6570867, -72.1147112 ], [ -95.6553706, -72.1178926 ], [ -95.6526048, -72.121467 ], [ -95.6467336, -72.1251357 ], [ -95.6440892, -72.1266603 ], [ -95.6434144, -72.1306525 ], [ -95.6407258, -72.1332615 ], [ -95.6343882, -72.1354995 ], [ -95.628755, -72.1362718 ], [ -95.6238598, -72.1369013 ], [ -95.618149, -72.1374349 ], [ -95.6122405, -72.138576 ], [ -95.6057903, -72.1392518 ], [ -95.6017843, -72.1402148 ], [ -95.5910604, -72.1410187 ], [ -95.5807615, -72.1419296 ], [ -95.5736078, -72.142866 ], [ -95.5644727, -72.143741 ], [ -95.5562378, -72.1437463 ], [ -95.5476632, -72.1426783 ], [ -95.5428123, -72.1422211 ], [ -95.538037, -72.1420022 ], [ -95.532479, -72.1424082 ], [ -95.5298221, -72.1439312 ], [ -95.5226894, -72.1461886 ], [ -95.5196425, -72.147723 ], [ -95.5153031, -72.1501379 ], [ -95.5112011, -72.1520644 ], [ -95.5078757, -72.1539677 ], [ -95.5075717, -72.1567445 ], [ -95.5066536, -72.1588173 ], [ -95.506738, -72.1615825 ], [ -95.5069116, -72.1633825 ], [ -95.5073617, -72.1648133 ], [ -95.5087024, -72.1665788 ], [ -95.5124158, -72.1683944 ], [ -95.5185778, -72.1704986 ], [ -95.5251428, -72.1713872 ], [ -95.5331524, -72.1718718 ], [ -95.5363671, -72.1733408 ], [ -95.5404101, -72.1737022 ], [ -95.5428177, -72.1739629 ], [ -95.5436035, -72.1745219 ], [ -95.5444321, -72.1771368 ], [ -95.5474651, -72.1799062 ], [ -95.5496489, -72.182261 ], [ -95.5442796, -72.1857201 ], [ -95.5405398, -72.1897907 ], [ -95.5398754, -72.1922302 ], [ -95.5402684, -72.1957381 ], [ -95.5379027, -72.1973481 ], [ -95.5397865, -72.2003819 ], [ -95.5393592, -72.200371 ], [ -95.5349285, -72.2003844 ], [ -95.5322544, -72.2004636 ], [ -95.5286004, -72.2011027 ], [ -95.5254203, -72.2020225 ], [ -95.5208409, -72.2033964 ], [ -95.5188559, -72.2050475 ], [ -95.5175975, -72.2065591 ], [ -95.5167331, -72.2087079 ], [ -95.5163498, -72.2105475 ], [ -95.5171199, -72.2117633 ], [ -95.5205596, -72.21349 ], [ -95.524387, -72.2144535 ], [ -95.5220865, -72.2178345 ], [ -95.5127902, -72.2203087 ], [ -95.5104875, -72.2221365 ], [ -95.5133603, -72.2266714 ], [ -95.514118, -72.2290689 ], [ -95.5016316, -72.2351562 ], [ -95.4909635, -72.2378894 ], [ -95.4862518, -72.2435271 ], [ -95.4843547, -72.2466625 ], [ -95.4763, -72.250858 ], [ -95.4744301, -72.2517926 ], [ -95.4731764, -72.2546891 ], [ -95.4739983, -72.2573049 ], [ -95.4793555, -72.262868 ], [ -95.4854598, -72.2662094 ], [ -95.4885676, -72.2691984 ], [ -95.4855404, -72.2710469 ], [ -95.4821405, -72.2740064 ], [ -95.4839266, -72.2796743 ], [ -95.4871053, -72.2828814 ], [ -95.4920201, -72.2847176 ], [ -95.4916207, -72.2880295 ], [ -95.495009, -72.2918905 ], [ -95.4972418, -72.2966656 ], [ -95.4955478, -72.3004555 ], [ -95.4908481, -72.3038932 ], [ -95.4817912, -72.3080032 ], [ -95.4755942, -72.3131445 ], [ -95.4733719, -72.3150526 ], [ -95.4721763, -72.3193704 ], [ -95.4708794, -72.3318959 ], [ -95.4666481, -72.3324654 ], [ -95.4529319, -72.3306054 ], [ -95.4505585, -72.3309572 ], [ -95.4474109, -72.3319487 ], [ -95.4443099, -72.333089 ], [ -95.4410682, -72.333783 ], [ -95.437197, -72.334045 ], [ -95.4293606, -72.3342713 ], [ -95.424835, -72.3356024 ], [ -95.4205196, -72.3360269 ], [ -95.4155029, -72.3373718 ], [ -95.4148228, -72.3399424 ], [ -95.4138638, -72.3416207 ], [ -95.4127651, -72.3428528 ], [ -95.4165416, -72.3454453 ], [ -95.4157684, -72.3477185 ], [ -95.412848, -72.3494532 ], [ -95.4126829, -72.3505084 ], [ -95.4136586, -72.3536318 ], [ -95.4163637, -72.355955 ], [ -95.4179027, -72.3577116 ], [ -95.4188584, -72.3591848 ], [ -95.4192307, -72.3603747 ], [ -95.4214469, -72.3627121 ], [ -95.421866, -72.3640507 ], [ -95.4246918, -72.3651699 ], [ -95.4276112, -72.3665866 ], [ -95.4290124, -72.3678969 ], [ -95.430016, -72.3695189 ], [ -95.4314642, -72.3709779 ], [ -95.437681, -72.3718492 ], [ -95.4421919, -72.3720192 ], [ -95.4419115, -72.3742785 ], [ -95.4422156, -72.3768211 ], [ -95.4453724, -72.3789812 ], [ -95.4420057, -72.3808794 ], [ -95.4448125, -72.3835 ], [ -95.450005, -72.3842505 ], [ -95.4537936, -72.3836908 ], [ -95.4611607, -72.3834776 ], [ -95.470445, -72.3830585 ], [ -95.4783028, -72.3828304 ], [ -95.4817875, -72.3828793 ], [ -95.4889459, -72.3835717 ], [ -95.4916376, -72.3842438 ], [ -95.4965489, -72.3841008 ], [ -95.5000341, -72.3841493 ], [ -95.5036611, -72.3846439 ], [ -95.5051168, -72.3861025 ], [ -95.5073655, -72.3869374 ], [ -95.5109289, -72.3887847 ], [ -95.5115925, -72.3908668 ], [ -95.512558, -72.3923397 ], [ -95.5140622, -72.3939468 ], [ -95.5172311, -72.3961059 ], [ -95.5198618, -72.3981305 ], [ -95.5194489, -72.3999439 ], [ -95.520273, -72.4009706 ], [ -95.5252202, -72.4024771 ], [ -95.5311991, -72.4041035 ], [ -95.5387646, -72.4044822 ], [ -95.5457433, -72.4045775 ], [ -95.5513427, -72.4050136 ], [ -95.5557677, -72.4048834 ], [ -95.5544723, -72.4078775 ], [ -95.5534509, -72.4092281 ], [ -95.5463596, -72.4120777 ], [ -95.5307502, -72.4156167 ], [ -95.5103877, -72.4179724 ], [ -95.4805003, -72.420162 ], [ -95.4665209, -72.4243082 ], [ -95.4781484, -72.4288135 ], [ -95.4882269, -72.4307222 ], [ -95.4995862, -72.434354 ], [ -95.5075478, -72.4387444 ], [ -95.5160018, -72.4446612 ], [ -95.5400336, -72.4468207 ], [ -95.5538135, -72.4488383 ], [ -95.566503, -72.4519877 ], [ -95.5737667, -72.4563968 ], [ -95.5777177, -72.4595826 ], [ -95.578656, -72.4692414 ], [ -95.5699378, -72.4739008 ], [ -95.5510096, -72.4786387 ], [ -95.5451266, -72.4807921 ], [ -95.5436359, -72.4852386 ], [ -95.5331935, -72.4868643 ], [ -95.5109043, -72.4857521 ], [ -95.4945516, -72.4849057 ], [ -95.479232, -72.4827074 ], [ -95.4678835, -72.4814941 ], [ -95.4558819, -72.4805191 ], [ -95.4427091, -72.4804575 ], [ -95.4320888, -72.4792213 ], [ -95.4244353, -72.4781198 ], [ -95.4161957, -72.4774749 ], [ -95.4056772, -72.4788755 ], [ -95.3945699, -72.4807324 ], [ -95.3814916, -72.4833047 ], [ -95.3673689, -72.4872261 ], [ -95.3534437, -72.4918011 ], [ -95.3383795, -72.4950863 ], [ -95.3266157, -72.4995982 ], [ -95.3116744, -72.5033178 ], [ -95.2949541, -72.508406 ], [ -95.2811814, -72.5112101 ], [ -95.2681403, -72.5164135 ], [ -95.2570028, -72.5206829 ], [ -95.2458666, -72.5273722 ], [ -95.2347164, -72.5316405 ], [ -95.2238262, -72.5367811 ], [ -95.2103507, -72.5406714 ], [ -95.1978606, -72.5429934 ], [ -95.1889367, -72.5449972 ], [ -95.1761767, -72.5464448 ], [ -95.1609045, -72.5468594 ], [ -95.1426564, -72.5471331 ], [ -95.1356367, -72.5506231 ], [ -95.1190894, -72.554149 ], [ -95.112529, -72.5567455 ], [ -95.1151999, -72.5656952 ], [ -95.1141885, -72.569683 ], [ -95.0983849, -72.5735839 ], [ -95.0821338, -72.5775923 ], [ -95.0756867, -72.5777639 ], [ -95.0703951, -72.5792395 ], [ -95.0648227, -72.5797689 ], [ -95.0624802, -72.5783055 ], [ -95.057556, -72.57672 ], [ -95.0487881, -72.5750453 ], [ -95.0459278, -72.5739769 ], [ -95.0384253, -72.5722684 ], [ -95.0288634, -72.570042 ], [ -95.0227934, -72.5688673 ], [ -95.0174661, -72.5680541 ], [ -95.0127704, -72.5672243 ], [ -95.0077759, -72.5675462 ], [ -95.005062, -72.5691428 ], [ -95.0028686, -72.5703445 ], [ -95.00073, -72.5717352 ], [ -95.0, -72.571669133921986 ], [ -95.0, -75.0 ], [ -100.0, -75.0 ], [ -100.0, -71.8715298 ], [ -99.9975244, -71.8718151 ] ] ] ] } }
]
}
