{
"type": "FeatureCollection",
"name": "-105_20",
"crs": { "type": "name", "properties": { "name": "urn:ogc:def:crs:OGC:1.3:CRS84" } },
"xy_coordinate_resolution": 1e-15,
"features": [
{ "type": "Feature", "properties": { "FID": 537252, "id": 554, "left": -105.0, "top": 25.0, "right": -100.0, "bottom": 20.0, "row_index": 13, "col_index": 15, "min_lon": -105.0, "min_lat": 20.0, "tile_id": "-105_20" }, "geometry": { "type": "MultiPolygon", "coordinates": [ [ [ [ -100.0, 25.0 ], [ -100.0, 20.0 ], [ -105.0, 20.0 ], [ -105.0, 25.0 ], [ -100.0, 25.0 ] ] ] ] } }
]
}
