{
"type": "FeatureCollection",
"name": "-105_80",
"crs": { "type": "name", "properties": { "name": "urn:ogc:def:crs:OGC:1.3:CRS84" } },
"xy_coordinate_resolution": 1e-15,
"features": [
{ "type": "Feature", "properties": { "FID": 781224, "id": 542, "left": -105.0, "top": 85.0, "right": -100.0, "bottom": 80.0, "row_index": 1, "col_index": 15, "min_lon": -105.0, "min_lat": 80.0, "tile_id": "-105_80" }, "geometry": { "type": "MultiPolygon", "coordinates": [ [ [ [ -100.1494188, 80.0001703 ], [ -100.1504977, 80.0004191 ], [ -100.150793, 80.0006173 ], [ -100.1514247, 80.0017523 ], [ -100.1520659, 80.0024735 ], [ -100.1528393, 80.0033689 ], [ -100.1536956, 80.004008 ], [ -100.1531052, 80.0042627 ], [ -100.1532646, 80.0046036 ], [ -100.1540206, 80.0055696 ], [ -100.1545899, 80.0060279 ], [ -100.1544378, 80.0064612 ], [ -100.1545906, 80.0070045 ], [ -100.1544533, 80.0072528 ], [ -100.1532326, 80.0075692 ], [ -100.152936, 80.0078021 ], [ -100.153244, 80.0083521 ], [ -100.1530563, 80.0086011 ], [ -100.1520953, 80.0089314 ], [ -100.151457, 80.0093011 ], [ -100.1509943, 80.0097212 ], [ -100.150345, 80.0099591 ], [ -100.1499557, 80.0102109 ], [ -100.149023, 80.0102768 ], [ -100.1468772, 80.010351 ], [ -100.1454054, 80.0105653 ], [ -100.1444536, 80.0108074 ], [ -100.1440287, 80.010875 ], [ -100.1419658, 80.0110184 ], [ -100.1417044, 80.01111 ], [ -100.139531, 80.0113429 ], [ -100.1382985, 80.0115274 ], [ -100.1379185, 80.0116911 ], [ -100.1375996, 80.0119859 ], [ -100.137662, 80.012337 ], [ -100.1374739, 80.012586 ], [ -100.1371156, 80.0126878 ], [ -100.1354828, 80.0126667 ], [ -100.1350156, 80.0127524 ], [ -100.1353546, 80.0128269 ], [ -100.1354199, 80.0129667 ], [ -100.1339567, 80.0134183 ], [ -100.134099, 80.0140498 ], [ -100.1337107, 80.014196 ], [ -100.1333905, 80.0142709 ], [ -100.132294, 80.0143127 ], [ -100.1318512, 80.0144508 ], [ -100.1317652, 80.0145928 ], [ -100.1313483, 80.0146778 ], [ -100.1307762, 80.0156272 ], [ -100.1308318, 80.0158552 ], [ -100.1308961, 80.0166461 ], [ -100.1312225, 80.0170198 ], [ -100.1316391, 80.0172603 ], [ -100.1331562, 80.0177933 ], [ -100.1334231, 80.0179303 ], [ -100.1335551, 80.0181044 ], [ -100.1345097, 80.0186277 ], [ -100.135339, 80.0190999 ], [ -100.1363334, 80.0194906 ], [ -100.139091, 80.0202877 ], [ -100.1401838, 80.0205627 ], [ -100.1421829, 80.021256 ], [ -100.142266, 80.0213252 ], [ -100.1418829, 80.0217001 ], [ -100.1424865, 80.0221227 ], [ -100.1425423, 80.0223506 ], [ -100.1414627, 80.0226473 ], [ -100.141498, 80.0228316 ], [ -100.1416439, 80.0229263 ], [ -100.142538, 80.0229929 ], [ -100.1444423, 80.0229398 ], [ -100.1453747, 80.0229794 ], [ -100.1460658, 80.0231545 ], [ -100.1463875, 80.0232995 ], [ -100.1466029, 80.0235428 ], [ -100.1466125, 80.0237802 ], [ -100.1457632, 80.0241352 ], [ -100.1458941, 80.0244149 ], [ -100.1463631, 80.0252001 ], [ -100.1476529, 80.025569 ], [ -100.1478629, 80.0259092 ], [ -100.1478548, 80.0262172 ], [ -100.1479244, 80.0263658 ], [ -100.1486185, 80.0266551 ], [ -100.1488271, 80.0267753 ], [ -100.1499536, 80.0271202 ], [ -100.1500259, 80.0273831 ], [ -100.1498855, 80.027517 ], [ -100.1505265, 80.0276927 ], [ -100.1506658, 80.0279899 ], [ -100.1500712, 80.0281302 ], [ -100.1501613, 80.0283225 ], [ -100.1502473, 80.028506 ], [ -100.1514818, 80.0289725 ], [ -100.1511177, 80.0291711 ], [ -100.151381, 80.0292994 ], [ -100.1516661, 80.0293657 ], [ -100.15183, 80.0297153 ], [ -100.1524452, 80.0299442 ], [ -100.1525695, 80.0301008 ], [ -100.15247, 80.0303221 ], [ -100.1528289, 80.0305458 ], [ -100.1532859, 80.0306537 ], [ -100.1534196, 80.0307222 ], [ -100.1534649, 80.0311438 ], [ -100.1538498, 80.0313143 ], [ -100.1540109, 80.0315496 ], [ -100.153449, 80.0317598 ], [ -100.1538556, 80.0318685 ], [ -100.1540017, 80.0319632 ], [ -100.1545389, 80.0334335 ], [ -100.1545274, 80.0343837 ], [ -100.1550356, 80.0351418 ], [ -100.1548911, 80.035267 ], [ -100.1542921, 80.0353986 ], [ -100.1529111, 80.0354884 ], [ -100.1527624, 80.0356048 ], [ -100.1529618, 80.0358131 ], [ -100.1532499, 80.0359938 ], [ -100.1531437, 80.0364175 ], [ -100.1528299, 80.0366154 ], [ -100.1521435, 80.0366691 ], [ -100.1521436, 80.0369945 ], [ -100.1524796, 80.0373857 ], [ -100.152335, 80.0375108 ], [ -100.1519338, 80.0376308 ], [ -100.1514261, 80.0378491 ], [ -100.1515545, 80.0380144 ], [ -100.1518044, 80.038222 ], [ -100.1515357, 80.038516 ], [ -100.1512941, 80.0386514 ], [ -100.1504588, 80.0388214 ], [ -100.1493614, 80.0394086 ], [ -100.1490926, 80.0397026 ], [ -100.1486284, 80.0397971 ], [ -100.1484291, 80.0399143 ], [ -100.14838, 80.0401349 ], [ -100.147864, 80.0403356 ], [ -100.1464619, 80.0407071 ], [ -100.1460373, 80.0409946 ], [ -100.1459608, 80.0413739 ], [ -100.1455034, 80.0415914 ], [ -100.1449586, 80.041731 ], [ -100.1443659, 80.0419856 ], [ -100.1445092, 80.0422914 ], [ -100.1444232, 80.0424333 ], [ -100.1441774, 80.0425599 ], [ -100.143511, 80.0426572 ], [ -100.1430207, 80.0428048 ], [ -100.1429618, 80.043439 ], [ -100.1416861, 80.0437559 ], [ -100.141649, 80.0443281 ], [ -100.1410453, 80.0444509 ], [ -100.1405563, 80.044493 ], [ -100.1399076, 80.0445196 ], [ -100.138957, 80.044445 ], [ -100.1375409, 80.0442449 ], [ -100.1360687, 80.0441424 ], [ -100.1355552, 80.044132 ], [ -100.1347563, 80.0440552 ], [ -100.1330768, 80.0437269 ], [ -100.1323653, 80.043728 ], [ -100.132129, 80.0437665 ], [ -100.132275, 80.0438612 ], [ -100.1328784, 80.0440639 ], [ -100.1330367, 80.0441848 ], [ -100.1325625, 80.0443673 ], [ -100.1329731, 80.0448102 ], [ -100.1327572, 80.0448924 ], [ -100.1315729, 80.0449705 ], [ -100.1313366, 80.045009 ], [ -100.1311151, 80.045188 ], [ -100.1308363, 80.0452447 ], [ -100.1300783, 80.0452552 ], [ -100.1285718, 80.0451883 ], [ -100.1280746, 80.0452129 ], [ -100.1277836, 80.0452433 ], [ -100.1273639, 80.0454339 ], [ -100.1268708, 80.0454672 ], [ -100.12552, 80.0454069 ], [ -100.1251866, 80.0454555 ], [ -100.1250253, 80.0455457 ], [ -100.1250604, 80.0457299 ], [ -100.1248567, 80.0458383 ], [ -100.1243033, 80.0459604 ], [ -100.1240082, 80.0459821 ], [ -100.1227992, 80.0460078 ], [ -100.1202517, 80.0459993 ], [ -100.1179952, 80.0459604 ], [ -100.1172493, 80.0459972 ], [ -100.1166794, 80.0460843 ], [ -100.1161201, 80.0463032 ], [ -100.1155886, 80.0463634 ], [ -100.113941, 80.0464303 ], [ -100.1131241, 80.0464241 ], [ -100.1128575, 80.046507 ], [ -100.1129128, 80.0467349 ], [ -100.1125956, 80.0468184 ], [ -100.1116254, 80.0469199 ], [ -100.1111891, 80.0470755 ], [ -100.1110435, 80.047746 ], [ -100.1108152, 80.0478019 ], [ -100.1102191, 80.0479421 ], [ -100.1094771, 80.0479876 ], [ -100.1069233, 80.0480759 ], [ -100.1061934, 80.0481477 ], [ -100.1058337, 80.0482494 ], [ -100.1056501, 80.0484015 ], [ -100.1061237, 80.0485444 ], [ -100.1072365, 80.0487488 ], [ -100.1076392, 80.0488487 ], [ -100.1077305, 80.0489354 ], [ -100.1073103, 80.049126 ], [ -100.1067158, 80.0491606 ], [ -100.1056419, 80.0491492 ], [ -100.1052496, 80.049181 ], [ -100.1049852, 80.0493782 ], [ -100.1053519, 80.0496193 ], [ -100.1050084, 80.049756 ], [ -100.1049136, 80.0498805 ], [ -100.1051408, 80.0501499 ], [ -100.1057662, 80.0502908 ], [ -100.1059707, 80.0504023 ], [ -100.1065182, 80.0509223 ], [ -100.1062456, 80.051102 ], [ -100.1050285, 80.05133 ], [ -100.1048366, 80.0514646 ], [ -100.105054, 80.0518222 ], [ -100.1048906, 80.0520179 ], [ -100.1047661, 80.0524066 ], [ -100.1055921, 80.0526502 ], [ -100.1056834, 80.0527369 ], [ -100.1050869, 80.0528771 ], [ -100.1052555, 80.0531298 ], [ -100.1048026, 80.0532504 ], [ -100.1048014, 80.0535758 ], [ -100.1050449, 80.0538802 ], [ -100.1048449, 80.0539974 ], [ -100.1044751, 80.0541872 ], [ -100.1037512, 80.0543819 ], [ -100.1033977, 80.0546067 ], [ -100.1033435, 80.0548185 ], [ -100.1036435, 80.0550254 ], [ -100.1036458, 80.0551397 ], [ -100.1033992, 80.0552663 ], [ -100.1033939, 80.0555829 ], [ -100.1032363, 80.0556819 ], [ -100.1028682, 80.0557661 ], [ -100.1025006, 80.0560702 ], [ -100.1025458, 80.0563862 ], [ -100.1022536, 80.0569619 ], [ -100.1023635, 80.0571978 ], [ -100.1033055, 80.0575805 ], [ -100.103231, 80.0577486 ], [ -100.1029559, 80.057814 ], [ -100.1019683, 80.0578805 ], [ -100.1017397, 80.0579364 ], [ -100.1016896, 80.058157 ], [ -100.1015703, 80.058229 ], [ -100.1001802, 80.0584153 ], [ -100.1002515, 80.0586782 ], [ -100.1000049, 80.0588047 ], [ -100.0987601, 80.058866 ], [ -100.0986733, 80.0590079 ], [ -100.0998137, 80.059379 ], [ -100.0992796, 80.0595447 ], [ -100.0989827, 80.0598918 ], [ -100.0994246, 80.0601846 ], [ -100.09936, 80.0602647 ], [ -100.0977549, 80.0604277 ], [ -100.0971335, 80.0605154 ], [ -100.0968786, 80.0606245 ], [ -100.0969197, 80.0609317 ], [ -100.0967073, 80.0610226 ], [ -100.095252, 80.061289 ], [ -100.0939988, 80.0613327 ], [ -100.0938207, 80.061388 ], [ -100.0937804, 80.0615204 ], [ -100.0940904, 80.0616392 ], [ -100.0937404, 80.0618727 ], [ -100.0941073, 80.0621139 ], [ -100.0941745, 80.062368 ], [ -100.0935352, 80.0627462 ], [ -100.093293, 80.0633211 ], [ -100.0926108, 80.0634976 ], [ -100.0924208, 80.0637465 ], [ -100.0916051, 80.0640744 ], [ -100.0907769, 80.0641562 ], [ -100.0905138, 80.0642478 ], [ -100.0903602, 80.0645753 ], [ -100.0896397, 80.0649985 ], [ -100.0894821, 80.0653173 ], [ -100.0897111, 80.0654812 ], [ -100.089452, 80.0655815 ], [ -100.0887328, 80.0654595 ], [ -100.0881434, 80.0653973 ], [ -100.0872663, 80.0653743 ], [ -100.0876413, 80.0656329 ], [ -100.0875887, 80.0657392 ], [ -100.0872789, 80.0658402 ], [ -100.0868516, 80.0659077 ], [ -100.0856019, 80.0659601 ], [ -100.0848384, 80.0661817 ], [ -100.0842713, 80.0662775 ], [ -100.0839008, 80.0664673 ], [ -100.0829873, 80.0665854 ], [ -100.0811197, 80.0667343 ], [ -100.0800704, 80.0668895 ], [ -100.0785067, 80.0674739 ], [ -100.0783142, 80.0676084 ], [ -100.078606, 80.0680177 ], [ -100.078215, 80.0681638 ], [ -100.0776943, 80.0682501 ], [ -100.0774715, 80.068429 ], [ -100.0775971, 80.0686999 ], [ -100.0772608, 80.068854 ], [ -100.0770034, 80.0690686 ], [ -100.0771594, 80.0692951 ], [ -100.0778078, 80.0695939 ], [ -100.0791329, 80.069813 ], [ -100.0791573, 80.0698654 ], [ -100.0782982, 80.0699916 ], [ -100.0771999, 80.0700419 ], [ -100.0767177, 80.0701013 ], [ -100.0766265, 80.0704543 ], [ -100.0759193, 80.0705784 ], [ -100.0752181, 80.0708254 ], [ -100.0746081, 80.0709394 ], [ -100.0742371, 80.071349 ], [ -100.073471, 80.0716761 ], [ -100.0728367, 80.0717376 ], [ -100.0716086, 80.0717281 ], [ -100.0677359, 80.0716232 ], [ -100.0628497, 80.071752 ], [ -100.0607133, 80.0719836 ], [ -100.0587146, 80.0722924 ], [ -100.0578447, 80.0725066 ], [ -100.0571982, 80.0725419 ], [ -100.0559623, 80.0722951 ], [ -100.0552696, 80.0721199 ], [ -100.0547468, 80.072092 ], [ -100.0544428, 80.0720961 ], [ -100.0541123, 80.0721534 ], [ -100.0538746, 80.0724117 ], [ -100.0538311, 80.0728695 ], [ -100.0530985, 80.0741545 ], [ -100.0515104, 80.0745807 ], [ -100.0512622, 80.074927 ], [ -100.0517282, 80.0750525 ], [ -100.051829, 80.0752709 ], [ -100.0512998, 80.0753397 ], [ -100.0513643, 80.0754795 ], [ -100.0518643, 80.0757892 ], [ -100.0517952, 80.0758605 ], [ -100.0512596, 80.0760261 ], [ -100.0512066, 80.0761323 ], [ -100.0519803, 80.0764822 ], [ -100.0510893, 80.0768725 ], [ -100.0511135, 80.0769249 ], [ -100.0518468, 80.0771874 ], [ -100.0514287, 80.0773866 ], [ -100.0516937, 80.0776291 ], [ -100.051192, 80.0779789 ], [ -100.0511587, 80.0783486 ], [ -100.0508033, 80.0785733 ], [ -100.0504887, 80.0786655 ], [ -100.0506582, 80.0790325 ], [ -100.0502446, 80.0797943 ], [ -100.0503144, 80.0802769 ], [ -100.0489205, 80.0812367 ], [ -100.0484284, 80.0817182 ], [ -100.0482572, 80.0820107 ], [ -100.0485615, 80.0827802 ], [ -100.0484433, 80.0829665 ], [ -100.0477909, 80.0834326 ], [ -100.0475603, 80.0839281 ], [ -100.047298, 80.0841339 ], [ -100.0461935, 80.0843952 ], [ -100.0452734, 80.0847243 ], [ -100.045003, 80.0849126 ], [ -100.0453793, 80.0852855 ], [ -100.0457885, 80.0855084 ], [ -100.0458974, 80.0857443 ], [ -100.0454771, 80.0858292 ], [ -100.044097, 80.085936 ], [ -100.0435382, 80.0861634 ], [ -100.0426052, 80.0866861 ], [ -100.0429027, 80.0875524 ], [ -100.042732, 80.0876251 ], [ -100.0422915, 80.0876662 ], [ -100.041785, 80.0880072 ], [ -100.0409523, 80.0881945 ], [ -100.0398288, 80.0885263 ], [ -100.0392384, 80.0890179 ], [ -100.0389469, 80.0893823 ], [ -100.0380971, 80.0897544 ], [ -100.0364343, 80.0909111 ], [ -100.036522, 80.0913231 ], [ -100.0363246, 80.0914489 ], [ -100.0356301, 80.0914935 ], [ -100.0345859, 80.091666 ], [ -100.0339518, 80.0918417 ], [ -100.0334674, 80.0921208 ], [ -100.0327624, 80.0922535 ], [ -100.0325445, 80.0928894 ], [ -100.0326452, 80.0931078 ], [ -100.0323211, 80.0934024 ], [ -100.0307228, 80.0939252 ], [ -100.0304445, 80.0944301 ], [ -100.0296754, 80.094757 ], [ -100.0284784, 80.0949316 ], [ -100.0267661, 80.0954296 ], [ -100.0244217, 80.0959978 ], [ -100.0232479, 80.0967785 ], [ -100.0228833, 80.0969857 ], [ -100.0213977, 80.0975333 ], [ -100.0211064, 80.0976779 ], [ -100.0203234, 80.0978644 ], [ -100.0196912, 80.0979345 ], [ -100.0167922, 80.0979651 ], [ -100.0149919, 80.0980512 ], [ -100.0076286, 80.0982654 ], [ -100.0052814, 80.0983852 ], [ -100.0034609, 80.0984274 ], [ -100.0015068, 80.0984012 ], [ -100.0003077, 80.0984614 ], [ -100.0, 80.098512 ], [ -100.0, 80.0 ], [ -100.14899, 80.0 ], [ -100.1494188, 80.0001703 ] ] ] ] } },
{ "type": "Feature", "properties": { "FID": 784907, "id": 542, "left": -105.0, "top": 85.0, "right": -100.0, "bottom": 80.0, "row_index": 1, "col_index": 15, "min_lon": -105.0, "min_lat": 80.0, "tile_id": "-105_80" }, "geometry": { "type": "MultiPolygon", "coordinates": [ [ [ [ -100.1519175, 80.0885155 ], [ -100.152388, 80.0887552 ], [ -100.1529754, 80.0894591 ], [ -100.1532909, 80.0895866 ], [ -100.1543469, 80.0896598 ], [ -100.1545403, 80.089745 ], [ -100.1542003, 80.0898904 ], [ -100.1524135, 80.0901088 ], [ -100.1513631, 80.0905895 ], [ -100.1503319, 80.0908941 ], [ -100.1501552, 80.0914944 ], [ -100.1491252, 80.0920187 ], [ -100.1488139, 80.0925506 ], [ -100.1480637, 80.0930183 ], [ -100.1477756, 80.0930575 ], [ -100.147172, 80.0929692 ], [ -100.146331, 80.0925941 ], [ -100.1457988, 80.0922234 ], [ -100.1461691, 80.0917083 ], [ -100.1470195, 80.0910194 ], [ -100.1478547, 80.0905154 ], [ -100.1481179, 80.0897732 ], [ -100.1485594, 80.089301 ], [ -100.149729, 80.0887483 ], [ -100.1507423, 80.0885144 ], [ -100.1519175, 80.0885155 ] ] ] ] } },
{ "type": "Feature", "properties": { "FID": 784908, "id": 542, "left": -105.0, "top": 85.0, "right": -100.0, "bottom": 80.0, "row_index": 1, "col_index": 15, "min_lon": -105.0, "min_lat": 80.0, "tile_id": "-105_80" }, "geometry": { "type": "MultiPolygon", "coordinates": [ [ [ [ -100.071276, 80.0755224 ], [ -100.0709335, 80.0753336 ], [ -100.0709338, 80.074894 ], [ -100.0704516, 80.0745138 ], [ -100.0696247, 80.0742702 ], [ -100.0692033, 80.074021 ], [ -100.0683115, 80.0738574 ], [ -100.0670468, 80.0737693 ], [ -100.0664956, 80.0736802 ], [ -100.0666538, 80.0735813 ], [ -100.0696255, 80.0731711 ], [ -100.0704241, 80.0731337 ], [ -100.0740663, 80.0731802 ], [ -100.0771207, 80.0732788 ], [ -100.0799604, 80.0735737 ], [ -100.0849125, 80.0740242 ], [ -100.0867916, 80.0742268 ], [ -100.089873, 80.074492 ], [ -100.0933618, 80.074646 ], [ -100.0992, 80.074697 ], [ -100.1095828, 80.0746498 ], [ -100.1143986, 80.0744774 ], [ -100.1216236, 80.0741132 ], [ -100.1231822, 80.0740651 ], [ -100.1251257, 80.0739677 ], [ -100.1292505, 80.0739542 ], [ -100.1327453, 80.074011 ], [ -100.1353143, 80.0741599 ], [ -100.137241, 80.0743528 ], [ -100.1380831, 80.0745169 ], [ -100.1386172, 80.0746766 ], [ -100.1406261, 80.0750442 ], [ -100.1410328, 80.0752584 ], [ -100.141308, 80.0755183 ], [ -100.142157, 80.0758054 ], [ -100.1444471, 80.0763362 ], [ -100.1448292, 80.076498 ], [ -100.145173, 80.077012 ], [ -100.1468716, 80.0772608 ], [ -100.1475581, 80.078069 ], [ -100.1485391, 80.0786356 ], [ -100.1492203, 80.0795406 ], [ -100.1497698, 80.0798407 ], [ -100.1515992, 80.0801492 ], [ -100.1516473, 80.0803596 ], [ -100.1500826, 80.0808299 ], [ -100.1491742, 80.0811768 ], [ -100.1487782, 80.0814197 ], [ -100.1478162, 80.081653 ], [ -100.146983, 80.0817262 ], [ -100.1465609, 80.0816969 ], [ -100.1464732, 80.081619 ], [ -100.1477394, 80.0813815 ], [ -100.1476517, 80.0813036 ], [ -100.145703, 80.0807416 ], [ -100.1429557, 80.0802173 ], [ -100.1419651, 80.080064 ], [ -100.1398331, 80.0799795 ], [ -100.1386902, 80.0801537 ], [ -100.1364676, 80.0802023 ], [ -100.1345463, 80.0804577 ], [ -100.1324317, 80.0806278 ], [ -100.1284775, 80.0812281 ], [ -100.1258459, 80.0814933 ], [ -100.123246, 80.0816086 ], [ -100.1213846, 80.0817752 ], [ -100.1195959, 80.0818792 ], [ -100.118931, 80.0819851 ], [ -100.1180894, 80.0820408 ], [ -100.116416, 80.082064 ], [ -100.115185, 80.0821602 ], [ -100.1141749, 80.0821831 ], [ -100.1135721, 80.0820947 ], [ -100.1129956, 80.0819532 ], [ -100.1118089, 80.0819257 ], [ -100.1094844, 80.0819756 ], [ -100.108395, 80.0819379 ], [ -100.1071389, 80.0817619 ], [ -100.105694, 80.0815094 ], [ -100.105539, 80.0811774 ], [ -100.1048916, 80.0809929 ], [ -100.1036234, 80.0807907 ], [ -100.0956939, 80.0800915 ], [ -100.0939008, 80.0799669 ], [ -100.0923716, 80.0799704 ], [ -100.0912622, 80.0798891 ], [ -100.0904832, 80.0797503 ], [ -100.0900774, 80.0795361 ], [ -100.0892681, 80.0794418 ], [ -100.0884244, 80.0793831 ], [ -100.0873514, 80.0791606 ], [ -100.0851165, 80.0789628 ], [ -100.0821638, 80.0787574 ], [ -100.0808699, 80.0786082 ], [ -100.0801683, 80.0784156 ], [ -100.0791036, 80.0779907 ], [ -100.0768366, 80.077723 ], [ -100.0732357, 80.0772187 ], [ -100.0725951, 80.0769374 ], [ -100.0728001, 80.0763894 ], [ -100.0728348, 80.0759141 ], [ -100.071276, 80.0755224 ] ] ] ] } }
]
}
