{
"type": "FeatureCollection",
"name": "-105_-90",
"crs": { "type": "name", "properties": { "name": "urn:ogc:def:crs:OGC:1.3:CRS84" } },
"xy_coordinate_resolution": 1e-15,
"features": [
{ "type": "Feature", "properties": { "FID": 307096, "id": 576, "left": -105.0, "top": -85.0, "right": -100.0, "bottom": -90.0, "row_index": 35, "col_index": 15, "min_lon": -105.0, "min_lat": -90.0, "tile_id": "-105_-90" }, "geometry": { "type": "MultiPolygon", "coordinates": [ [ [ [ -101.0, -90.0 ], [ -102.0, -90.0 ], [ -103.0, -90.0 ], [ -104.0, -90.0 ], [ -105.0, -90.0 ], [ -105.0, -85.0 ], [ -100.0, -85.0 ], [ -100.0, -90.0 ], [ -101.0, -90.0 ] ] ] ] } }
]
}
