{
"type": "FeatureCollection",
"name": "-10_-45",
"crs": { "type": "name", "properties": { "name": "urn:ogc:def:crs:OGC:1.3:CRS84" } },
"xy_coordinate_resolution": 1e-15,
"features": [
{ "type": "Feature", "properties": { "FID": 119999, "id": 1251, "left": -10.0, "top": -40.0, "right": -5.0, "bottom": -45.0, "row_index": 26, "col_index": 34, "min_lon": -10.0, "min_lat": -45.0, "tile_id": "-10_-45" }, "geometry": { "type": "MultiPolygon", "coordinates": [ [ [ [ -9.9035418, -40.3162807 ], [ -9.9032977, -40.316203 ], [ -9.90311, -40.3160251 ], [ -9.9028686, -40.3158554 ], [ -9.9026594, -40.3157592 ], [ -9.902477, -40.3157142 ], [ -9.9022919, -40.3156999 ], [ -9.9021846, -40.3157388 ], [ -9.902139, -40.3157879 ], [ -9.902072, -40.3159167 ], [ -9.9020371, -40.3162398 ], [ -9.9020129, -40.3163666 ], [ -9.901962, -40.3165098 ], [ -9.9019352, -40.3166959 ], [ -9.9019003, -40.3168248 ], [ -9.9018601, -40.3169045 ], [ -9.9017715, -40.3169904 ], [ -9.901624, -40.3171152 ], [ -9.9015489, -40.3172399 ], [ -9.9014148, -40.3174587 ], [ -9.9013156, -40.3176817 ], [ -9.901278, -40.3178166 ], [ -9.9011815, -40.3181152 ], [ -9.9009562, -40.3183115 ], [ -9.9007523, -40.3184629 ], [ -9.9005163, -40.318516 ], [ -9.90035, -40.3185324 ], [ -9.9001569, -40.3185365 ], [ -9.8999637, -40.3186388 ], [ -9.8997653, -40.3187655 ], [ -9.899556, -40.3188146 ], [ -9.8993522, -40.3188433 ], [ -9.8990518, -40.3189741 ], [ -9.8988104, -40.3191868 ], [ -9.8985958, -40.319285 ], [ -9.8985153, -40.31933 ], [ -9.8981988, -40.3196122 ], [ -9.8981345, -40.3197635 ], [ -9.8981506, -40.3199435 ], [ -9.8982418, -40.3201766 ], [ -9.8983437, -40.320373 ], [ -9.8986387, -40.3207738 ], [ -9.8988694, -40.3209578 ], [ -9.899033, -40.3210499 ], [ -9.8991644, -40.321195 ], [ -9.8993361, -40.32142 ], [ -9.8994595, -40.3216449 ], [ -9.8995239, -40.3219128 ], [ -9.8994997, -40.3220601 ], [ -9.8993897, -40.3222012 ], [ -9.8993066, -40.3222666 ], [ -9.8992074, -40.3222666 ], [ -9.8991376, -40.3222032 ], [ -9.8990974, -40.3221112 ], [ -9.899025, -40.322056 ], [ -9.8989338, -40.3220314 ], [ -9.8988292, -40.3220437 ], [ -9.8987031, -40.3220887 ], [ -9.8986039, -40.3221316 ], [ -9.8985288, -40.322148 ], [ -9.8984644, -40.3221685 ], [ -9.8984188, -40.3222134 ], [ -9.8984322, -40.3222646 ], [ -9.8985556, -40.3222789 ], [ -9.89862, -40.322283 ], [ -9.898679, -40.3223464 ], [ -9.8987326, -40.3224588 ], [ -9.8987138, -40.3226613 ], [ -9.8986682, -40.3228085 ], [ -9.8986039, -40.3228658 ], [ -9.8984966, -40.3229783 ], [ -9.8984268, -40.323105 ], [ -9.8983356, -40.3235672 ], [ -9.8983115, -40.3237308 ], [ -9.8983115, -40.3237962 ], [ -9.8984, -40.3239864 ], [ -9.8984617, -40.3241991 ], [ -9.8984644, -40.3243197 ], [ -9.8984268, -40.3244261 ], [ -9.8982471, -40.3246081 ], [ -9.8980406, -40.3247123 ], [ -9.8979977, -40.3247532 ], [ -9.8978797, -40.3248964 ], [ -9.8977482, -40.325244 ], [ -9.8975605, -40.3256203 ], [ -9.8973244, -40.3259842 ], [ -9.8971635, -40.3262501 ], [ -9.8969758, -40.3265118 ], [ -9.8966217, -40.3268226 ], [ -9.8962086, -40.3270435 ], [ -9.89586, -40.3271703 ], [ -9.8956132, -40.3272766 ], [ -9.8953986, -40.3274361 ], [ -9.8952162, -40.3276692 ], [ -9.8949105, -40.3279964 ], [ -9.8947495, -40.3282663 ], [ -9.8945725, -40.3284012 ], [ -9.8942882, -40.3284585 ], [ -9.8939771, -40.3284994 ], [ -9.8934299, -40.328573 ], [ -9.8930168, -40.3286302 ], [ -9.8926789, -40.3287529 ], [ -9.8924375, -40.3288797 ], [ -9.8922443, -40.3289738 ], [ -9.8918849, -40.3290392 ], [ -9.8914665, -40.3290555 ], [ -9.891032, -40.3290801 ], [ -9.8907638, -40.3291046 ], [ -9.8900825, -40.3292314 ], [ -9.8895031, -40.3293663 ], [ -9.8890042, -40.3296731 ], [ -9.8883712, -40.3302374 ], [ -9.8877597, -40.3307608 ], [ -9.8873305, -40.3313906 ], [ -9.887116, -40.3317423 ], [ -9.8865366, -40.3321594 ], [ -9.8857749, -40.3324947 ], [ -9.8851419, -40.332691 ], [ -9.8847985, -40.332781 ], [ -9.8844123, -40.3328914 ], [ -9.8838866, -40.3330918 ], [ -9.8834842, -40.3332431 ], [ -9.8832268, -40.3333944 ], [ -9.8830444, -40.3340078 ], [ -9.8829961, -40.3341857 ], [ -9.8829746, -40.3343615 ], [ -9.8827413, -40.3344719 ], [ -9.8824329, -40.3345046 ], [ -9.8823175, -40.3343778 ], [ -9.8821297, -40.3342981 ], [ -9.8818481, -40.3342858 ], [ -9.8814511, -40.3343063 ], [ -9.8812419, -40.3343553 ], [ -9.8810273, -40.3344535 ], [ -9.8807913, -40.3345312 ], [ -9.8803783, -40.3345557 ], [ -9.8800618, -40.3345353 ], [ -9.8796272, -40.3344249 ], [ -9.8794019, -40.3343921 ], [ -9.8792785, -40.3344003 ], [ -9.8792195, -40.3344617 ], [ -9.8791927, -40.3345966 ], [ -9.8791766, -40.3347929 ], [ -9.8792303, -40.3349646 ], [ -9.879241, -40.3350669 ], [ -9.8792437, -40.3352263 ], [ -9.8792598, -40.3353572 ], [ -9.8793188, -40.3354778 ], [ -9.8793456, -40.3356291 ], [ -9.879292, -40.3357579 ], [ -9.8791739, -40.335854 ], [ -9.8789781, -40.3361464 ], [ -9.8789379, -40.3362956 ], [ -9.8789513, -40.3363938 ], [ -9.8790211, -40.3365246 ], [ -9.8791907, -40.3366135 ], [ -9.8792252, -40.3367057 ], [ -9.879371, -40.3369802 ], [ -9.8793069, -40.3375664 ], [ -9.879405, -40.3382098 ], [ -9.8792008, -40.3385753 ], [ -9.8792141, -40.3387245 ], [ -9.8791096, -40.338837 ], [ -9.8789218, -40.3389269 ], [ -9.878769, -40.3390086 ], [ -9.8785141, -40.3391722 ], [ -9.8783934, -40.3392622 ], [ -9.8783425, -40.3393603 ], [ -9.8782727, -40.3394564 ], [ -9.8782003, -40.3395055 ], [ -9.8781118, -40.3395689 ], [ -9.8780394, -40.3396833 ], [ -9.8779723, -40.3397815 ], [ -9.8778972, -40.3398633 ], [ -9.8778006, -40.3399103 ], [ -9.8777416, -40.339898 ], [ -9.8774734, -40.3398878 ], [ -9.8772374, -40.3398265 ], [ -9.8771006, -40.3397345 ], [ -9.8769397, -40.3396241 ], [ -9.8766392, -40.3394278 ], [ -9.8764595, -40.3393808 ], [ -9.8763469, -40.3393767 ], [ -9.8762584, -40.3393889 ], [ -9.8761296, -40.339438 ], [ -9.8759285, -40.3395218 ], [ -9.8757461, -40.3396302 ], [ -9.8756093, -40.3396977 ], [ -9.8755261, -40.3398224 ], [ -9.8755315, -40.3399757 ], [ -9.8756066, -40.3401188 ], [ -9.8756897, -40.3401781 ], [ -9.875789, -40.3402415 ], [ -9.87584, -40.3403335 ], [ -9.8759419, -40.3404684 ], [ -9.8760465, -40.3405645 ], [ -9.8761296, -40.3406054 ], [ -9.8762289, -40.3406013 ], [ -9.8764488, -40.340544 ], [ -9.8766527, -40.3404807 ], [ -9.8769611, -40.3404214 ], [ -9.8772401, -40.3404316 ], [ -9.8774385, -40.3404725 ], [ -9.8775673, -40.3405686 ], [ -9.8776719, -40.3409141 ], [ -9.8777068, -40.3414211 ], [ -9.8777148, -40.3418279 ], [ -9.8776799, -40.3419649 ], [ -9.8776799, -40.3421182 ], [ -9.8777309, -40.3422307 ], [ -9.8778489, -40.3423186 ], [ -9.8779911, -40.3424453 ], [ -9.8781627, -40.3425925 ], [ -9.8784953, -40.3429871 ], [ -9.8787287, -40.343214 ], [ -9.8788226, -40.3433571 ], [ -9.8788038, -40.3434757 ], [ -9.8787636, -40.343584 ], [ -9.8786429, -40.34377 ], [ -9.87849, -40.3438723 ], [ -9.8783398, -40.3440276 ], [ -9.8782647, -40.3443241 ], [ -9.8781627, -40.3446777 ], [ -9.8781735, -40.3449312 ], [ -9.8781359, -40.3451459 ], [ -9.8780957, -40.3452522 ], [ -9.8779562, -40.3454341 ], [ -9.877629, -40.3456487 ], [ -9.8775592, -40.3457142 ], [ -9.87746, -40.3458389 ], [ -9.8773044, -40.3459186 ], [ -9.8772025, -40.3459697 ], [ -9.8770094, -40.3460269 ], [ -9.8767975, -40.3460699 ], [ -9.8765749, -40.3461373 ], [ -9.8764837, -40.3461741 ], [ -9.8763469, -40.3462579 ], [ -9.8762986, -40.3463663 ], [ -9.8762932, -40.3465114 ], [ -9.8763308, -40.3466341 ], [ -9.8763979, -40.3467588 ], [ -9.8765293, -40.3467996 ], [ -9.8767331, -40.3468385 ], [ -9.8769584, -40.3468651 ], [ -9.877055, -40.3469019 ], [ -9.8771006, -40.3469611 ], [ -9.8771167, -40.3470388 ], [ -9.877055, -40.3470879 ], [ -9.8768404, -40.3472187 ], [ -9.8767653, -40.3473598 ], [ -9.8768136, -40.3474967 ], [ -9.8768431, -40.3475396 ], [ -9.8769236, -40.3475867 ], [ -9.8770201, -40.3476051 ], [ -9.8771381, -40.3475989 ], [ -9.8775217, -40.3475948 ], [ -9.8776075, -40.3476153 ], [ -9.8776853, -40.3476664 ], [ -9.8777792, -40.3477911 ], [ -9.8778811, -40.3479403 ], [ -9.8779616, -40.3480957 ], [ -9.8780125, -40.3481652 ], [ -9.8780447, -40.3482653 ], [ -9.8779884, -40.3483451 ], [ -9.8779482, -40.34839 ], [ -9.8778731, -40.3484054 ], [ -9.87781, -40.3484289 ], [ -9.8777805, -40.348482 ], [ -9.8777872, -40.3485495 ], [ -9.877865, -40.3487069 ], [ -9.8779723, -40.3488111 ], [ -9.8780501, -40.3488111 ], [ -9.8781654, -40.348758 ], [ -9.8783827, -40.3486353 ], [ -9.878616, -40.3485004 ], [ -9.8787019, -40.3484902 ], [ -9.8788628, -40.3485331 ], [ -9.8789352, -40.3486088 ], [ -9.8788896, -40.3487294 ], [ -9.8787528, -40.3488336 ], [ -9.8786965, -40.3489338 ], [ -9.8786321, -40.3490176 ], [ -9.8785597, -40.3492935 ], [ -9.8786026, -40.349502 ], [ -9.8786206, -40.3497632 ], [ -9.8787247, -40.3501378 ], [ -9.878789, -40.350289 ], [ -9.8788507, -40.3504117 ], [ -9.8789419, -40.3505016 ], [ -9.879064, -40.3505548 ], [ -9.8791377, -40.3505691 ], [ -9.8792128, -40.3505721 ], [ -9.8793416, -40.3505558 ], [ -9.8794314, -40.3505251 ], [ -9.8795401, -40.3504883 ], [ -9.8796279, -40.3504699 ], [ -9.8797687, -40.3504684 ], [ -9.879937, -40.350472 ], [ -9.8800182, -40.3504572 ], [ -9.8800567, -40.3503932 ], [ -9.8801643, -40.3503727 ], [ -9.8803062, -40.350423 ], [ -9.8803581, -40.3503442 ], [ -9.8804225, -40.3502451 ], [ -9.8804842, -40.3501899 ], [ -9.8806733, -40.3501419 ], [ -9.8807752, -40.3501449 ], [ -9.8808181, -40.3501746 ], [ -9.8809308, -40.3502349 ], [ -9.8810072, -40.3503064 ], [ -9.8810796, -40.3503933 ], [ -9.8811279, -40.3505047 ], [ -9.8811507, -40.3507122 ], [ -9.8811319, -40.3510086 ], [ -9.8811695, -40.3512927 ], [ -9.8812205, -40.3514235 ], [ -9.8813197, -40.3515625 ], [ -9.8815021, -40.3516422 ], [ -9.8816335, -40.3516974 ], [ -9.8819768, -40.3517914 ], [ -9.8823658, -40.3518998 ], [ -9.8825616, -40.3519631 ], [ -9.8827627, -40.3520408 ], [ -9.8829398, -40.3521348 ], [ -9.883035, -40.3522575 ], [ -9.8830014, -40.3523709 ], [ -9.8829237, -40.3524782 ], [ -9.8827989, -40.3525907 ], [ -9.8827185, -40.352697 ], [ -9.8826849, -40.3528339 ], [ -9.8826098, -40.3530117 ], [ -9.882524, -40.3532243 ], [ -9.8824784, -40.3533245 ], [ -9.8824194, -40.3534696 ], [ -9.8824382, -40.3537047 ], [ -9.8825857, -40.353999 ], [ -9.8826957, -40.3542218 ], [ -9.8826957, -40.3543117 ], [ -9.882634, -40.3545304 ], [ -9.8825026, -40.3547124 ], [ -9.8824355, -40.354835 ], [ -9.8824462, -40.3549167 ], [ -9.8824757, -40.3549678 ], [ -9.8825401, -40.3550169 ], [ -9.8826313, -40.355068 ], [ -9.8826715, -40.3551334 ], [ -9.8826581, -40.3552397 ], [ -9.8826045, -40.3553603 ], [ -9.8825321, -40.3554584 ], [ -9.8823765, -40.355626 ], [ -9.882229, -40.3557139 ], [ -9.8820975, -40.3557568 ], [ -9.8819554, -40.3557691 ], [ -9.8817891, -40.3557568 ], [ -9.881604, -40.3556648 ], [ -9.8815075, -40.3556444 ], [ -9.8814458, -40.3556424 ], [ -9.8814055, -40.3556894 ], [ -9.8814243, -40.3557589 ], [ -9.881486, -40.3558059 ], [ -9.8815772, -40.355906 ], [ -9.8816362, -40.3559694 ], [ -9.8817006, -40.3560409 ], [ -9.881781, -40.3560614 ], [ -9.8818776, -40.356043 ], [ -9.881942, -40.3560082 ], [ -9.8820654, -40.3559694 ], [ -9.882229, -40.3559551 ], [ -9.8823068, -40.3559837 ], [ -9.8824355, -40.3560471 ], [ -9.8826474, -40.3561329 ], [ -9.8830256, -40.3562514 ], [ -9.8831812, -40.3563434 ], [ -9.8832804, -40.3564538 ], [ -9.8834172, -40.3565642 ], [ -9.8835513, -40.3566725 ], [ -9.8835889, -40.3567706 ], [ -9.8835835, -40.3568973 ], [ -9.8835567, -40.3570033 ], [ -9.8835352, -40.3571119 ], [ -9.8834494, -40.35721 ], [ -9.8833528, -40.3572857 ], [ -9.8832992, -40.3573899 ], [ -9.883326, -40.357533 ], [ -9.8834252, -40.357582 ], [ -9.8836371, -40.3576229 ], [ -9.8839188, -40.3577415 ], [ -9.8840797, -40.3579091 ], [ -9.8842514, -40.3581625 ], [ -9.8843801, -40.3583955 ], [ -9.884423, -40.3585549 ], [ -9.884482, -40.3586735 ], [ -9.8845035, -40.3588533 ], [ -9.8844552, -40.3590454 ], [ -9.8844042, -40.3591803 ], [ -9.8843318, -40.3592253 ], [ -9.8842353, -40.3593132 ], [ -9.884195, -40.3594501 ], [ -9.8841307, -40.3595584 ], [ -9.88401, -40.3596545 ], [ -9.8839134, -40.3597342 ], [ -9.8836881, -40.3598139 ], [ -9.8835057, -40.3598487 ], [ -9.8833421, -40.3598875 ], [ -9.8832268, -40.3599141 ], [ -9.8831275, -40.3599938 ], [ -9.8831034, -40.3600633 ], [ -9.8831061, -40.3601634 ], [ -9.8832053, -40.3602288 ], [ -9.8833421, -40.3602677 ], [ -9.883495, -40.3603331 ], [ -9.8836049, -40.3604312 ], [ -9.8837042, -40.3605599 ], [ -9.8837525, -40.3606417 ], [ -9.8838973, -40.360797 ], [ -9.8842192, -40.3610096 ], [ -9.8843613, -40.3611485 ], [ -9.8844364, -40.3612242 ], [ -9.8844391, -40.3613468 ], [ -9.8843747, -40.3614531 ], [ -9.8842809, -40.3615328 ], [ -9.884254, -40.3615798 ], [ -9.8842675, -40.3616227 ], [ -9.8843157, -40.3616595 ], [ -9.8844177, -40.3616615 ], [ -9.8845652, -40.3616247 ], [ -9.8847181, -40.3616023 ], [ -9.8848468, -40.3616452 ], [ -9.8849997, -40.3617208 ], [ -9.8850855, -40.361825 ], [ -9.885048, -40.3619333 ], [ -9.8849541, -40.3620253 ], [ -9.8848039, -40.3621295 ], [ -9.884533, -40.3624279 ], [ -9.8845062, -40.3625424 ], [ -9.8844954, -40.3628285 ], [ -9.8845625, -40.3630962 ], [ -9.8846215, -40.3633537 ], [ -9.8847288, -40.3634396 ], [ -9.8850077, -40.363554 ], [ -9.8852813, -40.3636358 ], [ -9.8856568, -40.3637502 ], [ -9.8858929, -40.3639096 ], [ -9.8859733, -40.3640527 ], [ -9.8860323, -40.3642366 ], [ -9.8860753, -40.364584 ], [ -9.8861665, -40.3647026 ], [ -9.8863328, -40.3647516 ], [ -9.8866385, -40.3647026 ], [ -9.8869497, -40.3646208 ], [ -9.8871696, -40.3645473 ], [ -9.8873735, -40.3645391 ], [ -9.8876256, -40.3646413 ], [ -9.888044, -40.3648538 ], [ -9.8884195, -40.3652176 ], [ -9.888559, -40.3654506 ], [ -9.8885456, -40.3655854 ], [ -9.8885107, -40.3657326 ], [ -9.8884892, -40.3658389 ], [ -9.8884758, -40.3659247 ], [ -9.8885295, -40.3660616 ], [ -9.8885965, -40.3662006 ], [ -9.8886529, -40.3662925 ], [ -9.8886824, -40.3663865 ], [ -9.8887172, -40.3665153 ], [ -9.8887709, -40.3666093 ], [ -9.8891142, -40.3668361 ], [ -9.8892644, -40.3669915 ], [ -9.88931, -40.3671284 ], [ -9.8893529, -40.3672714 ], [ -9.88942, -40.3674615 ], [ -9.8894495, -40.3675657 ], [ -9.8894817, -40.3676045 ], [ -9.8895299, -40.367627 ], [ -9.8896855, -40.3676004 ], [ -9.8898223, -40.3675759 ], [ -9.8900503, -40.3675207 ], [ -9.8901334, -40.367437 ], [ -9.8901683, -40.3673246 ], [ -9.8902541, -40.3672326 ], [ -9.8903775, -40.3672408 ], [ -9.8905063, -40.367298 ], [ -9.8905787, -40.3673879 ], [ -9.8906565, -40.367488 ], [ -9.8907101, -40.3676045 ], [ -9.8907262, -40.3677088 ], [ -9.8908308, -40.3677782 ], [ -9.8909918, -40.3678171 ], [ -9.8911983, -40.3678702 ], [ -9.891268, -40.3679131 ], [ -9.8913351, -40.3680051 ], [ -9.8913458, -40.368142 ], [ -9.8913887, -40.368377 ], [ -9.8914665, -40.3685793 ], [ -9.8916033, -40.3687551 ], [ -9.8918125, -40.3690146 ], [ -9.8918018, -40.3691576 ], [ -9.8916623, -40.3692189 ], [ -9.8915121, -40.3692333 ], [ -9.8912948, -40.3692516 ], [ -9.891099, -40.3694335 ], [ -9.8910856, -40.3695888 ], [ -9.8910776, -40.369691 ], [ -9.8911232, -40.3697932 ], [ -9.8912573, -40.369926 ], [ -9.8914719, -40.3701549 ], [ -9.8917937, -40.3703224 ], [ -9.892298, -40.3705023 ], [ -9.8929364, -40.3706862 ], [ -9.8931778, -40.3707965 ], [ -9.8935372, -40.3709314 ], [ -9.8939556, -40.3710254 ], [ -9.8942667, -40.3710418 ], [ -9.8944813, -40.3710826 ], [ -9.8947281, -40.3711725 ], [ -9.8950285, -40.3711685 ], [ -9.8954254, -40.3710949 ], [ -9.8961389, -40.3709559 ], [ -9.8964125, -40.3708701 ], [ -9.8966378, -40.3706821 ], [ -9.8967719, -40.370535 ], [ -9.896788, -40.3702039 ], [ -9.8966539, -40.3697748 ], [ -9.8965681, -40.3694928 ], [ -9.896552, -40.3693129 ], [ -9.8966217, -40.3690841 ], [ -9.8968041, -40.3689206 ], [ -9.8971742, -40.3687571 ], [ -9.8976624, -40.3685895 ], [ -9.8978314, -40.3685446 ], [ -9.8979092, -40.3684833 ], [ -9.897995, -40.3683668 ], [ -9.8981693, -40.3681318 ], [ -9.8983142, -40.3679887 ], [ -9.8986843, -40.3677353 ], [ -9.8991027, -40.367438 ], [ -9.8994206, -40.3673215 ], [ -9.8996888, -40.3672765 ], [ -9.8999369, -40.3672489 ], [ -9.9002239, -40.3672346 ], [ -9.9003728, -40.3672193 ], [ -9.9005257, -40.3671764 ], [ -9.9009092, -40.367017 ], [ -9.9010058, -40.3669955 ], [ -9.9010983, -40.3670027 ], [ -9.9011453, -40.3670293 ], [ -9.9011949, -40.3670773 ], [ -9.9012619, -40.3671519 ], [ -9.9013223, -40.3671795 ], [ -9.9013692, -40.3671733 ], [ -9.9014175, -40.3671366 ], [ -9.9014953, -40.3670487 ], [ -9.9015892, -40.3670303 ], [ -9.9017501, -40.3670712 ], [ -9.901903, -40.3671733 ], [ -9.9019352, -40.3672898 ], [ -9.9019915, -40.367347 ], [ -9.9020827, -40.3673695 ], [ -9.9022034, -40.3673368 ], [ -9.9023214, -40.3672694 ], [ -9.9025038, -40.3671406 ], [ -9.9026701, -40.3670895 ], [ -9.9027801, -40.3670916 ], [ -9.9031019, -40.3671161 ], [ -9.9037617, -40.3671795 ], [ -9.9041158, -40.3672265 ], [ -9.9044618, -40.3673368 ], [ -9.9049848, -40.3673859 ], [ -9.9051029, -40.3673695 ], [ -9.9052799, -40.3673409 ], [ -9.9056473, -40.3671917 ], [ -9.9058619, -40.3671774 ], [ -9.9060443, -40.3672306 ], [ -9.9062401, -40.3673593 ], [ -9.906342, -40.3674257 ], [ -9.9064158, -40.3675024 ], [ -9.9064614, -40.3675075 ], [ -9.9065298, -40.3674799 ], [ -9.9065432, -40.3674472 ], [ -9.9065164, -40.3673041 ], [ -9.9065137, -40.367157 ], [ -9.9064681, -40.3670201 ], [ -9.9064493, -40.3669301 ], [ -9.9064574, -40.3668218 ], [ -9.9065164, -40.3667013 ], [ -9.9066612, -40.366642 ], [ -9.9068356, -40.3666175 ], [ -9.9069724, -40.36664 ], [ -9.9071333, -40.3666461 ], [ -9.9076295, -40.3666236 ], [ -9.9085093, -40.3667094 ], [ -9.9094319, -40.3668402 ], [ -9.9101991, -40.366971 ], [ -9.9104941, -40.3669874 ], [ -9.9106389, -40.3669792 ], [ -9.9108106, -40.3668852 ], [ -9.9109232, -40.3668157 ], [ -9.9112022, -40.3666113 ], [ -9.9115911, -40.3664989 ], [ -9.9119559, -40.3665051 ], [ -9.912259, -40.3665214 ], [ -9.9124977, -40.3665766 ], [ -9.9128035, -40.366689 ], [ -9.9130824, -40.3667217 ], [ -9.9132648, -40.3667053 ], [ -9.9134257, -40.3666359 ], [ -9.9135813, -40.3665357 ], [ -9.913635, -40.3663702 ], [ -9.913694, -40.3660514 ], [ -9.913753, -40.365845 ], [ -9.9138388, -40.365706 ], [ -9.9141955, -40.3654955 ], [ -9.9146301, -40.3653361 ], [ -9.9150753, -40.3651951 ], [ -9.9156305, -40.365052 ], [ -9.9158773, -40.3649907 ], [ -9.9163011, -40.3648742 ], [ -9.9167678, -40.3647639 ], [ -9.9173552, -40.3646924 ], [ -9.9178138, -40.3646964 ], [ -9.9184951, -40.3646903 ], [ -9.9187526, -40.3646597 ], [ -9.9189672, -40.3646351 ], [ -9.919171, -40.3646086 ], [ -9.919458, -40.364631 ], [ -9.9195948, -40.364674 ], [ -9.9198389, -40.3647966 ], [ -9.9200106, -40.3649764 ], [ -9.9201179, -40.3651931 ], [ -9.9202707, -40.3654996 ], [ -9.9203539, -40.3657183 ], [ -9.9203753, -40.3658491 ], [ -9.9204585, -40.365988 ], [ -9.9205175, -40.366082 ], [ -9.9206637, -40.3662374 ], [ -9.9208273, -40.3663457 ], [ -9.9209721, -40.366406 ], [ -9.9211934, -40.3664591 ], [ -9.9212699, -40.3665092 ], [ -9.9213088, -40.3665786 ], [ -9.9213383, -40.3667585 ], [ -9.9213503, -40.3668658 ], [ -9.9213839, -40.3669955 ], [ -9.9214871, -40.3671427 ], [ -9.9215475, -40.3671948 ], [ -9.9216802, -40.3672622 ], [ -9.9218398, -40.3672765 ], [ -9.921923, -40.3672776 ], [ -9.9219726, -40.3672653 ], [ -9.9219833, -40.3672193 ], [ -9.9219686, -40.3671733 ], [ -9.9219686, -40.3671274 ], [ -9.9220128, -40.3670936 ], [ -9.9220504, -40.3670548 ], [ -9.9220477, -40.367017 ], [ -9.9219941, -40.3669751 ], [ -9.921927, -40.3669404 ], [ -9.9218747, -40.3669005 ], [ -9.9218358, -40.3668525 ], [ -9.9217956, -40.3667759 ], [ -9.9217621, -40.3666962 ], [ -9.9217406, -40.3665991 ], [ -9.9217889, -40.3665112 ], [ -9.9218908, -40.3664928 ], [ -9.9220383, -40.3664846 ], [ -9.9221751, -40.3665419 ], [ -9.9224648, -40.36664 ], [ -9.9225895, -40.3666696 ], [ -9.9227008, -40.3666951 ], [ -9.9227719, -40.3666921 ], [ -9.9228993, -40.36669 ], [ -9.9229838, -40.366691 ], [ -9.9230576, -40.3666972 ], [ -9.9231568, -40.3667186 ], [ -9.9231796, -40.3667013 ], [ -9.9231769, -40.3666624 ], [ -9.9231434, -40.3666011 ], [ -9.9230978, -40.3665608 ], [ -9.9229979, -40.3665097 ], [ -9.9229107, -40.3664708 ], [ -9.9227531, -40.3663518 ], [ -9.9227082, -40.3663109 ], [ -9.9226566, -40.3662568 ], [ -9.9226224, -40.3662307 ], [ -9.9225915, -40.3662139 ], [ -9.9225265, -40.3661771 ], [ -9.9224702, -40.3661331 ], [ -9.9224393, -40.3660616 ], [ -9.9224353, -40.3659952 ], [ -9.92245, -40.365938 ], [ -9.922509, -40.3658133 ], [ -9.9225372, -40.3657367 ], [ -9.9226043, -40.3657009 ], [ -9.9226418, -40.3656682 ], [ -9.9226619, -40.3656232 ], [ -9.9226606, -40.3654608 ], [ -9.9226043, -40.3651134 ], [ -9.9225935, -40.3647475 ], [ -9.9225774, -40.3645697 ], [ -9.9225479, -40.3643797 ], [ -9.9225828, -40.3642468 ], [ -9.9226445, -40.3641671 ], [ -9.9227464, -40.3640936 ], [ -9.9229234, -40.3639771 ], [ -9.9231595, -40.3638606 ], [ -9.9235404, -40.3637747 ], [ -9.9237093, -40.3637645 ], [ -9.9240392, -40.3637502 ], [ -9.9243557, -40.3638115 ], [ -9.924565, -40.3639382 ], [ -9.9248037, -40.3640731 ], [ -9.925088, -40.3641917 ], [ -9.9254662, -40.3643265 ], [ -9.9256352, -40.3643715 ], [ -9.9257827, -40.3643674 ], [ -9.9261421, -40.3643735 ], [ -9.9265632, -40.3643756 ], [ -9.9268395, -40.3643633 ], [ -9.9269629, -40.3643429 ], [ -9.9272901, -40.3642427 ], [ -9.9274322, -40.3641917 ], [ -9.9275824, -40.3641876 ], [ -9.9277434, -40.3642509 ], [ -9.9278507, -40.3643449 ], [ -9.9278963, -40.3645023 ], [ -9.9279177, -40.3646249 ], [ -9.9279338, -40.3647455 ], [ -9.9280009, -40.3648722 ], [ -9.9281457, -40.3649172 ], [ -9.9283683, -40.3649458 ], [ -9.928658, -40.3649396 ], [ -9.9288216, -40.3649131 ], [ -9.9289075, -40.3648722 ], [ -9.929063, -40.3648293 ], [ -9.9292937, -40.3647884 ], [ -9.9295592, -40.3646883 ], [ -9.9297631, -40.3645779 ], [ -9.9298731, -40.3645023 ], [ -9.9299294, -40.3644308 ], [ -9.9299213, -40.3643654 ], [ -9.9298194, -40.3642489 ], [ -9.9296638, -40.3641365 ], [ -9.9295163, -40.3640547 ], [ -9.9293339, -40.3638831 ], [ -9.9290389, -40.3636051 ], [ -9.9288511, -40.3634682 ], [ -9.928607, -40.3633558 ], [ -9.9283174, -40.3632516 ], [ -9.9279365, -40.3631473 ], [ -9.9276227, -40.3630901 ], [ -9.9274725, -40.3630124 ], [ -9.9273732, -40.3629205 ], [ -9.9273384, -40.3627549 ], [ -9.927274, -40.3625608 ], [ -9.927105, -40.3622563 ], [ -9.9268797, -40.3619006 ], [ -9.9267617, -40.3616697 ], [ -9.9267027, -40.3614142 ], [ -9.9264908, -40.3607602 ], [ -9.9262955, -40.3602163 ], [ -9.9261636, -40.3596279 ], [ -9.9261341, -40.3593806 ], [ -9.9262011, -40.3592621 ], [ -9.9262896, -40.3591558 ], [ -9.9263808, -40.3590638 ], [ -9.9265981, -40.3587981 ], [ -9.9268127, -40.3584241 ], [ -9.9269253, -40.3582749 ], [ -9.9270406, -40.3581605 ], [ -9.9271922, -40.3580113 ], [ -9.9272847, -40.3578672 ], [ -9.9273156, -40.3577547 ], [ -9.927329, -40.3576658 ], [ -9.9274765, -40.3574339 ], [ -9.9275315, -40.357393 ], [ -9.927624, -40.3573654 ], [ -9.9277166, -40.3573593 ], [ -9.9277836, -40.3573409 ], [ -9.9278212, -40.3572949 ], [ -9.9278319, -40.3572427 ], [ -9.9277943, -40.3571589 ], [ -9.9277809, -40.3570895 ], [ -9.9278131, -40.3570016 ], [ -9.9278614, -40.3569014 ], [ -9.9279794, -40.3567144 ], [ -9.9281403, -40.3565335 ], [ -9.9282503, -40.3564293 ], [ -9.9282892, -40.35637 ], [ -9.9283187, -40.3563015 ], [ -9.9283549, -40.3562443 ], [ -9.9283992, -40.356184 ], [ -9.9285708, -40.3560798 ], [ -9.928772, -40.3559857 ], [ -9.9289557, -40.3559459 ], [ -9.92911, -40.3559398 ], [ -9.9292012, -40.3559438 ], [ -9.9292763, -40.3559622 ], [ -9.9294117, -40.3560041 ], [ -9.9294801, -40.3560031 ], [ -9.9295633, -40.3559908 ], [ -9.9296317, -40.3559633 ], [ -9.9296947, -40.3559643 ], [ -9.9297631, -40.3559868 ], [ -9.9298114, -40.3560317 ], [ -9.9299039, -40.3561063 ], [ -9.9300112, -40.3561922 ], [ -9.9300528, -40.3562811 ], [ -9.9300796, -40.3563792 ], [ -9.9301279, -40.3565121 ], [ -9.9301533, -40.3565468 ], [ -9.9302016, -40.356555 ], [ -9.930262, -40.3565448 ], [ -9.9303196, -40.356556 ], [ -9.9304014, -40.3565723 ], [ -9.930447, -40.356554 ], [ -9.9304739, -40.3565192 ], [ -9.9304806, -40.3564702 ], [ -9.9304672, -40.3564272 ], [ -9.9304149, -40.3563475 ], [ -9.9303947, -40.3563046 ], [ -9.9303344, -40.3562167 ], [ -9.9302915, -40.3561247 ], [ -9.930274, -40.3560409 ], [ -9.9302687, -40.3560092 ], [ -9.9302566, -40.3559408 ], [ -9.9301976, -40.3558611 ], [ -9.9301896, -40.3558294 ], [ -9.9301949, -40.35581 ], [ -9.9302526, -40.3557916 ], [ -9.9303277, -40.355814 ], [ -9.9304175, -40.3558355 ], [ -9.930557, -40.3558529 ], [ -9.9308306, -40.3558345 ], [ -9.9309808, -40.3557997 ], [ -9.9311122, -40.3557486 ], [ -9.9313402, -40.3556076 ], [ -9.9315065, -40.3554625 ], [ -9.9315923, -40.3553501 ], [ -9.9316272, -40.3552377 ], [ -9.9316245, -40.3551211 ], [ -9.9315494, -40.3549576 ], [ -9.9314502, -40.3548248 ], [ -9.9313456, -40.3547185 ], [ -9.9311793, -40.3545202 ], [ -9.9311096, -40.354322 ], [ -9.931131, -40.3541359 ], [ -9.9312061, -40.353858 ], [ -9.9313992, -40.3535738 ], [ -9.9315975, -40.3533396 ], [ -9.9316379, -40.3532059 ], [ -9.9316514, -40.3530731 ], [ -9.9316514, -40.3529443 ], [ -9.9316326, -40.3528073 ], [ -9.9316728, -40.3527358 ], [ -9.9317586, -40.3526479 ], [ -9.9318311, -40.3525396 ], [ -9.9319571, -40.3523699 ], [ -9.9322897, -40.3521328 ], [ -9.9325901, -40.3519693 ], [ -9.9332768, -40.3518385 ], [ -9.9338132, -40.3517485 ], [ -9.9347895, -40.35154 ], [ -9.9356854, -40.3512579 ], [ -9.936195, -40.3509595 ], [ -9.9366617, -40.3505752 ], [ -9.9372625, -40.3500356 ], [ -9.9374878, -40.3498475 ], [ -9.9377936, -40.3496881 ], [ -9.9382255, -40.3495593 ], [ -9.9386734, -40.3493855 ], [ -9.9389845, -40.3492016 ], [ -9.9391508, -40.349083 ], [ -9.9393949, -40.348805 ], [ -9.9395773, -40.348668 ], [ -9.9397972, -40.3484779 ], [ -9.9400306, -40.348249 ], [ -9.9400896, -40.3481795 ], [ -9.9401325, -40.3481335 ], [ -9.9402559, -40.3480497 ], [ -9.9403632, -40.3479884 ], [ -9.9404691, -40.3479444 ], [ -9.9405375, -40.3479301 ], [ -9.9405845, -40.3479475 ], [ -9.9406166, -40.3479843 ], [ -9.9406461, -40.3480333 ], [ -9.9406837, -40.3480803 ], [ -9.9407521, -40.3481212 ], [ -9.9409506, -40.3482316 ], [ -9.9411048, -40.3483175 ], [ -9.9412295, -40.3483604 ], [ -9.9412657, -40.3483522 ], [ -9.9412832, -40.3483216 ], [ -9.9413073, -40.348248 ], [ -9.9413395, -40.3480875 ], [ -9.94142, -40.3480006 ], [ -9.9415004, -40.3479362 ], [ -9.9415219, -40.3478892 ], [ -9.9415272, -40.3478207 ], [ -9.9415299, -40.3477134 ], [ -9.9415568, -40.3475642 ], [ -9.941664, -40.3474661 ], [ -9.941774, -40.3474068 ], [ -9.9419189, -40.3473782 ], [ -9.9420583, -40.3473638 ], [ -9.9422675, -40.347372 ], [ -9.9423748, -40.3473966 ], [ -9.9425036, -40.3474538 ], [ -9.942635, -40.3474885 ], [ -9.9430078, -40.3475478 ], [ -9.94326, -40.3475989 ], [ -9.9434665, -40.3476766 ], [ -9.9436301, -40.3477379 ], [ -9.9438581, -40.3477788 ], [ -9.9442658, -40.347787 ], [ -9.9447003, -40.3477625 ], [ -9.9449632, -40.3477563 ], [ -9.945167, -40.3476991 ], [ -9.9455157, -40.3476173 ], [ -9.9457893, -40.3475805 ], [ -9.9461353, -40.3475662 ], [ -9.9465162, -40.3475621 ], [ -9.946999, -40.3475294 ], [ -9.9476266, -40.347417 ], [ -9.9478921, -40.3473209 ], [ -9.9482194, -40.3471921 ], [ -9.9484876, -40.347002 ], [ -9.9488443, -40.3467833 ], [ -9.9490804, -40.3465748 ], [ -9.9493003, -40.346354 ], [ -9.94948, -40.3462191 ], [ -9.9496517, -40.3460535 ], [ -9.9498756, -40.345937 ], [ -9.9500889, -40.3458838 ], [ -9.9501988, -40.3458593 ], [ -9.9502645, -40.3458583 ], [ -9.950345, -40.3458838 ], [ -9.9504094, -40.3459339 ], [ -9.9504644, -40.3459891 ], [ -9.9505878, -40.3460576 ], [ -9.9508064, -40.346123 ], [ -9.9509043, -40.346121 ], [ -9.9509954, -40.3460995 ], [ -9.9510343, -40.3460719 ], [ -9.9510585, -40.3460218 ], [ -9.9510893, -40.3459227 ], [ -9.9511617, -40.3458399 ], [ -9.9512382, -40.3457826 ], [ -9.9513388, -40.3457315 ], [ -9.9516378, -40.3456181 ], [ -9.9517304, -40.3455843 ], [ -9.9517947, -40.3455649 ], [ -9.9519007, -40.345566 ], [ -9.951949, -40.3455946 ], [ -9.9519771, -40.3456426 ], [ -9.9519986, -40.3457039 ], [ -9.9520469, -40.3457867 ], [ -9.9520683, -40.3458266 ], [ -9.9521005, -40.3458358 ], [ -9.9521434, -40.3458235 ], [ -9.9522051, -40.345801 ], [ -9.9523754, -40.3456753 ], [ -9.952527, -40.3455363 ], [ -9.9526691, -40.3453401 ], [ -9.9527577, -40.3451888 ], [ -9.9528784, -40.3450212 ], [ -9.9529964, -40.3448944 ], [ -9.9530688, -40.3447942 ], [ -9.9530876, -40.3446859 ], [ -9.9531828, -40.3444508 ], [ -9.9532324, -40.3442924 ], [ -9.9533075, -40.3442065 ], [ -9.9533652, -40.3441738 ], [ -9.9534376, -40.3441431 ], [ -9.9535663, -40.34409 ], [ -9.9536401, -40.3440297 ], [ -9.9536964, -40.3439796 ], [ -9.9537554, -40.3438896 ], [ -9.9539231, -40.343723 ], [ -9.9540102, -40.3436678 ], [ -9.95408, -40.3436556 ], [ -9.9541242, -40.3436729 ], [ -9.9541859, -40.3437077 ], [ -9.9542597, -40.3437997 ], [ -9.9543978, -40.3438784 ], [ -9.9545735, -40.3439571 ], [ -9.9546339, -40.3439673 ], [ -9.9546848, -40.343951 ], [ -9.9547103, -40.3439091 ], [ -9.9546915, -40.3438344 ], [ -9.9546761, -40.3437787 ], [ -9.9546761, -40.3437404 ], [ -9.9546788, -40.3437246 ], [ -9.9547029, -40.3437005 ], [ -9.9547251, -40.3436939 ], [ -9.9547827, -40.3436862 ], [ -9.9548129, -40.343676 ], [ -9.9548525, -40.3436484 ], [ -9.9549302, -40.343582 ], [ -9.9549785, -40.3435503 ], [ -9.9550737, -40.3434828 ], [ -9.955232, -40.3433714 ], [ -9.9554493, -40.3432395 ], [ -9.9556933, -40.3430842 ], [ -9.9558422, -40.342984 ], [ -9.9560232, -40.3428501 ], [ -9.9561024, -40.3428215 ], [ -9.9562217, -40.3428266 ], [ -9.9562821, -40.3428521 ], [ -9.9563424, -40.3428767 ], [ -9.9564926, -40.3429401 ], [ -9.9567407, -40.3430515 ], [ -9.9569312, -40.3431179 ], [ -9.9570023, -40.3431445 ], [ -9.9570814, -40.3431384 ], [ -9.9571377, -40.3430913 ], [ -9.9571565, -40.3430464 ], [ -9.9571551, -40.3430014 ], [ -9.9570854, -40.3429472 ], [ -9.9569459, -40.3428573 ], [ -9.9568963, -40.3427939 ], [ -9.9568668, -40.3427407 ], [ -9.9568453, -40.3426702 ], [ -9.956844, -40.3426395 ], [ -9.9568775, -40.3425312 ], [ -9.9569312, -40.3424688 ], [ -9.9569982, -40.3424198 ], [ -9.9570733, -40.3423676 ], [ -9.9573214, -40.3421857 ], [ -9.957469, -40.3420835 ], [ -9.9576768, -40.3419823 ], [ -9.9577372, -40.3419363 ], [ -9.957772, -40.3418657 ], [ -9.9577922, -40.3417574 ], [ -9.9578592, -40.341691 ], [ -9.9579276, -40.3416674 ], [ -9.9580148, -40.3416593 ], [ -9.9580859, -40.3416358 ], [ -9.958114, -40.3416122 ], [ -9.9581932, -40.3415438 ], [ -9.9582468, -40.3415162 ], [ -9.9583139, -40.3415049 ], [ -9.9584332, -40.3415039 ], [ -9.9585646, -40.3414855 ], [ -9.9588382, -40.3414047 ], [ -9.9589777, -40.3413567 ], [ -9.9590273, -40.3413495 ], [ -9.9590904, -40.3413618 ], [ -9.959144, -40.3414211 ], [ -9.9591856, -40.3415059 ], [ -9.9592567, -40.3415714 ], [ -9.9593022, -40.341579 ], [ -9.9593385, -40.3415652 ], [ -9.9593626, -40.3415509 ], [ -9.9593887, -40.3415059 ], [ -9.9594229, -40.3414191 ], [ -9.9595061, -40.3413373 ], [ -9.9596241, -40.3412105 ], [ -9.9596939, -40.3411287 ], [ -9.9597824, -40.3410879 ], [ -9.9599487, -40.3410163 ], [ -9.9603054, -40.3408957 ], [ -9.9604824, -40.3408487 ], [ -9.9606729, -40.3407587 ], [ -9.9609089, -40.3405788 ], [ -9.9609974, -40.3404745 ], [ -9.9610913, -40.3403355 ], [ -9.9612281, -40.3402353 ], [ -9.9614534, -40.3401433 ], [ -9.9616411, -40.3400554 ], [ -9.9619013, -40.339851 ], [ -9.9619791, -40.339669 ], [ -9.9619818, -40.339577 ], [ -9.9618906, -40.3393337 ], [ -9.9618745, -40.3390782 ], [ -9.9618959, -40.3388819 ], [ -9.9619281, -40.3386754 ], [ -9.9619496, -40.3385139 ], [ -9.9620032, -40.3382849 ], [ -9.9619925, -40.3381296 ], [ -9.9619067, -40.3379374 ], [ -9.9618262, -40.3376634 ], [ -9.961735, -40.337414 ], [ -9.9616814, -40.3371359 ], [ -9.9617297, -40.3369969 ], [ -9.9618101, -40.336817 ], [ -9.961912, -40.3365921 ], [ -9.9620622, -40.3362813 ], [ -9.9624431, -40.3356802 ], [ -9.9626899, -40.3354635 ], [ -9.9628884, -40.3352877 ], [ -9.9629903, -40.3351282 ], [ -9.9630439, -40.3349401 ], [ -9.963229, -40.3345026 ], [ -9.9633256, -40.334296 ], [ -9.9633738, -40.3340119 ], [ -9.963406, -40.3337767 ], [ -9.9634087, -40.3335804 ], [ -9.963508, -40.3332656 ], [ -9.9635482, -40.3330304 ], [ -9.9636769, -40.3325561 ], [ -9.963744, -40.3323557 ], [ -9.9638486, -40.3321737 ], [ -9.9639344, -40.3320142 ], [ -9.9640042, -40.3318323 ], [ -9.9641115, -40.3316319 ], [ -9.9642724, -40.3314581 ], [ -9.9643984, -40.3313886 ], [ -9.9645728, -40.3313006 ], [ -9.9647042, -40.3312168 ], [ -9.9648625, -40.3310839 ], [ -9.9650556, -40.3308631 ], [ -9.9651817, -40.3305911 ], [ -9.9653184, -40.3303233 ], [ -9.9655008, -40.3301311 ], [ -9.9656189, -40.3300472 ], [ -9.9659085, -40.3299491 ], [ -9.9660426, -40.3299 ], [ -9.9661633, -40.3298285 ], [ -9.9665603, -40.3294727 ], [ -9.9667132, -40.3293602 ], [ -9.9667642, -40.3292559 ], [ -9.9667937, -40.3291189 ], [ -9.9667749, -40.3290269 ], [ -9.9667749, -40.3289329 ], [ -9.9668178, -40.3288143 ], [ -9.9669787, -40.32862 ], [ -9.9672335, -40.3283971 ], [ -9.9673529, -40.3283266 ], [ -9.9674401, -40.3282888 ], [ -9.9675742, -40.3282908 ], [ -9.9676922, -40.3282867 ], [ -9.9677861, -40.3282438 ], [ -9.9678853, -40.3281579 ], [ -9.9679926, -40.328072 ], [ -9.9681267, -40.3279943 ], [ -9.9682474, -40.3279841 ], [ -9.9683413, -40.3279411 ], [ -9.9683815, -40.3278982 ], [ -9.9683909, -40.327843 ], [ -9.9683614, -40.3277346 ], [ -9.9683172, -40.3275864 ], [ -9.9682501, -40.3272929 ], [ -9.9682407, -40.32702 ], [ -9.9682702, -40.3268881 ], [ -9.9683909, -40.3267122 ], [ -9.9686846, -40.3263401 ], [ -9.9688241, -40.3261949 ], [ -9.9690011, -40.3260476 ], [ -9.9692385, -40.3259147 ], [ -9.9694034, -40.3258166 ], [ -9.9695282, -40.3257511 ], [ -9.9697588, -40.3256244 ], [ -9.9699305, -40.3254843 ], [ -9.9700753, -40.3253923 ], [ -9.970247, -40.325198 ], [ -9.9703516, -40.3250559 ], [ -9.9704924, -40.3249311 ], [ -9.9707177, -40.32479 ], [ -9.9708666, -40.3247185 ], [ -9.9710208, -40.3246377 ], [ -9.9711214, -40.3245815 ], [ -9.9712327, -40.3245477 ], [ -9.9713051, -40.3245293 ], [ -9.9714929, -40.3245017 ], [ -9.9715988, -40.3244639 ], [ -9.9717182, -40.3243974 ], [ -9.9717812, -40.3243259 ], [ -9.971863, -40.3242839 ], [ -9.9720065, -40.3242635 ], [ -9.972095, -40.3242328 ], [ -9.9723069, -40.3240784 ], [ -9.9723418, -40.3240386 ], [ -9.9724102, -40.3240048 ], [ -9.9725389, -40.3239905 ], [ -9.9726449, -40.3239537 ], [ -9.9727522, -40.3238964 ], [ -9.9728125, -40.3238228 ], [ -9.9729185, -40.3237298 ], [ -9.9730727, -40.3236551 ], [ -9.9734294, -40.323557 ], [ -9.9739391, -40.3234711 ], [ -9.9742931, -40.3234363 ], [ -9.9746794, -40.3234588 ], [ -9.9749127, -40.3234404 ], [ -9.9750817, -40.3234241 ], [ -9.9753526, -40.3233136 ], [ -9.9755538, -40.3232175 ], [ -9.9757201, -40.3231316 ], [ -9.9762712, -40.3229404 ], [ -9.976636, -40.322875 ], [ -9.9769646, -40.3228249 ], [ -9.9772918, -40.3228116 ], [ -9.9775533, -40.3228075 ], [ -9.9776714, -40.3227973 ], [ -9.9777612, -40.322786 ], [ -9.9778323, -40.322739 ], [ -9.977898, -40.322692 ], [ -9.9779516, -40.3226408 ], [ -9.9780777, -40.3225999 ], [ -9.9783084, -40.3225693 ], [ -9.9784318, -40.3225693 ], [ -9.9785739, -40.3225774 ], [ -9.9786893, -40.3225867 ], [ -9.978826, -40.3225631 ], [ -9.9788931, -40.322559 ], [ -9.9790701, -40.3225601 ], [ -9.9792042, -40.3225826 ], [ -9.9793088, -40.3225969 ], [ -9.9793638, -40.322602 ], [ -9.9794872, -40.3225693 ], [ -9.9795449, -40.3225233 ], [ -9.9795958, -40.3224435 ], [ -9.9796964, -40.3223545 ], [ -9.9798869, -40.3222247 ], [ -9.9799566, -40.3221869 ], [ -9.9801511, -40.3220989 ], [ -9.980249, -40.3220662 ], [ -9.9803107, -40.3220734 ], [ -9.9803978, -40.3220999 ], [ -9.9804837, -40.3221398 ], [ -9.9805467, -40.322195 ], [ -9.9806151, -40.3222666 ], [ -9.9806486, -40.3222952 ], [ -9.9807036, -40.3223198 ], [ -9.9807653, -40.3223096 ], [ -9.9808618, -40.3222707 ], [ -9.9809396, -40.3222196 ], [ -9.981004, -40.3221501 ], [ -9.9810147, -40.3220683 ], [ -9.9809772, -40.3219701 ], [ -9.9809477, -40.3218719 ], [ -9.9810281, -40.3217758 ], [ -9.9811623, -40.3217492 ], [ -9.981299, -40.3217349 ], [ -9.9814305, -40.3217431 ], [ -9.9816719, -40.3218085 ], [ -9.9818757, -40.3218719 ], [ -9.9820527, -40.3219353 ], [ -9.9822646, -40.3219537 ], [ -9.9823961, -40.3219885 ], [ -9.9825248, -40.3220683 ], [ -9.9827179, -40.3221971 ], [ -9.982836, -40.3222462 ], [ -9.9829969, -40.3222543 ], [ -9.9833107, -40.3222359 ], [ -9.9835119, -40.3222257 ], [ -9.9836969, -40.3222114 ], [ -9.9837506, -40.3222053 ], [ -9.9838606, -40.3221357 ], [ -9.9839383, -40.3220601 ], [ -9.9840403, -40.3219946 ], [ -9.9841717, -40.3219394 ], [ -9.9843541, -40.3218822 ], [ -9.9847028, -40.3218106 ], [ -9.9849764, -40.3218167 ], [ -9.9852419, -40.3218126 ], [ -9.9855906, -40.3217431 ], [ -9.9861592, -40.3215427 ], [ -9.9865133, -40.3214036 ], [ -9.986878, -40.3211419 ], [ -9.9872804, -40.320874 ], [ -9.9875942, -40.3205959 ], [ -9.9878678, -40.3203914 ], [ -9.9881548, -40.3203055 ], [ -9.9882835, -40.3203177 ], [ -9.988541, -40.3203873 ], [ -9.9887207, -40.3204466 ], [ -9.9888146, -40.3204629 ], [ -9.9889165, -40.3204507 ], [ -9.9890855, -40.3203607 ], [ -9.9891767, -40.3202605 ], [ -9.9894825, -40.3200151 ], [ -9.9896702, -40.3199108 ], [ -9.9898633, -40.3198208 ], [ -9.9902147, -40.3197472 ], [ -9.9904078, -40.3196879 ], [ -9.9905178, -40.3196265 ], [ -9.99066, -40.3194834 ], [ -9.990837, -40.3193259 ], [ -9.9911776, -40.3190682 ], [ -9.9914405, -40.318831 ], [ -9.991639, -40.3186203 ], [ -9.9917489, -40.318516 ], [ -9.9919233, -40.3184527 ], [ -9.9922666, -40.3183913 ], [ -9.9926528, -40.318285 ], [ -9.9929184, -40.3181582 ], [ -9.9933663, -40.3180007 ], [ -9.9938706, -40.3176898 ], [ -9.994297, -40.3174199 ], [ -9.9944177, -40.3173279 ], [ -9.9944821, -40.317244 ], [ -9.9945733, -40.3171274 ], [ -9.9946645, -40.3170334 ], [ -9.9946994, -40.3169761 ], [ -9.9947315, -40.3169127 ], [ -9.9947235, -40.3168125 ], [ -9.994745, -40.3167368 ], [ -9.9947932, -40.316655 ], [ -9.9949059, -40.3165139 ], [ -9.9950668, -40.3163994 ], [ -9.9954021, -40.3161928 ], [ -9.9957401, -40.3160885 ], [ -9.9960378, -40.3160476 ], [ -9.9962282, -40.316064 ], [ -9.996424, -40.3161192 ], [ -9.9965876, -40.3161785 ], [ -9.9967271, -40.3162112 ], [ -9.9970409, -40.3162337 ], [ -9.9973762, -40.3162542 ], [ -9.9977061, -40.3163237 ], [ -9.9979904, -40.3163503 ], [ -9.9981487, -40.3163503 ], [ -9.9982747, -40.3163401 ], [ -9.9985939, -40.316248 ], [ -9.9989587, -40.3161335 ], [ -9.9991733, -40.3160496 ], [ -9.9995166, -40.3159678 ], [ -9.9997392, -40.3159719 ], [ -9.9999779, -40.3159637 ], [ -10.0, -40.315963524742266 ], [ -10.0, -40.281892534779949 ], [ -9.9999243, -40.2818092 ], [ -9.9997124, -40.2816374 ], [ -9.9993771, -40.2813223 ], [ -9.9991572, -40.2810562 ], [ -9.9990392, -40.2807493 ], [ -9.998948, -40.2806224 ], [ -9.998889, -40.2806102 ], [ -9.9987978, -40.2806757 ], [ -9.9987334, -40.2809089 ], [ -9.9987012, -40.2811299 ], [ -9.9987066, -40.2812199 ], [ -9.9986824, -40.2812854 ], [ -9.9986181, -40.2813141 ], [ -9.9985456, -40.2813161 ], [ -9.9984008, -40.2812629 ], [ -9.9982694, -40.2811954 ], [ -9.9981138, -40.2811463 ], [ -9.9979623, -40.281134 ], [ -9.9977973, -40.2811115 ], [ -9.9976954, -40.2810869 ], [ -9.9976203, -40.2810092 ], [ -9.9975479, -40.2807227 ], [ -9.9975264, -40.2806511 ], [ -9.9974808, -40.2806286 ], [ -9.9974379, -40.2806245 ], [ -9.9973843, -40.2806409 ], [ -9.9972045, -40.2808148 ], [ -9.9971429, -40.2808864 ], [ -9.9970329, -40.2809887 ], [ -9.9969149, -40.2810276 ], [ -9.9968049, -40.2810071 ], [ -9.9966869, -40.2809826 ], [ -9.9965903, -40.2809928 ], [ -9.9964294, -40.2810174 ], [ -9.9962845, -40.2810624 ], [ -9.9961612, -40.2810153 ], [ -9.9960753, -40.2809294 ], [ -9.9959117, -40.280647 ], [ -9.9958742, -40.2804792 ], [ -9.9959171, -40.280381 ], [ -9.9959976, -40.2802991 ], [ -9.9963462, -40.2801784 ], [ -9.9967298, -40.2800659 ], [ -9.9968471, -40.2800101 ], [ -9.9968545, -40.2799886 ], [ -9.9968465, -40.2799641 ], [ -9.996829, -40.2799487 ], [ -9.9967057, -40.2799267 ], [ -9.9965689, -40.279939 ], [ -9.9961531, -40.2799799 ], [ -9.9959412, -40.2800045 ], [ -9.9958286, -40.2800168 ], [ -9.9957159, -40.2799881 ], [ -9.9956811, -40.279939 ], [ -9.9956536, -40.2798551 ], [ -9.9956422, -40.2798132 ], [ -9.9956106, -40.2797978 ], [ -9.9955644, -40.2797845 ], [ -9.9954692, -40.279763 ], [ -9.9953793, -40.2797354 ], [ -9.9953069, -40.2796904 ], [ -9.9951527, -40.2795451 ], [ -9.9951406, -40.2794581 ], [ -9.995099, -40.2793814 ], [ -9.994989, -40.2792832 ], [ -9.9949381, -40.2792637 ], [ -9.994863, -40.2792504 ], [ -9.9947423, -40.2792228 ], [ -9.9945813, -40.2791389 ], [ -9.9944875, -40.2790049 ], [ -9.9943735, -40.2788883 ], [ -9.9941723, -40.2787696 ], [ -9.9939564, -40.2787194 ], [ -9.9937136, -40.2786898 ], [ -9.9935795, -40.2786785 ], [ -9.9931785, -40.2786509 ], [ -9.9929399, -40.2788811 ], [ -9.9924731, -40.2790161 ], [ -9.992095, -40.2792986 ], [ -9.9920171, -40.2794766 ], [ -9.9919394, -40.2795216 ], [ -9.9918079, -40.2795236 ], [ -9.9916658, -40.2795297 ], [ -9.9912581, -40.2794622 ], [ -9.9911562, -40.2794479 ], [ -9.9909925, -40.2792965 ], [ -9.9909684, -40.2791758 ], [ -9.990955, -40.2790489 ], [ -9.9909791, -40.2789384 ], [ -9.9911669, -40.2788156 ], [ -9.9913815, -40.2787072 ], [ -9.9914163, -40.278613 ], [ -9.9913842, -40.2785107 ], [ -9.9913412, -40.2783838 ], [ -9.9911937, -40.2782467 ], [ -9.991006, -40.2781639 ], [ -9.9908799, -40.2781475 ], [ -9.9906895, -40.2781935 ], [ -9.9906237, -40.2782079 ], [ -9.9905728, -40.2781915 ], [ -9.9905232, -40.2781536 ], [ -9.99055, -40.2779347 ], [ -9.9906412, -40.2777393 ], [ -9.9906908, -40.2776451 ], [ -9.9907431, -40.2775756 ], [ -9.9908732, -40.2774927 ], [ -9.9910985, -40.2773679 ], [ -9.9911253, -40.2773484 ], [ -9.991124, -40.2773075 ], [ -9.9910864, -40.2772819 ], [ -9.9910516, -40.2772461 ], [ -9.9910127, -40.2771949 ], [ -9.9909832, -40.2771458 ], [ -9.9909469, -40.2771121 ], [ -9.9908718, -40.2770998 ], [ -9.9907605, -40.2771151 ], [ -9.9906774, -40.2771469 ], [ -9.9906197, -40.2771622 ], [ -9.9904709, -40.2771878 ], [ -9.9902469, -40.2772553 ], [ -9.990157, -40.2772809 ], [ -9.990086, -40.2772737 ], [ -9.989925, -40.2771254 ], [ -9.9898808, -40.2769565 ], [ -9.989799, -40.2768665 ], [ -9.9897815, -40.2767836 ], [ -9.9897909, -40.2767345 ], [ -9.9898177, -40.2766967 ], [ -9.9898486, -40.276667 ], [ -9.989921, -40.2766404 ], [ -9.9900323, -40.2765964 ], [ -9.9900886, -40.2765585 ], [ -9.9901074, -40.2765248 ], [ -9.990094, -40.2765002 ], [ -9.9900779, -40.2764562 ], [ -9.9900699, -40.2763907 ], [ -9.9901061, -40.2762495 ], [ -9.9902764, -40.2760715 ], [ -9.9903113, -40.2759835 ], [ -9.9902804, -40.2759538 ], [ -9.9902335, -40.2759354 ], [ -9.9900953, -40.2759436 ], [ -9.9899036, -40.275963 ], [ -9.9897453, -40.2759845 ], [ -9.989571, -40.2759917 ], [ -9.9894248, -40.275963 ], [ -9.9893832, -40.2759446 ], [ -9.9893443, -40.2759303 ], [ -9.9893068, -40.2759221 ], [ -9.9892759, -40.275917 ], [ -9.9892209, -40.2759354 ], [ -9.9891593, -40.2759784 ], [ -9.9891432, -40.2761042 ], [ -9.9890855, -40.2762332 ], [ -9.9890533, -40.2764071 ], [ -9.9890721, -40.2765483 ], [ -9.9890989, -40.2767857 ], [ -9.9891177, -40.2770599 ], [ -9.9890855, -40.2776206 ], [ -9.9890238, -40.2779644 ], [ -9.9890453, -40.2782099 ], [ -9.9890721, -40.2783941 ], [ -9.9890614, -40.2785967 ], [ -9.9890211, -40.2787481 ], [ -9.9889514, -40.2789036 ], [ -9.9888656, -40.2790018 ], [ -9.9884874, -40.2791758 ], [ -9.9881467, -40.2791594 ], [ -9.9875057, -40.279231 ], [ -9.9866984, -40.2793047 ], [ -9.9861646, -40.2793701 ], [ -9.9859446, -40.2794725 ], [ -9.9858534, -40.2795461 ], [ -9.9857086, -40.2796525 ], [ -9.9855584, -40.2796894 ], [ -9.9852526, -40.2796689 ], [ -9.9844587, -40.2795952 ], [ -9.9837399, -40.2795257 ], [ -9.9834716, -40.2795216 ], [ -9.983241, -40.279542 ], [ -9.9826133, -40.2794356 ], [ -9.9822646, -40.279276 ], [ -9.9820018, -40.2791451 ], [ -9.9816746, -40.2790509 ], [ -9.9812132, -40.2787931 ], [ -9.9809504, -40.2785926 ], [ -9.980709, -40.278478 ], [ -9.9804193, -40.2783757 ], [ -9.9801511, -40.2783593 ], [ -9.9798989, -40.2783838 ], [ -9.9796522, -40.2785803 ], [ -9.9794161, -40.2787481 ], [ -9.9791962, -40.2787849 ], [ -9.9785149, -40.278834 ], [ -9.9781555, -40.278744 ], [ -9.9775761, -40.278523 ], [ -9.9767447, -40.2782283 ], [ -9.976294, -40.277991 ], [ -9.97594, -40.2778395 ], [ -9.9755967, -40.2777249 ], [ -9.9750388, -40.2776349 ], [ -9.9746579, -40.2776635 ], [ -9.9743629, -40.2776635 ], [ -9.9737299, -40.2776635 ], [ -9.972952, -40.2776022 ], [ -9.9726677, -40.2775326 ], [ -9.9725014, -40.2775183 ], [ -9.9722439, -40.277553 ], [ -9.9719864, -40.2776042 ], [ -9.9718013, -40.2776881 ], [ -9.9715099, -40.2779243 ], [ -9.9713373, -40.2780769 ], [ -9.9710637, -40.2780646 ], [ -9.9708438, -40.2779664 ], [ -9.970817, -40.2777659 ], [ -9.9707258, -40.2773771 ], [ -9.9706292, -40.277066 ], [ -9.9704683, -40.2769146 ], [ -9.9703074, -40.276845 ], [ -9.969846, -40.2768491 ], [ -9.9694705, -40.2770456 ], [ -9.9692398, -40.2771888 ], [ -9.9691379, -40.2773239 ], [ -9.9690574, -40.2775039 ], [ -9.9690414, -40.2778395 ], [ -9.9690306, -40.2782283 ], [ -9.9689877, -40.2784984 ], [ -9.9689126, -40.2786417 ], [ -9.9687624, -40.2787399 ], [ -9.9683708, -40.2788954 ], [ -9.9679577, -40.2790796 ], [ -9.9676305, -40.279141 ], [ -9.9673623, -40.279141 ], [ -9.9667025, -40.2791778 ], [ -9.9663431, -40.2791655 ], [ -9.9659783, -40.2791082 ], [ -9.9653882, -40.2789936 ], [ -9.9649483, -40.2789691 ], [ -9.9646613, -40.2790018 ], [ -9.9644306, -40.279053 ], [ -9.9640471, -40.2791246 ], [ -9.9638996, -40.2791307 ], [ -9.9637064, -40.2791185 ], [ -9.9634677, -40.2790468 ], [ -9.9629098, -40.2788729 ], [ -9.962773, -40.2788136 ], [ -9.962596, -40.2787542 ], [ -9.9624243, -40.2787297 ], [ -9.9621078, -40.2786683 ], [ -9.9619469, -40.2786499 ], [ -9.9618557, -40.2786274 ], [ -9.9616867, -40.2785291 ], [ -9.9615392, -40.2784309 ], [ -9.9612495, -40.2782652 ], [ -9.9608445, -40.2780646 ], [ -9.9607211, -40.2779214 ], [ -9.9604744, -40.2778395 ], [ -9.9602222, -40.2777618 ], [ -9.9599809, -40.2776717 ], [ -9.9596965, -40.2773402 ], [ -9.9596241, -40.2771642 ], [ -9.9594793, -40.276978 ], [ -9.9593371, -40.2769085 ], [ -9.9590072, -40.2768041 ], [ -9.9584305, -40.2766036 ], [ -9.9582401, -40.2764869 ], [ -9.9581516, -40.2763621 ], [ -9.9580336, -40.2762373 ], [ -9.9576902, -40.2760981 ], [ -9.9574998, -40.2760613 ], [ -9.9572209, -40.2760674 ], [ -9.9566415, -40.2761145 ], [ -9.9563813, -40.2761145 ], [ -9.9558449, -40.276137 ], [ -9.9555793, -40.2762066 ], [ -9.9553943, -40.2762843 ], [ -9.9548391, -40.2766302 ], [ -9.954477, -40.2768962 ], [ -9.9538976, -40.2773852 ], [ -9.9535918, -40.2778682 ], [ -9.9533236, -40.2781342 ], [ -9.9531627, -40.2782447 ], [ -9.9527308, -40.2786949 ], [ -9.9525229, -40.2788954 ], [ -9.9523688, -40.2789947 ], [ -9.9522373, -40.2790417 ], [ -9.9520093, -40.2790796 ], [ -9.9516593, -40.2791256 ], [ -9.9513602, -40.2790755 ], [ -9.951092, -40.2791123 ], [ -9.9508882, -40.2791942 ], [ -9.9505556, -40.2792433 ], [ -9.9502659, -40.2791819 ], [ -9.9498367, -40.2789977 ], [ -9.9495417, -40.2789895 ], [ -9.9492735, -40.2790141 ], [ -9.9490804, -40.279141 ], [ -9.9490428, -40.2792678 ], [ -9.9489677, -40.2794234 ], [ -9.9488014, -40.2794929 ], [ -9.9485439, -40.2794643 ], [ -9.9481148, -40.2793497 ], [ -9.9479485, -40.2793169 ], [ -9.9477285, -40.2793701 ], [ -9.9475569, -40.2794315 ], [ -9.9473971, -40.2794794 ], [ -9.9472048, -40.2794976 ], [ -9.9470179, -40.2795275 ], [ -9.946755, -40.2796094 ], [ -9.9458484, -40.2795828 ], [ -9.9453469, -40.279552 ], [ -9.9448507, -40.2794907 ], [ -9.9444347, -40.2793743 ], [ -9.9440753, -40.2793231 ], [ -9.9437696, -40.2792965 ], [ -9.9435148, -40.2792146 ], [ -9.9431017, -40.2791655 ], [ -9.9429488, -40.2791103 ], [ -9.9424231, -40.2788443 ], [ -9.9421709, -40.2789169 ], [ -9.942112, -40.2791082 ], [ -9.9419672, -40.2791185 ], [ -9.9415327, -40.2791246 ], [ -9.9411947, -40.2791471 ], [ -9.9409559, -40.2790652 ], [ -9.9405858, -40.2789957 ], [ -9.9405153, -40.2790153 ], [ -9.9404295, -40.2790058 ], [ -9.9403873, -40.2789936 ], [ -9.9401593, -40.2789671 ], [ -9.9398965, -40.2789036 ], [ -9.9391294, -40.2786704 ], [ -9.9383462, -40.2784923 ], [ -9.9380833, -40.2783859 ], [ -9.9378044, -40.2783511 ], [ -9.9376488, -40.2783225 ], [ -9.937453, -40.2782631 ], [ -9.9370855, -40.278038 ], [ -9.9368924, -40.2778805 ], [ -9.9368038, -40.2777945 ], [ -9.9366509, -40.2776553 ], [ -9.9364901, -40.277506 ], [ -9.9362057, -40.2775244 ], [ -9.9358704, -40.277553 ], [ -9.9356425, -40.2776022 ], [ -9.9354869, -40.2776288 ], [ -9.9352911, -40.277637 ], [ -9.9350122, -40.2776287 ], [ -9.9347681, -40.2776819 ], [ -9.9344918, -40.2776922 ], [ -9.9342317, -40.2777065 ], [ -9.9340734, -40.2777167 ], [ -9.9338427, -40.2776861 ], [ -9.9336738, -40.2776636 ], [ -9.9331721, -40.2776513 ], [ -9.9329952, -40.2776329 ], [ -9.9328342, -40.2776369 ], [ -9.9327162, -40.2775715 ], [ -9.932633, -40.277549 ], [ -9.9325097, -40.2775674 ], [ -9.9323648, -40.2776533 ], [ -9.9320778, -40.2777822 ], [ -9.9316996, -40.2778047 ], [ -9.9315065, -40.2778191 ], [ -9.9313858, -40.2778273 ], [ -9.931249, -40.2778334 ], [ -9.9311712, -40.277862 ], [ -9.9311471, -40.2779828 ], [ -9.9309272, -40.2780953 ], [ -9.9307018, -40.278304 ], [ -9.9300554, -40.2785352 ], [ -9.9294814, -40.2787726 ], [ -9.9289182, -40.2789997 ], [ -9.9282637, -40.2792003 ], [ -9.9273866, -40.2796689 ], [ -9.9267778, -40.2800495 ], [ -9.9258632, -40.2806306 ], [ -9.9252302, -40.2810358 ], [ -9.9249003, -40.2812097 ], [ -9.924632, -40.2815841 ], [ -9.9244121, -40.2819382 ], [ -9.9242458, -40.2819709 ], [ -9.9242216, -40.282329 ], [ -9.9244899, -40.2827709 ], [ -9.924286, -40.283262 ], [ -9.9237415, -40.2840068 ], [ -9.9237335, -40.2840948 ], [ -9.9237254, -40.2841603 ], [ -9.9236959, -40.284236 ], [ -9.923487, -40.2844485 ], [ -9.9234223, -40.2845143 ], [ -9.9231497, -40.284683 ], [ -9.9227974, -40.2849889 ], [ -9.922784, -40.2851465 ], [ -9.9225452, -40.2854534 ], [ -9.9224004, -40.2855516 ], [ -9.9223039, -40.2857071 ], [ -9.9222046, -40.2858422 ], [ -9.9221429, -40.285924 ], [ -9.9219364, -40.2862043 ], [ -9.9218184, -40.2863741 ], [ -9.921703, -40.2864662 ], [ -9.9214858, -40.286677 ], [ -9.9212283, -40.287033 ], [ -9.9208286, -40.2874238 ], [ -9.9205899, -40.2876161 ], [ -9.9204773, -40.287792 ], [ -9.9204451, -40.2879475 ], [ -9.9204236, -40.288234 ], [ -9.920488, -40.2883936 ], [ -9.9205363, -40.2886391 ], [ -9.9204987, -40.2888559 ], [ -9.9204183, -40.2891178 ], [ -9.920378, -40.2894452 ], [ -9.9203807, -40.2899812 ], [ -9.9203244, -40.2905602 ], [ -9.9202788, -40.2906891 ], [ -9.9202386, -40.290908 ], [ -9.9201849, -40.2910717 ], [ -9.9201822, -40.2911965 ], [ -9.9201447, -40.29144 ], [ -9.920024, -40.2917407 ], [ -9.9199301, -40.2920189 ], [ -9.9197611, -40.2923545 ], [ -9.9196324, -40.2925672 ], [ -9.9194071, -40.2927882 ], [ -9.9192381, -40.2929887 ], [ -9.9191791, -40.2931258 ], [ -9.9191603, -40.2932444 ], [ -9.9191898, -40.2936147 ], [ -9.9191415, -40.2939032 ], [ -9.9190825, -40.2941282 ], [ -9.9188572, -40.2944167 ], [ -9.9184763, -40.2948299 ], [ -9.9181652, -40.2950918 ], [ -9.9178863, -40.2952554 ], [ -9.9174142, -40.2954968 ], [ -9.9168992, -40.2956237 ], [ -9.9164701, -40.2957751 ], [ -9.9162179, -40.2959142 ], [ -9.9157995, -40.2962661 ], [ -9.9155635, -40.2967161 ], [ -9.9153972, -40.2969943 ], [ -9.9152362, -40.2971785 ], [ -9.9150431, -40.2972971 ], [ -9.9146462, -40.2974608 ], [ -9.9141848, -40.2978003 ], [ -9.9138683, -40.2981604 ], [ -9.9136752, -40.2983568 ], [ -9.9134177, -40.2985368 ], [ -9.9127901, -40.2989296 ], [ -9.9125165, -40.2990564 ], [ -9.912208, -40.2992651 ], [ -9.9118647, -40.2995494 ], [ -9.9116448, -40.2998051 ], [ -9.9114302, -40.3001672 ], [ -9.9113685, -40.300474 ], [ -9.9112451, -40.3006991 ], [ -9.9111244, -40.3008791 ], [ -9.9110386, -40.3009998 ], [ -9.9108508, -40.30119 ], [ -9.9106604, -40.3013823 ], [ -9.910529, -40.3015418 ], [ -9.9104512, -40.3017628 ], [ -9.9104512, -40.3018681 ], [ -9.9104686, -40.3019561 ], [ -9.9104498, -40.3020154 ], [ -9.9103493, -40.3020583 ], [ -9.9102446, -40.3020768 ], [ -9.9101441, -40.3020706 ], [ -9.9101052, -40.3020901 ], [ -9.9100851, -40.3021197 ], [ -9.9100421, -40.3021862 ], [ -9.9100019, -40.3022384 ], [ -9.9098343, -40.3023427 ], [ -9.9096867, -40.3024081 ], [ -9.9093837, -40.3025053 ], [ -9.9091315, -40.3025299 ], [ -9.9089679, -40.3025421 ], [ -9.9088177, -40.3025728 ], [ -9.9084476, -40.3027405 ], [ -9.9082035, -40.3027978 ], [ -9.9079326, -40.3028449 ], [ -9.9071145, -40.3030106 ], [ -9.9066317, -40.303121 ], [ -9.9062696, -40.3032376 ], [ -9.9058914, -40.3034626 ], [ -9.9057895, -40.3037899 ], [ -9.9057949, -40.3041376 ], [ -9.9058056, -40.3044158 ], [ -9.9057412, -40.304649 ], [ -9.9056876, -40.3049477 ], [ -9.9056929, -40.3051645 ], [ -9.9057171, -40.3053486 ], [ -9.9057761, -40.3054877 ], [ -9.9058405, -40.3055756 ], [ -9.9059612, -40.3058661 ], [ -9.9060336, -40.3062158 ], [ -9.9061006, -40.3064736 ], [ -9.906106, -40.3065656 ], [ -9.9060738, -40.3068683 ], [ -9.9061248, -40.3072099 ], [ -9.9061945, -40.3074042 ], [ -9.9062187, -40.307752 ], [ -9.9062026, -40.3080199 ], [ -9.9060363, -40.3087603 ], [ -9.9059773, -40.3096112 ], [ -9.9060041, -40.3100612 ], [ -9.9057949, -40.3105971 ], [ -9.9056424, -40.3108742 ], [ -9.905473, -40.311182 ], [ -9.9053067, -40.3114438 ], [ -9.9051994, -40.3116811 ], [ -9.9051136, -40.3119224 ], [ -9.9049795, -40.3122087 ], [ -9.9048239, -40.3128632 ], [ -9.9048024, -40.3131046 ], [ -9.9047595, -40.3133173 ], [ -9.9047059, -40.3136036 ], [ -9.9045235, -40.314164 ], [ -9.9044672, -40.3143174 ], [ -9.9043465, -40.3146262 ], [ -9.9043116, -40.3148185 ], [ -9.9043277, -40.3149514 ], [ -9.9043652, -40.3150925 ], [ -9.9044403, -40.3153502 ], [ -9.9044296, -40.3154647 ], [ -9.9043518, -40.3155956 ], [ -9.9042472, -40.3157592 ], [ -9.9041721, -40.3158155 ], [ -9.9039844, -40.3159781 ], [ -9.9039039, -40.3160844 ], [ -9.9038167, -40.3161969 ], [ -9.9037497, -40.3162204 ], [ -9.9036223, -40.3162746 ], [ -9.9035418, -40.3162807 ] ] ] ] } },
{ "type": "Feature", "properties": { "FID": 120028, "id": 1251, "left": -10.0, "top": -40.0, "right": -5.0, "bottom": -45.0, "row_index": 26, "col_index": 34, "min_lon": -10.0, "min_lat": -45.0, "tile_id": "-10_-45" }, "geometry": { "type": "MultiPolygon", "coordinates": [ [ [ [ -9.8994045, -40.2977165 ], [ -9.8993374, -40.2977165 ], [ -9.8992637, -40.2977421 ], [ -9.8991939, -40.2978188 ], [ -9.8991336, -40.2978863 ], [ -9.899037, -40.2979681 ], [ -9.8989767, -40.2979926 ], [ -9.8989351, -40.2979988 ], [ -9.8988795, -40.2979896 ], [ -9.8987956, -40.2979236 ], [ -9.8987272, -40.2977226 ], [ -9.8986843, -40.2975487 ], [ -9.8986602, -40.297471 ], [ -9.8986012, -40.2973513 ], [ -9.8985314, -40.2972511 ], [ -9.8984912, -40.2971958 ], [ -9.8984711, -40.2971304 ], [ -9.8984724, -40.2970762 ], [ -9.8984791, -40.2970035 ], [ -9.8984778, -40.296933 ], [ -9.898455, -40.296844 ], [ -9.8984228, -40.2968072 ], [ -9.8983893, -40.2967908 ], [ -9.8983571, -40.2967857 ], [ -9.8983343, -40.2967913 ], [ -9.8983001, -40.2968302 ], [ -9.8982511, -40.2969002 ], [ -9.8982029, -40.2969422 ], [ -9.8981251, -40.2969749 ], [ -9.8979843, -40.2970138 ], [ -9.8979159, -40.2970291 ], [ -9.897877, -40.2970537 ], [ -9.8978582, -40.2971007 ], [ -9.8978354, -40.2971764 ], [ -9.8977818, -40.2973043 ], [ -9.8977362, -40.297428 ], [ -9.8977335, -40.2974782 ], [ -9.8977308, -40.2975232 ], [ -9.8977107, -40.2975671 ], [ -9.8976772, -40.2975968 ], [ -9.8976235, -40.2976101 ], [ -9.8975082, -40.2976029 ], [ -9.8973861, -40.2976111 ], [ -9.8973177, -40.2976316 ], [ -9.8972225, -40.2976479 ], [ -9.8971179, -40.2976858 ], [ -9.8970602, -40.2977369 ], [ -9.897024, -40.297784 ], [ -9.8969784, -40.2978004 ], [ -9.8969235, -40.2978034 ], [ -9.896847, -40.2977666 ], [ -9.8967934, -40.297738 ], [ -9.8967478, -40.2977288 ], [ -9.8967035, -40.2977308 ], [ -9.8966646, -40.2977717 ], [ -9.8966807, -40.2978341 ], [ -9.8967384, -40.29801 ], [ -9.8967826, -40.2981226 ], [ -9.8968135, -40.2982126 ], [ -9.8968108, -40.2982709 ], [ -9.8967893, -40.2983885 ], [ -9.896839, -40.2985552 ], [ -9.8968953, -40.298635 ], [ -9.8969851, -40.2986759 ], [ -9.8972172, -40.2987066 ], [ -9.8974183, -40.2987107 ], [ -9.8978072, -40.2987516 ], [ -9.8980433, -40.2988437 ], [ -9.8982337, -40.2989684 ], [ -9.8982981, -40.2990605 ], [ -9.8983598, -40.2991362 ], [ -9.898459, -40.2992139 ], [ -9.8985985, -40.2992446 ], [ -9.8987433, -40.2992262 ], [ -9.8988399, -40.2991935 ], [ -9.8989391, -40.2991116 ], [ -9.8989847, -40.299038 ], [ -9.8990652, -40.2989746 ], [ -9.8991644, -40.2989418 ], [ -9.8992798, -40.2989173 ], [ -9.899371, -40.2988498 ], [ -9.8994219, -40.2987905 ], [ -9.8994488, -40.298725 ], [ -9.8994622, -40.2986227 ], [ -9.8994488, -40.2984161 ], [ -9.8994273, -40.2982975 ], [ -9.8994407, -40.2981399 ], [ -9.8995534, -40.2979661 ], [ -9.8995775, -40.2979118 ], [ -9.8995855, -40.2978576 ], [ -9.899544, -40.2977942 ], [ -9.8994555, -40.2977277 ], [ -9.8994045, -40.2977165 ] ] ] ] } },
{ "type": "Feature", "properties": { "FID": 120029, "id": 1251, "left": -10.0, "top": -40.0, "right": -5.0, "bottom": -45.0, "row_index": 26, "col_index": 34, "min_lon": -10.0, "min_lat": -45.0, "tile_id": "-10_-45" }, "geometry": { "type": "MultiPolygon", "coordinates": [ [ [ [ -9.9735716, -40.2746769 ], [ -9.9735113, -40.274685 ], [ -9.9732645, -40.2748559 ], [ -9.9731653, -40.2749634 ], [ -9.9731304, -40.2750309 ], [ -9.9730647, -40.2752417 ], [ -9.9731385, -40.2754535 ], [ -9.9732082, -40.2755384 ], [ -9.97329, -40.2756325 ], [ -9.9733504, -40.2756417 ], [ -9.973404, -40.2756346 ], [ -9.9734281, -40.2756202 ], [ -9.9736025, -40.275388 ], [ -9.973683, -40.2752805 ], [ -9.9737192, -40.2751895 ], [ -9.9737741, -40.2749951 ], [ -9.973805, -40.2749255 ], [ -9.9737956, -40.274858 ], [ -9.9737581, -40.2747904 ], [ -9.9736548, -40.2746902 ], [ -9.9735716, -40.2746769 ] ] ] ] } },
{ "type": "Feature", "properties": { "FID": 120030, "id": 1251, "left": -10.0, "top": -40.0, "right": -5.0, "bottom": -45.0, "row_index": 26, "col_index": 34, "min_lon": -10.0, "min_lat": -45.0, "tile_id": "-10_-45" }, "geometry": { "type": "MultiPolygon", "coordinates": [ [ [ [ -9.9585405, -40.2723092 ], [ -9.9584936, -40.2722508 ], [ -9.9583916, -40.2721884 ], [ -9.958102, -40.2719694 ], [ -9.9578673, -40.2718774 ], [ -9.9577694, -40.271862 ], [ -9.9575789, -40.2718804 ], [ -9.9574555, -40.2719183 ], [ -9.9574274, -40.2719521 ], [ -9.9573925, -40.2720165 ], [ -9.9574019, -40.2721802 ], [ -9.9574381, -40.2722989 ], [ -9.9574824, -40.2724422 ], [ -9.9576433, -40.272653 ], [ -9.9577332, -40.2727594 ], [ -9.9578673, -40.2728402 ], [ -9.9580094, -40.2728484 ], [ -9.9581462, -40.27283 ], [ -9.9582213, -40.2728034 ], [ -9.9583434, -40.2727451 ], [ -9.9584225, -40.2726632 ], [ -9.9585539, -40.2725312 ], [ -9.9585713, -40.2724852 ], [ -9.9585606, -40.2723706 ], [ -9.9585405, -40.2723092 ] ] ] ] } },
{ "type": "Feature", "properties": { "FID": 120031, "id": 1251, "left": -10.0, "top": -40.0, "right": -5.0, "bottom": -45.0, "row_index": 26, "col_index": 34, "min_lon": -10.0, "min_lat": -45.0, "tile_id": "-10_-45" }, "geometry": { "type": "MultiPolygon", "coordinates": [ [ [ [ -9.9606635, -40.2731186 ], [ -9.9606407, -40.273093 ], [ -9.9606179, -40.2730848 ], [ -9.9605904, -40.2730925 ], [ -9.9605683, -40.2731186 ], [ -9.9605133, -40.2731974 ], [ -9.9604905, -40.2732465 ], [ -9.9604663, -40.2733631 ], [ -9.9604999, -40.2733856 ], [ -9.9605294, -40.2733805 ], [ -9.9605535, -40.2733529 ], [ -9.9606407, -40.2732281 ], [ -9.9606715, -40.2731503 ], [ -9.9606635, -40.2731186 ] ] ] ] } },
{ "type": "Feature", "properties": { "FID": 120032, "id": 1251, "left": -10.0, "top": -40.0, "right": -5.0, "bottom": -45.0, "row_index": 26, "col_index": 34, "min_lon": -10.0, "min_lat": -45.0, "tile_id": "-10_-45" }, "geometry": { "type": "MultiPolygon", "coordinates": [ [ [ [ -9.9009044, -40.3156274 ], [ -9.9008153, -40.3158172 ], [ -9.9011691, -40.3159168 ], [ -9.9020497, -40.3157337 ], [ -9.9019853, -40.315624 ], [ -9.9015934, -40.315518 ], [ -9.9009044, -40.3156274 ] ] ] ] } },
{ "type": "Feature", "properties": { "FID": 120033, "id": 1251, "left": -10.0, "top": -40.0, "right": -5.0, "bottom": -45.0, "row_index": 26, "col_index": 34, "min_lon": -10.0, "min_lat": -45.0, "tile_id": "-10_-45" }, "geometry": { "type": "MultiPolygon", "coordinates": [ [ [ [ -9.8756539, -40.3388661 ], [ -9.8758507, -40.3389596 ], [ -9.8760653, -40.3389555 ], [ -9.876285, -40.3389667 ], [ -9.8766963, -40.3388967 ], [ -9.8767251, -40.3386284 ], [ -9.8766822, -40.3384608 ], [ -9.876592, -40.3383745 ], [ -9.8763925, -40.3383749 ], [ -9.8762341, -40.3384419 ], [ -9.8759258, -40.3385957 ], [ -9.8756994, -40.3386919 ], [ -9.8756539, -40.3388661 ] ] ] ] } },
{ "type": "Feature", "properties": { "FID": 120034, "id": 1251, "left": -10.0, "top": -40.0, "right": -5.0, "bottom": -45.0, "row_index": 26, "col_index": 34, "min_lon": -10.0, "min_lat": -45.0, "tile_id": "-10_-45" }, "geometry": { "type": "MultiPolygon", "coordinates": [ [ [ [ -9.8762092, -40.3420292 ], [ -9.8764272, -40.3422313 ], [ -9.8766879, -40.3423179 ], [ -9.8769581, -40.3422349 ], [ -9.8770428, -40.342075 ], [ -9.8769976, -40.3419585 ], [ -9.8768815, -40.3418598 ], [ -9.8767403, -40.3418598 ], [ -9.8765104, -40.3418383 ], [ -9.8762079, -40.3418322 ], [ -9.8761217, -40.3419172 ], [ -9.8762092, -40.3420292 ] ] ] ] } },
{ "type": "Feature", "properties": { "FID": 120035, "id": 1251, "left": -10.0, "top": -40.0, "right": -5.0, "bottom": -45.0, "row_index": 26, "col_index": 34, "min_lon": -10.0, "min_lat": -45.0, "tile_id": "-10_-45" }, "geometry": { "type": "MultiPolygon", "coordinates": [ [ [ [ -9.8740927, -40.3429281 ], [ -9.8741991, -40.3430681 ], [ -9.8743161, -40.3430681 ], [ -9.8744613, -40.3430066 ], [ -9.8745863, -40.342982 ], [ -9.8746448, -40.3430466 ], [ -9.8745863, -40.3431142 ], [ -9.874429, -40.3432679 ], [ -9.874312, -40.3434555 ], [ -9.8743027, -40.3437012 ], [ -9.8744734, -40.3438274 ], [ -9.8747716, -40.3439008 ], [ -9.8756145, -40.3436111 ], [ -9.8759235, -40.343397 ], [ -9.8760848, -40.3432756 ], [ -9.8761716, -40.3431496 ], [ -9.8762321, -40.3430281 ], [ -9.8761837, -40.3429543 ], [ -9.8760868, -40.3429174 ], [ -9.8756177, -40.3428211 ], [ -9.8752075, -40.3427729 ], [ -9.8749614, -40.342859 ], [ -9.8748606, -40.342939 ], [ -9.8747598, -40.343022 ], [ -9.8746549, -40.3429082 ], [ -9.8746872, -40.3428267 ], [ -9.8746226, -40.3427453 ], [ -9.8743858, -40.3427717 ], [ -9.8740927, -40.3429281 ] ] ] ] } },
{ "type": "Feature", "properties": { "FID": 120036, "id": 1251, "left": -10.0, "top": -40.0, "right": -5.0, "bottom": -45.0, "row_index": 26, "col_index": 34, "min_lon": -10.0, "min_lat": -45.0, "tile_id": "-10_-45" }, "geometry": { "type": "MultiPolygon", "coordinates": [ [ [ [ -9.9182953, -40.3695255 ], [ -9.9182617, -40.3696031 ], [ -9.9182014, -40.3697125 ], [ -9.9181921, -40.3698923 ], [ -9.9181867, -40.3700118 ], [ -9.9182054, -40.370163 ], [ -9.9182565, -40.3703306 ], [ -9.91831, -40.3704041 ], [ -9.9184495, -40.3705064 ], [ -9.9186748, -40.3706188 ], [ -9.9189055, -40.3706698 ], [ -9.9192408, -40.3706698 ], [ -9.9194661, -40.3706402 ], [ -9.9195841, -40.3706157 ], [ -9.9196243, -40.3705861 ], [ -9.9196377, -40.370535 ], [ -9.9196056, -40.3703878 ], [ -9.9194795, -40.3700936 ], [ -9.9193373, -40.3699444 ], [ -9.9191978, -40.3697523 ], [ -9.918935, -40.3696215 ], [ -9.9187485, -40.3695449 ], [ -9.918589, -40.3694918 ], [ -9.9184079, -40.3694826 ], [ -9.9182953, -40.3695255 ] ] ] ] } },
{ "type": "Feature", "properties": { "FID": 120037, "id": 1251, "left": -10.0, "top": -40.0, "right": -5.0, "bottom": -45.0, "row_index": 26, "col_index": 34, "min_lon": -10.0, "min_lat": -45.0, "tile_id": "-10_-45" }, "geometry": { "type": "MultiPolygon", "coordinates": [ [ [ [ -9.9327196, -40.3558365 ], [ -9.9326733, -40.3560016 ], [ -9.9324795, -40.3561998 ], [ -9.9323367, -40.3563117 ], [ -9.9323045, -40.3563945 ], [ -9.9322495, -40.3566214 ], [ -9.9322401, -40.3567256 ], [ -9.9322146, -40.356832 ], [ -9.9321986, -40.3569106 ], [ -9.9322441, -40.3570251 ], [ -9.9323621, -40.3571048 ], [ -9.9324735, -40.3571487 ], [ -9.9325365, -40.3571487 ], [ -9.9325915, -40.3571303 ], [ -9.9326666, -40.3570884 ], [ -9.9326894, -40.3570568 ], [ -9.9327068, -40.3570169 ], [ -9.9327591, -40.3569832 ], [ -9.9328543, -40.3569464 ], [ -9.9330059, -40.3569494 ], [ -9.9330635, -40.3569403 ], [ -9.9331239, -40.3569167 ], [ -9.9331735, -40.3568738 ], [ -9.9331923, -40.3568166 ], [ -9.9332057, -40.3567727 ], [ -9.933195, -40.3566837 ], [ -9.9331735, -40.3566234 ], [ -9.9331869, -40.3565652 ], [ -9.9332365, -40.3565192 ], [ -9.9332795, -40.356508 ], [ -9.9333411, -40.3564875 ], [ -9.9334873, -40.356462 ], [ -9.9335611, -40.3564599 ], [ -9.9336027, -40.3564732 ], [ -9.9336348, -40.356509 ], [ -9.9336617, -40.3566061 ], [ -9.9336737, -40.3567042 ], [ -9.9337167, -40.35679 ], [ -9.9337864, -40.3569433 ], [ -9.9338789, -40.3570608 ], [ -9.9339809, -40.357208 ], [ -9.9340627, -40.3573255 ], [ -9.9341244, -40.3573531 ], [ -9.934178, -40.3573633 ], [ -9.9342625, -40.3573603 ], [ -9.9343617, -40.3573674 ], [ -9.9344529, -40.3574052 ], [ -9.9345173, -40.3574492 ], [ -9.9346165, -40.3575023 ], [ -9.9349558, -40.3576066 ], [ -9.9351637, -40.3576444 ], [ -9.9353568, -40.3576791 ], [ -9.9355084, -40.3576709 ], [ -9.9355701, -40.3576546 ], [ -9.935672, -40.3576127 ], [ -9.9357404, -40.3575422 ], [ -9.9357699, -40.3574768 ], [ -9.9357793, -40.3574093 ], [ -9.9357632, -40.3573306 ], [ -9.9357297, -40.3572417 ], [ -9.9357229, -40.3571528 ], [ -9.9357149, -40.3570915 ], [ -9.9356961, -40.3570332 ], [ -9.935668, -40.3569668 ], [ -9.9355996, -40.3568687 ], [ -9.9354158, -40.3566899 ], [ -9.9351503, -40.3565315 ], [ -9.9350484, -40.3564783 ], [ -9.9349853, -40.3564497 ], [ -9.9348485, -40.3564252 ], [ -9.9346675, -40.35637 ], [ -9.9345844, -40.3563138 ], [ -9.9345441, -40.3562555 ], [ -9.9344932, -40.3561247 ], [ -9.9344677, -40.3560031 ], [ -9.9344274, -40.3558968 ], [ -9.934347, -40.3557793 ], [ -9.9341311, -40.3556413 ], [ -9.9339339, -40.3555248 ], [ -9.9338132, -40.3555197 ], [ -9.9336509, -40.3554901 ], [ -9.9335235, -40.3554748 ], [ -9.9333425, -40.3555279 ], [ -9.9330341, -40.35558 ], [ -9.932845, -40.3556985 ], [ -9.9327196, -40.3558365 ] ] ] ] } },
{ "type": "Feature", "properties": { "FID": 560564, "id": 1251, "left": -10.0, "top": -40.0, "right": -5.0, "bottom": -45.0, "row_index": 26, "col_index": 34, "min_lon": -10.0, "min_lat": -45.0, "tile_id": "-10_-45" }, "geometry": { "type": "MultiPolygon", "coordinates": [ [ [ [ -9.9604368, -40.2760469 ], [ -9.9605575, -40.2758873 ], [ -9.9606621, -40.27574 ], [ -9.9606621, -40.2755763 ], [ -9.9606675, -40.2753839 ], [ -9.9606729, -40.2751711 ], [ -9.9607721, -40.2750217 ], [ -9.9608579, -40.2748068 ], [ -9.9608418, -40.2747004 ], [ -9.9607801, -40.2746636 ], [ -9.960705, -40.2746615 ], [ -9.9606085, -40.2747188 ], [ -9.960528, -40.2747823 ], [ -9.9604288, -40.2748703 ], [ -9.9603376, -40.2749542 ], [ -9.9602544, -40.2750381 ], [ -9.9601525, -40.2751384 ], [ -9.9600318, -40.2751854 ], [ -9.9596751, -40.2752407 ], [ -9.9595195, -40.2752325 ], [ -9.9594229, -40.275257 ], [ -9.9593505, -40.2753266 ], [ -9.9593398, -40.2754474 ], [ -9.9593666, -40.275609 ], [ -9.9594203, -40.2757461 ], [ -9.9594954, -40.2758628 ], [ -9.9595624, -40.2759487 ], [ -9.9596617, -40.2761759 ], [ -9.9597582, -40.27627 ], [ -9.9598414, -40.2763252 ], [ -9.9600291, -40.27636 ], [ -9.9602008, -40.2763437 ], [ -9.9603, -40.2762823 ], [ -9.9604368, -40.2760469 ] ] ] ] } },
{ "type": "Feature", "properties": { "FID": 592159, "id": 1251, "left": -10.0, "top": -40.0, "right": -5.0, "bottom": -45.0, "row_index": 26, "col_index": 34, "min_lon": -10.0, "min_lat": -45.0, "tile_id": "-10_-45" }, "geometry": { "type": "MultiPolygon", "coordinates": [ [ [ [ -9.9588744, -40.2746738 ], [ -9.9588396, -40.2747321 ], [ -9.9588396, -40.2748293 ], [ -9.9587926, -40.2749583 ], [ -9.9588691, -40.2750585 ], [ -9.9589871, -40.2749992 ], [ -9.9590126, -40.2748539 ], [ -9.9589804, -40.2747168 ], [ -9.9589006, -40.2746723 ], [ -9.9588744, -40.2746738 ] ] ] ] } },
{ "type": "Feature", "properties": { "FID": 645211, "id": 1251, "left": -10.0, "top": -40.0, "right": -5.0, "bottom": -45.0, "row_index": 26, "col_index": 34, "min_lon": -10.0, "min_lat": -45.0, "tile_id": "-10_-45" }, "geometry": { "type": "MultiPolygon", "coordinates": [ [ [ [ -9.8768324, -40.3442096 ], [ -9.8767868, -40.3442484 ], [ -9.8768257, -40.3443612 ], [ -9.876996, -40.3444304 ], [ -9.8771638, -40.3444491 ], [ -9.8773032, -40.3443816 ], [ -9.8773178, -40.3442137 ], [ -9.8772817, -40.34412 ], [ -9.8770899, -40.344136 ], [ -9.8769519, -40.3441956 ], [ -9.8768324, -40.3442096 ] ] ] ] } },
{ "type": "Feature", "properties": { "FID": 651175, "id": 1251, "left": -10.0, "top": -40.0, "right": -5.0, "bottom": -45.0, "row_index": 26, "col_index": 34, "min_lon": -10.0, "min_lat": -45.0, "tile_id": "-10_-45" }, "geometry": { "type": "MultiPolygon", "coordinates": [ [ [ [ -9.9424097, -40.2776574 ], [ -9.9423426, -40.2776902 ], [ -9.9422649, -40.2777925 ], [ -9.9421227, -40.2779521 ], [ -9.9419215, -40.2781096 ], [ -9.9420154, -40.2782222 ], [ -9.9422488, -40.2782447 ], [ -9.9424499, -40.2782508 ], [ -9.942627, -40.2782201 ], [ -9.9427074, -40.2780933 ], [ -9.9426243, -40.2779132 ], [ -9.9424687, -40.2776799 ], [ -9.9424097, -40.2776574 ] ] ] ] } },
{ "type": "Feature", "properties": { "FID": 651176, "id": 1251, "left": -10.0, "top": -40.0, "right": -5.0, "bottom": -45.0, "row_index": 26, "col_index": 34, "min_lon": -10.0, "min_lat": -45.0, "tile_id": "-10_-45" }, "geometry": { "type": "MultiPolygon", "coordinates": [ [ [ [ -9.931131, -40.2757482 ], [ -9.9311069, -40.2757932 ], [ -9.9311042, -40.275918 ], [ -9.9312624, -40.2761574 ], [ -9.9315387, -40.276358 ], [ -9.931713, -40.2763539 ], [ -9.931815, -40.2762209 ], [ -9.9317989, -40.2760654 ], [ -9.9316219, -40.2757768 ], [ -9.9314743, -40.2755701 ], [ -9.9313697, -40.2755517 ], [ -9.9312222, -40.2756622 ], [ -9.931131, -40.2757482 ] ] ] ] } },
{ "type": "Feature", "properties": { "FID": 651177, "id": 1251, "left": -10.0, "top": -40.0, "right": -5.0, "bottom": -45.0, "row_index": 26, "col_index": 34, "min_lon": -10.0, "min_lat": -45.0, "tile_id": "-10_-45" }, "geometry": { "type": "MultiPolygon", "coordinates": [ [ [ [ -9.937394, -40.2760285 ], [ -9.937343, -40.2760162 ], [ -9.9372464, -40.2760674 ], [ -9.9372008, -40.2761411 ], [ -9.9372035, -40.2762659 ], [ -9.9372411, -40.2764583 ], [ -9.9373591, -40.2767059 ], [ -9.9374127, -40.2769207 ], [ -9.9375898, -40.2769228 ], [ -9.937638, -40.2768307 ], [ -9.9375924, -40.2766956 ], [ -9.9374905, -40.2766097 ], [ -9.9374852, -40.2765012 ], [ -9.9374718, -40.27636 ], [ -9.9373859, -40.2760858 ], [ -9.937394, -40.2760285 ] ] ] ] } },
{ "type": "Feature", "properties": { "FID": 651178, "id": 1251, "left": -10.0, "top": -40.0, "right": -5.0, "bottom": -45.0, "row_index": 26, "col_index": 34, "min_lon": -10.0, "min_lat": -45.0, "tile_id": "-10_-45" }, "geometry": { "type": "MultiPolygon", "coordinates": [ [ [ [ -9.9363291, -40.2758689 ], [ -9.936254, -40.2758935 ], [ -9.9362433, -40.2759651 ], [ -9.9362728, -40.2760756 ], [ -9.936305, -40.2762311 ], [ -9.9363935, -40.2762536 ], [ -9.9364874, -40.2762393 ], [ -9.9365196, -40.2761718 ], [ -9.9365115, -40.2760715 ], [ -9.9363881, -40.2758935 ], [ -9.9363291, -40.2758689 ] ] ] ] } },
{ "type": "Feature", "properties": { "FID": 651179, "id": 1251, "left": -10.0, "top": -40.0, "right": -5.0, "bottom": -45.0, "row_index": 26, "col_index": 34, "min_lon": -10.0, "min_lat": -45.0, "tile_id": "-10_-45" }, "geometry": { "type": "MultiPolygon", "coordinates": [ [ [ [ -9.9365786, -40.2753287 ], [ -9.9365062, -40.2753757 ], [ -9.936482, -40.2754535 ], [ -9.9365598, -40.2755456 ], [ -9.9366027, -40.2756295 ], [ -9.9366859, -40.275607 ], [ -9.9367288, -40.2755538 ], [ -9.9367341, -40.2754494 ], [ -9.936651, -40.2753287 ], [ -9.9365786, -40.2753287 ] ] ] ] } },
{ "type": "Feature", "properties": { "FID": 651180, "id": 1251, "left": -10.0, "top": -40.0, "right": -5.0, "bottom": -45.0, "row_index": 26, "col_index": 34, "min_lon": -10.0, "min_lat": -45.0, "tile_id": "-10_-45" }, "geometry": { "type": "MultiPolygon", "coordinates": [ [ [ [ -9.9319249, -40.3560021 ], [ -9.9318874, -40.3558958 ], [ -9.9318016, -40.3558447 ], [ -9.9316943, -40.3558897 ], [ -9.9316379, -40.3559919 ], [ -9.9316514, -40.356231 ], [ -9.9317694, -40.3563128 ], [ -9.9318123, -40.3563066 ], [ -9.9319035, -40.356276 ], [ -9.9319249, -40.3561636 ], [ -9.9319249, -40.3560021 ] ] ] ] } },
{ "type": "Feature", "properties": { "FID": 707771, "id": 1251, "left": -10.0, "top": -40.0, "right": -5.0, "bottom": -45.0, "row_index": 26, "col_index": 34, "min_lon": -10.0, "min_lat": -45.0, "tile_id": "-10_-45" }, "geometry": { "type": "MultiPolygon", "coordinates": [ [ [ [ -9.9013493, -40.3023345 ], [ -9.9013957, -40.30222 ], [ -9.9016246, -40.302074 ], [ -9.9015352, -40.3019963 ], [ -9.9014601, -40.3018804 ], [ -9.9013367, -40.3018927 ], [ -9.9010184, -40.3021354 ], [ -9.9011311, -40.3021995 ], [ -9.901081, -40.3022813 ], [ -9.9011383, -40.3023959 ], [ -9.9013493, -40.3023345 ] ] ] ] } },
{ "type": "Feature", "properties": { "FID": 707772, "id": 1251, "left": -10.0, "top": -40.0, "right": -5.0, "bottom": -45.0, "row_index": 26, "col_index": 34, "min_lon": -10.0, "min_lat": -45.0, "tile_id": "-10_-45" }, "geometry": { "type": "MultiPolygon", "coordinates": [ [ [ [ -9.8965275, -40.2993032 ], [ -9.8968555, -40.2991915 ], [ -9.8968609, -40.2990696 ], [ -9.8967579, -40.2990117 ], [ -9.8965682, -40.2990799 ], [ -9.8964435, -40.2991378 ], [ -9.8963974, -40.299237 ], [ -9.8965275, -40.2993032 ] ] ] ] } },
{ "type": "Feature", "properties": { "FID": 713906, "id": 1251, "left": -10.0, "top": -40.0, "right": -5.0, "bottom": -45.0, "row_index": 26, "col_index": 34, "min_lon": -10.0, "min_lat": -45.0, "tile_id": "-10_-45" }, "geometry": { "type": "MultiPolygon", "coordinates": [ [ [ [ -9.9177448, -40.3715349 ], [ -9.9178478, -40.3715046 ], [ -9.9178197, -40.3714118 ], [ -9.9177483, -40.3713967 ], [ -9.9177448, -40.3715349 ] ] ] ] } },
{ "type": "Feature", "properties": { "FID": 781019, "id": 1251, "left": -10.0, "top": -40.0, "right": -5.0, "bottom": -45.0, "row_index": 26, "col_index": 34, "min_lon": -10.0, "min_lat": -45.0, "tile_id": "-10_-45" }, "geometry": { "type": "MultiPolygon", "coordinates": [ [ [ [ -9.9308315, -40.3559614 ], [ -9.9308109, -40.3560472 ], [ -9.9308515, -40.3561546 ], [ -9.9309464, -40.356134 ], [ -9.9309789, -40.3561794 ], [ -9.9309982, -40.3562416 ], [ -9.9310711, -40.3562703 ], [ -9.93109, -40.3562228 ], [ -9.9310331, -40.3561587 ], [ -9.9310711, -40.3560575 ], [ -9.9310717, -40.3559726 ], [ -9.9310033, -40.3559109 ], [ -9.9309136, -40.3558975 ], [ -9.9308315, -40.3559614 ] ] ] ] } },
{ "type": "Feature", "properties": { "FID": 781022, "id": 1251, "left": -10.0, "top": -40.0, "right": -5.0, "bottom": -45.0, "row_index": 26, "col_index": 34, "min_lon": -10.0, "min_lat": -45.0, "tile_id": "-10_-45" }, "geometry": { "type": "MultiPolygon", "coordinates": [ [ [ [ -9.8801134, -40.3506059 ], [ -9.8799984, -40.3506395 ], [ -9.8799255, -40.3508147 ], [ -9.8800137, -40.350914 ], [ -9.8801344, -40.3508483 ], [ -9.8801977, -40.3508688 ], [ -9.8803373, -40.3508379 ], [ -9.8804794, -40.3507811 ], [ -9.8805514, -40.3506959 ], [ -9.8805522, -40.3506059 ], [ -9.8804602, -40.3505664 ], [ -9.880366, -40.3505788 ], [ -9.8802836, -40.3505815 ], [ -9.8802284, -40.3505474 ], [ -9.8801134, -40.3506059 ] ] ] ] } }
]
}
