{
"type": "FeatureCollection",
"name": "-10_-75",
"crs": { "type": "name", "properties": { "name": "urn:ogc:def:crs:OGC:1.3:CRS84" } },
"xy_coordinate_resolution": 1e-15,
"features": [
{ "type": "Feature", "properties": { "FID": 307096, "id": 1257, "left": -10.0, "top": -70.0, "right": -5.0, "bottom": -75.0, "row_index": 32, "col_index": 34, "min_lon": -10.0, "min_lat": -75.0, "tile_id": "-10_-75" }, "geometry": { "type": "MultiPolygon", "coordinates": [ [ [ [ -9.9997459, -70.9177703 ], [ -9.9993404, -70.9177919 ], [ -9.9989712, -70.9178505 ], [ -9.9985769, -70.9178878 ], [ -9.9973603, -70.9179525 ], [ -9.9891784, -70.9181976 ], [ -9.9883638, -70.9182327 ], [ -9.987561, -70.9182899 ], [ -9.9871707, -70.9183315 ], [ -9.9853062, -70.9186136 ], [ -9.9814426, -70.9193802 ], [ -9.9810907, -70.9194507 ], [ -9.9602225, -70.9126043 ], [ -9.9448391, -70.9100218 ], [ -9.940642, -70.9062065 ], [ -9.9312092, -70.9027921 ], [ -9.9214932, -70.8997029 ], [ -9.9174334, -70.8973015 ], [ -9.9142834, -70.8949924 ], [ -9.9057347, -70.8932759 ], [ -9.8919245, -70.8908849 ], [ -9.8826033, -70.8892073 ], [ -9.8727242, -70.8874397 ], [ -9.8566309, -70.8849862 ], [ -9.8482195, -70.8826588 ], [ -9.8432156, -70.88093 ], [ -9.8372332, -70.8781045 ], [ -9.83277, -70.8759113 ], [ -9.8303667, -70.8744631 ], [ -9.8223673, -70.8715438 ], [ -9.8132006, -70.8674708 ], [ -9.8057677, -70.8634083 ], [ -9.8003174, -70.8607294 ], [ -9.7936484, -70.8591619 ], [ -9.7891508, -70.8564431 ], [ -9.7870909, -70.8546163 ], [ -9.7910391, -70.8524289 ], [ -9.7898804, -70.8495459 ], [ -9.7809111, -70.8385871 ], [ -9.7791945, -70.8288766 ], [ -9.7747313, -70.8224096 ], [ -9.772328, -70.8208588 ], [ -9.7721134, -70.8183801 ], [ -9.7741767, -70.8168949 ], [ -9.774697, -70.8164455 ], [ -9.7735754, -70.8156851 ], [ -9.7714697, -70.814677 ], [ -9.7652899, -70.8119945 ], [ -9.7587668, -70.8081237 ], [ -9.7549816, -70.8047968 ], [ -9.7510334, -70.7994315 ], [ -9.7479435, -70.794443 ], [ -9.7496687, -70.7908879 ], [ -9.7529303, -70.7854143 ], [ -9.7497717, -70.7840273 ], [ -9.7443472, -70.7789898 ], [ -9.7407337, -70.7768987 ], [ -9.7395321, -70.7748102 ], [ -9.7385022, -70.7730607 ], [ -9.7381674, -70.7715965 ], [ -9.7366139, -70.7702905 ], [ -9.7350689, -70.7689477 ], [ -9.7318074, -70.7671807 ], [ -9.7257992, -70.7653514 ], [ -9.7215077, -70.7626508 ], [ -9.7163578, -70.7591834 ], [ -9.7137829, -70.7571044 ], [ -9.7089764, -70.7553279 ], [ -9.7062298, -70.7539275 ], [ -9.7026249, -70.7518366 ], [ -9.70108, -70.749904 ], [ -9.6978098, -70.7488795 ], [ -9.6928402, -70.7471844 ], [ -9.6895615, -70.7453758 ], [ -9.6882054, -70.7440851 ], [ -9.6847721, -70.7436152 ], [ -9.6795794, -70.7433803 ], [ -9.6745411, -70.7426698 ], [ -9.6684643, -70.7405409 ], [ -9.6636578, -70.7390856 ], [ -9.6597096, -70.7370951 ], [ -9.6547314, -70.7348581 ], [ -9.6518303, -70.733595 ], [ -9.6483799, -70.7333061 ], [ -9.6434017, -70.7324083 ], [ -9.6332737, -70.7303548 ], [ -9.6209141, -70.7256239 ], [ -9.6095845, -70.7222748 ], [ -9.6063229, -70.7207899 ], [ -9.6034046, -70.7177829 ], [ -9.5989415, -70.7162155 ], [ -9.5867535, -70.7120767 ], [ -9.5623776, -70.7043977 ], [ -9.5470997, -70.6993202 ], [ -9.5412632, -70.696903 ], [ -9.53783, -70.6960518 ], [ -9.5323368, -70.6949395 ], [ -9.5297619, -70.69362 ], [ -9.5258137, -70.6933504 ], [ -9.5194622, -70.6928368 ], [ -9.5124241, -70.6917811 ], [ -9.5076433, -70.6898654 ], [ -9.5017811, -70.6871575 ], [ -9.4971463, -70.6840546 ], [ -9.4820401, -70.6803549 ], [ -9.4705387, -70.6781342 ], [ -9.4544026, -70.6747232 ], [ -9.4391247, -70.6724536 ], [ -9.4248854, -70.6695388 ], [ -9.4152895, -70.6675641 ], [ -9.4068524, -70.6665014 ], [ -9.3864504, -70.6639012 ], [ -9.3627611, -70.6608487 ], [ -9.3524615, -70.6586287 ], [ -9.3413035, -70.6558399 ], [ -9.3316904, -70.6521236 ], [ -9.3228155, -70.6497491 ], [ -9.2983624, -70.6439296 ], [ -9.2726218, -70.6380515 ], [ -9.2420746, -70.6311668 ], [ -9.2039572, -70.6241659 ], [ -9.1675564, -70.6187378 ], [ -9.136314, -70.6144135 ], [ -9.1292759, -70.6139235 ], [ -9.1148564, -70.6134848 ], [ -9.0971752, -70.6105358 ], [ -9.0879055, -70.6086123 ], [ -9.0793225, -70.6066658 ], [ -9.0645596, -70.604323 ], [ -9.0547749, -70.603026 ], [ -9.0312573, -70.6005716 ], [ -9.017181, -70.5984133 ], [ -9.0252491, -70.5953367 ], [ -9.0412566, -70.5844776 ], [ -9.0357977, -70.5840411 ], [ -9.0272061, -70.5816328 ], [ -9.0119711, -70.5799064 ], [ -8.9900862, -70.5783925 ], [ -8.9837757, -70.5768611 ], [ -8.9798447, -70.5761361 ], [ -8.9641634, -70.5752598 ], [ -8.9479071, -70.5728077 ], [ -8.9358393, -70.5708749 ], [ -8.9269558, -70.5695929 ], [ -8.9179865, -70.5684308 ], [ -8.911635, -70.5675256 ], [ -8.9063135, -70.5667746 ], [ -8.8965288, -70.5657037 ], [ -8.8889672, -70.5641073 ], [ -8.8791825, -70.562485 ], [ -8.8669859, -70.560594 ], [ -8.8544546, -70.5580887 ], [ -8.8475882, -70.5564745 ], [ -8.8446699, -70.555203 ], [ -8.8323017, -70.5527913 ], [ -8.8156506, -70.5485016 ], [ -8.7864682, -70.5407085 ], [ -8.7711903, -70.5363762 ], [ -8.759174, -70.5333244 ], [ -8.7526766, -70.5315938 ], [ -8.7504193, -70.530521 ], [ -8.7483593, -70.5301777 ], [ -8.7394587, -70.5297629 ], [ -8.7312189, -70.5297057 ], [ -8.7234684, -70.5282895 ], [ -8.7200352, -70.5270878 ], [ -8.716087, -70.5264011 ], [ -8.7136837, -70.5269161 ], [ -8.7149111, -70.5281035 ], [ -8.7164303, -70.5296055 ], [ -8.7207218, -70.5309215 ], [ -8.7243525, -70.5321659 ], [ -8.7279316, -70.53321 ], [ -8.728644, -70.534683 ], [ -8.7296482, -70.5355553 ], [ -8.7310215, -70.5362589 ], [ -8.7341114, -70.5378433 ], [ -8.7358538, -70.5396019 ], [ -8.740317, -70.540231 ], [ -8.7406346, -70.5416178 ], [ -8.7399479, -70.543905 ], [ -8.7416903, -70.5454345 ], [ -8.7449261, -70.5469352 ], [ -8.7454411, -70.5483644 ], [ -8.7399737, -70.551151 ], [ -8.7380854, -70.5505223 ], [ -8.7416903, -70.5485788 ], [ -8.7416903, -70.5472639 ], [ -8.7382313, -70.5455631 ], [ -8.736858, -70.543905 ], [ -8.7360255, -70.54269 ], [ -8.7372013, -70.5413319 ], [ -8.7293049, -70.5402453 ], [ -8.7238375, -70.5390872 ], [ -8.7179753, -70.5370425 ], [ -8.7152544, -70.537257 ], [ -8.7109629, -70.5382865 ], [ -8.708388, -70.5381721 ], [ -8.7123362, -70.5373142 ], [ -8.715572, -70.5360129 ], [ -8.7136837, -70.5352693 ], [ -8.7116495, -70.5340538 ], [ -8.706328, -70.5338249 ], [ -8.7008091, -70.5331527 ], [ -8.6954876, -70.5325234 ], [ -8.6925951, -70.5326808 ], [ -8.6941401, -70.5337105 ], [ -8.6953417, -70.535255 ], [ -8.6903635, -70.534111 ], [ -8.6896511, -70.5328667 ], [ -8.6860462, -70.5329811 ], [ -8.6793772, -70.5338821 ], [ -8.6807505, -70.5319942 ], [ -8.6766306, -70.5313649 ], [ -8.6723391, -70.532738 ], [ -8.6752573, -70.5331957 ], [ -8.6760899, -70.5342397 ], [ -8.6745449, -70.5350977 ], [ -8.6701772, -70.5352668 ], [ -8.6676785, -70.5365106 ], [ -8.6679422, -70.5382667 ], [ -8.664291, -70.5393399 ], [ -8.6590383, -70.5408838 ], [ -8.6499974, -70.5413976 ], [ -8.6436888, -70.5407657 ], [ -8.6402556, -70.5393675 ], [ -8.6358931, -70.5391712 ], [ -8.630428, -70.5402539 ], [ -8.6241623, -70.5417379 ], [ -8.6201283, -70.5435048 ], [ -8.6243576, -70.545527 ], [ -8.6230972, -70.5475148 ], [ -8.6171929, -70.5476984 ], [ -8.6138283, -70.5488131 ], [ -8.6104037, -70.549782 ], [ -8.606052, -70.5497506 ], [ -8.6057087, -70.5516797 ], [ -8.6008988, -70.553829 ], [ -8.5936409, -70.5546744 ], [ -8.5857531, -70.5548716 ], [ -8.5797541, -70.5537879 ], [ -8.5749813, -70.5524913 ], [ -8.5729214, -70.5510624 ], [ -8.5725781, -70.5496363 ], [ -8.5762159, -70.5481446 ], [ -8.574947, -70.5469609 ], [ -8.5752045, -70.5458118 ], [ -8.5778395, -70.5446655 ], [ -8.5825001, -70.5437192 ], [ -8.5842768, -70.5432818 ], [ -8.5826031, -70.5423497 ], [ -8.5801054, -70.5417579 ], [ -8.5771357, -70.5415492 ], [ -8.5794445, -70.5406628 ], [ -8.5819851, -70.5394447 ], [ -8.5757109, -70.5374257 ], [ -8.5660549, -70.5372942 ], [ -8.562287, -70.536991 ], [ -8.5488287, -70.5362503 ], [ -8.5443398, -70.538541 ], [ -8.5404774, -70.5367022 ], [ -8.5328068, -70.5321744 ], [ -8.524882, -70.5294081 ], [ -8.514239, -70.5301748 ], [ -8.5092608, -70.5295083 ], [ -8.4972874, -70.5298973 ], [ -8.4871772, -70.525959 ], [ -8.4775321, -70.5221116 ], [ -8.46118, -70.5237259 ], [ -8.448977, -70.5259333 ], [ -8.4462913, -70.5235231 ], [ -8.437004, -70.5223905 ], [ -8.4298631, -70.5218316 ], [ -8.4374845, -70.5195315 ], [ -8.4445042, -70.5175013 ], [ -8.4494852, -70.5141295 ], [ -8.4382125, -70.5146881 ], [ -8.426339, -70.515516 ], [ -8.4172293, -70.5193313 ], [ -8.4243037, -70.5141745 ], [ -8.4259738, -70.511448 ], [ -8.4255306, -70.5088259 ], [ -8.4152775, -70.5100538 ], [ -8.4106588, -70.5110029 ], [ -8.3992025, -70.5127698 ], [ -8.4056792, -70.5078839 ], [ -8.4081108, -70.5019956 ], [ -8.400053, -70.5016723 ], [ -8.3829081, -70.5068429 ], [ -8.371824, -70.5061865 ], [ -8.3547953, -70.5050999 ], [ -8.3497546, -70.5132773 ], [ -8.352134, -70.518688 ], [ -8.349851, -70.5216836 ], [ -8.3480847, -70.5258555 ], [ -8.3515652, -70.5304916 ], [ -8.3501094, -70.5353695 ], [ -8.3482265, -70.5294534 ], [ -8.3432334, -70.5246511 ], [ -8.3462037, -70.5199397 ], [ -8.3438916, -70.5114017 ], [ -8.3415154, -70.5059911 ], [ -8.331497, -70.5011948 ], [ -8.3178932, -70.4996972 ], [ -8.3055503, -70.4993664 ], [ -8.2973816, -70.5021394 ], [ -8.2930959, -70.5071535 ], [ -8.2964715, -70.5132364 ], [ -8.3003785, -70.522177 ], [ -8.2925652, -70.5158293 ], [ -8.2917009, -70.5089033 ], [ -8.2881499, -70.5057122 ], [ -8.2736623, -70.5071372 ], [ -8.254823, -70.5071863 ], [ -8.2438437, -70.5047387 ], [ -8.2294379, -70.5030327 ], [ -8.2171558, -70.502905 ], [ -8.2012611, -70.5058752 ], [ -8.1943222, -70.5083285 ], [ -8.1919199, -70.5127679 ], [ -8.1884003, -70.5146185 ], [ -8.1966805, -70.5204663 ], [ -8.1982742, -70.5252437 ], [ -8.2151841, -70.5349512 ], [ -8.2217635, -70.5401601 ], [ -8.2290526, -70.5453348 ], [ -8.237544, -70.5482889 ], [ -8.2482699, -70.5530572 ], [ -8.2544654, -70.5590052 ], [ -8.2572113, -70.5619963 ], [ -8.2474923, -70.5579004 ], [ -8.2435203, -70.5520851 ], [ -8.2292657, -70.5474869 ], [ -8.2159381, -70.5405455 ], [ -8.2075847, -70.5336402 ], [ -8.1962075, -70.5293775 ], [ -8.1906486, -70.5248399 ], [ -8.1839865, -70.521076 ], [ -8.1625271, -70.5230653 ], [ -8.158401, -70.5268658 ], [ -8.1493318, -70.529221 ], [ -8.1361271, -70.5320129 ], [ -8.1384499, -70.5407896 ], [ -8.1386562, -70.5513489 ], [ -8.1363365, -70.5560235 ], [ -8.1329046, -70.5581085 ], [ -8.1378535, -70.5629174 ], [ -8.1395722, -70.5669193 ], [ -8.1356337, -70.569509 ], [ -8.1342202, -70.5729394 ], [ -8.1335139, -70.5780177 ], [ -8.1441167, -70.5808993 ], [ -8.1485788, -70.5845077 ], [ -8.1487832, -70.5866601 ], [ -8.1438075, -70.5876513 ], [ -8.1436514, -70.5910228 ], [ -8.1504104, -70.595458 ], [ -8.1485593, -70.6010266 ], [ -8.1555914, -70.607303 ], [ -8.1573144, -70.6131621 ], [ -8.1390865, -70.6077826 ], [ -8.1326086, -70.6095318 ], [ -8.1374687, -70.6124242 ], [ -8.1492189, -70.6178722 ], [ -8.1566197, -70.6232865 ], [ -8.160885, -70.6298112 ], [ -8.1467965, -70.6273577 ], [ -8.1411244, -70.6309908 ], [ -8.1351452, -70.6322357 ], [ -8.1369719, -70.6381557 ], [ -8.1349462, -70.6469016 ], [ -8.1245979, -70.6548402 ], [ -8.1148505, -70.6625093 ], [ -8.0975809, -70.6695713 ], [ -8.0910952, -70.6726627 ], [ -8.0784533, -70.6712316 ], [ -8.0677719, -70.6740577 ], [ -8.0582188, -70.6749943 ], [ -8.0513286, -70.6752177 ], [ -8.0381456, -70.6753735 ], [ -8.0303512, -70.6754033 ], [ -8.0144494, -70.6749699 ], [ -7.997957, -70.6748339 ], [ -7.9880825, -70.675275 ], [ -7.974032, -70.6765151 ], [ -7.9734434, -70.6768136 ], [ -7.9659688, -70.677341 ], [ -7.9605721, -70.6774553 ], [ -7.9506954, -70.6778943 ], [ -7.931802, -70.677664 ], [ -7.924323, -70.6781806 ], [ -7.9126715, -70.6795128 ], [ -7.9019247, -70.6810376 ], [ -7.8768028, -70.683302 ], [ -7.8307239, -70.6870239 ], [ -7.8067714, -70.6886819 ], [ -7.7834042, -70.6900297 ], [ -7.769021, -70.690761 ], [ -7.7645308, -70.6910722 ], [ -7.7531448, -70.6916036 ], [ -7.7453431, -70.6916205 ], [ -7.7339252, -70.6908507 ], [ -7.7238686, -70.6851116 ], [ -7.7061523, -70.6806462 ], [ -7.6815451, -70.6769654 ], [ -7.6610519, -70.6709469 ], [ -7.6371234, -70.6653184 ], [ -7.6196803, -70.6596389 ], [ -7.6083848, -70.651296 ], [ -7.5912938, -70.6446432 ], [ -7.5691714, -70.6416364 ], [ -7.5560083, -70.6417555 ], [ -7.5474631, -70.6377331 ], [ -7.5358679, -70.6339413 ], [ -7.5185631, -70.6320717 ], [ -7.5012237, -70.6282906 ], [ -7.4831269, -70.6262135 ], [ -7.4637706, -70.6227561 ], [ -7.4468805, -70.6182342 ], [ -7.4367927, -70.6126996 ], [ -7.4276019, -70.6076037 ], [ -7.4251146, -70.6012618 ], [ -7.4314436, -70.5990766 ], [ -7.4371762, -70.5911615 ], [ -7.4526397, -70.5834112 ], [ -7.4612626, -70.5797313 ], [ -7.4677878, -70.5751583 ], [ -7.4674231, -70.5700411 ], [ -7.4589245, -70.5685008 ], [ -7.4523915, -70.5683077 ], [ -7.4541978, -70.5656016 ], [ -7.4464672, -70.5623553 ], [ -7.4373902, -70.5574955 ], [ -7.4185414, -70.5532984 ], [ -7.3951334, -70.5502523 ], [ -7.3689805, -70.5456501 ], [ -7.3312047, -70.5405882 ], [ -7.2942432, -70.5357231 ], [ -7.2674163, -70.5292263 ], [ -7.24871, -70.5233367 ], [ -7.2299257, -70.5172102 ], [ -7.2038502, -70.5106741 ], [ -7.1972291, -70.5045088 ], [ -7.1872796, -70.5008707 ], [ -7.1484961, -70.4946244 ], [ -7.1127241, -70.4906311 ], [ -7.0781935, -70.4880112 ], [ -7.0374325, -70.4858806 ], [ -7.0013301, -70.4847422 ], [ -6.958974, -70.4859987 ], [ -6.916421, -70.4886837 ], [ -6.886239, -70.4920513 ], [ -6.8580727, -70.4950937 ], [ -6.8340354, -70.4977274 ], [ -6.8165254, -70.4986661 ], [ -6.8177955, -70.4962305 ], [ -6.8106842, -70.490314 ], [ -6.8113134, -70.4840886 ], [ -6.8168634, -70.4776666 ], [ -6.8036017, -70.4724731 ], [ -6.8020927, -70.4682411 ], [ -6.7966529, -70.4629738 ], [ -6.7927042, -70.4578854 ], [ -6.78319, -70.4551648 ], [ -6.7703825, -70.4551975 ], [ -6.7624908, -70.4550341 ], [ -6.7524464, -70.4528099 ], [ -6.7434005, -70.4534067 ], [ -6.7341442, -70.4513888 ], [ -6.721462, -70.4497441 ], [ -6.720098, -70.4478907 ], [ -6.7074603, -70.448389 ], [ -6.6996523, -70.4525106 ], [ -6.6994472, -70.4498963 ], [ -6.6972182, -70.4476001 ], [ -6.7036208, -70.4435339 ], [ -6.7034978, -70.4411549 ], [ -6.6913582, -70.4430627 ], [ -6.6704633, -70.4443594 ], [ -6.6536143, -70.4450186 ], [ -6.6345272, -70.4474319 ], [ -6.6151912, -70.4491374 ], [ -6.5992822, -70.4504695 ], [ -6.6195366, -70.4473001 ], [ -6.628551, -70.4445659 ], [ -6.6410729, -70.4416944 ], [ -6.6447122, -70.4398839 ], [ -6.6473221, -70.43716 ], [ -6.6367949, -70.4375708 ], [ -6.6217331, -70.4410488 ], [ -6.6335796, -70.4365044 ], [ -6.6283408, -70.4357551 ], [ -6.6171936, -70.4364271 ], [ -6.6038073, -70.4388537 ], [ -6.6107148, -70.4362022 ], [ -6.6102268, -70.4347912 ], [ -6.5975137, -70.4350461 ], [ -6.5872298, -70.4361593 ], [ -6.5743799, -70.438086 ], [ -6.5908732, -70.43435 ], [ -6.5915081, -70.4306646 ], [ -6.5891431, -70.4272672 ], [ -6.5798347, -70.4250059 ], [ -6.5695848, -70.4220656 ], [ -6.5706388, -70.4189269 ], [ -6.5717729, -70.4160233 ], [ -6.5643333, -70.4129745 ], [ -6.5508525, -70.4130178 ], [ -6.5294402, -70.4147944 ], [ -6.5188825, -70.4192504 ], [ -6.5053542, -70.4233424 ], [ -6.4922022, -70.4264658 ], [ -6.4872274, -70.4285618 ], [ -6.4818689, -70.4316252 ], [ -6.474054, -70.42954 ], [ -6.4642949, -70.4280048 ], [ -6.448393, -70.4293229 ], [ -6.4424054, -70.432647 ], [ -6.4344678, -70.436521 ], [ -6.4368034, -70.4410877 ], [ -6.4515253, -70.4449296 ], [ -6.4428591, -70.4445428 ], [ -6.4359704, -70.4465403 ], [ -6.4331258, -70.4494377 ], [ -6.4439371, -70.4540198 ], [ -6.46075, -70.4595916 ], [ -6.4732066, -70.464838 ], [ -6.4518385, -70.4584995 ], [ -6.4381523, -70.4574624 ], [ -6.4294157, -70.4574406 ], [ -6.4297282, -70.460302 ], [ -6.4302278, -70.4640816 ], [ -6.4307926, -70.4678726 ], [ -6.4334678, -70.4715842 ], [ -6.4282568, -70.4772611 ], [ -6.4213003, -70.4777613 ], [ -6.4089125, -70.4811409 ], [ -6.3945163, -70.4843376 ], [ -6.382, -70.4853644 ], [ -6.3555354, -70.4862168 ], [ -6.3377948, -70.4847333 ], [ -6.3334547, -70.4824272 ], [ -6.3282361, -70.4799195 ], [ -6.3250498, -70.4783088 ], [ -6.3192245, -70.4760936 ], [ -6.3163771, -70.4736959 ], [ -6.3131959, -70.4720939 ], [ -6.307645, -70.4703725 ], [ -6.2997282, -70.4685403 ], [ -6.2944532, -70.4673215 ], [ -6.2894462, -70.4665969 ], [ -6.2850512, -70.4655795 ], [ -6.2839643, -70.4635849 ], [ -6.2781511, -70.4613682 ], [ -6.2763941, -70.4609647 ], [ -6.2687507, -70.4596255 ], [ -6.2628715, -70.4586982 ], [ -6.2563811, -70.4580633 ], [ -6.2508391, -70.4563401 ], [ -6.2461766, -70.4548276 ], [ -6.242396, -70.4535167 ], [ -6.2345609, -70.4503918 ], [ -6.2276773, -70.4461787 ], [ -6.214048, -70.4408344 ], [ -6.2114138, -70.4402194 ], [ -6.2085148, -70.4391099 ], [ -6.1983999, -70.4345818 ], [ -6.1706423, -70.4228906 ], [ -6.1674816, -70.4212861 ], [ -6.1616891, -70.419066 ], [ -6.1532726, -70.4162297 ], [ -6.1486247, -70.4147058 ], [ -6.1398707, -70.4126641 ], [ -6.1369776, -70.4115536 ], [ -6.1261333, -70.4098927 ], [ -6.1182556, -70.4080525 ], [ -6.1135393, -70.4078262 ], [ -6.1079452, -70.4073882 ], [ -6.1014775, -70.4067475 ], [ -6.0952771, -70.4066099 ], [ -6.0790322, -70.4063005 ], [ -6.0678474, -70.4054222 ], [ -6.0498539, -70.4047045 ], [ -6.0285468, -70.4049482 ], [ -6.0071548, -70.4064788 ], [ -5.9958016, -70.4081749 ], [ -5.9841023, -70.4106741 ], [ -5.9754554, -70.4116977 ], [ -5.9730945, -70.4115826 ], [ -5.9701251, -70.4117588 ], [ -5.9682899, -70.4126329 ], [ -5.964358, -70.4138953 ], [ -5.9562308, -70.4202884 ], [ -5.9417118, -70.4291084 ], [ -5.9410084, -70.4306893 ], [ -5.9217729, -70.4305405 ], [ -5.9020908, -70.4324651 ], [ -5.8907152, -70.4341632 ], [ -5.8759168, -70.4381106 ], [ -5.8605978, -70.4370706 ], [ -5.8386388, -70.433382 ], [ -5.8141466, -70.4275563 ], [ -5.7833984, -70.422892 ], [ -5.7627846, -70.4204183 ], [ -5.7503208, -70.4167153 ], [ -5.7270944, -70.411788 ], [ -5.7159536, -70.4093074 ], [ -5.7068753, -70.4042194 ], [ -5.6935933, -70.3976858 ], [ -5.6875219, -70.389959 ], [ -5.6669632, -70.3843018 ], [ -5.638454, -70.383664 ], [ -5.6045384, -70.3806628 ], [ -5.5666449, -70.373663 ], [ -5.5380927, -70.3695224 ], [ -5.5169945, -70.3683063 ], [ -5.4852253, -70.369335 ], [ -5.4657805, -70.3705959 ], [ -5.4479348, -70.3708519 ], [ -5.4261308, -70.3671111 ], [ -5.4010396, -70.3650575 ], [ -5.3705238, -70.363806 ], [ -5.338667, -70.3644931 ], [ -5.3104593, -70.3647432 ], [ -5.2846222, -70.3633302 ], [ -5.2726463, -70.3643361 ], [ -5.2460496, -70.3635748 ], [ -5.2255694, -70.3610368 ], [ -5.2525809, -70.3598867 ], [ -5.2647269, -70.3595107 ], [ -5.2783959, -70.3578187 ], [ -5.2542668, -70.3557145 ], [ -5.228104, -70.3530357 ], [ -5.2055141, -70.34961 ], [ -5.1912506, -70.349096 ], [ -5.1744363, -70.353095 ], [ -5.1524454, -70.3518624 ], [ -5.1394618, -70.3490872 ], [ -5.1251293, -70.3447675 ], [ -5.1000333, -70.3388696 ], [ -5.075969, -70.3332546 ], [ -5.0541975, -70.3291523 ], [ -5.0264786, -70.3274415 ], [ -5.0005142, -70.3288424 ], [ -5.0, -70.328800996855307 ], [ -5.0, -75.0 ], [ -10.0, -75.0 ], [ -10.0, -70.917772 ], [ -9.9997459, -70.9177703 ] ] ] ] } }
]
}
