{
"type": "FeatureCollection",
"name": "-10_25",
"crs": { "type": "name", "properties": { "name": "urn:ogc:def:crs:OGC:1.3:CRS84" } },
"xy_coordinate_resolution": 1e-15,
"features": [
{ "type": "Feature", "properties": { "FID": 660342, "id": 1237, "left": -10.0, "top": 30.0, "right": -5.0, "bottom": 25.0, "row_index": 12, "col_index": 34, "min_lon": -10.0, "min_lat": 25.0, "tile_id": "-10_25" }, "geometry": { "type": "MultiPolygon", "coordinates": [ [ [ [ -9.9996051, 29.6456308 ], [ -9.9992296, 29.6457217 ], [ -9.99883, 29.6459781 ], [ -9.9986047, 29.6465003 ], [ -9.998433, 29.6468779 ], [ -9.9981755, 29.6471111 ], [ -9.9961424, 29.6478966 ], [ -9.9947852, 29.6488057 ], [ -9.9942434, 29.649202 ], [ -9.99331, 29.6498687 ], [ -9.9928138, 29.650258 ], [ -9.9922666, 29.6512393 ], [ -9.9920011, 29.6518617 ], [ -9.9915022, 29.6530388 ], [ -9.990896, 29.6550993 ], [ -9.9906063, 29.6554583 ], [ -9.9895622, 29.6557477 ], [ -9.9894328, 29.6563393 ], [ -9.9898285, 29.6568708 ], [ -9.9899599, 29.6572764 ], [ -9.9898526, 29.6575584 ], [ -9.9895173, 29.6577169 ], [ -9.9893323, 29.6577076 ], [ -9.9890948, 29.6574229 ], [ -9.9880646, 29.657982 ], [ -9.9877212, 29.6586908 ], [ -9.9876773, 29.6596165 ], [ -9.9870551, 29.6603437 ], [ -9.9866635, 29.6605535 ], [ -9.9863409, 29.6605568 ], [ -9.9859983, 29.660339 ], [ -9.9857649, 29.6603297 ], [ -9.9855959, 29.660388 ], [ -9.9852342, 29.6608941 ], [ -9.985038, 29.6617515 ], [ -9.9849898, 29.662502 ], [ -9.9849361, 29.6628539 ], [ -9.9848208, 29.6632455 ], [ -9.9846169, 29.6637652 ], [ -9.9841744, 29.6644877 ], [ -9.9840617, 29.6648164 ], [ -9.9840322, 29.6653431 ], [ -9.9839786, 29.6657882 ], [ -9.983933, 29.6661518 ], [ -9.9838445, 29.6667112 ], [ -9.9836379, 29.6675269 ], [ -9.9834314, 29.668296 ], [ -9.9833921, 29.6687126 ], [ -9.9836594, 29.6696664 ], [ -9.9838901, 29.6698388 ], [ -9.9842387, 29.6698761 ], [ -9.9848577, 29.6697556 ], [ -9.9850059, 29.6698178 ], [ -9.9850675, 29.6699833 ], [ -9.9840885, 29.6714469 ], [ -9.9836111, 29.6720575 ], [ -9.9822003, 29.6736469 ], [ -9.982034, 29.6740011 ], [ -9.9819642, 29.674374 ], [ -9.9823773, 29.6754972 ], [ -9.9823397, 29.6758118 ], [ -9.9820662, 29.6760379 ], [ -9.9800384, 29.6769421 ], [ -9.9795368, 29.6773406 ], [ -9.979223, 29.6778183 ], [ -9.9786866, 29.679114 ], [ -9.9785632, 29.6792328 ], [ -9.9783835, 29.6792957 ], [ -9.978067, 29.6792818 ], [ -9.9777049, 29.6793377 ], [ -9.9771363, 29.6795661 ], [ -9.9766856, 29.6797455 ], [ -9.9764657, 29.6799389 ], [ -9.9751836, 29.6818638 ], [ -9.9746364, 29.6824556 ], [ -9.9721259, 29.684674 ], [ -9.9705353, 29.6859439 ], [ -9.9696422, 29.6866081 ], [ -9.9684888, 29.6875028 ], [ -9.9656993, 29.6916131 ], [ -9.9655652, 29.6919254 ], [ -9.9655384, 29.6923261 ], [ -9.965694, 29.6928108 ], [ -9.965938, 29.6936193 ], [ -9.9659756, 29.6938779 ], [ -9.9659166, 29.6940154 ], [ -9.9649368, 29.694841 ], [ -9.9637869, 29.6960657 ], [ -9.9626631, 29.6971142 ], [ -9.9615138, 29.6984142 ], [ -9.9612254, 29.698815 ], [ -9.960992, 29.69909 ], [ -9.9602813, 29.699712 ], [ -9.958975, 29.7007022 ], [ -9.9576929, 29.7014664 ], [ -9.9569553, 29.701965 ], [ -9.9559495, 29.7026103 ], [ -9.9539298, 29.7039453 ], [ -9.9521971, 29.7052127 ], [ -9.9508533, 29.7063682 ], [ -9.9500433, 29.7070834 ], [ -9.9494746, 29.7075564 ], [ -9.9489328, 29.7080782 ], [ -9.9483722, 29.7086303 ], [ -9.947935, 29.7091219 ], [ -9.94753, 29.7095296 ], [ -9.9470741, 29.7099512 ], [ -9.9465564, 29.7103729 ], [ -9.945218, 29.7115703 ], [ -9.9442765, 29.7124556 ], [ -9.9433941, 29.7131404 ], [ -9.9426833, 29.7136646 ], [ -9.9414575, 29.7149831 ], [ -9.9406797, 29.7156913 ], [ -9.9400252, 29.7163319 ], [ -9.9385849, 29.7175828 ], [ -9.9373806, 29.7185891 ], [ -9.9365249, 29.7194067 ], [ -9.9362406, 29.7196746 ], [ -9.935149, 29.7205178 ], [ -9.9334404, 29.7216802 ], [ -9.9317613, 29.7231384 ], [ -9.9298784, 29.7246477 ], [ -9.9289185, 29.7253321 ], [ -9.9278507, 29.7262433 ], [ -9.9262145, 29.7274219 ], [ -9.9251899, 29.7281952 ], [ -9.9242431, 29.7288124 ], [ -9.9227965, 29.7297753 ], [ -9.9207595, 29.731214 ], [ -9.9189967, 29.7324785 ], [ -9.917382, 29.7336663 ], [ -9.9161589, 29.7345746 ], [ -9.9143672, 29.7358929 ], [ -9.9119586, 29.7376629 ], [ -9.9073881, 29.7409444 ], [ -9.9055991, 29.7423766 ], [ -9.9042982, 29.7434898 ], [ -9.9037068, 29.743951 ], [ -9.9020827, 29.7450106 ], [ -9.9003044, 29.7461424 ], [ -9.8950285, 29.7502991 ], [ -9.8939663, 29.7512725 ], [ -9.8864347, 29.757597 ], [ -9.8780394, 29.7649781 ], [ -9.8726374, 29.7696067 ], [ -9.8690325, 29.7730338 ], [ -9.8668411, 29.7747241 ], [ -9.8647946, 29.776824 ], [ -9.8638009, 29.7778518 ], [ -9.8621741, 29.7794756 ], [ -9.8612206, 29.780493 ], [ -9.859677, 29.7819293 ], [ -9.8590413, 29.7825066 ], [ -9.8583788, 29.7831329 ], [ -9.8575285, 29.7839616 ], [ -9.8569411, 29.7844598 ], [ -9.8560479, 29.7851232 ], [ -9.8546022, 29.78662 ], [ -9.8524645, 29.7884287 ], [ -9.851228, 29.7896415 ], [ -9.8473978, 29.7930493 ], [ -9.8451635, 29.7950418 ], [ -9.844375, 29.7959612 ], [ -9.8439699, 29.7962941 ], [ -9.8434764, 29.7964221 ], [ -9.8430902, 29.7965361 ], [ -9.8411858, 29.7982353 ], [ -9.8387316, 29.8005535 ], [ -9.837471, 29.8018732 ], [ -9.8373821, 29.8022637 ], [ -9.8374549, 29.8025994 ], [ -9.8373503, 29.8027483 ], [ -9.8370445, 29.8028344 ], [ -9.8354915, 29.8041471 ], [ -9.8347083, 29.8048384 ], [ -9.8343348, 29.8051557 ], [ -9.8336756, 29.8057414 ], [ -9.8329434, 29.8065513 ], [ -9.8324928, 29.8070238 ], [ -9.8314708, 29.8080874 ], [ -9.8311168, 29.8083434 ], [ -9.8308593, 29.8085715 ], [ -9.8305562, 29.8088414 ], [ -9.830457, 29.8090951 ], [ -9.8303068, 29.8094372 ], [ -9.8302558, 29.8097857 ], [ -9.8302062, 29.8100167 ], [ -9.8301566, 29.8101855 ], [ -9.8300962, 29.8103146 ], [ -9.8300131, 29.8104333 ], [ -9.8298387, 29.8105846 ], [ -9.8296858, 29.8107347 ], [ -9.8295289, 29.8108569 ], [ -9.8294538, 29.8109639 ], [ -9.8294163, 29.8110698 ], [ -9.829376, 29.8111734 ], [ -9.8293412, 29.8112944 ], [ -9.829319, 29.8113997 ], [ -9.8292983, 29.811563 ], [ -9.8293713, 29.8117744 ], [ -9.8293559, 29.8118541 ], [ -9.8292862, 29.81191 ], [ -9.8291789, 29.8119842 ], [ -9.8291125, 29.8120892 ], [ -9.8290844, 29.8121857 ], [ -9.8291025, 29.8123021 ], [ -9.8291373, 29.8123962 ], [ -9.8291867, 29.8125231 ], [ -9.8291863, 29.8126209 ], [ -9.8291246, 29.812721 ], [ -9.8290475, 29.8127751 ], [ -9.8289891, 29.8128222 ], [ -9.8289804, 29.8128973 ], [ -9.8290327, 29.8129782 ], [ -9.8290662, 29.8130759 ], [ -9.8290515, 29.8131748 ], [ -9.829026, 29.8132749 ], [ -9.8290046, 29.8133342 ], [ -9.8289794, 29.8134093 ], [ -9.8289455, 29.8134634 ], [ -9.8289192, 29.8135049 ], [ -9.8288671, 29.8135728 ], [ -9.8287994, 29.8136548 ], [ -9.8287377, 29.8137415 ], [ -9.8286331, 29.8139172 ], [ -9.8285419, 29.8140801 ], [ -9.8284453, 29.8142081 ], [ -9.8284386, 29.8142453 ], [ -9.8284681, 29.8142837 ], [ -9.8286726, 29.8144152 ], [ -9.8286659, 29.8144594 ], [ -9.8286203, 29.8144717 ], [ -9.8284239, 29.8143745 ], [ -9.8283219, 29.8143826 ], [ -9.8282468, 29.8144257 ], [ -9.8282133, 29.8145828 ], [ -9.8282173, 29.8148062 ], [ -9.8282321, 29.8149458 ], [ -9.8281791, 29.815061 ], [ -9.8280986, 29.815132 ], [ -9.8279853, 29.8152001 ], [ -9.8278914, 29.815274 ], [ -9.8277989, 29.8153729 ], [ -9.8276715, 29.8155288 ], [ -9.8275374, 29.8157673 ], [ -9.8273818, 29.8160117 ], [ -9.8272558, 29.8163002 ], [ -9.8272625, 29.8167424 ], [ -9.827228, 29.8175316 ], [ -9.8272356, 29.8180642 ], [ -9.8272494, 29.818388 ], [ -9.827182, 29.8189345 ], [ -9.8263371, 29.8207357 ], [ -9.8258141, 29.8212825 ], [ -9.8253661, 29.821727 ], [ -9.8249558, 29.8221249 ], [ -9.8244408, 29.8227765 ], [ -9.8240277, 29.8235072 ], [ -9.8236871, 29.8239679 ], [ -9.8233089, 29.8243425 ], [ -9.8228529, 29.8247823 ], [ -9.8222705, 29.8254984 ], [ -9.8213371, 29.8268946 ], [ -9.8207393, 29.8276933 ], [ -9.8196074, 29.8288451 ], [ -9.818848, 29.8296217 ], [ -9.8182073, 29.83009 ], [ -9.8175927, 29.8305431 ], [ -9.8170406, 29.8311673 ], [ -9.8167589, 29.8320026 ], [ -9.8165873, 29.8331008 ], [ -9.8160907, 29.8336144 ], [ -9.815565, 29.834117 ], [ -9.8149621, 29.8346993 ], [ -9.814412, 29.8353159 ], [ -9.8137373, 29.8359498 ], [ -9.8130066, 29.8367173 ], [ -9.8126605, 29.8370562 ], [ -9.812275, 29.8374936 ], [ -9.8115769, 29.8381149 ], [ -9.8108104, 29.8387884 ], [ -9.8101983, 29.839362 ], [ -9.809745, 29.8397598 ], [ -9.8088223, 29.8405578 ], [ -9.8078728, 29.8413675 ], [ -9.807052, 29.8420794 ], [ -9.8062474, 29.8429472 ], [ -9.8059872, 29.8434637 ], [ -9.8057351, 29.8439802 ], [ -9.805212, 29.8450597 ], [ -9.8047936, 29.845725 ], [ -9.8043331, 29.8462327 ], [ -9.8032165, 29.8469976 ], [ -9.8027229, 29.8478491 ], [ -9.802275, 29.8484818 ], [ -9.8015884, 29.8488634 ], [ -9.8010975, 29.8491356 ], [ -9.8007247, 29.8494496 ], [ -9.8003733, 29.849773 ], [ -9.7995982, 29.8506361 ], [ -9.7991368, 29.8511106 ], [ -9.7986567, 29.8517062 ], [ -9.7982383, 29.8522063 ], [ -9.7976857, 29.8531206 ], [ -9.7974229, 29.8534858 ], [ -9.7972029, 29.8538301 ], [ -9.7969052, 29.8540837 ], [ -9.7960013, 29.8546443 ], [ -9.7945905, 29.8563378 ], [ -9.7929436, 29.8586128 ], [ -9.7917098, 29.8602504 ], [ -9.7912538, 29.8609948 ], [ -9.7908998, 29.8615158 ], [ -9.7905725, 29.861981 ], [ -9.7902453, 29.8623788 ], [ -9.7885314, 29.8652375 ], [ -9.7884321, 29.865805 ], [ -9.7886145, 29.8663842 ], [ -9.788577, 29.8666168 ], [ -9.788003, 29.8677077 ], [ -9.7877562, 29.8685822 ], [ -9.7875577, 29.8693731 ], [ -9.7877669, 29.8704523 ], [ -9.7877227, 29.8705441 ], [ -9.7876194, 29.8706174 ], [ -9.7873083, 29.8706151 ], [ -9.7870722, 29.8708105 ], [ -9.7869891, 29.8710686 ], [ -9.7872707, 29.8717129 ], [ -9.7873405, 29.8719246 ], [ -9.7874706, 29.8720141 ], [ -9.7876342, 29.8720443 ], [ -9.7880271, 29.8718966 ], [ -9.788129, 29.8719269 ], [ -9.7881746, 29.8719897 ], [ -9.787944, 29.8726944 ], [ -9.7880995, 29.87302 ], [ -9.7898859, 29.8741806 ], [ -9.7905618, 29.8747225 ], [ -9.7910982, 29.8751365 ], [ -9.7911009, 29.8753109 ], [ -9.7894245, 29.8775344 ], [ -9.789167, 29.8776669 ], [ -9.788644, 29.8773855 ], [ -9.7878313, 29.8776855 ], [ -9.7866608, 29.8816288 ], [ -9.7854173, 29.8824299 ], [ -9.7851062, 29.8824903 ], [ -9.7848916, 29.8824113 ], [ -9.784618, 29.8819927 ], [ -9.7841728, 29.8819671 ], [ -9.7838831, 29.8820834 ], [ -9.7837839, 29.8822462 ], [ -9.7837973, 29.8826206 ], [ -9.7846127, 29.8833276 ], [ -9.7846931, 29.8836066 ], [ -9.784613, 29.8839558 ], [ -9.7834539, 29.8847462 ], [ -9.782998, 29.8850508 ], [ -9.7828048, 29.8854345 ], [ -9.7823156, 29.8871898 ], [ -9.7819331, 29.8874298 ], [ -9.7814101, 29.8877298 ], [ -9.7811097, 29.8877717 ], [ -9.780297, 29.8875717 ], [ -9.7800663, 29.8876786 ], [ -9.7800301, 29.8878833 ], [ -9.7808105, 29.8883506 ], [ -9.7808737, 29.8888995 ], [ -9.7805733, 29.8895553 ], [ -9.7794145, 29.8898715 ], [ -9.7778791, 29.8909399 ], [ -9.7776121, 29.8923969 ], [ -9.7770095, 29.8930025 ], [ -9.7765124, 29.8934434 ], [ -9.7757936, 29.8944107 ], [ -9.7752303, 29.8951501 ], [ -9.7743076, 29.8964105 ], [ -9.772996, 29.8988799 ], [ -9.7725669, 29.8990566 ], [ -9.7721377, 29.8989322 ], [ -9.7719929, 29.8990426 ], [ -9.7721404, 29.8995309 ], [ -9.7716334, 29.8999471 ], [ -9.7711989, 29.8998472 ], [ -9.771038, 29.8998983 ], [ -9.7709844, 29.9000402 ], [ -9.7712633, 29.9003866 ], [ -9.7712392, 29.9005587 ], [ -9.7710836, 29.9007819 ], [ -9.7703111, 29.9013725 ], [ -9.769764, 29.9020282 ], [ -9.769147, 29.9028094 ], [ -9.7683692, 29.9037302 ], [ -9.7678542, 29.9044742 ], [ -9.7670066, 29.9056786 ], [ -9.7666901, 29.9065854 ], [ -9.7664702, 29.9073759 ], [ -9.7661537, 29.9088546 ], [ -9.7657889, 29.9093335 ], [ -9.7643459, 29.9102031 ], [ -9.7637183, 29.9109517 ], [ -9.7635037, 29.9114213 ], [ -9.7634983, 29.9125141 ], [ -9.7633106, 29.9129883 ], [ -9.7623074, 29.9136068 ], [ -9.7615725, 29.9146436 ], [ -9.7614169, 29.9157503 ], [ -9.7615457, 29.9171173 ], [ -9.7616851, 29.9187074 ], [ -9.7618729, 29.9198419 ], [ -9.7625542, 29.9212181 ], [ -9.7625274, 29.9216273 ], [ -9.7621572, 29.9223665 ], [ -9.7614277, 29.9234731 ], [ -9.761315, 29.9247842 ], [ -9.7608912, 29.9264811 ], [ -9.7608751, 29.9270204 ], [ -9.7613445, 29.9276109 ], [ -9.7614786, 29.9279247 ], [ -9.7615001, 29.9281013 ], [ -9.7614196, 29.9281687 ], [ -9.7612292, 29.928178 ], [ -9.7604701, 29.9283105 ], [ -9.7600248, 29.9283477 ], [ -9.7599632, 29.9284058 ], [ -9.7599122, 29.9284593 ], [ -9.7598103, 29.9284826 ], [ -9.759703, 29.9284733 ], [ -9.7593007, 29.9284663 ], [ -9.7589305, 29.9285686 ], [ -9.7587562, 29.9287127 ], [ -9.7586247, 29.9289103 ], [ -9.7586006, 29.9290125 ], [ -9.7586784, 29.929066 ], [ -9.7588125, 29.9291125 ], [ -9.7590271, 29.929166 ], [ -9.7591317, 29.9292287 ], [ -9.759239, 29.9293798 ], [ -9.7596225, 29.9299331 ], [ -9.7596708, 29.9300725 ], [ -9.7596145, 29.9301353 ], [ -9.7594696, 29.930119 ], [ -9.7593516, 29.9300772 ], [ -9.7590941, 29.9299516 ], [ -9.7586408, 29.9298006 ], [ -9.7585174, 29.9297866 ], [ -9.7584075, 29.9298215 ], [ -9.7583163, 29.9299261 ], [ -9.7582224, 29.9300958 ], [ -9.7579891, 29.9305107 ], [ -9.7579944, 29.9305572 ], [ -9.758036, 29.9306211 ], [ -9.7585738, 29.9308966 ], [ -9.7586127, 29.930943 ], [ -9.758618, 29.9309791 ], [ -9.7585845, 29.931007 ], [ -9.7585362, 29.9310081 ], [ -9.7585054, 29.9310174 ], [ -9.7584249, 29.9310953 ], [ -9.7582935, 29.9312045 ], [ -9.7581969, 29.9313719 ], [ -9.7581674, 29.9314498 ], [ -9.7581875, 29.9315253 ], [ -9.7582707, 29.9316078 ], [ -9.7582868, 29.9316322 ], [ -9.758264, 29.9316683 ], [ -9.7582345, 29.9316845 ], [ -9.7582023, 29.9316845 ], [ -9.7579984, 29.9316694 ], [ -9.7576726, 29.9315811 ], [ -9.7573185, 29.9314556 ], [ -9.757061, 29.9314138 ], [ -9.7569323, 29.9314602 ], [ -9.7567874, 29.9315811 ], [ -9.7568411, 29.9317554 ], [ -9.7569564, 29.9319065 ], [ -9.7570395, 29.9320832 ], [ -9.7571227, 29.9321855 ], [ -9.7572702, 29.9322575 ], [ -9.7574204, 29.9323296 ], [ -9.757411, 29.9324086 ], [ -9.7573105, 29.9324923 ], [ -9.7572327, 29.9324969 ], [ -9.7571817, 29.9324458 ], [ -9.7570905, 29.9323273 ], [ -9.7569028, 29.9321994 ], [ -9.7568062, 29.9321994 ], [ -9.7567016, 29.9322506 ], [ -9.7566372, 29.9324365 ], [ -9.7566909, 29.9326643 ], [ -9.7568598, 29.9328758 ], [ -9.7571629, 29.9330734 ], [ -9.7572219, 29.9332082 ], [ -9.7572273, 29.9334035 ], [ -9.75712, 29.9336034 ], [ -9.7571173, 29.9338265 ], [ -9.7571602, 29.9340404 ], [ -9.7572595, 29.9342449 ], [ -9.7572944, 29.9345122 ], [ -9.7572649, 29.9346726 ], [ -9.7572085, 29.9347028 ], [ -9.7570637, 29.9347051 ], [ -9.7569832, 29.9347377 ], [ -9.7568733, 29.9348911 ], [ -9.7567901, 29.9350305 ], [ -9.7566909, 29.9350422 ], [ -9.7564709, 29.9350236 ], [ -9.7562349, 29.9349957 ], [ -9.7555482, 29.9348307 ], [ -9.7552183, 29.9347865 ], [ -9.755162, 29.9348004 ], [ -9.7550574, 29.9348771 ], [ -9.7549823, 29.9349841 ], [ -9.7549447, 29.9353327 ], [ -9.7549474, 29.935421 ], [ -9.7549099, 29.9354815 ], [ -9.7548321, 29.935507 ], [ -9.754647, 29.9354977 ], [ -9.7545022, 29.9355489 ], [ -9.7544324, 29.9356372 ], [ -9.7544083, 29.9357302 ], [ -9.7544029, 29.9360207 ], [ -9.7545826, 29.93646 ], [ -9.7548214, 29.9368505 ], [ -9.7548053, 29.9369365 ], [ -9.7547328, 29.9369784 ], [ -9.7546229, 29.9369737 ], [ -9.7543332, 29.9367668 ], [ -9.7540435, 29.9365251 ], [ -9.7538933, 29.9365112 ], [ -9.7537378, 29.9365809 ], [ -9.7536546, 29.9367087 ], [ -9.7536895, 29.9368621 ], [ -9.7539282, 29.9371968 ], [ -9.7540355, 29.9373991 ], [ -9.7541508, 29.937585 ], [ -9.7543868, 29.9378872 ], [ -9.75447, 29.938022 ], [ -9.7544619, 29.9381057 ], [ -9.7544029, 29.9381312 ], [ -9.7542661, 29.9380987 ], [ -9.7541642, 29.9380173 ], [ -9.7540918, 29.9379127 ], [ -9.7538638, 29.9375362 ], [ -9.7536948, 29.9372736 ], [ -9.7533596, 29.9368343 ], [ -9.7531235, 29.9367738 ], [ -9.7528768, 29.9368017 ], [ -9.7527212, 29.936904 ], [ -9.7525388, 29.9370713 ], [ -9.7524637, 29.9372573 ], [ -9.7524583, 29.9374014 ], [ -9.7526515, 29.9376245 ], [ -9.7530592, 29.9378988 ], [ -9.7532845, 29.9381266 ], [ -9.7534078, 29.9385031 ], [ -9.7534883, 29.9390098 ], [ -9.7534722, 29.9391028 ], [ -9.7533864, 29.9391446 ], [ -9.7530484, 29.9391911 ], [ -9.7528499, 29.9393445 ], [ -9.7526649, 29.9396257 ], [ -9.7526085, 29.9396885 ], [ -9.7525254, 29.9397001 ], [ -9.7521848, 29.9395328 ], [ -9.7517851, 29.9393956 ], [ -9.7515652, 29.9393887 ], [ -9.7514606, 29.9394142 ], [ -9.7513962, 29.9395095 ], [ -9.7514874, 29.9397489 ], [ -9.7516456, 29.9400755 ], [ -9.7517905, 29.9404253 ], [ -9.7518843, 29.9407623 ], [ -9.7518978, 29.9410761 ], [ -9.7519031, 29.9413317 ], [ -9.7519702, 29.9416223 ], [ -9.7521687, 29.9419337 ], [ -9.7522035, 29.9420662 ], [ -9.7521713, 29.9421475 ], [ -9.7520936, 29.9421731 ], [ -9.7518736, 29.9421638 ], [ -9.7514686, 29.9421104 ], [ -9.7513104, 29.9421452 ], [ -9.7509617, 29.9424125 ], [ -9.7508061, 29.9424729 ], [ -9.7506693, 29.9424939 ], [ -9.7505352, 29.9425891 ], [ -9.7504762, 29.9426868 ], [ -9.7504923, 29.9427751 ], [ -9.7505835, 29.9428634 ], [ -9.7506103, 29.9429517 ], [ -9.7505486, 29.9430214 ], [ -9.7504118, 29.9431167 ], [ -9.7503743, 29.9432144 ], [ -9.7503743, 29.9433236 ], [ -9.7503206, 29.9433724 ], [ -9.7501865, 29.9433631 ], [ -9.7500631, 29.9433189 ], [ -9.7496876, 29.9432027 ], [ -9.7495267, 29.9431865 ], [ -9.7493738, 29.9432097 ], [ -9.7492853, 29.9433004 ], [ -9.7493067, 29.9434979 ], [ -9.7493657, 29.9436071 ], [ -9.7495562, 29.943649 ], [ -9.7496554, 29.9437164 ], [ -9.7496367, 29.9437861 ], [ -9.7495052, 29.9437954 ], [ -9.7494248, 29.9438279 ], [ -9.7494006, 29.9439139 ], [ -9.749473, 29.944079 ], [ -9.7494838, 29.9442045 ], [ -9.749406, 29.9442858 ], [ -9.7492531, 29.9443183 ], [ -9.748942, 29.9442347 ], [ -9.7486576, 29.9441673 ], [ -9.748486, 29.9441952 ], [ -9.7483867, 29.9442951 ], [ -9.7480676, 29.9447297 ], [ -9.7477591, 29.9450249 ], [ -9.7476813, 29.945176 ], [ -9.7477296, 29.9453944 ], [ -9.7478691, 29.9455687 ], [ -9.7480997, 29.9457454 ], [ -9.7483733, 29.9459615 ], [ -9.7484753, 29.946101 ], [ -9.7484887, 29.9462125 ], [ -9.7483224, 29.946517 ], [ -9.7480917, 29.9467285 ], [ -9.7478583, 29.9468191 ], [ -9.747507, 29.9469888 ], [ -9.74711, 29.9473397 ], [ -9.7469223, 29.9478928 ], [ -9.7467774, 29.948446 ], [ -9.7466219, 29.9486458 ], [ -9.7462571, 29.9487016 ], [ -9.7459191, 29.9485296 ], [ -9.7455221, 29.9483391 ], [ -9.7451681, 29.9483484 ], [ -9.7449321, 29.9484413 ], [ -9.7447926, 29.9486087 ], [ -9.7448623, 29.9487435 ], [ -9.7452486, 29.9489201 ], [ -9.7455436, 29.9490921 ], [ -9.7456884, 29.9492362 ], [ -9.745726, 29.9494732 ], [ -9.7454256, 29.9500775 ], [ -9.7453934, 29.9502959 ], [ -9.7454739, 29.9507328 ], [ -9.7455061, 29.9509792 ], [ -9.7453827, 29.9511326 ], [ -9.7451574, 29.9511697 ], [ -9.7449589, 29.9510396 ], [ -9.7447711, 29.9508165 ], [ -9.7445726, 29.9507096 ], [ -9.7442347, 29.9507328 ], [ -9.743886, 29.9509978 ], [ -9.7436124, 29.9512952 ], [ -9.7434944, 29.9517089 ], [ -9.7434086, 29.9519692 ], [ -9.7433227, 29.9522295 ], [ -9.7433388, 29.9523364 ], [ -9.7435507, 29.9525455 ], [ -9.743591, 29.9526431 ], [ -9.7435641, 29.9527129 ], [ -9.7434649, 29.9527268 ], [ -9.7431994, 29.9526989 ], [ -9.7429204, 29.9527408 ], [ -9.7427541, 29.9528244 ], [ -9.7427005, 29.9530382 ], [ -9.7428399, 29.9536541 ], [ -9.7427809, 29.953761 ], [ -9.7426334, 29.9538074 ], [ -9.7422177, 29.9538563 ], [ -9.7419709, 29.9540189 ], [ -9.7419065, 29.9543257 ], [ -9.7418207, 29.9547626 ], [ -9.7414935, 29.9558595 ], [ -9.741295, 29.9567425 ], [ -9.7409087, 29.9581508 ], [ -9.7405225, 29.9588526 ], [ -9.7399217, 29.9597356 ], [ -9.739337, 29.960456 ], [ -9.738999, 29.9609533 ], [ -9.7388595, 29.9613298 ], [ -9.7388113, 29.9618224 ], [ -9.7387362, 29.9626264 ], [ -9.7386557, 29.96304 ], [ -9.7385216, 29.9635094 ], [ -9.7379315, 29.9642855 ], [ -9.7374058, 29.9650431 ], [ -9.7367942, 29.9660701 ], [ -9.7363061, 29.9668462 ], [ -9.7356033, 29.9678593 ], [ -9.7350669, 29.9685006 ], [ -9.7346646, 29.969142 ], [ -9.7339404, 29.9711356 ], [ -9.7335219, 29.9719023 ], [ -9.7332215, 29.9724182 ], [ -9.7326046, 29.9736217 ], [ -9.7320199, 29.9747138 ], [ -9.7310489, 29.9770139 ], [ -9.7310436, 29.9773532 ], [ -9.7311348, 29.9778178 ], [ -9.7313279, 29.9782732 ], [ -9.7316229, 29.9790028 ], [ -9.7315747, 29.9795743 ], [ -9.7314245, 29.9800901 ], [ -9.7310704, 29.9805687 ], [ -9.7306681, 29.9810287 ], [ -9.7302389, 29.9814655 ], [ -9.7299063, 29.981879 ], [ -9.7297132, 29.9826225 ], [ -9.7296113, 29.9832498 ], [ -9.7294021, 29.9836447 ], [ -9.7291231, 29.9839188 ], [ -9.7287208, 29.9841279 ], [ -9.7284472, 29.9843603 ], [ -9.7280288, 29.984718 ], [ -9.7277445, 29.9849689 ], [ -9.7275138, 29.9853128 ], [ -9.7274333, 29.9856287 ], [ -9.7273636, 29.9861445 ], [ -9.7272348, 29.986321 ], [ -9.7269291, 29.9865719 ], [ -9.7264731, 29.9870134 ], [ -9.7260493, 29.9875802 ], [ -9.7257033, 29.9883794 ], [ -9.7253358, 29.9894248 ], [ -9.7251803, 29.990203 ], [ -9.7252071, 29.9903331 ], [ -9.7252856, 29.9904611 ], [ -9.7252929, 29.9904731 ], [ -9.7254458, 29.9906444 ], [ -9.7254914, 29.9907791 ], [ -9.7254834, 29.9909208 ], [ -9.7253627, 29.9910835 ], [ -9.7249442, 29.991677 ], [ -9.7247592, 29.9918199 ], [ -9.7244695, 29.9919314 ], [ -9.7238338, 29.9920824 ], [ -9.7234663, 29.9923913 ], [ -9.7232598, 29.9927723 ], [ -9.7229031, 29.99336 ], [ -9.7225061, 29.9939919 ], [ -9.7222701, 29.9944635 ], [ -9.7221628, 29.9948862 ], [ -9.7220957, 29.9952184 ], [ -9.7220784, 29.9955156 ], [ -9.7221006, 29.9960414 ], [ -9.7221179, 29.9964488 ], [ -9.7222111, 29.9965774 ], [ -9.7224205, 29.9966571 ], [ -9.7225651, 29.9967446 ], [ -9.7226188, 29.9969002 ], [ -9.7226241, 29.9970605 ], [ -9.7224082, 29.997215 ], [ -9.7221145, 29.997258 ], [ -9.7219723, 29.9973044 ], [ -9.721849, 29.997503 ], [ -9.7217819, 29.9977295 ], [ -9.7216746, 29.9980942 ], [ -9.7215539, 29.9983707 ], [ -9.7213742, 29.9987307 ], [ -9.7211355, 29.9992232 ], [ -9.7209907, 29.9994322 ], [ -9.7207466, 29.9996064 ], [ -9.7205293, 29.9996761 ], [ -9.7202691, 29.9997667 ], [ -9.7200573, 29.9998991 ], [ -9.719954259887713, 30.0 ], [ -5.0, 30.0 ], [ -5.0, 25.0 ], [ -10.0, 25.0 ], [ -10.0, 29.645563659211046 ], [ -9.9996051, 29.6456308 ] ] ] ] } }
]
}
