{
"type": "FeatureCollection",
"name": "-110_55",
"crs": { "type": "name", "properties": { "name": "urn:ogc:def:crs:OGC:1.3:CRS84" } },
"xy_coordinate_resolution": 1e-15,
"features": [
{ "type": "Feature", "properties": { "FID": 537252, "id": 511, "left": -110.0, "top": 60.0, "right": -105.0, "bottom": 55.0, "row_index": 6, "col_index": 14, "min_lon": -110.0, "min_lat": 55.0, "tile_id": "-110_55" }, "geometry": { "type": "MultiPolygon", "coordinates": [ [ [ [ -105.0, 60.0 ], [ -105.0, 55.0 ], [ -110.0, 55.0 ], [ -110.0, 60.0 ], [ -105.0, 60.0 ] ] ] ] } }
]
}
