{
"type": "FeatureCollection",
"name": "-110_50",
"crs": { "type": "name", "properties": { "name": "urn:ogc:def:crs:OGC:1.3:CRS84" } },
"xy_coordinate_resolution": 1e-15,
"features": [
{ "type": "Feature", "properties": { "FID": 537252, "id": 512, "left": -110.0, "top": 55.0, "right": -105.0, "bottom": 50.0, "row_index": 7, "col_index": 14, "min_lon": -110.0, "min_lat": 50.0, "tile_id": "-110_50" }, "geometry": { "type": "MultiPolygon", "coordinates": [ [ [ [ -105.0, 55.0 ], [ -105.0, 50.0 ], [ -110.0, 50.0 ], [ -110.0, 55.0 ], [ -105.0, 55.0 ] ] ] ] } }
]
}
