{
"type": "FeatureCollection",
"name": "-120_-75",
"crs": { "type": "name", "properties": { "name": "urn:ogc:def:crs:OGC:1.3:CRS84" } },
"xy_coordinate_resolution": 1e-15,
"features": [
{ "type": "Feature", "properties": { "FID": 307096, "id": 465, "left": -120.0, "top": -70.0, "right": -115.0, "bottom": -75.0, "row_index": 32, "col_index": 12, "min_lon": -120.0, "min_lat": -75.0, "tile_id": "-120_-75" }, "geometry": { "type": "MultiPolygon", "coordinates": [ [ [ [ -119.9918362, -73.8436169 ], [ -119.9616735, -73.8401984 ], [ -119.9453596, -73.838686 ], [ -119.9288096, -73.8375781 ], [ -119.9195022, -73.8359471 ], [ -119.9133624, -73.8345192 ], [ -119.9124197, -73.8334008 ], [ -119.9042518, -73.8298862 ], [ -119.8958219, -73.829333 ], [ -119.8872391, -73.8280426 ], [ -119.8787597, -73.827243 ], [ -119.8725829, -73.8264555 ], [ -119.8663629, -73.8263091 ], [ -119.8598, -73.8262173 ], [ -119.8528447, -73.8259345 ], [ -119.8475564, -73.8260191 ], [ -119.8377609, -73.8256826 ], [ -119.8294358, -73.8256179 ], [ -119.8212074, -73.8251571 ], [ -119.813664, -73.8245866 ], [ -119.8057287, -73.8238248 ], [ -119.7982834, -73.8228579 ], [ -119.7930431, -73.8222996 ], [ -119.7871677, -73.8220962 ], [ -119.7856899, -73.8221789 ], [ -119.7798252, -73.822507 ], [ -119.7726287, -73.8227674 ], [ -119.7661667, -73.823164 ], [ -119.7602422, -73.8227141 ], [ -119.7536327, -73.8223734 ], [ -119.7464358, -73.8217457 ], [ -119.7408061, -73.8209951 ], [ -119.7365966, -73.8202717 ], [ -119.7325835, -73.8187566 ], [ -119.7264175, -73.8179646 ], [ -119.7191249, -73.8177318 ], [ -119.7110526, -73.8162294 ], [ -119.7049365, -73.8156824 ], [ -119.6987969, -73.8150124 ], [ -119.6896967, -73.8145598 ], [ -119.6826019, -73.8144213 ], [ -119.6697836, -73.8139257 ], [ -119.6595135, -73.8128982 ], [ -119.6523248, -73.8122673 ], [ -119.6444033, -73.8114994 ], [ -119.6361871, -73.8110312 ], [ -119.6292894, -73.8109865 ], [ -119.624207, -73.8102739 ], [ -119.6181974, -73.8093286 ], [ -119.6139024, -73.8081113 ], [ -119.6107847, -73.8065808 ], [ -119.6078158, -73.8049003 ], [ -119.60061, -73.8013608 ], [ -119.5957894, -73.7992148 ], [ -119.5947777, -73.7976038 ], [ -119.5948579, -73.7943013 ], [ -119.593022, -73.7920619 ], [ -119.5891778, -73.7903942 ], [ -119.5848903, -73.7891764 ], [ -119.5845566, -73.7883437 ], [ -119.575623, -73.787736 ], [ -119.5673187, -73.7876608 ], [ -119.5599969, -73.7871767 ], [ -119.5553133, -73.7866539 ], [ -119.5518523, -73.7860639 ], [ -119.5492019, -73.7850924 ], [ -119.5431492, -73.7847863 ], [ -119.5375762, -73.7851629 ], [ -119.5310206, -73.7859476 ], [ -119.5243857, -73.7853538 ], [ -119.5165746, -73.7850723 ], [ -119.5117316, -73.7855855 ], [ -119.5054854, -73.7851825 ], [ -119.4993433, -73.7843838 ], [ -119.4915331, -73.7841014 ], [ -119.4837823, -73.7831773 ], [ -119.4765691, -73.7822946 ], [ -119.4702359, -73.7813993 ], [ -119.464186, -73.7810908 ], [ -119.4622629, -73.7821526 ], [ -119.4568667, -73.7835097 ], [ -119.4519616, -73.7846627 ], [ -119.4427194, -73.7852361 ], [ -119.4380674, -73.7858433 ], [ -119.4304778, -73.7867871 ], [ -119.4195184, -73.7876297 ], [ -119.4079778, -73.7881843 ], [ -119.4025282, -73.7882844 ], [ -119.3893771, -73.7887124 ], [ -119.378198, -73.7883242 ], [ -119.3674699, -73.7874859 ], [ -119.354705, -73.7860837 ], [ -119.3468965, -73.7857958 ], [ -119.3372442, -73.78504 ], [ -119.3299301, -73.7845477 ], [ -119.3145509, -73.7843112 ], [ -119.2991968, -73.7831867 ], [ -119.2909887, -73.7815721 ], [ -119.2840211, -73.7810243 ], [ -119.2758055, -73.7814287 ], [ -119.2677818, -73.7819288 ], [ -119.259317, -73.7808581 ], [ -119.2529138, -73.7794645 ], [ -119.2446437, -73.7784893 ], [ -119.2358105, -73.7783584 ], [ -119.219996, -73.7796967 ], [ -119.2124258, -73.7797455 ], [ -119.2028647, -73.7794748 ], [ -119.1946073, -73.7796302 ], [ -119.1868048, -73.7793361 ], [ -119.181529, -73.7794036 ], [ -119.175517, -73.7781998 ], [ -119.1712243, -73.7767276 ], [ -119.1675878, -73.776035 ], [ -119.1634237, -73.7764327 ], [ -119.1582683, -73.7772368 ], [ -119.1522398, -73.7791845 ], [ -119.1491195, -73.7816865 ], [ -119.1447878, -73.7832433 ], [ -119.1396749, -73.7854255 ], [ -119.1316505, -73.7870529 ], [ -119.1258361, -73.7870764 ], [ -119.1070521, -73.7864729 ], [ -119.0994784, -73.7865175 ], [ -119.0938585, -73.7877689 ], [ -119.0894618, -73.7889558 ], [ -119.0859854, -73.7915104 ], [ -119.0802871, -73.7934027 ], [ -119.0711809, -73.7949424 ], [ -119.062685, -73.7958833 ], [ -119.0558725, -73.7963109 ], [ -119.0447727, -73.7963962 ], [ -119.0279325, -73.7958604 ], [ -119.0231484, -73.7957208 ], [ -119.0188197, -73.7973979 ], [ -119.0115794, -73.7996513 ], [ -119.0054307, -73.8009804 ], [ -118.9972353, -73.8016195 ], [ -118.9912615, -73.8017886 ], [ -118.9857446, -73.8026417 ], [ -118.9724107, -73.8043253 ], [ -118.965167, -73.8054444 ], [ -118.9622097, -73.8069072 ], [ -118.9571081, -73.8081979 ], [ -118.9508892, -73.8102895 ], [ -118.9401894, -73.8119402 ], [ -118.936611, -73.8140008 ], [ -118.9336046, -73.8163501 ], [ -118.9305424, -73.8183307 ], [ -118.925689, -73.8213415 ], [ -118.9174603, -73.8242429 ], [ -118.914485, -73.826838 ], [ -118.9125821, -73.8295191 ], [ -118.9087125, -73.833257 ], [ -118.9055793, -73.8360014 ], [ -118.903029, -73.8379018 ], [ -118.90006, -73.8393638 ], [ -118.8943227, -73.8412511 ], [ -118.8971759, -73.8438291 ], [ -118.9033971, -73.8476492 ], [ -118.9067798, -73.8514031 ], [ -118.9081694, -73.8548349 ], [ -118.9094302, -73.8597949 ], [ -118.9081325, -73.8630111 ], [ -118.9086287, -73.867586 ], [ -118.9090631, -73.8705362 ], [ -118.9101909, -73.8733802 ], [ -118.9099826, -73.87564 ], [ -118.9110961, -73.8810562 ], [ -118.9155878, -73.8837195 ], [ -118.9219141, -73.8881133 ], [ -118.9215395, -73.8919705 ], [ -118.9144595, -73.8952912 ], [ -118.908528, -73.8999997 ], [ -118.9077447, -73.9032486 ], [ -118.9087951, -73.9082282 ], [ -118.9127408, -73.9114234 ], [ -118.9204596, -73.9144881 ], [ -118.9274499, -73.9147586 ], [ -118.936881, -73.9186789 ], [ -118.9411912, -73.9200305 ], [ -118.9432927, -73.9235093 ], [ -118.9524039, -73.9252433 ], [ -118.9615289, -73.9249626 ], [ -118.9728491, -73.9245683 ], [ -118.9827337, -73.9230517 ], [ -118.9902127, -73.9223511 ], [ -118.9934269, -73.9247655 ], [ -118.9919748, -73.9276726 ], [ -118.994848, -73.929916 ], [ -118.9979972, -73.9318933 ], [ -119.0016914, -73.9353529 ], [ -118.999212, -73.9377468 ], [ -118.996097, -73.9393026 ], [ -118.8353716, -73.9253964 ], [ -118.8193965, -73.9260163 ], [ -118.8145218, -73.9256244 ], [ -118.7973208, -73.9243868 ], [ -118.7877604, -73.9249348 ], [ -118.775301, -73.9277384 ], [ -118.7687244, -73.9289655 ], [ -118.7607646, -73.9294952 ], [ -118.7534726, -73.9278816 ], [ -118.7536117, -73.9242313 ], [ -118.7432376, -73.9235399 ], [ -118.7285988, -73.9268974 ], [ -118.721001, -73.9300917 ], [ -118.7140299, -73.93319 ], [ -118.7059014, -73.9348762 ], [ -118.6950715, -73.935611 ], [ -118.6812566, -73.9356638 ], [ -118.668022, -73.9376676 ], [ -118.6654504, -73.9400965 ], [ -118.6601287, -73.9436213 ], [ -118.6485493, -73.946052 ], [ -118.6452842, -73.9481317 ], [ -118.6353056, -73.9505456 ], [ -118.6252665, -73.9525146 ], [ -118.6215388, -73.9560225 ], [ -118.6157998, -73.9589272 ], [ -118.6085087, -73.962292 ], [ -118.5989742, -73.9657677 ], [ -118.5902983, -73.9684336 ], [ -118.5786335, -73.9704161 ], [ -118.5664457, -73.973382 ], [ -118.553221, -73.9758231 ], [ -118.5437323, -73.9772488 ], [ -118.5193432, -73.9806838 ], [ -118.5015099, -73.9824529 ], [ -118.4891361, -73.9840809 ], [ -118.4625338, -73.9880636 ], [ -118.4520526, -73.9894051 ], [ -118.4374238, -73.9911394 ], [ -118.4244026, -73.9928583 ], [ -118.4151834, -73.9940085 ], [ -118.4043513, -73.9951727 ], [ -118.392249, -73.9965254 ], [ -118.3801959, -73.998322 ], [ -118.3664773, -73.9996873 ], [ -118.3563228, -74.001199 ], [ -118.3477788, -74.0026963 ], [ -118.3384053, -74.0054463 ], [ -118.3291723, -74.0065928 ], [ -118.3224294, -74.0069168 ], [ -118.305864, -74.0089251 ], [ -118.2952585, -74.0093696 ], [ -118.2821101, -74.0101905 ], [ -118.2741414, -74.0111461 ], [ -118.256787, -74.011911 ], [ -118.2423157, -74.0124733 ], [ -118.22868, -74.011782 ], [ -118.2199783, -74.0119404 ], [ -118.2097093, -74.0125558 ], [ -118.2010529, -74.013158 ], [ -118.1805113, -74.0143865 ], [ -118.1586036, -74.0149116 ], [ -118.1485819, -74.0148102 ], [ -118.1385158, -74.0142637 ], [ -118.128198, -74.0144305 ], [ -118.1191972, -74.0148539 ], [ -118.1082425, -74.0151135 ], [ -118.0970765, -74.0165308 ], [ -118.0878195, -74.0176666 ], [ -118.0749937, -74.0186499 ], [ -118.0617842, -74.0190124 ], [ -118.0502302, -74.0198071 ], [ -118.0364645, -74.0211506 ], [ -118.029113, -74.0220034 ], [ -118.0169994, -74.0237789 ], [ -117.9987628, -74.025774 ], [ -117.9864025, -74.0248799 ], [ -117.9759967, -74.02415 ], [ -117.9569987, -74.0249008 ], [ -117.9437039, -74.0243665 ], [ -117.9278568, -74.024204 ], [ -117.9132486, -74.0234094 ], [ -117.8947749, -74.0227276 ], [ -117.8862898, -74.0217139 ], [ -117.8720236, -74.0210923 ], [ -117.8617356, -74.0216905 ], [ -117.8528324, -74.0234363 ], [ -117.8425778, -74.0244783 ], [ -117.8283112, -74.0238535 ], [ -117.8198299, -74.0228373 ], [ -117.8136733, -74.0226074 ], [ -117.8072499, -74.0230907 ], [ -117.7971317, -74.025909 ], [ -117.7889271, -74.0284486 ], [ -117.7809539, -74.02983 ], [ -117.7735849, -74.0306736 ], [ -117.7642966, -74.0317951 ], [ -117.7532907, -74.0315913 ], [ -117.7442037, -74.0311092 ], [ -117.7221612, -74.0302541 ], [ -117.7109824, -74.0320954 ], [ -117.7043449, -74.0341782 ], [ -117.6979773, -74.0355475 ], [ -117.6848715, -74.0376648 ], [ -117.6751432, -74.037272 ], [ -117.6654462, -74.0373235 ], [ -117.6541023, -74.0369383 ], [ -117.645747, -74.0376936 ], [ -117.6321468, -74.0374079 ], [ -117.6192171, -74.0374737 ], [ -117.6072923, -74.0380676 ], [ -117.5960076, -74.0385686 ], [ -117.5863383, -74.0390611 ], [ -117.5728515, -74.0405503 ], [ -117.5577456, -74.0420463 ], [ -117.5432779, -74.0434493 ], [ -117.5323491, -74.044568 ], [ -117.5252668, -74.0451346 ], [ -117.5152571, -74.0454474 ], [ -117.5042452, -74.0452304 ], [ -117.4964938, -74.0454431 ], [ -117.4861235, -74.0451334 ], [ -117.4663598, -74.044597 ], [ -117.4549905, -74.0437563 ], [ -117.4439803, -74.0435361 ], [ -117.4322307, -74.0416281 ], [ -117.4218159, -74.0404257 ], [ -117.4156827, -74.0406288 ], [ -117.4063157, -74.0408448 ], [ -117.4006089, -74.043003 ], [ -117.393663, -74.0462334 ], [ -117.389926, -74.0490062 ], [ -117.3849259, -74.0524067 ], [ -117.3773528, -74.056173 ], [ -117.3726351, -74.0588602 ], [ -117.3653436, -74.0619133 ], [ -117.3576716, -74.0638999 ], [ -117.3542126, -74.0659593 ], [ -117.3464931, -74.067056 ], [ -117.337153, -74.0681584 ], [ -117.327436, -74.0681941 ], [ -117.3199609, -74.0676875 ], [ -117.316722, -74.0676992 ], [ -117.3069632, -74.0668444 ], [ -117.2981632, -74.0676155 ], [ -117.2938195, -74.0667774 ], [ -117.2886138, -74.0657362 ], [ -117.2850397, -74.0646569 ], [ -117.2806955, -74.0638189 ], [ -117.2761908, -74.0623023 ], [ -117.2718477, -74.061464 ], [ -117.2682216, -74.0601584 ], [ -117.2638795, -74.05932 ], [ -117.2603086, -74.0582403 ], [ -117.2558614, -74.0569493 ], [ -117.2507154, -74.0561333 ], [ -117.2463215, -74.0550684 ], [ -117.2367709, -74.0531788 ], [ -117.2322715, -74.0516616 ], [ -117.2270062, -74.0503847 ], [ -117.2140187, -74.0478738 ], [ -117.2089845, -74.0475088 ], [ -117.203829, -74.0466836 ], [ -117.1994412, -74.0456178 ], [ -117.1958774, -74.0445371 ], [ -117.191487, -74.0434716 ], [ -117.1878186, -74.0419385 ], [ -117.1842548, -74.0408579 ], [ -117.1806406, -74.0395508 ], [ -117.1769175, -74.037792 ], [ -117.174068, -74.0362449 ], [ -117.1705101, -74.0351635 ], [ -117.1685358, -74.033828 ], [ -117.165746, -74.0325062 ], [ -117.1637724, -74.0311706 ], [ -117.1609779, -74.0298495 ], [ -117.1581369, -74.0283015 ], [ -117.1561645, -74.0269658 ], [ -117.1533749, -74.0256441 ], [ -117.1505318, -74.0240965 ], [ -117.1468549, -74.0225551 ], [ -117.1433115, -74.021482 ], [ -117.1387667, -74.0197282 ], [ -117.1352247, -74.018655 ], [ -117.130849, -74.0175879 ], [ -117.126528, -74.0167464 ], [ -117.1229744, -74.0156647 ], [ -117.1143456, -74.01399 ], [ -117.1099729, -74.0129224 ], [ -117.1056578, -74.0120801 ], [ -117.1004638, -74.0110268 ], [ -117.096148, -74.0101845 ], [ -117.0917759, -74.0091167 ], [ -117.0866005, -74.0080709 ], [ -117.0795048, -74.0059059 ], [ -117.0723045, -74.003289 ], [ -117.0687555, -74.0022067 ], [ -117.0643927, -74.0011377 ], [ -117.0593109, -74.0005351 ], [ -117.0549568, -73.9994749 ], [ -117.0499268, -73.9990981 ], [ -117.0447989, -73.9982686 ], [ -117.0404971, -73.9974342 ], [ -117.0353161, -73.9963788 ], [ -117.0301863, -73.9955494 ], [ -117.0258764, -73.9947059 ], [ -117.0199413, -73.9938985 ], [ -117.0158131, -73.9935465 ], [ -117.0111209, -73.9931723 ], [ -116.9933691, -73.9925965 ], [ -116.9906507, -73.9918939 ], [ -116.9898027, -73.9917292 ], [ -116.9868471, -73.9912425 ], [ -116.9839023, -73.990815 ], [ -116.9801013, -73.9901631 ], [ -116.9775705, -73.9896774 ], [ -116.9742026, -73.989137 ], [ -116.9702004, -73.9885437 ], [ -116.9678871, -73.98822 ], [ -116.9657944, -73.9879565 ], [ -116.9611854, -73.9874281 ], [ -116.9567871, -73.9869004 ], [ -116.9538451, -73.986523 ], [ -116.9504875, -73.9860417 ], [ -116.9469196, -73.9855596 ], [ -116.9439522, -73.9850134 ], [ -116.9414356, -73.984637 ], [ -116.9388947, -73.9840917 ], [ -116.9356964, -73.9832638 ], [ -116.9337468, -73.9824837 ], [ -116.9320299, -73.9818735 ], [ -116.9305048, -73.9812567 ], [ -116.9275093, -73.98037 ], [ -116.9242998, -73.9793208 ], [ -116.9221305, -73.9784804 ], [ -116.9197623, -73.9776475 ], [ -116.9167574, -73.9767014 ], [ -116.9148383, -73.97615 ], [ -116.9118627, -73.9754328 ], [ -116.9076362, -73.974506 ], [ -116.9033831, -73.973512 ], [ -116.9014772, -73.9730195 ], [ -116.8987089, -73.9723542 ], [ -116.895981, -73.9719769 ], [ -116.8913618, -73.9712266 ], [ -116.8882148, -73.9707966 ], [ -116.8854697, -73.9702495 ], [ -116.8833425, -73.9696969 ], [ -116.8816569, -73.9694773 ], [ -116.8793242, -73.9688724 ], [ -116.8771978, -73.968269 ], [ -116.8742254, -73.9675512 ], [ -116.8712476, -73.9667228 ], [ -116.8688972, -73.9661103 ], [ -116.8669754, -73.9654479 ], [ -116.8650632, -73.9650069 ], [ -116.8635725, -73.9646183 ], [ -116.860394, -73.9638483 ], [ -116.8589038, -73.9634596 ], [ -116.8565886, -73.9630244 ], [ -116.8553164, -73.9626963 ], [ -116.8523527, -73.962038 ], [ -116.8481278, -73.961212 ], [ -116.8454042, -73.9607833 ], [ -116.842525, -73.9603043 ], [ -116.8424295, -73.9602885 ], [ -116.8405613, -73.9599627 ], [ -116.8378517, -73.9595928 ], [ -116.8349142, -73.9592141 ], [ -116.8326602, -73.9588715 ], [ -116.8326226, -73.9588657 ], [ -116.8325864, -73.9588602 ], [ -116.831342, -73.9586712 ], [ -116.8269799, -73.958259 ], [ -116.8214676, -73.9569347 ], [ -116.8199784, -73.9565458 ], [ -116.8182586, -73.9558755 ], [ -116.8173833, -73.9554817 ], [ -116.8151986, -73.9543602 ], [ -116.8139245, -73.953921 ], [ -116.8131985, -73.9535787 ], [ -116.8131067, -73.9535354 ], [ -116.8126168, -73.9533044 ], [ -116.8117748, -73.9531387 ], [ -116.8066939, -73.9519262 ], [ -116.8024716, -73.9511806 ], [ -116.8024218, -73.951172 ], [ -116.8014394, -73.9510011 ], [ -116.7987178, -73.9506225 ], [ -116.7968213, -73.9502399 ], [ -116.7951267, -73.9497988 ], [ -116.7942622, -73.9494642 ], [ -116.7933357, -73.948501 ], [ -116.7926568, -73.9479888 ], [ -116.7900731, -73.9469839 ], [ -116.7877335, -73.9463192 ], [ -116.7852159, -73.9458312 ], [ -116.7822484, -73.9451126 ], [ -116.7795212, -73.9446235 ], [ -116.7780229, -73.9441752 ], [ -116.776531, -73.9436754 ], [ -116.7756611, -73.943281 ], [ -116.774784, -73.9427763 ], [ -116.7739272, -73.9423901 ], [ -116.7734738, -73.9420488 ], [ -116.7723904, -73.9416538 ], [ -116.7713175, -73.9412068 ], [ -116.7696193, -73.940655 ], [ -116.7672928, -73.9401605 ], [ -116.7658302, -73.9398893 ], [ -116.7639525, -73.939676 ], [ -116.7566026, -73.9383655 ], [ -116.7555365, -73.9381401 ], [ -116.7536495, -73.9377056 ], [ -116.7508864, -73.9369281 ], [ -116.7491765, -73.9363677 ], [ -116.7485078, -73.9359149 ], [ -116.7453484, -73.9352029 ], [ -116.7432632, -73.9349376 ], [ -116.7411639, -73.9345529 ], [ -116.7371842, -73.9339553 ], [ -116.7348749, -73.933519 ], [ -116.7327412, -73.9327953 ], [ -116.7314846, -73.9325762 ], [ -116.7294017, -73.9323105 ], [ -116.7275361, -73.9322673 ], [ -116.7240197, -73.9321206 ], [ -116.7170186, -73.9320653 ], [ -116.7147523, -73.9320273 ], [ -116.7075142, -73.9317924 ], [ -116.7035703, -73.9314825 ], [ -116.6998492, -73.9312326 ], [ -116.6977303, -73.9307291 ], [ -116.6946027, -73.930356 ], [ -116.6908763, -73.930046 ], [ -116.6879616, -73.9298352 ], [ -116.684652, -73.9296895 ], [ -116.6809475, -73.9296088 ], [ -116.6770127, -73.9294086 ], [ -116.6734876, -73.9291512 ], [ -116.6697501, -73.9287818 ], [ -116.6668129, -73.9283415 ], [ -116.6636746, -73.9277978 ], [ -116.6622187, -73.927586 ], [ -116.660735, -73.9272467 ], [ -116.6592619, -73.9268655 ], [ -116.6575504, -73.926194 ], [ -116.6516956, -73.9252702 ], [ -116.6508234, -73.924765 ], [ -116.6501577, -73.9243119 ], [ -116.6490669, -73.9237462 ], [ -116.6475793, -73.9232457 ], [ -116.6448737, -73.9229247 ], [ -116.6430092, -73.9227696 ], [ -116.6399169, -73.9227347 ], [ -116.636613, -73.9225877 ], [ -116.6322382, -73.9221045 ], [ -116.6295069, -73.9215546 ], [ -116.6234038, -73.9201194 ], [ -116.6206653, -73.9195099 ], [ -116.6181571, -73.9190198 ], [ -116.6146051, -73.9184222 ], [ -116.6114802, -73.9180986 ], [ -116.6071221, -73.9176735 ], [ -116.6035728, -73.9171865 ], [ -116.6014775, -73.9168007 ], [ -116.5995766, -73.9162465 ], [ -116.5987126, -73.9158513 ], [ -116.5978203, -73.9151167 ], [ -116.5967523, -73.9146186 ], [ -116.5958138, -73.9134259 ], [ -116.5953244, -73.9126859 ], [ -116.5946645, -73.9121816 ], [ -116.5931424, -73.911282 ], [ -116.5916525, -73.9108324 ], [ -116.5893483, -73.9102837 ], [ -116.5863982, -73.9096732 ], [ -116.5847267, -73.9092892 ], [ -116.5832295, -73.9087295 ], [ -116.5825811, -73.9084459 ], [ -116.5810584, -73.9075464 ], [ -116.5795652, -73.9069862 ], [ -116.5774572, -73.9064305 ], [ -116.5757824, -73.9060469 ], [ -116.5734579, -73.9053799 ], [ -116.571976, -73.9048787 ], [ -116.5700741, -73.9044863 ], [ -116.5677883, -73.9042177 ], [ -116.5642705, -73.9039585 ], [ -116.5617845, -73.903748 ], [ -116.5566399, -73.9035629 ], [ -116.5524914, -73.9031891 ], [ -116.5495654, -73.9026962 ], [ -116.5466276, -73.9020334 ], [ -116.5443189, -73.9015357 ], [ -116.5419981, -73.9008681 ], [ -116.5407235, -73.9003684 ], [ -116.5390038, -73.8995267 ], [ -116.5376931, -73.8987898 ], [ -116.5367942, -73.8979958 ], [ -116.5352145, -73.8963576 ], [ -116.5343247, -73.8956229 ], [ -116.5338405, -73.8948826 ], [ -116.5333815, -73.8943204 ], [ -116.5327112, -73.8938077 ], [ -116.5324437, -73.8930171 ], [ -116.5317649, -73.8924451 ], [ -116.5304664, -73.8916057 ], [ -116.529391, -73.8910987 ], [ -116.5270668, -73.8904317 ], [ -116.5245444, -73.8898729 ], [ -116.5214116, -73.889217 ], [ -116.5199152, -73.8885968 ], [ -116.518412, -73.8878666 ], [ -116.5175555, -73.8874201 ], [ -116.516672, -73.8867957 ], [ -116.5153831, -73.8861771 ], [ -116.5122443, -73.8854615 ], [ -116.5103496, -73.8850681 ], [ -116.5076377, -73.8845759 ], [ -116.5055405, -73.8839683 ], [ -116.5034343, -73.8834124 ], [ -116.5017492, -73.8830202 ], [ -116.5000561, -73.8824071 ], [ -116.4983592, -73.881845 ], [ -116.4970942, -73.8814551 ], [ -116.4956431, -73.8812424 ], [ -116.4941575, -73.8806813 ], [ -116.4922746, -73.8802963 ], [ -116.4903868, -73.8798514 ], [ -116.4870257, -73.8790153 ], [ -116.4762388, -73.8776129 ], [ -116.4737272, -73.8771131 ], [ -116.4712022, -73.8764436 ], [ -116.4701262, -73.8759368 ], [ -116.468023, -73.8752695 ], [ -116.4635343, -73.8732478 ], [ -116.4622468, -73.8726291 ], [ -116.4603598, -73.8720731 ], [ -116.4594996, -73.8716777 ], [ -116.4570052, -73.8712965 ], [ -116.454935, -73.8710281 ], [ -116.4485074, -73.8703235 ], [ -116.4462152, -73.869884 ], [ -116.4441233, -73.8693867 ], [ -116.4426577, -73.8689439 ], [ -116.44036, -73.8685556 ], [ -116.4374632, -73.8681795 ], [ -116.4333229, -73.8678039 ], [ -116.4302286, -73.8675962 ], [ -116.4265183, -73.867282 ], [ -116.4236247, -73.8670163 ], [ -116.4209255, -73.8667439 ], [ -116.4186496, -73.8664735 ], [ -116.4155302, -73.8659263 ], [ -116.4130409, -73.8655442 ], [ -116.4099399, -73.8653877 ], [ -116.4064452, -73.8651847 ], [ -116.403342, -73.8649175 ], [ -116.3990173, -73.8646071 ], [ -116.3961009, -73.8641629 ], [ -116.392985, -73.8635647 ], [ -116.3908788, -73.8629481 ], [ -116.3900247, -73.8625519 ], [ -116.3885618, -73.8622195 ], [ -116.3875012, -73.8617711 ], [ -116.3856361, -73.8615547 ], [ -116.3833721, -73.8614538 ], [ -116.3805114, -73.8614755 ], [ -116.3768272, -73.8616107 ], [ -116.3743753, -73.8617372 ], [ -116.3672396, -73.8622373 ], [ -116.3637798, -73.8625428 ], [ -116.3619623, -73.8627328 ], [ -116.357895, -73.8632631 ], [ -116.3538465, -73.8638611 ], [ -116.3499954, -73.864452 ], [ -116.3433258, -73.8656324 ], [ -116.3380915, -73.8668064 ], [ -116.3360702, -73.8672155 ], [ -116.3320475, -73.8681519 ], [ -116.3268719, -73.8700124 ], [ -116.3242748, -73.8708834 ], [ -116.3224572, -73.8713449 ], [ -116.317221, -73.8725181 ], [ -116.311164, -73.8736427 ], [ -116.3077323, -73.8743459 ], [ -116.3055149, -73.8748721 ], [ -116.3030884, -73.8753968 ], [ -116.2990419, -73.8762144 ], [ -116.2968357, -73.8767994 ], [ -116.2940333, -73.8776172 ], [ -116.288192, -73.8790736 ], [ -116.2843805, -73.8800699 ], [ -116.281964, -73.880764 ], [ -116.27875, -73.8817487 ], [ -116.2761677, -73.8827373 ], [ -116.2737763, -73.883609 ], [ -116.2713588, -73.8843029 ], [ -116.265914, -73.8855326 ], [ -116.2620752, -73.8864614 ], [ -116.2580285, -73.8872272 ], [ -116.2550068, -73.8879834 ], [ -116.2537916, -73.8881096 ], [ -116.2491121, -73.8886497 ], [ -116.245633, -73.8888944 ], [ -116.240115, -73.8891564 ], [ -116.2356181, -73.88952 ], [ -116.2303386, -73.8901819 ], [ -116.2272752, -73.8905909 ], [ -116.2244389, -73.8910089 ], [ -116.2220059, -73.8914222 ], [ -116.2189504, -73.8917795 ], [ -116.2165163, -73.8920821 ], [ -116.213661, -73.8924925 ], [ -116.2106226, -73.8929681 ], [ -116.2081892, -73.8933811 ], [ -116.2051531, -73.893967 ], [ -116.2017012, -73.8946096 ], [ -116.1988568, -73.8950786 ], [ -116.1948046, -73.8958432 ], [ -116.1901467, -73.8966703 ], [ -116.1871011, -73.8973073 ], [ -116.185288, -73.8976655 ], [ -116.1828558, -73.8981885 ], [ -116.180223, -73.8986584 ], [ -116.1796165, -73.8988317 ], [ -116.1755161, -73.8989684 ], [ -116.1743335, -73.8997133 ], [ -116.1731378, -73.9001782 ], [ -116.1717211, -73.9005826 ], [ -116.1701143, -73.9011036 ], [ -116.1687139, -73.9015159 ], [ -116.1665152, -73.9024897 ], [ -116.1647573, -73.9036449 ], [ -116.1636021, -73.9047883 ], [ -116.1624598, -73.9060507 ], [ -116.162302, -73.9069576 ], [ -116.1619465, -73.9077002 ], [ -116.161212, -73.9089573 ], [ -116.1613473, -73.9107298 ], [ -116.1620187, -73.9115237 ], [ -116.1627093, -73.9126571 ], [ -116.1635649, -73.9131644 ], [ -116.1663204, -73.9142379 ], [ -116.1682437, -73.9152538 ], [ -116.1699303, -73.91598 ], [ -116.172065, -73.9169973 ], [ -116.1748065, -73.917952 ], [ -116.177808, -73.9197569 ], [ -116.1786818, -73.9203826 ], [ -116.1799897, -73.9215126 ], [ -116.1824015, -73.9234985 ], [ -116.1848645, -73.926333 ], [ -116.1853478, -73.9273037 ], [ -116.1860521, -73.9284959 ], [ -116.186917, -73.9290625 ], [ -116.1874169, -73.9304235 ], [ -116.1876869, -73.9313327 ], [ -116.1877376, -73.9319598 ], [ -116.1882244, -73.9330408 ], [ -116.188907, -73.9340046 ], [ -116.189804, -73.9348587 ], [ -116.191313, -73.9358206 ], [ -116.1930104, -73.936606 ], [ -116.1968351, -73.9382389 ], [ -116.1989669, -73.9391967 ], [ -116.2031783, -73.9404851 ], [ -116.2061501, -73.9418318 ], [ -116.2086851, -73.9426742 ], [ -116.2131036, -73.9439043 ], [ -116.2158425, -73.9447995 ], [ -116.2196423, -73.9459227 ], [ -116.2173924, -73.9493674 ], [ -116.211772, -73.9525243 ], [ -116.2085699, -73.9560691 ], [ -116.1889039, -73.9659177 ], [ -116.1720495, -73.973467 ], [ -116.1657266, -73.9762377 ], [ -116.1551668, -73.9814949 ], [ -116.1494724, -73.9865695 ], [ -116.1406777, -73.9903902 ], [ -116.1318659, -73.9946904 ], [ -116.1223641, -73.9986048 ], [ -116.1104324, -74.0021298 ], [ -116.0988662, -74.0048871 ], [ -116.0931883, -74.008521 ], [ -116.0794721, -74.0129999 ], [ -116.0713456, -74.0167236 ], [ -116.0628575, -74.020734 ], [ -116.0534006, -74.0222464 ], [ -116.0376567, -74.0241266 ], [ -116.0281463, -74.0270773 ], [ -116.0256539, -74.0286064 ], [ -116.0192666, -74.0318529 ], [ -116.0157132, -74.033763 ], [ -116.0121254, -74.0366327 ], [ -116.00474, -74.0383405 ], [ -115.997626, -74.0421603 ], [ -115.9859754, -74.0458713 ], [ -115.9718725, -74.0496707 ], [ -115.9584646, -74.0533753 ], [ -115.9457527, -74.0569851 ], [ -115.934839, -74.05916 ], [ -115.9221563, -74.0618088 ], [ -115.9132644, -74.0656205 ], [ -115.9026815, -74.0679867 ], [ -115.8875771, -74.0697619 ], [ -115.8787979, -74.0706931 ], [ -115.8601926, -74.0724547 ], [ -115.8429679, -74.0745075 ], [ -115.8330724, -74.0767768 ], [ -115.8218116, -74.0782728 ], [ -115.8070515, -74.0797555 ], [ -115.791608, -74.0808507 ], [ -115.7799761, -74.0826311 ], [ -115.7532058, -74.0861764 ], [ -115.7415654, -74.0879546 ], [ -115.716893, -74.0912156 ], [ -115.7052186, -74.0934717 ], [ -115.6914248, -74.0960063 ], [ -115.6432934, -74.0987755 ], [ -115.6309826, -74.0996808 ], [ -115.6186413, -74.1010652 ], [ -115.6084165, -74.1021706 ], [ -115.5944389, -74.1016263 ], [ -115.5810784, -74.1024278 ], [ -115.5690992, -74.103523 ], [ -115.5553054, -74.1055689 ], [ -115.5380363, -74.1071168 ], [ -115.5190122, -74.1086545 ], [ -115.5094829, -74.1096627 ], [ -115.4925749, -74.1109207 ], [ -115.4741825, -74.1133217 ], [ -115.4582784, -74.1151582 ], [ -115.4444599, -74.1171968 ], [ -115.4284788, -74.1199909 ], [ -115.4169028, -74.1248241 ], [ -115.3922127, -74.1266074 ], [ -115.3699063, -74.1292655 ], [ -115.3515852, -74.1302164 ], [ -115.3417333, -74.1305431 ], [ -115.3298675, -74.1297053 ], [ -115.3148303, -74.1290399 ], [ -115.3008394, -74.1284759 ], [ -115.2833418, -74.1278894 ], [ -115.2707319, -74.1276198 ], [ -115.2560745, -74.1266645 ], [ -115.2416722, -74.126862 ], [ -115.2319425, -74.1257441 ], [ -115.202679, -74.1233474 ], [ -115.1780155, -74.1205929 ], [ -115.1638749, -74.1179062 ], [ -115.1546623, -74.1150598 ], [ -115.1441213, -74.1114358 ], [ -115.1368692, -74.1102342 ], [ -115.1317461, -74.1087589 ], [ -115.1291285, -74.1067246 ], [ -115.1191832, -74.1008028 ], [ -115.125435, -74.0967846 ], [ -115.1257249, -74.0965258 ], [ -115.1257909, -74.0963916 ], [ -115.1257803, -74.0962562 ], [ -115.1256496, -74.0961253 ], [ -115.1257573, -74.0959927 ], [ -115.1260572, -74.0957347 ], [ -115.1269575, -74.095104 ], [ -115.1270786, -74.0949727 ], [ -115.1271602, -74.0947027 ], [ -115.1270731, -74.0945692 ], [ -115.1271043, -74.0944345 ], [ -115.1272169, -74.0943023 ], [ -115.1282628, -74.093584 ], [ -115.1295907, -74.093024 ], [ -115.1300981, -74.0926424 ], [ -115.130451, -74.0922478 ], [ -115.1305184, -74.0918419 ], [ -115.1306878, -74.091437 ], [ -115.1306892, -74.0913021 ], [ -115.1309614, -74.0909028 ], [ -115.1309962, -74.0907676 ], [ -115.1309091, -74.0904974 ], [ -115.1307398, -74.0902308 ], [ -115.1293239, -74.0892195 ], [ -115.1284548, -74.0887326 ], [ -115.1274278, -74.088269 ], [ -115.1271324, -74.0881613 ], [ -115.1264519, -74.0879655 ], [ -115.1235878, -74.0872183 ], [ -115.1225894, -74.0869177 ], [ -115.1199403, -74.0857747 ], [ -115.1193426, -74.0855593 ], [ -115.1173134, -74.0849652 ], [ -115.1148551, -74.0843005 ], [ -115.1133299, -74.0839559 ], [ -115.1074499, -74.0827196 ], [ -115.1067105, -74.0825393 ], [ -115.1033162, -74.081555 ], [ -115.101405, -74.0811263 ], [ -115.1003393, -74.0808453 ], [ -115.1000236, -74.0807402 ], [ -115.0992023, -74.0804029 ], [ -115.0977582, -74.0796927 ], [ -115.0969339, -74.0793547 ], [ -115.0951164, -74.078898 ], [ -115.0947808, -74.0787985 ], [ -115.0914038, -74.0776314 ], [ -115.088737, -74.076831 ], [ -115.0878206, -74.0765109 ], [ -115.0875559, -74.0763983 ], [ -115.0871802, -74.0761473 ], [ -115.0868704, -74.0758898 ], [ -115.0867781, -74.0757571 ], [ -115.0867626, -74.0756214 ], [ -115.0870116, -74.0748114 ], [ -115.0873388, -74.0742775 ], [ -115.0873605, -74.0741411 ], [ -115.0871776, -74.0738753 ], [ -115.0871798, -74.0734691 ], [ -115.0873532, -74.0730647 ], [ -115.0874759, -74.0729343 ], [ -115.0884678, -74.0721684 ], [ -115.0886623, -74.071903 ], [ -115.0886415, -74.071767 ], [ -115.0884946, -74.0716382 ], [ -115.0877501, -74.0712881 ], [ -115.0876022, -74.0711574 ], [ -115.0875293, -74.0710242 ], [ -115.0874008, -74.0704841 ], [ -115.0879249, -74.0699619 ], [ -115.0881507, -74.0694231 ], [ -115.0881458, -74.0692871 ], [ -115.0884479, -74.0690288 ], [ -115.0897607, -74.0681518 ], [ -115.0892472, -74.0677719 ], [ -115.0886015, -74.0675677 ], [ -115.0878381, -74.0673955 ], [ -115.0867536, -74.06712 ], [ -115.0851454, -74.0668051 ], [ -115.0847978, -74.0667092 ], [ -115.0845492, -74.0665925 ], [ -115.0846158, -74.0663226 ], [ -115.084597, -74.0659161 ], [ -115.0843604, -74.0648343 ], [ -115.0843926, -74.0646975 ], [ -115.0846274, -74.0642973 ], [ -115.0846473, -74.0641611 ], [ -115.0845872, -74.0640271 ], [ -115.0843576, -74.0639071 ], [ -115.0841963, -74.0637792 ], [ -115.0839213, -74.0633806 ], [ -115.0836198, -74.0631212 ], [ -115.0835257, -74.0629887 ], [ -115.0832542, -74.062876 ], [ -115.0824821, -74.0627079 ], [ -115.0811057, -74.0623194 ], [ -115.0806613, -74.0620773 ], [ -115.0804873, -74.061951 ], [ -115.0802538, -74.0618315 ], [ -115.079962, -74.0617214 ], [ -115.0796518, -74.0616166 ], [ -115.0790648, -74.0613999 ], [ -115.0786614, -74.0613201 ], [ -115.0774445, -74.0610905 ], [ -115.0753313, -74.0607409 ], [ -115.0749328, -74.0606614 ], [ -115.0745793, -74.0605673 ], [ -115.0733619, -74.0603358 ], [ -115.0725269, -74.0601918 ], [ -115.070793, -74.059933 ], [ -115.0699879, -74.0597772 ], [ -115.0695489, -74.0597139 ], [ -115.0686326, -74.0596153 ], [ -115.0676828, -74.0595399 ], [ -115.0667147, -74.0594948 ], [ -115.0648599, -74.0593113 ], [ -115.0607539, -74.0588486 ], [ -115.0598633, -74.0587317 ], [ -115.0590392, -74.0585833 ], [ -115.0583846, -74.0583812 ], [ -115.0581003, -74.0582701 ], [ -115.0579414, -74.058142 ], [ -115.0574989, -74.0579006 ], [ -115.0571718, -74.0577991 ], [ -115.0566449, -74.0575706 ], [ -115.056093, -74.0570502 ], [ -115.0559815, -74.05651 ], [ -115.0558843, -74.0563769 ], [ -115.0557733, -74.0562436 ], [ -115.0555401, -74.056124 ], [ -115.0552436, -74.0558669 ], [ -115.0549336, -74.0557622 ], [ -115.0537512, -74.0555162 ], [ -115.0534178, -74.0554174 ], [ -115.0531768, -74.0552998 ], [ -115.0528615, -74.0551957 ], [ -115.0521233, -74.0550164 ], [ -115.0512465, -74.0548927 ], [ -115.0503126, -74.0548062 ], [ -115.0478692, -74.0547212 ], [ -115.0464593, -74.0546002 ], [ -115.0455737, -74.0544806 ], [ -115.045161, -74.054406 ], [ -115.0447977, -74.0543151 ], [ -115.0434776, -74.0537438 ], [ -115.043269, -74.053621 ], [ -115.0429691, -74.0535139 ], [ -115.0421876, -74.0533491 ], [ -115.0417509, -74.0532855 ], [ -115.0398268, -74.0531697 ], [ -115.0388476, -74.0531458 ], [ -115.0378808, -74.0531972 ], [ -115.0369003, -74.0531686 ], [ -115.0359141, -74.0531805 ], [ -115.0344476, -74.0532272 ], [ -115.0339695, -74.0532607 ], [ -115.0335159, -74.0533139 ], [ -115.0330266, -74.0533289 ], [ -115.0325523, -74.0533659 ], [ -115.0320606, -74.0533781 ], [ -115.0310746, -74.0533701 ], [ -115.0306041, -74.0533308 ], [ -115.0301722, -74.0532646 ], [ -115.0294442, -74.0530829 ], [ -115.0288084, -74.0528753 ], [ -115.0282683, -74.0526496 ], [ -115.0278675, -74.0524029 ], [ -115.0277057, -74.0522741 ], [ -115.0277666, -74.0520031 ], [ -115.0281594, -74.0517553 ], [ -115.0282997, -74.0516256 ], [ -115.0285376, -74.0513628 ], [ -115.02857, -74.0512271 ], [ -115.0282068, -74.0509746 ], [ -115.0277518, -74.0507359 ], [ -115.0269113, -74.0504011 ], [ -115.0262966, -74.0501899 ], [ -115.0258332, -74.0501427 ], [ -115.0241558, -74.0498596 ], [ -115.0237868, -74.0497704 ], [ -115.0231921, -74.0495536 ], [ -115.0224886, -74.0493647 ], [ -115.0215087, -74.0490598 ], [ -115.0203719, -74.0488 ], [ -115.0191208, -74.0485847 ], [ -115.015635, -74.048077 ], [ -115.014809, -74.0479308 ], [ -115.0144365, -74.047842 ], [ -115.0138747, -74.0476191 ], [ -115.0131657, -74.0474309 ], [ -115.0127672, -74.0473524 ], [ -115.0118873, -74.0472291 ], [ -115.0087101, -74.0468612 ], [ -115.0074082, -74.0466693 ], [ -115.0070104, -74.0465898 ], [ -115.005696, -74.0461862 ], [ -115.0054168, -74.0460735 ], [ -115.0046784, -74.0458961 ], [ -115.0041796, -74.0456621 ], [ -115.0037261, -74.0451342 ], [ -115.0031357, -74.0447633 ], [ -115.0028828, -74.0446463 ], [ -115.0026459, -74.0443836 ], [ -115.002222, -74.044139 ], [ -115.0019814, -74.0438768 ], [ -115.001966, -74.0437422 ], [ -115.0021152, -74.0433373 ], [ -115.0024959, -74.0429446 ], [ -115.0026865, -74.042679 ], [ -115.0027138, -74.0425429 ], [ -115.0026185, -74.0424106 ], [ -115.0021192, -74.0420291 ], [ -115.0012833, -74.0418862 ], [ -115.000911, -74.0417974 ], [ -115.000301, -74.0415846 ], [ -115.0000669, -74.0414651 ], [ -115.0, -74.041420388011545 ], [ -115.0, -75.0 ], [ -120.0, -75.0 ], [ -120.0, -73.8441366 ], [ -119.9918362, -73.8436169 ] ] ] ] } }
]
}
