{
"type": "FeatureCollection",
"name": "-120_-90",
"crs": { "type": "name", "properties": { "name": "urn:ogc:def:crs:OGC:1.3:CRS84" } },
"xy_coordinate_resolution": 1e-15,
"features": [
{ "type": "Feature", "properties": { "FID": 307096, "id": 468, "left": -120.0, "top": -85.0, "right": -115.0, "bottom": -90.0, "row_index": 35, "col_index": 12, "min_lon": -120.0, "min_lat": -90.0, "tile_id": "-120_-90" }, "geometry": { "type": "MultiPolygon", "coordinates": [ [ [ [ -116.0, -90.0 ], [ -117.0, -90.0 ], [ -118.0, -90.0 ], [ -119.0, -90.0 ], [ -120.0, -90.0 ], [ -120.0, -85.0 ], [ -115.0, -85.0 ], [ -115.0, -90.0 ], [ -116.0, -90.0 ] ] ] ] } }
]
}
