{
"type": "FeatureCollection",
"name": "-120_40",
"crs": { "type": "name", "properties": { "name": "urn:ogc:def:crs:OGC:1.3:CRS84" } },
"xy_coordinate_resolution": 1e-15,
"features": [
{ "type": "Feature", "properties": { "FID": 537252, "id": 442, "left": -120.0, "top": 45.0, "right": -115.0, "bottom": 40.0, "row_index": 9, "col_index": 12, "min_lon": -120.0, "min_lat": 40.0, "tile_id": "-120_40" }, "geometry": { "type": "MultiPolygon", "coordinates": [ [ [ [ -115.0, 45.0 ], [ -115.0, 40.0 ], [ -120.0, 40.0 ], [ -120.0, 45.0 ], [ -115.0, 45.0 ] ] ] ] } }
]
}
