{
"type": "FeatureCollection",
"name": "-120_20",
"crs": { "type": "name", "properties": { "name": "urn:ogc:def:crs:OGC:1.3:CRS84" } },
"xy_coordinate_resolution": 1e-15,
"features": [
{ "type": "Feature", "properties": { "FID": 358504, "id": 446, "left": -120.0, "top": 25.0, "right": -115.0, "bottom": 20.0, "row_index": 13, "col_index": 12, "min_lon": -120.0, "min_lat": 20.0, "tile_id": "-120_20" }, "geometry": { "type": "MultiPolygon", "coordinates": [ [ [ [ -115.7689369, 24.9611699 ], [ -115.7680357, 24.9626873 ], [ -115.7666624, 24.963232 ], [ -115.7633579, 24.9631542 ], [ -115.7615554, 24.9619481 ], [ -115.7610405, 24.959886 ], [ -115.7614696, 24.9573959 ], [ -115.7621992, 24.9551003 ], [ -115.7634866, 24.9528047 ], [ -115.7659757, 24.9523767 ], [ -115.7671773, 24.9526879 ], [ -115.7686794, 24.9548669 ], [ -115.7691944, 24.9576294 ], [ -115.7689369, 24.9611699 ] ] ] ] } }
]
}
