{
"type": "FeatureCollection",
"name": "-125_-75",
"crs": { "type": "name", "properties": { "name": "urn:ogc:def:crs:OGC:1.3:CRS84" } },
"xy_coordinate_resolution": 1e-15,
"features": [
{ "type": "Feature", "properties": { "FID": 307096, "id": 429, "left": -125.0, "top": -70.0, "right": -120.0, "bottom": -75.0, "row_index": 32, "col_index": 11, "min_lon": -125.0, "min_lat": -75.0, "tile_id": "-125_-75" }, "geometry": { "type": "MultiPolygon", "coordinates": [ [ [ [ -124.9967832, -73.6305432 ], [ -124.9905955, -73.6317646 ], [ -124.9800064, -73.6332764 ], [ -124.9696896, -73.635311 ], [ -124.9668659, -73.637889 ], [ -124.9548206, -73.6417062 ], [ -124.933489, -73.6430195 ], [ -124.9206131, -73.6452643 ], [ -124.9047853, -73.6454907 ], [ -124.8957654, -73.6463978 ], [ -124.8842597, -73.6483695 ], [ -124.8755714, -73.6506523 ], [ -124.8681749, -73.6546998 ], [ -124.8539875, -73.6551754 ], [ -124.8362891, -73.6554728 ], [ -124.82471, -73.6565881 ], [ -124.8106379, -73.6587667 ], [ -124.795544, -73.6597027 ], [ -124.7727371, -73.6604162 ], [ -124.7622068, -73.6598811 ], [ -124.7506751, -73.6618452 ], [ -124.7403667, -73.6647215 ], [ -124.7275016, -73.6678072 ], [ -124.7186225, -73.671266 ], [ -124.7102697, -73.6720301 ], [ -124.6986165, -73.6722851 ], [ -124.6870156, -73.6733925 ], [ -124.6709955, -73.6747832 ], [ -124.6591771, -73.6762184 ], [ -124.6502282, -73.678821 ], [ -124.6518677, -73.6828178 ], [ -124.6421704, -73.6847015 ], [ -124.6305569, -73.6858058 ], [ -124.6198985, -73.6872989 ], [ -124.6062019, -73.6888052 ], [ -124.5951088, -73.6909555 ], [ -124.5868825, -73.6942743 ], [ -124.5835563, -73.6975057 ], [ -124.590206, -73.6993803 ], [ -124.5945605, -73.701987 ], [ -124.5988199, -73.7028872 ], [ -124.6119332, -73.7032223 ], [ -124.6175145, -73.7067421 ], [ -124.6232633, -73.7090794 ], [ -124.6253288, -73.7124182 ], [ -124.6141543, -73.7174587 ], [ -124.6126973, -73.7206166 ], [ -124.6070227, -73.7237278 ], [ -124.6048502, -73.7241482 ], [ -124.5952109, -73.7260127 ], [ -124.5843802, -73.7249443 ], [ -124.5679434, -73.7240965 ], [ -124.5559881, -73.7238192 ], [ -124.5424709, -73.7249922 ], [ -124.5299091, -73.7265542 ], [ -124.5231705, -73.7275665 ], [ -124.5193463, -73.7306022 ], [ -124.5193054, -73.7343446 ], [ -124.5185242, -73.7373678 ], [ -124.5211389, -73.7426096 ], [ -124.5159616, -73.7467668 ], [ -124.5095189, -73.7491564 ], [ -124.5019847, -73.7531914 ], [ -124.4950583, -73.7553855 ], [ -124.4845593, -73.7565426 ], [ -124.472883, -73.7576382 ], [ -124.4672093, -73.7615992 ], [ -124.4595361, -73.7630726 ], [ -124.4543362, -73.7672285 ], [ -124.4521454, -73.7705196 ], [ -124.444945, -73.7721877 ], [ -124.4359062, -73.7740745 ], [ -124.4319342, -73.7728219 ], [ -124.4291771, -73.7701326 ], [ -124.4274492, -73.7685813 ], [ -124.4249956, -73.7666221 ], [ -124.4215023, -73.7640305 ], [ -124.4186667, -73.7628888 ], [ -124.4153976, -73.762049 ], [ -124.410321, -73.7612056 ], [ -124.4052317, -73.7608679 ], [ -124.400076, -73.7610461 ], [ -124.3930318, -73.7622422 ], [ -124.3882246, -73.7626267 ], [ -124.3797013, -73.7640177 ], [ -124.3716711, -73.7635639 ], [ -124.3662064, -73.7630236 ], [ -124.360352, -73.7627875 ], [ -124.3533689, -73.7629529 ], [ -124.3486022, -73.7628256 ], [ -124.3427063, -73.7630999 ], [ -124.3379243, -73.7634781 ], [ -124.3309166, -73.7641612 ], [ -124.3256924, -73.7653668 ], [ -124.3245625, -73.7657684 ], [ -124.3255834, -73.766907 ], [ -124.3276497, -73.7686659 ], [ -124.3290195, -73.7700112 ], [ -124.3346597, -73.7733288 ], [ -124.3352068, -73.7757934 ], [ -124.3339442, -73.7782538 ], [ -124.3308262, -73.7807074 ], [ -124.3243988, -73.7833441 ], [ -124.3209639, -73.7850706 ], [ -124.3182753, -73.7866983 ], [ -124.3132862, -73.7896498 ], [ -124.3095019, -73.7911689 ], [ -124.3082256, -73.7936309 ], [ -124.3053334, -73.7978213 ], [ -124.3081955, -73.7989702 ], [ -124.3112979, -73.8018659 ], [ -124.3123218, -73.8030044 ], [ -124.3136107, -73.8053712 ], [ -124.3138493, -73.8071184 ], [ -124.3054382, -73.8083073 ], [ -124.290811, -73.8073657 ], [ -124.2869237, -73.8103975 ], [ -124.2735992, -73.812931 ], [ -124.2580031, -73.8178995 ], [ -124.2395004, -73.8208389 ], [ -124.2282668, -73.8229699 ], [ -124.2141642, -73.8239256 ], [ -124.2023379, -73.8224452 ], [ -124.1874787, -73.821825 ], [ -124.1766363, -73.8215884 ], [ -124.1664972, -73.8212181 ], [ -124.1564081, -73.8225545 ], [ -124.1435056, -73.8244219 ], [ -124.1317798, -73.8263517 ], [ -124.1190753, -73.8270353 ], [ -124.1146737, -73.8298679 ], [ -124.1309916, -73.8319348 ], [ -124.127748, -73.8339774 ], [ -124.1258003, -73.840351 ], [ -124.1294604, -73.8448085 ], [ -124.1283496, -73.8473062 ], [ -124.1172868, -73.8482488 ], [ -124.096057, -73.8462684 ], [ -124.0851021, -73.8443074 ], [ -124.0726093, -73.8446594 ], [ -124.0561559, -73.8471846 ], [ -124.031484, -73.8518237 ], [ -124.018292, -73.8529228 ], [ -124.0178202, -73.8529622 ], [ -124.0126192, -73.8525107 ], [ -124.0081067, -73.8510731 ], [ -123.9899632, -73.8524793 ], [ -123.9807909, -73.8541998 ], [ -123.9631314, -73.8566536 ], [ -123.9496757, -73.8566054 ], [ -123.9319702, -73.8564956 ], [ -123.9126205, -73.8569771 ], [ -123.8840326, -73.8549046 ], [ -123.8693782, -73.8530793 ], [ -123.8577861, -73.8503968 ], [ -123.8485924, -73.8512577 ], [ -123.831088, -73.8506487 ], [ -123.8111561, -73.8476859 ], [ -123.7893967, -73.8459533 ], [ -123.7779627, -73.8445222 ], [ -123.7676355, -73.8428847 ], [ -123.7455203, -73.8416606 ], [ -123.722304, -73.8406396 ], [ -123.6828802, -73.8368458 ], [ -123.6640964, -73.8349975 ], [ -123.6416305, -73.8342752 ], [ -123.6114385, -73.8323165 ], [ -123.5897133, -73.8318967 ], [ -123.5654044, -73.8323964 ], [ -123.5447869, -73.8317673 ], [ -123.5219574, -73.8315446 ], [ -123.4965234, -73.8335743 ], [ -123.4799272, -73.8353021 ], [ -123.4739491, -73.8362985 ], [ -123.4384463, -73.837749 ], [ -123.4180841, -73.8382807 ], [ -123.4026281, -73.8380428 ], [ -123.3850649, -73.8375219 ], [ -123.3688421, -73.8367539 ], [ -123.3595146, -73.8360577 ], [ -123.3381824, -73.8351549 ], [ -123.3267506, -73.8341748 ], [ -123.3157701, -73.832978 ], [ -123.3074714, -73.8312901 ], [ -123.2998347, -73.8298819 ], [ -123.288294, -73.8290543 ], [ -123.2786499, -73.8280131 ], [ -123.2704621, -73.8265717 ], [ -123.2653747, -73.825632 ], [ -123.258969, -73.8241318 ], [ -123.2519991, -73.823002 ], [ -123.2461504, -73.8215336 ], [ -123.2408461, -73.8204999 ], [ -123.2400379, -73.8201561 ], [ -123.2377723, -73.8191923 ], [ -123.233948, -73.8169536 ], [ -123.2317879, -73.8148115 ], [ -123.2314991, -73.8132622 ], [ -123.2301135, -73.8112458 ], [ -123.2300791, -73.808582 ], [ -123.2309106, -73.8066944 ], [ -123.2338425, -73.8050903 ], [ -123.2349039, -73.8028935 ], [ -123.2357229, -73.8014087 ], [ -123.2391261, -73.7987835 ], [ -123.2430706, -73.7965929 ], [ -123.2477872, -73.794528 ], [ -123.255375, -73.7928717 ], [ -123.2635039, -73.7916499 ], [ -123.2738671, -73.7897509 ], [ -123.2780035, -73.7884583 ], [ -123.2826822, -73.7876005 ], [ -123.2848121, -73.7866755 ], [ -123.2823049, -73.7849981 ], [ -123.2793597, -73.7831339 ], [ -123.2785135, -73.7815527 ], [ -123.2786802, -73.779385 ], [ -123.2816229, -73.7769751 ], [ -123.2863386, -73.7745068 ], [ -123.2921491, -73.772505 ], [ -123.2915216, -73.7710172 ], [ -123.2865853, -73.7691183 ], [ -123.2854056, -73.7675984 ], [ -123.2834539, -73.7659531 ], [ -123.2820557, -73.7643399 ], [ -123.2802299, -73.7621373 ], [ -123.2794054, -73.759751 ], [ -123.2758083, -73.7576068 ], [ -123.2719828, -73.7557717 ], [ -123.2708157, -73.7538493 ], [ -123.2697744, -73.7513695 ], [ -123.2671806, -73.7490415 ], [ -123.2624514, -73.7480406 ], [ -123.2581599, -73.7472264 ], [ -123.253109, -73.7458841 ], [ -123.2508301, -73.7442997 ], [ -123.247644, -73.7435496 ], [ -123.2452399, -73.7425224 ], [ -123.2409733, -73.7409027 ], [ -123.237604, -73.7388513 ], [ -123.2310519, -73.7360496 ], [ -123.2307648, -73.7345005 ], [ -123.2289493, -73.7322977 ], [ -123.2257784, -73.7311447 ], [ -123.2220681, -73.7295569 ], [ -123.2168079, -73.7281202 ], [ -123.2139719, -73.7269059 ], [ -123.2107238, -73.7246996 ], [ -123.2080039, -73.7233306 ], [ -123.2042849, -73.722145 ], [ -123.2010148, -73.7207436 ], [ -123.1985144, -73.719468 ], [ -123.1944889, -73.7175383 ], [ -123.1927583, -73.7163883 ], [ -123.188286, -73.7146741 ], [ -123.1846859, -73.7133337 ], [ -123.1834047, -73.711968 ], [ -123.1822644, -73.7096426 ], [ -123.1806887, -73.7071304 ], [ -123.1776414, -73.7058222 ], [ -123.1751452, -73.7045463 ], [ -123.1726752, -73.7024653 ], [ -123.1714216, -73.7002945 ], [ -123.1689658, -73.6978109 ], [ -123.1657169, -73.6960065 ], [ -123.1634666, -73.6940189 ], [ -123.1623172, -73.6920961 ], [ -123.1573936, -73.6909995 ], [ -123.1535975, -73.6891626 ], [ -123.1496733, -73.6878827 ], [ -123.1446637, -73.6861353 ], [ -123.1400898, -73.6845747 ], [ -123.1325511, -73.6827583 ], [ -123.1267643, -73.681287 ], [ -123.1218467, -73.6801896 ], [ -123.1129817, -73.6786164 ], [ -123.1060849, -73.677482 ], [ -123.1002729, -73.676815 ], [ -123.093348, -73.6764852 ], [ -123.0892857, -73.6761636 ], [ -123.0820438, -73.6754919 ], [ -123.0767678, -73.6752593 ], [ -123.0710427, -73.675242 ], [ -123.0652333, -73.674574 ], [ -123.0596249, -73.6744019 ], [ -123.055548, -73.6744822 ], [ -123.0507055, -73.674436 ], [ -123.0448648, -73.6745724 ], [ -123.0391402, -73.6745542 ], [ -123.0342312, -73.6747862 ], [ -123.0279243, -73.6755399 ], [ -123.0228319, -73.6762045 ], [ -123.0150099, -73.6763026 ], [ -123.0041091, -73.6762972 ], [ -122.9969526, -73.676273 ], [ -122.9904972, -73.6753219 ], [ -122.9855729, -73.6746237 ], [ -122.9815949, -73.6749505 ], [ -122.9767168, -73.6757076 ], [ -122.9718024, -73.6772696 ], [ -122.966788, -73.6785834 ], [ -122.9614578, -73.6795553 ], [ -122.9573427, -73.6804386 ], [ -122.9520113, -73.6814103 ], [ -122.9445995, -73.6820955 ], [ -122.9374408, -73.6820692 ], [ -122.9328916, -73.6827646 ], [ -122.9281263, -73.6833662 ], [ -122.920516, -73.6835543 ], [ -122.9112578, -73.683643 ], [ -122.9038631, -73.6839243 ], [ -122.8936439, -73.6833892 ], [ -122.8888394, -73.6825343 ], [ -122.8836037, -73.6814917 ], [ -122.879878, -73.6811053 ], [ -122.8763274, -73.6816176 ], [ -122.8708162, -73.6816884 ], [ -122.8665699, -73.6817952 ], [ -122.8600371, -73.6824499 ], [ -122.8500357, -73.6820064 ], [ -122.8431137, -73.6816681 ], [ -122.8354276, -73.6812024 ], [ -122.829012, -73.6817019 ], [ -122.8200665, -73.6821284 ], [ -122.8126489, -73.6828089 ], [ -122.8087178, -73.6841854 ], [ -122.8048081, -73.6851594 ], [ -122.7981528, -73.6859665 ], [ -122.7906362, -73.686398 ], [ -122.7821398, -73.6866081 ], [ -122.7738812, -73.6865092 ], [ -122.7670777, -73.686014 ], [ -122.7587964, -73.6863169 ], [ -122.749106, -73.6862105 ], [ -122.7418027, -73.6867341 ], [ -122.7360268, -73.6875124 ], [ -122.7304889, -73.6879818 ], [ -122.7238766, -73.6879816 ], [ -122.7165009, -73.6878536 ], [ -122.7100087, -73.6876986 ], [ -122.7016302, -73.687751 ], [ -122.6922986, -73.6871791 ], [ -122.6824694, -73.6857682 ], [ -122.6723073, -73.684417 ], [ -122.6541736, -73.6837063 ], [ -122.6443914, -73.6833466 ], [ -122.6354458, -73.6828361 ], [ -122.6262273, -73.6839649 ], [ -122.6208346, -73.6838747 ], [ -122.6152278, -73.6836904 ], [ -122.6080419, -73.684055 ], [ -122.604268, -73.6844685 ], [ -122.5986342, -73.6846862 ], [ -122.5916614, -73.6851442 ], [ -122.5873104, -73.6859259 ], [ -122.5818619, -73.6866396 ], [ -122.5753714, -73.6864804 ], [ -122.5677838, -73.686253 ], [ -122.5584295, -73.6860773 ], [ -122.548648, -73.6857131 ], [ -122.5388035, -73.6846977 ], [ -122.5331629, -73.6834579 ], [ -122.5260286, -73.6815591 ], [ -122.5245923, -73.6800953 ], [ -122.5221516, -73.6788116 ], [ -122.5187702, -73.6783585 ], [ -122.5122837, -73.6781973 ], [ -122.5058265, -73.6776333 ], [ -122.5004665, -73.6771376 ], [ -122.4959596, -73.6770183 ], [ -122.4870983, -73.676223 ], [ -122.4819212, -73.6747677 ], [ -122.4777502, -73.674588 ], [ -122.4737009, -73.6742542 ], [ -122.4702914, -73.6742028 ], [ -122.465207, -73.6744511 ], [ -122.4534234, -73.6758974 ], [ -122.4454166, -73.675477 ], [ -122.4420068, -73.6754251 ], [ -122.4358571, -73.6752016 ], [ -122.4326011, -73.674593 ], [ -122.4294672, -73.6738303 ], [ -122.4248397, -73.6738637 ], [ -122.42009, -73.6740509 ], [ -122.4136061, -73.6738864 ], [ -122.4100159, -73.6733374 ], [ -122.4060005, -73.6725999 ], [ -122.4019534, -73.6722645 ], [ -122.3968108, -73.6718604 ], [ -122.3923837, -73.6714605 ], [ -122.3828275, -73.6711826 ], [ -122.375528, -73.6702374 ], [ -122.3695699, -73.669053 ], [ -122.3638487, -73.6690158 ], [ -122.3580378, -73.6687301 ], [ -122.3532885, -73.6689158 ], [ -122.3500259, -73.6697615 ], [ -122.3465505, -73.6705129 ], [ -122.3428846, -73.6722231 ], [ -122.3380331, -73.6736156 ], [ -122.3342759, -73.6750773 ], [ -122.3269856, -73.6766391 ], [ -122.3167426, -73.6779331 ], [ -122.3112404, -73.6785154 ], [ -122.3031125, -73.6782434 ], [ -122.2958683, -73.6779462 ], [ -122.289384, -73.6777779 ], [ -122.2859924, -73.6787765 ], [ -122.2818407, -73.6796461 ], [ -122.2771408, -73.6804808 ], [ -122.2709562, -73.6806546 ], [ -122.261025, -73.680833 ], [ -122.2513775, -73.6803005 ], [ -122.2453887, -73.6795148 ], [ -122.2417307, -73.6797676 ], [ -122.2375763, -73.6806362 ], [ -122.2331733, -73.6818127 ], [ -122.2285576, -73.6828948 ], [ -122.2217869, -73.6834346 ], [ -122.2158628, -73.684352 ], [ -122.2084194, -73.6850104 ], [ -122.201933, -73.6848393 ], [ -122.1963809, -73.6852943 ], [ -122.192895, -73.6860431 ], [ -122.1911016, -73.6875476 ], [ -122.1888849, -73.6888632 ], [ -122.1851602, -73.690973 ], [ -122.182145, -73.6925614 ], [ -122.1784944, -73.6938663 ], [ -122.163676, -73.694902 ], [ -122.1541579, -73.6952642 ], [ -122.1475526, -73.6962985 ], [ -122.136264, -73.6967084 ], [ -122.125304, -73.6960051 ], [ -122.1172096, -73.6953233 ], [ -122.1130051, -73.6965919 ], [ -122.1100678, -73.6984277 ], [ -122.1071759, -73.7009144 ], [ -122.1032264, -73.7029282 ], [ -122.0992364, -73.7053442 ], [ -122.0932573, -73.7066606 ], [ -122.0841583, -73.708262 ], [ -122.077206, -73.7093533 ], [ -122.074514, -73.710881 ], [ -122.0697576, -73.7131666 ], [ -122.0645778, -73.7152629 ], [ -122.0574983, -73.7175608 ], [ -122.0525265, -73.7197515 ], [ -122.0449772, -73.7212087 ], [ -122.038437, -73.7214348 ], [ -122.0338383, -73.7221101 ], [ -122.0270033, -73.7230459 ], [ -122.0191543, -73.7241591 ], [ -121.998768, -73.7262838 ], [ -121.9897763, -73.7266739 ], [ -121.9781247, -73.7271343 ], [ -121.9707783, -73.7276302 ], [ -121.9619965, -73.7281138 ], [ -121.9554923, -73.7289881 ], [ -121.9398611, -73.7314573 ], [ -121.9284103, -73.7330629 ], [ -121.9217305, -73.7344923 ], [ -121.9123946, -73.734938 ], [ -121.9029748, -73.7351347 ], [ -121.8942766, -73.7348106 ], [ -121.8838499, -73.7341301 ], [ -121.8745628, -73.733645 ], [ -121.8570052, -73.7324968 ], [ -121.8465459, -73.7311634 ], [ -121.8444441, -73.7302149 ], [ -121.836893, -73.7295579 ], [ -121.8295062, -73.7293979 ], [ -121.8220378, -73.7289888 ], [ -121.8155505, -73.7277521 ], [ -121.8099856, -73.7271432 ], [ -121.803453, -73.7263084 ], [ -121.7994051, -73.7259612 ], [ -121.7953437, -73.7266672 ], [ -121.7918298, -73.7274091 ], [ -121.7891218, -73.7278796 ], [ -121.785913, -73.7279118 ], [ -121.7854791, -73.7287752 ], [ -121.7843201, -73.7301588 ], [ -121.7797415, -73.7314794 ], [ -121.7730973, -73.7325016 ], [ -121.7665968, -73.7323165 ], [ -121.7611451, -73.732606 ], [ -121.7566285, -73.7324704 ], [ -121.7517249, -73.7327957 ], [ -121.7449664, -73.7329174 ], [ -121.7405302, -73.7330301 ], [ -121.73724, -73.7328127 ], [ -121.7322556, -73.732889 ], [ -121.7267228, -73.7329289 ], [ -121.7167727, -73.7320274 ], [ -121.7115184, -73.7307062 ], [ -121.7070032, -73.7305695 ], [ -121.701172, -73.7307916 ], [ -121.694175, -73.7301657 ], [ -121.6887433, -73.7293999 ], [ -121.683291, -73.7296872 ], [ -121.6767929, -73.7294994 ], [ -121.6705832, -73.729655 ], [ -121.6636161, -73.7296789 ], [ -121.6562081, -73.7305659 ], [ -121.6493473, -73.7314891 ], [ -121.6435032, -73.7322363 ], [ -121.6375799, -73.7327346 ], [ -121.6296993, -73.7338329 ], [ -121.6232535, -73.7349453 ], [ -121.6169372, -73.7359039 ], [ -121.6121865, -73.7367233 ], [ -121.6076703, -73.7382888 ], [ -121.5973821, -73.7408487 ], [ -121.5924201, -73.7415726 ], [ -121.5843234, -73.742574 ], [ -121.5766183, -73.7431142 ], [ -121.5722562, -73.7434719 ], [ -121.5707912, -73.7445104 ], [ -121.5665021, -73.7468211 ], [ -121.559197, -73.7480777 ], [ -121.5529492, -73.7492831 ], [ -121.5425983, -73.7505382 ], [ -121.5333738, -73.7508131 ], [ -121.5266604, -73.7505253 ], [ -121.5208807, -73.7515178 ], [ -121.5114691, -73.7523474 ], [ -121.5054571, -73.7525933 ], [ -121.5002461, -73.754273 ], [ -121.4948252, -73.7558575 ], [ -121.4852776, -73.7568396 ], [ -121.4751804, -73.7577842 ], [ -121.458102, -73.7587454 ], [ -121.4472453, -73.7595566 ], [ -121.4394887, -73.7587896 ], [ -121.4314115, -73.7587316 ], [ -121.4226723, -73.7594408 ], [ -121.4131936, -73.7606683 ], [ -121.4027491, -73.7616675 ], [ -121.3935359, -73.7614095 ], [ -121.3867455, -73.7608682 ], [ -121.3775705, -73.7607338 ], [ -121.3646148, -73.7599361 ], [ -121.3548921, -73.7597634 ], [ -121.3448287, -73.7596483 ], [ -121.3428927, -73.7594749 ], [ -121.3372846, -73.7589727 ], [ -121.3336536, -73.7579507 ], [ -121.3300523, -73.7569368 ], [ -121.3238297, -73.7540754 ], [ -121.3185862, -73.7520929 ], [ -121.3137586, -73.7503012 ], [ -121.3086056, -73.7492184 ], [ -121.3039411, -73.7485751 ], [ -121.2993644, -73.7488316 ], [ -121.2947273, -73.7494902 ], [ -121.2912458, -73.7498214 ], [ -121.2885929, -73.7505341 ], [ -121.2884854, -73.7519897 ], [ -121.2837004, -73.7521504 ], [ -121.2783541, -73.7516225 ], [ -121.2720465, -73.7508661 ], [ -121.2667012, -73.750338 ], [ -121.2606017, -73.7496767 ], [ -121.2536983, -73.7499355 ], [ -121.2487909, -73.7508998 ], [ -121.2446992, -73.7515949 ], [ -121.2439056, -73.7517988 ], [ -121.2383649, -73.7531929 ], [ -121.2340761, -73.7544433 ], [ -121.2310167, -73.7556155 ], [ -121.2270062, -73.7572102 ], [ -121.2228242, -73.7588336 ], [ -121.2201665, -73.7595455 ], [ -121.2175191, -73.7609085 ], [ -121.2123471, -73.7628298 ], [ -121.2049188, -73.7650027 ], [ -121.1995998, -73.766426 ], [ -121.1959874, -73.7675599 ], [ -121.1902532, -73.768792 ], [ -121.1823246, -73.769873 ], [ -121.1752851, -73.7709337 ], [ -121.166941, -73.7718231 ], [ -121.1561882, -73.7718143 ], [ -121.1491309, -73.7715718 ], [ -121.1426861, -73.7709648 ], [ -121.13961, -73.7714845 ], [ -121.1359852, -73.7719663 ], [ -121.1296897, -73.7725077 ], [ -121.123052, -73.7731067 ], [ -121.1142788, -73.7725004 ], [ -121.1105826, -73.772733 ], [ -121.1042859, -73.7732736 ], [ -121.0925763, -73.7736835 ], [ -121.0809318, -73.7736904 ], [ -121.0681907, -73.7736207 ], [ -121.0547621, -73.7730143 ], [ -121.0394143, -73.7719481 ], [ -121.0672262, -73.7727403 ], [ -121.0760632, -73.7729463 ], [ -121.0885272, -73.7726709 ], [ -121.1006486, -73.7724526 ], [ -121.1113958, -73.7718132 ], [ -121.1154279, -73.7708718 ], [ -121.1157574, -73.769512 ], [ -121.1117138, -73.769151 ], [ -121.1058902, -73.7688296 ], [ -121.0994537, -73.7688723 ], [ -121.0901409, -73.7688782 ], [ -121.0817837, -73.7684619 ], [ -121.0756148, -73.7675462 ], [ -121.0688367, -73.7676455 ], [ -121.0598006, -73.7679947 ], [ -121.0517865, -73.7675194 ], [ -121.0436402, -73.7678484 ], [ -121.0371345, -73.7676402 ], [ -121.026042, -73.7676821 ], [ -121.0235642, -73.7677151 ], [ -121.0201539, -73.7677604 ], [ -121.0135119, -73.7677047 ], [ -121.0087174, -73.7672079 ], [ -121.0028953, -73.7662324 ], [ -120.9966624, -73.7650654 ], [ -120.991457, -73.7637257 ], [ -120.986459, -73.7631326 ], [ -120.9808459, -73.7629034 ], [ -120.9777659, -73.7634207 ], [ -120.973796, -73.7639571 ], [ -120.968867, -73.7636126 ], [ -120.9654444, -73.763536 ], [ -120.9596255, -73.7638616 ], [ -120.9532709, -73.763539 ], [ -120.9468817, -73.7637428 ], [ -120.9399636, -73.7630041 ], [ -120.9332206, -73.7624246 ], [ -120.9275577, -73.761493 ], [ -120.9221671, -73.7598316 ], [ -120.9180332, -73.7593276 ], [ -120.9144405, -73.7582199 ], [ -120.909319, -73.7575394 ], [ -120.9047327, -73.7579658 ], [ -120.9033805, -73.7590471 ], [ -120.9030159, -73.7603048 ], [ -120.8997752, -73.7613604 ], [ -120.8953647, -73.7624406 ], [ -120.8838906, -73.7643609 ], [ -120.8810052, -73.7658692 ], [ -120.8773117, -73.7669998 ], [ -120.8714646, -73.767123 ], [ -120.8669628, -73.7678756 ], [ -120.8613844, -73.7681244 ], [ -120.8559869, -73.768172 ], [ -120.8496014, -73.7680428 ], [ -120.8430344, -73.7681145 ], [ -120.8377313, -73.7676333 ], [ -120.8305325, -73.7679809 ], [ -120.8235151, -73.7681272 ], [ -120.8179439, -73.7675196 ], [ -120.8135421, -73.7668874 ], [ -120.809133, -73.7671106 ], [ -120.8039177, -73.7669556 ], [ -120.7985207, -73.7670017 ], [ -120.797997, -73.7670567 ], [ -120.7978242, -73.7672339 ], [ -120.7974017, -73.7673198 ], [ -120.7973633, -73.7669279 ], [ -120.7971712, -73.7669171 ], [ -120.7969792, -73.766697 ], [ -120.7964798, -73.7666648 ], [ -120.7961533, -73.7667776 ], [ -120.7956732, -73.7668474 ], [ -120.7955964, -73.766638 ], [ -120.7952123, -73.7664071 ], [ -120.7943673, -73.7661118 ], [ -120.7940984, -73.7660742 ], [ -120.793964, -73.7662246 ], [ -120.7936183, -73.7663588 ], [ -120.7934262, -73.7663642 ], [ -120.7930997, -73.7662783 ], [ -120.7928501, -73.7660635 ], [ -120.7923315, -73.7659132 ], [ -120.791813, -73.7659883 ], [ -120.791909, -73.7656286 ], [ -120.791256, -73.7654729 ], [ -120.7911216, -73.7656716 ], [ -120.7905262, -73.7653655 ], [ -120.7901998, -73.7652742 ], [ -120.7894315, -73.7652957 ], [ -120.7893931, -73.7653118 ], [ -120.7882792, -73.7654138 ], [ -120.787972, -73.7656018 ], [ -120.7869925, -73.7657253 ], [ -120.7862627, -73.7659883 ], [ -120.7855329, -73.7662944 ], [ -120.7849759, -73.7664823 ], [ -120.7835164, -73.766638 ], [ -120.782364, -73.766799 ], [ -120.7814278, -73.767289 ], [ -120.777823, -73.7678896 ], [ -120.7729622, -73.7681869 ], [ -120.766835, -73.7690365 ], [ -120.7617914, -73.7695348 ], [ -120.7551266, -73.7701318 ], [ -120.7403577, -73.7712232 ], [ -120.7324361, -73.7715162 ], [ -120.7268545, -73.7717615 ], [ -120.7202855, -73.7718292 ], [ -120.7142658, -73.7712937 ], [ -120.7083446, -73.7702298 ], [ -120.7023399, -73.7688385 ], [ -120.6976606, -73.7689332 ], [ -120.691375, -73.7682709 ], [ -120.6861755, -73.7672576 ], [ -120.6800743, -73.7663939 ], [ -120.6752275, -73.7658336 ], [ -120.6692955, -73.765624 ], [ -120.6658862, -73.7651662 ], [ -120.659336, -73.7643767 ], [ -120.655142, -73.762685 ], [ -120.6481927, -73.759404 ], [ -120.6443097, -73.7580018 ], [ -120.6365772, -73.7580902 ], [ -120.627325, -73.7577482 ], [ -120.6207798, -73.7569575 ], [ -120.6167757, -73.755064 ], [ -120.6064393, -73.7550714 ], [ -120.5960209, -73.754751 ], [ -120.5920004, -73.7537124 ], [ -120.5879605, -73.753529 ], [ -120.576641, -73.7533569 ], [ -120.56891, -73.7534427 ], [ -120.5606249, -73.754131 ], [ -120.5541439, -73.7545206 ], [ -120.5471077, -73.7555127 ], [ -120.5406033, -73.7567572 ], [ -120.5333223, -73.7567671 ], [ -120.5239451, -73.7578038 ], [ -120.5188974, -73.758296 ], [ -120.5132604, -73.7573529 ], [ -120.5115831, -73.7562675 ], [ -120.5011968, -73.7579801 ], [ -120.493438, -73.7589184 ], [ -120.4878316, -73.7600123 ], [ -120.481321, -73.7612549 ], [ -120.4731875, -73.7625941 ], [ -120.4651593, -73.7634049 ], [ -120.4573164, -73.7640146 ], [ -120.4482236, -73.7643189 ], [ -120.4435679, -73.7664455 ], [ -120.4383796, -73.7683192 ], [ -120.4321953, -73.768995 ], [ -120.4246931, -73.7700572 ], [ -120.415351, -73.7722715 ], [ -120.4075506, -73.7740619 ], [ -120.4046673, -73.7767459 ], [ -120.399284, -73.7788193 ], [ -120.3912915, -73.7808098 ], [ -120.3904814, -73.7833234 ], [ -120.3878591, -73.7861339 ], [ -120.3856889, -73.7888701 ], [ -120.3798462, -73.7910173 ], [ -120.380081, -73.7969304 ], [ -120.3769697, -73.8006703 ], [ -120.3747177, -73.8030793 ], [ -120.3698994, -73.8065878 ], [ -120.362123, -73.8095592 ], [ -120.3525612, -73.8119715 ], [ -120.3516892, -73.8120736 ], [ -120.3519299, -73.8122257 ], [ -120.303591, -73.8221436 ], [ -120.2928664, -73.8241206 ], [ -120.280651, -73.8265695 ], [ -120.2675588, -73.8293899 ], [ -120.2471182, -73.8294901 ], [ -120.2284248, -73.8288445 ], [ -120.2099358, -73.8290844 ], [ -120.193801, -73.831241 ], [ -120.183718, -73.8347152 ], [ -120.1657804, -73.8360104 ], [ -120.1502502, -73.8380637 ], [ -120.1343576, -73.839944 ], [ -120.1191775, -73.8421669 ], [ -120.1034382, -73.8433293 ], [ -120.0867841, -73.843259 ], [ -120.0723421, -73.8430606 ], [ -120.0561436, -73.8436036 ], [ -120.042871, -73.8443631 ], [ -120.0292399, -73.8449495 ], [ -120.0191532, -73.8456537 ], [ -120.0051368, -73.8444636 ], [ -120.0, -73.8441366 ], [ -120.0, -75.0 ], [ -125.0, -75.0 ], [ -125.0, -73.630703106731175 ], [ -124.9967832, -73.6305432 ] ] ] ] } }
]
}
