{
"type": "FeatureCollection",
"name": "-125_-25",
"crs": { "type": "name", "properties": { "name": "urn:ogc:def:crs:OGC:1.3:CRS84" } },
"xy_coordinate_resolution": 1e-15,
"features": [
{ "type": "Feature", "properties": { "FID": 231530, "id": 419, "left": -125.0, "top": -20.0, "right": -120.0, "bottom": -25.0, "row_index": 22, "col_index": 11, "min_lon": -125.0, "min_lat": -25.0, "tile_id": "-125_-25" }, "geometry": { "type": "MultiPolygon", "coordinates": [ [ [ [ -124.7943838, -24.6804514 ], [ -124.794416, -24.680477 ], [ -124.7944871, -24.6804952 ], [ -124.7945997, -24.6804733 ], [ -124.7947714, -24.680399 ], [ -124.7950383, -24.6802235 ], [ -124.7952475, -24.6800261 ], [ -124.795391, -24.679864 ], [ -124.7958228, -24.6792169 ], [ -124.7959971, -24.6788891 ], [ -124.7961608, -24.6786966 ], [ -124.7963069, -24.6785698 ], [ -124.7964089, -24.6785089 ], [ -124.7965953, -24.6784687 ], [ -124.7968112, -24.6784882 ], [ -124.7969547, -24.6784297 ], [ -124.7970673, -24.6783456 ], [ -124.7971532, -24.678253 ], [ -124.7972028, -24.6781372 ], [ -124.7972323, -24.677857 ], [ -124.7971317, -24.6774451 ], [ -124.7971196, -24.6773049 ], [ -124.7970808, -24.6771733 ], [ -124.7969721, -24.6768796 ], [ -124.796842, -24.6766152 ], [ -124.7966999, -24.6763812 ], [ -124.7965926, -24.6762545 ], [ -124.7964384, -24.6760912 ], [ -124.7961473, -24.6758304 ], [ -124.7959301, -24.6756195 ], [ -124.795678, -24.6754246 ], [ -124.7951978, -24.6751418 ], [ -124.7948451, -24.6749615 ], [ -124.7944187, -24.6747933 ], [ -124.7940029, -24.6746385 ], [ -124.7935483, -24.6745045 ], [ -124.7931835, -24.6744362 ], [ -124.7928603, -24.6743509 ], [ -124.7925988, -24.6742644 ], [ -124.7923359, -24.6741596 ], [ -124.7922273, -24.6741486 ], [ -124.791825, -24.6741486 ], [ -124.7913931, -24.6740865 ], [ -124.7908406, -24.6739646 ], [ -124.7903323, -24.6738342 ], [ -124.7897503, -24.6737038 ], [ -124.7886962, -24.6735393 ], [ -124.7874181, -24.673404 ], [ -124.786482, -24.6732895 ], [ -124.7863318, -24.6732834 ], [ -124.786022, -24.6732493 ], [ -124.7854306, -24.6731774 ], [ -124.7850578, -24.6731749 ], [ -124.7842839, -24.6731359 ], [ -124.7836375, -24.6730847 ], [ -124.7830689, -24.6730506 ], [ -124.7825097, -24.6730348 ], [ -124.7823313, -24.6730372 ], [ -124.7818217, -24.6731432 ], [ -124.7816192, -24.6731786 ], [ -124.7814716, -24.6731822 ], [ -124.7812396, -24.6731701 ], [ -124.7807367, -24.6731055 ], [ -124.7805047, -24.673103 ], [ -124.7802982, -24.6731152 ], [ -124.7798529, -24.6731896 ], [ -124.7796236, -24.6732042 ], [ -124.7793916, -24.6731993 ], [ -124.7791019, -24.6731676 ], [ -124.7782959, -24.673008 ], [ -124.7779593, -24.6729641 ], [ -124.777616, -24.6728751 ], [ -124.7775167, -24.6728569 ], [ -124.7774336, -24.6728605 ], [ -124.7770527, -24.6729178 ], [ -124.776755, -24.6729422 ], [ -124.7765042, -24.672997 ], [ -124.7762963, -24.6730665 ], [ -124.776071, -24.6731761 ], [ -124.7757384, -24.6733626 ], [ -124.7752918, -24.6736734 ], [ -124.7752248, -24.6737416 ], [ -124.7751658, -24.6738306 ], [ -124.7745354, -24.6745605 ], [ -124.7741935, -24.6750504 ], [ -124.7740339, -24.6754477 ], [ -124.7738689, -24.6757755 ], [ -124.7736409, -24.6760473 ], [ -124.7731246, -24.6766944 ], [ -124.7728765, -24.6770198 ], [ -124.7727947, -24.6771709 ], [ -124.7727719, -24.6772732 ], [ -124.7727478, -24.6774694 ], [ -124.7726659, -24.6777753 ], [ -124.7724755, -24.6782189 ], [ -124.7724313, -24.6784358 ], [ -124.7723977, -24.6790573 ], [ -124.7724178, -24.6791901 ], [ -124.7724634, -24.6793729 ], [ -124.7727679, -24.6799737 ], [ -124.7729194, -24.6804319 ], [ -124.7730562, -24.6808084 ], [ -124.7732601, -24.681252 ], [ -124.7735216, -24.6816651 ], [ -124.7737764, -24.6820307 ], [ -124.774113, -24.6824023 ], [ -124.7743987, -24.6826265 ], [ -124.7751939, -24.6831932 ], [ -124.7753187, -24.6832736 ], [ -124.7755131, -24.6833626 ], [ -124.7757143, -24.6834162 ], [ -124.7760335, -24.6834235 ], [ -124.7763205, -24.6834491 ], [ -124.7766584, -24.6834077 ], [ -124.7769615, -24.6833382 ], [ -124.7771788, -24.6832041 ], [ -124.7773464, -24.6830652 ], [ -124.777514, -24.6828971 ], [ -124.7776133, -24.6827033 ], [ -124.7777072, -24.6823841 ], [ -124.7777581, -24.6820977 ], [ -124.7778037, -24.6819758 ], [ -124.7778359, -24.6818588 ], [ -124.7778278, -24.6817589 ], [ -124.7777876, -24.6816383 ], [ -124.7775958, -24.681581 ], [ -124.7774658, -24.6814299 ], [ -124.7774228, -24.6811801 ], [ -124.7774402, -24.6808328 ], [ -124.7774269, -24.6806305 ], [ -124.7773799, -24.6804697 ], [ -124.7773089, -24.6803941 ], [ -124.7770782, -24.680254 ], [ -124.7769146, -24.6801772 ], [ -124.7768086, -24.6801089 ], [ -124.7767375, -24.6800261 ], [ -124.7767228, -24.6799042 ], [ -124.7767214, -24.6796776 ], [ -124.7767013, -24.6795837 ], [ -124.7766463, -24.6795411 ], [ -124.7765444, -24.6795045 ], [ -124.7764438, -24.6794862 ], [ -124.7763124, -24.6795045 ], [ -124.7761971, -24.679563 ], [ -124.7758524, -24.6797714 ], [ -124.775674, -24.6797519 ], [ -124.7755909, -24.6797092 ], [ -124.7755225, -24.6795606 ], [ -124.775489, -24.6795204 ], [ -124.7754058, -24.6795033 ], [ -124.7751229, -24.6795374 ], [ -124.7747567, -24.6795959 ], [ -124.7746682, -24.6795728 ], [ -124.7746602, -24.6795131 ], [ -124.7747058, -24.6794558 ], [ -124.7748747, -24.6794204 ], [ -124.7749686, -24.6793753 ], [ -124.7752154, -24.6792194 ], [ -124.7753066, -24.6791743 ], [ -124.7754461, -24.6791511 ], [ -124.7757263, -24.6791377 ], [ -124.7759302, -24.679106 ], [ -124.7760429, -24.6790865 ], [ -124.7760898, -24.6790488 ], [ -124.7760791, -24.6790134 ], [ -124.7760201, -24.6789366 ], [ -124.7758028, -24.678766 ], [ -124.7754166, -24.6784845 ], [ -124.7751939, -24.6784212 ], [ -124.7749928, -24.6783907 ], [ -124.7747085, -24.6783846 ], [ -124.77451, -24.6783517 ], [ -124.774345, -24.6782871 ], [ -124.7741935, -24.678097 ], [ -124.7741452, -24.6778862 ], [ -124.7741291, -24.6776729 ], [ -124.7741398, -24.6775998 ], [ -124.7742055, -24.677439 ], [ -124.7743142, -24.677311 ], [ -124.7743946, -24.6772659 ], [ -124.7744617, -24.677255 ], [ -124.7745381, -24.6772537 ], [ -124.7745945, -24.6772318 ], [ -124.7746038, -24.6771831 ], [ -124.7745878, -24.6771307 ], [ -124.7745167, -24.6770137 ], [ -124.7745073, -24.6769162 ], [ -124.7745033, -24.6768126 ], [ -124.7745489, -24.6766615 ], [ -124.7745408, -24.6766054 ], [ -124.7744241, -24.676447 ], [ -124.774404, -24.6763873 ], [ -124.7744308, -24.6763434 ], [ -124.7744992, -24.6762947 ], [ -124.7746173, -24.6762727 ], [ -124.7746682, -24.6762764 ], [ -124.7747688, -24.6763081 ], [ -124.7748627, -24.6763824 ], [ -124.7750022, -24.6765482 ], [ -124.7751349, -24.6766444 ], [ -124.7752087, -24.6766554 ], [ -124.7752623, -24.6766408 ], [ -124.7753079, -24.6765957 ], [ -124.7754689, -24.6764007 ], [ -124.7756486, -24.6761728 ], [ -124.7758886, -24.6758194 ], [ -124.775961, -24.6757512 ], [ -124.7761233, -24.6756951 ], [ -124.7762789, -24.6756622 ], [ -124.7763862, -24.6756269 ], [ -124.7764505, -24.6755891 ], [ -124.7765592, -24.6754959 ], [ -124.7766175, -24.6754142 ], [ -124.7767764, -24.6753167 ], [ -124.7770232, -24.6751979 ], [ -124.7772633, -24.6751248 ], [ -124.7773772, -24.6750821 ], [ -124.7777849, -24.6748969 ], [ -124.7780035, -24.6748932 ], [ -124.7786325, -24.6750492 ], [ -124.7789316, -24.6750675 ], [ -124.7791207, -24.67502 ], [ -124.7792763, -24.6748847 ], [ -124.7793849, -24.6748079 ], [ -124.7794721, -24.6747787 ], [ -124.7795552, -24.6747836 ], [ -124.7796464, -24.6748067 ], [ -124.7797148, -24.674797 ], [ -124.7799066, -24.6747226 ], [ -124.7801024, -24.6747007 ], [ -124.7804564, -24.6747299 ], [ -124.7808346, -24.674747 ], [ -124.7811578, -24.6747397 ], [ -124.7812852, -24.6747531 ], [ -124.7815119, -24.6748165 ], [ -124.7816393, -24.6748786 ], [ -124.7817372, -24.6749127 ], [ -124.7818244, -24.6749225 ], [ -124.7819263, -24.6749018 ], [ -124.7820872, -24.674881 ], [ -124.7823206, -24.6748031 ], [ -124.7824091, -24.674736 ], [ -124.7824869, -24.6746897 ], [ -124.7826089, -24.6746739 ], [ -124.7827108, -24.6747117 ], [ -124.7827752, -24.6748299 ], [ -124.7828718, -24.6748932 ], [ -124.783085, -24.6749335 ], [ -124.7836456, -24.6750127 ], [ -124.7841471, -24.6751272 ], [ -124.7844878, -24.6751821 ], [ -124.7846608, -24.6751601 ], [ -124.7847573, -24.6751223 ], [ -124.7849089, -24.6750054 ], [ -124.7849907, -24.6749895 ], [ -124.7850578, -24.6750224 ], [ -124.7851007, -24.675076 ], [ -124.7851637, -24.6751175 ], [ -124.7852133, -24.6751211 ], [ -124.7853649, -24.6750931 ], [ -124.7856036, -24.6750785 ], [ -124.785963, -24.6751016 ], [ -124.7864699, -24.6751894 ], [ -124.7870694, -24.6753246 ], [ -124.7873631, -24.6753527 ], [ -124.7875468, -24.6753319 ], [ -124.7876608, -24.67531 ], [ -124.7879438, -24.6753137 ], [ -124.7881624, -24.6753319 ], [ -124.7886989, -24.6753185 ], [ -124.7889188, -24.6753198 ], [ -124.7891374, -24.6753722 ], [ -124.7893801, -24.6755087 ], [ -124.7895116, -24.6755476 ], [ -124.7895773, -24.675544 ], [ -124.7896618, -24.675505 ], [ -124.7897476, -24.6754526 ], [ -124.7898911, -24.6754453 ], [ -124.7901325, -24.6755026 ], [ -124.7903135, -24.6755757 ], [ -124.7908057, -24.675639 ], [ -124.7910525, -24.6756975 ], [ -124.7912335, -24.6757585 ], [ -124.7914173, -24.675884 ], [ -124.7917016, -24.6762179 ], [ -124.7918545, -24.6762691 ], [ -124.7919215, -24.6762727 ], [ -124.7920436, -24.6762618 ], [ -124.7923413, -24.6761241 ], [ -124.7926471, -24.6760375 ], [ -124.7929059, -24.6760375 ], [ -124.7930896, -24.676068 ], [ -124.793319, -24.6762057 ], [ -124.7936945, -24.67662 ], [ -124.7938728, -24.6768747 ], [ -124.7940204, -24.6771867 ], [ -124.7944468, -24.6779581 ], [ -124.7946104, -24.6782957 ], [ -124.7947365, -24.6786832 ], [ -124.7948492, -24.6791121 ], [ -124.79488, -24.6794631 ], [ -124.7948626, -24.6797482 ], [ -124.794829, -24.6799103 ], [ -124.7947942, -24.6800334 ], [ -124.7947124, -24.6801394 ], [ -124.794542, -24.6802783 ], [ -124.7944536, -24.6803368 ], [ -124.794349, -24.6804051 ], [ -124.7943838, -24.6804514 ] ] ] ] } },
{ "type": "Feature", "properties": { "FID": 231531, "id": 419, "left": -125.0, "top": -20.0, "right": -120.0, "bottom": -25.0, "row_index": 22, "col_index": 11, "min_lon": -125.0, "min_lat": -25.0, "tile_id": "-125_-25" }, "geometry": { "type": "MultiPolygon", "coordinates": [ [ [ [ -124.7819236, -24.6870426 ], [ -124.7820041, -24.6871912 ], [ -124.7821918, -24.6873082 ], [ -124.7823903, -24.6873399 ], [ -124.7825781, -24.6873253 ], [ -124.7828463, -24.6871474 ], [ -124.7830179, -24.6868866 ], [ -124.7830689, -24.6866258 ], [ -124.7831252, -24.6862505 ], [ -124.7830769, -24.6859751 ], [ -124.7829965, -24.6858143 ], [ -124.7828651, -24.6856534 ], [ -124.7827336, -24.6855681 ], [ -124.7825915, -24.6855267 ], [ -124.7824091, -24.6854439 ], [ -124.782279, -24.6852952 ], [ -124.782232, -24.6852574 ], [ -124.7821864, -24.6852477 ], [ -124.7821435, -24.685272 ], [ -124.7819853, -24.6854841 ], [ -124.7818847, -24.6857473 ], [ -124.7818565, -24.6859727 ], [ -124.7818324, -24.6862847 ], [ -124.7818592, -24.6865576 ], [ -124.7818646, -24.6867623 ], [ -124.7819236, -24.6870426 ] ] ] ] } },
{ "type": "Feature", "properties": { "FID": 231532, "id": 419, "left": -125.0, "top": -20.0, "right": -120.0, "bottom": -25.0, "row_index": 22, "col_index": 11, "min_lon": -125.0, "min_lat": -25.0, "tile_id": "-125_-25" }, "geometry": { "type": "MultiPolygon", "coordinates": [ [ [ [ -124.7871244, -24.687028 ], [ -124.7870037, -24.6871717 ], [ -124.7869205, -24.6872912 ], [ -124.7868776, -24.6873411 ], [ -124.7868481, -24.6874179 ], [ -124.7868334, -24.6875787 ], [ -124.78682, -24.6876567 ], [ -124.7867878, -24.6876908 ], [ -124.786651, -24.6877469 ], [ -124.7865236, -24.6877932 ], [ -124.786364, -24.6878139 ], [ -124.7862956, -24.6878029 ], [ -124.7862352, -24.6877798 ], [ -124.7861736, -24.6877274 ], [ -124.7861534, -24.6876555 ], [ -124.7861414, -24.6875434 ], [ -124.7860837, -24.6874544 ], [ -124.7860086, -24.687396 ], [ -124.7858061, -24.687307 ], [ -124.7856586, -24.6872266 ], [ -124.7855231, -24.6871072 ], [ -124.7853582, -24.6869414 ], [ -124.7853152, -24.6868598 ], [ -124.7852696, -24.6868025 ], [ -124.785106, -24.6867148 ], [ -124.7849451, -24.6865929 ], [ -124.7847962, -24.6864626 ], [ -124.7844811, -24.686019 ], [ -124.7842786, -24.6857022 ], [ -124.7841431, -24.6855718 ], [ -124.7840144, -24.6855011 ], [ -124.7837743, -24.6853829 ], [ -124.7836322, -24.6853111 ], [ -124.7834739, -24.6852464 ], [ -124.7834498, -24.6853537 ], [ -124.7834525, -24.6854877 ], [ -124.7834766, -24.6858947 ], [ -124.7834927, -24.6859825 ], [ -124.7835396, -24.6861189 ], [ -124.7836308, -24.6862554 ], [ -124.7837073, -24.6863541 ], [ -124.783828, -24.6864747 ], [ -124.7839768, -24.6866173 ], [ -124.7840358, -24.6867038 ], [ -124.7841002, -24.6868281 ], [ -124.7842638, -24.6870523 ], [ -124.7844435, -24.6873448 ], [ -124.7846662, -24.6876628 ], [ -124.7847721, -24.687764 ], [ -124.7849786, -24.6879211 ], [ -124.7852629, -24.6881149 ], [ -124.7855701, -24.6883172 ], [ -124.7858772, -24.6885097 ], [ -124.7859858, -24.6885791 ], [ -124.7861923, -24.6887436 ], [ -124.786368, -24.6888606 ], [ -124.7865263, -24.6889045 ], [ -124.7866443, -24.688941 ], [ -124.7868066, -24.6889471 ], [ -124.7870573, -24.6889081 ], [ -124.7873577, -24.6888058 ], [ -124.7875334, -24.6887546 ], [ -124.7876327, -24.6887595 ], [ -124.7878043, -24.6887778 ], [ -124.7879612, -24.6887473 ], [ -124.7880042, -24.6887156 ], [ -124.7880363, -24.6886547 ], [ -124.7880484, -24.6885109 ], [ -124.7880149, -24.6882575 ], [ -124.7880055, -24.6879955 ], [ -124.7879867, -24.6876494 ], [ -124.7880068, -24.6874947 ], [ -124.788031, -24.6873947 ], [ -124.7880068, -24.6873228 ], [ -124.7879331, -24.6872668 ], [ -124.7878352, -24.6871839 ], [ -124.787685, -24.6870255 ], [ -124.7876072, -24.6869548 ], [ -124.7874168, -24.6868842 ], [ -124.7872585, -24.686889 ], [ -124.7871244, -24.687028 ] ] ] ] } },
{ "type": "Feature", "properties": { "FID": 231533, "id": 419, "left": -125.0, "top": -20.0, "right": -120.0, "bottom": -25.0, "row_index": 22, "col_index": 11, "min_lon": -125.0, "min_lat": -25.0, "tile_id": "-125_-25" }, "geometry": { "type": "MultiPolygon", "coordinates": [ [ [ [ -124.7940981, -24.685534 ], [ -124.7941089, -24.6853781 ], [ -124.7940338, -24.6851417 ], [ -124.7938246, -24.6849077 ], [ -124.7935872, -24.6847176 ], [ -124.7933914, -24.6846421 ], [ -124.7931607, -24.6846006 ], [ -124.7930199, -24.6846031 ], [ -124.7928603, -24.6846238 ], [ -124.7927865, -24.6846506 ], [ -124.7927061, -24.6847115 ], [ -124.792635, -24.6848614 ], [ -124.7925827, -24.6850125 ], [ -124.792529, -24.6850941 ], [ -124.7924459, -24.6851928 ], [ -124.792356, -24.6852379 ], [ -124.7920664, -24.6852867 ], [ -124.7919483, -24.6853488 ], [ -124.7918746, -24.6853963 ], [ -124.7918209, -24.6855547 ], [ -124.7918397, -24.6856376 ], [ -124.7918665, -24.6857729 ], [ -124.7920489, -24.6859605 ], [ -124.7928295, -24.6863748 ], [ -124.7931433, -24.6864333 ], [ -124.7933444, -24.6864211 ], [ -124.7935, -24.6863578 ], [ -124.7937682, -24.6861531 ], [ -124.7939426, -24.6859922 ], [ -124.794082, -24.6857192 ], [ -124.7940981, -24.685534 ] ] ] ] } }
]
}
