{
"type": "FeatureCollection",
"name": "-130_-25",
"crs": { "type": "name", "properties": { "name": "urn:ogc:def:crs:OGC:1.3:CRS84" } },
"xy_coordinate_resolution": 1e-15,
"features": [
{ "type": "Feature", "properties": { "FID": 74648, "id": 383, "left": -130.0, "top": -20.0, "right": -125.0, "bottom": -25.0, "row_index": 22, "col_index": 10, "min_lon": -130.0, "min_lat": -25.0, "tile_id": "-130_-25" }, "geometry": { "type": "MultiPolygon", "coordinates": [ [ [ [ -128.304789199999988, -24.3396933 ], [ -128.3048576, -24.3398546 ], [ -128.3050695, -24.34049 ], [ -128.3051352, -24.3406476 ], [ -128.3051862, -24.3407454 ], [ -128.3052653, -24.3408859 ], [ -128.3053619, -24.341035 ], [ -128.3055, -24.3412781 ], [ -128.3055617, -24.3414052 ], [ -128.3056556, -24.3415995 ], [ -128.3057401, -24.3417803 ], [ -128.3058259, -24.3419868 ], [ -128.3058768, -24.3422019 ], [ -128.305930499999988, -24.3423729 ], [ -128.3060083, -24.3427615 ], [ -128.3060649, -24.3430575 ], [ -128.306192, -24.343772 ], [ -128.306322099999988, -24.3448167 ], [ -128.3064884, -24.347082 ], [ -128.3065099, -24.347776 ], [ -128.3064791, -24.3486843 ], [ -128.306402600000013, -24.3494963 ], [ -128.306225500000011, -24.3503271 ], [ -128.305984099999989, -24.3514561 ], [ -128.305732, -24.352541 ], [ -128.3055282, -24.3532447 ], [ -128.3053404, -24.3538116 ], [ -128.305093699999986, -24.3544567 ], [ -128.3048791, -24.3551311 ], [ -128.3045706, -24.3561379 ], [ -128.3044258, -24.3565508 ], [ -128.3042783, -24.3568514 ], [ -128.304141499999986, -24.3571641 ], [ -128.303999299999987, -24.357538 ], [ -128.3039135, -24.3578336 ], [ -128.3037794, -24.3582124 ], [ -128.303701600000011, -24.3584787 ], [ -128.303519200000011, -24.3590945 ], [ -128.3035018, -24.3592044 ], [ -128.3034749, -24.3592789 ], [ -128.303440099999989, -24.3593266 ], [ -128.3032992, -24.3594622 ], [ -128.3032483, -24.3595257 ], [ -128.303035099999988, -24.3599765 ], [ -128.3029224, -24.3601329 ], [ -128.3028232, -24.3602869 ], [ -128.3028158, -24.3603296 ], [ -128.3028198, -24.3603919 ], [ -128.3028131, -24.3605019 ], [ -128.30272930000001, -24.3608012 ], [ -128.3026783, -24.361037 ], [ -128.3025107, -24.3615904 ], [ -128.3024409, -24.3618518 ], [ -128.3023873, -24.3620217 ], [ -128.3023202, -24.362288 ], [ -128.3022465, -24.3625836 ], [ -128.30196620000001, -24.3636514 ], [ -128.301872300000014, -24.3638774 ], [ -128.3017932, -24.3639495 ], [ -128.3017194, -24.3639764 ], [ -128.3016336, -24.3640069 ], [ -128.301584, -24.3640594 ], [ -128.3015585, -24.3641315 ], [ -128.3015277, -24.3642891 ], [ -128.301467300000013, -24.3645298 ], [ -128.301420400000012, -24.3648022 ], [ -128.3013774, -24.3651369 ], [ -128.301325100000014, -24.365413 ], [ -128.3012621, -24.3656427 ], [ -128.301217900000012, -24.3658504 ], [ -128.3011702, -24.3660006 ], [ -128.3011273, -24.3660587 ], [ -128.301069, -24.3661057 ], [ -128.3010227, -24.3661564 ], [ -128.300950300000011, -24.3663171 ], [ -128.3009362, -24.3663824 ], [ -128.300934899999987, -24.3664389 ], [ -128.3009382, -24.3664786 ], [ -128.300933500000014, -24.3665049 ], [ -128.30092350000001, -24.3665195 ], [ -128.300909100000013, -24.3665284 ], [ -128.3008668, -24.3665412 ], [ -128.3008309, -24.3665522 ], [ -128.300803800000011, -24.3665638 ], [ -128.3007877, -24.3665791 ], [ -128.3007783, -24.3665913 ], [ -128.3007766, -24.3666075 ], [ -128.3007783, -24.3666295 ], [ -128.300801799999988, -24.3666667 ], [ -128.3008179, -24.3666848 ], [ -128.3008514, -24.3667104 ], [ -128.300865499999986, -24.3667266 ], [ -128.3008672, -24.3667486 ], [ -128.3008605, -24.3667868 ], [ -128.300819499999989, -24.3669468 ], [ -128.300637200000011, -24.3676047 ], [ -128.3005426, -24.3679608 ], [ -128.3005138, -24.3680145 ], [ -128.300478199999986, -24.3680469 ], [ -128.3004253, -24.3680945 ], [ -128.300384400000013, -24.36813 ], [ -128.3003421, -24.3681752 ], [ -128.300318, -24.3682185 ], [ -128.300312600000012, -24.3682668 ], [ -128.300316, -24.3683108 ], [ -128.300326, -24.36833 ], [ -128.300337399999989, -24.3683437 ], [ -128.3003817, -24.3683792 ], [ -128.3003974, -24.3683951 ], [ -128.3004028, -24.3684076 ], [ -128.3003998, -24.3684274 ], [ -128.3003864, -24.3684598 ], [ -128.300359500000013, -24.3685068 ], [ -128.300317299999989, -24.3685844 ], [ -128.3002999, -24.3686339 ], [ -128.300279100000012, -24.368676 ], [ -128.3002576, -24.3686931 ], [ -128.3002395, -24.3687145 ], [ -128.3002342, -24.3687328 ], [ -128.3002375, -24.3687579 ], [ -128.3002509, -24.3687915 ], [ -128.3002643, -24.3688116 ], [ -128.3002777, -24.3688495 ], [ -128.300275699999986, -24.3688971 ], [ -128.300265700000011, -24.3689448 ], [ -128.3002553, -24.3689714 ], [ -128.3002382, -24.3689958 ], [ -128.3002305, -24.3690175 ], [ -128.300208700000013, -24.3691024 ], [ -128.3002013, -24.369252 ], [ -128.300198599999987, -24.3693021 ], [ -128.3001906, -24.3693846 ], [ -128.3001869, -24.3694163 ], [ -128.30018290000001, -24.3694518 ], [ -128.3001758, -24.3694783 ], [ -128.3000974, -24.3695434 ], [ -128.300076600000011, -24.36958 ], [ -128.3000011, -24.3697984 ], [ -128.2999718, -24.3698091 ], [ -128.2999596, -24.3698053 ], [ -128.299906600000014, -24.3697562 ], [ -128.2998687, -24.3697599 ], [ -128.29981810000001, -24.3698109 ], [ -128.29979560000001, -24.3698613 ], [ -128.299771, -24.3699548 ], [ -128.2997763, -24.3699688 ], [ -128.299808500000012, -24.3699807 ], [ -128.2998164, -24.3700003 ], [ -128.2998102, -24.3700154 ], [ -128.2997705, -24.3700334 ], [ -128.29975970000001, -24.3700627 ], [ -128.2998072, -24.3700839 ], [ -128.2998265, -24.3701125 ], [ -128.299809900000014, -24.3701356 ], [ -128.2997552, -24.3701391 ], [ -128.299744, -24.3701488 ], [ -128.299745300000012, -24.3701771 ], [ -128.299771099999987, -24.3701994 ], [ -128.2997849, -24.3702228 ], [ -128.2997835, -24.3702599 ], [ -128.2997624, -24.3702883 ], [ -128.2997064, -24.370298 ], [ -128.2996853, -24.3703377 ], [ -128.2996032, -24.3710582 ], [ -128.2996072, -24.3712695 ], [ -128.2995991, -24.3713208 ], [ -128.299571, -24.3713831 ], [ -128.2995187, -24.371465 ], [ -128.2994851, -24.3715554 ], [ -128.2994583, -24.3716806 ], [ -128.2994382, -24.3717172 ], [ -128.299388599999986, -24.3717869 ], [ -128.299234399999989, -24.3719683 ], [ -128.2991814, -24.3720629 ], [ -128.2991613, -24.3721973 ], [ -128.2991723, -24.3722227 ], [ -128.299206199999986, -24.3722407 ], [ -128.299223, -24.372259 ], [ -128.2992256, -24.3723121 ], [ -128.2992156, -24.3723622 ], [ -128.299212899999986, -24.3724404 ], [ -128.2992317, -24.3725864 ], [ -128.2992256, -24.3726182 ], [ -128.299192799999986, -24.3726798 ], [ -128.2991371, -24.3727513 ], [ -128.299115, -24.3727971 ], [ -128.29908420000001, -24.3728961 ], [ -128.2986991, -24.3743843 ], [ -128.2985323, -24.3760811 ], [ -128.2982795, -24.377079 ], [ -128.2978373, -24.379367 ], [ -128.297156699999988, -24.3814003 ], [ -128.2949721, -24.3855604 ], [ -128.2938529, -24.387757 ], [ -128.293498699999986, -24.3885428 ], [ -128.2934435, -24.3890421 ], [ -128.29339920000001, -24.3908698 ], [ -128.2934368, -24.3914267 ], [ -128.2937962, -24.3929804 ], [ -128.294123399999989, -24.3945926 ], [ -128.2942736, -24.3958677 ], [ -128.2943434, -24.3966494 ], [ -128.294378599999988, -24.3978993 ], [ -128.294384400000013, -24.3996502 ], [ -128.2943487, -24.4005821 ], [ -128.2944076, -24.4024031 ], [ -128.294359, -24.4034697 ], [ -128.2941136, -24.4054632 ], [ -128.2940644, -24.4059826 ], [ -128.2940725, -24.4061853 ], [ -128.294048299999986, -24.4064223 ], [ -128.2939383, -24.4068961 ], [ -128.293698299999988, -24.4081967 ], [ -128.2936661, -24.4085289 ], [ -128.2936906, -24.4086266 ], [ -128.293689199999989, -24.4086425 ], [ -128.293663400000014, -24.4086822 ], [ -128.293676799999986, -24.4087689 ], [ -128.2936111, -24.4089649 ], [ -128.2936239, -24.4090742 ], [ -128.2936138, -24.409164 ], [ -128.2934864, -24.4095804 ], [ -128.2933415, -24.4101287 ], [ -128.293231600000013, -24.4103669 ], [ -128.2931954, -24.4105134 ], [ -128.2931404, -24.4107912 ], [ -128.2931417, -24.4108175 ], [ -128.2931685, -24.4109066 ], [ -128.2928432, -24.4121381 ], [ -128.2924524, -24.4138278 ], [ -128.292299500000013, -24.4147974 ], [ -128.2922432, -24.4149781 ], [ -128.2920796, -24.4153371 ], [ -128.292034, -24.4154873 ], [ -128.2919857, -24.4157279 ], [ -128.291971600000011, -24.4158366 ], [ -128.2919683, -24.4159947 ], [ -128.291928, -24.4161303 ], [ -128.291879099999989, -24.416192 ], [ -128.2918637, -24.4162384 ], [ -128.291820699999988, -24.416457 ], [ -128.2917497, -24.4171176 ], [ -128.2916826, -24.4173276 ], [ -128.2916504, -24.4174693 ], [ -128.2916209, -24.4176573 ], [ -128.2916263, -24.4178796 ], [ -128.2916504, -24.4180286 ], [ -128.291688, -24.4181434 ], [ -128.291806, -24.4185952 ], [ -128.2919589, -24.4190836 ], [ -128.2920259, -24.419345 ], [ -128.2921144, -24.419555 ], [ -128.292272700000012, -24.4197724 ], [ -128.2926482, -24.4202315 ], [ -128.29282520000001, -24.4204709 ], [ -128.293501099999986, -24.4211596 ], [ -128.293696899999986, -24.4212988 ], [ -128.294195800000011, -24.4216187 ], [ -128.2946129, -24.4218409 ], [ -128.294684, -24.4218495 ], [ -128.294736300000011, -24.4218409 ], [ -128.2948087, -24.4217884 ], [ -128.2948798, -24.4217933 ], [ -128.2951225, -24.42196 ], [ -128.295207, -24.4220339 ], [ -128.295231199999989, -24.4221053 ], [ -128.2952352, -24.4221792 ], [ -128.2952613, -24.4222244 ], [ -128.2958199, -24.4225541 ], [ -128.2960694, -24.4226872 ], [ -128.2963201, -24.422852 ], [ -128.2963765, -24.422863 ], [ -128.296491800000013, -24.4228569 ], [ -128.2965495, -24.4228777 ], [ -128.2966353, -24.422929 ], [ -128.2967439, -24.4229741 ], [ -128.296819, -24.4229876 ], [ -128.296883400000013, -24.4229839 ], [ -128.2972589, -24.4229131 ], [ -128.2973515, -24.422918 ], [ -128.2975741, -24.4229839 ], [ -128.2977726, -24.4230083 ], [ -128.298142, -24.4230291 ], [ -128.2984518, -24.4230303 ], [ -128.2984961, -24.423015 ], [ -128.2985343, -24.42299 ], [ -128.2985517, -24.422965 ], [ -128.2985611, -24.4229253 ], [ -128.2985383, -24.4228624 ], [ -128.2984515, -24.42278 ], [ -128.2984458, -24.4227659 ], [ -128.2984481, -24.4227543 ], [ -128.2984602, -24.4227455 ], [ -128.2984894, -24.4227409 ], [ -128.2985491, -24.4227494 ], [ -128.2987583, -24.4228178 ], [ -128.299227, -24.4229497 ], [ -128.2992672, -24.4229479 ], [ -128.2993081, -24.4229296 ], [ -128.2993443, -24.4228948 ], [ -128.2993913, -24.4228142 ], [ -128.2994268, -24.4227922 ], [ -128.299766799999986, -24.4227452 ], [ -128.2997829, -24.4227275 ], [ -128.2997856, -24.4226896 ], [ -128.2997105, -24.4225016 ], [ -128.2997105, -24.4224649 ], [ -128.2997279, -24.4224454 ], [ -128.2997789, -24.4224307 ], [ -128.2999465, -24.4224442 ], [ -128.300232099999988, -24.4225064 ], [ -128.3002818, -24.4225028 ], [ -128.30033, -24.4224857 ], [ -128.300387699999987, -24.4224234 ], [ -128.3004561, -24.4223257 ], [ -128.300516499999986, -24.4222219 ], [ -128.300605, -24.4221352 ], [ -128.3007297, -24.4220766 ], [ -128.301015299999989, -24.4219863 ], [ -128.3011937, -24.4219118 ], [ -128.301333199999988, -24.4218275 ], [ -128.30142570000001, -24.4217396 ], [ -128.301508899999988, -24.421681 ], [ -128.3016309, -24.4216211 ], [ -128.30181060000001, -24.4215857 ], [ -128.301960799999989, -24.421587 ], [ -128.302062799999987, -24.4215686 ], [ -128.302163299999989, -24.4215064 ], [ -128.3022532, -24.4213952 ], [ -128.302404700000011, -24.4211229 ], [ -128.3024718, -24.4210338 ], [ -128.3025549, -24.4209617 ], [ -128.30263, -24.4209349 ], [ -128.3027132, -24.4209288 ], [ -128.3028674, -24.420952 ], [ -128.302958600000011, -24.4209214 ], [ -128.3031316, -24.420814 ], [ -128.3032, -24.4207468 ], [ -128.3033073, -24.4207163 ], [ -128.3034065, -24.4207077 ], [ -128.30347230000001, -24.4207273 ], [ -128.3035232, -24.420759 ], [ -128.303574200000014, -24.4207676 ], [ -128.3036654, -24.4207438 ], [ -128.303701600000011, -24.42072 ], [ -128.3037137, -24.420698 ], [ -128.3037123, -24.4205661 ], [ -128.3037271, -24.4205087 ], [ -128.3037512, -24.4204623 ], [ -128.3038665, -24.4203646 ], [ -128.3039296, -24.4203268 ], [ -128.3039819, -24.4203109 ], [ -128.3040436, -24.4203023 ], [ -128.304262200000011, -24.4202169 ], [ -128.304526399999986, -24.4200251 ], [ -128.3046953, -24.4199507 ], [ -128.3047664, -24.4198969 ], [ -128.3049475, -24.4197015 ], [ -128.3051151, -24.4195929 ], [ -128.3055483, -24.4193547 ], [ -128.305665, -24.4193083 ], [ -128.3057119, -24.4193035 ], [ -128.305768199999989, -24.419312 ], [ -128.3058366, -24.4193389 ], [ -128.3059654, -24.4193486 ], [ -128.3060592, -24.4193279 ], [ -128.306104800000014, -24.4193083 ], [ -128.3061478, -24.4192778 ], [ -128.3062644, -24.4191716 ], [ -128.3063055, -24.419121 ], [ -128.306311, -24.4190994 ], [ -128.306306, -24.4190537 ], [ -128.306344200000012, -24.4189982 ], [ -128.306407900000011, -24.418931 ], [ -128.306652, -24.4187112 ], [ -128.3067217, -24.4186807 ], [ -128.306939, -24.4186538 ], [ -128.307332, -24.4183949 ], [ -128.3074473, -24.4183278 ], [ -128.3075197, -24.4182704 ], [ -128.307597500000014, -24.4181629 ], [ -128.307724900000011, -24.4179284 ], [ -128.3078322, -24.4177086 ], [ -128.3080079, -24.4174998 ], [ -128.3080642, -24.4174534 ], [ -128.3081138, -24.4174302 ], [ -128.308292200000011, -24.4173863 ], [ -128.308394099999987, -24.4173496 ], [ -128.308625400000011, -24.4171866 ], [ -128.308744100000013, -24.4171182 ], [ -128.3087696, -24.4170852 ], [ -128.3087884, -24.4170431 ], [ -128.3088246, -24.4169979 ], [ -128.308879600000012, -24.4169625 ], [ -128.3089694, -24.416921 ], [ -128.309074, -24.416888 ], [ -128.3091733, -24.4168746 ], [ -128.3093718, -24.4168776 ], [ -128.3094529, -24.4168544 ], [ -128.309515299999987, -24.4168135 ], [ -128.3096252, -24.4167165 ], [ -128.3097094, -24.4166209 ], [ -128.309717799999987, -24.4166001 ], [ -128.3097195, -24.4165809 ], [ -128.30969970000001, -24.416536 ], [ -128.30965, -24.4164911 ], [ -128.3096376, -24.4164554 ], [ -128.3096708, -24.416333 ], [ -128.3096856, -24.4163083 ], [ -128.3097419, -24.4162738 ], [ -128.30988, -24.4162646 ], [ -128.3101711, -24.4161407 ], [ -128.310187500000012, -24.4161138 ], [ -128.31017940000001, -24.4160625 ], [ -128.3101811, -24.4160454 ], [ -128.3101925, -24.4160341 ], [ -128.3104607, -24.415916 ], [ -128.3104842, -24.4158958 ], [ -128.3105104, -24.4158476 ], [ -128.3105244, -24.4157517 ], [ -128.3105419, -24.4157084 ], [ -128.310563300000013, -24.415684 ], [ -128.310675300000014, -24.41564 ], [ -128.3106881, -24.4156266 ], [ -128.3107176, -24.4155435 ], [ -128.3107397, -24.4155063 ], [ -128.310855, -24.4153994 ], [ -128.3109871, -24.4152236 ], [ -128.3110046, -24.4151821 ], [ -128.3110046, -24.4151112 ], [ -128.3109818, -24.4149824 ], [ -128.3109824, -24.4149506 ], [ -128.310993200000013, -24.4149335 ], [ -128.3110153, -24.4149189 ], [ -128.311073599999986, -24.4149097 ], [ -128.311123900000013, -24.4149134 ], [ -128.3111581, -24.4149311 ], [ -128.311235900000014, -24.4150007 ], [ -128.311269399999986, -24.4150148 ], [ -128.311313, -24.4150239 ], [ -128.3113918, -24.4150209 ], [ -128.3114277, -24.4150093 ], [ -128.311457499999989, -24.4149784 ], [ -128.3115108, -24.4148273 ], [ -128.3116215, -24.414696 ], [ -128.3116761, -24.4146457 ], [ -128.31169220000001, -24.4146337 ], [ -128.3117278, -24.4146325 ], [ -128.3117787, -24.4146719 ], [ -128.311809899999986, -24.414682 ], [ -128.3118555, -24.4146658 ], [ -128.3119024, -24.4146374 ], [ -128.311938, -24.4145751 ], [ -128.3119628, -24.4144298 ], [ -128.3119802, -24.414384 ], [ -128.31202780000001, -24.4143291 ], [ -128.3120982, -24.4142747 ], [ -128.3121566, -24.4142479 ], [ -128.3122344, -24.4142338 ], [ -128.3124137, -24.4142347 ], [ -128.312518, -24.4142256 ], [ -128.312564900000012, -24.4141999 ], [ -128.31258, -24.4141694 ], [ -128.312607899999989, -24.4141486 ], [ -128.3127359, -24.4141437 ], [ -128.312866, -24.4140744 ], [ -128.3128898, -24.4140378 ], [ -128.3128835, -24.4139905 ], [ -128.3128888, -24.4139627 ], [ -128.3129227, -24.4139418 ], [ -128.312929, -24.4139264 ], [ -128.312929, -24.4137435 ], [ -128.3129394, -24.4136843 ], [ -128.312962199999987, -24.4136507 ], [ -128.3130166, -24.4136217 ], [ -128.3130233, -24.4136107 ], [ -128.3130223, -24.413568 ], [ -128.313033, -24.4135515 ], [ -128.313294500000012, -24.4135438 ], [ -128.3134206, -24.4134822 ], [ -128.3134923, -24.4134657 ], [ -128.313582200000013, -24.4134767 ], [ -128.3137585, -24.4135481 ], [ -128.313821600000011, -24.4135396 ], [ -128.3139396, -24.4134944 ], [ -128.3139952, -24.4134889 ], [ -128.3140723, -24.4135145 ], [ -128.3141401, -24.413528 ], [ -128.3142071, -24.4135255 ], [ -128.3142487, -24.4135127 ], [ -128.3142829, -24.4134901 ], [ -128.3143513, -24.413379 ], [ -128.314384499999989, -24.4133448 ], [ -128.3144006, -24.4133332 ], [ -128.3145297, -24.4132871 ], [ -128.3145575, -24.413266 ], [ -128.3147047, -24.4131207 ], [ -128.314985, -24.4128685 ], [ -128.315056700000014, -24.4128288 ], [ -128.3151238, -24.412816 ], [ -128.3151627, -24.4128215 ], [ -128.3152311, -24.412849 ], [ -128.315267299999988, -24.4128471 ], [ -128.315339, -24.4128337 ], [ -128.3155482, -24.4127702 ], [ -128.3157333, -24.4127317 ], [ -128.3157836, -24.4127372 ], [ -128.315915, -24.4128105 ], [ -128.3159445, -24.4128136 ], [ -128.3159841, -24.4127916 ], [ -128.3160236, -24.412747 ], [ -128.316063899999989, -24.4127311 ], [ -128.3161242, -24.4127397 ], [ -128.3163616, -24.4128447 ], [ -128.31654, -24.4128642 ], [ -128.3166258, -24.4128471 ], [ -128.3166942, -24.4128105 ], [ -128.3167344, -24.4127775 ], [ -128.3168162, -24.4127568 ], [ -128.3170107, -24.412747 ], [ -128.3170979, -24.4127214 ], [ -128.317169, -24.4126896 ], [ -128.3172387, -24.4126371 ], [ -128.3173285, -24.4126066 ], [ -128.317405, -24.4126139 ], [ -128.317468, -24.4126408 ], [ -128.3175512, -24.4127641 ], [ -128.3176263, -24.4128105 ], [ -128.317710799999986, -24.4128337 ], [ -128.317932, -24.412841 ], [ -128.318135899999987, -24.412802 ], [ -128.318209599999989, -24.4127727 ], [ -128.3183746, -24.4126261 ], [ -128.3184953, -24.4125406 ], [ -128.3185449, -24.412526 ], [ -128.3185852, -24.4125241 ], [ -128.3188299, -24.4125797 ], [ -128.3189178, -24.4125712 ], [ -128.319043099999988, -24.412537 ], [ -128.319127, -24.4125315 ], [ -128.319168499999989, -24.4124997 ], [ -128.3191907, -24.4124674 ], [ -128.319220800000011, -24.4124545 ], [ -128.3193858, -24.4124277 ], [ -128.3195494, -24.4123513 ], [ -128.319603699999988, -24.4123489 ], [ -128.319662099999988, -24.4123721 ], [ -128.319690900000012, -24.4123739 ], [ -128.319724400000013, -24.4123654 ], [ -128.319812899999988, -24.4122811 ], [ -128.3199256, -24.4122408 ], [ -128.319983900000011, -24.412206 ], [ -128.320065699999986, -24.412217 ], [ -128.3200859, -24.4122133 ], [ -128.3201013, -24.4122042 ], [ -128.3201301, -24.4121547 ], [ -128.320146200000011, -24.4121395 ], [ -128.3201703, -24.4121321 ], [ -128.3203839, -24.4121566 ], [ -128.320543500000014, -24.4121657 ], [ -128.320643100000012, -24.4121636 ], [ -128.320719200000013, -24.4121495 ], [ -128.3207645, -24.4121242 ], [ -128.3208811, -24.4121254 ], [ -128.3212949, -24.4120747 ], [ -128.32137, -24.4120772 ], [ -128.321524899999986, -24.4120998 ], [ -128.3218984, -24.4121364 ], [ -128.3222752, -24.4121376 ], [ -128.3223899, -24.4121285 ], [ -128.32248580000001, -24.412112 ], [ -128.3227305, -24.4120552 ], [ -128.322908899999987, -24.4120473 ], [ -128.323098, -24.4120662 ], [ -128.323299100000014, -24.412007 ], [ -128.323621, -24.4119349 ], [ -128.323849, -24.4119276 ], [ -128.3243486, -24.4119581 ], [ -128.3243707, -24.4119544 ], [ -128.3244307, -24.4119141 ], [ -128.3245035, -24.4119013 ], [ -128.324575900000013, -24.4119117 ], [ -128.3248505, -24.4119899 ], [ -128.324887, -24.4119935 ], [ -128.3249004, -24.4119902 ], [ -128.324942, -24.4119422 ], [ -128.325034499999987, -24.4119019 ], [ -128.3251251, -24.4118842 ], [ -128.3253014, -24.4118665 ], [ -128.3253571, -24.4118488 ], [ -128.3253939, -24.4118152 ], [ -128.3254382, -24.4117963 ], [ -128.325512, -24.4117816 ], [ -128.3255804, -24.4117816 ], [ -128.3256333, -24.4117957 ], [ -128.3256709, -24.4118158 ], [ -128.3256997, -24.4118488 ], [ -128.3257232, -24.4118916 ], [ -128.3257621, -24.4118922 ], [ -128.3260953, -24.4117242 ], [ -128.3262382, -24.4117108 ], [ -128.326319, -24.4116934 ], [ -128.326387, -24.4117108 ], [ -128.3264598, -24.4116656 ], [ -128.326619, -24.4116314 ], [ -128.326793400000014, -24.4115649 ], [ -128.3271977, -24.4114947 ], [ -128.3273982, -24.4114214 ], [ -128.3274539, -24.4113872 ], [ -128.3275585, -24.411306 ], [ -128.327620200000013, -24.4112944 ], [ -128.32765710000001, -24.4113005 ], [ -128.3276919, -24.4113194 ], [ -128.3277409, -24.4113829 ], [ -128.327767, -24.4113982 ], [ -128.3280872, -24.4114107 ], [ -128.3281264, -24.4114379 ], [ -128.3281613, -24.4115105 ], [ -128.3281791, -24.4115267 ], [ -128.3282069, -24.4115386 ], [ -128.3282347, -24.4115398 ], [ -128.3282639, -24.411531 ], [ -128.32828, -24.4115185 ], [ -128.3282874, -24.4115002 ], [ -128.3282733, -24.4114394 ], [ -128.3282458, -24.4114009 ], [ -128.3282482, -24.4113759 ], [ -128.328261199999986, -24.4113667 ], [ -128.32852410000001, -24.4113377 ], [ -128.3287212, -24.4113414 ], [ -128.3289177, -24.4113225 ], [ -128.3289599, -24.4113045 ], [ -128.328989799999988, -24.4112568 ], [ -128.3290156, -24.41124 ], [ -128.3293348, -24.4111918 ], [ -128.3295688, -24.4109793 ], [ -128.3296962, -24.4109421 ], [ -128.3297291, -24.4108779 ], [ -128.3297559, -24.4108523 ], [ -128.329871200000014, -24.4107882 ], [ -128.3299054, -24.4107528 ], [ -128.3299302, -24.4107406 ], [ -128.3299725, -24.4107332 ], [ -128.330193799999989, -24.4107607 ], [ -128.330579300000011, -24.4108486 ], [ -128.3306605, -24.4108981 ], [ -128.330694, -24.4108938 ], [ -128.330813299999988, -24.4108456 ], [ -128.3308242, -24.4108395 ], [ -128.3308326, -24.4108201 ], [ -128.330830099999986, -24.4107106 ], [ -128.3308821, -24.4106026 ], [ -128.330873, -24.410522 ], [ -128.330926299999987, -24.4103882 ], [ -128.330924, -24.4103736 ], [ -128.3308945, -24.4103357 ], [ -128.330888499999986, -24.410296 ], [ -128.3309025, -24.4102722 ], [ -128.3309361, -24.4102582 ], [ -128.3309803, -24.4102509 ], [ -128.3310514, -24.4102563 ], [ -128.3312056, -24.4102893 ], [ -128.3313914, -24.4102997 ], [ -128.3314289, -24.4103119 ], [ -128.331606599999986, -24.410442 ], [ -128.3317152, -24.4104661 ], [ -128.3317506, -24.4104699 ], [ -128.331767899999988, -24.4104649 ], [ -128.33179, -24.4104337 ], [ -128.3317974, -24.4104011 ], [ -128.3317877, -24.4103458 ], [ -128.331761199999988, -24.4103308 ], [ -128.3316881, -24.4103284 ], [ -128.3316777, -24.4103076 ], [ -128.33168040000001, -24.410289 ], [ -128.3317213, -24.4102704 ], [ -128.3318698, -24.4102301 ], [ -128.331901, -24.4102286 ], [ -128.3319737, -24.4102527 ], [ -128.3320089, -24.4102179 ], [ -128.3320321, -24.4102054 ], [ -128.3320773, -24.4102325 ], [ -128.3321357, -24.4102289 ], [ -128.332196, -24.4102142 ], [ -128.3322483, -24.4101855 ], [ -128.3323724, -24.410078 ], [ -128.332657399999988, -24.4099101 ], [ -128.3328119, -24.409777 ], [ -128.332831, -24.4097498 ], [ -128.332831700000014, -24.409647 ], [ -128.332875, -24.409592 ], [ -128.3328478, -24.4095297 ], [ -128.3328639, -24.4094967 ], [ -128.3331858, -24.4092501 ], [ -128.333338, -24.4091792 ], [ -128.33347280000001, -24.4090992 ], [ -128.3335552, -24.4090394 ], [ -128.3336391, -24.4089661 ], [ -128.3336893, -24.4089356 ], [ -128.3337215, -24.4089234 ], [ -128.3337859, -24.4089203 ], [ -128.3338657, -24.4088831 ], [ -128.333966299999986, -24.4088678 ], [ -128.3340072, -24.4088416 ], [ -128.3341111, -24.4087939 ], [ -128.3342801, -24.408739 ], [ -128.334349800000012, -24.4087145 ], [ -128.3345027, -24.4086596 ], [ -128.334681100000012, -24.4085656 ], [ -128.3348782, -24.4084086 ], [ -128.3348863, -24.4083958 ], [ -128.3348863, -24.4083292 ], [ -128.334895, -24.40831 ], [ -128.3349178, -24.4082883 ], [ -128.334988900000013, -24.4082523 ], [ -128.335043899999988, -24.4081986 ], [ -128.335066, -24.4081943 ], [ -128.335174, -24.408223 ], [ -128.335226299999988, -24.4082279 ], [ -128.3353027, -24.4082187 ], [ -128.335383799999988, -24.4081931 ], [ -128.3354254, -24.4081607 ], [ -128.3354851, -24.4080874 ], [ -128.335552799999988, -24.4079745 ], [ -128.3355951, -24.407925 ], [ -128.3357982, -24.4077669 ], [ -128.33587940000001, -24.4077168 ], [ -128.336051, -24.4076533 ], [ -128.336104, -24.4076209 ], [ -128.3361456, -24.4075696 ], [ -128.336155600000012, -24.4075446 ], [ -128.336177099999986, -24.4075293 ], [ -128.336198599999989, -24.4075214 ], [ -128.3363649, -24.4075263 ], [ -128.336454, -24.4075116 ], [ -128.3364919, -24.4074976 ], [ -128.3365657, -24.4074515 ], [ -128.3366119, -24.407435 ], [ -128.3366639, -24.4074277 ], [ -128.336814800000013, -24.4073774 ], [ -128.336848300000014, -24.4073519 ], [ -128.336849699999988, -24.407337 ], [ -128.3368175, -24.4073083 ], [ -128.336848300000014, -24.4072368 ], [ -128.3369006, -24.4072002 ], [ -128.3369616, -24.4071715 ], [ -128.337024, -24.407122 ], [ -128.3370803, -24.4070616 ], [ -128.3371018, -24.4070204 ], [ -128.3371041, -24.4069801 ], [ -128.3370582, -24.4069318 ], [ -128.3370404, -24.4068958 ], [ -128.3370414, -24.4068705 ], [ -128.3370485, -24.4068476 ], [ -128.337083, -24.4068018 ], [ -128.337092399999989, -24.4066989 ], [ -128.337127900000013, -24.4065822 ], [ -128.3372061, -24.4065206 ], [ -128.3373043, -24.4063465 ], [ -128.337362, -24.406272 ], [ -128.3374384, -24.4061927 ], [ -128.3377643, -24.4058959 ], [ -128.3378387, -24.4058135 ], [ -128.3379199, -24.4057842 ], [ -128.3380515, -24.4056485 ], [ -128.338225599999987, -24.4053915 ], [ -128.338318500000014, -24.4052178 ], [ -128.3383705, -24.4050581 ], [ -128.338396, -24.4050068 ], [ -128.338470699999988, -24.4048957 ], [ -128.3385348, -24.4048688 ], [ -128.3387869, -24.404373 ], [ -128.3387936, -24.4043369 ], [ -128.3387735, -24.4042924 ], [ -128.338641, -24.4042228 ], [ -128.33864, -24.4041904 ], [ -128.338681900000012, -24.4041791 ], [ -128.3387171, -24.4041574 ], [ -128.338794900000011, -24.4040389 ], [ -128.338819699999988, -24.404017 ], [ -128.3389257, -24.4039638 ], [ -128.3389813, -24.4039272 ], [ -128.3390135, -24.4038918 ], [ -128.3390779, -24.403769 ], [ -128.339118500000012, -24.4037089 ], [ -128.3391225, -24.4036909 ], [ -128.339111800000012, -24.4036594 ], [ -128.339055800000011, -24.4035968 ], [ -128.339032300000014, -24.403548 ], [ -128.3390363, -24.4033978 ], [ -128.3390531, -24.4033776 ], [ -128.3390766, -24.4033642 ], [ -128.339166400000011, -24.4033379 ], [ -128.3391953, -24.4033227 ], [ -128.339208, -24.4033013 ], [ -128.3392033, -24.4032756 ], [ -128.3391651, -24.4032198 ], [ -128.3391775, -24.4031902 ], [ -128.3392435, -24.403181 ], [ -128.3393347, -24.4031981 ], [ -128.3394098, -24.4031932 ], [ -128.3394755, -24.4031737 ], [ -128.339549299999987, -24.4031163 ], [ -128.3395667, -24.4030894 ], [ -128.3395788, -24.403021 ], [ -128.3395681, -24.4029514 ], [ -128.3395064, -24.4028854 ], [ -128.3393575, -24.4028219 ], [ -128.339318600000013, -24.402789 ], [ -128.3393092, -24.4027572 ], [ -128.3393173, -24.4027218 ], [ -128.3393414, -24.4027022 ], [ -128.3393884, -24.402701 ], [ -128.3394836, -24.4027206 ], [ -128.3396519, -24.4028054 ], [ -128.3397089, -24.4028219 ], [ -128.339771899999988, -24.402814 ], [ -128.3398343, -24.4027932 ], [ -128.33988930000001, -24.4027603 ], [ -128.339914099999987, -24.4027334 ], [ -128.3399724, -24.4025587 ], [ -128.3399758, -24.4024079 ], [ -128.3400053, -24.4023328 ], [ -128.3400287, -24.4022894 ], [ -128.3400743, -24.4022577 ], [ -128.3401676, -24.4022412 ], [ -128.340183599999989, -24.4022235 ], [ -128.3403017, -24.4019108 ], [ -128.3403781, -24.4017618 ], [ -128.3405095, -24.4014101 ], [ -128.3406879, -24.4010962 ], [ -128.3407348, -24.4009753 ], [ -128.3407657, -24.4009393 ], [ -128.3407992, -24.4008715 ], [ -128.3408106, -24.400863 ], [ -128.340824700000013, -24.4008575 ], [ -128.3408938, -24.4008611 ], [ -128.340915200000012, -24.4008538 ], [ -128.3409293, -24.4008367 ], [ -128.340956799999987, -24.400786 ], [ -128.3410835, -24.4004697 ], [ -128.3411767, -24.400198 ], [ -128.341236400000014, -24.4000477 ], [ -128.3412538, -24.4000288 ], [ -128.3413517, -24.3999848 ], [ -128.341383900000011, -24.3999549 ], [ -128.3414014, -24.3999201 ], [ -128.341408699999988, -24.3999018 ], [ -128.3414041, -24.399881 ], [ -128.3413893, -24.3998682 ], [ -128.3413357, -24.3998487 ], [ -128.341328299999986, -24.3998224 ], [ -128.3413343, -24.3997943 ], [ -128.3414148, -24.3996685 ], [ -128.3418533, -24.3987464 ], [ -128.341957900000011, -24.3985724 ], [ -128.341962599999988, -24.3985192 ], [ -128.3419485, -24.3984899 ], [ -128.3419465, -24.3984594 ], [ -128.3419552, -24.3984191 ], [ -128.341986100000014, -24.3983849 ], [ -128.3420317, -24.3983592 ], [ -128.3420552, -24.3983351 ], [ -128.3420753, -24.3982414 ], [ -128.3420827, -24.3981614 ], [ -128.342138299999988, -24.3979806 ], [ -128.3421893, -24.3979214 ], [ -128.3422349, -24.3978298 ], [ -128.3422785, -24.3977907 ], [ -128.3423173, -24.3977693 ], [ -128.342349500000012, -24.3977364 ], [ -128.342377699999986, -24.3976942 ], [ -128.3424119, -24.397613 ], [ -128.3426701, -24.3972283 ], [ -128.3426794, -24.3971965 ], [ -128.3426781, -24.3971648 ], [ -128.342613699999987, -24.3970182 ], [ -128.3426043, -24.3968643 ], [ -128.342627099999987, -24.3968216 ], [ -128.3426929, -24.3967446 ], [ -128.3427599, -24.3966799 ], [ -128.342839, -24.3966433 ], [ -128.3428819, -24.3966127 ], [ -128.342916800000012, -24.3965529 ], [ -128.3431079, -24.3961248 ], [ -128.3431146, -24.3959834 ], [ -128.3432454, -24.3958701 ], [ -128.343378199999989, -24.3957871 ], [ -128.3434459, -24.3957065 ], [ -128.3434808, -24.3956338 ], [ -128.3434801, -24.3956173 ], [ -128.3434727, -24.3956088 ], [ -128.3434284, -24.3956014 ], [ -128.3434164, -24.3955874 ], [ -128.3434258, -24.395544 ], [ -128.343460599999986, -24.3955074 ], [ -128.3435699, -24.3954445 ], [ -128.343616200000014, -24.3953798 ], [ -128.3436316, -24.3953456 ], [ -128.3436303, -24.3952998 ], [ -128.3436008, -24.3951446 ], [ -128.3436115, -24.3950494 ], [ -128.343641, -24.3949627 ], [ -128.343751, -24.3948405 ], [ -128.34391260000001, -24.3947337 ], [ -128.344024600000012, -24.3945034 ], [ -128.344091600000013, -24.3944546 ], [ -128.3441245, -24.3944198 ], [ -128.3441526, -24.394374 ], [ -128.344193499999989, -24.3942817 ], [ -128.3442016, -24.3942249 ], [ -128.3441855, -24.3941279 ], [ -128.3441922, -24.3940918 ], [ -128.3442291, -24.3939966 ], [ -128.3442526, -24.3939758 ], [ -128.344272, -24.3939343 ], [ -128.3442727, -24.3939141 ], [ -128.3442532, -24.3938537 ], [ -128.3442512, -24.3938085 ], [ -128.344278, -24.3937156 ], [ -128.344342399999988, -24.3935849 ], [ -128.344469800000013, -24.393381 ], [ -128.344531499999988, -24.3932967 ], [ -128.3446026, -24.3932332 ], [ -128.3449794, -24.3930194 ], [ -128.3450492, -24.3929669 ], [ -128.345139, -24.3928338 ], [ -128.345219500000013, -24.3926775 ], [ -128.3452446, -24.3926442 ], [ -128.3452802, -24.3926103 ], [ -128.3453553, -24.3926146 ], [ -128.345372, -24.3926048 ], [ -128.3453774, -24.3925837 ], [ -128.3453546, -24.3925576 ], [ -128.3453534, -24.392533 ], [ -128.345395200000013, -24.3924631 ], [ -128.345428, -24.3924387 ], [ -128.345450199999988, -24.392435 ], [ -128.3455132, -24.3924445 ], [ -128.3455363, -24.3924347 ], [ -128.3455648, -24.3923898 ], [ -128.345589600000011, -24.3923703 ], [ -128.3456225, -24.3923648 ], [ -128.3456735, -24.3923733 ], [ -128.3457465, -24.3923715 ], [ -128.3457861, -24.3923574 ], [ -128.345843800000011, -24.3923116 ], [ -128.3458927, -24.3922512 ], [ -128.3459102, -24.3922121 ], [ -128.3459095, -24.3921816 ], [ -128.3458646, -24.3921095 ], [ -128.3458565, -24.3920729 ], [ -128.3458525, -24.3919532 ], [ -128.345860499999986, -24.3919031 ], [ -128.345888699999989, -24.3918518 ], [ -128.3459504, -24.3917968 ], [ -128.346002700000014, -24.3917724 ], [ -128.346118, -24.391759 ], [ -128.3461797, -24.3917406 ], [ -128.3462347, -24.3917028 ], [ -128.34649490000001, -24.3914646 ], [ -128.3465928, -24.3913877 ], [ -128.3466163, -24.3913596 ], [ -128.346620300000012, -24.3913382 ], [ -128.34660550000001, -24.3913064 ], [ -128.3466095, -24.3912527 ], [ -128.346627, -24.3912075 ], [ -128.3467463, -24.3910475 ], [ -128.3467772, -24.3909443 ], [ -128.3467671, -24.390838 ], [ -128.346799299999986, -24.3907623 ], [ -128.3468476, -24.3906902 ], [ -128.3471319, -24.390391 ], [ -128.3472875, -24.3901699 ], [ -128.3473324, -24.3901382 ], [ -128.3474819, -24.3900655 ], [ -128.3476067, -24.3899696 ], [ -128.3477388, -24.3898383 ], [ -128.347789, -24.3897736 ], [ -128.347821900000014, -24.3897131 ], [ -128.347846, -24.3896178 ], [ -128.3479513, -24.3895226 ], [ -128.3479963, -24.3894584 ], [ -128.3481002, -24.389216 ], [ -128.3481659, -24.3889192 ], [ -128.348183299999988, -24.3887934 ], [ -128.3482195, -24.3886566 ], [ -128.34824230000001, -24.3886163 ], [ -128.3483094, -24.3885662 ], [ -128.3483644, -24.3885112 ], [ -128.348392499999989, -24.3884575 ], [ -128.348412700000011, -24.3883671 ], [ -128.3484368, -24.3883304 ], [ -128.348501199999987, -24.3882779 ], [ -128.3485186, -24.3882413 ], [ -128.3485293, -24.3881985 ], [ -128.3485112, -24.388066 ], [ -128.348536, -24.3879432 ], [ -128.3485602, -24.3878724 ], [ -128.3486632, -24.3876932 ], [ -128.3489437, -24.3874449 ], [ -128.34901880000001, -24.3873594 ], [ -128.3493099, -24.3870614 ], [ -128.349364799999989, -24.3870211 ], [ -128.3494976, -24.3869673 ], [ -128.349599500000011, -24.386894 ], [ -128.349739, -24.3868549 ], [ -128.349816800000013, -24.3868183 ], [ -128.349925399999989, -24.3867499 ], [ -128.349999200000013, -24.3866754 ], [ -128.3500837, -24.3865581 ], [ -128.350173500000011, -24.3864006 ], [ -128.3502198, -24.3862809 ], [ -128.3502339, -24.3862241 ], [ -128.3502359, -24.3861367 ], [ -128.3502574, -24.3860921 ], [ -128.3502976, -24.3860512 ], [ -128.3504069, -24.3859639 ], [ -128.3504646, -24.3858393 ], [ -128.350698599999987, -24.3855788 ], [ -128.350709599999988, -24.385559 ], [ -128.350718699999987, -24.3854955 ], [ -128.350716, -24.3854561 ], [ -128.35069390000001, -24.3853529 ], [ -128.3507093, -24.3853406 ], [ -128.3507495, -24.3853318 ], [ -128.3507683, -24.3853129 ], [ -128.3509722, -24.3850515 ], [ -128.3509805, -24.3849647 ], [ -128.3510057, -24.3849397 ], [ -128.3510211, -24.3849373 ], [ -128.351040899999987, -24.3849205 ], [ -128.3510506, -24.3848737 ], [ -128.3511083, -24.3847357 ], [ -128.351215599999989, -24.3846624 ], [ -128.3512732, -24.3845897 ], [ -128.351316200000014, -24.3845635 ], [ -128.351373200000012, -24.3845409 ], [ -128.3513892, -24.3845238 ], [ -128.3514825, -24.3842581 ], [ -128.3516608, -24.38407 ], [ -128.3517373, -24.3839711 ], [ -128.352010799999988, -24.3834678 ], [ -128.3520605, -24.3834373 ], [ -128.3521986, -24.383419 ], [ -128.3522683, -24.3833896 ], [ -128.352326, -24.3833432 ], [ -128.352355499999987, -24.3832907 ], [ -128.3523998, -24.3831588 ], [ -128.352516400000013, -24.3829743 ], [ -128.352609, -24.3828436 ], [ -128.352645200000012, -24.3827655 ], [ -128.3526827, -24.3826519 ], [ -128.352700199999987, -24.3825554 ], [ -128.3527364, -24.3824882 ], [ -128.353070300000013, -24.3820094 ], [ -128.3533694, -24.3816166 ], [ -128.353468, -24.3814212 ], [ -128.353525600000012, -24.3812184 ], [ -128.3536436, -24.3810169 ], [ -128.3536685, -24.3809576 ], [ -128.3537355, -24.3807512 ], [ -128.3539313, -24.3802308 ], [ -128.3540145, -24.3800452 ], [ -128.3541606, -24.3797508 ], [ -128.3542696, -24.3796018 ], [ -128.3542884, -24.3795544 ], [ -128.3543008, -24.3793532 ], [ -128.3543115, -24.3792903 ], [ -128.354390599999988, -24.3790808 ], [ -128.3544014, -24.3790185 ], [ -128.3544027, -24.3789043 ], [ -128.3544657, -24.3786417 ], [ -128.3544973, -24.3786184 ], [ -128.3545844, -24.3785952 ], [ -128.354640100000012, -24.3785604 ], [ -128.3546796, -24.3785122 ], [ -128.3547031, -24.3784468 ], [ -128.35471050000001, -24.3783937 ], [ -128.3547232, -24.377971 ], [ -128.354737300000011, -24.3779155 ], [ -128.354829200000012, -24.3776687 ], [ -128.354944499999988, -24.3774226 ], [ -128.355007, -24.3771995 ], [ -128.3550262, -24.3771688 ], [ -128.3550649, -24.3771543 ], [ -128.355073299999987, -24.3771396 ], [ -128.3550655, -24.377115 ], [ -128.355023, -24.3770756 ], [ -128.355017299999986, -24.3770613 ], [ -128.355027, -24.3770179 ], [ -128.3551256, -24.3768142 ], [ -128.3551544, -24.3767361 ], [ -128.355169100000012, -24.3766628 ], [ -128.3553029, -24.376569 ], [ -128.3553106, -24.3765568 ], [ -128.3553375, -24.3763977 ], [ -128.355423, -24.3761812 ], [ -128.3554897, -24.3760721 ], [ -128.355493700000011, -24.3760428 ], [ -128.3554816, -24.3759445 ], [ -128.355491, -24.3758626 ], [ -128.35558420000001, -24.3755151 ], [ -128.3555983, -24.3754369 ], [ -128.355603, -24.3752427 ], [ -128.3556184, -24.3750821 ], [ -128.3556711, -24.374944 ], [ -128.3557066, -24.3749138 ], [ -128.3557264, -24.3748833 ], [ -128.3556932, -24.3747901 ], [ -128.355752, -24.37475 ], [ -128.355778, -24.3747037 ], [ -128.3557668, -24.3746719 ], [ -128.3557227, -24.3746415 ], [ -128.355723500000011, -24.374611 ], [ -128.3557396, -24.3745963 ], [ -128.3558779, -24.3746104 ], [ -128.355913500000014, -24.3745629 ], [ -128.3559165, -24.3745277 ], [ -128.355896, -24.3744887 ], [ -128.3558571, -24.3744783 ], [ -128.3558545, -24.3744163 ], [ -128.3558303, -24.3743455 ], [ -128.355837, -24.3741231 ], [ -128.355925500000012, -24.3739729 ], [ -128.3559242, -24.3738862 ], [ -128.3558464, -24.3737982 ], [ -128.3557968, -24.3736956 ], [ -128.3557954, -24.3735698 ], [ -128.35583840000001, -24.3734904 ], [ -128.355824899999988, -24.3733829 ], [ -128.3558759, -24.3733059 ], [ -128.355892, -24.373108 ], [ -128.355955, -24.3730384 ], [ -128.3559611, -24.3730112 ], [ -128.3559208, -24.3727999 ], [ -128.3559215, -24.3727623 ], [ -128.355943, -24.3726548 ], [ -128.3560268, -24.3724459 ], [ -128.3561247, -24.3722511 ], [ -128.356142799999986, -24.372226 ], [ -128.3562474, -24.3721368 ], [ -128.3562715, -24.3721063 ], [ -128.3563627, -24.371895 ], [ -128.3563802, -24.3718351 ], [ -128.3563909, -24.3717704 ], [ -128.3563748, -24.3714662 ], [ -128.3563775, -24.3713672 ], [ -128.3564097, -24.371239 ], [ -128.3564982, -24.3710154 ], [ -128.356525, -24.3709055 ], [ -128.3565626, -24.3706526 ], [ -128.3565626, -24.3704571 ], [ -128.3566242, -24.3699319 ], [ -128.3566725, -24.3696643 ], [ -128.3567986, -24.3690841 ], [ -128.356877700000013, -24.3685752 ], [ -128.356912599999987, -24.3684903 ], [ -128.3569904, -24.3683822 ], [ -128.3569977, -24.368348 ], [ -128.3569971, -24.3683205 ], [ -128.3569407, -24.3681336 ], [ -128.3569086, -24.3677806 ], [ -128.3569139, -24.3677525 ], [ -128.3569857, -24.3676285 ], [ -128.3569917, -24.3675912 ], [ -128.3569817, -24.3675717 ], [ -128.3569086, -24.36751 ], [ -128.3568838, -24.3674788 ], [ -128.356871, -24.3674422 ], [ -128.3568656, -24.367422 ], [ -128.356878099999989, -24.367327 ], [ -128.3568382, -24.3672266 ], [ -128.356815399999988, -24.3671093 ], [ -128.356812, -24.367069 ], [ -128.356822099999988, -24.3669865 ], [ -128.3567825, -24.3668986 ], [ -128.3567758, -24.3668619 ], [ -128.3567751, -24.3668143 ], [ -128.3567959, -24.3666793 ], [ -128.3568462, -24.3665754 ], [ -128.3568502, -24.3663818 ], [ -128.356869, -24.3663116 ], [ -128.3569005, -24.3662376 ], [ -128.3569106, -24.3661326 ], [ -128.356850900000012, -24.3659591 ], [ -128.3568321, -24.3658394 ], [ -128.3567825, -24.3657264 ], [ -128.356753, -24.3656268 ], [ -128.3567543, -24.3655554 ], [ -128.3567698, -24.3655025 ], [ -128.3567409, -24.3653892 ], [ -128.3566906, -24.3652731 ], [ -128.3566759, -24.3651779 ], [ -128.356675200000012, -24.3650319 ], [ -128.3566256, -24.3648724 ], [ -128.356631, -24.3646483 ], [ -128.356621600000011, -24.3646196 ], [ -128.356567899999988, -24.3645298 ], [ -128.356291700000014, -24.3641779 ], [ -128.3561991, -24.3640313 ], [ -128.356185, -24.3639898 ], [ -128.3561877, -24.3639421 ], [ -128.356232, -24.363754 ], [ -128.3561884, -24.3635182 ], [ -128.3561683, -24.3634449 ], [ -128.3561388, -24.3633899 ], [ -128.3559845, -24.3632262 ], [ -128.3559215, -24.3631395 ], [ -128.355884, -24.3630454 ], [ -128.3558531, -24.3628707 ], [ -128.355837, -24.3626325 ], [ -128.3558169, -24.3625592 ], [ -128.355784699999987, -24.3624883 ], [ -128.355743100000012, -24.3624297 ], [ -128.355702900000011, -24.3623918 ], [ -128.3554575, -24.3622562 ], [ -128.355413199999987, -24.3622013 ], [ -128.355386399999986, -24.3621451 ], [ -128.355373, -24.3620314 ], [ -128.355338100000012, -24.3619398 ], [ -128.3552992, -24.3618726 ], [ -128.3552228, -24.3617859 ], [ -128.355082, -24.3616723 ], [ -128.354957899999988, -24.3614273 ], [ -128.35488620000001, -24.3613656 ], [ -128.3548104, -24.3613131 ], [ -128.3547675, -24.3612673 ], [ -128.354695099999986, -24.3611176 ], [ -128.3546629, -24.3609063 ], [ -128.3546428, -24.3606008 ], [ -128.354632, -24.360563 ], [ -128.354576400000013, -24.3604927 ], [ -128.3543779, -24.3603058 ], [ -128.3543544, -24.3602618 ], [ -128.3543403, -24.360227 ], [ -128.3542947, -24.3600184 ], [ -128.3542052, -24.3598788 ], [ -128.354155600000013, -24.3598342 ], [ -128.3541482, -24.3598183 ], [ -128.354163699999987, -24.3597169 ], [ -128.354154599999987, -24.3597081 ], [ -128.35411, -24.3596965 ], [ -128.3540837, -24.3596554 ], [ -128.3540949, -24.3595795 ], [ -128.354078500000014, -24.3595166 ], [ -128.354043600000011, -24.3594436 ], [ -128.3539575, -24.3593467 ], [ -128.3539427, -24.3593199 ], [ -128.353908499999989, -24.3591244 ], [ -128.3539045, -24.3590291 ], [ -128.3538944, -24.3589925 ], [ -128.353879, -24.3589711 ], [ -128.3538026, -24.3589332 ], [ -128.353761, -24.3588917 ], [ -128.3537322, -24.3587371 ], [ -128.353661100000011, -24.3585032 ], [ -128.353539, -24.358238 ], [ -128.3535149, -24.3581562 ], [ -128.3534981, -24.3580591 ], [ -128.3535095, -24.3579662 ], [ -128.3535293, -24.3578856 ], [ -128.3535115, -24.357811 ], [ -128.3535075, -24.3577237 ], [ -128.3535484, -24.35764 ], [ -128.353616100000011, -24.357552 ], [ -128.353627499999988, -24.3575245 ], [ -128.3536363, -24.3574745 ], [ -128.3536282, -24.3574024 ], [ -128.3536054, -24.357323 ], [ -128.353456599999987, -24.3571299 ], [ -128.3534123, -24.3570493 ], [ -128.3533694, -24.3569149 ], [ -128.3533667, -24.3567817 ], [ -128.3533828, -24.3566938 ], [ -128.35336, -24.3565362 ], [ -128.353287599999987, -24.3563395 ], [ -128.353097, -24.3559622 ], [ -128.3530422, -24.3557848 ], [ -128.3529952, -24.3556767 ], [ -128.3529872, -24.3556425 ], [ -128.352996600000012, -24.3555001 ], [ -128.352993199999986, -24.35545 ], [ -128.3529738, -24.3553877 ], [ -128.3529523, -24.3552484 ], [ -128.3529443, -24.3550566 ], [ -128.3529376, -24.3550322 ], [ -128.352916099999987, -24.355009 ], [ -128.352807500000011, -24.3549674 ], [ -128.352773899999988, -24.3549448 ], [ -128.352743800000013, -24.3549088 ], [ -128.3526975, -24.3548141 ], [ -128.3525473, -24.3547084 ], [ -128.352494299999989, -24.3546504 ], [ -128.352326, -24.3543804 ], [ -128.3520293, -24.3540508 ], [ -128.3520321, -24.3540219 ], [ -128.3520551, -24.3539977 ], [ -128.3521637, -24.3539431 ], [ -128.3521642, -24.3539279 ], [ -128.3521369, -24.3538972 ], [ -128.352119499999986, -24.3538874 ], [ -128.3520564, -24.3538758 ], [ -128.3519894, -24.3538685 ], [ -128.3519056, -24.3538752 ], [ -128.351868, -24.3538669 ], [ -128.35177680000001, -24.3538147 ], [ -128.351582400000012, -24.3537441 ], [ -128.3515093, -24.3537084 ], [ -128.3514, -24.3536027 ], [ -128.3513443, -24.3535703 ], [ -128.351294, -24.3535526 ], [ -128.351187399999986, -24.3535319 ], [ -128.351115, -24.3535013 ], [ -128.350824, -24.3533095 ], [ -128.35063550000001, -24.3531684 ], [ -128.350559800000013, -24.353103 ], [ -128.3505128, -24.3530749 ], [ -128.35014, -24.3529466 ], [ -128.3500833, -24.3529326 ], [ -128.3499368, -24.352935 ], [ -128.349888, -24.3529132 ], [ -128.3498892, -24.3528929 ], [ -128.349909, -24.3528791 ], [ -128.3499204, -24.3528578 ], [ -128.349909, -24.3528248 ], [ -128.3498926, -24.3528101 ], [ -128.34974840000001, -24.3527554 ], [ -128.3496793, -24.3527218 ], [ -128.3496257, -24.3526754 ], [ -128.3495982, -24.352629 ], [ -128.3495325, -24.352475 ], [ -128.3494574, -24.3523431 ], [ -128.3493662, -24.3522307 ], [ -128.3491033, -24.352045 ], [ -128.3490416, -24.3519668 ], [ -128.3487654, -24.3515562 ], [ -128.3483778, -24.3510724 ], [ -128.3480103, -24.3506619 ], [ -128.3479661, -24.3505996 ], [ -128.3479151, -24.3504798 ], [ -128.347731399999986, -24.3499154 ], [ -128.3476684, -24.3497773 ], [ -128.347569099999987, -24.3495782 ], [ -128.3474189, -24.3493619 ], [ -128.3473223, -24.3491945 ], [ -128.3472794, -24.3490748 ], [ -128.3472459, -24.3490088 ], [ -128.3471936, -24.3489269 ], [ -128.347157399999986, -24.3488866 ], [ -128.347129200000012, -24.3488145 ], [ -128.34704210000001, -24.3484761 ], [ -128.3470367, -24.3483661 ], [ -128.3470528, -24.3482977 ], [ -128.3470541, -24.3482403 ], [ -128.3469991, -24.3480802 ], [ -128.3469777, -24.3479922 ], [ -128.3469308, -24.3477222 ], [ -128.3468691, -24.3471431 ], [ -128.3468503, -24.3468547 ], [ -128.3468235, -24.3467227 ], [ -128.3466759, -24.346344 ], [ -128.3466464, -24.3461851 ], [ -128.3466652, -24.3460239 ], [ -128.346692, -24.3459139 ], [ -128.3466893, -24.345777 ], [ -128.3466142, -24.3455009 ], [ -128.346536500000013, -24.3453005 ], [ -128.346354100000013, -24.3450513 ], [ -128.3463138, -24.3449291 ], [ -128.3463031, -24.3447165 ], [ -128.3463031, -24.3443499 ], [ -128.3463142, -24.344144 ], [ -128.346283, -24.344075 ], [ -128.3460852, -24.3438202 ], [ -128.34608320000001, -24.3437921 ], [ -128.3460979, -24.3437286 ], [ -128.346138200000013, -24.3436388 ], [ -128.346148199999988, -24.3435991 ], [ -128.3461428, -24.3435551 ], [ -128.3460919, -24.3433715 ], [ -128.3460684, -24.3433309 ], [ -128.3459839, -24.3432466 ], [ -128.345965799999988, -24.3432044 ], [ -128.345945, -24.3429985 ], [ -128.3459531, -24.3428654 ], [ -128.3460054, -24.3426711 ], [ -128.3459933, -24.3426002 ], [ -128.345954400000011, -24.3425245 ], [ -128.3459061, -24.3424695 ], [ -128.345831, -24.3424328 ], [ -128.3457492, -24.3424108 ], [ -128.3457103, -24.3423815 ], [ -128.3455159, -24.3421897 ], [ -128.345341499999989, -24.3419893 ], [ -128.345283200000011, -24.3418976 ], [ -128.3452792, -24.3418567 ], [ -128.3452939, -24.341828 ], [ -128.345311400000014, -24.3418145 ], [ -128.3453932, -24.3417852 ], [ -128.3454173, -24.3417547 ], [ -128.345432100000011, -24.3417033 ], [ -128.3454341, -24.3416636 ], [ -128.345418, -24.3416141 ], [ -128.345369, -24.3415543 ], [ -128.3450445, -24.3413319 ], [ -128.3450163, -24.3412971 ], [ -128.3450042, -24.34125 ], [ -128.3449747, -24.3410087 ], [ -128.3449593, -24.3406599 ], [ -128.3449439, -24.3405847 ], [ -128.3449325, -24.3405597 ], [ -128.344913100000014, -24.3405413 ], [ -128.344801100000012, -24.3405273 ], [ -128.344722600000011, -24.340498 ], [ -128.3446763, -24.3404613 ], [ -128.344524799999988, -24.3402682 ], [ -128.3445087, -24.3402316 ], [ -128.3445, -24.3401699 ], [ -128.3445288, -24.3400935 ], [ -128.3445255, -24.3399921 ], [ -128.3445027, -24.3399255 ], [ -128.344364500000012, -24.3397398 ], [ -128.3443531, -24.3397129 ], [ -128.344351100000011, -24.3396811 ], [ -128.3443652, -24.3396206 ], [ -128.344362499999988, -24.3395968 ], [ -128.344345800000013, -24.339573 ], [ -128.3443216, -24.3395614 ], [ -128.344253900000012, -24.3395504 ], [ -128.3438931, -24.3393597 ], [ -128.3437, -24.3392095 ], [ -128.3433272, -24.3387402 ], [ -128.343236, -24.3386376 ], [ -128.3431636, -24.3385863 ], [ -128.3430026, -24.3385117 ], [ -128.342950300000012, -24.3384714 ], [ -128.3429047, -24.3384238 ], [ -128.3428404, -24.3383321 ], [ -128.342789399999987, -24.3382857 ], [ -128.3424501, -24.3380645 ], [ -128.342356200000012, -24.3380254 ], [ -128.3422329, -24.3379998 ], [ -128.342088, -24.3379936 ], [ -128.3419821, -24.3379802 ], [ -128.3415999, -24.337814 ], [ -128.3411908, -24.3376173 ], [ -128.3411144, -24.3375892 ], [ -128.341033900000014, -24.3375819 ], [ -128.3407436, -24.3376112 ], [ -128.3406966, -24.3376026 ], [ -128.3405457, -24.3375421 ], [ -128.340150200000011, -24.3375095 ], [ -128.3395639, -24.3376144 ], [ -128.3390413, -24.3376247 ], [ -128.3386558, -24.3376275 ], [ -128.337911600000012, -24.3377658 ], [ -128.3375371, -24.3378146 ], [ -128.3371621, -24.3380156 ], [ -128.336914, -24.3380966 ], [ -128.3367352, -24.338155 ], [ -128.3366069, -24.3381969 ], [ -128.3364406, -24.3382512 ], [ -128.3355991, -24.3384778 ], [ -128.3350529, -24.3385552 ], [ -128.334249699999987, -24.3388042 ], [ -128.3337291, -24.3389183 ], [ -128.3331833, -24.3390826 ], [ -128.3327897, -24.3391561 ], [ -128.3324154, -24.3392696 ], [ -128.3317658, -24.3394012 ], [ -128.3310989, -24.3394796 ], [ -128.330813799999987, -24.339527 ], [ -128.330084199999988, -24.3395882 ], [ -128.329622300000011, -24.3396241 ], [ -128.329317800000013, -24.3396525 ], [ -128.3289387, -24.3396859 ], [ -128.32860070000001, -24.3396732 ], [ -128.3282102, -24.339681 ], [ -128.3275638, -24.3396864 ], [ -128.3268708, -24.3396073 ], [ -128.326499899999988, -24.3396053 ], [ -128.3261575, -24.3396093 ], [ -128.3257611, -24.3396139 ], [ -128.325502300000011, -24.3396736 ], [ -128.325193, -24.3396206 ], [ -128.324628600000011, -24.3395961 ], [ -128.3240913, -24.3395466 ], [ -128.3235082, -24.3394496 ], [ -128.323069800000013, -24.3393793 ], [ -128.3223893, -24.3393003 ], [ -128.3220958, -24.339239 ], [ -128.3218199, -24.3391471 ], [ -128.3214122, -24.3390298 ], [ -128.321017500000011, -24.3388902 ], [ -128.320457299999987, -24.3387341 ], [ -128.3201274, -24.3386168 ], [ -128.31976, -24.3384812 ], [ -128.3195159, -24.3383798 ], [ -128.3193617, -24.3383321 ], [ -128.319220800000011, -24.338304 ], [ -128.319053200000013, -24.3382771 ], [ -128.31879570000001, -24.3382148 ], [ -128.3184108, -24.3381391 ], [ -128.317893, -24.3380476 ], [ -128.317492499999986, -24.3380036 ], [ -128.317358399999989, -24.3379489 ], [ -128.317279500000012, -24.3378042 ], [ -128.3172241, -24.3376927 ], [ -128.3171724, -24.3376455 ], [ -128.317080800000014, -24.3375735 ], [ -128.3169756, -24.3375693 ], [ -128.3169317, -24.3375985 ], [ -128.316745700000013, -24.337611 ], [ -128.316603, -24.3375824 ], [ -128.316210399999989, -24.3374933 ], [ -128.3159956, -24.3374425 ], [ -128.3153646, -24.3372671 ], [ -128.31508070000001, -24.3371442 ], [ -128.3149937, -24.3371065 ], [ -128.314826, -24.3370595 ], [ -128.31477910000001, -24.3370405 ], [ -128.3147496, -24.3370167 ], [ -128.3147315, -24.3369874 ], [ -128.3147147, -24.3369422 ], [ -128.3146825, -24.3368939 ], [ -128.314638300000013, -24.3368621 ], [ -128.3145887, -24.3368463 ], [ -128.314547800000014, -24.3368426 ], [ -128.3145008, -24.3368548 ], [ -128.314476, -24.3368566 ], [ -128.3144485, -24.3368469 ], [ -128.314111200000013, -24.3367338 ], [ -128.313764600000013, -24.3366233 ], [ -128.3131617, -24.3364003 ], [ -128.3126695, -24.3362438 ], [ -128.3126186, -24.3362157 ], [ -128.312586399999986, -24.3361742 ], [ -128.3125435, -24.3361327 ], [ -128.3125006, -24.3361082 ], [ -128.3124295, -24.3360997 ], [ -128.3123544, -24.3360874 ], [ -128.3123007, -24.3360728 ], [ -128.312139800000011, -24.3360043 ], [ -128.311708, -24.3358137 ], [ -128.3110441, -24.3354691 ], [ -128.3109114, -24.3354276 ], [ -128.310796, -24.3353983 ], [ -128.3106981, -24.3353604 ], [ -128.3106123, -24.3353176 ], [ -128.3104889, -24.3352541 ], [ -128.3103079, -24.3351514 ], [ -128.31021, -24.3350818 ], [ -128.3101416, -24.3350207 ], [ -128.3101, -24.3349523 ], [ -128.3100732, -24.3348887 ], [ -128.31003960000001, -24.3348447 ], [ -128.309978, -24.3348093 ], [ -128.3099096, -24.3348056 ], [ -128.3098023, -24.3347995 ], [ -128.3097339, -24.33478 ], [ -128.3096467, -24.3347262 ], [ -128.3095367, -24.3346333 ], [ -128.3094884, -24.3345698 ], [ -128.309453600000012, -24.3345343 ], [ -128.3093986, -24.3345087 ], [ -128.309291300000012, -24.3344732 ], [ -128.3090539, -24.3343706 ], [ -128.3088233, -24.3342777 ], [ -128.3087334, -24.3342325 ], [ -128.3085731, -24.3341348 ], [ -128.308549, -24.3341122 ], [ -128.3085269, -24.3340822 ], [ -128.308494, -24.334037 ], [ -128.3084652, -24.3340004 ], [ -128.3084431, -24.3339839 ], [ -128.308422299999989, -24.3339777 ], [ -128.3083904, -24.3339839 ], [ -128.3083599, -24.3340071 ], [ -128.3083287, -24.3340309 ], [ -128.3083076, -24.334037 ], [ -128.3082918, -24.3340333 ], [ -128.3082694, -24.3340159 ], [ -128.3082399, -24.333989 ], [ -128.308219799999989, -24.3339606 ], [ -128.30820030000001, -24.3339191 ], [ -128.3081933, -24.3339014 ], [ -128.308176800000012, -24.3338855 ], [ -128.3081604, -24.3338821 ], [ -128.3081316, -24.3338892 ], [ -128.308099700000014, -24.333902 ], [ -128.308068600000013, -24.3339124 ], [ -128.308032, -24.3339075 ], [ -128.3079837, -24.3338864 ], [ -128.3078764, -24.3338357 ], [ -128.3078382, -24.3338015 ], [ -128.3078131, -24.3337618 ], [ -128.3078, -24.3337141 ], [ -128.3077889, -24.3336793 ], [ -128.3077738, -24.3336533 ], [ -128.3077614, -24.3336472 ], [ -128.307736299999988, -24.3336417 ], [ -128.307709100000011, -24.3336478 ], [ -128.3076786, -24.3336637 ], [ -128.3076538, -24.3336713 ], [ -128.307617599999986, -24.3336738 ], [ -128.3075891, -24.3336677 ], [ -128.307438600000012, -24.3336332 ], [ -128.307205900000014, -24.3335525 ], [ -128.3069859, -24.3334822 ], [ -128.3068089, -24.3333991 ], [ -128.3067244, -24.333349 ], [ -128.3066574, -24.3333051 ], [ -128.3065729, -24.3332574 ], [ -128.3064307, -24.3331951 ], [ -128.306298, -24.333134 ], [ -128.3062229, -24.3330949 ], [ -128.306173199999989, -24.3330338 ], [ -128.3061638, -24.332925 ], [ -128.3061384, -24.3328627 ], [ -128.3061008, -24.3328138 ], [ -128.306057900000013, -24.3327821 ], [ -128.305990799999989, -24.3327674 ], [ -128.305930499999988, -24.3327845 ], [ -128.3058608, -24.3328224 ], [ -128.3058125, -24.3328358 ], [ -128.3055228, -24.3327967 ], [ -128.3053713, -24.3327552 ], [ -128.305219, -24.3326892 ], [ -128.3051439, -24.3326073 ], [ -128.3051171, -24.3325957 ], [ -128.3050326, -24.3325988 ], [ -128.3049347, -24.3326165 ], [ -128.30475770000001, -24.3325969 ], [ -128.3046216, -24.3326098 ], [ -128.304546499999987, -24.3325939 ], [ -128.3044794, -24.3325572 ], [ -128.304407, -24.3324778 ], [ -128.304356, -24.3323812 ], [ -128.3043104, -24.3321894 ], [ -128.304289, -24.3321601 ], [ -128.3042514, -24.3321417 ], [ -128.3040945, -24.3321222 ], [ -128.304061, -24.3321087 ], [ -128.3039846, -24.332036 ], [ -128.3038545, -24.3319896 ], [ -128.3037847, -24.3319309 ], [ -128.3037592, -24.3319218 ], [ -128.3036902, -24.3319309 ], [ -128.3035695, -24.3319768 ], [ -128.3035252, -24.3319835 ], [ -128.303428700000012, -24.3319829 ], [ -128.303175900000014, -24.3319419 ], [ -128.303112199999987, -24.3319242 ], [ -128.3030049, -24.3318808 ], [ -128.3029599, -24.3318521 ], [ -128.3028869, -24.3317476 ], [ -128.3027588, -24.3315943 ], [ -128.3026958, -24.3314971 ], [ -128.302620600000012, -24.3314027 ], [ -128.3026107, -24.3313777 ], [ -128.302615300000014, -24.3313065 ], [ -128.3026012, -24.3312408 ], [ -128.3025838, -24.3312094 ], [ -128.30254690000001, -24.3311739 ], [ -128.3025, -24.3311473 ], [ -128.3024198, -24.3311348 ], [ -128.3023202, -24.3311651 ], [ -128.302284, -24.3311696 ], [ -128.3022478, -24.3311648 ], [ -128.302203600000013, -24.331147 ], [ -128.3021526, -24.3310921 ], [ -128.3021177, -24.3310786 ], [ -128.30196620000001, -24.3310768 ], [ -128.3019387, -24.3310676 ], [ -128.3019032, -24.3310245 ], [ -128.301876, -24.3310163 ], [ -128.3018207, -24.3310459 ], [ -128.301677500000011, -24.3311009 ], [ -128.3016269, -24.3310951 ], [ -128.3015561, -24.3310722 ], [ -128.3014626, -24.3310267 ], [ -128.3014217, -24.3309497 ], [ -128.3012822, -24.330866 ], [ -128.3012742, -24.3308342 ], [ -128.3012688, -24.330657 ], [ -128.301234599999987, -24.3306063 ], [ -128.301217900000012, -24.3305538 ], [ -128.3012091, -24.3305458 ], [ -128.301065599999987, -24.3305452 ], [ -128.301035500000012, -24.3305367 ], [ -128.300947, -24.3304823 ], [ -128.30092350000001, -24.3304872 ], [ -128.300819499999989, -24.3305642 ], [ -128.3008343, -24.330657 ], [ -128.300732399999987, -24.3307743 ], [ -128.300724300000013, -24.3308281 ], [ -128.300904, -24.3311556 ], [ -128.3009174, -24.3312265 ], [ -128.30105420000001, -24.3315564 ], [ -128.30105420000001, -24.3316444 ], [ -128.3010837, -24.3319939 ], [ -128.301150799999988, -24.3320574 ], [ -128.3011696, -24.3321112 ], [ -128.3011079, -24.3321601 ], [ -128.301132, -24.3322285 ], [ -128.3011723, -24.3322578 ], [ -128.3012688, -24.3323018 ], [ -128.3013037, -24.3323678 ], [ -128.301311700000014, -24.3324631 ], [ -128.301373399999989, -24.3325047 ], [ -128.30147, -24.3326 ], [ -128.301515599999988, -24.3327368 ], [ -128.301522, -24.3328645 ], [ -128.301467300000013, -24.3329739 ], [ -128.3014767, -24.3330106 ], [ -128.3014901, -24.3330277 ], [ -128.3016068, -24.333079 ], [ -128.3016457, -24.3331218 ], [ -128.3016711, -24.3331853 ], [ -128.301676500000013, -24.3333869 ], [ -128.3016886, -24.3334505 ], [ -128.3018562, -24.3338342 ], [ -128.3019736, -24.3340254 ], [ -128.3020084, -24.3341018 ], [ -128.302062799999987, -24.3342942 ], [ -128.302131800000012, -24.3344739 ], [ -128.30219550000001, -24.3345423 ], [ -128.3022076, -24.3345728 ], [ -128.3022083, -24.334604 ], [ -128.3021995, -24.3346297 ], [ -128.3021238, -24.3346828 ], [ -128.302105, -24.334725 ], [ -128.3021157, -24.3348117 ], [ -128.3021345, -24.3348576 ], [ -128.3021714, -24.3348826 ], [ -128.3022176, -24.3348924 ], [ -128.3023135, -24.3348893 ], [ -128.302336, -24.3348918 ], [ -128.302347700000013, -24.3349025 ], [ -128.302416099999988, -24.335028 ], [ -128.3024939, -24.3351291 ], [ -128.3024979, -24.3352162 ], [ -128.3025174, -24.3352495 ], [ -128.302557299999989, -24.3352605 ], [ -128.3025777, -24.3352556 ], [ -128.3026093, -24.3352345 ], [ -128.3026441, -24.3352257 ], [ -128.302690399999989, -24.3352333 ], [ -128.3027574, -24.3352651 ], [ -128.302811100000014, -24.3353152 ], [ -128.302851299999986, -24.3353983 ], [ -128.3028634, -24.3354533 ], [ -128.3028674, -24.335573 ], [ -128.3028822, -24.3356292 ], [ -128.302913, -24.3356879 ], [ -128.302968, -24.3357392 ], [ -128.303041799999988, -24.3357807 ], [ -128.3032134, -24.3358479 ], [ -128.30331, -24.3359078 ], [ -128.303370300000012, -24.3359701 ], [ -128.303432, -24.3360593 ], [ -128.3035769, -24.336366 ], [ -128.303649299999989, -24.3366129 ], [ -128.3037123, -24.336922 ], [ -128.303766, -24.3374242 ], [ -128.3038008, -24.3375464 ], [ -128.3038397, -24.3376393 ], [ -128.303897400000011, -24.3379399 ], [ -128.3039336, -24.3380413 ], [ -128.3040623, -24.3381818 ], [ -128.3041294, -24.3382747 ], [ -128.3042595, -24.3385081 ], [ -128.304342600000012, -24.3387146 ], [ -128.304384199999987, -24.3388637 ], [ -128.3044285, -24.3389822 ], [ -128.3045257, -24.3391752 ], [ -128.3045773, -24.3392296 ], [ -128.3046062, -24.3392748 ], [ -128.304643, -24.3393622 ], [ -128.304789199999988, -24.3396933 ] ] ] ] } }
]
}
