{
"type": "FeatureCollection",
"name": "-130_-90",
"crs": { "type": "name", "properties": { "name": "urn:ogc:def:crs:OGC:1.3:CRS84" } },
"xy_coordinate_resolution": 1e-15,
"features": [
{ "type": "Feature", "properties": { "FID": 307096, "id": 396, "left": -130.0, "top": -85.0, "right": -125.0, "bottom": -90.0, "row_index": 35, "col_index": 10, "min_lon": -130.0, "min_lat": -90.0, "tile_id": "-130_-90" }, "geometry": { "type": "MultiPolygon", "coordinates": [ [ [ [ -126.0, -90.0 ], [ -127.0, -90.0 ], [ -128.0, -90.0 ], [ -129.0, -90.0 ], [ -130.0, -90.0 ], [ -130.0, -85.0 ], [ -125.0, -85.0 ], [ -125.0, -90.0 ], [ -126.0, -90.0 ] ] ] ] } }
]
}
