{
"type": "FeatureCollection",
"name": "-135_-30",
"crs": { "type": "name", "properties": { "name": "urn:ogc:def:crs:OGC:1.3:CRS84" } },
"xy_coordinate_resolution": 1e-15,
"features": [
{ "type": "Feature", "properties": { "FID": 132665, "id": 348, "left": -135.0, "top": -25.0, "right": -130.0, "bottom": -30.0, "row_index": 23, "col_index": 9, "min_lon": -135.0, "min_lat": -30.0, "tile_id": "-135_-30" }, "geometry": { "type": "MultiPolygon", "coordinates": [ [ [ [ -130.1130474, -25.0584015 ], [ -130.1130487, -25.0584206 ], [ -130.1130346, -25.0584446 ], [ -130.113012199999986, -25.0584394 ], [ -130.1129884, -25.058444 ], [ -130.112968200000012, -25.0584136 ], [ -130.112909, -25.0584135 ], [ -130.1128718, -25.0583868 ], [ -130.1127967, -25.0584228 ], [ -130.1128134, -25.0584733 ], [ -130.112808699999988, -25.0585241 ], [ -130.1127866, -25.0585678 ], [ -130.112752300000011, -25.0585819 ], [ -130.1127483, -25.058628 ], [ -130.1127621, -25.0586416 ], [ -130.1127012, -25.0586984 ], [ -130.11270540000001, -25.0587192 ], [ -130.1127708, -25.0587258 ], [ -130.112772400000011, -25.0587398 ], [ -130.1127392, -25.0587641 ], [ -130.1127744, -25.0588267 ], [ -130.112819, -25.0588875 ], [ -130.1128569, -25.0588618 ], [ -130.1129513, -25.0588789 ], [ -130.112962900000014, -25.0589184 ], [ -130.1129515, -25.0589324 ], [ -130.1129516, -25.0589644 ], [ -130.1130082, -25.0590071 ], [ -130.11301180000001, -25.059018 ], [ -130.1130594, -25.0590545 ], [ -130.1130722, -25.0590362 ], [ -130.1130549, -25.0590155 ], [ -130.1131337, -25.0590322 ], [ -130.1131949, -25.0590204 ], [ -130.1132456, -25.0589827 ], [ -130.113225699999987, -25.0589488 ], [ -130.113172100000014, -25.0589603 ], [ -130.1131674, -25.0589397 ], [ -130.1131725, -25.0589143 ], [ -130.1132016, -25.0589069 ], [ -130.1132141, -25.0588902 ], [ -130.1132167, -25.0588602 ], [ -130.1132412, -25.0588564 ], [ -130.1132433, -25.0587981 ], [ -130.1132178, -25.0587877 ], [ -130.1132124, -25.0586833 ], [ -130.1131875, -25.0586766 ], [ -130.1131834, -25.0586522 ], [ -130.1131292, -25.0586328 ], [ -130.1131058, -25.0585958 ], [ -130.1131924, -25.0586024 ], [ -130.1132352, -25.0585837 ], [ -130.113276, -25.0585479 ], [ -130.113280800000013, -25.058504 ], [ -130.1132782, -25.0584372 ], [ -130.1132795, -25.0583637 ], [ -130.113254, -25.0582854 ], [ -130.113213800000011, -25.0582568 ], [ -130.1131701, -25.0582381 ], [ -130.11314, -25.0582495 ], [ -130.1131165, -25.0582945 ], [ -130.1131011, -25.0583881 ], [ -130.1130474, -25.0584015 ] ] ] ] } },
{ "type": "Feature", "properties": { "FID": 132666, "id": 348, "left": -135.0, "top": -25.0, "right": -130.0, "bottom": -30.0, "row_index": 23, "col_index": 9, "min_lon": -135.0, "min_lat": -30.0, "tile_id": "-135_-30" }, "geometry": { "type": "MultiPolygon", "coordinates": [ [ [ [ -130.0904241, -25.0689581 ], [ -130.0903768, -25.0690102 ], [ -130.0903798, -25.0690484 ], [ -130.0903686, -25.0690753 ], [ -130.090386099999989, -25.0691088 ], [ -130.0903624, -25.0691356 ], [ -130.0903877, -25.0691801 ], [ -130.0904174, -25.0692216 ], [ -130.09044080000001, -25.0692477 ], [ -130.0904994, -25.0692506 ], [ -130.0905433, -25.0692314 ], [ -130.0905809, -25.0692154 ], [ -130.090614, -25.0691804 ], [ -130.090634599999987, -25.0691325 ], [ -130.090672899999987, -25.0690346 ], [ -130.0907032, -25.0690139 ], [ -130.0907121, -25.0689577 ], [ -130.0906966, -25.0688983 ], [ -130.0906678, -25.0688646 ], [ -130.0906807, -25.0688104 ], [ -130.09066150000001, -25.0687869 ], [ -130.0906396, -25.0687646 ], [ -130.0906061, -25.068764 ], [ -130.0905299, -25.0687659 ], [ -130.0904563, -25.068812 ], [ -130.0904557, -25.0688502 ], [ -130.0904241, -25.0689581 ] ] ] ] } },
{ "type": "Feature", "properties": { "FID": 152830, "id": 348, "left": -135.0, "top": -25.0, "right": -130.0, "bottom": -30.0, "row_index": 23, "col_index": 9, "min_lon": -135.0, "min_lat": -30.0, "tile_id": "-135_-30" }, "geometry": { "type": "MultiPolygon", "coordinates": [ [ [ [ -130.1129856, -25.0576411 ], [ -130.11295290000001, -25.0575894 ], [ -130.1129058, -25.0575907 ], [ -130.112873, -25.0575632 ], [ -130.1128843, -25.0575473 ], [ -130.1129049, -25.0575353 ], [ -130.112937499999987, -25.0575377 ], [ -130.112934700000011, -25.0575216 ], [ -130.112921300000011, -25.0575085 ], [ -130.112939399999988, -25.0574867 ], [ -130.1129086, -25.0574338 ], [ -130.1128972, -25.0574168 ], [ -130.112931, -25.0573904 ], [ -130.1129297, -25.0573706 ], [ -130.112898300000012, -25.0573712 ], [ -130.1128955, -25.0573597 ], [ -130.112924, -25.057347 ], [ -130.112934700000011, -25.0573251 ], [ -130.112897800000013, -25.057312 ], [ -130.1128617, -25.0573318 ], [ -130.112829799999986, -25.0573056 ], [ -130.1128192, -25.0572764 ], [ -130.112807, -25.0572136 ], [ -130.112774800000011, -25.0572103 ], [ -130.112772799999988, -25.0571972 ], [ -130.1127337, -25.0571795 ], [ -130.1126504, -25.0571696 ], [ -130.1126454, -25.0571927 ], [ -130.1126859, -25.05721 ], [ -130.1127007, -25.0572142 ], [ -130.112709099999989, -25.057264 ], [ -130.1126947, -25.0572765 ], [ -130.11267860000001, -25.0573102 ], [ -130.112638, -25.0573118 ], [ -130.112636900000012, -25.0574006 ], [ -130.1125927, -25.05738 ], [ -130.1125385, -25.0573684 ], [ -130.112512900000013, -25.0573758 ], [ -130.1125085, -25.0574049 ], [ -130.1125285, -25.0574473 ], [ -130.112533, -25.0574709 ], [ -130.1125615, -25.0574654 ], [ -130.1125848, -25.0574951 ], [ -130.112608099999989, -25.0574973 ], [ -130.1126119, -25.0575408 ], [ -130.112547799999987, -25.0575331 ], [ -130.1125672, -25.0575693 ], [ -130.112664, -25.0575907 ], [ -130.1127252, -25.0575983 ], [ -130.1127722, -25.0576132 ], [ -130.1127974, -25.057654 ], [ -130.1128042, -25.0577221 ], [ -130.1128358, -25.0577436 ], [ -130.1128685, -25.057774 ], [ -130.112893500000013, -25.057757 ], [ -130.1129216, -25.0577549 ], [ -130.11293040000001, -25.0577348 ], [ -130.112912599999987, -25.057722 ], [ -130.112921, -25.0576999 ], [ -130.1129333, -25.0577007 ], [ -130.1129856, -25.0576411 ] ] ] ] } },
{ "type": "Feature", "properties": { "FID": 152831, "id": 348, "left": -135.0, "top": -25.0, "right": -130.0, "bottom": -30.0, "row_index": 23, "col_index": 9, "min_lon": -135.0, "min_lat": -30.0, "tile_id": "-135_-30" }, "geometry": { "type": "MultiPolygon", "coordinates": [ [ [ [ -130.0961523, -25.068775 ], [ -130.0961337, -25.0687513 ], [ -130.096143, -25.068685 ], [ -130.0961484, -25.0686512 ], [ -130.096153500000014, -25.0686158 ], [ -130.096218, -25.0684929 ], [ -130.0962149, -25.0684527 ], [ -130.0961687, -25.068421 ], [ -130.0959508, -25.0684371 ], [ -130.095863799999989, -25.0684811 ], [ -130.0957761, -25.0685496 ], [ -130.095724, -25.0686308 ], [ -130.0956608, -25.0688232 ], [ -130.095557500000012, -25.0689221 ], [ -130.0954305, -25.0689814 ], [ -130.095285100000012, -25.0690254 ], [ -130.095031299999988, -25.0690519 ], [ -130.094781899999987, -25.069119 ], [ -130.0946477, -25.0691617 ], [ -130.0943527, -25.0693876 ], [ -130.0941914, -25.0696088 ], [ -130.094012, -25.0697593 ], [ -130.0938108, -25.0697739 ], [ -130.093537199999986, -25.0697447 ], [ -130.093381599999987, -25.0696281 ], [ -130.0932314, -25.0695893 ], [ -130.092992, -25.0696077 ], [ -130.0927486, -25.0695698 ], [ -130.0926883, -25.0693791 ], [ -130.092589299999986, -25.069208 ], [ -130.092571600000014, -25.0691519 ], [ -130.092464299999989, -25.0691033 ], [ -130.0925073, -25.0690657 ], [ -130.0925421, -25.0689539 ], [ -130.0925019, -25.0688725 ], [ -130.0923999, -25.0688713 ], [ -130.092281899999989, -25.0690159 ], [ -130.0922176, -25.0690791 ], [ -130.0920835, -25.0691714 ], [ -130.092019099999987, -25.0692248 ], [ -130.0919654, -25.0692929 ], [ -130.091997600000013, -25.0693463 ], [ -130.0920566, -25.0694046 ], [ -130.0920674, -25.0694678 ], [ -130.0920298, -25.0695747 ], [ -130.091992299999987, -25.0696476 ], [ -130.0919118, -25.0697642 ], [ -130.0918421, -25.0698176 ], [ -130.0917455, -25.0698419 ], [ -130.0915846, -25.0699148 ], [ -130.0915738, -25.0699731 ], [ -130.091632800000014, -25.0700217 ], [ -130.0916704, -25.0700654 ], [ -130.09174010000001, -25.0700946 ], [ -130.0918953, -25.0701255 ], [ -130.091988, -25.0702029 ], [ -130.0920195, -25.070317 ], [ -130.0919743, -25.0704284 ], [ -130.0919352, -25.0704918 ], [ -130.0918354, -25.0706003 ], [ -130.0917658, -25.0706244 ], [ -130.0916919, -25.0705659 ], [ -130.0916114, -25.0706048 ], [ -130.0914773, -25.0706291 ], [ -130.091235899999987, -25.0706582 ], [ -130.0911286, -25.0706971 ], [ -130.0909945, -25.07077 ], [ -130.090855, -25.07077 ], [ -130.090737, -25.0708526 ], [ -130.0906941, -25.0709206 ], [ -130.0906833, -25.0709838 ], [ -130.090586800000011, -25.0710907 ], [ -130.0905653, -25.0711684 ], [ -130.09056, -25.0712219 ], [ -130.0904688, -25.0712559 ], [ -130.0904473, -25.0713142 ], [ -130.090458, -25.0714065 ], [ -130.0904208, -25.0714646 ], [ -130.0903454, -25.071494 ], [ -130.090222, -25.0715815 ], [ -130.0900718, -25.07163 ], [ -130.089868, -25.0716398 ], [ -130.089771399999989, -25.0716689 ], [ -130.0896641, -25.0717175 ], [ -130.0896158, -25.0717904 ], [ -130.0896105, -25.0718633 ], [ -130.0896909, -25.0719362 ], [ -130.089857200000012, -25.0719896 ], [ -130.089884, -25.0720528 ], [ -130.08982180000001, -25.0720807 ], [ -130.0897392, -25.0720819 ], [ -130.0896266, -25.0720771 ], [ -130.0895133, -25.0720394 ], [ -130.0893638, -25.0720441 ], [ -130.0889956, -25.0721365 ], [ -130.089049499999987, -25.0722401 ], [ -130.089277900000013, -25.0722714 ], [ -130.089567499999987, -25.0722909 ], [ -130.0897553, -25.0723249 ], [ -130.0897929, -25.0723783 ], [ -130.0897338, -25.0724318 ], [ -130.089648, -25.0724561 ], [ -130.089492400000012, -25.0724658 ], [ -130.089277900000013, -25.0724269 ], [ -130.0891545, -25.0724172 ], [ -130.0889989, -25.0724901 ], [ -130.0889077, -25.0725678 ], [ -130.0888702, -25.0726456 ], [ -130.0888809, -25.072699 ], [ -130.0889238, -25.0727525 ], [ -130.0889292, -25.0728399 ], [ -130.0888004, -25.0728788 ], [ -130.088752199999988, -25.0729565 ], [ -130.0888219, -25.073078 ], [ -130.088677100000012, -25.0732821 ], [ -130.0886931, -25.0733452 ], [ -130.0889238, -25.0734278 ], [ -130.088988199999989, -25.0735202 ], [ -130.088730700000013, -25.0735493 ], [ -130.0886127, -25.0736562 ], [ -130.088618, -25.0737242 ], [ -130.088703900000013, -25.073802 ], [ -130.088961399999988, -25.07387 ], [ -130.089015, -25.0740061 ], [ -130.0888702, -25.0741032 ], [ -130.088392700000014, -25.0741567 ], [ -130.088183500000014, -25.0742296 ], [ -130.088178199999987, -25.074283 ], [ -130.0883263, -25.0743483 ], [ -130.0879562, -25.0744084 ], [ -130.0881192, -25.0745454 ], [ -130.0882479, -25.0749973 ], [ -130.0881728, -25.075075 ], [ -130.087974300000013, -25.0750556 ], [ -130.087791900000013, -25.0751333 ], [ -130.087840199999988, -25.0752402 ], [ -130.087738300000012, -25.0753471 ], [ -130.0877597, -25.0754005 ], [ -130.08808160000001, -25.0754443 ], [ -130.088264, -25.0755172 ], [ -130.0885054, -25.0757067 ], [ -130.0887897, -25.075799 ], [ -130.0887682, -25.0758573 ], [ -130.08865560000001, -25.075867 ], [ -130.088901, -25.0760261 ], [ -130.088980099999986, -25.0759909 ], [ -130.0891087, -25.0759047 ], [ -130.0891813, -25.0757018 ], [ -130.0893288, -25.0759058 ], [ -130.089500500000014, -25.0758378 ], [ -130.0900771, -25.0756678 ], [ -130.0906431, -25.0751625 ], [ -130.090922, -25.0748976 ], [ -130.0910079, -25.0749997 ], [ -130.0908818, -25.0752742 ], [ -130.0909677, -25.0753422 ], [ -130.091107099999988, -25.0752256 ], [ -130.091552400000012, -25.0750799 ], [ -130.091632800000014, -25.0748126 ], [ -130.0917562, -25.0747738 ], [ -130.0924161, -25.0747397 ], [ -130.092802299999988, -25.0748709 ], [ -130.0931081, -25.0748612 ], [ -130.0933441, -25.0747689 ], [ -130.093961, -25.0746669 ], [ -130.0943312, -25.0742879 ], [ -130.0947979, -25.0743705 ], [ -130.0949373, -25.0744676 ], [ -130.0949856, -25.07456 ], [ -130.0950124, -25.0750021 ], [ -130.095130399999988, -25.0754151 ], [ -130.0953021, -25.0757261 ], [ -130.095506, -25.0759496 ], [ -130.0956132, -25.076416 ], [ -130.0957903, -25.0768679 ], [ -130.0958171, -25.0771594 ], [ -130.0959029, -25.0773101 ], [ -130.0961443, -25.0775384 ], [ -130.0965842, -25.0778494 ], [ -130.096611, -25.077932 ], [ -130.0965627, -25.0779806 ], [ -130.0964769, -25.0779806 ], [ -130.0964501, -25.0782138 ], [ -130.0964662, -25.0782769 ], [ -130.096589599999987, -25.0783158 ], [ -130.096611, -25.0784519 ], [ -130.0969383, -25.0784567 ], [ -130.097168900000014, -25.0785685 ], [ -130.097303, -25.0787045 ], [ -130.0973835, -25.0787045 ], [ -130.097485400000011, -25.0785879 ], [ -130.0976356, -25.0785636 ], [ -130.097936, -25.0786219 ], [ -130.0984296, -25.0788405 ], [ -130.0987192, -25.0788648 ], [ -130.098848, -25.0789523 ], [ -130.098921, -25.0790852 ], [ -130.099031200000013, -25.0791129 ], [ -130.099063, -25.0789756 ], [ -130.0991476, -25.0790224 ], [ -130.09912940000001, -25.0792678 ], [ -130.0990974, -25.0793628 ], [ -130.099180600000011, -25.0794964 ], [ -130.099234599999988, -25.0794542 ], [ -130.09931, -25.0794412 ], [ -130.0993106, -25.0793859 ], [ -130.0993971, -25.0794157 ], [ -130.0995158, -25.0792414 ], [ -130.099545400000011, -25.0790567 ], [ -130.0996366, -25.0789814 ], [ -130.0998511, -25.0790738 ], [ -130.0999477, -25.079064 ], [ -130.100017400000013, -25.0790009 ], [ -130.1000603, -25.078826 ], [ -130.1008436, -25.0787094 ], [ -130.1009723, -25.0788017 ], [ -130.1009884, -25.0788746 ], [ -130.1009133, -25.0790543 ], [ -130.1008972, -25.0792875 ], [ -130.101004499999988, -25.0795451 ], [ -130.1014283, -25.0797151 ], [ -130.101934199999988, -25.0794078 ], [ -130.1020992, -25.0792569 ], [ -130.1023049, -25.0789107 ], [ -130.1023702, -25.0788324 ], [ -130.1024333, -25.0787267 ], [ -130.1024846, -25.0786795 ], [ -130.102499, -25.0786104 ], [ -130.102524, -25.0785305 ], [ -130.1025444, -25.0784652 ], [ -130.102656700000011, -25.0786802 ], [ -130.1027801, -25.0787531 ], [ -130.1030644, -25.0788211 ], [ -130.1039281, -25.0791855 ], [ -130.1042017, -25.0792098 ], [ -130.1046416, -25.0791564 ], [ -130.104925900000012, -25.0791078 ], [ -130.105365799999987, -25.0789523 ], [ -130.1057252, -25.0789814 ], [ -130.1057949, -25.0790543 ], [ -130.1058325, -25.0793118 ], [ -130.1061382, -25.079443 ], [ -130.1062723, -25.0793361 ], [ -130.106283100000013, -25.0791758 ], [ -130.106326, -25.0791321 ], [ -130.10659960000001, -25.0791515 ], [ -130.106701500000014, -25.0788308 ], [ -130.1067337, -25.0782089 ], [ -130.1068142, -25.0780146 ], [ -130.107323799999989, -25.0774995 ], [ -130.107329099999987, -25.0772275 ], [ -130.1074203, -25.0770428 ], [ -130.1075759, -25.0769262 ], [ -130.1082089, -25.0768485 ], [ -130.108503899999988, -25.0767367 ], [ -130.1090136, -25.076727 ], [ -130.1092925, -25.0767707 ], [ -130.1095343, -25.0766898 ], [ -130.1097378, -25.0767319 ], [ -130.109916, -25.0766286 ], [ -130.1098031, -25.0765035 ], [ -130.1099738, -25.0763723 ], [ -130.1100476, -25.0757452 ], [ -130.1101099, -25.0755491 ], [ -130.1102895, -25.0753292 ], [ -130.110563899999988, -25.075075 ], [ -130.1116743, -25.0746766 ], [ -130.1120498, -25.074662 ], [ -130.1121464, -25.0747592 ], [ -130.112285899999989, -25.0750653 ], [ -130.1123341, -25.0754637 ], [ -130.112656, -25.0757941 ], [ -130.1128706, -25.0756872 ], [ -130.112945700000012, -25.0755463 ], [ -130.1129832, -25.075386 ], [ -130.1129028, -25.0751285 ], [ -130.1130546, -25.0749991 ], [ -130.113183099999986, -25.0750149 ], [ -130.1132878, -25.0748834 ], [ -130.113322899999986, -25.0747292 ], [ -130.11337850000001, -25.0746377 ], [ -130.1136109, -25.0750701 ], [ -130.113648399999988, -25.0750944 ], [ -130.1137128, -25.075041 ], [ -130.113686, -25.0747397 ], [ -130.1134017, -25.0744919 ], [ -130.1131173, -25.0743559 ], [ -130.1130315, -25.0742539 ], [ -130.1129832, -25.0740061 ], [ -130.1130101, -25.073836 ], [ -130.1131603, -25.0736076 ], [ -130.1133695, -25.0736076 ], [ -130.1136109, -25.0737145 ], [ -130.1140454, -25.0741178 ], [ -130.1141849, -25.0741713 ], [ -130.1142788, -25.0742654 ], [ -130.1143619, -25.0741713 ], [ -130.1145014, -25.0741713 ], [ -130.1145203, -25.0741294 ], [ -130.1145175, -25.0740498 ], [ -130.1143926, -25.0738616 ], [ -130.114286600000014, -25.0737018 ], [ -130.114233899999988, -25.0736224 ], [ -130.114168799999987, -25.0732724 ], [ -130.1140253, -25.0731265 ], [ -130.113863, -25.0729614 ], [ -130.1136806, -25.0728302 ], [ -130.1134821, -25.0727184 ], [ -130.1133319, -25.0726407 ], [ -130.113328700000011, -25.0725577 ], [ -130.1132882, -25.0724601 ], [ -130.1131819, -25.0723469 ], [ -130.113137200000011, -25.0722732 ], [ -130.113168, -25.0721978 ], [ -130.113154900000012, -25.0720722 ], [ -130.1132729, -25.0720236 ], [ -130.1138469, -25.0719945 ], [ -130.115142600000013, -25.0713119 ], [ -130.1154397, -25.0711726 ], [ -130.115532800000011, -25.0711936 ], [ -130.1156954, -25.0711792 ], [ -130.115854399999989, -25.0711482 ], [ -130.115996599999988, -25.0710605 ], [ -130.116188599999987, -25.071009 ], [ -130.1163114, -25.0710158 ], [ -130.1163181, -25.0710659 ], [ -130.1164072, -25.0711188 ], [ -130.1165374, -25.0711172 ], [ -130.1165321, -25.071046 ], [ -130.1164746, -25.0709606 ], [ -130.1167068, -25.0709186 ], [ -130.116767399999986, -25.0707983 ], [ -130.1172962, -25.0702841 ], [ -130.1174679, -25.0699634 ], [ -130.1180494, -25.0694946 ], [ -130.118074299999989, -25.0694538 ], [ -130.1181521, -25.0693993 ], [ -130.1182265, -25.0693929 ], [ -130.1182892, -25.0693382 ], [ -130.1183792, -25.0693118 ], [ -130.118499, -25.0692326 ], [ -130.11860870000001, -25.0691909 ], [ -130.1187361, -25.0691653 ], [ -130.1188268, -25.0691884 ], [ -130.118889200000012, -25.0692601 ], [ -130.1189542, -25.0692638 ], [ -130.119003, -25.0691901 ], [ -130.11906, -25.0691496 ], [ -130.1190743, -25.0690701 ], [ -130.119112800000011, -25.0690207 ], [ -130.1192917, -25.0689765 ], [ -130.1194543, -25.0689655 ], [ -130.11956, -25.0689802 ], [ -130.119657600000011, -25.0690097 ], [ -130.1196291, -25.0689618 ], [ -130.119686, -25.0689434 ], [ -130.1197309, -25.0689665 ], [ -130.1197836, -25.0689765 ], [ -130.1197831, -25.0689063 ], [ -130.119962500000014, -25.0688366 ], [ -130.120011299999987, -25.0688624 ], [ -130.1200479, -25.0689286 ], [ -130.1201536, -25.0688955 ], [ -130.120243, -25.068925 ], [ -130.1202918, -25.0688918 ], [ -130.1203731, -25.068925 ], [ -130.120450299999987, -25.0689066 ], [ -130.12057440000001, -25.0689079 ], [ -130.1206699, -25.0689397 ], [ -130.1207837, -25.0689323 ], [ -130.1208447, -25.0689581 ], [ -130.120897500000012, -25.069006 ], [ -130.1209829, -25.0689839 ], [ -130.1210724, -25.069006 ], [ -130.121107099999989, -25.0690667 ], [ -130.1209169, -25.0693852 ], [ -130.1209759, -25.0694921 ], [ -130.1212066, -25.0697496 ], [ -130.1213622, -25.0698419 ], [ -130.1215392, -25.0698614 ], [ -130.1217162, -25.069769 ], [ -130.1219254, -25.0697496 ], [ -130.1220971, -25.0696719 ], [ -130.122199, -25.0695601 ], [ -130.1221186, -25.0694678 ], [ -130.1217001, -25.0694386 ], [ -130.121688, -25.0693666 ], [ -130.1218153, -25.0690957 ], [ -130.121620299999989, -25.06911 ], [ -130.121611800000011, -25.0690564 ], [ -130.12173, -25.0690098 ], [ -130.1219639, -25.0689958 ], [ -130.1221668, -25.0691276 ], [ -130.122406899999987, -25.0691932 ], [ -130.1226389, -25.0690693 ], [ -130.1226924, -25.0689928 ], [ -130.122756900000013, -25.0688798 ], [ -130.122782300000011, -25.068753 ], [ -130.122714, -25.0686174 ], [ -130.1225584, -25.0684255 ], [ -130.1224646, -25.0682749 ], [ -130.122575899999987, -25.0680461 ], [ -130.122858900000011, -25.0679347 ], [ -130.122985, -25.067661 ], [ -130.122773, -25.0675727 ], [ -130.1225155, -25.0675193 ], [ -130.1224913, -25.0671718 ], [ -130.1226925, -25.0666228 ], [ -130.1225906, -25.06646 ], [ -130.122582599999987, -25.0663579 ], [ -130.1226145, -25.0662444 ], [ -130.1226926, -25.0661395 ], [ -130.1226733, -25.066029 ], [ -130.1224726, -25.06594 ], [ -130.1221347, -25.0659449 ], [ -130.1218235, -25.0658526 ], [ -130.1215929, -25.0659255 ], [ -130.1214856, -25.0659255 ], [ -130.1214214, -25.0657966 ], [ -130.1215877, -25.0657492 ], [ -130.121582100000012, -25.0655876 ], [ -130.121346100000011, -25.0654687 ], [ -130.1210618, -25.0653812 ], [ -130.1206594, -25.0651334 ], [ -130.1205736, -25.0649779 ], [ -130.1205683, -25.0647981 ], [ -130.120782600000013, -25.064544 ], [ -130.1202988, -25.06452 ], [ -130.1204727, -25.0644189 ], [ -130.1205377, -25.0643523 ], [ -130.1205358, -25.0642779 ], [ -130.1203054, -25.0641761 ], [ -130.1201337, -25.0641859 ], [ -130.119919399999986, -25.0642241 ], [ -130.119943799999987, -25.0643631 ], [ -130.1198197, -25.0643975 ], [ -130.119704500000012, -25.0643085 ], [ -130.119543599999986, -25.0643754 ], [ -130.1194803, -25.0642643 ], [ -130.1193934, -25.0642976 ], [ -130.119329099999987, -25.0641713 ], [ -130.1189807, -25.0642345 ], [ -130.11887870000001, -25.0643365 ], [ -130.11881, -25.0641345 ], [ -130.1186736, -25.0640808 ], [ -130.1185944, -25.0641664 ], [ -130.1185381, -25.0642767 ], [ -130.11846030000001, -25.06439 ], [ -130.1180794, -25.0644045 ], [ -130.1179024, -25.0643219 ], [ -130.1178434, -25.0642004 ], [ -130.1176053, -25.0641031 ], [ -130.1174323, -25.0639807 ], [ -130.117087, -25.06387 ], [ -130.116990500000014, -25.0637242 ], [ -130.116625699999986, -25.0636319 ], [ -130.1164057, -25.0634035 ], [ -130.116309199999989, -25.0631168 ], [ -130.116470099999987, -25.0630974 ], [ -130.1165559, -25.0629613 ], [ -130.116443299999986, -25.0628884 ], [ -130.1163199, -25.0629516 ], [ -130.1161643, -25.0629322 ], [ -130.1160892, -25.0628836 ], [ -130.1161375, -25.0626746 ], [ -130.115869300000014, -25.062626 ], [ -130.1158163, -25.0625408 ], [ -130.1157772, -25.0624777 ], [ -130.1160995, -25.0623306 ], [ -130.1162024, -25.0623779 ], [ -130.1163599, -25.0624066 ], [ -130.1164369, -25.0623954 ], [ -130.1164091, -25.0623312 ], [ -130.116160799999989, -25.0623024 ], [ -130.1161423, -25.0621534 ], [ -130.115980400000012, -25.0619256 ], [ -130.1160353, -25.0619225 ], [ -130.1160901, -25.0618727 ], [ -130.1160681, -25.0617467 ], [ -130.115953, -25.0616971 ], [ -130.116011, -25.0616617 ], [ -130.116027, -25.0616093 ], [ -130.1160199, -25.06155 ], [ -130.1159494, -25.0614043 ], [ -130.1157459, -25.0613334 ], [ -130.1156279, -25.0613286 ], [ -130.115531299999986, -25.0611634 ], [ -130.115429400000011, -25.0611099 ], [ -130.1152792, -25.0611099 ], [ -130.115241700000013, -25.0610759 ], [ -130.115273800000011, -25.0609447 ], [ -130.1152309, -25.0608815 ], [ -130.115086100000013, -25.0608086 ], [ -130.1149842, -25.060692 ], [ -130.1146033, -25.0605754 ], [ -130.11425460000001, -25.0606191 ], [ -130.1140829, -25.0605948 ], [ -130.1135894, -25.0603713 ], [ -130.1134446, -25.0603907 ], [ -130.113466, -25.0605219 ], [ -130.1134285, -25.0605657 ], [ -130.1131442, -25.0605948 ], [ -130.1131227, -25.0605462 ], [ -130.1129886, -25.0605511 ], [ -130.1130422, -25.060138 ], [ -130.1129135, -25.0600165 ], [ -130.1128008, -25.0599825 ], [ -130.1127204, -25.0600165 ], [ -130.1126399, -25.0601477 ], [ -130.1125326, -25.0601818 ], [ -130.1125487, -25.0600311 ], [ -130.1124575, -25.0600408 ], [ -130.112162500000011, -25.0603178 ], [ -130.1119908, -25.0603081 ], [ -130.1119479, -25.0602206 ], [ -130.111792900000012, -25.0602081 ], [ -130.1116656, -25.0603311 ], [ -130.1114842, -25.0601083 ], [ -130.111325599999986, -25.0602498 ], [ -130.111248499999988, -25.0601201 ], [ -130.1111218, -25.0601429 ], [ -130.111008199999986, -25.0601851 ], [ -130.1109717, -25.0600775 ], [ -130.1109006, -25.0599909 ], [ -130.1108525, -25.0599054 ], [ -130.1108274, -25.0599614 ], [ -130.1108131, -25.0600388 ], [ -130.1108111, -25.0601382 ], [ -130.110825299999988, -25.0601658 ], [ -130.1107806, -25.0602063 ], [ -130.110744, -25.0602063 ], [ -130.1107054, -25.0601824 ], [ -130.1106668, -25.06021 ], [ -130.1106566, -25.0602432 ], [ -130.110616, -25.0602524 ], [ -130.1105814, -25.0602303 ], [ -130.110534699999988, -25.0602303 ], [ -130.1104777, -25.0602487 ], [ -130.1104818, -25.0602837 ], [ -130.110431, -25.0602947 ], [ -130.1103951, -25.0602709 ], [ -130.1103175, -25.060296 ], [ -130.1103033, -25.0602592 ], [ -130.1103029, -25.0602045 ], [ -130.110337500000014, -25.060175 ], [ -130.1103436, -25.0601401 ], [ -130.1102928, -25.0600443 ], [ -130.1102765, -25.0599835 ], [ -130.110246, -25.0599467 ], [ -130.1102338, -25.0598896 ], [ -130.1102419, -25.0598215 ], [ -130.110221599999988, -25.0596723 ], [ -130.110185, -25.0596263 ], [ -130.110140300000012, -25.0596392 ], [ -130.1101281, -25.059665 ], [ -130.110097700000011, -25.0596884 ], [ -130.11007570000001, -25.0596521 ], [ -130.1099738, -25.0596667 ], [ -130.109829, -25.05955 ], [ -130.1097914, -25.0595889 ], [ -130.1098129, -25.0598319 ], [ -130.1095607, -25.0598465 ], [ -130.109529, -25.0599259 ], [ -130.1094309, -25.0598902 ], [ -130.109356100000014, -25.0599551 ], [ -130.109446600000012, -25.0601029 ], [ -130.109531299999986, -25.060217 ], [ -130.109467, -25.060269 ], [ -130.1094819, -25.0604264 ], [ -130.109591200000011, -25.0604721 ], [ -130.10955340000001, -25.060536 ], [ -130.1091863, -25.0602373 ], [ -130.109101900000013, -25.0601245 ], [ -130.1084718, -25.0605851 ], [ -130.108375200000012, -25.0606094 ], [ -130.108402, -25.0602984 ], [ -130.1081338, -25.0603664 ], [ -130.1077797, -25.0607892 ], [ -130.107887, -25.060794 ], [ -130.1081499, -25.0606969 ], [ -130.1081553, -25.0607455 ], [ -130.1079675, -25.0608475 ], [ -130.1077046, -25.0608912 ], [ -130.1076349, -25.061003 ], [ -130.1078119, -25.0609981 ], [ -130.1080331, -25.0608592 ], [ -130.1081384, -25.0608543 ], [ -130.1079943, -25.0609738 ], [ -130.1076778, -25.0610905 ], [ -130.1075974, -25.0614015 ], [ -130.1076423, -25.0614828 ], [ -130.1075598, -25.0615084 ], [ -130.107463200000012, -25.0616347 ], [ -130.1071928, -25.0617593 ], [ -130.1072701, -25.0618097 ], [ -130.1072379, -25.0618534 ], [ -130.10648230000001, -25.0617855 ], [ -130.106068, -25.0617851 ], [ -130.106083, -25.0618603 ], [ -130.1061972, -25.0619263 ], [ -130.1060417, -25.0619166 ], [ -130.106057, -25.0620804 ], [ -130.1060018, -25.0620607 ], [ -130.1058573, -25.0620345 ], [ -130.1057974, -25.0620448 ], [ -130.1057154, -25.0620104 ], [ -130.105612900000011, -25.0620423 ], [ -130.105393600000014, -25.0622201 ], [ -130.1054409, -25.0623588 ], [ -130.1053282, -25.0624511 ], [ -130.1052216, -25.0624482 ], [ -130.1051412, -25.0624919 ], [ -130.1051051, -25.0624502 ], [ -130.1050016, -25.0624731 ], [ -130.1049706, -25.0625274 ], [ -130.105006300000014, -25.062801 ], [ -130.104872199999988, -25.0628787 ], [ -130.1048918, -25.0629478 ], [ -130.1048312, -25.0630782 ], [ -130.1048606, -25.0631461 ], [ -130.104815800000011, -25.0632144 ], [ -130.1046859, -25.063155 ], [ -130.1046598, -25.0630953 ], [ -130.10408240000001, -25.0632327 ], [ -130.1040572, -25.0631638 ], [ -130.1040697, -25.0630419 ], [ -130.1040236, -25.0629823 ], [ -130.1039481, -25.0629716 ], [ -130.1038412, -25.0630084 ], [ -130.1036522, -25.0632939 ], [ -130.1034185, -25.0633938 ], [ -130.1032487, -25.0633728 ], [ -130.1031918, -25.0632245 ], [ -130.1031353, -25.0632429 ], [ -130.1031343, -25.0633479 ], [ -130.103085600000014, -25.0633635 ], [ -130.103028200000011, -25.0633585 ], [ -130.102982700000013, -25.0634352 ], [ -130.102992699999987, -25.0635482 ], [ -130.1029322, -25.063589 ], [ -130.1028053, -25.0636575 ], [ -130.1027211, -25.0636611 ], [ -130.1026417, -25.0636855 ], [ -130.1025525, -25.0636648 ], [ -130.1025029, -25.0636885 ], [ -130.1024509, -25.063675 ], [ -130.1023883, -25.0636223 ], [ -130.1023293, -25.063618 ], [ -130.1023098, -25.0636502 ], [ -130.1022783, -25.0636478 ], [ -130.1022562, -25.0636265 ], [ -130.1022562, -25.0635822 ], [ -130.10222060000001, -25.0635673 ], [ -130.102167, -25.0635883 ], [ -130.1021308, -25.0635773 ], [ -130.1021227, -25.0635457 ], [ -130.1020785, -25.0634789 ], [ -130.1020154, -25.0634959 ], [ -130.1020034, -25.0635263 ], [ -130.1019283, -25.0635008 ], [ -130.101855, -25.0635084 ], [ -130.1018518, -25.0634449 ], [ -130.101803499999988, -25.0633915 ], [ -130.1017314, -25.0634072 ], [ -130.1016869, -25.0634534 ], [ -130.101685800000013, -25.0634947 ], [ -130.101614399999988, -25.0635591 ], [ -130.101591899999988, -25.0636161 ], [ -130.101622099999986, -25.0636932 ], [ -130.1016688, -25.0637098 ], [ -130.1016275, -25.0637285 ], [ -130.101633, -25.0637632 ], [ -130.101709699999986, -25.0638452 ], [ -130.101699599999989, -25.0638853 ], [ -130.1016615, -25.0638993 ], [ -130.101639299999988, -25.0638804 ], [ -130.101614399999988, -25.0638227 ], [ -130.101582900000011, -25.0637869 ], [ -130.1015051, -25.0637851 ], [ -130.1014591, -25.0638148 ], [ -130.1014765, -25.06389 ], [ -130.1014243, -25.0639423 ], [ -130.1014155, -25.0640352 ], [ -130.1013456, -25.0640942 ], [ -130.1012935, -25.0640856 ], [ -130.101215700000012, -25.0639915 ], [ -130.1011466, -25.0639709 ], [ -130.1010726, -25.0640056 ], [ -130.101004499999988, -25.0640012 ], [ -130.1009157, -25.0640329 ], [ -130.100891600000011, -25.0640262 ], [ -130.1008809, -25.0639922 ], [ -130.1008641, -25.0639722 ], [ -130.1008433, -25.0639709 ], [ -130.100817799999987, -25.0640171 ], [ -130.100713399999989, -25.0640425 ], [ -130.100457299999988, -25.0641859 ], [ -130.1004336, -25.0642528 ], [ -130.10040140000001, -25.0642959 ], [ -130.100354, -25.0643098 ], [ -130.1003062, -25.0643093 ], [ -130.1002727, -25.0642831 ], [ -130.1002613, -25.0642431 ], [ -130.1002291, -25.0641981 ], [ -130.1002336, -25.0641001 ], [ -130.100187799999986, -25.0641045 ], [ -130.1001647, -25.0641228 ], [ -130.1001513, -25.0641799 ], [ -130.1000829, -25.064203 ], [ -130.1000443, -25.0641932 ], [ -130.1000708, -25.0641119 ], [ -130.100048, -25.0640645 ], [ -130.100044, -25.0640207 ], [ -130.0999971, -25.0639649 ], [ -130.099958500000014, -25.0639441 ], [ -130.099887099999989, -25.0639709 ], [ -130.099812, -25.0640305 ], [ -130.0997932, -25.0640948 ], [ -130.0997423, -25.0641082 ], [ -130.0997036, -25.0641603 ], [ -130.0996417, -25.0641027 ], [ -130.099612400000012, -25.0641008 ], [ -130.0996041, -25.0641337 ], [ -130.0995639, -25.0641507 ], [ -130.0995065, -25.0641616 ], [ -130.0995787, -25.0642941 ], [ -130.0995572, -25.0643354 ], [ -130.0995129, -25.0643293 ], [ -130.099467299999986, -25.0643123 ], [ -130.0994488, -25.0642539 ], [ -130.099393600000013, -25.0642163 ], [ -130.0993943, -25.0641996 ], [ -130.099404600000014, -25.0641875 ], [ -130.099401300000011, -25.0641601 ], [ -130.0993782, -25.0641459 ], [ -130.0993217, -25.0641441 ], [ -130.099256, -25.064187 ], [ -130.0991343, -25.0641689 ], [ -130.099090499999988, -25.0642443 ], [ -130.0990798, -25.0643281 ], [ -130.099048900000014, -25.0643888 ], [ -130.099062300000014, -25.0644222 ], [ -130.098998200000011, -25.064526 ], [ -130.09894030000001, -25.0645237 ], [ -130.0989001, -25.0645844 ], [ -130.098833, -25.0646184 ], [ -130.098754, -25.0646843 ], [ -130.098756400000013, -25.0647593 ], [ -130.0989251, -25.064856 ], [ -130.0989959, -25.0648644 ], [ -130.0990449, -25.0648918 ], [ -130.0990576, -25.0649312 ], [ -130.0990362, -25.064964 ], [ -130.09894460000001, -25.0649585 ], [ -130.0988974, -25.0648857 ], [ -130.0988558, -25.064882 ], [ -130.0988219, -25.0649227 ], [ -130.0987726, -25.0650831 ], [ -130.09876460000001, -25.0651359 ], [ -130.0987364, -25.0651675 ], [ -130.098654900000014, -25.0652173 ], [ -130.098609, -25.0652246 ], [ -130.098553, -25.0652039 ], [ -130.0984966, -25.0652318 ], [ -130.09839980000001, -25.0653485 ], [ -130.0983167, -25.0653352 ], [ -130.0981734, -25.0654116 ], [ -130.0981759, -25.0654384 ], [ -130.0981933, -25.0654609 ], [ -130.098124899999988, -25.0656486 ], [ -130.0981222, -25.0657312 ], [ -130.0980256, -25.0658118 ], [ -130.09802, -25.0658918 ], [ -130.0978891, -25.0660616 ], [ -130.0978756, -25.0661114 ], [ -130.0978515, -25.0661466 ], [ -130.0977916, -25.0661671 ], [ -130.0977373, -25.0661649 ], [ -130.097683, -25.0661149 ], [ -130.0976105, -25.0660951 ], [ -130.0975737, -25.0661442 ], [ -130.0975037, -25.0661872 ], [ -130.0974841, -25.0662759 ], [ -130.0975402, -25.066307 ], [ -130.0975855, -25.0663715 ], [ -130.0975804, -25.0663981 ], [ -130.097534599999989, -25.0664114 ], [ -130.0974999, -25.0663921 ], [ -130.0974751, -25.0663447 ], [ -130.0974383, -25.0663354 ], [ -130.0973583, -25.0663754 ], [ -130.097215, -25.0665637 ], [ -130.097034799999989, -25.0666738 ], [ -130.0968882, -25.0668196 ], [ -130.0968326, -25.0669921 ], [ -130.096696900000012, -25.0671354 ], [ -130.0966321, -25.0671557 ], [ -130.0964658, -25.0674922 ], [ -130.096442, -25.0675722 ], [ -130.0964889, -25.0677266 ], [ -130.0964573, -25.0678252 ], [ -130.096421600000014, -25.0678689 ], [ -130.0964521, -25.0679255 ], [ -130.0965632, -25.0680893 ], [ -130.0965942, -25.0682294 ], [ -130.0965869, -25.0683637 ], [ -130.0965627, -25.0684883 ], [ -130.09656480000001, -25.0685742 ], [ -130.096530300000012, -25.0686801 ], [ -130.0964912, -25.0687494 ], [ -130.0963987, -25.068818 ], [ -130.0963055, -25.0688381 ], [ -130.0962164, -25.0688081 ], [ -130.0961523, -25.068775 ] ] ] ] } },
{ "type": "Feature", "properties": { "FID": 152832, "id": 348, "left": -135.0, "top": -25.0, "right": -130.0, "bottom": -30.0, "row_index": 23, "col_index": 9, "min_lon": -135.0, "min_lat": -30.0, "tile_id": "-135_-30" }, "geometry": { "type": "MultiPolygon", "coordinates": [ [ [ [ -130.101109900000012, -25.0805263 ], [ -130.1011326, -25.0805226 ], [ -130.10115540000001, -25.0805406 ], [ -130.101173499999987, -25.0805242 ], [ -130.1011834, -25.0804952 ], [ -130.1013068, -25.0803834 ], [ -130.1013336, -25.0803105 ], [ -130.1013121, -25.0802619 ], [ -130.1012499, -25.0802332 ], [ -130.1012102, -25.0801939 ], [ -130.101153399999987, -25.0801892 ], [ -130.1011427, -25.0801808 ], [ -130.1011423, -25.0801616 ], [ -130.101116499999989, -25.0801016 ], [ -130.1010815, -25.0800822 ], [ -130.1010656, -25.0800214 ], [ -130.1010138, -25.0800002 ], [ -130.1009965, -25.079968 ], [ -130.1009558, -25.079945 ], [ -130.100909800000011, -25.0799267 ], [ -130.1008454, -25.0799024 ], [ -130.100798200000014, -25.0799169 ], [ -130.1008036, -25.0799655 ], [ -130.1008358, -25.0800238 ], [ -130.1008814, -25.0800881 ], [ -130.1009202, -25.0801355 ], [ -130.1009354, -25.0801375 ], [ -130.100953, -25.0801473 ], [ -130.1009678, -25.0801549 ], [ -130.10097540000001, -25.0801654 ], [ -130.1009838, -25.0801643 ], [ -130.101003100000014, -25.080159 ], [ -130.1010224, -25.0801544 ], [ -130.101041400000014, -25.0801447 ], [ -130.1010579, -25.0801344 ], [ -130.101074899999986, -25.0801323 ], [ -130.1010918, -25.0801365 ], [ -130.10109940000001, -25.0801485 ], [ -130.1011081, -25.0801667 ], [ -130.1011135, -25.0801746 ], [ -130.1011091, -25.080188 ], [ -130.1010957, -25.0801855 ], [ -130.1010887, -25.0801907 ], [ -130.101078, -25.0801962 ], [ -130.101062899999988, -25.0802071 ], [ -130.101030400000013, -25.0802004 ], [ -130.1010135, -25.0802032 ], [ -130.1009901, -25.0802101 ], [ -130.1009665, -25.0802225 ], [ -130.100962399999986, -25.0802088 ], [ -130.1009449, -25.0802069 ], [ -130.1009382, -25.0802185 ], [ -130.100935, -25.0802631 ], [ -130.100967200000014, -25.0802946 ], [ -130.1010182, -25.0803068 ], [ -130.101045, -25.0803201 ], [ -130.101049, -25.080342 ], [ -130.101020799999986, -25.0803444 ], [ -130.1010047, -25.0803663 ], [ -130.1010147, -25.0803883 ], [ -130.1010013, -25.0803973 ], [ -130.1010042, -25.0804179 ], [ -130.1010211, -25.080428 ], [ -130.1010392, -25.080429 ], [ -130.1010439, -25.0804417 ], [ -130.101027499999987, -25.0804507 ], [ -130.101038100000011, -25.0804607 ], [ -130.101051500000011, -25.0804819 ], [ -130.101075400000013, -25.0805025 ], [ -130.1010818, -25.0805385 ], [ -130.101109900000012, -25.0805263 ] ] ] ] } },
{ "type": "Feature", "properties": { "FID": 152833, "id": 348, "left": -135.0, "top": -25.0, "right": -130.0, "bottom": -30.0, "row_index": 23, "col_index": 9, "min_lon": -135.0, "min_lat": -30.0, "tile_id": "-135_-30" }, "geometry": { "type": "MultiPolygon", "coordinates": [ [ [ [ -130.1013596, -25.0798307 ], [ -130.1013542, -25.0797724 ], [ -130.101289799999989, -25.0797287 ], [ -130.10111280000001, -25.0796801 ], [ -130.1010484, -25.0796606 ], [ -130.1009841, -25.0796898 ], [ -130.1009626, -25.0797724 ], [ -130.101027, -25.0798355 ], [ -130.101107500000012, -25.0798744 ], [ -130.101182599999987, -25.079889 ], [ -130.1012416, -25.0798744 ], [ -130.10129520000001, -25.0798841 ], [ -130.1013596, -25.0798307 ] ] ] ] } },
{ "type": "Feature", "properties": { "FID": 152834, "id": 348, "left": -135.0, "top": -25.0, "right": -130.0, "bottom": -30.0, "row_index": 23, "col_index": 9, "min_lon": -135.0, "min_lat": -30.0, "tile_id": "-135_-30" }, "geometry": { "type": "MultiPolygon", "coordinates": [ [ [ [ -130.0936723, -25.0793506 ], [ -130.0936548, -25.0793424 ], [ -130.09364260000001, -25.0793311 ], [ -130.0936295, -25.0793316 ], [ -130.093623900000011, -25.0793255 ], [ -130.093617599999988, -25.0793229 ], [ -130.093612799999988, -25.0793277 ], [ -130.093606599999987, -25.079333 ], [ -130.0935877, -25.0793332 ], [ -130.0935756, -25.0793361 ], [ -130.0935706, -25.0793428 ], [ -130.09356360000001, -25.0793661 ], [ -130.093552100000011, -25.0793727 ], [ -130.0935485, -25.0793789 ], [ -130.0935662, -25.0793814 ], [ -130.0935829, -25.0793804 ], [ -130.093630100000013, -25.0794026 ], [ -130.0936376, -25.0794148 ], [ -130.0936434, -25.0794155 ], [ -130.093649199999987, -25.0794146 ], [ -130.0936532, -25.0793898 ], [ -130.09366510000001, -25.079378 ], [ -130.093673700000011, -25.0793624 ], [ -130.0936723, -25.0793506 ] ] ] ] } },
{ "type": "Feature", "properties": { "FID": 152835, "id": 348, "left": -135.0, "top": -25.0, "right": -130.0, "bottom": -30.0, "row_index": 23, "col_index": 9, "min_lon": -135.0, "min_lat": -30.0, "tile_id": "-135_-30" }, "geometry": { "type": "MultiPolygon", "coordinates": [ [ [ [ -130.1122805, -25.0757455 ], [ -130.1121785, -25.0756435 ], [ -130.1121464, -25.0755852 ], [ -130.1120659, -25.075556 ], [ -130.111980100000011, -25.0755366 ], [ -130.1119961, -25.0756143 ], [ -130.112087300000013, -25.0756969 ], [ -130.1121142, -25.0757746 ], [ -130.112141, -25.0758135 ], [ -130.1121946, -25.0758427 ], [ -130.112276400000013, -25.0758837 ], [ -130.1123395, -25.0758281 ], [ -130.1122805, -25.0757455 ] ] ] ] } },
{ "type": "Feature", "properties": { "FID": 152836, "id": 348, "left": -135.0, "top": -25.0, "right": -130.0, "bottom": -30.0, "row_index": 23, "col_index": 9, "min_lon": -135.0, "min_lat": -30.0, "tile_id": "-135_-30" }, "geometry": { "type": "MultiPolygon", "coordinates": [ [ [ [ -130.0880923, -25.0769942 ], [ -130.0880172, -25.077038 ], [ -130.0879904, -25.0770865 ], [ -130.0880172, -25.0771497 ], [ -130.08808160000001, -25.0771011 ], [ -130.0880923, -25.0769942 ] ] ] ] } },
{ "type": "Feature", "properties": { "FID": 152837, "id": 348, "left": -135.0, "top": -25.0, "right": -130.0, "bottom": -30.0, "row_index": 23, "col_index": 9, "min_lon": -135.0, "min_lat": -30.0, "tile_id": "-135_-30" }, "geometry": { "type": "MultiPolygon", "coordinates": [ [ [ [ -130.0963841, -25.0790064 ], [ -130.096404299999989, -25.0790459 ], [ -130.096436399999988, -25.0790399 ], [ -130.0964481, -25.0789851 ], [ -130.0964351, -25.0789439 ], [ -130.0963949, -25.0789293 ], [ -130.0963768, -25.0789585 ], [ -130.0963841, -25.0790064 ] ] ] ] } },
{ "type": "Feature", "properties": { "FID": 152838, "id": 348, "left": -135.0, "top": -25.0, "right": -130.0, "bottom": -30.0, "row_index": 23, "col_index": 9, "min_lon": -135.0, "min_lat": -30.0, "tile_id": "-135_-30" }, "geometry": { "type": "MultiPolygon", "coordinates": [ [ [ [ -130.118014100000011, -25.0749922 ], [ -130.1179899, -25.0749949 ], [ -130.117971899999986, -25.0750241 ], [ -130.117976199999987, -25.0750629 ], [ -130.1180051, -25.0750745 ], [ -130.1180379, -25.0750662 ], [ -130.1180459, -25.0750434 ], [ -130.1180382, -25.0750024 ], [ -130.118014100000011, -25.0749922 ] ] ] ] } },
{ "type": "Feature", "properties": { "FID": 152839, "id": 348, "left": -135.0, "top": -25.0, "right": -130.0, "bottom": -30.0, "row_index": 23, "col_index": 9, "min_lon": -135.0, "min_lat": -30.0, "tile_id": "-135_-30" }, "geometry": { "type": "MultiPolygon", "coordinates": [ [ [ [ -130.1223224, -25.0710846 ], [ -130.1223063, -25.0711429 ], [ -130.1223493, -25.0711623 ], [ -130.1223975, -25.0711332 ], [ -130.1224029, -25.0710895 ], [ -130.122381499999989, -25.0710409 ], [ -130.1223224, -25.0710846 ] ] ] ] } },
{ "type": "Feature", "properties": { "FID": 152840, "id": 348, "left": -135.0, "top": -25.0, "right": -130.0, "bottom": -30.0, "row_index": 23, "col_index": 9, "min_lon": -135.0, "min_lat": -30.0, "tile_id": "-135_-30" }, "geometry": { "type": "MultiPolygon", "coordinates": [ [ [ [ -130.11772, -25.0614476 ], [ -130.1177093, -25.0614914 ], [ -130.1177468, -25.0615303 ], [ -130.117800499999987, -25.0615108 ], [ -130.1178315, -25.0614414 ], [ -130.117827299999988, -25.0613748 ], [ -130.1177951, -25.0613262 ], [ -130.1177361, -25.0613602 ], [ -130.11772, -25.0614476 ] ] ] ] } },
{ "type": "Feature", "properties": { "FID": 152841, "id": 348, "left": -135.0, "top": -25.0, "right": -130.0, "bottom": -30.0, "row_index": 23, "col_index": 9, "min_lon": -135.0, "min_lat": -30.0, "tile_id": "-135_-30" }, "geometry": { "type": "MultiPolygon", "coordinates": [ [ [ [ -130.1233631, -25.0692102 ], [ -130.1234168, -25.0692394 ], [ -130.1235402, -25.069254 ], [ -130.123615300000012, -25.0693074 ], [ -130.12362060000001, -25.0692588 ], [ -130.1235992, -25.0692151 ], [ -130.123588399999988, -25.0691325 ], [ -130.1235638, -25.0690851 ], [ -130.1235187, -25.0690353 ], [ -130.1234704, -25.0690013 ], [ -130.1233846, -25.0689527 ], [ -130.1233149, -25.0689236 ], [ -130.1233202, -25.068977 ], [ -130.123325599999987, -25.069045 ], [ -130.1233417, -25.0691374 ], [ -130.1233631, -25.0692102 ] ] ] ] } },
{ "type": "Feature", "properties": { "FID": 152842, "id": 348, "left": -135.0, "top": -25.0, "right": -130.0, "bottom": -30.0, "row_index": 23, "col_index": 9, "min_lon": -135.0, "min_lat": -30.0, "tile_id": "-135_-30" }, "geometry": { "type": "MultiPolygon", "coordinates": [ [ [ [ -130.1243126, -25.0691859 ], [ -130.124291199999988, -25.0691374 ], [ -130.1242375, -25.0690596 ], [ -130.1241678, -25.0690062 ], [ -130.1241034, -25.0689527 ], [ -130.1240551, -25.068909 ], [ -130.1240015, -25.0688895 ], [ -130.1239318, -25.0688652 ], [ -130.123803, -25.068841 ], [ -130.123862, -25.0688993 ], [ -130.1239961, -25.0689527 ], [ -130.124033700000012, -25.0689819 ], [ -130.1240659, -25.0690256 ], [ -130.1240927, -25.0690985 ], [ -130.1241302, -25.0691374 ], [ -130.1242322, -25.0692005 ], [ -130.1243019, -25.0692394 ], [ -130.1243126, -25.0691859 ] ] ] ] } },
{ "type": "Feature", "properties": { "FID": 306068, "id": 348, "left": -135.0, "top": -25.0, "right": -130.0, "bottom": -30.0, "row_index": 23, "col_index": 9, "min_lon": -135.0, "min_lat": -30.0, "tile_id": "-135_-30" }, "geometry": { "type": "MultiPolygon", "coordinates": [ [ [ [ -130.122242699999987, -25.0657128 ], [ -130.122284799999989, -25.0657601 ], [ -130.122376, -25.0657115 ], [ -130.122467199999988, -25.0656532 ], [ -130.122494, -25.0655463 ], [ -130.1224028, -25.0654589 ], [ -130.1222749, -25.065533 ], [ -130.1222258, -25.0656532 ], [ -130.122242699999987, -25.0657128 ] ] ] ] } },
{ "type": "Feature", "properties": { "FID": 316664, "id": 348, "left": -135.0, "top": -25.0, "right": -130.0, "bottom": -30.0, "row_index": 23, "col_index": 9, "min_lon": -135.0, "min_lat": -30.0, "tile_id": "-135_-30" }, "geometry": { "type": "MultiPolygon", "coordinates": [ [ [ [ -130.1232858, -25.067727 ], [ -130.123263400000013, -25.0676675 ], [ -130.1232458, -25.0676501 ], [ -130.123257, -25.0676167 ], [ -130.1232298, -25.0675892 ], [ -130.1231721, -25.0676109 ], [ -130.123096800000013, -25.0676298 ], [ -130.123086, -25.0676574 ], [ -130.123084, -25.0677052 ], [ -130.1231161, -25.0677328 ], [ -130.1231673, -25.0677705 ], [ -130.1231417, -25.0678271 ], [ -130.1231529, -25.0678561 ], [ -130.12322180000001, -25.0678242 ], [ -130.123277800000011, -25.0678431 ], [ -130.1233243, -25.0678895 ], [ -130.1233355, -25.0679199 ], [ -130.1233514, -25.0679326 ], [ -130.123365, -25.0679983 ], [ -130.1233412, -25.0680485 ], [ -130.123399, -25.0680485 ], [ -130.123435199999989, -25.0679973 ], [ -130.123472600000014, -25.0680106 ], [ -130.123485, -25.0679767 ], [ -130.1234782, -25.0679295 ], [ -130.1234182, -25.0679665 ], [ -130.1233809, -25.0679634 ], [ -130.1233684, -25.0678865 ], [ -130.1233571, -25.0678372 ], [ -130.1233163, -25.06783 ], [ -130.1233695, -25.067787 ], [ -130.1233372, -25.0677582 ], [ -130.1232858, -25.067727 ] ] ] ] } },
{ "type": "Feature", "properties": { "FID": 365385, "id": 348, "left": -135.0, "top": -25.0, "right": -130.0, "bottom": -30.0, "row_index": 23, "col_index": 9, "min_lon": -135.0, "min_lat": -30.0, "tile_id": "-135_-30" }, "geometry": { "type": "MultiPolygon", "coordinates": [ [ [ [ -130.1167666, -25.0633384 ], [ -130.116739599999988, -25.0633123 ], [ -130.1167012, -25.0633315 ], [ -130.1166819, -25.0633837 ], [ -130.1167012, -25.0634081 ], [ -130.116756900000013, -25.0633837 ], [ -130.1167666, -25.0633384 ] ] ] ] } },
{ "type": "Feature", "properties": { "FID": 544327, "id": 348, "left": -135.0, "top": -25.0, "right": -130.0, "bottom": -30.0, "row_index": 23, "col_index": 9, "min_lon": -135.0, "min_lat": -30.0, "tile_id": "-135_-30" }, "geometry": { "type": "MultiPolygon", "coordinates": [ [ [ [ -130.0922323, -25.0683423 ], [ -130.0922061, -25.0683451 ], [ -130.0921845, -25.0683563 ], [ -130.092166099999986, -25.0683758 ], [ -130.092187599999988, -25.068387 ], [ -130.092209200000013, -25.068373 ], [ -130.092236899999989, -25.068373 ], [ -130.0922323, -25.0683423 ] ] ] ] } },
{ "type": "Feature", "properties": { "FID": 544328, "id": 348, "left": -135.0, "top": -25.0, "right": -130.0, "bottom": -30.0, "row_index": 23, "col_index": 9, "min_lon": -135.0, "min_lat": -30.0, "tile_id": "-135_-30" }, "geometry": { "type": "MultiPolygon", "coordinates": [ [ [ [ -130.1236025, -25.0672803 ], [ -130.1236255, -25.067269 ], [ -130.1236538, -25.0672386 ], [ -130.1236945, -25.0672322 ], [ -130.1237069, -25.0672097 ], [ -130.1237476, -25.0672033 ], [ -130.1237901, -25.0671777 ], [ -130.1237865, -25.0671344 ], [ -130.1237476, -25.0671312 ], [ -130.1236998, -25.0671007 ], [ -130.1236715, -25.0671136 ], [ -130.123652, -25.0671168 ], [ -130.1236343, -25.0671408 ], [ -130.1236343, -25.0671713 ], [ -130.1236149, -25.0671921 ], [ -130.1235972, -25.0672402 ], [ -130.1235706, -25.0672546 ], [ -130.1235689, -25.0672819 ], [ -130.1235759, -25.0673171 ], [ -130.1236025, -25.0672803 ] ] ] ] } },
{ "type": "Feature", "properties": { "FID": 544329, "id": 348, "left": -135.0, "top": -25.0, "right": -130.0, "bottom": -30.0, "row_index": 23, "col_index": 9, "min_lon": -135.0, "min_lat": -30.0, "tile_id": "-135_-30" }, "geometry": { "type": "MultiPolygon", "coordinates": [ [ [ [ -130.1229994, -25.0660489 ], [ -130.1230319, -25.066036 ], [ -130.123068499999988, -25.0660526 ], [ -130.1230909, -25.066082 ], [ -130.123099, -25.0661097 ], [ -130.1231031, -25.0661336 ], [ -130.123143700000014, -25.0661428 ], [ -130.1231823, -25.0661502 ], [ -130.123208799999986, -25.0661925 ], [ -130.123208799999986, -25.066233 ], [ -130.1232474, -25.0661999 ], [ -130.123286, -25.0662054 ], [ -130.1233348, -25.0661962 ], [ -130.1233724, -25.0661466 ], [ -130.123347, -25.0661262 ], [ -130.123347, -25.0660931 ], [ -130.1233206, -25.0660692 ], [ -130.1233104, -25.0660213 ], [ -130.123288, -25.0659826 ], [ -130.1232494, -25.0659771 ], [ -130.123208799999986, -25.0659476 ], [ -130.123162, -25.0659513 ], [ -130.1231153, -25.0659513 ], [ -130.1230827, -25.0659771 ], [ -130.1230502, -25.0659734 ], [ -130.1230055, -25.065966 ], [ -130.122985199999988, -25.0659826 ], [ -130.12296280000001, -25.0659826 ], [ -130.12296280000001, -25.0660084 ], [ -130.1229425, -25.0660047 ], [ -130.1229099, -25.0659992 ], [ -130.122885599999989, -25.0660268 ], [ -130.12285510000001, -25.0660544 ], [ -130.12281440000001, -25.0661097 ], [ -130.1227778, -25.0661649 ], [ -130.122739200000012, -25.0662146 ], [ -130.1227087, -25.0662625 ], [ -130.1227595, -25.066292 ], [ -130.1228083, -25.066292 ], [ -130.122836799999988, -25.0662312 ], [ -130.1228734, -25.0661888 ], [ -130.1228815, -25.0661281 ], [ -130.1229181, -25.0660839 ], [ -130.122946500000012, -25.0660415 ], [ -130.122970900000013, -25.0660342 ], [ -130.1229994, -25.0660489 ] ] ] ] } },
{ "type": "Feature", "properties": { "FID": 544330, "id": 348, "left": -135.0, "top": -25.0, "right": -130.0, "bottom": -30.0, "row_index": 23, "col_index": 9, "min_lon": -135.0, "min_lat": -30.0, "tile_id": "-135_-30" }, "geometry": { "type": "MultiPolygon", "coordinates": [ [ [ [ -130.122788, -25.065839 ], [ -130.1227697, -25.0658813 ], [ -130.1227656, -25.0659366 ], [ -130.122779900000012, -25.0659863 ], [ -130.1228063, -25.0659863 ], [ -130.1228266, -25.066001 ], [ -130.122861199999988, -25.0659716 ], [ -130.122863200000012, -25.0659311 ], [ -130.1228917, -25.0659292 ], [ -130.1229303, -25.0658887 ], [ -130.1229343, -25.0658335 ], [ -130.1229404, -25.0657746 ], [ -130.122920099999988, -25.0657304 ], [ -130.122863200000012, -25.065758 ], [ -130.122820499999989, -25.0657966 ], [ -130.122788, -25.065839 ] ] ] ] } },
{ "type": "Feature", "properties": { "FID": 646552, "id": 348, "left": -135.0, "top": -25.0, "right": -130.0, "bottom": -30.0, "row_index": 23, "col_index": 9, "min_lon": -135.0, "min_lat": -30.0, "tile_id": "-135_-30" }, "geometry": { "type": "MultiPolygon", "coordinates": [ [ [ [ -130.1128268, -25.0568522 ], [ -130.1128445, -25.0568637 ], [ -130.112864300000012, -25.0568725 ], [ -130.1128831, -25.0568665 ], [ -130.1128931, -25.056854 ], [ -130.1129119, -25.0568571 ], [ -130.112949500000013, -25.0568653 ], [ -130.112975299999988, -25.056854 ], [ -130.112974900000012, -25.0568133 ], [ -130.1129518, -25.0568051 ], [ -130.1129478, -25.0567963 ], [ -130.112989700000014, -25.056772 ], [ -130.1129656, -25.0567374 ], [ -130.1129391, -25.0567258 ], [ -130.112932699999988, -25.0567623 ], [ -130.1129159, -25.0567845 ], [ -130.1129022, -25.0567678 ], [ -130.112890099999987, -25.0567468 ], [ -130.1128747, -25.0567356 ], [ -130.1128455, -25.0567289 ], [ -130.1128539, -25.0567671 ], [ -130.1128673, -25.0567869 ], [ -130.11287, -25.056813 ], [ -130.112835100000012, -25.0568324 ], [ -130.1128268, -25.0568522 ] ] ] ] } },
{ "type": "Feature", "properties": { "FID": 740072, "id": 348, "left": -135.0, "top": -25.0, "right": -130.0, "bottom": -30.0, "row_index": 23, "col_index": 9, "min_lon": -135.0, "min_lat": -30.0, "tile_id": "-135_-30" }, "geometry": { "type": "MultiPolygon", "coordinates": [ [ [ [ -130.102255500000012, -25.0793617 ], [ -130.1022045, -25.0794012 ], [ -130.1021891, -25.0794771 ], [ -130.10222060000001, -25.0795379 ], [ -130.1022595, -25.0795348 ], [ -130.1022481, -25.0794947 ], [ -130.1023138, -25.0794219 ], [ -130.10228570000001, -25.0793617 ], [ -130.102255500000012, -25.0793617 ] ] ] ] } },
{ "type": "Feature", "properties": { "FID": 740073, "id": 348, "left": -135.0, "top": -25.0, "right": -130.0, "bottom": -30.0, "row_index": 23, "col_index": 9, "min_lon": -135.0, "min_lat": -30.0, "tile_id": "-135_-30" }, "geometry": { "type": "MultiPolygon", "coordinates": [ [ [ [ -130.108497, -25.0780608 ], [ -130.1084648, -25.0780827 ], [ -130.1084822, -25.0781106 ], [ -130.108480899999989, -25.078158 ], [ -130.1085426, -25.0782005 ], [ -130.108566700000011, -25.0781704 ], [ -130.1085409, -25.0781392 ], [ -130.1085292, -25.0780872 ], [ -130.108497, -25.0780608 ] ] ] ] } },
{ "type": "Feature", "properties": { "FID": 740074, "id": 348, "left": -135.0, "top": -25.0, "right": -130.0, "bottom": -30.0, "row_index": 23, "col_index": 9, "min_lon": -135.0, "min_lat": -30.0, "tile_id": "-135_-30" }, "geometry": { "type": "MultiPolygon", "coordinates": [ [ [ [ -130.1127751, -25.0771037 ], [ -130.112753700000013, -25.0771194 ], [ -130.112755, -25.0771535 ], [ -130.1127979, -25.0772033 ], [ -130.1128529, -25.0772215 ], [ -130.1128529, -25.0771826 ], [ -130.1128019, -25.0771012 ], [ -130.1127751, -25.0771037 ] ] ] ] } },
{ "type": "Feature", "properties": { "FID": 762591, "id": 348, "left": -135.0, "top": -25.0, "right": -130.0, "bottom": -30.0, "row_index": 23, "col_index": 9, "min_lon": -135.0, "min_lat": -30.0, "tile_id": "-135_-30" }, "geometry": { "type": "MultiPolygon", "coordinates": [ [ [ [ -130.0973244, -25.078837 ], [ -130.0972735, -25.0788564 ], [ -130.0972735, -25.0788831 ], [ -130.0973217, -25.0789026 ], [ -130.0973807, -25.0788928 ], [ -130.0974263, -25.0788321 ], [ -130.0974022, -25.078769 ], [ -130.0973351, -25.078769 ], [ -130.0973244, -25.078837 ] ] ] ] } }
]
}
