{
"type": "FeatureCollection",
"name": "-135_-80",
"crs": { "type": "name", "properties": { "name": "urn:ogc:def:crs:OGC:1.3:CRS84" } },
"xy_coordinate_resolution": 1e-15,
"features": [
{ "type": "Feature", "properties": { "FID": 307096, "id": 358, "left": -135.0, "top": -75.0, "right": -130.0, "bottom": -80.0, "row_index": 33, "col_index": 9, "min_lon": -135.0, "min_lat": -80.0, "tile_id": "-135_-80" }, "geometry": { "type": "MultiPolygon", "coordinates": [ [ [ [ -130.0, -75.0 ], [ -130.0, -80.0 ], [ -135.0, -80.0 ], [ -135.0, -75.0 ], [ -130.0, -75.0 ] ] ] ] } }
]
}
