{
"type": "FeatureCollection",
"name": "-140_-90",
"crs": { "type": "name", "properties": { "name": "urn:ogc:def:crs:OGC:1.3:CRS84" } },
"xy_coordinate_resolution": 1e-15,
"features": [
{ "type": "Feature", "properties": { "FID": 307096, "id": 324, "left": -140.0, "top": -85.0, "right": -135.0, "bottom": -90.0, "row_index": 35, "col_index": 8, "min_lon": -140.0, "min_lat": -90.0, "tile_id": "-140_-90" }, "geometry": { "type": "MultiPolygon", "coordinates": [ [ [ [ -136.0, -90.0 ], [ -137.0, -90.0 ], [ -138.0, -90.0 ], [ -139.0, -90.0 ], [ -140.0, -90.0 ], [ -140.0, -85.0 ], [ -135.0, -85.0 ], [ -135.0, -90.0 ], [ -136.0, -90.0 ] ] ] ] } }
]
}
