{
"type": "FeatureCollection",
"name": "-140_-75",
"crs": { "type": "name", "properties": { "name": "urn:ogc:def:crs:OGC:1.3:CRS84" } },
"xy_coordinate_resolution": 1e-15,
"features": [
{ "type": "Feature", "properties": { "FID": 307096, "id": 321, "left": -140.0, "top": -70.0, "right": -135.0, "bottom": -75.0, "row_index": 32, "col_index": 8, "min_lon": -140.0, "min_lat": -75.0, "tile_id": "-140_-75" }, "geometry": { "type": "MultiPolygon", "coordinates": [ [ [ [ -136.9670382, -74.9993784 ], [ -136.964396599999986, -74.998425 ], [ -136.9615967, -74.9978529 ], [ -136.9592582, -74.9976022 ], [ -136.9566322, -74.9967571 ], [ -136.9567342, -74.9959422 ], [ -136.954194300000012, -74.9957476 ], [ -136.9516256, -74.9953361 ], [ -136.9493022, -74.9951938 ], [ -136.9461133, -74.994842 ], [ -136.943588, -74.9947556 ], [ -136.9408177, -74.9944001 ], [ -136.9373985, -74.9938874 ], [ -136.93794840000001, -74.9932856 ], [ -136.9414419, -74.9927665 ], [ -136.940722, -74.9920674 ], [ -136.9373316, -74.9917714 ], [ -136.933871, -74.9909335 ], [ -136.9322018, -74.9893743 ], [ -136.931439899999987, -74.9883498 ], [ -136.9302601, -74.9873291 ], [ -136.9256303, -74.9871523 ], [ -136.923078, -74.9868489 ], [ -136.918448399999988, -74.9866722 ], [ -136.9132124, -74.9866633 ], [ -136.908004299999988, -74.9868711 ], [ -136.902161299999989, -74.98703 ], [ -136.8948747, -74.9873639 ], [ -136.8890178, -74.9874141 ], [ -136.882889799999987, -74.986978 ], [ -136.8778011, -74.9864786 ], [ -136.872280600000011, -74.9858742 ], [ -136.8686365, -74.9851996 ], [ -136.8681226, -74.9844443 ], [ -136.8671497, -74.9833671 ], [ -136.8636134, -74.9818775 ], [ -136.8571368, -74.9803041 ], [ -136.8528469, -74.9794719 ], [ -136.8496094, -74.9786851 ], [ -136.8487058, -74.97815 ], [ -136.848827300000011, -74.9774436 ], [ -136.8491507, -74.9766812 ], [ -136.850135, -74.9761845 ], [ -136.852359799999988, -74.975569 ], [ -136.851631700000013, -74.9747611 ], [ -136.851334900000012, -74.9740582 ], [ -136.8499864, -74.9733098 ], [ -136.852224299999989, -74.9728026 ], [ -136.8552312, -74.9734286 ], [ -136.8598423, -74.9734983 ], [ -136.8616621, -74.9729945 ], [ -136.863265899999988, -74.9724384 ], [ -136.861903500000011, -74.9715817 ], [ -136.8575888, -74.9705327 ], [ -136.8539082, -74.9695327 ], [ -136.8542448, -74.9688787 ], [ -136.8543254, -74.967847 ], [ -136.8525999, -74.9674274 ], [ -136.8495944, -74.9668014 ], [ -136.8455243, -74.9660215 ], [ -136.842546199999987, -74.9656123 ], [ -136.8401748, -74.9650352 ], [ -136.8369548, -74.9643566 ], [ -136.8370765, -74.9636502 ], [ -136.839098, -74.9630907 ], [ -136.841510199999988, -74.9623109 ], [ -136.8445551, -74.9615801 ], [ -136.841483899999986, -74.960412 ], [ -136.8379008, -74.9601706 ], [ -136.8339401, -74.9602578 ], [ -136.8303838, -74.960233 ], [ -136.825197300000013, -74.9605473 ], [ -136.8195924, -74.9608649 ], [ -136.816629299999988, -74.9605637 ], [ -136.8156088, -74.9590529 ], [ -136.81258, -74.9582095 ], [ -136.810641800000013, -74.9577371 ], [ -136.8076134, -74.9568938 ], [ -136.8071038, -74.9561383 ], [ -136.8059878, -74.9555506 ], [ -136.8065282, -74.9548408 ], [ -136.8062472, -74.9542463 ], [ -136.8038264, -74.953235 ], [ -136.8019204, -74.9512973 ], [ -136.8013848, -74.950325 ], [ -136.8017232, -74.9496711 ], [ -136.800503, -74.9482161 ], [ -136.7993223, -74.9470863 ], [ -136.7990021, -74.9461665 ], [ -136.7996186, -74.9454357 ], [ -136.802062799999987, -74.9449274 ], [ -136.8053528, -74.9449412 ], [ -136.8094106, -74.9448265 ], [ -136.813286799999986, -74.9445098 ], [ -136.8143275, -74.9440536 ], [ -136.8134412, -74.9432064 ], [ -136.8124857, -74.9417899 ], [ -136.815442600000011, -74.9416435 ], [ -136.8179552, -74.9417041 ], [ -136.8220317, -74.9417519 ], [ -136.824817200000012, -74.9414846 ], [ -136.824868900000013, -74.9406296 ], [ -136.8254048, -74.9398927 ], [ -136.8270302, -74.939106 ], [ -136.8268091, -74.9385789 ], [ -136.8226439, -74.9377994 ], [ -136.822865400000012, -74.9373876 ], [ -136.822962499999988, -74.9372067 ], [ -136.824466199999989, -74.9367059 ], [ -136.8253249, -74.9360477 ], [ -136.8257908, -74.9347417 ], [ -136.8273043, -74.9343222 ], [ -136.8307648, -74.9331947 ], [ -136.8306849, -74.9325443 ], [ -136.831411300000013, -74.9320905 ], [ -136.8317654, -74.9311517 ], [ -136.831040300000012, -74.9303438 ], [ -136.831404099999986, -74.9294863 ], [ -136.8297117, -74.9284423 ], [ -136.829167899999987, -74.9278364 ], [ -136.8287458, -74.9269446 ], [ -136.8291494, -74.9264123 ], [ -136.829362300000014, -74.9255966 ], [ -136.830411, -74.9252217 ], [ -136.830241199999989, -74.9238396 ], [ -136.829305299999987, -74.9225858 ], [ -136.8312511, -74.9218779 ], [ -136.8321086, -74.9212196 ], [ -136.835544700000014, -74.921191 ], [ -136.8420945, -74.9210549 ], [ -136.843454900000012, -74.9206772 ], [ -136.844321900000011, -74.9201003 ], [ -136.8444025, -74.9194892 ], [ -136.8449267, -74.918671 ], [ -136.845934199999988, -74.9179707 ], [ -136.84792920000001, -74.9176691 ], [ -136.8498936, -74.9171236 ], [ -136.85122290000001, -74.916502 ], [ -136.8510013, -74.9159749 ], [ -136.8512025, -74.9150779 ], [ -136.8495202, -74.9141155 ], [ -136.8479189, -74.9138034 ], [ -136.8450484, -74.9133392 ], [ -136.8446658, -74.9127727 ], [ -136.8462671, -74.9118233 ], [ -136.84708280000001, -74.9095784 ], [ -136.8471736, -74.9090486 ], [ -136.848985699999986, -74.9085451 ], [ -136.8510599, -74.9076325 ], [ -136.8503047, -74.9065808 ], [ -136.849942199999987, -74.9061769 ], [ -136.848915299999987, -74.9054531 ], [ -136.8478639, -74.9050729 ], [ -136.847619, -74.9050123 ], [ -136.846308599999986, -74.9047902 ], [ -136.8459284, -74.9046974 ], [ -136.8454213, -74.9043129 ], [ -136.8451585, -74.9041954 ], [ -136.8450097, -74.9040647 ], [ -136.844316099999986, -74.9038618 ], [ -136.843877099999986, -74.9037893 ], [ -136.843394, -74.9037383 ], [ -136.8428886, -74.9037054 ], [ -136.8423694, -74.9037001 ], [ -136.8418599, -74.9036736 ], [ -136.8403768, -74.9035446 ], [ -136.837941199999989, -74.903303 ], [ -136.8370003, -74.903186 ], [ -136.8365612, -74.9031122 ], [ -136.836193, -74.903016 ], [ -136.835378600000013, -74.902848 ], [ -136.8344912, -74.9027056 ], [ -136.8330512, -74.902546 ], [ -136.8315891, -74.9024058 ], [ -136.830578300000013, -74.9023387 ], [ -136.830063, -74.9023244 ], [ -136.82902150000001, -74.9023478 ], [ -136.827501500000011, -74.9024366 ], [ -136.825944099999987, -74.9024816 ], [ -136.824923500000011, -74.9025349 ], [ -136.824427500000013, -74.9025787 ], [ -136.8239161, -74.9025964 ], [ -136.82339540000001, -74.9025783 ], [ -136.8224344, -74.9024761 ], [ -136.8220236, -74.9023918 ], [ -136.821782899999988, -74.9022721 ], [ -136.8216659, -74.9021393 ], [ -136.8219895, -74.9020322 ], [ -136.8227842, -74.9018592 ], [ -136.822861, -74.901724 ], [ -136.822847, -74.9015891 ], [ -136.8227104, -74.9014564 ], [ -136.8227209, -74.9013212 ], [ -136.8231673, -74.9007911 ], [ -136.8231654, -74.9006554 ], [ -136.823264599999987, -74.900522 ], [ -136.8235817, -74.900262 ], [ -136.824849, -74.8993729 ], [ -136.8255313, -74.8990061 ], [ -136.825859900000012, -74.8989003 ], [ -136.826658900000012, -74.8987246 ], [ -136.827592900000013, -74.898608 ], [ -136.828863399999989, -74.8983701 ], [ -136.8296245, -74.8981864 ], [ -136.830050699999987, -74.8977954 ], [ -136.8305822, -74.8975618 ], [ -136.8317936, -74.8973045 ], [ -136.8325266, -74.8971127 ], [ -136.8325695, -74.8968415 ], [ -136.8321458, -74.896311 ], [ -136.8321616, -74.8960394 ], [ -136.8322852, -74.8959058 ], [ -136.8324911, -74.8957824 ], [ -136.832796699999989, -74.895671 ], [ -136.833583800000014, -74.8953199 ], [ -136.8348977, -74.8948992 ], [ -136.835411599999986, -74.8946637 ], [ -136.836021100000011, -74.8942879 ], [ -136.8363704, -74.894032 ], [ -136.836623, -74.8937699 ], [ -136.83689050000001, -74.8933688 ], [ -136.8377448, -74.8927277 ], [ -136.838439, -74.8923627 ], [ -136.839043, -74.8921418 ], [ -136.8401653, -74.8916842 ], [ -136.8405941, -74.8914379 ], [ -136.8410247, -74.8910469 ], [ -136.841381, -74.8905112 ], [ -136.8416124, -74.8896993 ], [ -136.8420629, -74.8893106 ], [ -136.842707, -74.8889396 ], [ -136.8429674, -74.8888209 ], [ -136.8432933, -74.888717 ], [ -136.8437743, -74.888476 ], [ -136.846556099999987, -74.886572 ], [ -136.8472602, -74.8862107 ], [ -136.8475832, -74.8861037 ], [ -136.8478436, -74.8859862 ], [ -136.8482669, -74.8857374 ], [ -136.851035599999989, -74.8838341 ], [ -136.8515262, -74.8835943 ], [ -136.8518267, -74.8834842 ], [ -136.8525612, -74.8832917 ], [ -136.8535403, -74.8829742 ], [ -136.853919, -74.882882 ], [ -136.854354, -74.8828072 ], [ -136.85469710000001, -74.8827051 ], [ -136.854959900000011, -74.8825882 ], [ -136.855368199999987, -74.8823383 ], [ -136.857917500000013, -74.8805578 ], [ -136.8586032, -74.8801921 ], [ -136.8599505, -74.8797799 ], [ -136.860871300000014, -74.8794506 ], [ -136.8615475, -74.8792451 ], [ -136.8619234, -74.879151 ], [ -136.86329, -74.8789543 ], [ -136.8637017, -74.8788714 ], [ -136.86404730000001, -74.8787699 ], [ -136.8645851, -74.878538 ], [ -136.8650054, -74.8782886 ], [ -136.8653191, -74.8780304 ], [ -136.865422700000011, -74.877897 ], [ -136.8654012, -74.8776263 ], [ -136.865306, -74.8774927 ], [ -136.8651039, -74.8773676 ], [ -136.8645286, -74.8771413 ], [ -136.863446900000014, -74.876847 ], [ -136.8620278, -74.8766798 ], [ -136.8586363, -74.876334 ], [ -136.8581749, -74.8762732 ], [ -136.8577481, -74.8761948 ], [ -136.8569585, -74.876019 ], [ -136.856544899999989, -74.8757703 ], [ -136.8553569, -74.8755069 ], [ -136.8537503, -74.8749737 ], [ -136.85324030000001, -74.8747372 ], [ -136.8529323, -74.8746271 ], [ -136.852852, -74.8744933 ], [ -136.852691099999987, -74.8743634 ], [ -136.852181300000012, -74.8741283 ], [ -136.851328099999989, -74.8739728 ], [ -136.850974799999989, -74.8738727 ], [ -136.847593499999988, -74.8735228 ], [ -136.846188500000011, -74.8733464 ], [ -136.844522399999988, -74.8730217 ], [ -136.8435393, -74.8727066 ], [ -136.8433713, -74.8725774 ], [ -136.8422146, -74.8723054 ], [ -136.8407913, -74.872138 ], [ -136.8403415, -74.8720701 ], [ -136.8399432, -74.8719825 ], [ -136.8395026, -74.8719094 ], [ -136.8398765, -74.8711014 ], [ -136.8403386, -74.8705718 ], [ -136.840314400000011, -74.8704357 ], [ -136.8404088, -74.870166 ], [ -136.840382299999987, -74.8700304 ], [ -136.8401878, -74.8699046 ], [ -136.839916100000011, -74.8697885 ], [ -136.839612, -74.8695291 ], [ -136.839401, -74.8689899 ], [ -136.8391212, -74.8685888 ], [ -136.8390393, -74.8681817 ], [ -136.8390796, -74.8679111 ], [ -136.839158700000013, -74.8677766 ], [ -136.8394329, -74.867515 ], [ -136.8406391, -74.8666181 ], [ -136.840780099999989, -74.8663499 ], [ -136.8407048, -74.8662161 ], [ -136.8404983, -74.8660911 ], [ -136.840408599999989, -74.865821 ], [ -136.8404607, -74.8656861 ], [ -136.840606400000013, -74.8655555 ], [ -136.841046799999987, -74.8653098 ], [ -136.84162950000001, -74.8650853 ], [ -136.8418696, -74.8649642 ], [ -136.842713, -74.8644685 ], [ -136.843445800000012, -74.8641096 ], [ -136.8433928, -74.8638385 ], [ -136.843261399999989, -74.8637071 ], [ -136.842975200000012, -74.8635923 ], [ -136.8428051, -74.8634651 ], [ -136.8425575, -74.8633449 ], [ -136.8424359, -74.8632134 ], [ -136.8421933, -74.8630944 ], [ -136.8415446, -74.8628821 ], [ -136.8409821, -74.8626525 ], [ -136.8408048, -74.8625259 ], [ -136.8402869, -74.8625194 ], [ -136.8400777, -74.8622535 ], [ -136.839703500000013, -74.8620006 ], [ -136.8392634, -74.8616098 ], [ -136.8390178, -74.8613462 ], [ -136.838867099999987, -74.8610772 ], [ -136.8386166, -74.8608136 ], [ -136.8381048, -74.8605765 ], [ -136.8379033, -74.8604527 ], [ -136.8378377, -74.8603175 ], [ -136.8376821, -74.8601876 ], [ -136.837594700000011, -74.8600545 ], [ -136.8369166, -74.8595409 ], [ -136.8367877, -74.8594088 ], [ -136.836725199999989, -74.8591392 ], [ -136.8367796, -74.8590036 ], [ -136.8370266, -74.8587403 ], [ -136.8387931, -74.8574635 ], [ -136.839180699999986, -74.8570684 ], [ -136.8392131, -74.8569337 ], [ -136.838997, -74.8565309 ], [ -136.8389559, -74.8563955 ], [ -136.838985799999989, -74.8562601 ], [ -136.8390943, -74.8561267 ], [ -136.839568500000013, -74.8557392 ], [ -136.8397883, -74.8554742 ], [ -136.839779, -74.8553391 ], [ -136.839377899999988, -74.8549455 ], [ -136.8392005, -74.8546775 ], [ -136.8392255, -74.8545422 ], [ -136.8394822, -74.8542788 ], [ -136.841813699999989, -74.8526233 ], [ -136.8422258, -74.8522306 ], [ -136.8423649, -74.851689 ], [ -136.8423018, -74.8515545 ], [ -136.8421172, -74.8514273 ], [ -136.8423517, -74.8510245 ], [ -136.842362900000012, -74.8506179 ], [ -136.8423022, -74.8504827 ], [ -136.841993699999989, -74.8502247 ], [ -136.8439266, -74.848819 ], [ -136.844338599999986, -74.8484263 ], [ -136.8444596, -74.848157 ], [ -136.844511899999986, -74.8478857 ], [ -136.8444634, -74.8477498 ], [ -136.8442838, -74.8476239 ], [ -136.844230399999987, -74.8474879 ], [ -136.844246, -74.8472176 ], [ -136.8439835, -74.8469548 ], [ -136.8437652, -74.8468317 ], [ -136.843791399999986, -74.8462886 ], [ -136.844067700000011, -74.8460276 ], [ -136.844415700000013, -74.8457718 ], [ -136.8460519, -74.8446273 ], [ -136.8464817, -74.8443804 ], [ -136.8470308, -74.8441491 ], [ -136.8477789, -74.8439628 ], [ -136.84819730000001, -74.8438818 ], [ -136.8486888, -74.8438386 ], [ -136.8491225, -74.8437626 ], [ -136.849467299999986, -74.8436611 ], [ -136.8499519, -74.8434227 ], [ -136.8507069, -74.8429169 ], [ -136.8512149, -74.8425317 ], [ -136.8514688, -74.8422689 ], [ -136.8516075, -74.8417274 ], [ -136.8515078, -74.8415938 ], [ -136.85120520000001, -74.8414824 ], [ -136.8509871, -74.8413606 ], [ -136.8506954, -74.8410993 ], [ -136.8504409, -74.8409811 ], [ -136.849911600000013, -74.8405982 ], [ -136.8490955, -74.8402517 ], [ -136.8484204, -74.8397388 ], [ -136.8477222, -74.8393753 ], [ -136.8470269, -74.8391737 ], [ -136.846765299999987, -74.8390562 ], [ -136.8464037, -74.8388025 ], [ -136.846185, -74.8385367 ], [ -136.8462, -74.8384002 ], [ -136.846311, -74.8382687 ], [ -136.84664140000001, -74.8380111 ], [ -136.847068400000012, -74.8377635 ], [ -136.8476177, -74.8375348 ], [ -136.8486619, -74.8372328 ], [ -136.849118800000014, -74.8371687 ], [ -136.8500484, -74.8370482 ], [ -136.8505477, -74.8370107 ], [ -136.8507964, -74.8371027 ], [ -136.851654599999989, -74.8367612 ], [ -136.8518819, -74.8366408 ], [ -136.8520569, -74.8365126 ], [ -136.852258799999987, -74.8362458 ], [ -136.852269, -74.8361106 ], [ -136.8519509, -74.8358527 ], [ -136.85207410000001, -74.8355828 ], [ -136.8520184, -74.8354488 ], [ -136.8522623, -74.8351849 ], [ -136.8523018, -74.8350495 ], [ -136.852265499999987, -74.834914 ], [ -136.8521196, -74.8347827 ], [ -136.8516158, -74.8345463 ], [ -136.8514556, -74.8344177 ], [ -136.8509158, -74.834186 ], [ -136.850714399999987, -74.8340609 ], [ -136.8504424, -74.8337994 ], [ -136.8500735, -74.833704 ], [ -136.8486699, -74.8331326 ], [ -136.8485025, -74.8330046 ], [ -136.847941100000014, -74.8327763 ], [ -136.8474903, -74.8325317 ], [ -136.846845300000012, -74.8323189 ], [ -136.8464597, -74.8320679 ], [ -136.8459427, -74.8320601 ], [ -136.8454629, -74.8318183 ], [ -136.8453174, -74.8316896 ], [ -136.844607599999989, -74.8313268 ], [ -136.844437699999986, -74.8311983 ], [ -136.8439701, -74.8309557 ], [ -136.8437955, -74.8308285 ], [ -136.843543, -74.8305656 ], [ -136.8434389, -74.8302956 ], [ -136.8430557, -74.8300428 ], [ -136.843162, -74.8297736 ], [ -136.8430409, -74.8295044 ], [ -136.8427786, -74.8292403 ], [ -136.84272820000001, -74.8289699 ], [ -136.84257310000001, -74.8287023 ], [ -136.842131200000011, -74.8281708 ], [ -136.8418426, -74.8279114 ], [ -136.8416269, -74.8277877 ], [ -136.84153950000001, -74.8276534 ], [ -136.841498800000011, -74.8273816 ], [ -136.840597, -74.8267471 ], [ -136.840157799999986, -74.8263564 ], [ -136.8400586, -74.8254078 ], [ -136.8399618, -74.8251371 ], [ -136.8402506, -74.8244624 ], [ -136.84013680000001, -74.8243315 ], [ -136.8401053, -74.8241948 ], [ -136.8395922, -74.8241767 ], [ -136.839607300000011, -74.8240402 ], [ -136.8398488, -74.823638 ], [ -136.8398812, -74.8235033 ], [ -136.8401102, -74.8232382 ], [ -136.8407828, -74.8227236 ], [ -136.8422271, -74.8217063 ], [ -136.8424881, -74.8214429 ], [ -136.842535199999986, -74.8213093 ], [ -136.8425039, -74.8211738 ], [ -136.84233420000001, -74.8210453 ], [ -136.8421697, -74.8206414 ], [ -136.8415205, -74.8204299 ], [ -136.840938200000011, -74.8202049 ], [ -136.840182199999987, -74.8200192 ], [ -136.8395188, -74.8198103 ], [ -136.8392336, -74.8196969 ], [ -136.8389789, -74.8194333 ], [ -136.8383004, -74.8189217 ], [ -136.8379032, -74.8186715 ], [ -136.837774700000011, -74.8185395 ], [ -136.8376586, -74.8182703 ], [ -136.8375936, -74.8179987 ], [ -136.8376381, -74.8178633 ], [ -136.8375711, -74.817456 ], [ -136.837491199999988, -74.8173222 ], [ -136.8372326, -74.8172053 ], [ -136.8371091, -74.8169356 ], [ -136.837183900000014, -74.8165284 ], [ -136.8371186, -74.8163945 ], [ -136.836917699999987, -74.8162694 ], [ -136.8370827, -74.8160011 ], [ -136.837137500000011, -74.8157304 ], [ -136.837026, -74.8155976 ], [ -136.8363378, -74.8150848 ], [ -136.835457100000013, -74.8145954 ], [ -136.834345, -74.8143109 ], [ -136.8338156, -74.8140765 ], [ -136.832966199999987, -74.8139223 ], [ -136.8326145, -74.8138234 ], [ -136.831707099999988, -74.8136934 ], [ -136.831315100000012, -74.8136045 ], [ -136.830987, -74.8134978 ], [ -136.8308322, -74.8132302 ], [ -136.830490700000013, -74.8129738 ], [ -136.8302897, -74.8127072 ], [ -136.8300671, -74.8125842 ], [ -136.8300609, -74.8123135 ], [ -136.829981, -74.8121784 ], [ -136.82996510000001, -74.8119077 ], [ -136.8298949, -74.8117726 ], [ -136.8296916, -74.8116482 ], [ -136.829921, -74.8112455 ], [ -136.8299314, -74.8111103 ], [ -136.8298374, -74.8108403 ], [ -136.8294522, -74.8104453 ], [ -136.8292707, -74.8103188 ], [ -136.8291645, -74.8100483 ], [ -136.8287871, -74.8097966 ], [ -136.8288684, -74.8096628 ], [ -136.8288811, -74.8095257 ], [ -136.8286607, -74.8092605 ], [ -136.8281582, -74.809024 ], [ -136.8281953, -74.808888 ], [ -136.828122900000011, -74.8087548 ], [ -136.8282341, -74.8084844 ], [ -136.8282053, -74.8083482 ], [ -136.8280021, -74.8082238 ], [ -136.8277827, -74.8076847 ], [ -136.8276908, -74.8075517 ], [ -136.8274731, -74.8074286 ], [ -136.827299, -74.8071612 ], [ -136.8272026, -74.8068906 ], [ -136.8270235, -74.8066232 ], [ -136.8268874, -74.8059457 ], [ -136.8268075, -74.8058107 ], [ -136.826657399999988, -74.8056807 ], [ -136.826224700000012, -74.8054353 ], [ -136.8261473, -74.8053008 ], [ -136.8261724, -74.8051655 ], [ -136.8265122, -74.8047677 ], [ -136.826648, -74.8044996 ], [ -136.82655170000001, -74.804229 ], [ -136.8265412, -74.8038219 ], [ -136.826456400000012, -74.8036869 ], [ -136.8262391, -74.8032847 ], [ -136.8262642, -74.8031495 ], [ -136.8265498, -74.8027482 ], [ -136.8268238, -74.8022114 ], [ -136.8268512, -74.8020754 ], [ -136.8268055, -74.8019401 ], [ -136.8266022, -74.8018144 ], [ -136.826448199999987, -74.8014104 ], [ -136.8259651, -74.8011712 ], [ -136.825651, -74.8006348 ], [ -136.8255203, -74.8005034 ], [ -136.82522130000001, -74.8003926 ], [ -136.8251027, -74.8002604 ], [ -136.825132599999989, -74.8001251 ], [ -136.825268099999988, -74.7999946 ], [ -136.8254724, -74.7998687 ], [ -136.826043, -74.7996431 ], [ -136.8264766, -74.7993962 ], [ -136.827220399999987, -74.7988893 ], [ -136.8275109, -74.7986295 ], [ -136.827602, -74.7984956 ], [ -136.8275976, -74.7983593 ], [ -136.8272518, -74.7978238 ], [ -136.8276165, -74.7972907 ], [ -136.8277922, -74.7967495 ], [ -136.8272799, -74.7967301 ], [ -136.827265899999986, -74.7965952 ], [ -136.8274706, -74.7961914 ], [ -136.8276453, -74.7960632 ], [ -136.8278919, -74.795944 ], [ -136.8287633, -74.7956064 ], [ -136.829097100000013, -74.7955024 ], [ -136.829903699999988, -74.7953337 ], [ -136.8305392, -74.7949628 ], [ -136.8307263, -74.7946962 ], [ -136.8307221, -74.7945612 ], [ -136.830615599999987, -74.7944283 ], [ -136.830626, -74.7942931 ], [ -136.8307244, -74.7941598 ], [ -136.8314575, -74.7935089 ], [ -136.8316793, -74.793107 ], [ -136.8321566, -74.7927195 ], [ -136.832562700000011, -74.7924696 ], [ -136.8330532, -74.7922306 ], [ -136.834011800000013, -74.7919107 ], [ -136.834353099999987, -74.7918086 ], [ -136.8351719, -74.791643 ], [ -136.836334599999986, -74.7910372 ], [ -136.837128400000012, -74.7906868 ], [ -136.8379406, -74.7901883 ], [ -136.8406977, -74.7882842 ], [ -136.84123790000001, -74.7880549 ], [ -136.841584, -74.7879541 ], [ -136.8419958, -74.7878718 ], [ -136.842329299999989, -74.7877679 ], [ -136.8428144, -74.7875276 ], [ -136.8473945, -74.7843558 ], [ -136.847660499999989, -74.784239 ], [ -136.848019099999988, -74.7841412 ], [ -136.8484929, -74.7840879 ], [ -136.8489702, -74.7841434 ], [ -136.849475500000011, -74.7841685 ], [ -136.849493, -74.7840327 ], [ -136.8493115, -74.7839049 ], [ -136.8493683, -74.7836336 ], [ -136.8494374, -74.7833629 ], [ -136.8496877, -74.7830983 ], [ -136.8498157, -74.7828309 ], [ -136.8492999, -74.7828193 ], [ -136.8488594, -74.7824293 ], [ -136.848625199999987, -74.7823084 ], [ -136.8490869, -74.7819197 ], [ -136.849199700000014, -74.7817862 ], [ -136.849307900000014, -74.7815165 ], [ -136.8493552, -74.7812465 ], [ -136.849297, -74.7811107 ], [ -136.849135, -74.7809827 ], [ -136.8490927, -74.7804402 ], [ -136.8488634, -74.7803193 ], [ -136.8484109, -74.77993 ], [ -136.848374799999988, -74.7797946 ], [ -136.848417, -74.7795235 ], [ -136.8483132, -74.7792536 ], [ -136.8477909, -74.7788707 ], [ -136.8472759, -74.7788642 ], [ -136.847210499999989, -74.778729 ], [ -136.8471683, -74.7781865 ], [ -136.8471127, -74.7780513 ], [ -136.8467863, -74.7777948 ], [ -136.846987500000012, -74.7775281 ], [ -136.8470051, -74.7773935 ], [ -136.8465285, -74.7768655 ], [ -136.845963, -74.7764869 ], [ -136.845881, -74.7762161 ], [ -136.8457022, -74.776089 ], [ -136.8454701, -74.775687 ], [ -136.8457623, -74.7754265 ], [ -136.8461926, -74.7751803 ], [ -136.8464956, -74.7750689 ], [ -136.846854, -74.7749711 ], [ -136.8476619, -74.7748042 ], [ -136.8475415, -74.7743987 ], [ -136.8474448, -74.7742658 ], [ -136.846950099999987, -74.7740273 ], [ -136.8465251, -74.77378 ], [ -136.8457479, -74.7736009 ], [ -136.844742700000012, -74.7732913 ], [ -136.843949, -74.7731168 ], [ -136.8435251, -74.7730372 ], [ -136.8417196, -74.7727759 ], [ -136.8413007, -74.7726975 ], [ -136.8405637, -74.7725072 ], [ -136.8396884, -74.7723623 ], [ -136.8377913, -74.7721478 ], [ -136.8334415, -74.7717159 ], [ -136.8325184, -74.7715975 ], [ -136.8320946, -74.7715179 ], [ -136.8317203, -74.7714243 ], [ -136.8314648, -74.7713068 ], [ -136.8311095, -74.7712093 ], [ -136.830309, -74.7710367 ], [ -136.829636099999988, -74.7708311 ], [ -136.8291659, -74.7705899 ], [ -136.8285334, -74.7703757 ], [ -136.8284343, -74.7702421 ], [ -136.8277158, -74.7698813 ], [ -136.8263877, -74.7696754 ], [ -136.8260276, -74.7695779 ], [ -136.825882799999988, -74.7694479 ], [ -136.8258784, -74.7693116 ], [ -136.8261315, -74.7690489 ], [ -136.827547, -74.7680295 ], [ -136.8277387, -74.7677629 ], [ -136.827748899999989, -74.7676264 ], [ -136.827640300000013, -74.7674942 ], [ -136.827619700000014, -74.7674786 ], [ -136.8274688, -74.767365 ], [ -136.827614, -74.7670969 ], [ -136.8276268, -74.7669611 ], [ -136.8274482, -74.7666937 ], [ -136.827568899999989, -74.7664245 ], [ -136.8276018, -74.7661534 ], [ -136.8269909, -74.7654941 ], [ -136.8258788, -74.7650374 ], [ -136.8258387, -74.7647669 ], [ -136.8256529, -74.7645003 ], [ -136.825137500000011, -74.7642652 ], [ -136.8248865, -74.7640023 ], [ -136.824667, -74.7638787 ], [ -136.8252027, -74.7634971 ], [ -136.825312200000013, -74.7634203 ], [ -136.8255859, -74.7632443 ], [ -136.8258418, -74.7631263 ], [ -136.826147600000013, -74.7630181 ], [ -136.8265184, -74.7629234 ], [ -136.8269704, -74.7628563 ], [ -136.8274624, -74.7626178 ], [ -136.8282537, -74.762117 ], [ -136.830071299999986, -74.7608471 ], [ -136.830181900000014, -74.7607694 ], [ -136.831858899999986, -74.7595736 ], [ -136.8320162, -74.759306 ], [ -136.831999700000011, -74.7591704 ], [ -136.831862, -74.7590384 ], [ -136.831843099999986, -74.7589035 ], [ -136.8320745, -74.7583638 ], [ -136.8321972, -74.7582329 ], [ -136.832690500000012, -74.7578459 ], [ -136.8343132, -74.7567018 ], [ -136.8349569, -74.7563321 ], [ -136.835210100000012, -74.7562135 ], [ -136.835525600000011, -74.7561065 ], [ -136.8365411, -74.7556338 ], [ -136.8368439, -74.7555225 ], [ -136.8383767, -74.7551613 ], [ -136.8385845, -74.7551197 ], [ -136.8391858, -74.7549925 ], [ -136.8394987, -74.7548849 ], [ -136.839749399999988, -74.7547656 ], [ -136.8403458, -74.7543893 ], [ -136.8406353, -74.7541295 ], [ -136.8407479, -74.7540017 ], [ -136.840785, -74.7538613 ], [ -136.8407008, -74.75359 ], [ -136.8409221, -74.7530517 ], [ -136.8408618, -74.7529165 ], [ -136.8406618, -74.7527927 ], [ -136.840445, -74.752253 ], [ -136.8403242, -74.7521203 ], [ -136.8399667, -74.7520221 ], [ -136.839473, -74.7517837 ], [ -136.8391748, -74.7516729 ], [ -136.83926550000001, -74.751539 ], [ -136.8392451, -74.7511321 ], [ -136.8387578, -74.7503284 ], [ -136.8388026, -74.7500579 ], [ -136.8391316, -74.7493849 ], [ -136.839153900000014, -74.749249 ], [ -136.8390889, -74.7491151 ], [ -136.8388147, -74.7490003 ], [ -136.8380166, -74.7484994 ], [ -136.8376862, -74.7482429 ], [ -136.83706620000001, -74.7480254 ], [ -136.8367065, -74.747928 ], [ -136.836415499999987, -74.7478152 ], [ -136.8364039, -74.7476796 ], [ -136.8362206, -74.7475525 ], [ -136.8361387, -74.7474194 ], [ -136.835416400000014, -74.74706 ], [ -136.8345196, -74.7469254 ], [ -136.8326463, -74.7466999 ], [ -136.831761199999988, -74.7465608 ], [ -136.830675500000012, -74.7462716 ], [ -136.83031410000001, -74.7460186 ], [ -136.8300137, -74.7459085 ], [ -136.829844900000012, -74.7457799 ], [ -136.8292609, -74.7455563 ], [ -136.828756, -74.7455235 ], [ -136.828241600000013, -74.7455131 ], [ -136.8272141, -74.7455223 ], [ -136.8251977, -74.7456385 ], [ -136.824171299999989, -74.7456567 ], [ -136.8226459, -74.7455914 ], [ -136.8221347, -74.7455668 ], [ -136.8221222, -74.7455665 ], [ -136.8216223, -74.7455519 ], [ -136.8211105, -74.7455633 ], [ -136.8200859, -74.745536 ], [ -136.819572, -74.7455492 ], [ -136.8191072, -74.7456069 ], [ -136.8171266, -74.7457591 ], [ -136.8166105, -74.7457743 ], [ -136.8161164, -74.7458111 ], [ -136.8157181, -74.7458964 ], [ -136.8152189, -74.7459306 ], [ -136.813673, -74.7459371 ], [ -136.8131792, -74.7459764 ], [ -136.812891400000012, -74.7460902 ], [ -136.8117297, -74.7463591 ], [ -136.811241, -74.7464009 ], [ -136.8103606, -74.7465421 ], [ -136.809869600000013, -74.7465845 ], [ -136.809052900000012, -74.7467501 ], [ -136.808131, -74.7468698 ], [ -136.8077705, -74.7469669 ], [ -136.8073341, -74.747039 ], [ -136.8065454, -74.7472151 ], [ -136.806069900000011, -74.7472652 ], [ -136.8052759, -74.7474388 ], [ -136.804374700000011, -74.7475698 ], [ -136.8038071, -74.7479484 ], [ -136.8035123, -74.7482081 ], [ -136.803362, -74.7484763 ], [ -136.803418599999986, -74.748746 ], [ -136.8033668, -74.7488821 ], [ -136.8031258, -74.7491453 ], [ -136.8024773, -74.7496614 ], [ -136.8022561, -74.749927 ], [ -136.802199300000012, -74.7500619 ], [ -136.802267300000011, -74.7504684 ], [ -136.8021125, -74.7505977 ], [ -136.8018912, -74.7507205 ], [ -136.801357, -74.7509522 ], [ -136.8003606, -74.7510212 ], [ -136.7999137, -74.7510883 ], [ -136.7995129, -74.7511742 ], [ -136.7991748, -74.7512769 ], [ -136.7980217, -74.7517255 ], [ -136.7973651, -74.7520945 ], [ -136.796809599999989, -74.7524748 ], [ -136.7964998, -74.7527334 ], [ -136.7962637, -74.7529978 ], [ -136.7961254, -74.7532665 ], [ -136.7956805, -74.7536568 ], [ -136.7954809, -74.7539216 ], [ -136.7954533, -74.7540575 ], [ -136.79586230000001, -74.7545905 ], [ -136.7959222, -74.7547257 ], [ -136.795931, -74.7548607 ], [ -136.7958545, -74.7549945 ], [ -136.7957021, -74.7551244 ], [ -136.7954708, -74.755246 ], [ -136.7951751, -74.7553579 ], [ -136.7948117, -74.7554531 ], [ -136.7943622, -74.7555195 ], [ -136.7938748, -74.7557591 ], [ -136.7930804, -74.7562605 ], [ -136.7916243, -74.7572761 ], [ -136.791181200000011, -74.7575205 ], [ -136.7905921, -74.7577436 ], [ -136.789766899999989, -74.7579059 ], [ -136.7890602, -74.7581038 ], [ -136.788191899999987, -74.7582517 ], [ -136.7877052, -74.7582928 ], [ -136.7861821, -74.7583585 ], [ -136.7857559, -74.7584381 ], [ -136.782316900000012, -74.7587255 ], [ -136.781923299999988, -74.7588133 ], [ -136.781447500000013, -74.7588645 ], [ -136.780930500000011, -74.7588771 ], [ -136.780428199999989, -74.7588485 ], [ -136.7799752, -74.7587837 ], [ -136.7796276, -74.7586842 ], [ -136.7784407, -74.7584231 ], [ -136.7780953, -74.7583216 ], [ -136.7778285, -74.758206 ], [ -136.7756583, -74.7578396 ], [ -136.7743152, -74.7576355 ], [ -136.7734696, -74.7574811 ], [ -136.773133800000011, -74.7573782 ], [ -136.772922, -74.7572538 ], [ -136.7721347, -74.7570778 ], [ -136.7717874, -74.7569795 ], [ -136.7714919, -74.7568679 ], [ -136.7710715, -74.7567901 ], [ -136.7705583, -74.7567712 ], [ -136.7700405, -74.7567761 ], [ -136.7685057, -74.7568237 ], [ -136.7680058, -74.7568566 ], [ -136.7675791, -74.7569324 ], [ -136.766596099999987, -74.7570159 ], [ -136.7652031, -74.7568416 ], [ -136.7647967, -74.7567584 ], [ -136.764175099999989, -74.7565414 ], [ -136.764013799999987, -74.7564108 ], [ -136.763501600000012, -74.7564009 ], [ -136.763490600000011, -74.7562653 ], [ -136.763706, -74.7555895 ], [ -136.763673, -74.7554534 ], [ -136.7635144, -74.7553248 ], [ -136.7622412, -74.7550906 ], [ -136.761203599999988, -74.7547904 ], [ -136.760999199999986, -74.7546653 ], [ -136.7604809, -74.7546651 ], [ -136.760117799999989, -74.75441 ], [ -136.7598487, -74.7542938 ], [ -136.759496500000012, -74.7541942 ], [ -136.7586933, -74.7540253 ], [ -136.7583577, -74.7539224 ], [ -136.7581822, -74.7537945 ], [ -136.758005, -74.7535271 ], [ -136.757776799999988, -74.7534061 ], [ -136.7574769, -74.7532958 ], [ -136.7567041, -74.7531158 ], [ -136.756359, -74.7530143 ], [ -136.755721, -74.7528005 ], [ -136.7555121, -74.752678 ], [ -136.754991100000012, -74.7526745 ], [ -136.7547869, -74.7525507 ], [ -136.7545204, -74.7524351 ], [ -136.75391110000001, -74.7522159 ], [ -136.7525365, -74.7520273 ], [ -136.751100799999989, -74.7518769 ], [ -136.750912699999986, -74.751864 ], [ -136.7496011, -74.7517827 ], [ -136.74908210000001, -74.751776 ], [ -136.7485771, -74.751805 ], [ -136.7465243, -74.7517665 ], [ -136.7460054, -74.7517809 ], [ -136.745555700000011, -74.7518472 ], [ -136.7450471, -74.7518666 ], [ -136.744550299999986, -74.7519039 ], [ -136.7435266, -74.7519288 ], [ -136.7425754, -74.7520337 ], [ -136.741559, -74.7520802 ], [ -136.741127299999988, -74.7521547 ], [ -136.7406187, -74.7521741 ], [ -136.738619699999987, -74.7523066 ], [ -136.7375979, -74.7523481 ], [ -136.735671700000012, -74.7525433 ], [ -136.7353559, -74.7525854 ], [ -136.7343148, -74.7527378 ], [ -136.7335601, -74.7529237 ], [ -136.732709, -74.7530757 ], [ -136.7319245, -74.7534257 ], [ -136.730752200000012, -74.7538735 ], [ -136.7304186, -74.7539773 ], [ -136.7295905, -74.7541388 ], [ -136.7288883, -74.7543376 ], [ -136.728115800000012, -74.7545179 ], [ -136.7266119, -74.7550675 ], [ -136.72595960000001, -74.7552788 ], [ -136.7255859, -74.7553726 ], [ -136.7251331, -74.7554345 ], [ -136.7243102, -74.7555997 ], [ -136.723852599999987, -74.7556629 ], [ -136.7223933, -74.755796 ], [ -136.7213712, -74.7558374 ], [ -136.720892600000013, -74.7558866 ], [ -136.7195506, -74.7560886 ], [ -136.7191542, -74.7561756 ], [ -136.718272, -74.7563138 ], [ -136.7177809, -74.7563599 ], [ -136.7167641, -74.7564063 ], [ -136.715738, -74.7564343 ], [ -136.714705, -74.7564232 ], [ -136.714205, -74.7563913 ], [ -136.7137318, -74.7563387 ], [ -136.710955899999988, -74.755979 ], [ -136.7105379, -74.7558978 ], [ -136.7094563, -74.7556087 ], [ -136.7092068, -74.7554897 ], [ -136.708868700000011, -74.7552331 ], [ -136.708616799999987, -74.7551147 ], [ -136.7082038, -74.7545835 ], [ -136.7080048, -74.7544596 ], [ -136.7066031, -74.754285 ], [ -136.7056364, -74.754192 ], [ -136.7046259, -74.7541417 ], [ -136.7041107, -74.754147 ], [ -136.703618799999987, -74.7541867 ], [ -136.7025937, -74.7542223 ], [ -136.7020871, -74.7541961 ], [ -136.7011293, -74.7540955 ], [ -136.700613299999986, -74.7540931 ], [ -136.7001347, -74.7541423 ], [ -136.699695, -74.7542135 ], [ -136.699200499999989, -74.7542513 ], [ -136.6981719, -74.7542773 ], [ -136.6971773, -74.7543465 ], [ -136.696299900000014, -74.7542035 ], [ -136.6959316, -74.7541085 ], [ -136.6957277, -74.7539833 ], [ -136.6950052, -74.7537893 ], [ -136.694599399999987, -74.7537073 ], [ -136.6936531, -74.7535994 ], [ -136.6931507, -74.7535669 ], [ -136.6926425, -74.7535478 ], [ -136.6916109, -74.7535692 ], [ -136.690599600000013, -74.7536193 ], [ -136.6881301, -74.7538139 ], [ -136.6876749, -74.7538763 ], [ -136.686218200000013, -74.7540124 ], [ -136.685758, -74.7540748 ], [ -136.685274099999987, -74.7541202 ], [ -136.684260599999988, -74.7541735 ], [ -136.6832904, -74.7542648 ], [ -136.6827824, -74.7542918 ], [ -136.68130450000001, -74.7544127 ], [ -136.6803473, -74.7545122 ], [ -136.6799021, -74.7545784 ], [ -136.6786491, -74.7548185 ], [ -136.6772785, -74.7550083 ], [ -136.6767897, -74.7550536 ], [ -136.675060699999989, -74.7553473 ], [ -136.6745821, -74.7553977 ], [ -136.6741424, -74.7554689 ], [ -136.6733691, -74.755649 ], [ -136.6724174, -74.7557548 ], [ -136.6704526, -74.7559203 ], [ -136.6699462, -74.7559389 ], [ -136.6689892, -74.7560423 ], [ -136.668477700000011, -74.7560597 ], [ -136.667980699999987, -74.756098 ], [ -136.6674663, -74.7561109 ], [ -136.666463599999986, -74.7561756 ], [ -136.6654433, -74.7562122 ], [ -136.664454299999989, -74.7562902 ], [ -136.6634311, -74.7563236 ], [ -136.662936, -74.7563574 ], [ -136.66245760000001, -74.7564104 ], [ -136.661437799999987, -74.7564521 ], [ -136.660522, -74.7565768 ], [ -136.65924050000001, -74.7568049 ], [ -136.6583426, -74.7569378 ], [ -136.6575891, -74.7571228 ], [ -136.656699, -74.7572601 ], [ -136.6552271, -74.75764 ], [ -136.6541846, -74.757941 ], [ -136.6517451, -74.7584415 ], [ -136.6501927, -74.7587989 ], [ -136.648841800000014, -74.7589973 ], [ -136.6459715, -74.7593001 ], [ -136.6455188, -74.7593668 ], [ -136.6445128, -74.7594256 ], [ -136.6440493, -74.7594823 ], [ -136.642044, -74.7593502 ], [ -136.641537199999988, -74.7593226 ], [ -136.6410227, -74.7593131 ], [ -136.6399916, -74.7593208 ], [ -136.6394881, -74.7593451 ], [ -136.6384567, -74.7593503 ], [ -136.6364007, -74.7593997 ], [ -136.6358927, -74.7594278 ], [ -136.6354474, -74.7594965 ], [ -136.6339657, -74.7596126 ], [ -136.6330419, -74.7597341 ], [ -136.6315947, -74.7598774 ], [ -136.631094600000011, -74.7599112 ], [ -136.6295518, -74.7599362 ], [ -136.6290572, -74.7599764 ], [ -136.628599, -74.7600381 ], [ -136.6281041, -74.7600757 ], [ -136.627077899999989, -74.7601058 ], [ -136.625055, -74.7602156 ], [ -136.62403230000001, -74.7602565 ], [ -136.6235376, -74.7602954 ], [ -136.6225225, -74.7603394 ], [ -136.6205132, -74.7604626 ], [ -136.619481, -74.7604824 ], [ -136.6179718, -74.7605717 ], [ -136.617459599999989, -74.7605838 ], [ -136.6164594, -74.760654 ], [ -136.614438799999988, -74.7607631 ], [ -136.613413900000012, -74.7607835 ], [ -136.6124352, -74.7608726 ], [ -136.6109175, -74.7609511 ], [ -136.6098915, -74.7609836 ], [ -136.609402100000011, -74.7610276 ], [ -136.6088934, -74.7610505 ], [ -136.6079216, -74.7611364 ], [ -136.607463599999988, -74.7612006 ], [ -136.6064404, -74.7612376 ], [ -136.6054637, -74.7613222 ], [ -136.6049497, -74.7613414 ], [ -136.604455, -74.7613815 ], [ -136.603428400000013, -74.7613641 ], [ -136.6029222, -74.7613877 ], [ -136.6018896, -74.7614049 ], [ -136.6013838, -74.7614323 ], [ -136.6009022, -74.7614819 ], [ -136.599877, -74.7614773 ], [ -136.5988791, -74.7615467 ], [ -136.5978503, -74.7615773 ], [ -136.596392400000013, -74.7617153 ], [ -136.5953801, -74.7617637 ], [ -136.5948932, -74.7618095 ], [ -136.594450099999989, -74.7618774 ], [ -136.5939581, -74.7619207 ], [ -136.592932600000012, -74.7619596 ], [ -136.5914898, -74.7621039 ], [ -136.5904808, -74.7621605 ], [ -136.589968699999986, -74.7621751 ], [ -136.589473700000013, -74.7622127 ], [ -136.5884403, -74.7622234 ], [ -136.5874394, -74.7622883 ], [ -136.5853899, -74.7623577 ], [ -136.584436899999986, -74.7624619 ], [ -136.5834494, -74.7625388 ], [ -136.582972899999987, -74.7625909 ], [ -136.5819584, -74.7626425 ], [ -136.580925400000012, -74.762657 ], [ -136.57989760000001, -74.7626517 ], [ -136.5794002, -74.7626898 ], [ -136.578886899999986, -74.7626929 ], [ -136.5773633, -74.7627647 ], [ -136.5758217, -74.7628047 ], [ -136.575319, -74.7628391 ], [ -136.574296, -74.76281 ], [ -136.5737801, -74.7628111 ], [ -136.5728502, -74.7626943 ], [ -136.5719619, -74.7625567 ], [ -136.569596600000011, -74.7622832 ], [ -136.568219199999987, -74.7620985 ], [ -136.5677877, -74.7620223 ], [ -136.5655337, -74.7616942 ], [ -136.564729699999987, -74.7615226 ], [ -136.5638672, -74.7613739 ], [ -136.5634924, -74.7612806 ], [ -136.5626794, -74.7611156 ], [ -136.5615717, -74.760831 ], [ -136.5582016, -74.7602036 ], [ -136.5568386, -74.7600149 ], [ -136.5558632, -74.7599252 ], [ -136.554852399999987, -74.7598704 ], [ -136.5543346, -74.759876 ], [ -136.5533223, -74.7598307 ], [ -136.5522905, -74.759808 ], [ -136.5513018, -74.7597312 ], [ -136.5493605, -74.7595492 ], [ -136.5483471, -74.7594924 ], [ -136.54783470000001, -74.7595031 ], [ -136.5473582, -74.7595551 ], [ -136.546937899999989, -74.7596336 ], [ -136.5464639, -74.7596862 ], [ -136.5444623, -74.7598182 ], [ -136.5439858, -74.7598702 ], [ -136.5424869, -74.7599679 ], [ -136.5414568, -74.7599381 ], [ -136.5409414, -74.759943 ], [ -136.539925899999986, -74.7599841 ], [ -136.5389309, -74.7600603 ], [ -136.5384583, -74.7600073 ], [ -136.5379991, -74.759944 ], [ -136.536293699999987, -74.7596398 ], [ -136.535120400000011, -74.7593748 ], [ -136.5347885, -74.7592696 ], [ -136.533994400000012, -74.7590953 ], [ -136.5329897, -74.7587875 ], [ -136.532615099999987, -74.7586942 ], [ -136.5323238, -74.7585816 ], [ -136.531497, -74.7584191 ], [ -136.5304706, -74.7581134 ], [ -136.5297003, -74.7579325 ], [ -136.5290464, -74.7577234 ], [ -136.5285096, -74.7574922 ], [ -136.5270473, -74.7571102 ], [ -136.5263505, -74.756909 ], [ -136.5260451, -74.7568004 ], [ -136.524684799999989, -74.756607 ], [ -136.5242514, -74.7565313 ], [ -136.5238841, -74.756436 ], [ -136.5225519, -74.7562309 ], [ -136.5205148, -74.755815 ], [ -136.5181815, -74.7555247 ], [ -136.5177367, -74.7554574 ], [ -136.5173577, -74.7553653 ], [ -136.516929, -74.7552883 ], [ -136.5160931, -74.7551297 ], [ -136.515380099999987, -74.7549343 ], [ -136.5150698, -74.7548245 ], [ -136.5132098, -74.7545935 ], [ -136.5127719, -74.7545204 ], [ -136.5115687, -74.7542638 ], [ -136.5112086, -74.7541665 ], [ -136.509348499999987, -74.753933 ], [ -136.5084754, -74.7537899 ], [ -136.5081248, -74.7536899 ], [ -136.507314900000011, -74.7535214 ], [ -136.5066234, -74.7533201 ], [ -136.5053805, -74.7530785 ], [ -136.505001600000014, -74.7529864 ], [ -136.5035375, -74.7524288 ], [ -136.5028012, -74.7520704 ], [ -136.5022844, -74.7520835 ], [ -136.5021336, -74.7518151 ], [ -136.5019845, -74.7516856 ], [ -136.4988253, -74.7506136 ], [ -136.498567799999989, -74.7504944 ], [ -136.4984019, -74.7503669 ], [ -136.4977652, -74.7501518 ], [ -136.496778299999988, -74.7498392 ], [ -136.49604930000001, -74.7496484 ], [ -136.4957942, -74.7495285 ], [ -136.4947932, -74.7492199 ], [ -136.4936404, -74.7489494 ], [ -136.492494099999988, -74.7484984 ], [ -136.4921603, -74.7483938 ], [ -136.4917532, -74.7483095 ], [ -136.491308800000013, -74.7482422 ], [ -136.4894335, -74.7480169 ], [ -136.4885282, -74.7478868 ], [ -136.486892899999987, -74.7475543 ], [ -136.4862282, -74.7473483 ], [ -136.4851515, -74.7470567 ], [ -136.4843304, -74.7468915 ], [ -136.483963499999987, -74.7467961 ], [ -136.483728, -74.7466761 ], [ -136.4835549, -74.746548 ], [ -136.483297599999986, -74.7464288 ], [ -136.4826045, -74.7462293 ], [ -136.481739800000014, -74.7458922 ], [ -136.4815499, -74.7457661 ], [ -136.4812904, -74.7456488 ], [ -136.4811183, -74.7453812 ], [ -136.4808205, -74.7451221 ], [ -136.4804632, -74.7450241 ], [ -136.4795862, -74.7448822 ], [ -136.4762379, -74.7445293 ], [ -136.475250499999987, -74.7444508 ], [ -136.474234599999988, -74.7444052 ], [ -136.472176600000012, -74.7443673 ], [ -136.470685800000012, -74.7442616 ], [ -136.4696787, -74.7442057 ], [ -136.469161899999989, -74.7441912 ], [ -136.4681344, -74.7442001 ], [ -136.467623, -74.7441907 ], [ -136.4650708, -74.7440953 ], [ -136.4635514, -74.744021 ], [ -136.4620108, -74.7439776 ], [ -136.4609973, -74.74393 ], [ -136.4579114, -74.7439456 ], [ -136.456367, -74.7439137 ], [ -136.4558644, -74.7439452 ], [ -136.4553517, -74.743948 ], [ -136.4538173, -74.7439935 ], [ -136.4522719, -74.7439763 ], [ -136.4507441, -74.7439148 ], [ -136.4491995, -74.7439053 ], [ -136.4486913, -74.7439291 ], [ -136.4476631, -74.7439052 ], [ -136.446119399999986, -74.7439309 ], [ -136.4445843, -74.7438937 ], [ -136.4435533, -74.7439166 ], [ -136.443053, -74.7439474 ], [ -136.441555599999987, -74.743846 ], [ -136.4410455, -74.7438257 ], [ -136.4405289, -74.7438374 ], [ -136.4390339, -74.7437366 ], [ -136.4385239, -74.7437163 ], [ -136.438004, -74.7437197 ], [ -136.433457800000014, -74.7434867 ], [ -136.4329405, -74.743492 ], [ -136.431419299999988, -74.743422 ], [ -136.430903699999988, -74.743419 ], [ -136.4303956, -74.7433929 ], [ -136.4289253, -74.7432694 ], [ -136.4279201, -74.743205 ], [ -136.427414700000014, -74.7431808 ], [ -136.4263872, -74.7431632 ], [ -136.4249969, -74.7429848 ], [ -136.4237, -74.7427661 ], [ -136.421368199999989, -74.7424755 ], [ -136.4205082, -74.7423262 ], [ -136.4195968, -74.7421978 ], [ -136.417689200000012, -74.7419971 ], [ -136.416695299999986, -74.7419216 ], [ -136.415174400000012, -74.7418515 ], [ -136.4142012, -74.7417638 ], [ -136.4137433, -74.7417015 ], [ -136.4133085, -74.7416275 ], [ -136.412918600000012, -74.7415385 ], [ -136.4125689, -74.7414384 ], [ -136.412276600000013, -74.7413277 ], [ -136.411475599999989, -74.7411569 ], [ -136.4111354, -74.7410541 ], [ -136.410376899999989, -74.7408703 ], [ -136.4095548, -74.7407079 ], [ -136.4079907, -74.7403558 ], [ -136.4067315, -74.7401189 ], [ -136.4055904, -74.739844 ], [ -136.4043996, -74.7394005 ], [ -136.404150499999986, -74.7392831 ], [ -136.403987699999988, -74.7391536 ], [ -136.4037481, -74.7390335 ], [ -136.4034365, -74.7386356 ], [ -136.4030029, -74.7383894 ], [ -136.4028523, -74.7382592 ], [ -136.402696099999986, -74.7379914 ], [ -136.4025311, -74.7378626 ], [ -136.4022842, -74.7377419 ], [ -136.4021434, -74.7376129 ], [ -136.4020356, -74.7373423 ], [ -136.4018729, -74.7372128 ], [ -136.401216799999986, -74.7368458 ], [ -136.400641900000011, -74.7366204 ], [ -136.4002084, -74.7363743 ], [ -136.4000572, -74.7361065 ], [ -136.3997946, -74.7358432 ], [ -136.3988869, -74.7353557 ], [ -136.398255, -74.7351434 ], [ -136.3979985, -74.7350241 ], [ -136.397611, -74.7347745 ], [ -136.396677, -74.7342902 ], [ -136.3960425, -74.7340761 ], [ -136.3946178, -74.7335125 ], [ -136.393952500000012, -74.7333056 ], [ -136.3930665, -74.7329708 ], [ -136.391607599999986, -74.7325872 ], [ -136.3910665, -74.7323564 ], [ -136.3903564, -74.7321632 ], [ -136.3887015, -74.7318391 ], [ -136.3877747, -74.731719 ], [ -136.385884800000014, -74.7315057 ], [ -136.3854389, -74.7314376 ], [ -136.385023600000011, -74.7313583 ], [ -136.3843703, -74.7311481 ], [ -136.3835756, -74.7307986 ], [ -136.3830618, -74.7308108 ], [ -136.382418199999989, -74.7304393 ], [ -136.3821192, -74.7303305 ], [ -136.3818942, -74.7302077 ], [ -136.381339, -74.7299796 ], [ -136.381004600000011, -74.7297219 ], [ -136.3806625, -74.7296198 ], [ -136.3801408, -74.7293863 ], [ -136.379483, -74.7291774 ], [ -136.378272399999986, -74.7285797 ], [ -136.377952, -74.7284742 ], [ -136.377420699999988, -74.7282408 ], [ -136.377093699999989, -74.7279837 ], [ -136.3769599, -74.7277151 ], [ -136.3767856, -74.7275876 ], [ -136.3767732, -74.727452 ], [ -136.3766422, -74.7273204 ], [ -136.3766153, -74.7271849 ], [ -136.376377600000012, -74.7269214 ], [ -136.375973499999986, -74.7266712 ], [ -136.375558399999989, -74.7261395 ], [ -136.3754083, -74.7260105 ], [ -136.3754759, -74.7257401 ], [ -136.3754199, -74.7256047 ], [ -136.3755822, -74.7252006 ], [ -136.3755525, -74.7249281 ], [ -136.375506300000012, -74.724794 ], [ -136.3753729, -74.724663 ], [ -136.375113, -74.7242615 ], [ -136.375115099999988, -74.7239908 ], [ -136.3746711, -74.7234606 ], [ -136.374743599999988, -74.7231901 ], [ -136.374653099999989, -74.7227836 ], [ -136.3744831, -74.7225159 ], [ -136.3743668, -74.7223842 ], [ -136.3741781, -74.7222581 ], [ -136.37403470000001, -74.7219895 ], [ -136.3728056, -74.7213932 ], [ -136.371676, -74.7211156 ], [ -136.3704167, -74.7208804 ], [ -136.3697405, -74.7206766 ], [ -136.3685236, -74.7202396 ], [ -136.367368199999987, -74.7199704 ], [ -136.3667134, -74.7197608 ], [ -136.3648366, -74.7192965 ], [ -136.3642653, -74.7190716 ], [ -136.3636033, -74.7188627 ], [ -136.3628727, -74.7186727 ], [ -136.361684200000013, -74.7184114 ], [ -136.3613713, -74.7183052 ], [ -136.360645299999987, -74.7181127 ], [ -136.36038, -74.7179959 ], [ -136.3602084, -74.717869 ], [ -136.3592026, -74.7175598 ], [ -136.3587877, -74.7174792 ], [ -136.3574492, -74.7172752 ], [ -136.3554173, -74.7168604 ], [ -136.3526527, -74.7165001 ], [ -136.3510192, -74.7161691 ], [ -136.350692, -74.7160656 ], [ -136.349374899999987, -74.715853 ], [ -136.3490263, -74.7157528 ], [ -136.348149799999987, -74.715611 ], [ -136.3456517, -74.7151325 ], [ -136.3442513, -74.7149639 ], [ -136.3413581, -74.7146785 ], [ -136.3408623, -74.7146413 ], [ -136.340355499999987, -74.7146175 ], [ -136.338814500000012, -74.7146136 ], [ -136.3383188, -74.7145776 ], [ -136.3369577, -74.714385 ], [ -136.335536600000012, -74.7142274 ], [ -136.334058199999987, -74.7141079 ], [ -136.3335583, -74.7140796 ], [ -136.3330455, -74.7140693 ], [ -136.332047499999987, -74.7140044 ], [ -136.3272264, -74.7135297 ], [ -136.3262418, -74.7134506 ], [ -136.324724300000014, -74.7133811 ], [ -136.3237307, -74.7133097 ], [ -136.320354, -74.7129796 ], [ -136.3193669, -74.7128999 ], [ -136.318869400000011, -74.7128696 ], [ -136.318354199999987, -74.7128587 ], [ -136.3173258, -74.7128611 ], [ -136.3168154, -74.7128776 ], [ -136.3163289, -74.7128351 ], [ -136.3153948, -74.7127224 ], [ -136.3149592, -74.7126502 ], [ -136.3121588, -74.7120535 ], [ -136.310830900000013, -74.7118452 ], [ -136.310025599999989, -74.7116786 ], [ -136.309748899999988, -74.7115638 ], [ -136.3090737, -74.7113586 ], [ -136.3087899, -74.7112458 ], [ -136.307269, -74.7108812 ], [ -136.3062196, -74.7105829 ], [ -136.3056925, -74.71035 ], [ -136.3049866, -74.710152 ], [ -136.304371300000014, -74.7099356 ], [ -136.303321899999986, -74.709636 ], [ -136.3030024, -74.7095304 ], [ -136.3022633, -74.7091727 ], [ -136.3017125, -74.7089437 ], [ -136.3002986, -74.7085497 ], [ -136.299100399999986, -74.7082939 ], [ -136.298380400000013, -74.7080998 ], [ -136.2980728, -74.7079909 ], [ -136.2968605, -74.707739 ], [ -136.2962143, -74.7075285 ], [ -136.2959545, -74.7074117 ], [ -136.2953225, -74.707196 ], [ -136.295096300000012, -74.7070751 ], [ -136.2947864, -74.7069669 ], [ -136.294136400000014, -74.7065977 ], [ -136.293530800000013, -74.7063787 ], [ -136.2908634, -74.7055531 ], [ -136.290382099999988, -74.7053128 ], [ -136.2900033, -74.705221 ], [ -136.2896767, -74.7051148 ], [ -136.2889027, -74.7049383 ], [ -136.2885547, -74.704838 ], [ -136.288047299999988, -74.7046023 ], [ -136.2871654, -74.7042684 ], [ -136.286537399999986, -74.7038971 ], [ -136.2856199, -74.7035705 ], [ -136.284879, -74.7033823 ], [ -136.2845668, -74.7032747 ], [ -136.2837432, -74.7031119 ], [ -136.2833716, -74.7030181 ], [ -136.281116200000014, -74.702693 ], [ -136.2807446, -74.7025992 ], [ -136.279914100000013, -74.7024396 ], [ -136.2795544, -74.7023426 ], [ -136.2792636, -74.7022291 ], [ -136.278802, -74.7019874 ], [ -136.278466, -74.7018851 ], [ -136.2776946, -74.7017066 ], [ -136.2763962, -74.7014864 ], [ -136.2760199, -74.701394 ], [ -136.2747824, -74.7011491 ], [ -136.2734983, -74.7009263 ], [ -136.2730984, -74.7008403 ], [ -136.2723887, -74.7006449 ], [ -136.2721148, -74.7005294 ], [ -136.2711002, -74.7002243 ], [ -136.270814300000012, -74.7001108 ], [ -136.269953500000014, -74.6999623 ], [ -136.269589200000013, -74.6998665 ], [ -136.269101400000011, -74.6996282 ], [ -136.2685299, -74.6994024 ], [ -136.268301400000013, -74.6992796 ], [ -136.267615799999987, -74.6990802 ], [ -136.266842200000013, -74.698901 ], [ -136.2662159, -74.6986865 ], [ -136.2658025, -74.6984381 ], [ -136.2655144, -74.6983265 ], [ -136.2648077, -74.6978162 ], [ -136.2644765, -74.6974195 ], [ -136.2640776, -74.6971697 ], [ -136.2639744, -74.6970372 ], [ -136.2635658, -74.6967875 ], [ -136.263532700000013, -74.6966526 ], [ -136.2634199, -74.6965202 ], [ -136.2634554, -74.6962487 ], [ -136.2633746, -74.6959779 ], [ -136.26325460000001, -74.6958461 ], [ -136.262876299999988, -74.6957555 ], [ -136.262576200000012, -74.6956447 ], [ -136.261736899999988, -74.6954876 ], [ -136.261396499999989, -74.6953866 ], [ -136.2601693, -74.6951404 ], [ -136.259171900000013, -74.6948307 ], [ -136.2587935, -74.6947388 ], [ -136.258368, -74.6946626 ], [ -136.2574564, -74.6945386 ], [ -136.2564845, -74.694447 ], [ -136.2554773, -74.6943978 ], [ -136.2529152, -74.6944427 ], [ -136.251384699999988, -74.6943939 ], [ -136.2508714, -74.6943982 ], [ -136.249871, -74.6944596 ], [ -136.248397899999986, -74.6943427 ], [ -136.247394500000013, -74.6942794 ], [ -136.244868, -74.6941678 ], [ -136.2433261, -74.6941562 ], [ -136.2428164, -74.6941751 ], [ -136.2417883, -74.6941644 ], [ -136.2407848, -74.6942187 ], [ -136.2398158, -74.6943081 ], [ -136.238804, -74.6943503 ], [ -136.2383159, -74.694396 ], [ -136.2373154, -74.6944561 ], [ -136.236310300000014, -74.6944023 ], [ -136.2352875, -74.6943678 ], [ -136.2342629, -74.6943717 ], [ -136.233236799999986, -74.6943565 ], [ -136.2307901, -74.6941522 ], [ -136.229787, -74.6940926 ], [ -136.229271899999986, -74.6941038 ], [ -136.2282437, -74.694093 ], [ -136.226215200000013, -74.6941749 ], [ -136.225734499999987, -74.6942224 ], [ -136.2247233, -74.694271 ], [ -136.2242101, -74.6942764 ], [ -136.222676, -74.6942416 ], [ -136.22216370000001, -74.6942585 ], [ -136.220670500000011, -74.6941588 ], [ -136.22016, -74.6941374 ], [ -136.2196467, -74.6941415 ], [ -136.217692699999986, -74.6939765 ], [ -136.2166808, -74.6939259 ], [ -136.2151412, -74.6939122 ], [ -136.2115742, -74.6940242 ], [ -136.2105668, -74.6939697 ], [ -136.2090368, -74.6939245 ], [ -136.2085405, -74.6939593 ], [ -136.207001600000012, -74.6939832 ], [ -136.2045975, -74.6942179 ], [ -136.2040877, -74.6942355 ], [ -136.202627400000011, -74.6943658 ], [ -136.2008059, -74.6946165 ], [ -136.199502700000011, -74.6948342 ], [ -136.1980781, -74.6949873 ], [ -136.1970642, -74.6950351 ], [ -136.195672699999989, -74.6952092 ], [ -136.193736199999989, -74.6953868 ], [ -136.1927303, -74.6954442 ], [ -136.192285, -74.6955119 ], [ -136.1915488, -74.6957015 ], [ -136.1907232, -74.6958635 ], [ -136.1889295, -74.6963493 ], [ -136.1881113, -74.6965131 ], [ -136.1874244, -74.6967153 ], [ -136.186297599999989, -74.6969927 ], [ -136.185829399999989, -74.6970484 ], [ -136.1843427, -74.6971557 ], [ -136.183861799999988, -74.6972044 ], [ -136.1828385, -74.697226 ], [ -136.18130020000001, -74.6972011 ], [ -136.1792639, -74.697129 ], [ -136.1782696, -74.6970576 ], [ -136.1768128, -74.6969266 ], [ -136.1758008, -74.6968758 ], [ -136.175289099999986, -74.6968716 ], [ -136.1742829, -74.6969263 ], [ -136.1732561, -74.6969344 ], [ -136.1722916, -74.6970273 ], [ -136.1718984, -74.6971132 ], [ -136.170992500000011, -74.6972435 ], [ -136.169554799999986, -74.6973907 ], [ -136.1680599, -74.6974884 ], [ -136.167552199999989, -74.6975039 ], [ -136.166556899999989, -74.6975752 ], [ -136.1661111, -74.6976403 ], [ -136.1651053, -74.6977013 ], [ -136.164183900000012, -74.6978202 ], [ -136.1632062, -74.6979009 ], [ -136.1627356, -74.6979572 ], [ -136.162222899999989, -74.6979715 ], [ -136.161729, -74.6980093 ], [ -136.1602148, -74.6980769 ], [ -136.159263, -74.6981805 ], [ -136.1587716, -74.698219 ], [ -136.1572741, -74.6983159 ], [ -136.1567933, -74.6983671 ], [ -136.1552848, -74.6984474 ], [ -136.1548038, -74.6984961 ], [ -136.1543558, -74.6985631 ], [ -136.153872, -74.6986072 ], [ -136.152863200000013, -74.6986625 ], [ -136.1508752, -74.6985246 ], [ -136.150363, -74.6985139 ], [ -136.1493515, -74.6985647 ], [ -136.148434900000012, -74.698686 ], [ -136.1454103, -74.6988447 ], [ -136.144924, -74.6988869 ], [ -136.142389799999989, -74.6989943 ], [ -136.141908699999988, -74.6990416 ], [ -136.141404200000011, -74.699068 ], [ -136.1403814, -74.6990996 ], [ -136.13941650000001, -74.6991923 ], [ -136.1378775, -74.6992234 ], [ -136.1373781, -74.6992535 ], [ -136.1353279, -74.699288 ], [ -136.134839199999988, -74.6993308 ], [ -136.1343295, -74.6993207 ], [ -136.133819499999987, -74.6993394 ], [ -136.1322848, -74.6993 ], [ -136.1312756, -74.6993513 ], [ -136.1308148, -74.6994113 ], [ -136.12958, -74.6996551 ], [ -136.1291115, -74.6997094 ], [ -136.127936299999988, -74.6999734 ], [ -136.1275455, -74.7000624 ], [ -136.1264074, -74.7003371 ], [ -136.1259742, -74.7004103 ], [ -136.1244096, -74.7009482 ], [ -136.1230066, -74.7013452 ], [ -136.122090500000013, -74.7016724 ], [ -136.121021899999988, -74.7021354 ], [ -136.12067540000001, -74.7022357 ], [ -136.1202245, -74.7023008 ], [ -136.11974330000001, -74.7023493 ], [ -136.1193049, -74.70242 ], [ -136.1178582, -74.7025574 ], [ -136.116437499999989, -74.7027176 ], [ -136.114165, -74.7030319 ], [ -136.113210400000014, -74.7031373 ], [ -136.1127794, -74.7032099 ], [ -136.1112793, -74.7035797 ], [ -136.109343700000011, -74.7040273 ], [ -136.108055799999988, -74.7042514 ], [ -136.1067002, -74.7044445 ], [ -136.103885600000012, -74.7047781 ], [ -136.1033941, -74.704819 ], [ -136.1030079, -74.7049093 ], [ -136.1021082, -74.7050399 ], [ -136.1009123, -74.7052974 ], [ -136.1000553, -74.7054476 ], [ -136.0992405, -74.7056124 ], [ -136.097922399999987, -74.7058238 ], [ -136.0970024, -74.705943 ], [ -136.0965989, -74.7060288 ], [ -136.0961553, -74.706097 ], [ -136.0955037, -74.7063069 ], [ -136.0950851, -74.7063852 ], [ -136.0947433, -74.7064867 ], [ -136.0916229, -74.7069599 ], [ -136.0911231, -74.7069887 ], [ -136.0891969, -74.7071775 ], [ -136.0886971, -74.7072075 ], [ -136.087671, -74.7072018 ], [ -136.086127800000014, -74.7072204 ], [ -136.084621199999987, -74.7073111 ], [ -136.0841107, -74.7073271 ], [ -136.08322050000001, -74.7074589 ], [ -136.082729, -74.7075023 ], [ -136.0812056, -74.7075623 ], [ -136.0807242, -74.7076121 ], [ -136.080213, -74.7076178 ], [ -136.079203, -74.7076676 ], [ -136.0776602, -74.7076599 ], [ -136.076648, -74.7077129 ], [ -136.0736037, -74.7078349 ], [ -136.073117200000013, -74.7078808 ], [ -136.072661, -74.7079445 ], [ -136.0701492, -74.7080874 ], [ -136.0691229, -74.7080803 ], [ -136.0686205, -74.7081071 ], [ -136.0681069, -74.7081147 ], [ -136.067107600000014, -74.7081798 ], [ -136.0656779, -74.7083314 ], [ -136.0631948, -74.7085055 ], [ -136.0617828, -74.7086678 ], [ -136.0608015, -74.7087488 ], [ -136.059669, -74.709025 ], [ -136.0584445, -74.7092702 ], [ -136.0562529, -74.7096264 ], [ -136.054843299999987, -74.709792 ], [ -136.0544193, -74.7098676 ], [ -136.0539503, -74.7099243 ], [ -136.052463100000011, -74.7102987 ], [ -136.051991500000014, -74.7103522 ], [ -136.0514809, -74.7103694 ], [ -136.04997370000001, -74.7104586 ], [ -136.047539199999989, -74.7106751 ], [ -136.0457685, -74.7109524 ], [ -136.045294500000011, -74.7110065 ], [ -136.0448729, -74.7110827 ], [ -136.0434831, -74.7112583 ], [ -136.0426453, -74.7114185 ], [ -136.0418569, -74.7115924 ], [ -136.0405398, -74.7118029 ], [ -136.039382, -74.7120727 ], [ -136.0379843, -74.7122412 ], [ -136.036637399999989, -74.7124428 ], [ -136.0361503, -74.7124848 ], [ -136.034639700000014, -74.712563 ], [ -136.0336527, -74.7126375 ], [ -136.0331395, -74.7126527 ], [ -136.0326245, -74.7126411 ], [ -136.030835700000011, -74.7129087 ], [ -136.029997400000013, -74.7130663 ], [ -136.0296179, -74.713157 ], [ -136.0287021, -74.7132797 ], [ -136.028298, -74.7133654 ], [ -136.0256981, -74.7138026 ], [ -136.025303799999989, -74.7138895 ], [ -136.0218281, -74.7144709 ], [ -136.0203223, -74.7148408 ], [ -136.018954799999989, -74.7152471 ], [ -136.0178482, -74.71553 ], [ -136.017409, -74.7156018 ], [ -136.0159984, -74.7157658 ], [ -136.0145345, -74.7158961 ], [ -136.0137628, -74.7160744 ], [ -136.012914200000012, -74.7162268 ], [ -136.0121698, -74.7164145 ], [ -136.0117057, -74.7164762 ], [ -136.0112387, -74.7165321 ], [ -136.009702800000014, -74.7165661 ], [ -136.0087866, -74.71669 ], [ -136.0082811, -74.7167135 ], [ -136.007395, -74.7168513 ], [ -136.006886900000012, -74.7168716 ], [ -136.0064424, -74.716937 ], [ -136.0054527, -74.7170145 ], [ -136.004996, -74.7170781 ], [ -136.003974, -74.7171071 ], [ -136.001949700000011, -74.7172054 ], [ -136.0014675, -74.7172524 ], [ -136.0005539, -74.7173782 ], [ -135.9997099, -74.7175305 ], [ -135.999209799999988, -74.7175642 ], [ -135.9983086, -74.7176956 ], [ -135.996392500000013, -74.7178906 ], [ -135.995798, -74.7181115 ], [ -135.9954232, -74.7182048 ], [ -135.994923199999988, -74.7182397 ], [ -135.9940643, -74.7183882 ], [ -135.9935693, -74.7184257 ], [ -135.9927179, -74.7185774 ], [ -135.991819, -74.7187094 ], [ -135.9904256, -74.7188853 ], [ -135.98998610000001, -74.7189558 ], [ -135.9894859, -74.7189869 ], [ -135.9885945, -74.7191234 ], [ -135.9881298, -74.7191786 ], [ -135.987404700000013, -74.7193713 ], [ -135.9869804, -74.7194506 ], [ -135.985997700000013, -74.7195274 ], [ -135.982639799999987, -74.7198721 ], [ -135.981649800000014, -74.7199483 ], [ -135.9811439, -74.7199691 ], [ -135.979600799999986, -74.7199735 ], [ -135.9790872, -74.7199874 ], [ -135.978592099999986, -74.7200235 ], [ -135.9780776, -74.7200233 ], [ -135.9765457, -74.7199764 ], [ -135.9760321, -74.7199902 ], [ -135.975554100000011, -74.7200519 ], [ -135.9735296, -74.7199563 ], [ -135.973026299999987, -74.7199484 ], [ -135.9724233, -74.7199111 ], [ -135.947057699999988, -74.7167152 ], [ -135.947025599999989, -74.714252 ], [ -135.9505073, -74.7109268 ], [ -135.9496105, -74.7083995 ], [ -135.9466107, -74.7076338 ], [ -135.923540300000013, -74.7044232 ], [ -135.9093282, -74.7011733 ], [ -135.8936937, -74.6987072 ], [ -135.885390300000012, -74.6954314 ], [ -135.866639099999986, -74.689861 ], [ -135.857554599999986, -74.6856139 ], [ -135.844716799999986, -74.6800184 ], [ -135.8385888, -74.6757591 ], [ -135.8274082, -74.6732712 ], [ -135.817871200000013, -74.6738914 ], [ -135.8113616, -74.6760574 ], [ -135.805472, -74.6760794 ], [ -135.7900632, -74.6771095 ], [ -135.788692200000014, -74.6790614 ], [ -135.7888136, -74.6813971 ], [ -135.7800966, -74.6837649 ], [ -135.7712382, -74.6834072 ], [ -135.7535613, -74.6834694 ], [ -135.742465399999986, -74.6825342 ], [ -135.7336276, -74.6825644 ], [ -135.7136226, -74.6801003 ], [ -135.7068586, -74.6772022 ], [ -135.697853400000014, -74.6763845 ], [ -135.6976258, -74.6761236 ], [ -135.6970997, -74.6758905 ], [ -135.69691, -74.6757644 ], [ -135.6967517, -74.6756351 ], [ -135.696541, -74.6753696 ], [ -135.6959838, -74.6751411 ], [ -135.6957917, -74.6750157 ], [ -135.695031, -74.6748345 ], [ -135.6946924, -74.674732 ], [ -135.6944282, -74.6746158 ], [ -135.69406570000001, -74.6745197 ], [ -135.692828100000014, -74.6742786 ], [ -135.6921439, -74.6740755 ], [ -135.690508099999988, -74.6737493 ], [ -135.6890943, -74.6733552 ], [ -135.688482099999987, -74.6731378 ], [ -135.6879725, -74.6731567 ], [ -135.687706, -74.6730411 ], [ -135.687041099999988, -74.672834 ], [ -135.6865537, -74.6725956 ], [ -135.686251199999987, -74.6724859 ], [ -135.6862233, -74.672351 ], [ -135.6860916, -74.6722197 ], [ -135.68483470000001, -74.67133 ], [ -135.6843528, -74.6709425 ], [ -135.6841762, -74.6706757 ], [ -135.6839386, -74.6705549 ], [ -135.683725900000013, -74.6702901 ], [ -135.682713, -74.6698186 ], [ -135.682682699999987, -74.6696831 ], [ -135.6823818, -74.6692842 ], [ -135.6822439, -74.6690147 ], [ -135.6819655, -74.668901 ], [ -135.6818098, -74.6687723 ], [ -135.6812965, -74.6687599 ], [ -135.6812783, -74.6683543 ], [ -135.6810667, -74.6679507 ], [ -135.681110100000012, -74.66768 ], [ -135.6809409, -74.6674124 ], [ -135.6808538, -74.6671408 ], [ -135.6807101, -74.6670114 ], [ -135.6800721, -74.6666418 ], [ -135.6798057, -74.6665249 ], [ -135.6791675, -74.6663132 ], [ -135.677536, -74.6656223 ], [ -135.6768596, -74.6654197 ], [ -135.6766414, -74.6652976 ], [ -135.676385399999987, -74.6650342 ], [ -135.676184, -74.6649101 ], [ -135.6761248, -74.6647747 ], [ -135.675986, -74.6646439 ], [ -135.6759497, -74.6641022 ], [ -135.6754949, -74.6637141 ], [ -135.6749431, -74.6634855 ], [ -135.6747779, -74.6633568 ], [ -135.6744482, -74.6626848 ], [ -135.674179, -74.6622839 ], [ -135.6741983, -74.662012 ], [ -135.674525, -74.6614768 ], [ -135.6745238, -74.6613412 ], [ -135.6744115, -74.6612085 ], [ -135.674227, -74.6610811 ], [ -135.6739481, -74.6604084 ], [ -135.673721300000011, -74.6601436 ], [ -135.673311500000011, -74.6598961 ], [ -135.672767, -74.6596643 ], [ -135.672305200000011, -74.659278 ], [ -135.6718833, -74.6590299 ], [ -135.671559699999989, -74.658926 ], [ -135.671312699999987, -74.6588065 ], [ -135.670981899999987, -74.6587032 ], [ -135.6705169, -74.6584616 ], [ -135.6691241, -74.6580622 ], [ -135.6685105, -74.6578466 ], [ -135.667091199999987, -74.6572823 ], [ -135.6665879, -74.6570459 ], [ -135.6663419, -74.6567825 ], [ -135.666070600000012, -74.6563822 ], [ -135.6658622, -74.6562587 ], [ -135.6657212, -74.6561287 ], [ -135.6653679, -74.6554555 ], [ -135.6653595, -74.6553206 ], [ -135.6653513, -74.6549138 ], [ -135.6654991, -74.6546459 ], [ -135.665716, -74.6536979 ], [ -135.6657102, -74.6532917 ], [ -135.665548699999988, -74.6530235 ], [ -135.6659373, -74.6526308 ], [ -135.6674002, -74.6516169 ], [ -135.6676664, -74.6513544 ], [ -135.667780099999987, -74.6510841 ], [ -135.6679121, -74.6509538 ], [ -135.6701495, -74.6494373 ], [ -135.670469, -74.6491798 ], [ -135.6707231, -74.6489167 ], [ -135.6707412, -74.648781 ], [ -135.670994, -74.6483798 ], [ -135.6709855, -74.6482436 ], [ -135.6707854, -74.6479781 ], [ -135.67095470000001, -74.6477108 ], [ -135.6709826, -74.6475751 ], [ -135.670768, -74.6470365 ], [ -135.6706486, -74.6469045 ], [ -135.6702894, -74.6468077 ], [ -135.670018700000014, -74.6466934 ], [ -135.6696332, -74.6466038 ], [ -135.6671442, -74.6461266 ], [ -135.665831, -74.6459157 ], [ -135.6654742, -74.6458183 ], [ -135.6642584, -74.6455694 ], [ -135.6625266, -74.6452817 ], [ -135.662148300000013, -74.6451901 ], [ -135.6613227, -74.6450282 ], [ -135.6602811, -74.6447295 ], [ -135.6595485, -74.6443729 ], [ -135.65886230000001, -74.6438613 ], [ -135.6587312, -74.6434555 ], [ -135.658733899999987, -74.6431843 ], [ -135.6589788, -74.6423737 ], [ -135.6594955, -74.6417094 ], [ -135.6595951, -74.6411673 ], [ -135.6594073, -74.6409011 ], [ -135.659096, -74.6407927 ], [ -135.658190100000013, -74.6406656 ], [ -135.657246500000014, -74.6405591 ], [ -135.656275, -74.6404757 ], [ -135.6547769, -74.6403862 ], [ -135.6538287, -74.6402848 ], [ -135.650716499999987, -74.6398151 ], [ -135.6503217, -74.639728 ], [ -135.6496612, -74.6395214 ], [ -135.6491275, -74.6392896 ], [ -135.648345299999988, -74.6391147 ], [ -135.6473091, -74.6388146 ], [ -135.6470723, -74.6386951 ], [ -135.6458853, -74.6382534 ], [ -135.645521699999989, -74.6381579 ], [ -135.644725200000011, -74.6379869 ], [ -135.6441222, -74.6377674 ], [ -135.643902200000014, -74.6376459 ], [ -135.643747100000013, -74.6375158 ], [ -135.6435247, -74.6373937 ], [ -135.643362700000012, -74.6369886 ], [ -135.6433836, -74.6368536 ], [ -135.6436562, -74.6364536 ], [ -135.643856, -74.6363283 ], [ -135.644184599999988, -74.636225 ], [ -135.6446886, -74.6359887 ], [ -135.644806100000011, -74.635856 ], [ -135.6447545, -74.6357211 ], [ -135.6447728, -74.6355855 ], [ -135.6450836, -74.6347767 ], [ -135.6450537, -74.6346411 ], [ -135.6455731, -74.6342583 ], [ -135.6467611, -74.6336567 ], [ -135.6469367, -74.6335302 ], [ -135.6470396, -74.6333975 ], [ -135.6470271, -74.6329907 ], [ -135.6468623, -74.6328607 ], [ -135.646694200000013, -74.6325944 ], [ -135.646515099999988, -74.632467 ], [ -135.6460054, -74.6319415 ], [ -135.6457494, -74.6318233 ], [ -135.6453505, -74.6315744 ], [ -135.644676, -74.6313704 ], [ -135.6441475, -74.6311385 ], [ -135.641971, -74.6307829 ], [ -135.6396246, -74.6305148 ], [ -135.6381505, -74.630397 ], [ -135.6366492, -74.6303177 ], [ -135.635198699999989, -74.6301844 ], [ -135.633299099999988, -74.6299827 ], [ -135.632384699999989, -74.629862 ], [ -135.63109, -74.6296438 ], [ -135.629235099999988, -74.6294119 ], [ -135.6283397, -74.6292821 ], [ -135.6279168, -74.6292065 ], [ -135.627575, -74.6291052 ], [ -135.6267579, -74.6289438 ], [ -135.6264423, -74.6288366 ], [ -135.6260647, -74.628745 ], [ -135.6255079, -74.6285208 ], [ -135.6250397, -74.6282791 ], [ -135.6244183, -74.6280647 ], [ -135.6240076, -74.6278151 ], [ -135.6236932, -74.6275576 ], [ -135.6236298, -74.6274235 ], [ -135.6233538, -74.627162 ], [ -135.6228444, -74.62715 ], [ -135.6224435, -74.6269005 ], [ -135.622300700000011, -74.626771 ], [ -135.6212495, -74.6263058 ], [ -135.620744300000013, -74.6259216 ], [ -135.6204169, -74.6258176 ], [ -135.6198578, -74.6255902 ], [ -135.6193586, -74.6253531 ], [ -135.619145300000014, -74.6250889 ], [ -135.6177054, -74.6243695 ], [ -135.617199199999988, -74.6243748 ], [ -135.6169365, -74.6242585 ], [ -135.616602, -74.6241565 ], [ -135.6158399, -74.6239751 ], [ -135.6141517, -74.6236684 ], [ -135.6138101, -74.6235683 ], [ -135.6124073, -74.6234002 ], [ -135.6115218, -74.6232652 ], [ -135.611111200000011, -74.6231864 ], [ -135.61001, -74.622903 ], [ -135.609577800000011, -74.6228287 ], [ -135.607736100000011, -74.6225947 ], [ -135.607292199999989, -74.6225275 ], [ -135.606468400000011, -74.6223654 ], [ -135.606017400000013, -74.6223002 ], [ -135.6037059, -74.6220137 ], [ -135.6032668, -74.6219439 ], [ -135.6024526, -74.6217792 ], [ -135.6015863, -74.6216364 ], [ -135.6011756, -74.6215551 ], [ -135.600815, -74.6214589 ], [ -135.6001559, -74.6212509 ], [ -135.5994858, -74.6208869 ], [ -135.5986409, -74.6207344 ], [ -135.5982684, -74.6206414 ], [ -135.597721799999988, -74.6204133 ], [ -135.5962772, -74.620029 ], [ -135.5954324, -74.6198766 ], [ -135.593133200000011, -74.6195791 ], [ -135.5918589, -74.6193555 ], [ -135.5890501, -74.619028 ], [ -135.5881627, -74.6188936 ], [ -135.587752200000011, -74.6188135 ], [ -135.586417899999987, -74.618402 ], [ -135.586184300000014, -74.6182817 ], [ -135.5855924, -74.6180594 ], [ -135.5853516, -74.6179386 ], [ -135.584607, -74.6177551 ], [ -135.584067800000014, -74.6175237 ], [ -135.5839159, -74.6173956 ], [ -135.583848, -74.6172601 ], [ -135.5837128, -74.6171287 ], [ -135.582681900000011, -74.616829 ], [ -135.5824531, -74.6167074 ], [ -135.5821453, -74.6165995 ], [ -135.5819357, -74.6164754 ], [ -135.581815, -74.6163439 ], [ -135.5813838, -74.6160976 ], [ -135.5808903, -74.6158603 ], [ -135.58027, -74.6156445 ], [ -135.5801204, -74.6155144 ], [ -135.5801076, -74.6152426 ], [ -135.58017, -74.6151094 ], [ -135.5804009, -74.614844 ], [ -135.5804488, -74.6147095 ], [ -135.5802699, -74.6144426 ], [ -135.579655699999989, -74.6140701 ], [ -135.5793038, -74.6138152 ], [ -135.5788344, -74.613574 ], [ -135.5786081, -74.6134518 ], [ -135.57686480000001, -74.6127843 ], [ -135.576753700000012, -74.6126515 ], [ -135.5764771, -74.6125365 ], [ -135.5762772, -74.6124123 ], [ -135.5757121, -74.6121867 ], [ -135.574643400000014, -74.6118947 ], [ -135.5734531, -74.6116369 ], [ -135.5731288, -74.6115335 ], [ -135.572375, -74.61135 ], [ -135.572093700000011, -74.6112363 ], [ -135.57213440000001, -74.6111012 ], [ -135.572066400000011, -74.6108302 ], [ -135.572111299999989, -74.6104239 ], [ -135.572046, -74.6102891 ], [ -135.571911, -74.610159 ], [ -135.5713548, -74.6097799 ], [ -135.5713877, -74.609373 ], [ -135.5712499, -74.6091041 ], [ -135.570895900000011, -74.6088498 ], [ -135.570641, -74.6087328 ], [ -135.5704484, -74.6086067 ], [ -135.569590299999987, -74.6082693 ], [ -135.569440899999989, -74.6081405 ], [ -135.5694043, -74.6078688 ], [ -135.569249500000012, -74.607465 ], [ -135.5685734, -74.607099 ], [ -135.5682324, -74.6069975 ], [ -135.5679489, -74.6068857 ], [ -135.567871599999989, -74.6067516 ], [ -135.5674812, -74.6063586 ], [ -135.56740640000001, -74.6062238 ], [ -135.567069300000014, -74.6059689 ], [ -135.5669317, -74.6057 ], [ -135.5664004, -74.6054679 ], [ -135.5653419, -74.6051733 ], [ -135.5645814, -74.604993 ], [ -135.564278800000011, -74.6048837 ], [ -135.5635254, -74.6047002 ], [ -135.5626653, -74.6043635 ], [ -135.5624225, -74.6042432 ], [ -135.5616193, -74.6040784 ], [ -135.561319, -74.6039672 ], [ -135.5605683, -74.6037856 ], [ -135.5601393, -74.6037119 ], [ -135.5596749, -74.6036543 ], [ -135.5530417, -74.6029461 ], [ -135.5521223, -74.6028269 ], [ -135.551679299999989, -74.6027596 ], [ -135.5508643, -74.6025966 ], [ -135.5485922, -74.6022858 ], [ -135.5474485, -74.6020169 ], [ -135.5467933, -74.6018081 ], [ -135.546498, -74.601697 ], [ -135.5463681, -74.6015668 ], [ -135.5457792, -74.6011916 ], [ -135.545469, -74.6009333 ], [ -135.5447843, -74.6005698 ], [ -135.54498430000001, -74.6003039 ], [ -135.544984199999988, -74.6001683 ], [ -135.5446789, -74.59991 ], [ -135.5444285, -74.5993708 ], [ -135.543305, -74.5989183 ], [ -135.5431079, -74.5987921 ], [ -135.5429853, -74.5986613 ], [ -135.542738, -74.5985436 ], [ -135.5426177, -74.5984109 ], [ -135.542552699999987, -74.5981405 ], [ -135.5420628, -74.5979025 ], [ -135.5414198, -74.5976918 ], [ -135.541196500000012, -74.5975702 ], [ -135.5405212, -74.5970583 ], [ -135.540011099999987, -74.5970634 ], [ -135.5393842, -74.5966921 ], [ -135.538489199999987, -74.5963624 ], [ -135.5381576, -74.5961061 ], [ -135.5377589, -74.5958564 ], [ -135.5365306, -74.5954232 ], [ -135.536040899999989, -74.5951852 ], [ -135.5356861, -74.5950876 ], [ -135.5340937, -74.5945594 ], [ -135.533364, -74.5942018 ], [ -135.5326808, -74.5940007 ], [ -135.5324335, -74.5938817 ], [ -135.5320908, -74.5937822 ], [ -135.531579599999986, -74.5935461 ], [ -135.5314043, -74.5934193 ], [ -135.531296200000014, -74.5932872 ], [ -135.5307837, -74.5932891 ], [ -135.5300446, -74.5929327 ], [ -135.5286688, -74.5925319 ], [ -135.5273813, -74.592111 ], [ -135.5262032, -74.5915094 ], [ -135.525493899999987, -74.5913142 ], [ -135.5246761, -74.5909714 ], [ -135.5244721, -74.5908472 ], [ -135.522901100000013, -74.5901494 ], [ -135.5222779, -74.5899347 ], [ -135.521546300000011, -74.5895777 ], [ -135.5209135, -74.5893643 ], [ -135.5204817, -74.5891185 ], [ -135.519542199999989, -74.5887971 ], [ -135.5176218, -74.5883515 ], [ -135.5165177, -74.5880695 ], [ -135.5162014, -74.5879628 ], [ -135.5155227, -74.587598 ], [ -135.514728, -74.5874285 ], [ -135.5143735, -74.5873308 ], [ -135.512582400000014, -74.5870709 ], [ -135.5113144, -74.5868437 ], [ -135.5099918, -74.586639 ], [ -135.5091568, -74.5864843 ], [ -135.5081965, -74.5863919 ], [ -135.506160099999988, -74.5863442 ], [ -135.505165, -74.5862935 ], [ -135.5037292, -74.5861504 ], [ -135.5032821, -74.5860868 ], [ -135.50246150000001, -74.5859256 ], [ -135.501941499999987, -74.5856921 ], [ -135.5013116, -74.5854806 ], [ -135.5009761, -74.5852243 ], [ -135.4998118, -74.584778 ], [ -135.4994764, -74.584523 ], [ -135.4992537, -74.584258 ], [ -135.499014100000011, -74.5841384 ], [ -135.4988631, -74.5840089 ], [ -135.498348, -74.5837741 ], [ -135.498005400000011, -74.5835184 ], [ -135.497308800000013, -74.5833224 ], [ -135.4964979, -74.5831573 ], [ -135.4957679, -74.582969 ], [ -135.495487700000012, -74.5827081 ], [ -135.4949679, -74.5824746 ], [ -135.49474570000001, -74.5820715 ], [ -135.4947345, -74.581801 ], [ -135.494660399999987, -74.5816662 ], [ -135.4943874, -74.5815517 ], [ -135.4937215, -74.5811861 ], [ -135.4928917, -74.5810288 ], [ -135.49214520000001, -74.5808437 ], [ -135.4907786, -74.580442 ], [ -135.490242200000012, -74.5802117 ], [ -135.4864901, -74.579786 ], [ -135.485575, -74.5796633 ], [ -135.4851495, -74.5795901 ], [ -135.484427, -74.5793986 ], [ -135.4841039, -74.5792938 ], [ -135.4838765, -74.5791721 ], [ -135.4835366, -74.578917 ], [ -135.4829215, -74.5787003 ], [ -135.4822206, -74.5785043 ], [ -135.4820171, -74.57838 ], [ -135.4815697, -74.5779915 ], [ -135.480806800000011, -74.577811 ], [ -135.4791525, -74.5774923 ], [ -135.4787914, -74.5773965 ], [ -135.477527, -74.5771685 ], [ -135.4771421, -74.5770804 ], [ -135.4768717, -74.5769653 ], [ -135.476532, -74.5768637 ], [ -135.4757597, -74.5766869 ], [ -135.4753461, -74.5766066 ], [ -135.4735854, -74.5763336 ], [ -135.4715275, -74.5759333 ], [ -135.4705635, -74.5756175 ], [ -135.4698462, -74.5754246 ], [ -135.4695925, -74.5753062 ], [ -135.4684038, -74.5748669 ], [ -135.4672491, -74.5745989 ], [ -135.466579599999989, -74.5743957 ], [ -135.46632120000001, -74.5742786 ], [ -135.4659483, -74.574186 ], [ -135.4652955, -74.5739783 ], [ -135.4649297, -74.5738838 ], [ -135.4644059, -74.5736515 ], [ -135.4631255, -74.5734291 ], [ -135.462386900000013, -74.573242 ], [ -135.4620617, -74.5731378 ], [ -135.461817700000012, -74.5730181 ], [ -135.4614664, -74.5727637 ], [ -135.4601275, -74.5723534 ], [ -135.4594009, -74.5721631 ], [ -135.459114, -74.5720524 ], [ -135.4590115, -74.571919 ], [ -135.458726899999988, -74.5718064 ], [ -135.458370800000012, -74.5717093 ], [ -135.4575561, -74.5715466 ], [ -135.4571929, -74.5714515 ], [ -135.456368, -74.5711072 ], [ -135.4553975, -74.5707946 ], [ -135.45456870000001, -74.5706371 ], [ -135.454079799999988, -74.5705979 ], [ -135.4530662, -74.5706115 ], [ -135.4520585, -74.5706584 ], [ -135.4511588, -74.5707844 ], [ -135.4506491, -74.5707752 ], [ -135.4496438, -74.5708214 ], [ -135.449167, -74.5708691 ], [ -135.4482576, -74.5709912 ], [ -135.4467329, -74.5710309 ], [ -135.4452101, -74.5710494 ], [ -135.444708600000013, -74.5710728 ], [ -135.444253800000013, -74.5711326 ], [ -135.4432358, -74.5711577 ], [ -135.4427307, -74.5711421 ], [ -135.4422419, -74.5711067 ], [ -135.4398586, -74.5708653 ], [ -135.4389587, -74.5707386 ], [ -135.4385622, -74.5706524 ], [ -135.4382468, -74.5705469 ], [ -135.4380845, -74.5704168 ], [ -135.4378337, -74.5703002 ], [ -135.4361836, -74.5699819 ], [ -135.4358085, -74.5698899 ], [ -135.4349182, -74.5697581 ], [ -135.433066599999989, -74.5695328 ], [ -135.43264880000001, -74.569455 ], [ -135.4323168, -74.5693527 ], [ -135.431954, -74.5690989 ], [ -135.431839700000012, -74.5689661 ], [ -135.4306054, -74.5687288 ], [ -135.4292973, -74.5685165 ], [ -135.42853310000001, -74.5683377 ], [ -135.428158200000013, -74.5682457 ], [ -135.4278333, -74.5681414 ], [ -135.427628, -74.5680165 ], [ -135.427319899999986, -74.567909 ], [ -135.4269903, -74.5678061 ], [ -135.4266035, -74.5677173 ], [ -135.4253835, -74.5674735 ], [ -135.4236034, -74.5672097 ], [ -135.4231785, -74.5671338 ], [ -135.4228108, -74.5670398 ], [ -135.4219918, -74.5666967 ], [ -135.421275400000013, -74.5665037 ], [ -135.4206187, -74.5662959 ], [ -135.4203585, -74.5661793 ], [ -135.4196231, -74.5659915 ], [ -135.4190429, -74.5657681 ], [ -135.4183457, -74.5655699 ], [ -135.4172094, -74.5652997 ], [ -135.4163433, -74.5651575 ], [ -135.4149315, -74.5650016 ], [ -135.413952099999989, -74.5649299 ], [ -135.4129491, -74.5648801 ], [ -135.4109994, -74.5647201 ], [ -135.410006, -74.5646663 ], [ -135.4094945, -74.5646692 ], [ -135.4080102, -74.564578 ], [ -135.4075008, -74.5645688 ], [ -135.406490600000012, -74.5646071 ], [ -135.4049608, -74.5646119 ], [ -135.403944700000011, -74.564603 ], [ -135.40192540000001, -74.5645351 ], [ -135.4003983, -74.564552 ], [ -135.3984276, -74.5644118 ], [ -135.39742720000001, -74.5643625 ], [ -135.3959061, -74.5643301 ], [ -135.3953998, -74.564347 ], [ -135.3933635, -74.564361 ], [ -135.3923632, -74.564407 ], [ -135.3878566, -74.5641811 ], [ -135.38734980000001, -74.5641801 ], [ -135.3859123, -74.5643195 ], [ -135.384894, -74.5643175 ], [ -135.38438690000001, -74.5643062 ], [ -135.3824376, -74.5641498 ], [ -135.381437299999988, -74.5641004 ], [ -135.3799098, -74.564098 ], [ -135.3789343, -74.5641784 ], [ -135.3784277, -74.5641863 ], [ -135.37691860000001, -74.5642485 ], [ -135.3753992, -74.564285 ], [ -135.374392, -74.5642465 ], [ -135.3714728, -74.564004 ], [ -135.369977, -74.5639235 ], [ -135.368006799999989, -74.5637855 ], [ -135.3670041, -74.5637367 ], [ -135.3650456, -74.5635878 ], [ -135.364047699999986, -74.5635339 ], [ -135.3635362, -74.5635367 ], [ -135.3620176, -74.5635021 ], [ -135.361042, -74.5635773 ], [ -135.3600324, -74.5635406 ], [ -135.3595235, -74.5635517 ], [ -135.3580395, -74.5634551 ], [ -135.3565275, -74.563393 ], [ -135.3555159, -74.5633697 ], [ -135.3545082, -74.5634098 ], [ -135.3519598, -74.563398 ], [ -135.3514583, -74.5634148 ], [ -135.3500143, -74.5632815 ], [ -135.34901880000001, -74.5632243 ], [ -135.348509400000012, -74.5632149 ], [ -135.3474966, -74.5632434 ], [ -135.346992, -74.5632276 ], [ -135.345501, -74.5631379 ], [ -135.3439735, -74.563134 ], [ -135.3419547, -74.563063 ], [ -135.3414458, -74.5630727 ], [ -135.340961600000014, -74.5631132 ], [ -135.3364678, -74.5628702 ], [ -135.335965499999986, -74.5628537 ], [ -135.3344356, -74.5628452 ], [ -135.332911, -74.5628597 ], [ -135.3319573, -74.5629559 ], [ -135.3314583, -74.5629771 ], [ -135.3299283, -74.5629647 ], [ -135.32792760000001, -74.5630637 ], [ -135.3253793, -74.563049 ], [ -135.3243664, -74.5630749 ], [ -135.322363200000012, -74.5631732 ], [ -135.3208378, -74.5631505 ], [ -135.3198448, -74.5632121 ], [ -135.3193703, -74.5632601 ], [ -135.3178428, -74.5632522 ], [ -135.316829899999988, -74.563278 ], [ -135.3163208, -74.5632774 ], [ -135.3153043, -74.5632489 ], [ -135.3137797, -74.5632632 ], [ -135.3127917, -74.5633325 ], [ -135.3117787, -74.563357 ], [ -135.308765, -74.5634879 ], [ -135.3077446, -74.5634977 ], [ -135.306726, -74.5634825 ], [ -135.3062196, -74.563498 ], [ -135.304825099999988, -74.5636611 ], [ -135.303811, -74.5636255 ], [ -135.302795, -74.5636186 ], [ -135.3012703, -74.563638 ], [ -135.299267, -74.5637361 ], [ -135.2982441, -74.5637477 ], [ -135.2977474, -74.5637721 ], [ -135.2967291, -74.5637671 ], [ -135.2957286, -74.5638177 ], [ -135.2947843, -74.56392 ], [ -135.294287700000012, -74.5639482 ], [ -135.2917449, -74.5639715 ], [ -135.2907543, -74.56404 ], [ -135.2887202, -74.5640434 ], [ -135.2872082, -74.5640991 ], [ -135.2867506, -74.5641567 ], [ -135.2857549, -74.5642123 ], [ -135.2821942, -74.5642663 ], [ -135.2812305, -74.5643584 ], [ -135.280219, -74.5643373 ], [ -135.27971, -74.5643456 ], [ -135.279208399999987, -74.5643674 ], [ -135.2782372, -74.5644486 ], [ -135.2777772, -74.564508 ], [ -135.2742125, -74.5644781 ], [ -135.2732009, -74.5644506 ], [ -135.272185400000012, -74.5644742 ], [ -135.2706667, -74.5644314 ], [ -135.2701552, -74.5644314 ], [ -135.269154500000013, -74.564478 ], [ -135.2676271, -74.5644812 ], [ -135.267152399999986, -74.5645317 ], [ -135.2661713, -74.5646001 ], [ -135.26515040000001, -74.5645917 ], [ -135.2631316, -74.5646486 ], [ -135.2626325, -74.5646799 ], [ -135.262228, -74.5647603 ], [ -135.2617607, -74.5648178 ], [ -135.2613586, -74.5649002 ], [ -135.260910599999988, -74.5649653 ], [ -135.2586195, -74.5652597 ], [ -135.2572681, -74.5654506 ], [ -135.256313799999987, -74.5655477 ], [ -135.2558778, -74.5656173 ], [ -135.255076, -74.5657851 ], [ -135.254608499999989, -74.5658375 ], [ -135.2531257, -74.5659352 ], [ -135.2526704, -74.5659971 ], [ -135.252178500000014, -74.5660303 ], [ -135.2517425, -74.5660999 ], [ -135.2507515, -74.5661631 ], [ -135.248329, -74.5663756 ], [ -135.24442830000001, -74.5666845 ], [ -135.243938899999989, -74.5667209 ], [ -135.242925899999989, -74.5667617 ], [ -135.2419883, -74.5668683 ], [ -135.2415038, -74.5669084 ], [ -135.2400012, -74.5669805 ], [ -135.238540199999989, -74.5671017 ], [ -135.23759290000001, -74.5672019 ], [ -135.2360854, -74.5672649 ], [ -135.234592600000013, -74.5673548 ], [ -135.2335717, -74.5673527 ], [ -135.2320468, -74.5673831 ], [ -135.231542499999989, -74.5673952 ], [ -135.2305441, -74.56745 ], [ -135.2280059, -74.5675109 ], [ -135.2275383, -74.5675645 ], [ -135.2266732, -74.5677067 ], [ -135.22463350000001, -74.5676903 ], [ -135.2241342, -74.5677139 ], [ -135.2220975, -74.567739 ], [ -135.2211379, -74.5678295 ], [ -135.2201221, -74.5678517 ], [ -135.2191057, -74.567838 ], [ -135.218114500000013, -74.567901 ], [ -135.2176517, -74.5679571 ], [ -135.2161266, -74.5679811 ], [ -135.215103199999987, -74.5679808 ], [ -135.2141241, -74.5680534 ], [ -135.2136807, -74.568121 ], [ -135.21320080000001, -74.5681662 ], [ -135.211698, -74.5682381 ], [ -135.2106846, -74.5682608 ], [ -135.2097661, -74.5683775 ], [ -135.2082435, -74.5684148 ], [ -135.2077343, -74.5684191 ], [ -135.204692, -74.5683427 ], [ -135.2036957, -74.5683916 ], [ -135.2012571, -74.5681918 ], [ -135.198261699999989, -74.5680296 ], [ -135.1957243, -74.5679782 ], [ -135.195239500000014, -74.568017 ], [ -135.1947329, -74.568036 ], [ -135.1916928, -74.5681283 ], [ -135.1906768, -74.5681362 ], [ -135.189704799999987, -74.568217 ], [ -135.1891957, -74.5682251 ], [ -135.1871812, -74.5683068 ], [ -135.183629599999989, -74.568228 ], [ -135.1821095, -74.5682709 ], [ -135.1816002, -74.5682726 ], [ -135.1805917, -74.5683093 ], [ -135.1800874, -74.5683289 ], [ -135.1796075, -74.5683753 ], [ -135.1775748, -74.5683412 ], [ -135.176081900000014, -74.5682497 ], [ -135.175577299999986, -74.5682373 ], [ -135.1750705, -74.5682499 ], [ -135.1745979, -74.5683008 ], [ -135.1735885, -74.5682632 ], [ -135.173079199999989, -74.5682585 ], [ -135.1720828, -74.5683137 ], [ -135.1711254, -74.5684059 ], [ -135.1701113, -74.5683798 ], [ -135.168613099999988, -74.5684578 ], [ -135.166686, -74.5686351 ], [ -135.1656896, -74.5686915 ], [ -135.165274899999986, -74.5687705 ], [ -135.1643536, -74.5688864 ], [ -135.1639195, -74.5689564 ], [ -135.1632081, -74.5691507 ], [ -135.162815, -74.5692367 ], [ -135.1615514, -74.5694647 ], [ -135.16118, -74.5695577 ], [ -135.1594964, -74.5700674 ], [ -135.1568143, -74.5706916 ], [ -135.1559291, -74.5708272 ], [ -135.1542379, -74.5713336 ], [ -135.1538423, -74.571419 ], [ -135.1533598, -74.571466 ], [ -135.1526867, -74.5716692 ], [ -135.152283899999986, -74.5717527 ], [ -135.1518496, -74.5718227 ], [ -135.1509088, -74.5719269 ], [ -135.150283699999989, -74.5721416 ], [ -135.1499001, -74.5722289 ], [ -135.148669899999987, -74.5729748 ], [ -135.148102599999987, -74.5731996 ], [ -135.147731, -74.5732926 ], [ -135.1472774, -74.573355 ], [ -135.1468841, -74.5734397 ], [ -135.1453616, -74.5738008 ], [ -135.1449345, -74.5738739 ], [ -135.1440225, -74.5739961 ], [ -135.1427654, -74.5742284 ], [ -135.141368300000011, -74.5743943 ], [ -135.139905700000014, -74.5745072 ], [ -135.1394762, -74.5745836 ], [ -135.1385737, -74.574707 ], [ -135.138079, -74.5747431 ], [ -135.136070600000011, -74.5748339 ], [ -135.134649200000013, -74.5749832 ], [ -135.13363480000001, -74.5749621 ], [ -135.13314, -74.5749931 ], [ -135.1326281, -74.5749979 ], [ -135.131633599999986, -74.575056 ], [ -135.1306171, -74.5750714 ], [ -135.1301296, -74.5751132 ], [ -135.129622399999988, -74.5751001 ], [ -135.1280989, -74.5751253 ], [ -135.127131, -74.5752097 ], [ -135.1261237, -74.57517 ], [ -135.1256215, -74.5751901 ], [ -135.1246026, -74.5751945 ], [ -135.12412470000001, -74.575244 ], [ -135.123118, -74.57529 ], [ -135.1226498, -74.5753434 ], [ -135.1211361, -74.5753967 ], [ -135.1206266, -74.5753982 ], [ -135.119615, -74.5754301 ], [ -135.1191153, -74.5754624 ], [ -135.1182054, -74.5755838 ], [ -135.117707700000011, -74.5755565 ], [ -135.116176599999989, -74.5755427 ], [ -135.1156719, -74.5755532 ], [ -135.1151916, -74.5755982 ], [ -135.1141678, -74.5756051 ], [ -135.1136656, -74.5756265 ], [ -135.1127315, -74.5757364 ], [ -135.112289800000013, -74.5758031 ], [ -135.1113014, -74.5757352 ], [ -135.109282, -74.5756659 ], [ -135.108770099999987, -74.5756617 ], [ -135.10776820000001, -74.5757101 ], [ -135.106760799999989, -74.5756678 ], [ -135.1057419, -74.5756811 ], [ -135.1047278, -74.5757084 ], [ -135.1042716, -74.5757675 ], [ -135.1032524, -74.5757501 ], [ -135.1027478, -74.5757682 ], [ -135.101742800000011, -74.5757226 ], [ -135.099707, -74.5757063 ], [ -135.0987365, -74.5757912 ], [ -135.098229300000014, -74.5757767 ], [ -135.0966984, -74.5757857 ], [ -135.0957013, -74.5758405 ], [ -135.094687099999987, -74.5758615 ], [ -135.0926881, -74.575971 ], [ -135.0906549, -74.576 ], [ -135.0886413, -74.5760917 ], [ -135.0871783, -74.5762068 ], [ -135.0866949, -74.5761628 ], [ -135.086247500000013, -74.5760991 ], [ -135.0858576, -74.576011 ], [ -135.085566199999988, -74.5759004 ], [ -135.0851739, -74.575813 ], [ -135.084733699999987, -74.5757447 ], [ -135.0805011, -74.5752731 ], [ -135.0786015, -74.5750755 ], [ -135.0775942, -74.5750305 ], [ -135.0770872, -74.5750441 ], [ -135.0766212, -74.5750967 ], [ -135.0746402, -74.5749669 ], [ -135.0726354, -74.5748717 ], [ -135.0721258, -74.5748604 ], [ -135.071613899999988, -74.574865 ], [ -135.0711455, -74.574917 ], [ -135.070129, -74.5749384 ], [ -135.0691266, -74.574892 ], [ -135.0672008, -74.5747104 ], [ -135.066210399999989, -74.5746531 ], [ -135.0656984, -74.5746437 ], [ -135.0646964, -74.5746868 ], [ -135.0637228, -74.5746059 ], [ -135.060385700000012, -74.5742705 ], [ -135.0594001, -74.5742004 ], [ -135.0584002, -74.5741495 ], [ -135.057429, -74.5740666 ], [ -135.0550561, -74.5738198 ], [ -135.054087399999986, -74.5737349 ], [ -135.0530851, -74.573686 ], [ -135.0515543, -74.5736844 ], [ -135.0495641, -74.5735685 ], [ -135.049057, -74.5735616 ], [ -135.04855950000001, -74.5735316 ], [ -135.0471196, -74.5733944 ], [ -135.040502, -74.5726814 ], [ -135.039523800000012, -74.5726093 ], [ -135.0375028, -74.5725362 ], [ -135.0369933, -74.5725337 ], [ -135.0364984, -74.5725632 ], [ -135.0350521, -74.5726965 ], [ -135.0331735, -74.5729065 ], [ -135.0318138, -74.5730935 ], [ -135.0305142, -74.5733079 ], [ -135.0295338, -74.5733809 ], [ -135.0286979, -74.5735358 ], [ -135.02776080000001, -74.5736408 ], [ -135.0259469, -74.5738873 ], [ -135.0250772, -74.5740306 ], [ -135.024608699999987, -74.574085 ], [ -135.023635500000012, -74.5741651 ], [ -135.0231958, -74.5742336 ], [ -135.022720099999987, -74.5742822 ], [ -135.0217252, -74.5743424 ], [ -135.021256599999987, -74.5743956 ], [ -135.020756799999987, -74.5744225 ], [ -135.019875, -74.5745588 ], [ -135.0189475, -74.5746702 ], [ -135.018111299999987, -74.574825 ], [ -135.0172102, -74.5749511 ], [ -135.016273, -74.5750586 ], [ -135.0137211, -74.5755064 ], [ -135.0132717, -74.5755698 ], [ -135.0117961, -74.5756786 ], [ -135.011368299999987, -74.5757515 ], [ -135.01089970000001, -74.5758059 ], [ -135.0099215, -74.5758808 ], [ -135.0090155, -74.5760042 ], [ -135.008508400000011, -74.5759819 ], [ -135.0080036, -74.5759883 ], [ -135.0074917, -74.5759889 ], [ -135.006982099999988, -74.5759979 ], [ -135.006008799999989, -74.5760779 ], [ -135.004501800000014, -74.5761438 ], [ -135.0011249, -74.5764476 ], [ -135.0001274, -74.5765071 ], [ -135.0, -74.576518973351369 ], [ -135.0, -75.0 ], [ -136.968928805223953, -75.0 ], [ -136.9670382, -74.9993784 ] ] ] ] } }
]
}
