{
"type": "FeatureCollection",
"name": "-140_60",
"crs": { "type": "name", "properties": { "name": "urn:ogc:def:crs:OGC:1.3:CRS84" } },
"xy_coordinate_resolution": 1e-15,
"features": [
{ "type": "Feature", "properties": { "FID": 537252, "id": 294, "left": -140.0, "top": 65.0, "right": -135.0, "bottom": 60.0, "row_index": 5, "col_index": 8, "min_lon": -140.0, "min_lat": 60.0, "tile_id": "-140_60" }, "geometry": { "type": "MultiPolygon", "coordinates": [ [ [ [ -139.5107606, 60.0003304 ], [ -139.513614499999989, 60.0008561 ], [ -139.5133141, 60.0023474 ], [ -139.5151663, 60.0036583 ], [ -139.5178592, 60.0045648 ], [ -139.5184815, 60.0054874 ], [ -139.51429730000001, 60.0072948 ], [ -139.510231, 60.0082709 ], [ -139.5080141, 60.0098883 ], [ -139.507499, 60.0118029 ], [ -139.5080853, 60.0130705 ], [ -139.510327600000011, 60.0137622 ], [ -139.51320290000001, 60.0135317 ], [ -139.5153487, 60.0125772 ], [ -139.5168507, 60.0121482 ], [ -139.519601099999988, 60.0124678 ], [ -139.5208097, 60.0129633 ], [ -139.522816, 60.0130383 ], [ -139.524879700000014, 60.01398 ], [ -139.527100600000011, 60.0146609 ], [ -139.5313171, 60.0200225 ], [ -139.5335916, 60.0235929 ], [ -139.5349005, 60.0255655 ], [ -139.5343641, 60.0271735 ], [ -139.5341066, 60.0306895 ], [ -139.5344284, 60.0319758 ], [ -139.5362309, 60.0342158 ], [ -139.536316699999986, 60.036145 ], [ -139.5387843, 60.0381276 ], [ -139.541767, 60.0398958 ], [ -139.546659299999988, 60.0398958 ], [ -139.547866199999987, 60.0396707 ], [ -139.5495716, 60.0394162 ], [ -139.554813200000012, 60.0387063 ], [ -139.555070699999987, 60.0365737 ], [ -139.5536545, 60.0360914 ], [ -139.5520881, 60.0343552 ], [ -139.551895, 60.0327261 ], [ -139.553161, 60.0311719 ], [ -139.5545128, 60.0304966 ], [ -139.5580104, 60.0285242 ], [ -139.5607999, 60.0280097 ], [ -139.5635465, 60.0276452 ], [ -139.5707846, 60.0244259 ], [ -139.5723295, 60.0235361 ], [ -139.5728445, 60.0228499 ], [ -139.571685800000012, 60.0215848 ], [ -139.5711923, 60.0207699 ], [ -139.570612899999986, 60.0184646 ], [ -139.573853, 60.0137676 ], [ -139.5741749, 60.0128989 ], [ -139.5741964, 60.0119122 ], [ -139.57531, 60.0083975 ], [ -139.5787268, 60.0072162 ], [ -139.5915058, 60.0040531 ], [ -139.6000453, 60.0015463 ], [ -139.6036785, 60.0007285 ], [ -139.60478710000001, 60.0002248 ], [ -139.605129456220396, 60.0 ], [ -140.0, 60.0 ], [ -140.0, 65.0 ], [ -135.0, 65.0 ], [ -135.0, 60.0 ], [ -139.510016508686874, 60.0 ], [ -139.5107606, 60.0003304 ] ] ] ] } }
]
}
