{
"type": "FeatureCollection",
"name": "-150_-85",
"crs": { "type": "name", "properties": { "name": "urn:ogc:def:crs:OGC:1.3:CRS84" } },
"xy_coordinate_resolution": 1e-15,
"features": [
{ "type": "Feature", "properties": { "FID": 307096, "id": 251, "left": -150.0, "top": -80.0, "right": -145.0, "bottom": -85.0, "row_index": 34, "col_index": 6, "min_lon": -150.0, "min_lat": -85.0, "tile_id": "-150_-85" }, "geometry": { "type": "MultiPolygon", "coordinates": [ [ [ [ -145.0, -80.0 ], [ -145.0, -85.0 ], [ -150.0, -85.0 ], [ -150.0, -80.0 ], [ -145.0, -80.0 ] ] ] ] } }
]
}
