{
"type": "FeatureCollection",
"name": "-150_65",
"crs": { "type": "name", "properties": { "name": "urn:ogc:def:crs:OGC:1.3:CRS84" } },
"xy_coordinate_resolution": 1e-15,
"features": [
{ "type": "Feature", "properties": { "FID": 64768, "id": 221, "left": -150.0, "top": 70.0, "right": -145.0, "bottom": 65.0, "row_index": 4, "col_index": 6, "min_lon": -150.0, "min_lat": 65.0, "tile_id": "-150_65" }, "geometry": { "type": "MultiPolygon", "coordinates": [ [ [ [ -145.21440939382029, 70.0 ], [ -145.213665522249926, 70.0 ], [ -145.213341, 69.9998591 ], [ -145.2111801, 69.99913 ], [ -145.212640099999987, 69.9995201 ], [ -145.21440939382029, 70.0 ] ] ] ] } },
{ "type": "Feature", "properties": { "FID": 537252, "id": 221, "left": -150.0, "top": 70.0, "right": -145.0, "bottom": 65.0, "row_index": 4, "col_index": 6, "min_lon": -150.0, "min_lat": 65.0, "tile_id": "-150_65" }, "geometry": { "type": "MultiPolygon", "coordinates": [ [ [ [ -145.24673580000001, 69.999931 ], [ -145.247358100000014, 69.9995567 ], [ -145.2474225, 69.9994796 ], [ -145.2476907, 69.9993365 ], [ -145.247980399999989, 69.9992007 ], [ -145.248034, 69.9990246 ], [ -145.2480018, 69.9988595 ], [ -145.247637, 69.9986246 ], [ -145.248248600000011, 69.9985218 ], [ -145.248828, 69.9982356 ], [ -145.2489352, 69.9976338 ], [ -145.24849, 69.9968869 ], [ -145.2485275, 69.9966575 ], [ -145.2486992, 69.9964905 ], [ -145.2487314, 69.9963089 ], [ -145.2491766, 69.9959896 ], [ -145.2494341, 69.9958373 ], [ -145.2495736, 69.9955803 ], [ -145.2495414, 69.995228 ], [ -145.2495629, 69.9948481 ], [ -145.2491498, 69.9943489 ], [ -145.2490693, 69.9943012 ], [ -145.24997590000001, 69.9942608 ], [ -145.250437299999987, 69.9942994 ], [ -145.2507967, 69.9942535 ], [ -145.25193, 69.99416 ], [ -145.2526152, 69.9939745 ], [ -145.2534789, 69.993613 ], [ -145.2535808, 69.9935396 ], [ -145.254128, 69.9934808 ], [ -145.2547288, 69.9935506 ], [ -145.2551848, 69.9935286 ], [ -145.2560753, 69.9934607 ], [ -145.2565205, 69.9933854 ], [ -145.2576631, 69.9933065 ], [ -145.258441, 69.9934368 ], [ -145.258618, 69.9935084 ], [ -145.258827200000013, 69.9935286 ], [ -145.2592617, 69.9934992 ], [ -145.259926900000011, 69.993501 ], [ -145.2603722, 69.9934882 ], [ -145.2621639, 69.9935102 ], [ -145.2625018, 69.9935102 ], [ -145.2630758, 69.9934882 ], [ -145.263810799999987, 69.9933487 ], [ -145.2648515, 69.9930734 ], [ -145.2656668, 69.9930128 ], [ -145.266165699999988, 69.9929027 ], [ -145.2668792, 69.9928532 ], [ -145.2674264, 69.9928642 ], [ -145.268198899999987, 69.9928036 ], [ -145.2692074, 69.9926953 ], [ -145.269507800000014, 69.9927008 ], [ -145.2699101, 69.9926972 ], [ -145.270891799999987, 69.9924971 ], [ -145.2715302, 69.9923484 ], [ -145.271884199999988, 69.9923282 ], [ -145.2725279, 69.9920786 ], [ -145.2728713, 69.9919263 ], [ -145.273713500000014, 69.9917354 ], [ -145.27454, 69.99157 ], [ -145.2756178, 69.9912435 ], [ -145.2768624, 69.9908874 ], [ -145.2773774, 69.9907607 ], [ -145.2783599, 69.99058 ], [ -145.2787346, 69.9904597 ], [ -145.278638, 69.9902504 ], [ -145.278836500000011, 69.9901734 ], [ -145.279045700000012, 69.9902449 ], [ -145.2793515, 69.9902725 ], [ -145.2795875, 69.9902633 ], [ -145.2798986, 69.9901899 ], [ -145.280558500000012, 69.9901678 ], [ -145.2818459, 69.989999 ], [ -145.2824307, 69.9899659 ], [ -145.283042200000011, 69.9898852 ], [ -145.2834911, 69.98959 ], [ -145.2832329, 69.988905 ], [ -145.284136499999988, 69.9876199 ], [ -145.279855700000013, 69.986533 ], [ -145.2793944, 69.9865918 ], [ -145.2785897, 69.986735 ], [ -145.277924500000012, 69.9868451 ], [ -145.2776241, 69.9868378 ], [ -145.276433200000014, 69.9866395 ], [ -145.2751887, 69.9860814 ], [ -145.274630800000011, 69.9858758 ], [ -145.274287500000014, 69.9857362 ], [ -145.2738047, 69.9856665 ], [ -145.273686700000013, 69.9853727 ], [ -145.2737296, 69.9852515 ], [ -145.2735257, 69.9850936 ], [ -145.27324680000001, 69.9849504 ], [ -145.2729678, 69.9847191 ], [ -145.272764, 69.9848072 ], [ -145.2728391, 69.9850349 ], [ -145.2728284, 69.9852258 ], [ -145.2729464, 69.9854131 ], [ -145.2729678, 69.9856151 ], [ -145.27306440000001, 69.9857436 ], [ -145.2734184, 69.9859639 ], [ -145.273740299999986, 69.9860704 ], [ -145.273922700000014, 69.9863494 ], [ -145.2736437, 69.9865147 ], [ -145.273236, 69.9866615 ], [ -145.271852, 69.9870581 ], [ -145.2705753, 69.9873775 ], [ -145.269513100000012, 69.9875978 ], [ -145.2689445, 69.9876015 ], [ -145.2679575, 69.9876162 ], [ -145.2671743, 69.9878365 ], [ -145.26667, 69.9879834 ], [ -145.266165699999988, 69.9880898 ], [ -145.2648139, 69.9881963 ], [ -145.2639341, 69.9884203 ], [ -145.263741, 69.9885928 ], [ -145.2634621, 69.9887984 ], [ -145.2632475, 69.988993 ], [ -145.262872, 69.9894226 ], [ -145.2624965, 69.989485 ], [ -145.2621639, 69.9895584 ], [ -145.262067300000012, 69.9896502 ], [ -145.2621532, 69.9897273 ], [ -145.2623892, 69.989742 ], [ -145.2625179, 69.9897457 ], [ -145.2625287, 69.9898007 ], [ -145.2625716, 69.9898374 ], [ -145.2622283, 69.9898741 ], [ -145.2614558, 69.9898044 ], [ -145.260737, 69.9894666 ], [ -145.259867899999989, 69.9890958 ], [ -145.2591276, 69.9889343 ], [ -145.258644800000013, 69.9888829 ], [ -145.2580333, 69.9888168 ], [ -145.2578187, 69.9888278 ], [ -145.257099899999986, 69.9888682 ], [ -145.2567995, 69.9888095 ], [ -145.2558661, 69.9888021 ], [ -145.2545035, 69.9886222 ], [ -145.2532268, 69.9887801 ], [ -145.2530336, 69.9888278 ], [ -145.2525938, 69.9888682 ], [ -145.251993, 69.9888168 ], [ -145.251478, 69.9888719 ], [ -145.2507055, 69.9888425 ], [ -145.2498043, 69.9888021 ], [ -145.2485705, 69.9886883 ], [ -145.2478945, 69.9888609 ], [ -145.2464569, 69.9894152 ], [ -145.2454698, 69.9897493 ], [ -145.244879700000013, 69.9901605 ], [ -145.244770100000011, 69.99051 ], [ -145.244278900000012, 69.9906745 ], [ -145.242991499999988, 69.9903808 ], [ -145.2425838, 69.990311 ], [ -145.241822, 69.9902927 ], [ -145.2412319, 69.9903844 ], [ -145.2406526, 69.990546 ], [ -145.239923, 69.9903808 ], [ -145.2389574, 69.9902266 ], [ -145.23754120000001, 69.9901091 ], [ -145.2370048, 69.9901972 ], [ -145.236468300000013, 69.9902963 ], [ -145.2352023, 69.9903587 ], [ -145.2342796, 69.9903441 ], [ -145.233957800000013, 69.9903551 ], [ -145.2331424, 69.9905129 ], [ -145.2322519, 69.9906267 ], [ -145.2316403, 69.9906561 ], [ -145.2311039, 69.9905827 ], [ -145.2308571, 69.9905864 ], [ -145.230245599999989, 69.9906121 ], [ -145.229408799999987, 69.9906121 ], [ -145.228786500000012, 69.9905607 ], [ -145.2273166, 69.9906451 ], [ -145.2262759, 69.9906635 ], [ -145.225417599999986, 69.9907479 ], [ -145.224269600000014, 69.9907369 ], [ -145.223186, 69.9907736 ], [ -145.2218771, 69.9908764 ], [ -145.2209652, 69.9910049 ], [ -145.220246300000014, 69.9912618 ], [ -145.219152, 69.991651 ], [ -145.2187121, 69.9918418 ], [ -145.2180898, 69.9918822 ], [ -145.2170801, 69.99126 ], [ -145.2165234, 69.9910085 ], [ -145.2149356, 69.9909388 ], [ -145.214238200000011, 69.9909131 ], [ -145.2132619, 69.9908764 ], [ -145.2126932, 69.9909204 ], [ -145.211545199999989, 69.9908176 ], [ -145.2108371, 69.9907148 ], [ -145.2098072, 69.9902853 ], [ -145.2086377, 69.989988 ], [ -145.2082408, 69.9898852 ], [ -145.207264400000014, 69.9898264 ], [ -145.206062800000012, 69.9898191 ], [ -145.20504360000001, 69.989999 ], [ -145.204432, 69.9901825 ], [ -145.203627399999988, 69.9902449 ], [ -145.20261880000001, 69.9901935 ], [ -145.2015782, 69.9901495 ], [ -145.2003765, 69.9898705 ], [ -145.198434600000013, 69.9894813 ], [ -145.1979411, 69.989529 ], [ -145.1971364, 69.9896539 ], [ -145.196782399999989, 69.9897383 ], [ -145.1957631, 69.9897934 ], [ -145.1949263, 69.9897714 ], [ -145.1939714, 69.9896208 ], [ -145.193316900000013, 69.9896429 ], [ -145.192405, 69.9899109 ], [ -145.191750500000012, 69.9903037 ], [ -145.1909566, 69.9912765 ], [ -145.1907635, 69.9918051 ], [ -145.190752800000013, 69.992543 ], [ -145.192190399999987, 69.9930642 ], [ -145.1929844, 69.9932698 ], [ -145.194175300000012, 69.9936148 ], [ -145.1952099, 69.9938501 ], [ -145.197125699999987, 69.9939342 ], [ -145.200119, 69.9943563 ], [ -145.2003765, 69.9952592 ], [ -145.2005375, 69.9954097 ], [ -145.20102, 69.99569 ], [ -145.2022433, 69.9960556 ], [ -145.2025759, 69.9963272 ], [ -145.2029085, 69.9964667 ], [ -145.2033591, 69.9965511 ], [ -145.203949200000011, 69.9966172 ], [ -145.204829, 69.9967603 ], [ -145.2045071, 69.9968924 ], [ -145.202897799999988, 69.9966722 ], [ -145.2019429, 69.9964557 ], [ -145.201031, 69.9962355 ], [ -145.199561100000011, 69.995707 ], [ -145.1975763, 69.995116 ], [ -145.1963639, 69.994694 ], [ -145.195376900000014, 69.9943269 ], [ -145.193939199999988, 69.9939488 ], [ -145.192989899999986, 69.99357 ], [ -145.1893044, 69.9925467 ], [ -145.1882315, 69.9922126 ], [ -145.1842404, 69.9915555 ], [ -145.1792193, 69.9909094 ], [ -145.1754427, 69.9907112 ], [ -145.170507500000014, 69.9904175 ], [ -145.165464899999989, 69.990322 ], [ -145.1609159, 69.9900944 ], [ -145.15941380000001, 69.9900797 ], [ -145.156087899999989, 69.9899329 ], [ -145.1528692, 69.9896318 ], [ -145.149114200000014, 69.9891105 ], [ -145.1467753, 69.9888609 ], [ -145.141174799999987, 69.987987 ], [ -145.1355314, 69.9873261 ], [ -145.130939500000011, 69.986959 ], [ -145.1267123, 69.9867166 ], [ -145.121798500000011, 69.9863201 ], [ -145.1141811, 69.9856812 ], [ -145.1100826, 69.9854535 ], [ -145.1065207, 69.9849761 ], [ -145.098860300000013, 69.9842086 ], [ -145.095985, 69.9839626 ], [ -145.091414500000013, 69.983823 ], [ -145.0882387, 69.9838965 ], [ -145.085535099999987, 69.9842123 ], [ -145.084494400000011, 69.9841866 ], [ -145.0836146, 69.9841462 ], [ -145.082252, 69.9840581 ], [ -145.0808788, 69.9839626 ], [ -145.079923900000011, 69.9837643 ], [ -145.0794411, 69.9836835 ], [ -145.078411100000011, 69.9836835 ], [ -145.077338200000014, 69.9835513 ], [ -145.076812499999988, 69.9834522 ], [ -145.0762224, 69.9834705 ], [ -145.075793299999987, 69.9834081 ], [ -145.0756002, 69.9833125 ], [ -145.07529980000001, 69.9830004 ], [ -145.0738192, 69.9822218 ], [ -145.0717592, 69.9817738 ], [ -145.0692702, 69.9814139 ], [ -145.066394800000012, 69.9811127 ], [ -145.0628972, 69.9811053 ], [ -145.0612664, 69.9811788 ], [ -145.059335299999987, 69.9811788 ], [ -145.057919, 69.9811788 ], [ -145.0561166, 69.9812229 ], [ -145.054164, 69.9814726 ], [ -145.0538099, 69.9815314 ], [ -145.05337, 69.9815975 ], [ -145.0518572, 69.9816526 ], [ -145.0499261, 69.9815423 ], [ -145.0488961, 69.9813808 ], [ -145.0461602, 69.9812265 ], [ -145.045183900000012, 69.9811714 ], [ -145.043692600000014, 69.9812376 ], [ -145.0431025, 69.9811861 ], [ -145.0425232, 69.9813184 ], [ -145.0422764, 69.9812155 ], [ -145.041997400000014, 69.9810282 ], [ -145.0414288, 69.980907 ], [ -145.040452499999986, 69.9809511 ], [ -145.0393582, 69.9807087 ], [ -145.038156500000014, 69.980694 ], [ -145.0376201, 69.9804222 ], [ -145.035989300000011, 69.9801724 ], [ -145.035463600000014, 69.9801871 ], [ -145.0349486, 69.980301 ], [ -145.034734, 69.9804038 ], [ -145.0348199, 69.9805214 ], [ -145.0351846, 69.9806866 ], [ -145.0355923, 69.9808299 ], [ -145.0356889, 69.980918 ], [ -145.035367, 69.9809731 ], [ -145.0348091, 69.9808372 ], [ -145.0344658, 69.9807601 ], [ -145.0340688, 69.9805728 ], [ -145.0335753, 69.9802275 ], [ -145.0330711, 69.9800475 ], [ -145.032620400000013, 69.9800218 ], [ -145.0324702, 69.9798125 ], [ -145.0321591, 69.9796178 ], [ -145.0317085, 69.9795664 ], [ -145.031257900000014, 69.9796178 ], [ -145.0310218, 69.97975 ], [ -145.0307751, 69.979908 ], [ -145.0306141, 69.9802128 ], [ -145.0307, 69.9803487 ], [ -145.0308073, 69.9804442 ], [ -145.030549799999989, 69.9804038 ], [ -145.03021720000001, 69.9803157 ], [ -145.0298095, 69.9803634 ], [ -145.0294051, 69.9803884 ], [ -145.028361100000012, 69.9804185 ], [ -145.0277978, 69.9804387 ], [ -145.0271165, 69.9805158 ], [ -145.0262421, 69.9805048 ], [ -145.025330200000013, 69.9805709 ], [ -145.023855, 69.980705 ], [ -145.0233936, 69.9805764 ], [ -145.0229859, 69.9803671 ], [ -145.0221008, 69.9802771 ], [ -145.021516100000014, 69.9802789 ], [ -145.0201964, 69.9803414 ], [ -145.0199604, 69.9803138 ], [ -145.0197351, 69.9802349 ], [ -145.019584900000012, 69.9801632 ], [ -145.0197512, 69.9800861 ], [ -145.019767300000012, 69.9799833 ], [ -145.0196171, 69.9798584 ], [ -145.0191772, 69.9797427 ], [ -145.018957300000011, 69.9796068 ], [ -145.018898299999989, 69.9794911 ], [ -145.018458399999986, 69.9793478 ], [ -145.0180239, 69.979245 ], [ -145.0172675, 69.9791036 ], [ -145.0164628, 69.9790944 ], [ -145.0155187, 69.979065 ], [ -145.0140327, 69.9791495 ], [ -145.0124878, 69.9792138 ], [ -145.0121015, 69.9791605 ], [ -145.0115812, 69.9789732 ], [ -145.0100577, 69.9780736 ], [ -145.0089075, 69.9780049 ], [ -145.0079761, 69.9778333 ], [ -145.0068062, 69.9775342 ], [ -145.0039227, 69.9774764 ], [ -145.0020699, 69.9771552 ], [ -145.0, 69.976756114638832 ], [ -145.0, 65.0 ], [ -150.0, 65.0 ], [ -150.0, 70.0 ], [ -145.246742175761312, 70.0 ], [ -145.24673580000001, 69.999931 ] ] ] ] } }
]
}
