{
"type": "FeatureCollection",
"name": "-155_-10",
"crs": { "type": "name", "properties": { "name": "urn:ogc:def:crs:OGC:1.3:CRS84" } },
"xy_coordinate_resolution": 1e-15,
"features": [
{ "type": "Feature", "properties": { "FID": 73932, "id": 200, "left": -155.0, "top": -5.0, "right": -150.0, "bottom": -10.0, "row_index": 19, "col_index": 5, "min_lon": -155.0, "min_lat": -10.0, "tile_id": "-155_-10" }, "geometry": { "type": "MultiPolygon", "coordinates": [ [ [ [ -150.200508, -9.9572429 ], [ -150.2006418, -9.956968 ], [ -150.2006418, -9.9568147 ], [ -150.2004969, -9.9566721 ], [ -150.200234099999989, -9.956783 ], [ -150.200078499999989, -9.9567725 ], [ -150.1999497, -9.9566457 ], [ -150.199847799999986, -9.9566404 ], [ -150.1997513, -9.9567355 ], [ -150.199745900000011, -9.9569415 ], [ -150.1998156, -9.9571635 ], [ -150.19988, -9.9572321 ], [ -150.1997405, -9.9573854 ], [ -150.19880710000001, -9.9580775 ], [ -150.1983404, -9.9582519 ], [ -150.1981961, -9.9586256 ], [ -150.200508, -9.9572429 ] ] ] ] } },
{ "type": "Feature", "properties": { "FID": 73938, "id": 200, "left": -155.0, "top": -5.0, "right": -150.0, "bottom": -10.0, "row_index": 19, "col_index": 5, "min_lon": -155.0, "min_lat": -10.0, "tile_id": "-155_-10" }, "geometry": { "type": "MultiPolygon", "coordinates": [ [ [ [ -150.2005269, -9.9663813 ], [ -150.2008098, -9.9663356 ], [ -150.2011971, -9.966212 ], [ -150.2017219, -9.9660895 ], [ -150.20218890000001, -9.9661104 ], [ -150.202737899999988, -9.9660464 ], [ -150.2029828, -9.965821 ], [ -150.2031533, -9.965523 ], [ -150.2032331, -9.9652196 ], [ -150.2032194, -9.9650815 ], [ -150.202845200000013, -9.9651464 ], [ -150.202449300000012, -9.9651492 ], [ -150.2021385, -9.9649972 ], [ -150.2019982, -9.9648648 ], [ -150.201932199999987, -9.9646738 ], [ -150.2019728, -9.9645363 ], [ -150.201932199999987, -9.964323 ], [ -150.2018232, -9.9641526 ], [ -150.2011774, -9.9634401 ], [ -150.2010301, -9.963207 ], [ -150.2009744, -9.9629278 ], [ -150.2007759, -9.9626531 ], [ -150.2006954, -9.9624259 ], [ -150.2006726, -9.9623293 ], [ -150.2007001, -9.9622047 ], [ -150.2007705, -9.9619715 ], [ -150.2008456, -9.9617496 ], [ -150.2008074, -9.9615655 ], [ -150.2006525, -9.9614326 ], [ -150.200488299999989, -9.9613 ], [ -150.2002848, -9.9612377 ], [ -150.2001143, -9.9612567 ], [ -150.1999658, -9.9613269 ], [ -150.199665399999986, -9.9616809 ], [ -150.1996547, -9.9618975 ], [ -150.19950080000001, -9.9621451 ], [ -150.1993224, -9.9623032 ], [ -150.199025799999987, -9.9623339 ], [ -150.1989193, -9.9626544 ], [ -150.1987964, -9.962801 ], [ -150.1987106, -9.9634562 ], [ -150.1988711, -9.9636759 ], [ -150.198952, -9.9639053 ], [ -150.198912299999989, -9.9641854 ], [ -150.1990462, -9.9644304 ], [ -150.1991784, -9.9648823 ], [ -150.1992846, -9.9651997 ], [ -150.199432, -9.9654762 ], [ -150.1997216, -9.9656062 ], [ -150.199934, -9.9658503 ], [ -150.2000639, -9.9660416 ], [ -150.20020980000001, -9.9662291 ], [ -150.2003655, -9.9663556 ], [ -150.2005269, -9.9663813 ] ] ] ] } },
{ "type": "Feature", "properties": { "FID": 73944, "id": 200, "left": -155.0, "top": -5.0, "right": -150.0, "bottom": -10.0, "row_index": 19, "col_index": 5, "min_lon": -155.0, "min_lat": -10.0, "tile_id": "-155_-10" }, "geometry": { "type": "MultiPolygon", "coordinates": [ [ [ [ -150.211126900000011, -9.9573631 ], [ -150.2115411, -9.9571279 ], [ -150.212382100000013, -9.956597 ], [ -150.213114, -9.9562917 ], [ -150.2132911, -9.9560539 ], [ -150.2133125, -9.9555414 ], [ -150.213328600000011, -9.9551451 ], [ -150.213334, -9.9549338 ], [ -150.213350100000014, -9.9545216 ], [ -150.213430499999987, -9.9542258 ], [ -150.213393, -9.9536181 ], [ -150.213376899999986, -9.9531585 ], [ -150.213260600000012, -9.9519327 ], [ -150.2128673, -9.9505853 ], [ -150.2127922, -9.950337 ], [ -150.212572200000011, -9.9501996 ], [ -150.2122718, -9.9500833 ], [ -150.2114296, -9.9498878 ], [ -150.2108878, -9.950152 ], [ -150.2098353, -9.950453 ], [ -150.209514500000012, -9.950543 ], [ -150.209251599999988, -9.9505377 ], [ -150.2091283, -9.9505377 ], [ -150.2088851, -9.9506289 ], [ -150.2089284, -9.9508267 ], [ -150.20906, -9.9509349 ], [ -150.2091978, -9.9511622 ], [ -150.2094046, -9.9511928 ], [ -150.2096492, -9.9512539 ], [ -150.2098537, -9.9515874 ], [ -150.2100408, -9.9518411 ], [ -150.2101476, -9.9520684 ], [ -150.2102923, -9.9527132 ], [ -150.210381899999987, -9.9533275 ], [ -150.210543800000011, -9.9538263 ], [ -150.2106954, -9.9540707 ], [ -150.210853899999989, -9.9545831 ], [ -150.2110002, -9.9555679 ], [ -150.2110107, -9.9560313 ], [ -150.2108691, -9.9563962 ], [ -150.2107332, -9.9568719 ], [ -150.210665299999988, -9.957353 ], [ -150.211126900000011, -9.9573631 ] ] ] ] } },
{ "type": "Feature", "properties": { "FID": 73951, "id": 200, "left": -155.0, "top": -5.0, "right": -150.0, "bottom": -10.0, "row_index": 19, "col_index": 5, "min_lon": -155.0, "min_lat": -10.0, "tile_id": "-155_-10" }, "geometry": { "type": "MultiPolygon", "coordinates": [ [ [ [ -150.2069794, -9.9368797 ], [ -150.2072942, -9.936554 ], [ -150.2075825, -9.9359752 ], [ -150.207788599999986, -9.935639 ], [ -150.207792899999987, -9.9351242 ], [ -150.207245199999988, -9.9351057 ], [ -150.2058503, -9.9363913 ], [ -150.2069794, -9.9368797 ] ] ] ] } },
{ "type": "Feature", "properties": { "FID": 73955, "id": 200, "left": -155.0, "top": -5.0, "right": -150.0, "bottom": -10.0, "row_index": 19, "col_index": 5, "min_lon": -155.0, "min_lat": -10.0, "tile_id": "-155_-10" }, "geometry": { "type": "MultiPolygon", "coordinates": [ [ [ [ -150.2107428, -9.9492038 ], [ -150.2112186, -9.9490765 ], [ -150.211444199999988, -9.9484744 ], [ -150.211246499999987, -9.9482316 ], [ -150.2113082, -9.9475167 ], [ -150.2115679, -9.9464328 ], [ -150.2104435, -9.9458346 ], [ -150.209003700000011, -9.9464507 ], [ -150.208924, -9.9474016 ], [ -150.209145299999989, -9.9474673 ], [ -150.20918850000001, -9.9485473 ], [ -150.2087998, -9.948842 ], [ -150.208411399999989, -9.9489547 ], [ -150.2082921, -9.9491309 ], [ -150.208666, -9.9490778 ], [ -150.209037, -9.9491509 ], [ -150.2093655, -9.9493301 ], [ -150.2107428, -9.9492038 ] ] ] ] } },
{ "type": "Feature", "properties": { "FID": 73963, "id": 200, "left": -155.0, "top": -5.0, "right": -150.0, "bottom": -10.0, "row_index": 19, "col_index": 5, "min_lon": -155.0, "min_lat": -10.0, "tile_id": "-155_-10" }, "geometry": { "type": "MultiPolygon", "coordinates": [ [ [ [ -150.2046168, -9.9184851 ], [ -150.205105, -9.91839 ], [ -150.205410699999987, -9.9183583 ], [ -150.2058452, -9.9179937 ], [ -150.2060753, -9.9177521 ], [ -150.206489, -9.9174917 ], [ -150.206784, -9.9170478 ], [ -150.2070952, -9.9160438 ], [ -150.2072365, -9.9153241 ], [ -150.2095272, -9.9087689 ], [ -150.2096678, -9.9085947 ], [ -150.20989, -9.9083868 ], [ -150.210205300000013, -9.9074391 ], [ -150.2103942, -9.9068586 ], [ -150.2104038, -9.9065843 ], [ -150.2103568, -9.9060399 ], [ -150.2104048, -9.905539 ], [ -150.2103105, -9.9050753 ], [ -150.2100845, -9.9045025 ], [ -150.2098229, -9.903921 ], [ -150.2094576, -9.903697 ], [ -150.2090642, -9.9036138 ], [ -150.2086788, -9.9036299 ], [ -150.2079024, -9.9039788 ], [ -150.2071994, -9.9043935 ], [ -150.2066275, -9.9047416 ], [ -150.2060601, -9.9049995 ], [ -150.2053601, -9.9055256 ], [ -150.2048131, -9.9060909 ], [ -150.2036297, -9.9073457 ], [ -150.202277900000013, -9.9095123 ], [ -150.200840199999988, -9.9129472 ], [ -150.2004111, -9.9138878 ], [ -150.200218, -9.9148284 ], [ -150.200057, -9.9168153 ], [ -150.199563500000011, -9.9189818 ], [ -150.1994348, -9.9196476 ], [ -150.1996064, -9.9199964 ], [ -150.2000731, -9.9204667 ], [ -150.2005237, -9.9204773 ], [ -150.2007812, -9.9205248 ], [ -150.2009314, -9.9206411 ], [ -150.2009636, -9.9208207 ], [ -150.2004057, -9.9208894 ], [ -150.199998, -9.9208894 ], [ -150.1995421, -9.9208524 ], [ -150.1994187, -9.9209211 ], [ -150.1992309, -9.9211483 ], [ -150.1992256, -9.9215182 ], [ -150.1992256, -9.9217507 ], [ -150.1990807, -9.9219621 ], [ -150.198903699999988, -9.9220255 ], [ -150.1987964, -9.9221629 ], [ -150.198732, -9.9223214 ], [ -150.198833900000011, -9.9228287 ], [ -150.1988447, -9.9231299 ], [ -150.1988125, -9.9235685 ], [ -150.1987964, -9.9239912 ], [ -150.1986784, -9.924377 ], [ -150.1987374, -9.9248684 ], [ -150.1987857, -9.9251062 ], [ -150.1987374, -9.9253281 ], [ -150.1985818, -9.9256346 ], [ -150.198512099999988, -9.9257878 ], [ -150.1985765, -9.9260785 ], [ -150.1985228, -9.9263849 ], [ -150.1984799, -9.9267443 ], [ -150.1983994, -9.9271511 ], [ -150.198378, -9.9274523 ], [ -150.1983726, -9.927986 ], [ -150.1983512, -9.9282767 ], [ -150.1982224, -9.9285144 ], [ -150.198099, -9.9287311 ], [ -150.1981527, -9.9289477 ], [ -150.1982224, -9.9291168 ], [ -150.1981366, -9.9293018 ], [ -150.1980829, -9.9294814 ], [ -150.198200899999989, -9.9296558 ], [ -150.1982707, -9.9299041 ], [ -150.1981151, -9.9306333 ], [ -150.19804, -9.9314207 ], [ -150.1979274, -9.9319279 ], [ -150.1978737, -9.9326466 ], [ -150.1977128, -9.9329742 ], [ -150.19776250000001, -9.9333888 ], [ -150.197911299999987, -9.9341419 ], [ -150.1979703, -9.9343691 ], [ -150.198125800000014, -9.9344378 ], [ -150.198308200000014, -9.9345647 ], [ -150.198276, -9.9348024 ], [ -150.198120499999987, -9.9350719 ], [ -150.198120499999987, -9.9352463 ], [ -150.1983243, -9.935389 ], [ -150.1985282, -9.9355845 ], [ -150.1987159, -9.9358064 ], [ -150.1987857, -9.9360494 ], [ -150.19878030000001, -9.9363295 ], [ -150.198930499999989, -9.9368315 ], [ -150.1990432, -9.9370058 ], [ -150.19914510000001, -9.9373387 ], [ -150.199193400000013, -9.9376822 ], [ -150.1992095, -9.9379992 ], [ -150.199037800000013, -9.9381947 ], [ -150.1990753, -9.9382106 ], [ -150.198952, -9.9385593 ], [ -150.198774899999989, -9.9388235 ], [ -150.1987964, -9.9390084 ], [ -150.1987964, -9.9391458 ], [ -150.1986301, -9.939373 ], [ -150.1984692, -9.9396002 ], [ -150.1984531, -9.9397905 ], [ -150.198485299999987, -9.9400018 ], [ -150.1984048, -9.9402185 ], [ -150.19841550000001, -9.9403875 ], [ -150.1984692, -9.9404774 ], [ -150.1983404, -9.941513 ], [ -150.198227800000012, -9.9425856 ], [ -150.1980293, -9.9438062 ], [ -150.1978308, -9.9445407 ], [ -150.197734200000014, -9.9448471 ], [ -150.1971763, -9.9470716 ], [ -150.1966184, -9.9487201 ], [ -150.1961088, -9.9509129 ], [ -150.1958406, -9.9522549 ], [ -150.195776200000012, -9.9528044 ], [ -150.1957655, -9.9536445 ], [ -150.1958191, -9.9537502 ], [ -150.196237599999989, -9.9548387 ], [ -150.1969028, -9.9563339 ], [ -150.197364099999987, -9.95682 ], [ -150.1976055, -9.9573537 ], [ -150.197525, -9.9576284 ], [ -150.1976833, -9.9578488 ], [ -150.198075499999987, -9.9575946 ], [ -150.1981902, -9.9570684 ], [ -150.198045400000012, -9.9568412 ], [ -150.197964899999988, -9.9566668 ], [ -150.1980132, -9.9563868 ], [ -150.1981419, -9.9561543 ], [ -150.1981849, -9.9558795 ], [ -150.1981366, -9.9556735 ], [ -150.198072200000013, -9.9554833 ], [ -150.197390899999988, -9.9549443 ], [ -150.197348, -9.9539352 ], [ -150.1973265, -9.9531796 ], [ -150.1972836, -9.9523395 ], [ -150.1978642, -9.9519282 ], [ -150.1978791, -9.9516896 ], [ -150.197686, -9.9515258 ], [ -150.197546499999987, -9.9513726 ], [ -150.1974553, -9.9511771 ], [ -150.1974821, -9.95086 ], [ -150.197680600000012, -9.9505007 ], [ -150.1977933, -9.9503739 ], [ -150.197889800000013, -9.9502207 ], [ -150.1980561, -9.9498614 ], [ -150.198403399999989, -9.9496154 ], [ -150.198512099999988, -9.9492221 ], [ -150.1988125, -9.9488945 ], [ -150.1988715, -9.9488152 ], [ -150.19917190000001, -9.9486831 ], [ -150.1992208, -9.9484812 ], [ -150.1990539, -9.9482816 ], [ -150.198957299999989, -9.947563 ], [ -150.1989788, -9.9472618 ], [ -150.19898950000001, -9.9469712 ], [ -150.1990217, -9.946781 ], [ -150.1991826, -9.9465379 ], [ -150.199402600000013, -9.9461892 ], [ -150.199381100000011, -9.9455604 ], [ -150.1994884, -9.9453438 ], [ -150.1996225, -9.9450955 ], [ -150.1995957, -9.9448577 ], [ -150.199611800000014, -9.9444878 ], [ -150.199998, -9.9441285 ], [ -150.2002019, -9.9438009 ], [ -150.200234099999989, -9.9436688 ], [ -150.2005881, -9.9433993 ], [ -150.2005345, -9.9432937 ], [ -150.2004594, -9.9428023 ], [ -150.200373500000012, -9.9425962 ], [ -150.2003628, -9.9418829 ], [ -150.2005237, -9.9414179 ], [ -150.2004594, -9.9411748 ], [ -150.2002984, -9.9408948 ], [ -150.200234099999989, -9.9403717 ], [ -150.2003145, -9.9401234 ], [ -150.2003306, -9.9398961 ], [ -150.2001965, -9.9394787 ], [ -150.20030890000001, -9.9393323 ], [ -150.200277, -9.93913 ], [ -150.2002877, -9.9388922 ], [ -150.200346700000011, -9.9386703 ], [ -150.200454, -9.9384748 ], [ -150.200577399999986, -9.938237 ], [ -150.2006418, -9.938089 ], [ -150.2009675, -9.9381786 ], [ -150.2016288, -9.9380415 ], [ -150.201661, -9.9378196 ], [ -150.2013713, -9.9375765 ], [ -150.2011138, -9.937455 ], [ -150.2009744, -9.9372066 ], [ -150.2012426, -9.9370481 ], [ -150.201521500000013, -9.9368685 ], [ -150.2014732, -9.9367205 ], [ -150.201323, -9.9366254 ], [ -150.2012748, -9.9365144 ], [ -150.2014035, -9.9363401 ], [ -150.2013782, -9.9357366 ], [ -150.2008349, -9.9352621 ], [ -150.200711500000011, -9.9351459 ], [ -150.20069, -9.934813 ], [ -150.2006096, -9.9345435 ], [ -150.2004272, -9.9344114 ], [ -150.200185800000014, -9.9343427 ], [ -150.199981900000012, -9.934311 ], [ -150.1997137, -9.9342846 ], [ -150.1994723, -9.9341578 ], [ -150.199450899999988, -9.9335765 ], [ -150.1994669, -9.9331433 ], [ -150.1994187, -9.9322714 ], [ -150.1995152, -9.9320812 ], [ -150.199745900000011, -9.9319491 ], [ -150.199767400000013, -9.9316743 ], [ -150.199981900000012, -9.9314894 ], [ -150.2002716, -9.9312304 ], [ -150.2005345, -9.9310032 ], [ -150.2005935, -9.9307126 ], [ -150.2005613, -9.9304695 ], [ -150.200555900000012, -9.930348 ], [ -150.2008295, -9.9300574 ], [ -150.201169, -9.9298127 ], [ -150.2011675, -9.9292331 ], [ -150.2009797, -9.9290111 ], [ -150.200808099999989, -9.9288473 ], [ -150.200684700000011, -9.9285461 ], [ -150.200625699999989, -9.9282978 ], [ -150.2004272, -9.9278117 ], [ -150.2002448, -9.9276848 ], [ -150.2002072, -9.9275897 ], [ -150.200281499999988, -9.9272304 ], [ -150.2007008, -9.9271194 ], [ -150.2008617, -9.9269345 ], [ -150.2009744, -9.9266597 ], [ -150.2013928, -9.9260626 ], [ -150.201323, -9.9256452 ], [ -150.201178199999987, -9.9254444 ], [ -150.2010924, -9.9251485 ], [ -150.201441100000011, -9.9248895 ], [ -150.2018166, -9.9246306 ], [ -150.201886300000012, -9.9243506 ], [ -150.2016395, -9.9237482 ], [ -150.201494700000012, -9.9235474 ], [ -150.201425, -9.9232409 ], [ -150.2015054, -9.9230031 ], [ -150.201752199999987, -9.9225381 ], [ -150.2019185, -9.9221523 ], [ -150.2020901, -9.9218459 ], [ -150.202589, -9.9214865 ], [ -150.2027392, -9.9214073 ], [ -150.202809, -9.9213386 ], [ -150.2030397, -9.9207837 ], [ -150.202986, -9.9204086 ], [ -150.2029645, -9.9201126 ], [ -150.2029163, -9.919711 ], [ -150.2030236, -9.9194415 ], [ -150.2033293, -9.9190135 ], [ -150.203586800000011, -9.9187599 ], [ -150.203817500000014, -9.9186489 ], [ -150.204193, -9.9185696 ], [ -150.2044237, -9.9185115 ], [ -150.2046168, -9.9184851 ] ] ] ] } },
{ "type": "Feature", "properties": { "FID": 73969, "id": 200, "left": -155.0, "top": -5.0, "right": -150.0, "bottom": -10.0, "row_index": 19, "col_index": 5, "min_lon": -155.0, "min_lat": -10.0, "tile_id": "-155_-10" }, "geometry": { "type": "MultiPolygon", "coordinates": [ [ [ [ -150.208166799999987, -9.9341446 ], [ -150.20802470000001, -9.9336738 ], [ -150.207592299999988, -9.9331876 ], [ -150.206771, -9.9329018 ], [ -150.207152900000011, -9.9325129 ], [ -150.2077248, -9.931837 ], [ -150.2075639, -9.930907 ], [ -150.2071381, -9.9304695 ], [ -150.207159499999989, -9.9291591 ], [ -150.2071703, -9.928599 ], [ -150.2069879, -9.9275633 ], [ -150.2067626, -9.9258935 ], [ -150.2063871, -9.9249952 ], [ -150.206151, -9.9244774 ], [ -150.2058721, -9.9235051 ], [ -150.205464400000011, -9.9233994 ], [ -150.2045202, -9.9234205 ], [ -150.204048199999988, -9.9234945 ], [ -150.203383, -9.9241498 ], [ -150.2032489, -9.9246676 ], [ -150.2033401, -9.9248261 ], [ -150.2036673, -9.9250533 ], [ -150.203737, -9.9253598 ], [ -150.2040911, -9.9253493 ], [ -150.204708, -9.9253334 ], [ -150.2050299, -9.9252964 ], [ -150.205357099999986, -9.9251907 ], [ -150.205636, -9.9251696 ], [ -150.2057862, -9.925196 ], [ -150.2054268, -9.9253704 ], [ -150.204761600000012, -9.9255078 ], [ -150.2044505, -9.9256874 ], [ -150.2043003, -9.9258777 ], [ -150.2042037, -9.9260045 ], [ -150.203892599999989, -9.9263955 ], [ -150.203688699999987, -9.9266703 ], [ -150.2036458, -9.9270243 ], [ -150.2043026, -9.9277791 ], [ -150.2043486, -9.9284352 ], [ -150.2043808, -9.9287417 ], [ -150.20449880000001, -9.9289953 ], [ -150.2044559, -9.9292331 ], [ -150.2043861, -9.9294286 ], [ -150.2043593, -9.9296664 ], [ -150.204391500000014, -9.9298249 ], [ -150.204933899999986, -9.9298441 ], [ -150.2049316, -9.9301015 ], [ -150.204391500000014, -9.9304378 ], [ -150.204466599999989, -9.9306386 ], [ -150.2047509, -9.9306862 ], [ -150.2050299, -9.9308341 ], [ -150.2050299, -9.9310085 ], [ -150.204783099999986, -9.9312516 ], [ -150.2046436, -9.9314894 ], [ -150.2047294, -9.9316479 ], [ -150.2049869, -9.9317166 ], [ -150.205062, -9.9318064 ], [ -150.2048743, -9.9319385 ], [ -150.2046919, -9.9319966 ], [ -150.204573900000014, -9.9324141 ], [ -150.2045578, -9.9327153 ], [ -150.2045363, -9.9329795 ], [ -150.2044773, -9.9332595 ], [ -150.2045856, -9.9334223 ], [ -150.205093, -9.9337572 ], [ -150.2061943, -9.9338698 ], [ -150.2057394, -9.9339934 ], [ -150.2061804, -9.9342302 ], [ -150.207148100000012, -9.9342032 ], [ -150.2076207, -9.9342513 ], [ -150.2078616, -9.9344156 ], [ -150.208166799999987, -9.9341446 ] ] ] ] } },
{ "type": "Feature", "properties": { "FID": 73994, "id": 200, "left": -155.0, "top": -5.0, "right": -150.0, "bottom": -10.0, "row_index": 19, "col_index": 5, "min_lon": -155.0, "min_lat": -10.0, "tile_id": "-155_-10" }, "geometry": { "type": "MultiPolygon", "coordinates": [ [ [ [ -150.2081915, -9.9416908 ], [ -150.20846, -9.9417407 ], [ -150.208542200000011, -9.941861 ], [ -150.208935, -9.9418089 ], [ -150.209704, -9.9415381 ], [ -150.2098794, -9.9409297 ], [ -150.209516400000012, -9.9406965 ], [ -150.2081526, -9.9411709 ], [ -150.208114200000011, -9.9414956 ], [ -150.2078836, -9.9415444 ], [ -150.2072723, -9.941932 ], [ -150.207315200000011, -9.9420237 ], [ -150.2081915, -9.9416908 ] ] ] ] } },
{ "type": "Feature", "properties": { "FID": 74005, "id": 200, "left": -155.0, "top": -5.0, "right": -150.0, "bottom": -10.0, "row_index": 19, "col_index": 5, "min_lon": -155.0, "min_lat": -10.0, "tile_id": "-155_-10" }, "geometry": { "type": "MultiPolygon", "coordinates": [ [ [ [ -150.2329762, -9.9996751 ], [ -150.2328264, -9.9993529 ], [ -150.232721, -9.9990726 ], [ -150.232710200000014, -9.998757 ], [ -150.232958200000013, -9.9986654 ], [ -150.2330734, -9.9986711 ], [ -150.2331903, -9.9986207 ], [ -150.2332147, -9.9985031 ], [ -150.2332707, -9.9984575 ], [ -150.2333511, -9.9984575 ], [ -150.2334061, -9.9985059 ], [ -150.233555200000012, -9.9983007 ], [ -150.2335627, -9.9980798 ], [ -150.2333669, -9.9978287 ], [ -150.2325524, -9.9982358 ], [ -150.2324424, -9.9980129 ], [ -150.232411899999988, -9.9977806 ], [ -150.2327684, -9.9976599 ], [ -150.2330312, -9.9974195 ], [ -150.2329873, -9.9973689 ], [ -150.2328633, -9.9974269 ], [ -150.2329537, -9.9973305 ], [ -150.232963399999988, -9.9972705 ], [ -150.2329488, -9.9971578 ], [ -150.2328513, -9.9971458 ], [ -150.2329507, -9.9970613 ], [ -150.23305160000001, -9.9968733 ], [ -150.233053399999989, -9.9967336 ], [ -150.2329337, -9.9967465 ], [ -150.2329456, -9.9966037 ], [ -150.2329411, -9.9962508 ], [ -150.232812200000012, -9.9959167 ], [ -150.2327415, -9.995756 ], [ -150.2325832, -9.995612 ], [ -150.232456500000012, -9.9954249 ], [ -150.2324151, -9.9951657 ], [ -150.2322438, -9.995014 ], [ -150.2320642, -9.9947962 ], [ -150.231803500000012, -9.9947387 ], [ -150.231402800000012, -9.9949033 ], [ -150.2311501, -9.9952391 ], [ -150.231192, -9.9953649 ], [ -150.2307327, -9.9954856 ], [ -150.2303308, -9.9956832 ], [ -150.230038900000011, -9.9960337 ], [ -150.2299122, -9.996324 ], [ -150.2296443, -9.9966461 ], [ -150.229188599999986, -9.9968447 ], [ -150.228732400000013, -9.9972453 ], [ -150.2288361, -9.9979653 ], [ -150.2288153, -9.9987445 ], [ -150.228701, -9.9992901 ], [ -150.2284156, -9.999938 ], [ -150.228381828761798, -10.0 ], [ -150.233167524275615, -10.0 ], [ -150.2329762, -9.9996751 ] ] ] ] } },
{ "type": "Feature", "properties": { "FID": 74009, "id": 200, "left": -155.0, "top": -5.0, "right": -150.0, "bottom": -10.0, "row_index": 19, "col_index": 5, "min_lon": -155.0, "min_lat": -10.0, "tile_id": "-155_-10" }, "geometry": { "type": "MultiPolygon", "coordinates": [ [ [ [ -150.221486199999987, -9.9988555 ], [ -150.2216814, -9.9986408 ], [ -150.2217812, -9.9984387 ], [ -150.2220834, -9.9980427 ], [ -150.222208200000011, -9.9979138 ], [ -150.222257899999988, -9.9978393 ], [ -150.2222845, -9.9977761 ], [ -150.2222174, -9.9977497 ], [ -150.222148, -9.9977467 ], [ -150.2220807, -9.9976916 ], [ -150.221922400000011, -9.9976968 ], [ -150.2218092, -9.9977806 ], [ -150.2213566, -9.9980949 ], [ -150.2210122, -9.9982831 ], [ -150.22111, -9.9985364 ], [ -150.221486199999987, -9.9988555 ] ] ] ] } },
{ "type": "Feature", "properties": { "FID": 74011, "id": 200, "left": -155.0, "top": -5.0, "right": -150.0, "bottom": -10.0, "row_index": 19, "col_index": 5, "min_lon": -155.0, "min_lat": -10.0, "tile_id": "-155_-10" }, "geometry": { "type": "MultiPolygon", "coordinates": [ [ [ [ -150.2201377, -9.9970708 ], [ -150.2200221, -9.9970945 ], [ -150.2199537, -9.9972002 ], [ -150.2199944, -9.9973089 ], [ -150.220542, -9.9972496 ], [ -150.221552300000013, -9.9968595 ], [ -150.2217267, -9.9968371 ], [ -150.2218535, -9.9966575 ], [ -150.2218393, -9.9965887 ], [ -150.2217949, -9.996537 ], [ -150.2216756, -9.996561 ], [ -150.2215737, -9.9966297 ], [ -150.221463699999987, -9.9967076 ], [ -150.2211451, -9.9967903 ], [ -150.2206562, -9.9970245 ], [ -150.2201377, -9.9970708 ] ] ] ] } },
{ "type": "Feature", "properties": { "FID": 74049, "id": 200, "left": -155.0, "top": -5.0, "right": -150.0, "bottom": -10.0, "row_index": 19, "col_index": 5, "min_lon": -155.0, "min_lat": -10.0, "tile_id": "-155_-10" }, "geometry": { "type": "MultiPolygon", "coordinates": [ [ [ [ -150.2290854, -9.9926239 ], [ -150.2292377, -9.9926378 ], [ -150.2295428, -9.9926168 ], [ -150.2308457, -9.9923224 ], [ -150.2312212, -9.992152 ], [ -150.2313349, -9.9917656 ], [ -150.231253400000014, -9.9911501 ], [ -150.2310635, -9.9908323 ], [ -150.2311483, -9.9904908 ], [ -150.2310383, -9.9902211 ], [ -150.2307261, -9.9898827 ], [ -150.2308084, -9.989413 ], [ -150.2305313, -9.9887212 ], [ -150.2300813, -9.9884095 ], [ -150.2303154, -9.9880225 ], [ -150.2301867, -9.9877335 ], [ -150.2300046, -9.9876416 ], [ -150.2296974, -9.9870026 ], [ -150.2286573, -9.9874445 ], [ -150.2281404, -9.9880023 ], [ -150.227806, -9.9881629 ], [ -150.227345, -9.9884755 ], [ -150.2272017, -9.9887264 ], [ -150.2274636, -9.988806 ], [ -150.2275046, -9.9888925 ], [ -150.2275117, -9.9891279 ], [ -150.2277382, -9.9891596 ], [ -150.2284132, -9.9890207 ], [ -150.2288021, -9.9889368 ], [ -150.2290363, -9.9888505 ], [ -150.229454299999986, -9.9886546 ], [ -150.2295155, -9.9887075 ], [ -150.229133600000011, -9.9889611 ], [ -150.2275345, -9.989487 ], [ -150.2278875, -9.9897842 ], [ -150.2278738, -9.9898625 ], [ -150.2280767, -9.9899555 ], [ -150.228242099999989, -9.9899184 ], [ -150.2282401, -9.9900878 ], [ -150.2280934, -9.9901592 ], [ -150.2280024, -9.9906509 ], [ -150.2279167, -9.9906958 ], [ -150.2278518, -9.9908525 ], [ -150.2279124, -9.9909849 ], [ -150.228084200000012, -9.991058 ], [ -150.228085600000014, -9.9911461 ], [ -150.2281642, -9.991334 ], [ -150.2281347, -9.9915882 ], [ -150.22819290000001, -9.9916624 ], [ -150.2284616, -9.9918076 ], [ -150.2284548, -9.9919598 ], [ -150.2283375, -9.9919771 ], [ -150.22831930000001, -9.9920923 ], [ -150.228088500000013, -9.9922001 ], [ -150.2279586, -9.9923264 ], [ -150.2280431, -9.9924664 ], [ -150.2283792, -9.9925855 ], [ -150.228807499999988, -9.9926114 ], [ -150.2290854, -9.9926239 ] ] ] ] } },
{ "type": "Feature", "properties": { "FID": 74068, "id": 200, "left": -155.0, "top": -5.0, "right": -150.0, "bottom": -10.0, "row_index": 19, "col_index": 5, "min_lon": -155.0, "min_lat": -10.0, "tile_id": "-155_-10" }, "geometry": { "type": "MultiPolygon", "coordinates": [ [ [ [ -150.2294657, -9.9941622 ], [ -150.230883, -9.9937132 ], [ -150.2310694, -9.9934945 ], [ -150.2309407, -9.993454 ], [ -150.2302492, -9.9937457 ], [ -150.22887510000001, -9.9942222 ], [ -150.2289513, -9.99433 ], [ -150.2294657, -9.9941622 ] ] ] ] } },
{ "type": "Feature", "properties": { "FID": 74075, "id": 200, "left": -155.0, "top": -5.0, "right": -150.0, "bottom": -10.0, "row_index": 19, "col_index": 5, "min_lon": -155.0, "min_lat": -10.0, "tile_id": "-155_-10" }, "geometry": { "type": "MultiPolygon", "coordinates": [ [ [ [ -150.220594799999986, -9.9965354 ], [ -150.220460300000013, -9.9963658 ], [ -150.2197261, -9.9963387 ], [ -150.219892499999986, -9.9962539 ], [ -150.2204389, -9.9961204 ], [ -150.2205615, -9.9960894 ], [ -150.220798800000011, -9.9961177 ], [ -150.221009, -9.9960552 ], [ -150.2213394, -9.9956963 ], [ -150.2213063, -9.9956095 ], [ -150.2211824, -9.9956177 ], [ -150.2213724, -9.9954306 ], [ -150.221589099999989, -9.9953005 ], [ -150.2217111, -9.9952354 ], [ -150.221753400000011, -9.9949293 ], [ -150.2212941, -9.9947963 ], [ -150.2212796, -9.9947921 ], [ -150.2210947, -9.9946802 ], [ -150.2210044, -9.9945095 ], [ -150.2208603, -9.9940586 ], [ -150.2207268, -9.9939662 ], [ -150.2202495, -9.9936869 ], [ -150.2199575, -9.9935284 ], [ -150.219798, -9.9934249 ], [ -150.2196668, -9.9930472 ], [ -150.219604800000013, -9.9927856 ], [ -150.2196339, -9.9927035 ], [ -150.2196518, -9.992614 ], [ -150.219714, -9.9924661 ], [ -150.219871899999987, -9.9922825 ], [ -150.2199866, -9.992036 ], [ -150.2200368, -9.9918566 ], [ -150.2200714, -9.9915981 ], [ -150.219671299999987, -9.9915478 ], [ -150.2190047, -9.9917499 ], [ -150.2184374, -9.992233 ], [ -150.218198300000012, -9.9925064 ], [ -150.2176964, -9.9927224 ], [ -150.2175177, -9.9928287 ], [ -150.2174216, -9.9929279 ], [ -150.2171081, -9.9933616 ], [ -150.2171928, -9.9936888 ], [ -150.217563, -9.9939422 ], [ -150.217361, -9.994627 ], [ -150.217669300000011, -9.9946413 ], [ -150.217894699999988, -9.9949728 ], [ -150.21787470000001, -9.9951083 ], [ -150.21850950000001, -9.9953173 ], [ -150.2190109, -9.9951978 ], [ -150.2191789, -9.99529 ], [ -150.219495099999989, -9.9956178 ], [ -150.219654600000013, -9.9958222 ], [ -150.2197461, -9.9959215 ], [ -150.2196347, -9.9960462 ], [ -150.2195777, -9.9961021 ], [ -150.2195888, -9.9961693 ], [ -150.2195501, -9.9962052 ], [ -150.219485, -9.9964664 ], [ -150.219776200000013, -9.9965047 ], [ -150.2198747, -9.9966307 ], [ -150.220344899999986, -9.9967232 ], [ -150.220594799999986, -9.9965354 ] ] ] ] } },
{ "type": "Feature", "properties": { "FID": 74127, "id": 200, "left": -155.0, "top": -5.0, "right": -150.0, "bottom": -10.0, "row_index": 19, "col_index": 5, "min_lon": -155.0, "min_lat": -10.0, "tile_id": "-155_-10" }, "geometry": { "type": "MultiPolygon", "coordinates": [ [ [ [ -150.2178274, -9.9895639 ], [ -150.2174196, -9.9895765 ], [ -150.2171391, -9.989445 ], [ -150.216785, -9.989127 ], [ -150.216566699999987, -9.9887535 ], [ -150.216422200000011, -9.9885566 ], [ -150.2163327, -9.9882508 ], [ -150.216273300000012, -9.9880561 ], [ -150.2164426, -9.9878387 ], [ -150.2164297, -9.9876554 ], [ -150.2165536, -9.9874629 ], [ -150.2165247, -9.9874073 ], [ -150.216489200000012, -9.9873905 ], [ -150.2162788, -9.9874088 ], [ -150.216217300000011, -9.9874213 ], [ -150.2161487, -9.9874503 ], [ -150.2161235, -9.9874609 ], [ -150.216021500000011, -9.9874979 ], [ -150.215949099999989, -9.9875138 ], [ -150.215793600000012, -9.9874979 ], [ -150.215664800000013, -9.9874636 ], [ -150.215503899999987, -9.9873817 ], [ -150.2153108, -9.987416 ], [ -150.215241, -9.9874372 ], [ -150.215072, -9.9875983 ], [ -150.2150023, -9.9876723 ], [ -150.214943299999987, -9.9878545 ], [ -150.214908400000013, -9.9879813 ], [ -150.2148762, -9.9880659 ], [ -150.2147636, -9.9882296 ], [ -150.214774299999988, -9.9883221 ], [ -150.214777, -9.988544 ], [ -150.214712600000013, -9.9887051 ], [ -150.2147099, -9.9888478 ], [ -150.2146402, -9.9889587 ], [ -150.2145356, -9.9891093 ], [ -150.214524899999986, -9.9892281 ], [ -150.2146161, -9.9893047 ], [ -150.214726, -9.9893338 ], [ -150.21486010000001, -9.9893523 ], [ -150.214921800000013, -9.989421 ], [ -150.2149648, -9.9895504 ], [ -150.2149621, -9.9896323 ], [ -150.2150399, -9.9898119 ], [ -150.215077400000013, -9.9898991 ], [ -150.2151096, -9.9899546 ], [ -150.2152035, -9.9900312 ], [ -150.2153161, -9.9901025 ], [ -150.2154878, -9.9901765 ], [ -150.2156219, -9.9902689 ], [ -150.2156702, -9.9903455 ], [ -150.2157319, -9.99043 ], [ -150.2157882, -9.9904406 ], [ -150.215925, -9.9904485 ], [ -150.216021500000011, -9.9904829 ], [ -150.21616370000001, -9.9905172 ], [ -150.2162361, -9.9905859 ], [ -150.2164507, -9.990644 ], [ -150.216684, -9.9906625 ], [ -150.216861099999988, -9.990607 ], [ -150.2170408, -9.99057 ], [ -150.21728490000001, -9.9905199 ], [ -150.2173814, -9.9904776 ], [ -150.21748070000001, -9.9903508 ], [ -150.2175853, -9.9902953 ], [ -150.2177677, -9.9902293 ], [ -150.2178347, -9.9902346 ], [ -150.2180386, -9.990158 ], [ -150.2181593, -9.9901104 ], [ -150.21817, -9.9899968 ], [ -150.218143199999986, -9.9899044 ], [ -150.2181271, -9.9898463 ], [ -150.2181324, -9.9897565 ], [ -150.2181244, -9.9896297 ], [ -150.2180653, -9.989539 ], [ -150.218021, -9.9895725 ], [ -150.2178274, -9.9895639 ] ] ] ] } },
{ "type": "Feature", "properties": { "FID": 74174, "id": 200, "left": -155.0, "top": -5.0, "right": -150.0, "bottom": -10.0, "row_index": 19, "col_index": 5, "min_lon": -155.0, "min_lat": -10.0, "tile_id": "-155_-10" }, "geometry": { "type": "MultiPolygon", "coordinates": [ [ [ [ -150.2232856, -9.9822018 ], [ -150.2241292, -9.9820216 ], [ -150.224790899999988, -9.9816354 ], [ -150.224780399999986, -9.9813831 ], [ -150.224912100000012, -9.9811396 ], [ -150.22498010000001, -9.9806377 ], [ -150.2248722, -9.9804826 ], [ -150.2240468, -9.9810197 ], [ -150.222840600000012, -9.9823352 ], [ -150.222986, -9.9824181 ], [ -150.2232856, -9.9822018 ] ] ] ] } },
{ "type": "Feature", "properties": { "FID": 74176, "id": 200, "left": -155.0, "top": -5.0, "right": -150.0, "bottom": -10.0, "row_index": 19, "col_index": 5, "min_lon": -155.0, "min_lat": -10.0, "tile_id": "-155_-10" }, "geometry": { "type": "MultiPolygon", "coordinates": [ [ [ [ -150.2088556, -9.9805779 ], [ -150.2092865, -9.9804937 ], [ -150.2091504, -9.9812651 ], [ -150.2099677, -9.9816172 ], [ -150.2099771, -9.9823007 ], [ -150.210045900000011, -9.9828175 ], [ -150.2107264, -9.9836923 ], [ -150.2108705, -9.9846778 ], [ -150.21110680000001, -9.9849534 ], [ -150.211588, -9.9853062 ], [ -150.2114388, -9.9857389 ], [ -150.2115274, -9.9859531 ], [ -150.21207, -9.9854272 ], [ -150.2129817, -9.9849823 ], [ -150.2130235, -9.9848761 ], [ -150.212765499999989, -9.9848698 ], [ -150.212803, -9.9847948 ], [ -150.2130817, -9.9846852 ], [ -150.2138156, -9.9841516 ], [ -150.2140406, -9.9837326 ], [ -150.213763, -9.98367 ], [ -150.2139135, -9.9833216 ], [ -150.213653, -9.9831998 ], [ -150.2132973, -9.9831213 ], [ -150.213214599999986, -9.9831744 ], [ -150.2130015, -9.9830891 ], [ -150.212876, -9.9828239 ], [ -150.2133708, -9.9823495 ], [ -150.2134376, -9.9821223 ], [ -150.2133633, -9.9819252 ], [ -150.2134285, -9.9818402 ], [ -150.2133958, -9.9816661 ], [ -150.212850800000012, -9.9818687 ], [ -150.2130436, -9.9815565 ], [ -150.212972, -9.9812994 ], [ -150.2134586, -9.9811542 ], [ -150.2134982, -9.980969 ], [ -150.213358199999988, -9.9807019 ], [ -150.2133167, -9.9805146 ], [ -150.2133998, -9.9804222 ], [ -150.213388, -9.9802758 ], [ -150.213258700000011, -9.9803059 ], [ -150.2131579, -9.9801892 ], [ -150.213280700000013, -9.9801152 ], [ -150.2132748, -9.979753 ], [ -150.2129948, -9.9794706 ], [ -150.212704699999989, -9.9800089 ], [ -150.211986599999989, -9.9804607 ], [ -150.21147830000001, -9.9801941 ], [ -150.2112715, -9.9802592 ], [ -150.2113047, -9.9801004 ], [ -150.2117921, -9.9800058 ], [ -150.211930200000012, -9.9798788 ], [ -150.211685100000011, -9.9796785 ], [ -150.2117256, -9.9792799 ], [ -150.211415, -9.9792741 ], [ -150.2111983, -9.9793404 ], [ -150.2106618, -9.979772 ], [ -150.210505399999988, -9.9796965 ], [ -150.2103075, -9.9798877 ], [ -150.209999, -9.9800793 ], [ -150.2100567, -9.9798595 ], [ -150.2104773, -9.9795277 ], [ -150.21051, -9.9794014 ], [ -150.2103998, -9.9793811 ], [ -150.210289499999988, -9.9794199 ], [ -150.2097559, -9.9796709 ], [ -150.2095735, -9.9797554 ], [ -150.209224799999987, -9.9798981 ], [ -150.2088922, -9.9800143 ], [ -150.2088654, -9.9801517 ], [ -150.2088556, -9.9805779 ] ] ] ] } },
{ "type": "Feature", "properties": { "FID": 74191, "id": 200, "left": -155.0, "top": -5.0, "right": -150.0, "bottom": -10.0, "row_index": 19, "col_index": 5, "min_lon": -155.0, "min_lat": -10.0, "tile_id": "-155_-10" }, "geometry": { "type": "MultiPolygon", "coordinates": [ [ [ [ -150.2022603, -9.9696914 ], [ -150.2022909, -9.9698256 ], [ -150.202463599999987, -9.9699363 ], [ -150.2027699, -9.9697559 ], [ -150.2028367, -9.9696233 ], [ -150.202996899999988, -9.9695311 ], [ -150.2030594, -9.9695789 ], [ -150.203399499999989, -9.9693113 ], [ -150.2037742, -9.9692212 ], [ -150.2039641, -9.96905 ], [ -150.2040177, -9.9688398 ], [ -150.2040259, -9.9687217 ], [ -150.203739, -9.9686837 ], [ -150.2033947, -9.9683643 ], [ -150.203568600000011, -9.9681973 ], [ -150.2035376, -9.9678264 ], [ -150.203422499999988, -9.9677983 ], [ -150.2029975, -9.9678628 ], [ -150.2025156, -9.9680381 ], [ -150.2022876, -9.968234 ], [ -150.2020656, -9.9685301 ], [ -150.201989700000013, -9.9689171 ], [ -150.2018803, -9.9691737 ], [ -150.2018562, -9.9694545 ], [ -150.2020221, -9.9695346 ], [ -150.2021085, -9.9696553 ], [ -150.2022603, -9.9696914 ] ] ] ] } },
{ "type": "Feature", "properties": { "FID": 74197, "id": 200, "left": -155.0, "top": -5.0, "right": -150.0, "bottom": -10.0, "row_index": 19, "col_index": 5, "min_lon": -155.0, "min_lat": -10.0, "tile_id": "-155_-10" }, "geometry": { "type": "MultiPolygon", "coordinates": [ [ [ [ -150.215840899999989, -9.9732149 ], [ -150.2157652, -9.9733568 ], [ -150.2155893, -9.9734345 ], [ -150.2155056, -9.973534 ], [ -150.2155196, -9.9737129 ], [ -150.215783499999986, -9.973794 ], [ -150.216045, -9.9737964 ], [ -150.2162083, -9.9738946 ], [ -150.216123900000014, -9.9740568 ], [ -150.2163634, -9.9741163 ], [ -150.216353700000013, -9.9745255 ], [ -150.2162333, -9.974582 ], [ -150.2161155, -9.9747548 ], [ -150.2160552, -9.9752599 ], [ -150.2165542, -9.9751273 ], [ -150.2167813, -9.9752612 ], [ -150.217286300000012, -9.9749759 ], [ -150.217694, -9.9746015 ], [ -150.217923899999988, -9.9743633 ], [ -150.2178705, -9.9746871 ], [ -150.217259, -9.975421 ], [ -150.2169776, -9.9755145 ], [ -150.216952099999986, -9.975854 ], [ -150.2174786, -9.9757073 ], [ -150.2176179, -9.9757948 ], [ -150.2170227, -9.9761231 ], [ -150.2165163, -9.97654 ], [ -150.2165683, -9.9766396 ], [ -150.2167239, -9.9768863 ], [ -150.2168639, -9.9768168 ], [ -150.2169926, -9.976847 ], [ -150.2172981, -9.9769051 ], [ -150.217623800000013, -9.9770533 ], [ -150.2180481, -9.9768628 ], [ -150.2190689, -9.9766655 ], [ -150.2199444, -9.9758238 ], [ -150.2197247, -9.9753676 ], [ -150.2190979, -9.9742013 ], [ -150.2196003, -9.9731056 ], [ -150.2194855, -9.9729851 ], [ -150.2195083, -9.9726874 ], [ -150.2192755, -9.9727975 ], [ -150.219175400000012, -9.9725817 ], [ -150.219353, -9.9724977 ], [ -150.2193782, -9.9721916 ], [ -150.2188688, -9.9717728 ], [ -150.2185577, -9.971831 ], [ -150.218268, -9.9720898 ], [ -150.217973, -9.9721902 ], [ -150.2174097, -9.9725865 ], [ -150.217334599999987, -9.9725284 ], [ -150.2171898, -9.9725759 ], [ -150.217125399999986, -9.972671 ], [ -150.21681430000001, -9.9727661 ], [ -150.2166694, -9.9727397 ], [ -150.216497800000013, -9.9727872 ], [ -150.2163583, -9.9729563 ], [ -150.216203900000011, -9.9730457 ], [ -150.215840899999989, -9.9732149 ] ] ] ] } },
{ "type": "Feature", "properties": { "FID": 74198, "id": 200, "left": -155.0, "top": -5.0, "right": -150.0, "bottom": -10.0, "row_index": 19, "col_index": 5, "min_lon": -155.0, "min_lat": -10.0, "tile_id": "-155_-10" }, "geometry": { "type": "MultiPolygon", "coordinates": [ [ [ [ -150.2045373, -9.9736764 ], [ -150.204678300000012, -9.974073 ], [ -150.204971300000011, -9.9738713 ], [ -150.2057135, -9.9736439 ], [ -150.2058644, -9.9733544 ], [ -150.2059521, -9.9732369 ], [ -150.205693599999989, -9.9732754 ], [ -150.20598, -9.9730358 ], [ -150.2061093, -9.9728834 ], [ -150.2054087, -9.9732472 ], [ -150.2051947, -9.9733254 ], [ -150.2048929, -9.9735309 ], [ -150.2045373, -9.9736764 ] ] ] ] } },
{ "type": "Feature", "properties": { "FID": 425422, "id": 200, "left": -155.0, "top": -5.0, "right": -150.0, "bottom": -10.0, "row_index": 19, "col_index": 5, "min_lon": -155.0, "min_lat": -10.0, "tile_id": "-155_-10" }, "geometry": { "type": "MultiPolygon", "coordinates": [ [ [ [ -150.2150399, -9.9654058 ], [ -150.2142408, -9.9654543 ], [ -150.2132642, -9.965876 ], [ -150.2128458, -9.966156 ], [ -150.2127117, -9.966547 ], [ -150.2128995, -9.9667055 ], [ -150.213194499999986, -9.9668165 ], [ -150.2133447, -9.9667795 ], [ -150.2135164, -9.9668006 ], [ -150.2136719, -9.9669538 ], [ -150.2136773, -9.9673607 ], [ -150.2136988, -9.9678309 ], [ -150.2137041, -9.9681638 ], [ -150.2136518, -9.9683952 ], [ -150.213614400000012, -9.9686357 ], [ -150.2135972, -9.969075 ], [ -150.2135438, -9.9692502 ], [ -150.2136319, -9.9692475 ], [ -150.2137256, -9.969194 ], [ -150.214124199999986, -9.9689767 ], [ -150.2142101, -9.9689684 ], [ -150.2140796, -9.9690884 ], [ -150.2139041, -9.9691988 ], [ -150.213854, -9.9692667 ], [ -150.213928900000013, -9.9694182 ], [ -150.2140528, -9.9694899 ], [ -150.2141819, -9.9695536 ], [ -150.2142781, -9.9697065 ], [ -150.2149111, -9.9696167 ], [ -150.2153027, -9.9695163 ], [ -150.2156353, -9.9694106 ], [ -150.2157426, -9.9693684 ], [ -150.215925, -9.969342 ], [ -150.2160376, -9.9693948 ], [ -150.2160752, -9.9695057 ], [ -150.2159518, -9.9697065 ], [ -150.2158552, -9.9698069 ], [ -150.2157158, -9.9699813 ], [ -150.2155119, -9.970145 ], [ -150.215334899999988, -9.970256 ], [ -150.2150023, -9.9703986 ], [ -150.2149379, -9.9706628 ], [ -150.215007, -9.9707129 ], [ -150.2151225, -9.9707184 ], [ -150.215169300000014, -9.970824 ], [ -150.215174499999989, -9.970901 ], [ -150.2151638, -9.970954 ], [ -150.2152873, -9.9710611 ], [ -150.2155071, -9.9710256 ], [ -150.2156836, -9.9709745 ], [ -150.2161098, -9.9706561 ], [ -150.216277600000012, -9.9705938 ], [ -150.2164014, -9.9705992 ], [ -150.2158552, -9.9710379 ], [ -150.2157748, -9.9710908 ], [ -150.215495800000014, -9.9712757 ], [ -150.215292, -9.9714448 ], [ -150.2151364, -9.9716191 ], [ -150.2151364, -9.9718886 ], [ -150.215206200000011, -9.9719889 ], [ -150.2154261, -9.9719308 ], [ -150.2155548, -9.9719203 ], [ -150.215624600000012, -9.9720365 ], [ -150.2155066, -9.972121 ], [ -150.2153724, -9.9722056 ], [ -150.215174, -9.9723429 ], [ -150.215115, -9.972512 ], [ -150.2154315, -9.9725384 ], [ -150.215999900000014, -9.9724211 ], [ -150.2173889, -9.9719904 ], [ -150.2183461, -9.9714107 ], [ -150.2187413, -9.9712017 ], [ -150.2184838, -9.9708055 ], [ -150.2182656, -9.9709359 ], [ -150.21819450000001, -9.970843 ], [ -150.2177518, -9.9708917 ], [ -150.218315600000011, -9.970526 ], [ -150.2180995, -9.9698637 ], [ -150.2175964, -9.9699434 ], [ -150.2174547, -9.9700574 ], [ -150.2174272, -9.9701522 ], [ -150.2172842, -9.9702091 ], [ -150.2171164, -9.9701929 ], [ -150.217097200000012, -9.9700276 ], [ -150.217205799999988, -9.9698607 ], [ -150.2174056, -9.9696484 ], [ -150.2176995, -9.9694507 ], [ -150.2175675, -9.9693667 ], [ -150.21727150000001, -9.9693155 ], [ -150.216772600000013, -9.9692257 ], [ -150.2163971, -9.9693155 ], [ -150.2162902, -9.9688187 ], [ -150.2160537, -9.9681585 ], [ -150.2163488, -9.9680317 ], [ -150.2160269, -9.9678996 ], [ -150.21630110000001, -9.9675313 ], [ -150.2166599, -9.9672603 ], [ -150.216558, -9.9659606 ], [ -150.2159572, -9.9654692 ], [ -150.2150399, -9.9654058 ] ] ] ] } },
{ "type": "Feature", "properties": { "FID": 425423, "id": 200, "left": -155.0, "top": -5.0, "right": -150.0, "bottom": -10.0, "row_index": 19, "col_index": 5, "min_lon": -155.0, "min_lat": -10.0, "tile_id": "-155_-10" }, "geometry": { "type": "MultiPolygon", "coordinates": [ [ [ [ -150.205709899999988, -9.9706422 ], [ -150.205291499999987, -9.9710279 ], [ -150.204535099999987, -9.9714611 ], [ -150.203912800000012, -9.9716936 ], [ -150.2037841, -9.9719578 ], [ -150.2035856, -9.9719947 ], [ -150.2034515, -9.9718521 ], [ -150.203306700000013, -9.9719947 ], [ -150.20346760000001, -9.9722536 ], [ -150.2041328, -9.9722536 ], [ -150.204578, -9.9718785 ], [ -150.204755, -9.9715192 ], [ -150.2053022, -9.9711811 ], [ -150.205999600000013, -9.9705418 ], [ -150.205709899999988, -9.9706422 ] ] ] ] } },
{ "type": "Feature", "properties": { "FID": 425424, "id": 200, "left": -155.0, "top": -5.0, "right": -150.0, "bottom": -10.0, "row_index": 19, "col_index": 5, "min_lon": -155.0, "min_lat": -10.0, "tile_id": "-155_-10" }, "geometry": { "type": "MultiPolygon", "coordinates": [ [ [ [ -150.2076942, -9.9765572 ], [ -150.2083117, -9.9761247 ], [ -150.2084423, -9.9758349 ], [ -150.208420600000011, -9.9757079 ], [ -150.2088398, -9.9753087 ], [ -150.208929899999987, -9.9749716 ], [ -150.208390799999989, -9.9750628 ], [ -150.2080762, -9.9750234 ], [ -150.2077277, -9.9748211 ], [ -150.207377400000013, -9.9743736 ], [ -150.207350600000012, -9.9740751 ], [ -150.2074622, -9.9737298 ], [ -150.2077516, -9.9734065 ], [ -150.2076084, -9.9731798 ], [ -150.2067518, -9.9737219 ], [ -150.206510400000013, -9.9738857 ], [ -150.206295899999986, -9.9740812 ], [ -150.2062798, -9.9742238 ], [ -150.206011499999988, -9.9746148 ], [ -150.2058399, -9.9748578 ], [ -150.205491200000012, -9.9753386 ], [ -150.205405399999989, -9.9758933 ], [ -150.2060911, -9.9769728 ], [ -150.2063336, -9.9769965 ], [ -150.20648, -9.9772518 ], [ -150.2068391, -9.9770345 ], [ -150.207217, -9.9769373 ], [ -150.2076942, -9.9765572 ] ] ] ] } },
{ "type": "Feature", "properties": { "FID": 425425, "id": 200, "left": -155.0, "top": -5.0, "right": -150.0, "bottom": -10.0, "row_index": 19, "col_index": 5, "min_lon": -155.0, "min_lat": -10.0, "tile_id": "-155_-10" }, "geometry": { "type": "MultiPolygon", "coordinates": [ [ [ [ -150.226974500000011, -9.9871524 ], [ -150.2267706, -9.9872633 ], [ -150.2265882, -9.9874113 ], [ -150.2265078, -9.9875328 ], [ -150.2266419, -9.9876226 ], [ -150.2269155, -9.987649 ], [ -150.227173, -9.9876226 ], [ -150.2277738, -9.9875011 ], [ -150.227993700000013, -9.9874218 ], [ -150.228251199999988, -9.9872475 ], [ -150.2286857, -9.9869992 ], [ -150.228932500000013, -9.9870309 ], [ -150.2296191, -9.986883 ], [ -150.2295977, -9.986566 ], [ -150.2294743, -9.986455 ], [ -150.229581599999989, -9.985969 ], [ -150.229485, -9.9855146 ], [ -150.229426, -9.9851395 ], [ -150.2293402, -9.9851025 ], [ -150.2291739, -9.9846746 ], [ -150.2289218, -9.9844052 ], [ -150.2287072, -9.9843576 ], [ -150.228798399999988, -9.9842361 ], [ -150.228557, -9.9842995 ], [ -150.228514100000012, -9.9842308 ], [ -150.228734, -9.9840882 ], [ -150.228669599999989, -9.9839772 ], [ -150.228498, -9.9839244 ], [ -150.228433599999988, -9.9837606 ], [ -150.2282834, -9.9836655 ], [ -150.2281332, -9.9837025 ], [ -150.228197599999987, -9.9836021 ], [ -150.2280795, -9.9835915 ], [ -150.228197599999987, -9.98347 ], [ -150.2281332, -9.9833591 ], [ -150.2276718, -9.9838134 ], [ -150.227704, -9.983898 ], [ -150.2278274, -9.9837817 ], [ -150.2278757, -9.9838029 ], [ -150.2277899, -9.9839402 ], [ -150.227983, -9.9841146 ], [ -150.2282995, -9.9839983 ], [ -150.2283639, -9.9840987 ], [ -150.2280903, -9.9845267 ], [ -150.2281332, -9.9846165 ], [ -150.2285248, -9.984458 ], [ -150.2286106, -9.9845795 ], [ -150.22812780000001, -9.9847433 ], [ -150.2279562, -9.9845901 ], [ -150.2278435, -9.9847063 ], [ -150.2277469, -9.9844369 ], [ -150.2271944, -9.9846535 ], [ -150.2271515, -9.9844844 ], [ -150.226523899999989, -9.9848806 ], [ -150.226035700000011, -9.9858158 ], [ -150.2261752, -9.9867086 ], [ -150.2264917, -9.9871524 ], [ -150.2266794, -9.9871999 ], [ -150.2268296, -9.9871788 ], [ -150.226920799999988, -9.9871101 ], [ -150.226974500000011, -9.9871524 ] ] ] ] } },
{ "type": "Feature", "properties": { "FID": 532056, "id": 200, "left": -155.0, "top": -5.0, "right": -150.0, "bottom": -10.0, "row_index": 19, "col_index": 5, "min_lon": -155.0, "min_lat": -10.0, "tile_id": "-155_-10" }, "geometry": { "type": "MultiPolygon", "coordinates": [ [ [ [ -150.203635100000014, -9.9205354 ], [ -150.2036941, -9.9208524 ], [ -150.203978400000011, -9.9211906 ], [ -150.204080299999987, -9.9214601 ], [ -150.2040964, -9.9216979 ], [ -150.2041447, -9.9220044 ], [ -150.2040857, -9.9222844 ], [ -150.204080299999987, -9.9224905 ], [ -150.204338400000012, -9.9225871 ], [ -150.2053678, -9.922517 ], [ -150.205748699999987, -9.9223901 ], [ -150.2060491, -9.9221206 ], [ -150.2062422, -9.9216821 ], [ -150.206145600000013, -9.9207256 ], [ -150.2060759, -9.9200228 ], [ -150.2059794, -9.9196688 ], [ -150.205700400000012, -9.9194627 ], [ -150.2055985, -9.9194574 ], [ -150.2052337, -9.9192883 ], [ -150.2050299, -9.9192936 ], [ -150.204831399999989, -9.9193676 ], [ -150.204418299999986, -9.9196212 ], [ -150.2041715, -9.919859 ], [ -150.2040428, -9.9199858 ], [ -150.203635100000014, -9.9205354 ] ] ] ] } },
{ "type": "Feature", "properties": { "FID": 532057, "id": 200, "left": -155.0, "top": -5.0, "right": -150.0, "bottom": -10.0, "row_index": 19, "col_index": 5, "min_lon": -155.0, "min_lat": -10.0, "tile_id": "-155_-10" }, "geometry": { "type": "MultiPolygon", "coordinates": [ [ [ [ -150.1994938, -9.9481944 ], [ -150.199477699999989, -9.9482472 ], [ -150.199491099999989, -9.9483186 ], [ -150.1995447, -9.9484057 ], [ -150.199571600000013, -9.9484771 ], [ -150.1996011, -9.9486171 ], [ -150.1996896, -9.9486065 ], [ -150.1997218, -9.9485299 ], [ -150.1997137, -9.9483952 ], [ -150.1996896, -9.9482895 ], [ -150.199576900000011, -9.948197 ], [ -150.1994938, -9.9481944 ] ] ] ] } },
{ "type": "Feature", "properties": { "FID": 532058, "id": 200, "left": -155.0, "top": -5.0, "right": -150.0, "bottom": -10.0, "row_index": 19, "col_index": 5, "min_lon": -155.0, "min_lat": -10.0, "tile_id": "-155_-10" }, "geometry": { "type": "MultiPolygon", "coordinates": [ [ [ [ -150.2135379, -9.9601862 ], [ -150.2137256, -9.9596943 ], [ -150.2136451, -9.9594565 ], [ -150.213586099999986, -9.9592822 ], [ -150.213430499999987, -9.9590814 ], [ -150.2133179, -9.9588753 ], [ -150.2133232, -9.9586587 ], [ -150.2133662, -9.9584157 ], [ -150.2133715, -9.9582043 ], [ -150.2133393, -9.9580617 ], [ -150.2130067, -9.9580511 ], [ -150.2129316, -9.9579718 ], [ -150.21291020000001, -9.9578292 ], [ -150.2129424, -9.9576812 ], [ -150.2129263, -9.9575016 ], [ -150.2126902, -9.9573801 ], [ -150.2124006, -9.9573695 ], [ -150.212228900000014, -9.9574065 ], [ -150.2120251, -9.9575492 ], [ -150.2118319, -9.957676 ], [ -150.211472500000013, -9.9578133 ], [ -150.2113277, -9.9579718 ], [ -150.2112258, -9.9581726 ], [ -150.2112258, -9.9583153 ], [ -150.211274, -9.9583734 ], [ -150.2114403, -9.9585795 ], [ -150.2115691, -9.9587116 ], [ -150.211612, -9.9588384 ], [ -150.211601300000012, -9.9590497 ], [ -150.2114886, -9.9593456 ], [ -150.2114296, -9.9595094 ], [ -150.2115614, -9.9598175 ], [ -150.2116897, -9.9600259 ], [ -150.212229900000011, -9.9603796 ], [ -150.2132488, -9.9604428 ], [ -150.2135379, -9.9601862 ] ] ] ] } },
{ "type": "Feature", "properties": { "FID": 532059, "id": 200, "left": -155.0, "top": -5.0, "right": -150.0, "bottom": -10.0, "row_index": 19, "col_index": 5, "min_lon": -155.0, "min_lat": -10.0, "tile_id": "-155_-10" }, "geometry": { "type": "MultiPolygon", "coordinates": [ [ [ [ -150.2140061, -9.9612956 ], [ -150.213443899999987, -9.9614088 ], [ -150.2131757, -9.9614617 ], [ -150.2129263, -9.9614273 ], [ -150.2126902, -9.9614035 ], [ -150.2125213, -9.9614009 ], [ -150.212282499999986, -9.9614167 ], [ -150.212215500000013, -9.9614537 ], [ -150.2121618, -9.9616122 ], [ -150.2122128, -9.9618553 ], [ -150.212451499999986, -9.9620217 ], [ -150.212599, -9.9621036 ], [ -150.212768, -9.9621406 ], [ -150.2128539, -9.9621617 ], [ -150.2129665, -9.9621459 ], [ -150.2130362, -9.9621881 ], [ -150.213146200000011, -9.9623704 ], [ -150.2131489, -9.9625369 ], [ -150.2131516, -9.9627006 ], [ -150.2131435, -9.9629331 ], [ -150.213060399999989, -9.9630943 ], [ -150.212988, -9.9632475 ], [ -150.212923600000011, -9.9634879 ], [ -150.2129665, -9.9636702 ], [ -150.213065699999987, -9.9638551 ], [ -150.213047, -9.9641113 ], [ -150.2130228, -9.9643597 ], [ -150.2129531, -9.9645657 ], [ -150.2128351, -9.9646291 ], [ -150.2127385, -9.9647189 ], [ -150.2127117, -9.9647771 ], [ -150.2126527, -9.964888 ], [ -150.212781400000011, -9.9650465 ], [ -150.213248099999987, -9.9650254 ], [ -150.21345740000001, -9.9650042 ], [ -150.213806, -9.9650465 ], [ -150.2142452, -9.9649393 ], [ -150.214943299999987, -9.9643861 ], [ -150.2153403, -9.9639106 ], [ -150.2155548, -9.9633294 ], [ -150.215570899999989, -9.9628803 ], [ -150.215286600000013, -9.9623995 ], [ -150.2152008, -9.9619768 ], [ -150.2144122, -9.9613269 ], [ -150.2140061, -9.9612956 ] ] ] ] } },
{ "type": "Feature", "properties": { "FID": 532060, "id": 200, "left": -155.0, "top": -5.0, "right": -150.0, "bottom": -10.0, "row_index": 19, "col_index": 5, "min_lon": -155.0, "min_lat": -10.0, "tile_id": "-155_-10" }, "geometry": { "type": "MultiPolygon", "coordinates": [ [ [ [ -150.2095803, -9.9795457 ], [ -150.2096192, -9.9794616 ], [ -150.2101484, -9.9792009 ], [ -150.2101503, -9.9791185 ], [ -150.210685399999988, -9.9788546 ], [ -150.2107208, -9.9787238 ], [ -150.2111108, -9.9783477 ], [ -150.211261, -9.9779195 ], [ -150.2108504, -9.9778764 ], [ -150.2107138, -9.9778096 ], [ -150.2105247, -9.9779131 ], [ -150.210205, -9.9778682 ], [ -150.2097517, -9.9774477 ], [ -150.209460400000012, -9.9770245 ], [ -150.209477099999987, -9.9769405 ], [ -150.2094036, -9.9769148 ], [ -150.2093811, -9.9767183 ], [ -150.209515399999987, -9.9766177 ], [ -150.2095047, -9.9765294 ], [ -150.20961410000001, -9.9763089 ], [ -150.2097686, -9.9762639 ], [ -150.209830899999986, -9.9760978 ], [ -150.2099403, -9.9759911 ], [ -150.2098427, -9.9758606 ], [ -150.2089715, -9.9763139 ], [ -150.208433, -9.9764774 ], [ -150.2079415, -9.9767497 ], [ -150.20764650000001, -9.9770932 ], [ -150.2074694, -9.9771777 ], [ -150.2070081, -9.9776796 ], [ -150.2068794, -9.9784351 ], [ -150.2070953, -9.9787149 ], [ -150.2076304, -9.9787204 ], [ -150.207665, -9.9789619 ], [ -150.2077392, -9.9791934 ], [ -150.2080828, -9.9793163 ], [ -150.208627400000012, -9.9796004 ], [ -150.2089307, -9.9796885 ], [ -150.2095803, -9.9795457 ] ] ] ] } },
{ "type": "Feature", "properties": { "FID": 707773, "id": 200, "left": -155.0, "top": -5.0, "right": -150.0, "bottom": -10.0, "row_index": 19, "col_index": 5, "min_lon": -155.0, "min_lat": -10.0, "tile_id": "-155_-10" }, "geometry": { "type": "MultiPolygon", "coordinates": [ [ [ [ -150.2161154, -9.9871307 ], [ -150.2161396, -9.9871043 ], [ -150.2161476, -9.9870277 ], [ -150.2161691, -9.9869723 ], [ -150.2162415, -9.9870066 ], [ -150.2162844, -9.9869987 ], [ -150.216338, -9.9869221 ], [ -150.2163327, -9.9868243 ], [ -150.2162629, -9.9867266 ], [ -150.2161476, -9.986679 ], [ -150.216029600000013, -9.9866685 ], [ -150.215933, -9.9866368 ], [ -150.215866, -9.9865655 ], [ -150.2158901, -9.9864915 ], [ -150.216029600000013, -9.9864281 ], [ -150.2160993, -9.9864096 ], [ -150.2162629, -9.9864439 ], [ -150.2163434, -9.9864202 ], [ -150.2162442, -9.9863462 ], [ -150.2160859, -9.9862907 ], [ -150.2159299, -9.9863039 ], [ -150.2158728, -9.9863427 ], [ -150.2156536, -9.9864917 ], [ -150.2155414, -9.9866262 ], [ -150.2154368, -9.9867187 ], [ -150.2152142, -9.9869617 ], [ -150.215090800000013, -9.9871202 ], [ -150.2150157, -9.9872681 ], [ -150.21502910000001, -9.9873711 ], [ -150.2150747, -9.9874108 ], [ -150.215206099999989, -9.9873553 ], [ -150.21543410000001, -9.987276 ], [ -150.2156809, -9.9871968 ], [ -150.2159062, -9.9871281 ], [ -150.2160859, -9.987144 ], [ -150.2161154, -9.9871307 ] ] ] ] } }
]
}
