{
"type": "FeatureCollection",
"name": "-15_55",
"crs": { "type": "name", "properties": { "name": "urn:ogc:def:crs:OGC:1.3:CRS84" } },
"xy_coordinate_resolution": 1e-15,
"features": [
{ "type": "Feature", "properties": { "FID": 770759, "id": 1195, "left": -15.0, "top": 60.0, "right": -10.0, "bottom": 55.0, "row_index": 6, "col_index": 33, "min_lon": -15.0, "min_lat": 55.0, "tile_id": "-15_55" }, "geometry": { "type": "MultiPolygon", "coordinates": [ [ [ [ -13.6872236, 57.5964027 ], [ -13.6872023, 57.5963685 ], [ -13.6871992, 57.5963561 ], [ -13.6871997, 57.5963305 ], [ -13.6872033, 57.5963049 ], [ -13.6872017, 57.596289 ], [ -13.6872017, 57.5962705 ], [ -13.6872094, 57.5962463 ], [ -13.6872094, 57.5962345 ], [ -13.6872184, 57.5961868 ], [ -13.6872425, 57.5961642 ], [ -13.6872601, 57.5961629 ], [ -13.6873085, 57.596173 ], [ -13.687338, 57.5961857 ], [ -13.6873785, 57.596191 ], [ -13.6874147, 57.5962059 ], [ -13.6874637, 57.596211 ], [ -13.6875049, 57.5962097 ], [ -13.6875209, 57.5962195 ], [ -13.6875238, 57.5962618 ], [ -13.6875451, 57.5962625 ], [ -13.6875691, 57.5962739 ], [ -13.6875746, 57.596298 ], [ -13.6875794, 57.5963304 ], [ -13.6875804, 57.5963519 ], [ -13.6875766, 57.5963759 ], [ -13.6875389, 57.596412 ], [ -13.6875046, 57.5964269 ], [ -13.687481, 57.5964424 ], [ -13.6874244, 57.5964513 ], [ -13.6874061, 57.5964481 ], [ -13.6873876, 57.5964441 ], [ -13.6873606, 57.5964327 ], [ -13.6873225, 57.5964273 ], [ -13.6872876, 57.5964369 ], [ -13.6872385, 57.5964225 ], [ -13.6872236, 57.5964027 ] ] ] ] } }
]
}
