{
"type": "FeatureCollection",
"name": "-15_-45",
"crs": { "type": "name", "properties": { "name": "urn:ogc:def:crs:OGC:1.3:CRS84" } },
"xy_coordinate_resolution": 1e-15,
"features": [
{ "type": "Feature", "properties": { "FID": 119999, "id": 1215, "left": -15.0, "top": -40.0, "right": -10.0, "bottom": -45.0, "row_index": 26, "col_index": 33, "min_lon": -15.0, "min_lat": -45.0, "tile_id": "-15_-45" }, "geometry": { "type": "MultiPolygon", "coordinates": [ [ [ [ -10.0002301, -40.3159617 ], [ -10.0005975, -40.3159474 ], [ -10.0009328, -40.3159617 ], [ -10.0012761, -40.3160026 ], [ -10.0014558, -40.3160374 ], [ -10.0016812, -40.3161192 ], [ -10.0018501, -40.3161724 ], [ -10.0019842, -40.316203 ], [ -10.002172, -40.3161928 ], [ -10.0025448, -40.3161171 ], [ -10.0028533, -40.3160578 ], [ -10.0030008, -40.3160619 ], [ -10.0032717, -40.3161376 ], [ -10.0036177, -40.3162419 ], [ -10.0042024, -40.3164403 ], [ -10.0045323, -40.3165712 ], [ -10.0048596, -40.3167041 ], [ -10.0049856, -40.3167736 ], [ -10.0051332, -40.3168043 ], [ -10.0053477, -40.316837 ], [ -10.0054443, -40.3168452 ], [ -10.0055301, -40.31688 ], [ -10.0056186, -40.3169291 ], [ -10.0058037, -40.316972 ], [ -10.0061175, -40.3170354 ], [ -10.0062785, -40.3170824 ], [ -10.0063992, -40.317154 ], [ -10.0064367, -40.3172379 ], [ -10.0064448, -40.3173544 ], [ -10.0064448, -40.317469 ], [ -10.0065118, -40.3175508 ], [ -10.0066513, -40.3176714 ], [ -10.0067371, -40.3178044 ], [ -10.0067988, -40.3179148 ], [ -10.0068337, -40.3180027 ], [ -10.0069785, -40.3180907 ], [ -10.0071234, -40.3181357 ], [ -10.007295, -40.31815 ], [ -10.0074506, -40.3181561 ], [ -10.0076678, -40.3181316 ], [ -10.0077912, -40.3180907 ], [ -10.0078851, -40.3180457 ], [ -10.0081211, -40.3179087 ], [ -10.0082257, -40.3178616 ], [ -10.0082754, -40.317833 ], [ -10.0082982, -40.3178085 ], [ -10.0083102, -40.317789 ], [ -10.0082874, -40.3177583 ], [ -10.0082445, -40.3177093 ], [ -10.008215, -40.3176612 ], [ -10.0081667, -40.3175395 ], [ -10.0081627, -40.3174567 ], [ -10.0081493, -40.3173739 ], [ -10.0081708, -40.3173217 ], [ -10.0082526, -40.3172235 ], [ -10.0083518, -40.3171192 ], [ -10.0084886, -40.3169127 ], [ -10.0085369, -40.3167266 ], [ -10.0085557, -40.31661 ], [ -10.0085852, -40.3165343 ], [ -10.00873, -40.3163544 ], [ -10.0088775, -40.3162317 ], [ -10.0090787, -40.3161294 ], [ -10.0092155, -40.3160619 ], [ -10.0092906, -40.3159883 ], [ -10.0094059, -40.3158083 ], [ -10.0095776, -40.3156549 ], [ -10.009945, -40.3154013 ], [ -10.0103071, -40.3151682 ], [ -10.0105754, -40.3150291 ], [ -10.0108275, -40.3149064 ], [ -10.0111198, -40.3148144 ], [ -10.0112432, -40.3147244 ], [ -10.0113156, -40.3146507 ], [ -10.0113934, -40.314528 ], [ -10.0114498, -40.3143931 ], [ -10.0115195, -40.3142131 ], [ -10.0115597, -40.3141476 ], [ -10.0115798, -40.3140985 ], [ -10.0115812, -40.3140535 ], [ -10.0116013, -40.3139881 ], [ -10.0116603, -40.3139452 ], [ -10.0117341, -40.3139114 ], [ -10.0118065, -40.3138787 ], [ -10.0119084, -40.3138674 ], [ -10.0119916, -40.3138368 ], [ -10.0120331, -40.313803 ], [ -10.0120854, -40.3137212 ], [ -10.0122289, -40.3135883 ], [ -10.0123657, -40.3135034 ], [ -10.0124878, -40.3134185 ], [ -10.0125575, -40.3133878 ], [ -10.0126889, -40.3132907 ], [ -10.0128955, -40.3131792 ], [ -10.0129612, -40.3131506 ], [ -10.0130618, -40.3131291 ], [ -10.0132214, -40.3131404 ], [ -10.0133649, -40.3131731 ], [ -10.0135607, -40.3132078 ], [ -10.0136532, -40.3132222 ], [ -10.0137162, -40.3132569 ], [ -10.0137377, -40.3132774 ], [ -10.0137471, -40.3133193 ], [ -10.0137551, -40.3134001 ], [ -10.0137819, -40.3134707 ], [ -10.0138812, -40.3135729 ], [ -10.0139228, -40.3136404 ], [ -10.0139281, -40.3137294 ], [ -10.0138865, -40.3137764 ], [ -10.0138664, -40.3137969 ], [ -10.0138597, -40.3138623 ], [ -10.0139053, -40.3138971 ], [ -10.0139482, -40.3139196 ], [ -10.0140314, -40.3139175 ], [ -10.0141414, -40.3138838 ], [ -10.0142285, -40.3138889 ], [ -10.0142835, -40.3139094 ], [ -10.0143211, -40.3139544 ], [ -10.014482, -40.3141783 ], [ -10.0145088, -40.3142448 ], [ -10.0145142, -40.3143092 ], [ -10.0145128, -40.3144023 ], [ -10.014533, -40.3145025 ], [ -10.0145718, -40.3145444 ], [ -10.0146644, -40.3145894 ], [ -10.0147381, -40.3146129 ], [ -10.0148146, -40.3146426 ], [ -10.0148736, -40.3146947 ], [ -10.0149514, -40.3147489 ], [ -10.015056, -40.3147827 ], [ -10.0151284, -40.3147919 ], [ -10.0152384, -40.3147929 ], [ -10.0155012, -40.3147612 ], [ -10.0157279, -40.3147326 ], [ -10.0160162, -40.314709 ], [ -10.0162415, -40.3146753 ], [ -10.0163193, -40.3146344 ], [ -10.0163569, -40.3146058 ], [ -10.0163743, -40.3145567 ], [ -10.0164105, -40.314483 ], [ -10.0164548, -40.3144391 ], [ -10.0164883, -40.3144186 ], [ -10.0165553, -40.3144156 ], [ -10.0166331, -40.3144309 ], [ -10.0167283, -40.3144657 ], [ -10.0168651, -40.3144943 ], [ -10.0169791, -40.3144943 ], [ -10.0171481, -40.3144565 ], [ -10.0172433, -40.3144156 ], [ -10.0173104, -40.3143634 ], [ -10.0173613, -40.3143256 ], [ -10.0174244, -40.3142795 ], [ -10.0174861, -40.3142642 ], [ -10.0175142, -40.3142663 ], [ -10.0175317, -40.3142847 ], [ -10.017537, -40.3143072 ], [ -10.0175115, -40.3143348 ], [ -10.0174941, -40.3143644 ], [ -10.0175062, -40.3144023 ], [ -10.0175276, -40.3144473 ], [ -10.0175813, -40.3144943 ], [ -10.017643, -40.3145178 ], [ -10.0176778, -40.3145219 ], [ -10.0177194, -40.3145219 ], [ -10.0178079, -40.3144963 ], [ -10.0178978, -40.3144432 ], [ -10.0179447, -40.3143838 ], [ -10.0180024, -40.3142806 ], [ -10.0180238, -40.3142049 ], [ -10.0180051, -40.3141476 ], [ -10.017942, -40.3140863 ], [ -10.0178562, -40.3140576 ], [ -10.0177355, -40.3140535 ], [ -10.0176148, -40.3140597 ], [ -10.0174378, -40.3140781 ], [ -10.0173788, -40.314072 ], [ -10.0173761, -40.3140474 ], [ -10.0173895, -40.314028 ], [ -10.0174847, -40.3139646 ], [ -10.017651, -40.313893 ], [ -10.0177744, -40.313848 ], [ -10.017993, -40.3137887 ], [ -10.018166, -40.3137744 ], [ -10.0182961, -40.3137846 ], [ -10.0183336, -40.3137836 ], [ -10.0183578, -40.3137672 ], [ -10.0183739, -40.3137355 ], [ -10.0183564, -40.3137079 ], [ -10.0183229, -40.3136762 ], [ -10.0182639, -40.313621 ], [ -10.0182103, -40.3135566 ], [ -10.0181097, -40.3135249 ], [ -10.0179729, -40.3134788 ], [ -10.0178924, -40.313441 ], [ -10.0178616, -40.3133858 ], [ -10.0178361, -40.3132498 ], [ -10.0178897, -40.3130923 ], [ -10.0179917, -40.3129778 ], [ -10.0180721, -40.3129113 ], [ -10.0182813, -40.3128223 ], [ -10.0184342, -40.3126955 ], [ -10.0186032, -40.3124664 ], [ -10.0186837, -40.3122824 ], [ -10.0187293, -40.312129 ], [ -10.0186998, -40.3119449 ], [ -10.0186569, -40.3117506 ], [ -10.0186005, -40.3115931 ], [ -10.0186005, -40.3114724 ], [ -10.0186461, -40.3112475 ], [ -10.0187239, -40.3110348 ], [ -10.0187802, -40.3109243 ], [ -10.0188339, -40.3107914 ], [ -10.0188607, -40.3106707 ], [ -10.0188231, -40.3104887 ], [ -10.018799, -40.3104007 ], [ -10.0187185, -40.3103005 ], [ -10.0186461, -40.3102718 ], [ -10.0184691, -40.3102596 ], [ -10.0182626, -40.3103025 ], [ -10.0181633, -40.3102616 ], [ -10.0180802, -40.3101103 ], [ -10.0180534, -40.3099364 ], [ -10.0180775, -40.3097994 ], [ -10.0180399, -40.3095805 ], [ -10.0179032, -40.3093208 ], [ -10.0177878, -40.3092185 ], [ -10.0176135, -40.3091387 ], [ -10.0174096, -40.3090999 ], [ -10.0172246, -40.3091203 ], [ -10.0171092, -40.3091633 ], [ -10.0169992, -40.3092062 ], [ -10.0167954, -40.3092921 ], [ -10.0165004, -40.309376 ], [ -10.0163314, -40.3093739 ], [ -10.0161812, -40.3093167 ], [ -10.0156984, -40.3089137 ], [ -10.0152022, -40.3084965 ], [ -10.0148159, -40.3080895 ], [ -10.0146416, -40.3078685 ], [ -10.014317, -40.3073817 ], [ -10.014081, -40.3071649 ], [ -10.013684, -40.3068704 ], [ -10.0132442, -40.3065881 ], [ -10.0128901, -40.3062404 ], [ -10.0126299, -40.3059908 ], [ -10.0124046, -40.3058783 ], [ -10.0121954, -40.3057577 ], [ -10.011785, -40.305502 ], [ -10.0113988, -40.3051727 ], [ -10.011254, -40.3049231 ], [ -10.0110742, -40.3041806 ], [ -10.0110313, -40.3038492 ], [ -10.0110421, -40.3036733 ], [ -10.0110877, -40.3034053 ], [ -10.0111386, -40.3032969 ], [ -10.0111869, -40.3031803 ], [ -10.0112003, -40.3030535 ], [ -10.0111654, -40.3028265 ], [ -10.011144, -40.3026362 ], [ -10.0111601, -40.3024583 ], [ -10.0111976, -40.3023171 ], [ -10.0111976, -40.302223 ], [ -10.0111896, -40.3020839 ], [ -10.0111386, -40.3019878 ], [ -10.0110394, -40.301908 ], [ -10.0108758, -40.3017832 ], [ -10.010739, -40.3016891 ], [ -10.0106263, -40.3015848 ], [ -10.010393, -40.3013823 ], [ -10.0102884, -40.301237 ], [ -10.0102025, -40.3011511 ], [ -10.0100818, -40.3010591 ], [ -10.0098592, -40.3009548 ], [ -10.0097117, -40.3009097 ], [ -10.0094542, -40.3008791 ], [ -10.0090411, -40.3008525 ], [ -10.0088561, -40.3007931 ], [ -10.0087193, -40.3007093 ], [ -10.0085852, -40.3004699 ], [ -10.0085235, -40.3001754 ], [ -10.0084779, -40.3000547 ], [ -10.0083759, -40.2998563 ], [ -10.0082472, -40.2997356 ], [ -10.008038, -40.2995105 ], [ -10.007641, -40.299218 ], [ -10.0074452, -40.2991382 ], [ -10.0073406, -40.2990891 ], [ -10.0071609, -40.2989562 ], [ -10.0069892, -40.2988007 ], [ -10.0066111, -40.2983404 ], [ -10.0064233, -40.2979947 ], [ -10.0062946, -40.2977738 ], [ -10.0062114, -40.297604 ], [ -10.0061309, -40.2974955 ], [ -10.0059727, -40.2973708 ], [ -10.0058332, -40.2972276 ], [ -10.0057045, -40.2970189 ], [ -10.005514, -40.2967182 ], [ -10.0054497, -40.2966179 ], [ -10.0053719, -40.2964604 ], [ -10.0053236, -40.2962845 ], [ -10.005278, -40.2961679 ], [ -10.0052029, -40.2961065 ], [ -10.0047711, -40.295818 ], [ -10.0043687, -40.2954989 ], [ -10.0039315, -40.2952043 ], [ -10.0036982, -40.2950631 ], [ -10.0034809, -40.2949711 ], [ -10.0033012, -40.2948688 ], [ -10.0031215, -40.2947031 ], [ -10.0029874, -40.2944924 ], [ -10.0028774, -40.2942428 ], [ -10.0028211, -40.2941303 ], [ -10.0027567, -40.2940239 ], [ -10.0027353, -40.2939277 ], [ -10.0027299, -40.2937825 ], [ -10.0026628, -40.2936106 ], [ -10.0025797, -40.2935329 ], [ -10.0024295, -40.2934756 ], [ -10.0023302, -40.2934736 ], [ -10.0022739, -40.2934285 ], [ -10.0022444, -40.2933488 ], [ -10.0022417, -40.2932587 ], [ -10.0022873, -40.2929437 ], [ -10.0023571, -40.2925775 ], [ -10.0023571, -40.2924363 ], [ -10.0022927, -40.2923749 ], [ -10.0021827, -40.2923176 ], [ -10.0020969, -40.2922338 ], [ -10.0020701, -40.2921908 ], [ -10.002062, -40.2920762 ], [ -10.0020781, -40.291933 ], [ -10.0020754, -40.2917407 ], [ -10.0020272, -40.2914256 ], [ -10.0019869, -40.2910656 ], [ -10.0019789, -40.2908385 ], [ -10.0019306, -40.2907034 ], [ -10.001826, -40.2905684 ], [ -10.0016919, -40.2905295 ], [ -10.0016221, -40.2904886 ], [ -10.0015712, -40.2904272 ], [ -10.0015524, -40.2902922 ], [ -10.0015551, -40.2901429 ], [ -10.0016087, -40.2900487 ], [ -10.0017616, -40.2898216 ], [ -10.0019547, -40.2895536 ], [ -10.0020835, -40.289394 ], [ -10.0021935, -40.2892467 ], [ -10.0022417, -40.2891117 ], [ -10.0022686, -40.2889603 ], [ -10.0023115, -40.2885368 ], [ -10.0023249, -40.2883833 ], [ -10.002341, -40.2880028 ], [ -10.0023383, -40.2878902 ], [ -10.0023195, -40.2877532 ], [ -10.0022605, -40.287655 ], [ -10.0020754, -40.2874647 ], [ -10.0019467, -40.2872949 ], [ -10.0018904, -40.2871823 ], [ -10.0018635, -40.287035 ], [ -10.0017241, -40.2867424 ], [ -10.0015926, -40.2866135 ], [ -10.0014076, -40.2865276 ], [ -10.0012386, -40.2864498 ], [ -10.0010696, -40.2863741 ], [ -10.0008631, -40.2861961 ], [ -10.0006807, -40.2860284 ], [ -10.0005466, -40.2857951 ], [ -10.0004552, -40.2855382 ], [ -10.0003504, -40.2852446 ], [ -10.0005573, -40.2848989 ], [ -10.0007397, -40.2845511 ], [ -10.0010508, -40.2843465 ], [ -10.0013459, -40.2842401 ], [ -10.0015631, -40.2841746 ], [ -10.0017643, -40.2840682 ], [ -10.0019279, -40.2838452 ], [ -10.0019091, -40.2834953 ], [ -10.0018501, -40.2831597 ], [ -10.0016946, -40.2828937 ], [ -10.0014263, -40.282685 ], [ -10.001244, -40.2826318 ], [ -10.0009865, -40.2826318 ], [ -10.000729, -40.2825745 ], [ -10.0005305, -40.2824108 ], [ -10.0002515, -40.2821694 ], [ -10.0, -40.281892534779949 ], [ -10.0, -40.315963524742266 ], [ -10.0002301, -40.3159617 ] ] ] ] } },
{ "type": "Feature", "properties": { "FID": 120027, "id": 1215, "left": -15.0, "top": -40.0, "right": -10.0, "bottom": -45.0, "row_index": 26, "col_index": 33, "min_lon": -15.0, "min_lat": -45.0, "tile_id": "-15_-45" }, "geometry": { "type": "MultiPolygon", "coordinates": [ [ [ [ -10.0050902, -40.281398 ], [ -10.0049883, -40.2813775 ], [ -10.0048113, -40.2813939 ], [ -10.0043526, -40.2815085 ], [ -10.0040308, -40.2816865 ], [ -10.0039127, -40.281799 ], [ -10.0037572, -40.2818931 ], [ -10.0036472, -40.2819136 ], [ -10.003497, -40.2819197 ], [ -10.0033549, -40.2818706 ], [ -10.0032207, -40.2818809 ], [ -10.0031376, -40.2819218 ], [ -10.0029901, -40.2820221 ], [ -10.0026521, -40.2823228 ], [ -10.0025663, -40.2823965 ], [ -10.0025207, -40.2824804 ], [ -10.0025475, -40.2825745 ], [ -10.0025797, -40.2826686 ], [ -10.0026763, -40.2827178 ], [ -10.0028506, -40.2827484 ], [ -10.0033388, -40.2827096 ], [ -10.0040066, -40.2826482 ], [ -10.0043553, -40.2826134 ], [ -10.004586, -40.2825643 ], [ -10.004873, -40.2823985 ], [ -10.0050581, -40.2822021 ], [ -10.0052351, -40.2820221 ], [ -10.0054121, -40.2818809 ], [ -10.0054872, -40.2818011 ], [ -10.0054899, -40.2817315 ], [ -10.0054389, -40.2816476 ], [ -10.0053263, -40.2815371 ], [ -10.0050902, -40.281398 ] ] ] ] } },
{ "type": "Feature", "properties": { "FID": 560563, "id": 1215, "left": -15.0, "top": -40.0, "right": -10.0, "bottom": -45.0, "row_index": 26, "col_index": 33, "min_lon": -15.0, "min_lat": -45.0, "tile_id": "-15_-45" }, "geometry": { "type": "MultiPolygon", "coordinates": [ [ [ [ -10.0156581, -40.3004004 ], [ -10.0156662, -40.3003431 ], [ -10.0157627, -40.3002429 ], [ -10.0160551, -40.3001836 ], [ -10.0160792, -40.300114 ], [ -10.0160122, -40.3000445 ], [ -10.0158969, -40.3000199 ], [ -10.0157386, -40.2999544 ], [ -10.0155053, -40.2998419 ], [ -10.015288, -40.2997622 ], [ -10.0151458, -40.2997028 ], [ -10.0150386, -40.2996844 ], [ -10.0147918, -40.2997376 ], [ -10.0145155, -40.2998419 ], [ -10.0143868, -40.2998828 ], [ -10.0142178, -40.2999156 ], [ -10.0140488, -40.2999913 ], [ -10.0139549, -40.3000608 ], [ -10.0139013, -40.3001672 ], [ -10.0139093, -40.3004045 ], [ -10.0138181, -40.3007727 ], [ -10.0138208, -40.3009384 ], [ -10.0138852, -40.3011 ], [ -10.0140676, -40.3012432 ], [ -10.0142285, -40.3013373 ], [ -10.0145531, -40.3014621 ], [ -10.0147757, -40.3014211 ], [ -10.014891, -40.3013475 ], [ -10.0150278, -40.3011757 ], [ -10.0151271, -40.3010652 ], [ -10.0152451, -40.3010141 ], [ -10.0153765, -40.3010141 ], [ -10.0155214, -40.3009936 ], [ -10.0156903, -40.3009527 ], [ -10.015803, -40.3008995 ], [ -10.0158325, -40.3008607 ], [ -10.0158244, -40.3008013 ], [ -10.0157198, -40.3006459 ], [ -10.015685, -40.3005415 ], [ -10.0156581, -40.3004004 ] ] ] ] } },
{ "type": "Feature", "properties": { "FID": 781020, "id": 1215, "left": -15.0, "top": -40.0, "right": -10.0, "bottom": -45.0, "row_index": 26, "col_index": 33, "min_lon": -15.0, "min_lat": -45.0, "tile_id": "-15_-45" }, "geometry": { "type": "MultiPolygon", "coordinates": [ [ [ [ -10.0187349, -40.3036969 ], [ -10.0186594, -40.3037268 ], [ -10.0186812, -40.3037878 ], [ -10.0188003, -40.3038265 ], [ -10.0188192, -40.3038531 ], [ -10.0188613, -40.3038509 ], [ -10.018931, -40.3038897 ], [ -10.0190181, -40.3038653 ], [ -10.0190036, -40.3038099 ], [ -10.0189252, -40.3038099 ], [ -10.0189121, -40.3037579 ], [ -10.0188831, -40.3037424 ], [ -10.0188337, -40.3037457 ], [ -10.0188162, -40.3037091 ], [ -10.0187349, -40.3036969 ] ] ] ] } },
{ "type": "Feature", "properties": { "FID": 781021, "id": 1215, "left": -15.0, "top": -40.0, "right": -10.0, "bottom": -45.0, "row_index": 26, "col_index": 33, "min_lon": -15.0, "min_lat": -45.0, "tile_id": "-15_-45" }, "geometry": { "type": "MultiPolygon", "coordinates": [ [ [ [ -10.0106676, -40.2951152 ], [ -10.0106375, -40.2951506 ], [ -10.0106583, -40.2952184 ], [ -10.0106176, -40.295266 ], [ -10.0107071, -40.2952846 ], [ -10.0107206, -40.2953735 ], [ -10.0108101, -40.2953797 ], [ -10.0108047, -40.2954314 ], [ -10.0110025, -40.2954438 ], [ -10.0110025, -40.2953073 ], [ -10.0108643, -40.2953383 ], [ -10.0108074, -40.2953073 ], [ -10.010867, -40.2952184 ], [ -10.0107667, -40.2951957 ], [ -10.0107315, -40.2950965 ], [ -10.0106676, -40.2951152 ] ] ] ] } }
]
}
