{
"type": "FeatureCollection",
"name": "-15_15",
"crs": { "type": "name", "properties": { "name": "urn:ogc:def:crs:OGC:1.3:CRS84" } },
"xy_coordinate_resolution": 1e-15,
"features": [
{ "type": "Feature", "properties": { "FID": 660342, "id": 1203, "left": -15.0, "top": 20.0, "right": -10.0, "bottom": 15.0, "row_index": 14, "col_index": 33, "min_lon": -15.0, "min_lat": 15.0, "tile_id": "-15_15" }, "geometry": { "type": "MultiPolygon", "coordinates": [ [ [ [ -10.0, 20.0 ], [ -10.0, 15.0 ], [ -15.0, 15.0 ], [ -15.0, 20.0 ], [ -10.0, 20.0 ] ] ] ] } }
]
}
