{
"type": "FeatureCollection",
"name": "-15_-75",
"crs": { "type": "name", "properties": { "name": "urn:ogc:def:crs:OGC:1.3:CRS84" } },
"xy_coordinate_resolution": 1e-15,
"features": [
{ "type": "Feature", "properties": { "FID": 307096, "id": 1221, "left": -15.0, "top": -70.0, "right": -10.0, "bottom": -75.0, "row_index": 32, "col_index": 33, "min_lon": -15.0, "min_lat": -75.0, "tile_id": "-15_-75" }, "geometry": { "type": "MultiPolygon", "coordinates": [ [ [ [ -14.9788237, -72.1189354 ], [ -14.9496947, -72.1159811 ], [ -14.9180112, -72.1132321 ], [ -14.8872466, -72.1115288 ], [ -14.8536967, -72.1097666 ], [ -14.8301347, -72.1057802 ], [ -14.8036162, -72.1025944 ], [ -14.784942, -72.1021429 ], [ -14.7732004, -72.1033766 ], [ -14.748587, -72.1045273 ], [ -14.737518, -72.1012065 ], [ -14.7271272, -72.0986738 ], [ -14.7135879, -72.0978004 ], [ -14.7061728, -72.0944645 ], [ -14.7115348, -72.0889725 ], [ -14.69918, -72.0851928 ], [ -14.6882734, -72.0798907 ], [ -14.6726975, -72.0755272 ], [ -14.6380461, -72.0701702 ], [ -14.604119, -72.0667166 ], [ -14.5828918, -72.0653298 ], [ -14.5513897, -72.0636397 ], [ -14.5273254, -72.0599469 ], [ -14.499665, -72.0573809 ], [ -14.4773832, -72.055787 ], [ -14.4589335, -72.0533247 ], [ -14.4344885, -72.0502143 ], [ -14.4211717, -72.0473417 ], [ -14.3955184, -72.0471293 ], [ -14.3641084, -72.0476489 ], [ -14.3344044, -72.0480286 ], [ -14.3140926, -72.0476645 ], [ -14.29574, -72.0496688 ], [ -14.2883025, -72.0527774 ], [ -14.2787185, -72.0554931 ], [ -14.2517936, -72.0570426 ], [ -14.2306308, -72.057857 ], [ -14.2034608, -72.0568946 ], [ -14.181179, -72.051903 ], [ -14.1655625, -72.0505961 ], [ -14.1289995, -72.0492336 ], [ -14.0943662, -72.0479951 ], [ -14.0727762, -72.0471436 ], [ -14.0511873, -72.0451689 ], [ -14.0336636, -72.0403571 ], [ -14.0189262, -72.03561 ], [ -14.0120996, -72.0294127 ], [ -14.0063466, -72.0222927 ], [ -13.9845828, -72.0200467 ], [ -13.9581258, -72.0187191 ], [ -13.9444865, -72.0152851 ], [ -13.9302106, -72.0121794 ], [ -13.9084608, -72.0110451 ], [ -13.8775538, -72.0086482 ], [ -13.8573198, -72.0059932 ], [ -13.8390093, -72.0034698 ], [ -13.8224246, -71.9996942 ], [ -13.8173454, -71.9967222 ], [ -13.7818065, -71.9929856 ], [ -13.7445762, -71.9893713 ], [ -13.7022416, -71.9861359 ], [ -13.6578016, -71.9824911 ], [ -13.6087007, -71.9786272 ], [ -13.5611219, -71.9743587 ], [ -13.5148621, -71.9694225 ], [ -13.4741194, -71.965744 ], [ -13.4403839, -71.962936 ], [ -13.4102743, -71.9601341 ], [ -13.3933752, -71.9627785 ], [ -13.3765127, -71.964301 ], [ -13.3554228, -71.9650156 ], [ -13.3368478, -71.96666 ], [ -13.3259527, -71.967739 ], [ -13.32265, -71.9704947 ], [ -13.3115039, -71.9724288 ], [ -13.3179064, -71.9772656 ], [ -13.3163093, -71.979896 ], [ -13.3104853, -71.9817189 ], [ -13.3101455, -71.9848157 ], [ -13.3601272, -71.9923217 ], [ -13.4178063, -72.0003675 ], [ -13.3779092, -71.9954839 ], [ -13.3449872, -71.9925954 ], [ -13.3275294, -71.9921999 ], [ -13.3050988, -71.9935629 ], [ -13.277141, -71.994522 ], [ -13.2825218, -71.9982845 ], [ -13.2927521, -72.0034017 ], [ -13.3152161, -72.0067865 ], [ -13.3744301, -72.0144565 ], [ -13.4198344, -72.0217325 ], [ -13.4456953, -72.0270904 ], [ -13.3889761, -72.0192542 ], [ -13.3509592, -72.0145031 ], [ -13.3101929, -72.0096674 ], [ -13.2908524, -72.0080085 ], [ -13.2659274, -72.0056632 ], [ -13.2568641, -72.0049022 ], [ -13.2566668, -72.0093841 ], [ -13.2553622, -72.0147843 ], [ -13.2487923, -72.019496 ], [ -13.256931, -72.0227677 ], [ -13.2579941, -72.0277166 ], [ -13.2576443, -72.0308136 ], [ -13.2422681, -72.0308144 ], [ -13.2143401, -72.0297698 ], [ -13.1924689, -72.0271665 ], [ -13.1721538, -72.0277981 ], [ -13.1561461, -72.0233717 ], [ -13.1128423, -72.0186782 ], [ -13.0768914, -72.0165179 ], [ -13.0526849, -72.0143474 ], [ -13.0197079, -72.0151149 ], [ -12.999743, -72.0147842 ], [ -12.9821237, -72.0117453 ], [ -12.966323, -72.0099135 ], [ -12.9445719, -72.0097867 ], [ -12.9206983, -72.012875 ], [ -12.9061551, -72.0137932 ], [ -12.9041717, -72.0073596 ], [ -12.9014129, -72.0036456 ], [ -12.8920581, -71.9984257 ], [ -12.8880525, -71.9969483 ], [ -12.8829512, -71.9961015 ], [ -12.8793371, -71.9959054 ], [ -12.8741559, -71.9958569 ], [ -12.868425, -71.9961236 ], [ -12.8558644, -71.9972871 ], [ -12.8491142, -71.9973855 ], [ -12.8464457, -71.9981637 ], [ -12.8489388, -71.9938976 ], [ -12.8434023, -71.9896196 ], [ -12.8522488, -71.9865381 ], [ -12.8686807, -71.9851315 ], [ -12.8483951, -71.9823873 ], [ -12.8356614, -71.9791088 ], [ -12.8290723, -71.9766251 ], [ -12.8363395, -71.9746384 ], [ -12.8515715, -71.977003 ], [ -12.8656013, -71.9777315 ], [ -12.8905121, -71.9727736 ], [ -12.9021218, -71.9702301 ], [ -12.9141989, -71.9661778 ], [ -12.9211066, -71.9637209 ], [ -12.923615, -71.9596101 ], [ -12.9241589, -71.9539188 ], [ -12.9121371, -71.9483838 ], [ -12.8778153, -71.9373056 ], [ -12.8441564, -71.9281429 ], [ -12.8087205, -71.9208216 ], [ -12.7663467, -71.9115283 ], [ -12.7250355, -71.9036273 ], [ -12.6923852, -71.897814 ], [ -12.6632512, -71.890278 ], [ -12.6292991, -71.8825843 ], [ -12.6018863, -71.8751678 ], [ -12.5840125, -71.8700307 ], [ -12.5715751, -71.8669688 ], [ -12.5745661, -71.8623444 ], [ -12.5824111, -71.8644983 ], [ -12.608456, -71.8700477 ], [ -12.6613291, -71.8788753 ], [ -12.7352346, -71.889406 ], [ -12.8040714, -71.8960963 ], [ -12.8672931, -71.9036548 ], [ -12.9099036, -71.9067671 ], [ -12.9340305, -71.9126649 ], [ -12.9484709, -71.9150748 ], [ -12.9599092, -71.9176984 ], [ -12.9728541, -71.9202138 ], [ -12.9845326, -71.9188863 ], [ -12.9830317, -71.9157984 ], [ -12.9777193, -71.9107712 ], [ -12.9691188, -71.9045049 ], [ -12.9672215, -71.8987419 ], [ -12.9812553, -71.8952788 ], [ -12.9865672, -71.8939148 ], [ -12.9775088, -71.8891571 ], [ -12.9749192, -71.8824609 ], [ -12.9566918, -71.8813092 ], [ -12.9404429, -71.8753454 ], [ -12.9363596, -71.8719516 ], [ -12.9092266, -71.8672558 ], [ -12.8895385, -71.8630094 ], [ -12.867247, -71.861649 ], [ -12.8564773, -71.8609412 ], [ -12.8386875, -71.8592576 ], [ -12.8213092, -71.8570522 ], [ -12.7990303, -71.8556835 ], [ -12.777365, -71.8562337 ], [ -12.7596578, -71.8535553 ], [ -12.7511617, -71.8472798 ], [ -12.7439285, -71.8416519 ], [ -12.7358075, -71.8380508 ], [ -12.7182209, -71.8365892 ], [ -12.6967982, -71.8341685 ], [ -12.6925279, -71.8315231 ], [ -12.6717126, -71.831021 ], [ -12.6460408, -71.8259484 ], [ -12.6310421, -71.8225808 ], [ -12.609628, -71.8157347 ], [ -12.5976292, -71.8099477 ], [ -12.586473, -71.8053285 ], [ -12.5677541, -71.7978017 ], [ -12.5550333, -71.7920644 ], [ -12.5568578, -71.7902202 ], [ -12.5451453, -71.788092 ], [ -12.5326059, -71.787002 ], [ -12.5197381, -71.7810287 ], [ -12.5133492, -71.7775482 ], [ -12.4921099, -71.7741172 ], [ -12.4611612, -71.773563 ], [ -12.4376079, -71.7712674 ], [ -12.4250991, -71.7679627 ], [ -12.4107732, -71.7642923 ], [ -12.385745, -71.7620931 ], [ -12.3543727, -71.7564047 ], [ -12.3265643, -71.7524289 ], [ -12.3020793, -71.7487127 ], [ -12.2850673, -71.744484 ], [ -12.2720216, -71.7414539 ], [ -12.2600176, -71.7410471 ], [ -12.2526195, -71.742776 ], [ -12.2395094, -71.7441579 ], [ -12.2144918, -71.7441426 ], [ -12.1949023, -71.7417967 ], [ -12.164971, -71.7391688 ], [ -12.1343506, -71.7343791 ], [ -12.1179775, -71.7298507 ], [ -12.1054486, -71.7240833 ], [ -12.0955911, -71.7176465 ], [ -12.0925562, -71.7097715 ], [ -12.0901082, -71.7050399 ], [ -12.0681878, -71.6991696 ], [ -12.056123, -71.6928811 ], [ -12.0454464, -71.6874785 ], [ -12.0357288, -71.6834799 ], [ -12.0333484, -71.6799683 ], [ -12.0275166, -71.6759539 ], [ -12.0264682, -71.6721084 ], [ -12.0238229, -71.669349 ], [ -12.0237608, -71.6645759 ], [ -12.0256283, -71.6641524 ], [ -12.0269842, -71.6638237 ], [ -12.0282268, -71.6634539 ], [ -12.0314276, -71.6623679 ], [ -12.0367112, -71.6604223 ], [ -12.0401899, -71.6592339 ], [ -12.0407997, -71.659046 ], [ -12.0417904, -71.6587894 ], [ -12.0428993, -71.6585864 ], [ -12.0474127, -71.6575642 ], [ -12.0499433, -71.6570609 ], [ -12.0518084, -71.6567317 ], [ -12.0545462, -71.6563502 ], [ -12.0573538, -71.6560236 ], [ -12.0581829, -71.6559577 ], [ -12.0589941, -71.6558719 ], [ -12.0629858, -71.6553894 ], [ -12.0645988, -71.6552101 ], [ -12.0666634, -71.6550344 ], [ -12.0720798, -71.6546403 ], [ -12.0741865, -71.6545259 ], [ -12.0792588, -71.6542823 ], [ -12.0800894, -71.654219 ], [ -12.0817144, -71.6540507 ], [ -12.0841075, -71.6537598 ], [ -12.0864639, -71.6534402 ], [ -12.0876029, -71.6532542 ], [ -12.0898286, -71.6528524 ], [ -12.0909759, -71.6526721 ], [ -12.0929463, -71.6524106 ], [ -12.097322, -71.6518673 ], [ -12.0988678, -71.6516372 ], [ -12.099242, -71.6515724 ], [ -12.1006449, -71.6512646 ], [ -12.1033394, -71.6506005 ], [ -12.1040466, -71.6504499 ], [ -12.1051574, -71.6502472 ], [ -12.1082174, -71.6497659 ], [ -12.1132307, -71.649011 ], [ -12.1151361, -71.6487058 ], [ -12.1263056, -71.6467213 ], [ -12.1282027, -71.646411 ], [ -12.1297491, -71.6461814 ], [ -12.1301174, -71.6461124 ], [ -12.131138, -71.6458688 ], [ -12.1314507, -71.6457769 ], [ -12.133805, -71.6449947 ], [ -12.1350822, -71.6446373 ], [ -12.1371074, -71.6441419 ], [ -12.1429119, -71.6427657 ], [ -12.147294, -71.6416897 ], [ -12.1492644, -71.6411721 ], [ -12.1513548, -71.6404985 ], [ -12.1539785, -71.6396123 ], [ -12.1551102, -71.6392085 ], [ -12.1579069, -71.6380184 ], [ -12.1588641, -71.6375722 ], [ -12.1598305, -71.636972 ], [ -12.1625383, -71.6349934 ], [ -12.1631302, -71.6346354 ], [ -12.1638562, -71.6343032 ], [ -12.1644717, -71.6339491 ], [ -12.1692638, -71.6307899 ], [ -12.1699565, -71.6302973 ], [ -12.1704179, -71.6299206 ], [ -12.1725489, -71.6280158 ], [ -12.1758169, -71.6245292 ], [ -12.1762163, -71.6241447 ], [ -12.1765278, -71.6238939 ], [ -12.1767157, -71.6237737 ], [ -12.1769727, -71.6236662 ], [ -12.1773358, -71.6234219 ], [ -12.1793018, -71.6216422 ], [ -12.1823627, -71.6192725 ], [ -12.1846937, -71.6172473 ], [ -12.1852126, -71.6168786 ], [ -12.1854155, -71.6167591 ], [ -12.1856695, -71.6166518 ], [ -12.1860622, -71.6164119 ], [ -12.1872862, -71.6154073 ], [ -12.1874242, -71.6152794 ], [ -12.1886151, -71.6139867 ], [ -12.1897606, -71.6125502 ], [ -12.1907479, -71.6116608 ], [ -12.1910918, -71.6114141 ], [ -12.1915045, -71.6111775 ], [ -12.1922809, -71.6108573 ], [ -12.193425, -71.6104577 ], [ -12.1943187, -71.6101681 ], [ -12.1952818, -71.609903 ], [ -12.1971314, -71.6095674 ], [ -12.2016453, -71.6088065 ], [ -12.2027367, -71.608596 ], [ -12.2044393, -71.6081904 ], [ -12.2050473, -71.608002 ], [ -12.2055649, -71.6077875 ], [ -12.205951, -71.607548 ], [ -12.206529, -71.607041 ], [ -12.2070302, -71.6065264 ], [ -12.2074712, -71.6060067 ], [ -12.2078979, -71.6053465 ], [ -12.208004, -71.6050793 ], [ -12.2079818, -71.6048108 ], [ -12.2074155, -71.6037481 ], [ -12.2072, -71.6032145 ], [ -12.2071807, -71.6028098 ], [ -12.2072305, -71.6022719 ], [ -12.2073889, -71.6014656 ], [ -12.2077395, -71.6006655 ], [ -12.2081689, -71.6000051 ], [ -12.2096246, -71.5987409 ], [ -12.2100242, -71.5983572 ], [ -12.2103935, -71.5978314 ], [ -12.2106069, -71.5974319 ], [ -12.2107087, -71.5968959 ], [ -12.2107472, -71.5951444 ], [ -12.2108054, -71.5944718 ], [ -12.2109246, -71.5936645 ], [ -12.2110913, -71.5931277 ], [ -12.2113932, -71.5925991 ], [ -12.2122126, -71.5915529 ], [ -12.2139062, -71.5896056 ], [ -12.2145225, -71.5888212 ], [ -12.2148935, -71.5884349 ], [ -12.2153973, -71.5880642 ], [ -12.2156664, -71.5878088 ], [ -12.2162761, -71.5870231 ], [ -12.217205, -71.5859878 ], [ -12.2176152, -71.5856042 ], [ -12.2181023, -71.585231 ], [ -12.2206441, -71.5835267 ], [ -12.2212705, -71.5831743 ], [ -12.2219919, -71.5828411 ], [ -12.2246021, -71.5817769 ], [ -12.2299433, -71.5796794 ], [ -12.2313425, -71.5791711 ], [ -12.2345064, -71.5780797 ], [ -12.2353295, -71.5777707 ], [ -12.2382724, -71.57645 ], [ -12.2408581, -71.5753807 ], [ -12.2420079, -71.574814 ], [ -12.2428533, -71.5743463 ], [ -12.2450772, -71.5728921 ], [ -12.2453991, -71.5726431 ], [ -12.2456603, -71.5723863 ], [ -12.2459059, -71.5719901 ], [ -12.2462737, -71.5711904 ], [ -12.2472168, -71.5696027 ], [ -12.2475864, -71.5690767 ], [ -12.248186, -71.5684301 ], [ -12.24863, -71.5680524 ], [ -12.2493213, -71.5675603 ], [ -12.2522377, -71.5656137 ], [ -12.2524475, -71.5654964 ], [ -12.2529119, -71.5647021 ], [ -12.2533556, -71.5637705 ], [ -12.2537445, -71.5622951 ], [ -12.2541929, -71.5615 ], [ -12.2545703, -71.561114 ], [ -12.2547514, -71.5609922 ], [ -12.255915, -71.5604291 ], [ -12.259342, -71.5585675 ], [ -12.260294, -71.5581217 ], [ -12.2614255, -71.5577187 ], [ -12.2644107, -71.55676 ], [ -12.2656613, -71.5563956 ], [ -12.2673452, -71.5559839 ], [ -12.2676861, -71.5559044 ], [ -12.2683637, -71.5557411 ], [ -12.2686725, -71.5556482 ], [ -12.2691924, -71.555436 ], [ -12.2693646, -71.5553121 ], [ -12.2695236, -71.5550485 ], [ -12.2695853, -71.5543755 ], [ -12.2696402, -71.5542412 ], [ -12.2701188, -71.5535864 ], [ -12.27036, -71.5531895 ], [ -12.2704466, -71.5527876 ], [ -12.2704482, -71.5523833 ], [ -12.2703741, -71.5511721 ], [ -12.2702046, -71.5500962 ], [ -12.2702416, -71.5496922 ], [ -12.2704677, -71.5490235 ], [ -12.270761, -71.5486294 ], [ -12.2711275, -71.5483873 ], [ -12.272173, -71.5478018 ], [ -12.2724835, -71.5475508 ], [ -12.2725788, -71.5474202 ], [ -12.2726179, -71.5471511 ], [ -12.2726133, -71.5464781 ], [ -12.2727604, -71.5451323 ], [ -12.27263, -71.5439214 ], [ -12.2726289, -71.5435172 ], [ -12.2727832, -71.5431162 ], [ -12.2731145, -71.5425881 ], [ -12.2737595, -71.5419466 ], [ -12.2745169, -71.5413184 ], [ -12.2788786, -71.5383969 ], [ -12.27951, -71.5380474 ], [ -12.2802607, -71.537721 ], [ -12.2818389, -71.5370857 ], [ -12.2825011, -71.5367415 ], [ -12.282814, -71.5364903 ], [ -12.2830713, -71.5362337 ], [ -12.2841066, -71.5349294 ], [ -12.2851711, -71.5337646 ], [ -12.2858035, -71.5331229 ], [ -12.2872006, -71.5318516 ], [ -12.2884631, -71.5305656 ], [ -12.2888034, -71.5301765 ], [ -12.2890592, -71.5297803 ], [ -12.2900266, -71.5277844 ], [ -12.2902168, -71.5272495 ], [ -12.2903319, -71.5261732 ], [ -12.2904868, -71.525637 ], [ -12.290753, -71.525242 ], [ -12.2920192, -71.5238161 ], [ -12.2925526, -71.5233052 ], [ -12.2930538, -71.5229344 ], [ -12.2975567, -71.5198865 ], [ -12.300125, -71.5178927 ], [ -12.3002325, -71.5177622 ], [ -12.3003733, -71.5173611 ], [ -12.3004527, -71.5156112 ], [ -12.3006407, -71.5148054 ], [ -12.3022979, -71.5114819 ], [ -12.3024629, -71.5112179 ], [ -12.3026881, -71.510957 ], [ -12.3028379, -71.5108318 ], [ -12.3034603, -71.5104801 ], [ -12.3061008, -71.5092593 ], [ -12.3070084, -71.5088042 ], [ -12.3077867, -71.5083259 ], [ -12.309972, -71.5068655 ], [ -12.3107751, -71.5063918 ], [ -12.3119828, -71.5058387 ], [ -12.3130228, -71.5054139 ], [ -12.3135908, -71.5052138 ], [ -12.3157032, -71.5045521 ], [ -12.3162475, -71.5043453 ], [ -12.3164752, -71.5042321 ], [ -12.3169446, -71.503856 ], [ -12.3179437, -71.5026871 ], [ -12.3182066, -71.5024319 ], [ -12.3185338, -71.5021832 ], [ -12.3192006, -71.5018393 ], [ -12.3214487, -71.5008603 ], [ -12.3223936, -71.5004135 ], [ -12.3234816, -71.4998356 ], [ -12.3268534, -71.4979664 ], [ -12.3274166, -71.4976039 ], [ -12.3278809, -71.497229 ], [ -12.3301595, -71.4950571 ], [ -12.3304641, -71.4948063 ], [ -12.3308243, -71.4945626 ], [ -12.331262, -71.494332 ], [ -12.3327409, -71.4936744 ], [ -12.3329965, -71.4935675 ], [ -12.3337368, -71.4932396 ], [ -12.3341834, -71.4930111 ], [ -12.3349304, -71.4925274 ], [ -12.3363626, -71.4914045 ], [ -12.336739, -71.4910191 ], [ -12.3369156, -71.490756 ], [ -12.3371406, -71.4903582 ], [ -12.3382964, -71.4875558 ], [ -12.3383361, -71.4870175 ], [ -12.3382378, -71.485401 ], [ -12.3382756, -71.4848636 ], [ -12.338306, -71.4847292 ], [ -12.3385173, -71.4843315 ], [ -12.3389162, -71.4838086 ], [ -12.3391985, -71.4835547 ], [ -12.3393885, -71.4834331 ], [ -12.3412251, -71.4825291 ], [ -12.3416487, -71.4822966 ], [ -12.3419996, -71.4820517 ], [ -12.3423969, -71.481528 ], [ -12.3433423, -71.4796671 ], [ -12.343879, -71.4787414 ], [ -12.3441917, -71.4783494 ], [ -12.3446798, -71.4779774 ], [ -12.3458917, -71.4772665 ], [ -12.3464431, -71.4769038 ], [ -12.3471158, -71.4762663 ], [ -12.3485276, -71.475287 ], [ -12.3490171, -71.4749149 ], [ -12.3493907, -71.4745287 ], [ -12.3501636, -71.4734809 ], [ -12.3505187, -71.4730933 ], [ -12.3509839, -71.4727173 ], [ -12.3522159, -71.4718607 ], [ -12.3527032, -71.4714869 ], [ -12.3530812, -71.4711022 ], [ -12.3533876, -71.4707107 ], [ -12.3541049, -71.4696575 ], [ -12.3543332, -71.4692603 ], [ -12.3544319, -71.4689934 ], [ -12.3542688, -71.4673787 ], [ -12.3542968, -71.4671103 ], [ -12.3544989, -71.4665754 ], [ -12.3550797, -71.4655142 ], [ -12.3554942, -71.4649929 ], [ -12.3559673, -71.4646173 ], [ -12.3570328, -71.4638852 ], [ -12.3573465, -71.4636346 ], [ -12.3575977, -71.4633782 ], [ -12.3577243, -71.4631113 ], [ -12.3578409, -71.462709 ], [ -12.3578855, -71.4621712 ], [ -12.3578258, -71.4617684 ], [ -12.3578711, -71.4614988 ], [ -12.3582424, -71.4607003 ], [ -12.3584782, -71.4603035 ], [ -12.3586848, -71.4600429 ], [ -12.3592394, -71.4595339 ], [ -12.3616697, -71.4576694 ], [ -12.3622806, -71.4571665 ], [ -12.3629331, -71.4565266 ], [ -12.3647463, -71.4545921 ], [ -12.3651036, -71.4542043 ], [ -12.3653919, -71.4538112 ], [ -12.365458, -71.4536779 ], [ -12.3655138, -71.4532744 ], [ -12.3654787, -71.4505823 ], [ -12.3655469, -71.4500447 ], [ -12.3657626, -71.4495106 ], [ -12.3661101, -71.4488469 ], [ -12.3675782, -71.446196 ], [ -12.3677659, -71.445933 ], [ -12.3680233, -71.4456771 ], [ -12.3681924, -71.4455532 ], [ -12.3686131, -71.4453199 ], [ -12.3693735, -71.4448396 ], [ -12.3717268, -71.4432577 ], [ -12.3724123, -71.442766 ], [ -12.3732391, -71.4420018 ], [ -12.3752939, -71.4398095 ], [ -12.3759478, -71.4391703 ], [ -12.3767689, -71.4385488 ], [ -12.3820555, -71.4347322 ], [ -12.3826179, -71.4342252 ], [ -12.3828312, -71.4338272 ], [ -12.382993, -71.4332904 ], [ -12.3834511, -71.4293905 ], [ -12.3834659, -71.4292563 ], [ -12.3837029, -71.4272388 ], [ -12.3843416, -71.4233401 ], [ -12.3846076, -71.4202457 ], [ -12.3847159, -71.419709 ], [ -12.3850208, -71.4190418 ], [ -12.3860251, -71.4171846 ], [ -12.3860753, -71.4169175 ], [ -12.3860553, -71.4166478 ], [ -12.385818, -71.4163907 ], [ -12.3875798, -71.4151676 ], [ -12.3878423, -71.4149122 ], [ -12.3879281, -71.4147804 ], [ -12.3879444, -71.41451 ], [ -12.3877723, -71.4135713 ], [ -12.3869488, -71.4102161 ], [ -12.3851402, -71.4062198 ], [ -12.3839752, -71.4035529 ], [ -12.3837251, -71.402886 ], [ -12.3836421, -71.4020788 ], [ -12.3836845, -71.3988487 ], [ -12.3824766, -71.392266 ], [ -12.3820593, -71.3911975 ], [ -12.3805225, -71.3877328 ], [ -12.3801466, -71.387208 ], [ -12.3800074, -71.38708 ], [ -12.3796209, -71.3868407 ], [ -12.3793777, -71.3864462 ], [ -12.3791234, -71.3856428 ], [ -12.378252, -71.3824246 ], [ -12.3779269, -71.3814884 ], [ -12.3763143, -71.3773486 ], [ -12.3741715, -71.3722806 ], [ -12.3737909, -71.3714825 ], [ -12.3714953, -71.3680612 ], [ -12.3706291, -71.3666064 ], [ -12.3698699, -71.36598 ], [ -12.365892, -71.3631581 ], [ -12.3657347, -71.3630322 ], [ -12.3654249, -71.362783 ], [ -12.3649026, -71.3622713 ], [ -12.3626215, -71.3596804 ], [ -12.362001, -71.3590369 ], [ -12.3609889, -71.3581527 ], [ -12.3593101, -71.3567733 ], [ -12.3588958, -71.3563927 ], [ -12.3584637, -71.3558729 ], [ -12.358384, -71.3556048 ], [ -12.3580208, -71.3552187 ], [ -12.3559261, -71.353458 ], [ -12.3552684, -71.3529622 ], [ -12.3546385, -71.3526133 ], [ -12.3541099, -71.3524033 ], [ -12.353434, -71.352244 ], [ -12.3527157, -71.3521042 ], [ -12.3500812, -71.3516845 ], [ -12.349719, -71.3516153 ], [ -12.3490407, -71.3514562 ], [ -12.3487419, -71.3513605 ], [ -12.3482658, -71.3511404 ], [ -12.3474494, -71.3506695 ], [ -12.3452662, -71.3492134 ], [ -12.3407675, -71.3466274 ], [ -12.3392685, -71.3458158 ], [ -12.3326973, -71.3423702 ], [ -12.3257124, -71.3385338 ], [ -12.3253241, -71.3382956 ], [ -12.3248086, -71.3379276 ], [ -12.3246615, -71.3378011 ], [ -12.3245084, -71.3375363 ], [ -12.3241202, -71.3372981 ], [ -12.3236772, -71.3370692 ], [ -12.320155, -71.3353946 ], [ -12.3189321, -71.3348484 ], [ -12.3175458, -71.3343421 ], [ -12.3125836, -71.3326983 ], [ -12.3114676, -71.3322961 ], [ -12.3101969, -71.3317606 ], [ -12.3051636, -71.3294395 ], [ -12.3041305, -71.3290149 ], [ -12.3023626, -71.3284388 ], [ -12.2921548, -71.325436 ], [ -12.2906312, -71.3249731 ], [ -12.2891665, -71.3244914 ], [ -12.2822755, -71.3221336 ], [ -12.2819465, -71.3220216 ], [ -12.2799801, -71.3213481 ], [ -12.2782197, -71.3207713 ], [ -12.2667167, -71.3172283 ], [ -12.2655953, -71.3168281 ], [ -12.2648527, -71.3165026 ], [ -12.264162, -71.3161652 ], [ -12.2638769, -71.3160666 ], [ -12.2609406, -71.3151053 ], [ -12.2566843, -71.3138055 ], [ -12.2560316, -71.313637 ], [ -12.2546237, -71.3133431 ], [ -12.2477534, -71.3120471 ], [ -12.2420199, -71.310925 ], [ -12.2413138, -71.3107805 ], [ -12.2399388, -71.3104723 ], [ -12.2369, -71.3097529 ], [ -12.2351566, -71.3093785 ], [ -12.2239259, -71.3072761 ], [ -12.2228218, -71.3070821 ], [ -12.2205676, -71.306721 ], [ -12.2133711, -71.3056238 ], [ -12.2110594, -71.3053042 ], [ -12.1933253, -71.3032304 ], [ -12.190941, -71.3029717 ], [ -12.187673, -71.3027255 ], [ -12.1782587, -71.3020533 ], [ -12.1762011, -71.3019223 ], [ -12.1749556, -71.3018644 ], [ -12.1653817, -71.3014835 ], [ -12.1637132, -71.3014309 ], [ -12.161198, -71.3014149 ], [ -12.1532302, -71.3014544 ], [ -12.1519741, -71.3014329 ], [ -12.1499123, -71.301312 ], [ -12.1450009, -71.3009584 ], [ -12.1421098, -71.3007965 ], [ -12.1400286, -71.3007117 ], [ -12.1358384, -71.3006641 ], [ -12.1350016, -71.300641 ], [ -12.1329324, -71.3005342 ], [ -12.1271652, -71.3001814 ], [ -12.1250948, -71.3000764 ], [ -12.123419, -71.3000451 ], [ -12.1196471, -71.3000041 ], [ -12.1150349, -71.2999878 ], [ -12.1029313, -71.2996109 ], [ -12.1008364, -71.2995752 ], [ -12.086167, -71.2994231 ], [ -12.0849125, -71.2993937 ], [ -12.0840869, -71.2993468 ], [ -12.0824985, -71.2991743 ], [ -12.0801929, -71.298851 ], [ -12.0521113, -71.2930908 ], [ -12.0433737, -71.2913647 ], [ -12.0262162, -71.2892062 ], [ -12.0063996, -71.2882016 ], [ -12.0056561, -71.2880763 ], [ -12.0049555, -71.2879297 ], [ -12.0040268, -71.2876584 ], [ -12.0028847, -71.2872641 ], [ -11.9990234, -71.2858458 ], [ -11.9872675, -71.2816409 ], [ -11.9861224, -71.2812477 ], [ -11.9840251, -71.2805883 ], [ -11.9670291, -71.2753966 ], [ -11.9652369, -71.274831 ], [ -11.9520143, -71.2701472 ], [ -11.9511167, -71.2698645 ], [ -11.9504787, -71.2696906 ], [ -11.9494494, -71.2694599 ], [ -11.9483612, -71.2692588 ], [ -11.946138, -71.2688829 ], [ -11.9111567, -71.26309 ], [ -11.9096534, -71.2628555 ], [ -11.9084932, -71.2627004 ], [ -11.9049476, -71.2622917 ], [ -11.8871495, -71.2603119 ], [ -11.8851538, -71.2601115 ], [ -11.8822883, -71.2599167 ], [ -11.8707867, -71.2591977 ], [ -11.8691319, -71.2591179 ], [ -11.8662068, -71.2590654 ], [ -11.8653706, -71.2590577 ], [ -11.8494775, -71.2589062 ], [ -11.8469658, -71.2589024 ], [ -11.8189472, -71.2592181 ], [ -11.8143506, -71.2592882 ], [ -11.808117, -71.2595249 ], [ -11.7877719, -71.260345 ], [ -11.7546329, -71.261877 ], [ -11.7533943, -71.2619434 ], [ -11.7521673, -71.2620291 ], [ -11.7505653, -71.2621848 ], [ -11.7477952, -71.2624909 ], [ -11.7344427, -71.2640728 ], [ -11.7321198, -71.2643799 ], [ -11.7256081, -71.2653018 ], [ -11.722549, -71.2657394 ], [ -11.7210456, -71.2659771 ], [ -11.7185537, -71.2664712 ], [ -11.711641, -71.2679899 ], [ -11.7030559, -71.2696672 ], [ -11.692394, -71.2718008 ], [ -11.6903556, -71.2722734 ], [ -11.6831216, -71.2741061 ], [ -11.6817536, -71.2744168 ], [ -11.6803066, -71.2746878 ], [ -11.6784272, -71.2749839 ], [ -11.6776439, -71.2750789 ], [ -11.6748436, -71.2753574 ], [ -11.6740661, -71.2754575 ], [ -11.6729305, -71.27563 ], [ -11.6699776, -71.2761382 ], [ -11.6681971, -71.2764926 ], [ -11.667527, -71.2766534 ], [ -11.6664334, -71.2768524 ], [ -11.664131, -71.2771754 ], [ -11.6633925, -71.2773031 ], [ -11.6630459, -71.2773783 ], [ -11.6624071, -71.2775516 ], [ -11.6623888, -71.2775604 ], [ -11.6277597, -71.2735566 ], [ -11.6260703, -71.2715988 ], [ -11.6246822, -71.2709396 ], [ -11.6242571, -71.2704458 ], [ -11.6218943, -71.2696038 ], [ -11.6199566, -71.2692557 ], [ -11.5968077, -71.2642187 ], [ -11.5920864, -71.262534 ], [ -11.581263, -71.2585048 ], [ -11.5725092, -71.2540277 ], [ -11.563633, -71.250355 ], [ -11.5447878, -71.2436211 ], [ -11.5404953, -71.2424202 ], [ -11.5357903, -71.240743 ], [ -11.5319209, -71.240036 ], [ -11.5225035, -71.2366634 ], [ -11.5193157, -71.2348497 ], [ -11.5155786, -71.2333375 ], [ -11.5108726, -71.2316509 ], [ -11.5078176, -71.2290322 ], [ -11.5050512, -71.2277035 ], [ -11.5029605, -71.2252596 ], [ -11.4855285, -71.216298 ], [ -11.456932, -71.2028137 ], [ -11.4527873, -71.2008154 ], [ -11.4435406, -71.1966432 ], [ -11.4407826, -71.1953136 ], [ -11.4398218, -71.1951384 ], [ -11.4291895, -71.187406 ], [ -11.4221445, -71.1791013 ], [ -11.4185594, -71.1739103 ], [ -11.4184077, -71.1689345 ], [ -11.4185394, -71.16813 ], [ -11.4182648, -71.166849 ], [ -11.4186677, -71.1644442 ], [ -11.4183902, -71.1631542 ], [ -11.4171489, -71.1616892 ], [ -11.4161876, -71.1615141 ], [ -11.4159079, -71.1602243 ], [ -11.4161792, -71.158624 ], [ -11.4168663, -71.1575181 ], [ -11.4176855, -71.1556076 ], [ -11.4220651, -71.1502264 ], [ -11.4254912, -71.1475602 ], [ -11.4311153, -71.1436524 ], [ -11.4318018, -71.1425464 ], [ -11.4344057, -71.1417906 ], [ -11.4364663, -71.1413447 ], [ -11.43962, -71.1402784 ], [ -11.4423594, -71.1387178 ], [ -11.4441349, -71.1369823 ], [ -11.4479723, -71.1348098 ], [ -11.4516762, -71.1334327 ], [ -11.4533148, -71.1324928 ], [ -11.455073, -71.1308504 ], [ -11.4492966, -71.1297206 ], [ -11.4355755, -71.1266219 ], [ -11.4258477, -71.1231904 ], [ -11.4233586, -71.1216186 ], [ -11.4252225, -71.1199337 ], [ -11.4164921, -71.1148246 ], [ -11.4124924, -71.1125464 ], [ -11.4015576, -71.113641 ], [ -11.3933178, -71.1133827 ], [ -11.3742634, -71.1096927 ], [ -11.3376995, -71.1000812 ], [ -11.3133236, -71.0912409 ], [ -11.2922093, -71.0828169 ], [ -11.2746311, -71.0763072 ], [ -11.2698933, -71.0725324 ], [ -11.2686659, -71.0710512 ], [ -11.2664515, -71.0698205 ], [ -11.2614733, -71.0683224 ], [ -11.2429081, -71.0638524 ], [ -11.2241112, -71.0592979 ], [ -11.2018124, -71.0514677 ], [ -11.1743037, -71.0446215 ], [ -11.1441599, -71.036197 ], [ -11.128925, -71.032247 ], [ -11.1119992, -71.0272749 ], [ -11.0962235, -71.0230189 ], [ -11.0841814, -71.0195521 ], [ -11.0670153, -71.0133984 ], [ -11.0407254, -71.0106951 ], [ -11.0367047, -71.0024229 ], [ -11.0185817, -71.0018822 ], [ -11.0072882, -71.0028398 ], [ -10.9960916, -71.0064478 ], [ -10.9954138, -71.0127716 ], [ -11.0009144, -71.0170137 ], [ -11.0002178, -71.0245471 ], [ -10.9958438, -71.0296555 ], [ -10.9904942, -71.0331342 ], [ -10.9904319, -71.036762 ], [ -10.9983853, -71.0401251 ], [ -11.0203658, -71.0433255 ], [ -11.0484858, -71.0480672 ], [ -11.016608, -71.0457379 ], [ -11.0006123, -71.04385 ], [ -10.9912042, -71.0417867 ], [ -10.9852939, -71.0443342 ], [ -10.9715462, -71.0449595 ], [ -10.9583752, -71.0453058 ], [ -10.9458728, -71.0480247 ], [ -10.9361432, -71.0479113 ], [ -10.9431933, -71.046019 ], [ -10.9545283, -71.0431616 ], [ -10.9642896, -71.0427593 ], [ -10.9750322, -71.0420823 ], [ -10.9810821, -71.0397681 ], [ -10.9838706, -71.0357268 ], [ -10.9793303, -71.0256254 ], [ -10.9743134, -71.0184534 ], [ -10.9712408, -71.0145406 ], [ -10.9487149, -71.0125299 ], [ -10.9468266, -71.0095249 ], [ -10.9397026, -71.0061981 ], [ -10.9348103, -71.0018481 ], [ -10.9224507, -71.0013648 ], [ -10.9107777, -70.9969998 ], [ -10.8929249, -70.9973519 ], [ -10.8809086, -70.9962172 ], [ -10.8731839, -70.9959684 ], [ -10.8608242, -70.9965051 ], [ -10.8421131, -70.9977208 ], [ -10.8299338, -70.9987213 ], [ -10.8167073, -70.9997077 ], [ -10.7990433, -71.0011552 ], [ -10.7705218, -71.0027841 ], [ -10.7515532, -71.0039268 ], [ -10.7337691, -71.0050471 ], [ -10.7187315, -71.0057539 ], [ -10.7082859, -71.0060137 ], [ -10.6733786, -71.0096729 ], [ -10.6787001, -71.0088461 ], [ -10.6996428, -71.0061785 ], [ -10.7142426, -71.0045582 ], [ -10.7350909, -71.0025634 ], [ -10.7622477, -70.9988359 ], [ -10.7915074, -70.9939364 ], [ -10.8112141, -70.9912836 ], [ -10.8283888, -70.9878642 ], [ -10.8597943, -70.9833117 ], [ -10.8711497, -70.9821538 ], [ -10.8723599, -70.9812224 ], [ -10.871802, -70.9804896 ], [ -10.8536059, -70.9796644 ], [ -10.8494297, -70.978546 ], [ -10.8530995, -70.978207 ], [ -10.8560778, -70.9781482 ], [ -10.8605238, -70.9770236 ], [ -10.8638884, -70.9761395 ], [ -10.8672959, -70.97558 ], [ -10.8718878, -70.9754065 ], [ -10.8727633, -70.9748973 ], [ -10.8707892, -70.9741614 ], [ -10.8680254, -70.973697 ], [ -10.8657769, -70.973624 ], [ -10.86188, -70.971783 ], [ -10.8572962, -70.9709866 ], [ -10.8556315, -70.9696309 ], [ -10.8530051, -70.9683211 ], [ -10.8508679, -70.9668544 ], [ -10.8512112, -70.9661014 ], [ -10.8498551, -70.9653233 ], [ -10.8478981, -70.9645338 ], [ -10.8450314, -70.9633805 ], [ -10.8421131, -70.9628709 ], [ -10.8385083, -70.9614179 ], [ -10.8354184, -70.9594775 ], [ -10.8338734, -70.9575061 ], [ -10.8297621, -70.9566072 ], [ -10.8217026, -70.9552657 ], [ -10.8156773, -70.9560527 ], [ -10.7971979, -70.9579878 ], [ -10.7877308, -70.9583378 ], [ -10.7798773, -70.9593851 ], [ -10.7714487, -70.9610567 ], [ -10.7572266, -70.9640943 ], [ -10.7549177, -70.9649594 ], [ -10.7301899, -70.9680636 ], [ -10.7139937, -70.9701822 ], [ -10.7094961, -70.9730282 ], [ -10.7027155, -70.9759689 ], [ -10.696776, -70.9768753 ], [ -10.6888024, -70.9786769 ], [ -10.682305, -70.979063 ], [ -10.6761252, -70.9796112 ], [ -10.6693446, -70.9801567 ], [ -10.664066, -70.9813315 ], [ -10.6622206, -70.9823244 ], [ -10.650376, -70.9843185 ], [ -10.641956, -70.9855601 ], [ -10.6332012, -70.9861697 ], [ -10.6246182, -70.9864717 ], [ -10.610027, -70.9860467 ], [ -10.5865094, -70.9851938 ], [ -10.5652233, -70.9853504 ], [ -10.5405041, -70.9848638 ], [ -10.520763, -70.9856189 ], [ -10.4987904, -70.9864466 ], [ -10.4852377, -70.9872659 ], [ -10.4839052, -70.9893467 ], [ -10.47535, -70.9917225 ], [ -10.4771734, -70.9931287 ], [ -10.4778735, -70.9957532 ], [ -10.46269, -70.9968908 ], [ -10.4529826, -70.9978494 ], [ -10.4513966, -70.9958335 ], [ -10.4507625, -70.9953357 ], [ -10.4504793, -70.9950839 ], [ -10.4502807, -70.9948224 ], [ -10.4495898, -70.9943353 ], [ -10.4488652, -70.9937063 ], [ -10.4435234, -70.9887606 ], [ -10.4429281, -70.9882596 ], [ -10.4420217, -70.9876561 ], [ -10.4405994, -70.9868366 ], [ -10.4199219, -70.9752071 ], [ -10.417922, -70.974188 ], [ -10.4062533, -70.9684865 ], [ -10.4052395, -70.9680634 ], [ -10.4040718, -70.9676832 ], [ -10.4028488, -70.9673237 ], [ -10.3739544, -70.9591171 ], [ -10.3720744, -70.9585945 ], [ -10.3685745, -70.9576557 ], [ -10.3679389, -70.9574859 ], [ -10.3517077, -70.9531373 ], [ -10.3507429, -70.9528851 ], [ -10.3497383, -70.9526508 ], [ -10.3468474, -70.9521355 ], [ -10.3329503, -70.9497935 ], [ -10.3322317, -70.9496633 ], [ -10.3315425, -70.9495167 ], [ -10.3312173, -70.9494322 ], [ -10.3300992, -70.9490387 ], [ -10.3248873, -70.9469579 ], [ -10.3240027, -70.9466781 ], [ -10.3233203, -70.9465274 ], [ -10.3215197, -70.9462019 ], [ -10.3116519, -70.9445362 ], [ -10.3102238, -70.9442686 ], [ -10.3088801, -70.9439595 ], [ -10.2980352, -70.9412902 ], [ -10.2966675, -70.9409925 ], [ -10.2955781, -70.9408031 ], [ -10.2944633, -70.9406306 ], [ -10.2843342, -70.9391423 ], [ -10.2821788, -70.93875 ], [ -10.2751444, -70.9373564 ], [ -10.2737107, -70.9370935 ], [ -10.2711025, -70.9366943 ], [ -10.2639441, -70.9356719 ], [ -10.2632102, -70.9355496 ], [ -10.262509, -70.935409 ], [ -10.2615458, -70.9351582 ], [ -10.2603364, -70.9347936 ], [ -10.2510957, -70.9317312 ], [ -10.249913, -70.9313586 ], [ -10.2489642, -70.9311005 ], [ -10.2464894, -70.9306212 ], [ -10.2451528, -70.9303068 ], [ -10.2377645, -70.9283785 ], [ -10.236432, -70.9280647 ], [ -10.2353678, -70.9278598 ], [ -10.2339171, -70.9276058 ], [ -10.2025422, -70.9222851 ], [ -10.2010298, -70.9220755 ], [ -10.199436, -70.9219435 ], [ -10.1974197, -70.9218155 ], [ -10.1966117, -70.9217665 ], [ -10.1877224, -70.9212286 ], [ -10.185715, -70.9210844 ], [ -10.184933, -70.921002 ], [ -10.1837224, -70.9209247 ], [ -10.1686873, -70.9201916 ], [ -10.1518964, -70.919744 ], [ -10.1338398, -70.9194581 ], [ -10.1235852, -70.9192618 ], [ -10.1215435, -70.9191899 ], [ -10.121138, -70.9191653 ], [ -10.119959, -70.9190494 ], [ -10.1183655, -70.9189176 ], [ -10.105599, -70.9178912 ], [ -10.1043922, -70.9178096 ], [ -10.1035769, -70.9177761 ], [ -10.1023451, -70.9177797 ], [ -10.1002934, -70.9178146 ], [ -10.0806184, -70.918252 ], [ -10.079799, -70.9182687 ], [ -10.0785657, -70.9182676 ], [ -10.077749, -70.9182395 ], [ -10.0761689, -70.918093 ], [ -10.0749485, -70.9180401 ], [ -10.0601982, -70.9176847 ], [ -10.0565024, -70.9176434 ], [ -10.0392536, -70.9175022 ], [ -10.038433, -70.9175133 ], [ -10.0363895, -70.9175807 ], [ -10.0193084, -70.9183805 ], [ -10.0176755, -70.9184403 ], [ -10.0168544, -70.9184522 ], [ -10.0156244, -70.9184278 ], [ -10.013992, -70.9183665 ], [ -10.0017949, -70.9177841 ], [ -10.0009771, -70.917763 ], [ -10.0, -70.917772 ], [ -10.0, -75.0 ], [ -15.0, -75.0 ], [ -15.0, -72.119663041898676 ], [ -14.9788237, -72.1189354 ] ] ] ] } }
]
}
