{
"type": "FeatureCollection",
"name": "-15_-40",
"crs": { "type": "name", "properties": { "name": "urn:ogc:def:crs:OGC:1.3:CRS84" } },
"xy_coordinate_resolution": 1e-15,
"features": [
{ "type": "Feature", "properties": { "FID": 61296, "id": 1214, "left": -15.0, "top": -35.0, "right": -10.0, "bottom": -40.0, "row_index": 25, "col_index": 33, "min_lon": -15.0, "min_lat": -40.0, "tile_id": "-15_-40" }, "geometry": { "type": "MultiPolygon", "coordinates": [ [ [ [ -12.3141664, -37.1595427 ], [ -12.3143783, -37.1597565 ], [ -12.3147485, -37.1601327 ], [ -12.314896, -37.1603657 ], [ -12.315065, -37.1607248 ], [ -12.3150784, -37.1608937 ], [ -12.3150516, -37.1610091 ], [ -12.3149496, -37.1610989 ], [ -12.3148692, -37.161163 ], [ -12.3147994, -37.16121 ], [ -12.3147592, -37.1613105 ], [ -12.3147592, -37.1614644 ], [ -12.314845, -37.1615499 ], [ -12.3150006, -37.1616589 ], [ -12.3154862, -37.1622068 ], [ -12.315872, -37.1623582 ], [ -12.3162687, -37.1621884 ], [ -12.3158868, -37.1617358 ], [ -12.3158465, -37.1613131 ], [ -12.3158772, -37.1609996 ], [ -12.3162094, -37.1607772 ], [ -12.3161964, -37.1604872 ], [ -12.3164988, -37.1602861 ], [ -12.3167704, -37.1599221 ], [ -12.3170269, -37.1597364 ], [ -12.3174172, -37.1596727 ], [ -12.3174595, -37.1591596 ], [ -12.3177469, -37.1587962 ], [ -12.3180788, -37.1584113 ], [ -12.318418, -37.1579457 ], [ -12.3192404, -37.1574664 ], [ -12.3196027, -37.1571348 ], [ -12.3200415, -37.1568254 ], [ -12.3204655, -37.1563842 ], [ -12.3210397, -37.1559543 ], [ -12.3214949, -37.1555132 ], [ -12.3218291, -37.1552793 ], [ -12.3221367, -37.1553927 ], [ -12.3222457, -37.1550848 ], [ -12.3223603, -37.1548557 ], [ -12.3224637, -37.1546788 ], [ -12.3223916, -37.154405 ], [ -12.3224413, -37.1541178 ], [ -12.3225258, -37.1539346 ], [ -12.3226849, -37.1538221 ], [ -12.3229692, -37.1537665 ], [ -12.3234932, -37.1541423 ], [ -12.3236081, -37.1539746 ], [ -12.3236681, -37.1537229 ], [ -12.3236592, -37.1533985 ], [ -12.3234637, -37.1529347 ], [ -12.323705, -37.152647 ], [ -12.3241377, -37.1523056 ], [ -12.3238734, -37.1519602 ], [ -12.32367, -37.1515964 ], [ -12.3238664, -37.1513625 ], [ -12.3243438, -37.1513064 ], [ -12.3250512, -37.1514096 ], [ -12.3250574, -37.1510291 ], [ -12.3250964, -37.1506298 ], [ -12.3247927, -37.1503118 ], [ -12.324866, -37.1501208 ], [ -12.3250391, -37.1500122 ], [ -12.3252831, -37.1498977 ], [ -12.3255692, -37.149824 ], [ -12.3260785, -37.149855 ], [ -12.3273746, -37.1501569 ], [ -12.3270062, -37.1495609 ], [ -12.3270703, -37.1491278 ], [ -12.3270018, -37.1487929 ], [ -12.3269437, -37.1482393 ], [ -12.3273833, -37.1477245 ], [ -12.328087, -37.146627 ], [ -12.3288115, -37.1456676 ], [ -12.3314881, -37.143378 ], [ -12.3328024, -37.1426452 ], [ -12.3335534, -37.14179 ], [ -12.3340416, -37.1412982 ], [ -12.3345619, -37.1408963 ], [ -12.3348785, -37.1405713 ], [ -12.3351628, -37.1401778 ], [ -12.3354524, -37.1396861 ], [ -12.335785, -37.1391601 ], [ -12.3365629, -37.1383262 ], [ -12.3373407, -37.137488 ], [ -12.3383814, -37.1363569 ], [ -12.3386121, -37.136081 ], [ -12.3387381, -37.1358993 ], [ -12.3388535, -37.1357111 ], [ -12.3390815, -37.1354267 ], [ -12.3394114, -37.1350996 ], [ -12.3398137, -37.1345158 ], [ -12.3401249, -37.1340582 ], [ -12.3404145, -37.1337161 ], [ -12.3407847, -37.1333868 ], [ -12.3414391, -37.1328864 ], [ -12.3418468, -37.1325442 ], [ -12.3422545, -37.1321679 ], [ -12.3424584, -37.131984 ], [ -12.3425603, -37.1317915 ], [ -12.3425603, -37.1315948 ], [ -12.3425442, -37.1314836 ], [ -12.3425683, -37.131366 ], [ -12.342681, -37.1311949 ], [ -12.3428017, -37.1310324 ], [ -12.3430941, -37.1306603 ], [ -12.3433301, -37.1303609 ], [ -12.3435769, -37.1300188 ], [ -12.3436734, -37.1298135 ], [ -12.3437271, -37.1296168 ], [ -12.3438236, -37.1293858 ], [ -12.3439819, -37.1292212 ], [ -12.3441589, -37.1290458 ], [ -12.3443976, -37.1287657 ], [ -12.3448134, -37.1282717 ], [ -12.345272, -37.127566 ], [ -12.3456985, -37.1268774 ], [ -12.3457955, -37.1265208 ], [ -12.3456938, -37.126367 ], [ -12.3457446, -37.1261718 ], [ -12.3458557, -37.1259899 ], [ -12.3459935, -37.1257005 ], [ -12.3460193, -37.1253561 ], [ -12.3461373, -37.1251382 ], [ -12.3463233, -37.1248068 ], [ -12.3465198, -37.1242606 ], [ -12.3466313, -37.1237491 ], [ -12.3467123, -37.1232729 ], [ -12.3467638, -37.1228868 ], [ -12.3469537, -37.1226295 ], [ -12.347054, -37.1223992 ], [ -12.3471575, -37.1221744 ], [ -12.3473459, -37.1219421 ], [ -12.347406, -37.121801 ], [ -12.3474977, -37.1215944 ], [ -12.3476243, -37.1213783 ], [ -12.3478315, -37.1211869 ], [ -12.3483118, -37.1208721 ], [ -12.3490298, -37.1201985 ], [ -12.3498948, -37.1198788 ], [ -12.3507021, -37.1189527 ], [ -12.351134, -37.1188842 ], [ -12.3512531, -37.1187119 ], [ -12.3505695, -37.1178067 ], [ -12.3499854, -37.1172803 ], [ -12.3495571, -37.1169169 ], [ -12.3491558, -37.116569 ], [ -12.348969, -37.1164924 ], [ -12.3486444, -37.1162993 ], [ -12.348543, -37.1161143 ], [ -12.3484863, -37.115863 ], [ -12.3484216, -37.1156615 ], [ -12.3483837, -37.1152604 ], [ -12.3482785, -37.1145769 ], [ -12.3482515, -37.1138048 ], [ -12.3482587, -37.1133701 ], [ -12.348306, -37.1129765 ], [ -12.3480803, -37.1125436 ], [ -12.347855, -37.1122784 ], [ -12.347694, -37.1120089 ], [ -12.3476511, -37.1117351 ], [ -12.3475277, -37.111487 ], [ -12.3473293, -37.1112987 ], [ -12.3470664, -37.1111576 ], [ -12.3464522, -37.1109372 ], [ -12.3462322, -37.110841 ], [ -12.3460954, -37.1107319 ], [ -12.3459372, -37.1106143 ], [ -12.3458768, -37.1105897 ], [ -12.3458125, -37.1105864 ], [ -12.3457916, -37.110507 ], [ -12.34576, -37.1103374 ], [ -12.3456532, -37.1102263 ], [ -12.3455371, -37.1101626 ], [ -12.3453817, -37.1101465 ], [ -12.3452397, -37.1101425 ], [ -12.3451244, -37.1101539 ], [ -12.3450373, -37.1101415 ], [ -12.3449957, -37.1100742 ], [ -12.3448938, -37.1099758 ], [ -12.3446336, -37.1097576 ], [ -12.3444794, -37.1095886 ], [ -12.3443869, -37.1094581 ], [ -12.3442319, -37.1092539 ], [ -12.3439952, -37.1089647 ], [ -12.34385, -37.1085037 ], [ -12.3438441, -37.1084973 ], [ -12.3437477, -37.1083922 ], [ -12.343653, -37.1082004 ], [ -12.3435743, -37.1079419 ], [ -12.3435727, -37.1077144 ], [ -12.343569, -37.1071904 ], [ -12.3435965, -37.1069947 ], [ -12.3436421, -37.1068544 ], [ -12.3437095, -37.106641 ], [ -12.3437445, -37.1063362 ], [ -12.3437663, -37.1061457 ], [ -12.3438052, -37.1059477 ], [ -12.3438883, -37.1055243 ], [ -12.3437964, -37.1052836 ], [ -12.3437136, -37.1051286 ], [ -12.3436936, -37.1049768 ], [ -12.3436385, -37.1048334 ], [ -12.3435661, -37.1047617 ], [ -12.3435205, -37.104674 ], [ -12.3434736, -37.1045157 ], [ -12.3433998, -37.1043019 ], [ -12.3433918, -37.1040815 ], [ -12.34344, -37.1038633 ], [ -12.3434937, -37.1036152 ], [ -12.3435017, -37.10335 ], [ -12.3434241, -37.1031732 ], [ -12.3433623, -37.1028685 ], [ -12.3432389, -37.1026183 ], [ -12.343153, -37.1024515 ], [ -12.3430432, -37.1022663 ], [ -12.3429578, -37.1021028 ], [ -12.3429475, -37.1019453 ], [ -12.3429431, -37.1017642 ], [ -12.3429829, -37.1015583 ], [ -12.3430766, -37.1014192 ], [ -12.3430929, -37.101288 ], [ -12.3431667, -37.1011641 ], [ -12.3432119, -37.1010748 ], [ -12.3432378, -37.1010305 ], [ -12.3432305, -37.1005694 ], [ -12.3432552, -37.1003479 ], [ -12.3431971, -37.1001504 ], [ -12.3430631, -37.0993508 ], [ -12.3428973, -37.0984328 ], [ -12.342614, -37.0977343 ], [ -12.3426108, -37.0975942 ], [ -12.342635, -37.0972767 ], [ -12.3427375, -37.0968919 ], [ -12.3427967, -37.0965288 ], [ -12.342778, -37.0965046 ], [ -12.3424955, -37.0961379 ], [ -12.3422668, -37.095836 ], [ -12.3422169, -37.0956784 ], [ -12.3420587, -37.095503 ], [ -12.3419112, -37.0953874 ], [ -12.3417529, -37.0952997 ], [ -12.3416055, -37.0952398 ], [ -12.3414793, -37.0951927 ], [ -12.3413814, -37.095151 ], [ -12.3412956, -37.0951104 ], [ -12.3411884, -37.0950141 ], [ -12.3411092, -37.0949253 ], [ -12.3410207, -37.0948184 ], [ -12.3409845, -37.0947135 ], [ -12.3408705, -37.0947274 ], [ -12.3405835, -37.0947927 ], [ -12.3404011, -37.0948333 ], [ -12.3402241, -37.0948269 ], [ -12.3400712, -37.0947755 ], [ -12.3399478, -37.0946108 ], [ -12.3398646, -37.094553 ], [ -12.3396877, -37.094446 ], [ -12.3396501, -37.0943177 ], [ -12.3396501, -37.0942813 ], [ -12.339642, -37.0942022 ], [ -12.3396581, -37.0941316 ], [ -12.3397172, -37.0939861 ], [ -12.3396153, -37.0938428 ], [ -12.3395857, -37.0937551 ], [ -12.3396018, -37.0936801 ], [ -12.3394456, -37.0935109 ], [ -12.3396581, -37.0930426 ], [ -12.3394275, -37.0927195 ], [ -12.3389742, -37.091945 ], [ -12.3387972, -37.0915385 ], [ -12.3385718, -37.0911042 ], [ -12.3384484, -37.090856 ], [ -12.3383599, -37.0907683 ], [ -12.3381579, -37.0906798 ], [ -12.3380327, -37.0906249 ], [ -12.3377753, -37.0904538 ], [ -12.3375204, -37.090167 ], [ -12.3373299, -37.0898226 ], [ -12.3373246, -37.0896557 ], [ -12.3373407, -37.0895402 ], [ -12.3373408, -37.0892963 ], [ -12.3374775, -37.0889668 ], [ -12.3374346, -37.0887764 ], [ -12.3373995, -37.0887108 ], [ -12.3371852, -37.0883099 ], [ -12.3367426, -37.0876894 ], [ -12.3361391, -37.087101 ], [ -12.3361095, -37.0870582 ], [ -12.3360667, -37.0870133 ], [ -12.3359781, -37.0869063 ], [ -12.3359325, -37.0868656 ], [ -12.3358923, -37.0868207 ], [ -12.3358226, -37.0867565 ], [ -12.3357662, -37.0866987 ], [ -12.3356187, -37.0865469 ], [ -12.332852, -37.084072 ], [ -12.3319079, -37.0831073 ], [ -12.3311135, -37.0831758 ], [ -12.3304777, -37.0832516 ], [ -12.3297845, -37.0831047 ], [ -12.3293711, -37.0829428 ], [ -12.3288438, -37.082684 ], [ -12.3283241, -37.0823821 ], [ -12.3284196, -37.0822093 ], [ -12.3283121, -37.0820597 ], [ -12.3279862, -37.0820509 ], [ -12.327693, -37.081605 ], [ -12.3274433, -37.081309 ], [ -12.3275861, -37.080946 ], [ -12.3276633, -37.0806839 ], [ -12.3274863, -37.0805384 ], [ -12.3271269, -37.0803544 ], [ -12.3268009, -37.0802553 ], [ -12.3264921, -37.0801182 ], [ -12.3259574, -37.0800462 ], [ -12.3257835, -37.0800078 ], [ -12.3255586, -37.0800556 ], [ -12.3252655, -37.0801065 ], [ -12.3248302, -37.080199 ], [ -12.3243465, -37.0800406 ], [ -12.3239243, -37.079721 ], [ -12.3237044, -37.0794813 ], [ -12.3236293, -37.0792288 ], [ -12.3235981, -37.0789048 ], [ -12.3233468, -37.0787644 ], [ -12.3231572, -37.078711 ], [ -12.3229373, -37.0785868 ], [ -12.322551, -37.0783557 ], [ -12.3220843, -37.0780262 ], [ -12.3217624, -37.0777009 ], [ -12.3213869, -37.0773757 ], [ -12.3210248, -37.0770515 ], [ -12.3208076, -37.0768492 ], [ -12.3205555, -37.0765775 ], [ -12.3203033, -37.0762672 ], [ -12.320005, -37.0758496 ], [ -12.3197889, -37.0755389 ], [ -12.3196394, -37.0753173 ], [ -12.3195745, -37.0747327 ], [ -12.3194383, -37.0741305 ], [ -12.3192713, -37.0734295 ], [ -12.319299, -37.0727459 ], [ -12.3195547, -37.0723857 ], [ -12.3198384, -37.0720137 ], [ -12.3199997, -37.0715665 ], [ -12.3200007, -37.0712816 ], [ -12.319927, -37.0709449 ], [ -12.319732, -37.0707163 ], [ -12.3196216, -37.0705734 ], [ -12.3193646, -37.0702408 ], [ -12.3191676, -37.0698118 ], [ -12.3189691, -37.0693682 ], [ -12.3187855, -37.0686443 ], [ -12.3186994, -37.0683061 ], [ -12.3187637, -37.0678866 ], [ -12.318804, -37.067739 ], [ -12.3187959, -37.0675613 ], [ -12.3187208, -37.0673173 ], [ -12.3186843, -37.0671436 ], [ -12.3185357, -37.0669449 ], [ -12.3184326, -37.0667902 ], [ -12.3184471, -37.0665667 ], [ -12.3183845, -37.0664136 ], [ -12.3182501, -37.0661875 ], [ -12.318029, -37.0658701 ], [ -12.317634, -37.0652797 ], [ -12.3172178, -37.064959 ], [ -12.3170301, -37.0647505 ], [ -12.3168681, -37.0646223 ], [ -12.3166569, -37.0645489 ], [ -12.3163238, -37.0644418 ], [ -12.316011, -37.0643027 ], [ -12.3155042, -37.0641986 ], [ -12.3150006, -37.0642183 ], [ -12.3145607, -37.0641797 ], [ -12.3142737, -37.0641647 ], [ -12.3138848, -37.0641712 ], [ -12.3136997, -37.0641787 ], [ -12.3135442, -37.0640759 ], [ -12.3134168, -37.0639604 ], [ -12.3133886, -37.0638929 ], [ -12.3133953, -37.0636907 ], [ -12.3134141, -37.0634831 ], [ -12.3133846, -37.0633793 ], [ -12.3132518, -37.0632476 ], [ -12.3131888, -37.0632294 ], [ -12.3131002, -37.0632487 ], [ -12.3130734, -37.0632819 ], [ -12.3131069, -37.0633327 ], [ -12.3132237, -37.0634561 ], [ -12.3132317, -37.0635901 ], [ -12.3132263, -37.0637859 ], [ -12.3132203, -37.0640074 ], [ -12.3132377, -37.0640449 ], [ -12.3132719, -37.0640631 ], [ -12.3132854, -37.0640684 ], [ -12.3133061, -37.0640838 ], [ -12.3133416, -37.0641101 ], [ -12.3134014, -37.0641647 ], [ -12.313404, -37.0641671 ], [ -12.3134349, -37.0641953 ], [ -12.3134825, -37.0642675 ], [ -12.3135026, -37.0643146 ], [ -12.3134885, -37.0643312 ], [ -12.313461, -37.0643376 ], [ -12.3132102, -37.0643878 ], [ -12.3131843, -37.0643932 ], [ -12.3131811, -37.0643939 ], [ -12.3130895, -37.064412 ], [ -12.3129366, -37.0644312 ], [ -12.312877, -37.064436 ], [ -12.3128099, -37.064436 ], [ -12.3127824, -37.0644296 ], [ -12.3127703, -37.0643799 ], [ -12.3127757, -37.0643456 ], [ -12.3127985, -37.0643082 ], [ -12.3128562, -37.0642632 ], [ -12.3128924, -37.0642338 ], [ -12.3129541, -37.0641551 ], [ -12.3129796, -37.0640973 ], [ -12.3129608, -37.0639668 ], [ -12.3129031, -37.0638191 ], [ -12.3128602, -37.0637891 ], [ -12.3128226, -37.0637848 ], [ -12.3127958, -37.0638073 ], [ -12.3127878, -37.0638501 ], [ -12.3127703, -37.0639582 ], [ -12.3127395, -37.064047 ], [ -12.3126872, -37.0641016 ], [ -12.3126134, -37.0641626 ], [ -12.3125128, -37.0642193 ], [ -12.3122218, -37.0642568 ], [ -12.3115298, -37.0643103 ], [ -12.3108995, -37.0643916 ], [ -12.310355, -37.0644259 ], [ -12.309486, -37.0644045 ], [ -12.3089039, -37.0644344 ], [ -12.3087806, -37.0644216 ], [ -12.3085848, -37.0643831 ], [ -12.3084453, -37.0643317 ], [ -12.3082937, -37.0642675 ], [ -12.30811, -37.0641209 ], [ -12.308051, -37.0640406 ], [ -12.3080322, -37.0639593 ], [ -12.3080094, -37.0639197 ], [ -12.3079786, -37.0639068 ], [ -12.3079544, -37.0639036 ], [ -12.3079182, -37.0639165 ], [ -12.3078673, -37.0639743 ], [ -12.3078002, -37.0640117 ], [ -12.3077318, -37.0640192 ], [ -12.3076165, -37.0640492 ], [ -12.3074341, -37.0641326 ], [ -12.3073469, -37.0641669 ], [ -12.3072718, -37.064199 ], [ -12.3072141, -37.0642022 ], [ -12.3070988, -37.0641626 ], [ -12.306966, -37.064108 ], [ -12.3068963, -37.0640866 ], [ -12.3068078, -37.0640845 ], [ -12.3066925, -37.0641316 ], [ -12.3066522, -37.0641348 ], [ -12.3066026, -37.0641166 ], [ -12.3065355, -37.0640053 ], [ -12.3064899, -37.0639604 ], [ -12.3064417, -37.0639486 ], [ -12.30638, -37.0639828 ], [ -12.3063424, -37.0640395 ], [ -12.3062901, -37.064046 ], [ -12.3062164, -37.064031 ], [ -12.3061748, -37.0640032 ], [ -12.3061654, -37.0639871 ], [ -12.3061681, -37.0639389 ], [ -12.3061641, -37.0638972 ], [ -12.3061292, -37.0638694 ], [ -12.3060849, -37.0638672 ], [ -12.3059763, -37.0639571 ], [ -12.3059253, -37.0639925 ], [ -12.3058784, -37.0640021 ], [ -12.3058409, -37.0639946 ], [ -12.3057885, -37.0639678 ], [ -12.305751, -37.0639625 ], [ -12.305692, -37.0639732 ], [ -12.305641, -37.0640117 ], [ -12.3056035, -37.064046 ], [ -12.3055176, -37.0640984 ], [ -12.3054761, -37.0641134 ], [ -12.3054278, -37.0641145 ], [ -12.3053715, -37.0640931 ], [ -12.3052534, -37.0640535 ], [ -12.3052186, -37.0640476 ], [ -12.3051623, -37.0640599 ], [ -12.3050851, -37.0641048 ], [ -12.3050328, -37.0641252 ], [ -12.3049919, -37.064123 ], [ -12.3049269, -37.0640834 ], [ -12.3048558, -37.0640197 ], [ -12.3048263, -37.064009 ], [ -12.3047908, -37.0640139 ], [ -12.3047626, -37.0640288 ], [ -12.3047318, -37.0640347 ], [ -12.3046238, -37.0640326 ], [ -12.3045246, -37.0640321 ], [ -12.3043851, -37.064016 ], [ -12.3043013, -37.0639989 ], [ -12.3042181, -37.0639727 ], [ -12.3041303, -37.0639357 ], [ -12.3040793, -37.0639186 ], [ -12.3040424, -37.0639122 ], [ -12.3040029, -37.0639111 ], [ -12.3039633, -37.0639266 ], [ -12.3037691, -37.0639117 ], [ -12.3034703, -37.063872 ], [ -12.3031262, -37.0638564 ], [ -12.3028375, -37.0638451 ], [ -12.3025795, -37.0638436 ], [ -12.3020166, -37.0638533 ], [ -12.3015651, -37.0638258 ], [ -12.3011886, -37.0638389 ], [ -12.301153, -37.0638314 ], [ -12.3010739, -37.0638485 ], [ -12.3008888, -37.063878 ], [ -12.3008157, -37.063887 ], [ -12.3007487, -37.0638833 ], [ -12.3005978, -37.0638587 ], [ -12.3004241, -37.0638448 ], [ -12.3002538, -37.0638416 ], [ -12.3001049, -37.0638491 ], [ -12.2999266, -37.0638448 ], [ -12.2997965, -37.063833 ], [ -12.2997201, -37.0638277 ], [ -12.2996476, -37.0638095 ], [ -12.2995712, -37.0637848 ], [ -12.2995122, -37.0637763 ], [ -12.2994398, -37.0637795 ], [ -12.2993727, -37.0637902 ], [ -12.2992869, -37.0637838 ], [ -12.2992091, -37.0637453 ], [ -12.2991434, -37.0637035 ], [ -12.2991166, -37.0636618 ], [ -12.299079, -37.0636243 ], [ -12.2990508, -37.0636115 ], [ -12.2990099, -37.0636131 ], [ -12.2989798, -37.0636265 ], [ -12.2989275, -37.0636447 ], [ -12.2988503, -37.0636554 ], [ -12.2985624, -37.0635999 ], [ -12.2983198, -37.0637694 ], [ -12.29845, -37.0641357 ], [ -12.2983068, -37.0639795 ], [ -12.2979064, -37.0637933 ], [ -12.2977069, -37.0637875 ], [ -12.297607, -37.0638307 ], [ -12.2975174, -37.0638348 ], [ -12.2974198, -37.0638652 ], [ -12.2973136, -37.0639228 ], [ -12.2971815, -37.0639101 ], [ -12.2970628, -37.063914 ], [ -12.296928, -37.0639254 ], [ -12.2967105, -37.0639793 ], [ -12.2965184, -37.0640064 ], [ -12.2963204, -37.0640623 ], [ -12.2960599, -37.064142 ], [ -12.2959371, -37.0641618 ], [ -12.2957415, -37.0642211 ], [ -12.295557, -37.0642236 ], [ -12.2952937, -37.064283 ], [ -12.2949962, -37.0642569 ], [ -12.294677, -37.0642671 ], [ -12.2941223, -37.0642047 ], [ -12.2938149, -37.0641237 ], [ -12.293484, -37.0641588 ], [ -12.2932263, -37.0640836 ], [ -12.2929151, -37.064239 ], [ -12.2925491, -37.0642635 ], [ -12.2920482, -37.0642731 ], [ -12.2916485, -37.064285 ], [ -12.2911754, -37.0643589 ], [ -12.2907779, -37.064352 ], [ -12.2901749, -37.0644013 ], [ -12.2896567, -37.064472 ], [ -12.2891169, -37.0644902 ], [ -12.2885475, -37.0645283 ], [ -12.2874258, -37.0645 ], [ -12.2861223, -37.0645601 ], [ -12.2856693, -37.0645765 ], [ -12.28516, -37.064527 ], [ -12.284807, -37.0642397 ], [ -12.2840828, -37.0637945 ], [ -12.2832674, -37.0633835 ], [ -12.2824949, -37.0629897 ], [ -12.2815883, -37.062476 ], [ -12.2809553, -37.0622021 ], [ -12.2803938, -37.0620972 ], [ -12.2795243, -37.0620689 ], [ -12.2783651, -37.0622224 ], [ -12.2776378, -37.0625835 ], [ -12.2771615, -37.0628061 ], [ -12.276627, -37.0630462 ], [ -12.2760088, -37.0632365 ], [ -12.2756113, -37.0633192 ], [ -12.2752374, -37.0634419 ], [ -12.2747874, -37.0634434 ], [ -12.2744452, -37.0634909 ], [ -12.2741194, -37.0635455 ], [ -12.2736968, -37.0635952 ], [ -12.2733298, -37.0635269 ], [ -12.2729489, -37.0636104 ], [ -12.2726592, -37.0636126 ], [ -12.2721979, -37.0635826 ], [ -12.2718895, -37.0635013 ], [ -12.2715495, -37.0634941 ], [ -12.2713003, -37.0634117 ], [ -12.2710155, -37.0632877 ], [ -12.2706161, -37.0632867 ], [ -12.2703815, -37.0632803 ], [ -12.269917, -37.0632267 ], [ -12.2695967, -37.0632 ], [ -12.2691957, -37.0632141 ], [ -12.2686866, -37.0631597 ], [ -12.2682538, -37.0630764 ], [ -12.2678495, -37.0629771 ], [ -12.2674757, -37.0628884 ], [ -12.2670691, -37.0628728 ], [ -12.2667357, -37.0628392 ], [ -12.2663996, -37.0627561 ], [ -12.2660081, -37.0627711 ], [ -12.2656645, -37.0627403 ], [ -12.2652199, -37.0627172 ], [ -12.2647342, -37.0627116 ], [ -12.2643852, -37.0627055 ], [ -12.2639992, -37.0627237 ], [ -12.2638384, -37.0627174 ], [ -12.2635898, -37.0627076 ], [ -12.2629567, -37.0627664 ], [ -12.2621045, -37.0631211 ], [ -12.261472, -37.0633488 ], [ -12.2607807, -37.0635847 ], [ -12.2600563, -37.0638297 ], [ -12.2596, -37.0639555 ], [ -12.2593105, -37.0643722 ], [ -12.2587141, -37.0648287 ], [ -12.2581936, -37.065386 ], [ -12.2574996, -37.0661939 ], [ -12.2570517, -37.0665852 ], [ -12.2565601, -37.0668842 ], [ -12.256103, -37.0675805 ], [ -12.2556249, -37.0679549 ], [ -12.2552607, -37.0682699 ], [ -12.2545353, -37.0686334 ], [ -12.2538238, -37.068872 ], [ -12.2529469, -37.0692623 ], [ -12.2520378, -37.0695734 ], [ -12.2512443, -37.0698886 ], [ -12.2503455, -37.0700272 ], [ -12.2493866, -37.0703439 ], [ -12.2486222, -37.0707432 ], [ -12.2481239, -37.071043 ], [ -12.2478079, -37.0713336 ], [ -12.2474798, -37.0716012 ], [ -12.2471604, -37.0718006 ], [ -12.2469802, -37.0720761 ], [ -12.2466877, -37.0723634 ], [ -12.2463698, -37.072858 ], [ -12.2460246, -37.0730936 ], [ -12.2456734, -37.0733742 ], [ -12.2446367, -37.0740526 ], [ -12.2442984, -37.074267 ], [ -12.2440063, -37.0743516 ], [ -12.2434986, -37.0747883 ], [ -12.243045, -37.0753472 ], [ -12.2425754, -37.0757639 ], [ -12.2419819, -37.0760862 ], [ -12.2417786, -37.0764253 ], [ -12.2413511, -37.0766601 ], [ -12.2403117, -37.0773465 ], [ -12.2395562, -37.0779739 ], [ -12.2385211, -37.0785078 ], [ -12.2376173, -37.0789347 ], [ -12.2371747, -37.0791439 ], [ -12.2367993, -37.0792349 ], [ -12.2364123, -37.0793145 ], [ -12.236242, -37.079435 ], [ -12.2358061, -37.0798391 ], [ -12.235474, -37.0801711 ], [ -12.2349187, -37.0806483 ], [ -12.2343208, -37.0813912 ], [ -12.2329158, -37.0830275 ], [ -12.2324525, -37.0835159 ], [ -12.2317336, -37.0845288 ], [ -12.2308944, -37.0853951 ], [ -12.2301925, -37.086103 ], [ -12.2296631, -37.0866581 ], [ -12.2292867, -37.0872624 ], [ -12.2288311, -37.0879439 ], [ -12.2283065, -37.0887043 ], [ -12.2278223, -37.089377 ], [ -12.2273564, -37.0898579 ], [ -12.2272096, -37.09028 ], [ -12.2270923, -37.0906872 ], [ -12.2269305, -37.0911073 ], [ -12.2265279, -37.0918744 ], [ -12.2259003, -37.0930126 ], [ -12.2253746, -37.0937529 ], [ -12.2247416, -37.09466 ], [ -12.2236204, -37.0960806 ], [ -12.2228372, -37.097377 ], [ -12.2224563, -37.0980916 ], [ -12.2221828, -37.098682 ], [ -12.2221077, -37.0989516 ], [ -12.2221237, -37.0992169 ], [ -12.2220969, -37.0995891 ], [ -12.2219628, -37.0999528 ], [ -12.2217214, -37.1007786 ], [ -12.2215337, -37.1015016 ], [ -12.2210902, -37.1024961 ], [ -12.2206628, -37.1034993 ], [ -12.2202779, -37.1043318 ], [ -12.2199357, -37.1050528 ], [ -12.2197152, -37.1054753 ], [ -12.2195661, -37.1059584 ], [ -12.2186124, -37.1075529 ], [ -12.218423, -37.1077295 ], [ -12.2181657, -37.1082655 ], [ -12.218033, -37.1084501 ], [ -12.217847, -37.1086639 ], [ -12.2178486, -37.1089433 ], [ -12.2178939, -37.1091833 ], [ -12.2178805, -37.1093415 ], [ -12.2177465, -37.1096183 ], [ -12.2176152, -37.1099198 ], [ -12.2174078, -37.1101229 ], [ -12.2172952, -37.1104103 ], [ -12.2171429, -37.1106148 ], [ -12.2170802, -37.1107693 ], [ -12.2170411, -37.1109607 ], [ -12.2172476, -37.1114485 ], [ -12.2174934, -37.1120575 ], [ -12.2173958, -37.1125381 ], [ -12.2172947, -37.11297 ], [ -12.2172283, -37.1132124 ], [ -12.2171659, -37.1134915 ], [ -12.2170268, -37.1140097 ], [ -12.216897, -37.1145018 ], [ -12.216558, -37.1151599 ], [ -12.2165944, -37.1155881 ], [ -12.2166676, -37.116001 ], [ -12.2167406, -37.1164235 ], [ -12.2168532, -37.1168213 ], [ -12.216939, -37.117093 ], [ -12.2170329, -37.1172598 ], [ -12.2171482, -37.1173817 ], [ -12.2173575, -37.1175507 ], [ -12.2174969, -37.1177196 ], [ -12.2176713, -37.1179314 ], [ -12.2178268, -37.1181559 ], [ -12.2179341, -37.1184768 ], [ -12.2179717, -37.1187291 ], [ -12.2179717, -37.1189601 ], [ -12.21802, -37.1192424 ], [ -12.2181702, -37.1194649 ], [ -12.2183633, -37.119636 ], [ -12.218653, -37.11976 ], [ -12.219184, -37.1200765 ], [ -12.2197473, -37.1204102 ], [ -12.2204822, -37.1209791 ], [ -12.2211367, -37.1215394 ], [ -12.2213674, -37.1217576 ], [ -12.2216141, -37.1220955 ], [ -12.2217751, -37.1224548 ], [ -12.2220272, -37.1228247 ], [ -12.2221372, -37.1229723 ], [ -12.222333, -37.123152 ], [ -12.2224644, -37.1232418 ], [ -12.222577, -37.1233102 ], [ -12.2230518, -37.1235604 ], [ -12.2233012, -37.123723 ], [ -12.22354, -37.1238834 ], [ -12.2240979, -37.1243175 ], [ -12.2246718, -37.1248115 ], [ -12.2255516, -37.1255707 ], [ -12.2257528, -37.1257931 ], [ -12.2259298, -37.1260048 ], [ -12.2260746, -37.126131 ], [ -12.2264582, -37.1265117 ], [ -12.2266057, -37.1267319 ], [ -12.2267988, -37.1269779 ], [ -12.2273648, -37.1277071 ], [ -12.2277242, -37.1280493 ], [ -12.2282204, -37.1284385 ], [ -12.2294328, -37.1287914 ], [ -12.2305432, -37.1292318 ], [ -12.2314203, -37.129589 ], [ -12.2317904, -37.1298092 ], [ -12.2320841, -37.1299643 ], [ -12.2325594, -37.1302966 ], [ -12.232998, -37.1305984 ], [ -12.2334109, -37.1309203 ], [ -12.2338647, -37.1313426 ], [ -12.234191, -37.1314964 ], [ -12.2343305, -37.131629 ], [ -12.2345156, -37.1317894 ], [ -12.234993, -37.1321102 ], [ -12.23539, -37.1324416 ], [ -12.2357494, -37.1328051 ], [ -12.235854, -37.1329398 ], [ -12.2359103, -37.133066 ], [ -12.2359827, -37.1332007 ], [ -12.2360873, -37.1333119 ], [ -12.2361839, -37.1333782 ], [ -12.2362858, -37.1335022 ], [ -12.2363797, -37.1336476 ], [ -12.2365218, -37.133823 ], [ -12.2367042, -37.1339898 ], [ -12.2369456, -37.1341951 ], [ -12.2372729, -37.1345137 ], [ -12.237635, -37.1348451 ], [ -12.2380427, -37.1351787 ], [ -12.2382063, -37.1353647 ], [ -12.2382841, -37.1355208 ], [ -12.2384182, -37.1358308 ], [ -12.238563, -37.1363098 ], [ -12.2386542, -37.1368038 ], [ -12.2387615, -37.1372464 ], [ -12.2388741, -37.1374987 ], [ -12.2390217, -37.1376377 ], [ -12.2391826, -37.1377531 ], [ -12.2393703, -37.1378793 ], [ -12.2396278, -37.1380482 ], [ -12.2399899, -37.1382962 ], [ -12.2402945, -37.1384889 ], [ -12.2406989, -37.138725 ], [ -12.2410276, -37.1390669 ], [ -12.2413314, -37.1393321 ], [ -12.2416985, -37.1396647 ], [ -12.2419667, -37.1398935 ], [ -12.2421438, -37.1400046 ], [ -12.2425541, -37.1401992 ], [ -12.2429913, -37.1403938 ], [ -12.2432247, -37.1405499 ], [ -12.2433373, -37.140676 ], [ -12.2435197, -37.1409198 ], [ -12.2436377, -37.1410481 ], [ -12.243863, -37.1411614 ], [ -12.2441259, -37.1412683 ], [ -12.2444773, -37.1413773 ], [ -12.2448635, -37.1414607 ], [ -12.2451988, -37.1415633 ], [ -12.2465121, -37.1421242 ], [ -12.246866, -37.1421471 ], [ -12.247226, -37.1423454 ], [ -12.2474398, -37.1423397 ], [ -12.2476026, -37.1424048 ], [ -12.2477695, -37.1424551 ], [ -12.2481997, -37.1425724 ], [ -12.2484899, -37.1426367 ], [ -12.2489861, -37.1428654 ], [ -12.2492597, -37.1429937 ], [ -12.2509712, -37.1441362 ], [ -12.2516359, -37.1440845 ], [ -12.2518549, -37.1441094 ], [ -12.2519042, -37.1442584 ], [ -12.2519982, -37.1446207 ], [ -12.2532588, -37.1457154 ], [ -12.2534224, -37.145895 ], [ -12.2537732, -37.1462468 ], [ -12.2543948, -37.1467573 ], [ -12.2547013, -37.1475432 ], [ -12.2551946, -37.1484333 ], [ -12.255219, -37.1489933 ], [ -12.2553654, -37.1493592 ], [ -12.2555874, -37.1497909 ], [ -12.2557788, -37.1501744 ], [ -12.2558674, -37.15059 ], [ -12.2562951, -37.1512184 ], [ -12.2564614, -37.1513681 ], [ -12.2567135, -37.1516503 ], [ -12.256853, -37.1518384 ], [ -12.2569978, -37.1521505 ], [ -12.2570676, -37.1523258 ], [ -12.2573626, -37.1526038 ], [ -12.257663, -37.1528175 ], [ -12.2580546, -37.1532152 ], [ -12.2582477, -37.1534118 ], [ -12.2585337, -37.1535883 ], [ -12.2588861, -37.1537624 ], [ -12.2590685, -37.1538779 ], [ -12.2592616, -37.1540318 ], [ -12.2597069, -37.1543696 ], [ -12.2599804, -37.1545577 ], [ -12.2602969, -37.1546902 ], [ -12.2605598, -37.1547415 ], [ -12.2607637, -37.1546731 ], [ -12.261005, -37.1545534 ], [ -12.2612894, -37.1545235 ], [ -12.2614718, -37.1545534 ], [ -12.2619331, -37.1546774 ], [ -12.262491, -37.1548014 ], [ -12.2629041, -37.1549724 ], [ -12.2632188, -37.155152 ], [ -12.2638214, -37.1555325 ], [ -12.2643739, -37.1558745 ], [ -12.2651893, -37.156456 ], [ -12.2660671, -37.1570746 ], [ -12.2664607, -37.1573901 ], [ -12.2668415, -37.157683 ], [ -12.2671071, -37.157854 ], [ -12.2672278, -37.1579972 ], [ -12.2673002, -37.1581148 ], [ -12.2673458, -37.1582302 ], [ -12.2675014, -37.1583991 ], [ -12.2676569, -37.158553 ], [ -12.2678849, -37.1587176 ], [ -12.2680834, -37.158957 ], [ -12.2682738, -37.1592178 ], [ -12.2685313, -37.1596047 ], [ -12.2687942, -37.1600857 ], [ -12.268939, -37.1604662 ], [ -12.2688702, -37.1607515 ], [ -12.268966, -37.1611141 ], [ -12.2688285, -37.1613553 ], [ -12.2685205, -37.1618446 ], [ -12.2681343, -37.1624605 ], [ -12.2675158, -37.1629821 ], [ -12.2672364, -37.1632226 ], [ -12.2671309, -37.16343 ], [ -12.2671267, -37.1635684 ], [ -12.2671725, -37.1637501 ], [ -12.2672732, -37.1639071 ], [ -12.2673575, -37.1640727 ], [ -12.2675308, -37.1643356 ], [ -12.2676989, -37.1645643 ], [ -12.2679743, -37.1648463 ], [ -12.2686225, -37.1653354 ], [ -12.2687513, -37.1654829 ], [ -12.2691965, -37.1658399 ], [ -12.2695345, -37.1661028 ], [ -12.2699556, -37.1664576 ], [ -12.2700897, -37.1665815 ], [ -12.2701487, -37.166697 ], [ -12.2701862, -37.1668444 ], [ -12.2703016, -37.1670133 ], [ -12.2704572, -37.1671715 ], [ -12.2707495, -37.1673681 ], [ -12.2709185, -37.1674921 ], [ -12.2710311, -37.1676053 ], [ -12.2711653, -37.1677357 ], [ -12.2712779, -37.1677892 ], [ -12.2714067, -37.1678789 ], [ -12.2714871, -37.1679794 ], [ -12.2715756, -37.1680884 ], [ -12.2716668, -37.1682102 ], [ -12.2718143, -37.168285 ], [ -12.272324, -37.1684026 ], [ -12.2725144, -37.1684175 ], [ -12.2727075, -37.1684026 ], [ -12.2728765, -37.1683791 ], [ -12.2730991, -37.1683598 ], [ -12.2732547, -37.1683769 ], [ -12.2733647, -37.1684111 ], [ -12.2735336, -37.1684389 ], [ -12.2737831, -37.1684453 ], [ -12.2740419, -37.1684624 ], [ -12.2743946, -37.1685533 ], [ -12.2745824, -37.1686291 ], [ -12.2747728, -37.1686794 ], [ -12.2748399, -37.1686847 ], [ -12.2751215, -37.1686804 ], [ -12.2752489, -37.1686836 ], [ -12.2755694, -37.16872 ], [ -12.2757384, -37.1687563 ], [ -12.2758243, -37.1688087 ], [ -12.2759114, -37.1688985 ], [ -12.2759463, -37.1689316 ], [ -12.2759973, -37.1689636 ], [ -12.276067, -37.1689839 ], [ -12.2762105, -37.1689797 ], [ -12.2762816, -37.1689797 ], [ -12.276417, -37.1690053 ], [ -12.2764841, -37.1690267 ], [ -12.2768837, -37.1691763 ], [ -12.2770688, -37.1692329 ], [ -12.2771466, -37.1692629 ], [ -12.2772673, -37.1693056 ], [ -12.2773142, -37.1693334 ], [ -12.2774591, -37.1693804 ], [ -12.2775301, -37.1693761 ], [ -12.2775891, -37.1693612 ], [ -12.2776736, -37.169311 ], [ -12.2778252, -37.1692308 ], [ -12.2779016, -37.1691923 ], [ -12.2779928, -37.1691699 ], [ -12.2780974, -37.1691849 ], [ -12.2782208, -37.1692287 ], [ -12.2782516, -37.1692362 ], [ -12.2782798, -37.1692308 ], [ -12.2782986, -37.169218 ], [ -12.2783388, -37.1692062 ], [ -12.278375, -37.1691977 ], [ -12.2784528, -37.1692073 ], [ -12.2785521, -37.1692351 ], [ -12.278662, -37.1692752 ], [ -12.2786888, -37.1692778 ], [ -12.2787264, -37.1692703 ], [ -12.2787559, -37.1692436 ], [ -12.2787727, -37.1692046 ], [ -12.2787975, -37.1691239 ], [ -12.2788203, -37.169101 ], [ -12.2788484, -37.1690924 ], [ -12.2789598, -37.169094 ], [ -12.2790194, -37.1691191 ], [ -12.2791395, -37.1692265 ], [ -12.2791904, -37.1692874 ], [ -12.2792508, -37.1693291 ], [ -12.2793017, -37.1693516 ], [ -12.2793393, -37.1693441 ], [ -12.2793674, -37.1693281 ], [ -12.2793889, -37.1693045 ], [ -12.2793916, -37.1692618 ], [ -12.279413, -37.1692223 ], [ -12.2794399, -37.1692041 ], [ -12.2795284, -37.1691977 ], [ -12.2796571, -37.1692191 ], [ -12.2797671, -37.1692725 ], [ -12.2798476, -37.1693323 ], [ -12.2799844, -37.1693858 ], [ -12.2801024, -37.1694755 ], [ -12.2802043, -37.1696209 ], [ -12.2803518, -37.1697384 ], [ -12.280494, -37.1697812 ], [ -12.2805766, -37.1697775 ], [ -12.2806469, -37.1697491 ], [ -12.2808105, -37.1697085 ], [ -12.2810036, -37.169717 ], [ -12.2811243, -37.1697406 ], [ -12.2813174, -37.1698111 ], [ -12.2815615, -37.1698667 ], [ -12.281709, -37.1698902 ], [ -12.2818941, -37.1698709 ], [ -12.2821409, -37.1698346 ], [ -12.2823179, -37.1698196 ], [ -12.2824734, -37.1698367 ], [ -12.2827336, -37.1698731 ], [ -12.283144, -37.1700612 ], [ -12.2834471, -37.1702321 ], [ -12.2835732, -37.170245 ], [ -12.283777, -37.1702343 ], [ -12.2839916, -37.1701744 ], [ -12.2844315, -37.1700376 ], [ -12.2860755, -37.169319 ], [ -12.2870225, -37.1689519 ], [ -12.288267, -37.1683021 ], [ -12.2890824, -37.1679131 ], [ -12.2893989, -37.1677165 ], [ -12.2898066, -37.167413 ], [ -12.2903591, -37.1669086 ], [ -12.2907507, -37.1664854 ], [ -12.290917, -37.1662246 ], [ -12.2912175, -37.1657501 ], [ -12.2915447, -37.1651815 ], [ -12.2918075, -37.164784 ], [ -12.2919899, -37.164583 ], [ -12.2924727, -37.1642496 ], [ -12.2928214, -37.1639717 ], [ -12.29339, -37.1635784 ], [ -12.2942698, -37.1630141 ], [ -12.2946239, -37.1628046 ], [ -12.2950798, -37.1625524 ], [ -12.295922, -37.162048 ], [ -12.2968823, -37.1615008 ], [ -12.2976548, -37.1611929 ], [ -12.2980303, -37.1610604 ], [ -12.2984487, -37.1610134 ], [ -12.299071, -37.1609749 ], [ -12.2994626, -37.1609749 ], [ -12.2999668, -37.1608809 ], [ -12.3002565, -37.160821 ], [ -12.3004979, -37.1607227 ], [ -12.3007608, -37.1605773 ], [ -12.3010612, -37.1602396 ], [ -12.3021662, -37.1595128 ], [ -12.3026705, -37.1592563 ], [ -12.3030299, -37.1590041 ], [ -12.3036093, -37.1587646 ], [ -12.3038882, -37.1586706 ], [ -12.3043442, -37.1585765 ], [ -12.3047411, -37.1584867 ], [ -12.3053785, -37.1581295 ], [ -12.3057592, -37.158126 ], [ -12.3061653, -37.1581751 ], [ -12.3066616, -37.1583052 ], [ -12.3068896, -37.1583756 ], [ -12.3070774, -37.1584034 ], [ -12.3073965, -37.1584034 ], [ -12.3083434, -37.1583093 ], [ -12.3086035, -37.1583008 ], [ -12.3090085, -37.1582901 ], [ -12.3101887, -37.1584483 ], [ -12.3105776, -37.1583612 ], [ -12.3110589, -37.1582795 ], [ -12.3115976, -37.1583053 ], [ -12.3121582, -37.1584196 ], [ -12.3127887, -37.1586682 ], [ -12.3132739, -37.1588071 ], [ -12.3135306, -37.1590343 ], [ -12.3136169, -37.1590919 ], [ -12.3138633, -37.1592563 ], [ -12.3141664, -37.1595427 ] ] ] ] } },
{ "type": "Feature", "properties": { "FID": 61297, "id": 1214, "left": -15.0, "top": -35.0, "right": -10.0, "bottom": -40.0, "row_index": 25, "col_index": 33, "min_lon": -15.0, "min_lat": -40.0, "tile_id": "-15_-40" }, "geometry": { "type": "MultiPolygon", "coordinates": [ [ [ [ -12.328564, -37.0797639 ], [ -12.3284318, -37.0798109 ], [ -12.3283759, -37.0799169 ], [ -12.3284546, -37.0800933 ], [ -12.3285452, -37.0801217 ], [ -12.3286597, -37.0800901 ], [ -12.328704, -37.079996 ], [ -12.3286979, -37.0798677 ], [ -12.328564, -37.0797639 ] ] ] ] } },
{ "type": "Feature", "properties": { "FID": 61298, "id": 1214, "left": -15.0, "top": -35.0, "right": -10.0, "bottom": -40.0, "row_index": 25, "col_index": 33, "min_lon": -15.0, "min_lat": -40.0, "tile_id": "-15_-40" }, "geometry": { "type": "MultiPolygon", "coordinates": [ [ [ [ -12.7030702, -37.3106858 ], [ -12.7029844, -37.3103708 ], [ -12.7031002, -37.3099027 ], [ -12.7031791, -37.3094003 ], [ -12.7031671, -37.3092618 ], [ -12.7031922, -37.3091822 ], [ -12.703493, -37.3087435 ], [ -12.7037815, -37.3084078 ], [ -12.7046809, -37.3072945 ], [ -12.7050875, -37.3067312 ], [ -12.7053073, -37.3062794 ], [ -12.7054387, -37.3061708 ], [ -12.705487, -37.305998 ], [ -12.7055924, -37.3056216 ], [ -12.7055952, -37.3051774 ], [ -12.7052904, -37.3044907 ], [ -12.7050472, -37.3039462 ], [ -12.7050045, -37.3030337 ], [ -12.7051267, -37.3024641 ], [ -12.7051812, -37.3020073 ], [ -12.7053035, -37.3011194 ], [ -12.7055737, -37.3004276 ], [ -12.7055349, -37.2995439 ], [ -12.7056732, -37.2987681 ], [ -12.7058239, -37.2982767 ], [ -12.7062361, -37.2969801 ], [ -12.7063237, -37.2960679 ], [ -12.7062942, -37.2958419 ], [ -12.7062265, -37.2953225 ], [ -12.7061047, -37.2948858 ], [ -12.7057733, -37.2944295 ], [ -12.705146, -37.2938195 ], [ -12.7041745, -37.293296 ], [ -12.7038966, -37.2930709 ], [ -12.7035321, -37.292953 ], [ -12.7030356, -37.2928314 ], [ -12.7027199, -37.2927637 ], [ -12.7023333, -37.2926295 ], [ -12.701802, -37.2926022 ], [ -12.7015184, -37.2926311 ], [ -12.701256, -37.2928008 ], [ -12.7008984, -37.2928688 ], [ -12.7002028, -37.2929084 ], [ -12.6997205, -37.2929451 ], [ -12.6992382, -37.2929818 ], [ -12.6987345, -37.2930235 ], [ -12.6983364, -37.2929745 ], [ -12.6979309, -37.2927873 ], [ -12.6974111, -37.2923249 ], [ -12.696997, -37.2918561 ], [ -12.6964709, -37.2913109 ], [ -12.6958702, -37.2910407 ], [ -12.6955966, -37.2905875 ], [ -12.6951923, -37.2904166 ], [ -12.6949907, -37.2904172 ], [ -12.6946583, -37.2906258 ], [ -12.6942075, -37.2905889 ], [ -12.6939771, -37.2904386 ], [ -12.6929849, -37.2895736 ], [ -12.6923851, -37.2891739 ], [ -12.6918787, -37.2889822 ], [ -12.6914693, -37.2888071 ], [ -12.6911587, -37.2886206 ], [ -12.6908924, -37.2883764 ], [ -12.6905802, -37.2879875 ], [ -12.6901289, -37.2874531 ], [ -12.6899475, -37.2870678 ], [ -12.6898222, -37.2866825 ], [ -12.689422, -37.2861199 ], [ -12.6892054, -37.2858976 ], [ -12.6885031, -37.2854375 ], [ -12.6882983, -37.2854019 ], [ -12.6879624, -37.2852503 ], [ -12.6873463, -37.2847867 ], [ -12.6866642, -37.2838854 ], [ -12.6865855, -37.2837813 ], [ -12.6864224, -37.2834893 ], [ -12.6860759, -37.283371 ], [ -12.686026, -37.2832061 ], [ -12.6858181, -37.2828157 ], [ -12.685548, -37.2826067 ], [ -12.6852332, -37.2824626 ], [ -12.6847196, -37.2823883 ], [ -12.6841734, -37.2823584 ], [ -12.6836358, -37.2821462 ], [ -12.6832035, -37.2820036 ], [ -12.6825284, -37.2820208 ], [ -12.6817786, -37.2820551 ], [ -12.681197, -37.2820448 ], [ -12.6807207, -37.2818694 ], [ -12.6798894, -37.2818427 ], [ -12.6790104, -37.281926 ], [ -12.6785983, -37.2818756 ], [ -12.6778585, -37.2818764 ], [ -12.6775421, -37.2819794 ], [ -12.677112, -37.2820098 ], [ -12.6768645, -37.282138 ], [ -12.676549, -37.2823672 ], [ -12.6759307, -37.282661 ], [ -12.6755056, -37.2828433 ], [ -12.6748729, -37.2833683 ], [ -12.6744952, -37.283611 ], [ -12.6740428, -37.283824 ], [ -12.6738105, -37.2840122 ], [ -12.6735165, -37.2844082 ], [ -12.6732678, -37.284672 ], [ -12.6730033, -37.2847519 ], [ -12.67244, -37.2851215 ], [ -12.6715861, -37.2855018 ], [ -12.671126, -37.2857369 ], [ -12.6704231, -37.2862396 ], [ -12.6698895, -37.2866655 ], [ -12.6694307, -37.2868388 ], [ -12.6691193, -37.2868714 ], [ -12.6685316, -37.2869328 ], [ -12.6683451, -37.2869968 ], [ -12.6674954, -37.2872021 ], [ -12.6666375, -37.2876233 ], [ -12.6659748, -37.2878204 ], [ -12.6650757, -37.2880938 ], [ -12.6646413, -37.2883478 ], [ -12.6640645, -37.2888811 ], [ -12.6637473, -37.2893899 ], [ -12.6634295, -37.2901401 ], [ -12.6631678, -37.2905634 ], [ -12.6627586, -37.2910275 ], [ -12.6621401, -37.2912739 ], [ -12.6616107, -37.2913912 ], [ -12.6611496, -37.291353 ], [ -12.660881, -37.291381 ], [ -12.6599967, -37.291594 ], [ -12.6597158, -37.2916617 ], [ -12.659117, -37.2916599 ], [ -12.6581819, -37.291777 ], [ -12.6575718, -37.2920409 ], [ -12.6567479, -37.2921603 ], [ -12.6553262, -37.2927106 ], [ -12.6539397, -37.2928201 ], [ -12.6537003, -37.292792 ], [ -12.6536219, -37.2927816 ], [ -12.6536235, -37.2927237 ], [ -12.6536275, -37.2925747 ], [ -12.6535077, -37.2924496 ], [ -12.6532571, -37.2924286 ], [ -12.6529338, -37.2925825 ], [ -12.6528346, -37.2926548 ], [ -12.6526341, -37.2927641 ], [ -12.6524823, -37.2927691 ], [ -12.6521064, -37.2925363 ], [ -12.6516442, -37.2922566 ], [ -12.6512609, -37.2920587 ], [ -12.6508358, -37.2919597 ], [ -12.6505788, -37.2919797 ], [ -12.6502211, -37.2920666 ], [ -12.6499754, -37.2923615 ], [ -12.6498782, -37.2925822 ], [ -12.6499304, -37.2928326 ], [ -12.6497359, -37.2932442 ], [ -12.6495615, -37.2936684 ], [ -12.6491478, -37.2940621 ], [ -12.648734, -37.2943815 ], [ -12.6484786, -37.2947478 ], [ -12.6480604, -37.295172 ], [ -12.6473594, -37.2956307 ], [ -12.6467714, -37.2958659 ], [ -12.6458977, -37.2958428 ], [ -12.6448809, -37.2961905 ], [ -12.6443023, -37.2966686 ], [ -12.6438668, -37.2971212 ], [ -12.6436385, -37.2977624 ], [ -12.6433366, -37.2981432 ], [ -12.6429508, -37.2984432 ], [ -12.6427681, -37.2987635 ], [ -12.6426431, -37.2993119 ], [ -12.6423529, -37.2997543 ], [ -12.6423318, -37.299938 ], [ -12.6423229, -37.3000156 ], [ -12.6424469, -37.3004528 ], [ -12.6423046, -37.3008098 ], [ -12.6422802, -37.3010063 ], [ -12.6426683, -37.3017946 ], [ -12.6426796, -37.3020943 ], [ -12.6433028, -37.3027658 ], [ -12.6439526, -37.3033076 ], [ -12.6450577, -37.3037718 ], [ -12.6461748, -37.3040699 ], [ -12.6477262, -37.3045439 ], [ -12.6491355, -37.304832 ], [ -12.6502378, -37.3049832 ], [ -12.651433, -37.3050729 ], [ -12.6527218, -37.3054398 ], [ -12.6536528, -37.3058713 ], [ -12.6550325, -37.3065942 ], [ -12.6563411, -37.3073648 ], [ -12.6574364, -37.3079622 ], [ -12.6595658, -37.3090729 ], [ -12.6599275, -37.3092903 ], [ -12.6609212, -37.3096549 ], [ -12.6616576, -37.3100815 ], [ -12.6627661, -37.3104154 ], [ -12.664263, -37.3106335 ], [ -12.6649143, -37.310774 ], [ -12.6652045, -37.3110371 ], [ -12.6665493, -37.3115862 ], [ -12.6671003, -37.3121054 ], [ -12.6678973, -37.312514 ], [ -12.6682717, -37.3125618 ], [ -12.668588, -37.3126355 ], [ -12.6696972, -37.3131062 ], [ -12.6707174, -37.3136309 ], [ -12.6713853, -37.3140912 ], [ -12.6715231, -37.3142174 ], [ -12.6715437, -37.3143044 ], [ -12.6714319, -37.3143669 ], [ -12.6712281, -37.314452 ], [ -12.6710338, -37.3146661 ], [ -12.6708394, -37.3148803 ], [ -12.6708469, -37.3151063 ], [ -12.6708729, -37.3154304 ], [ -12.6709378, -37.3154586 ], [ -12.6710026, -37.3154329 ], [ -12.6710902, -37.3153814 ], [ -12.6716584, -37.3150334 ], [ -12.6719987, -37.3147654 ], [ -12.6720654, -37.3146572 ], [ -12.672089, -37.3145196 ], [ -12.6720164, -37.3143985 ], [ -12.6718514, -37.3143265 ], [ -12.6718775, -37.3142288 ], [ -12.6720215, -37.3141761 ], [ -12.6723781, -37.3141455 ], [ -12.6726328, -37.3142688 ], [ -12.6738811, -37.3148833 ], [ -12.6742327, -37.3149926 ], [ -12.6745211, -37.3149981 ], [ -12.6748566, -37.3150046 ], [ -12.6754598, -37.3151144 ], [ -12.6756719, -37.3152057 ], [ -12.6765849, -37.3156511 ], [ -12.6769089, -37.3159521 ], [ -12.6771839, -37.3162297 ], [ -12.6772895, -37.3162918 ], [ -12.67755, -37.3163717 ], [ -12.6777673, -37.3164457 ], [ -12.6780093, -37.3165492 ], [ -12.6782805, -37.3166851 ], [ -12.6784577, -37.3168687 ], [ -12.6785609, -37.3170131 ], [ -12.6786534, -37.3171671 ], [ -12.6787397, -37.3173723 ], [ -12.6788569, -37.3175473 ], [ -12.6788763, -37.3175928 ], [ -12.6789111, -37.3176186 ], [ -12.6789724, -37.3176224 ], [ -12.6790313, -37.317568 ], [ -12.6791065, -37.3175661 ], [ -12.6792003, -37.3176244 ], [ -12.679296, -37.3176282 ], [ -12.6794166, -37.3175965 ], [ -12.6795658, -37.3176682 ], [ -12.6799919, -37.3178467 ], [ -12.6802481, -37.3180083 ], [ -12.6804492, -37.3182246 ], [ -12.6805514, -37.3183348 ], [ -12.6808661, -37.3186364 ], [ -12.6810919, -37.3188682 ], [ -12.6816339, -37.3192036 ], [ -12.6818616, -37.3194564 ], [ -12.6821141, -37.3196163 ], [ -12.6823192, -37.3198901 ], [ -12.6823073, -37.3202352 ], [ -12.6823701, -37.3204037 ], [ -12.6826563, -37.3206782 ], [ -12.6831251, -37.3210097 ], [ -12.6831411, -37.3210891 ], [ -12.6830392, -37.321175 ], [ -12.6825403, -37.3214727 ], [ -12.6818746, -37.3219888 ], [ -12.681597, -37.3221806 ], [ -12.6815396, -37.3224068 ], [ -12.6814741, -37.322523 ], [ -12.6814431, -37.3227228 ], [ -12.6814689, -37.3229291 ], [ -12.681637, -37.323075 ], [ -12.6817526, -37.3231075 ], [ -12.6818927, -37.3231207 ], [ -12.6820474, -37.3230859 ], [ -12.682133, -37.3231029 ], [ -12.6822153, -37.3231572 ], [ -12.6823627, -37.3233278 ], [ -12.6826458, -37.3234077 ], [ -12.6829719, -37.3233512 ], [ -12.6833329, -37.3231329 ], [ -12.6837712, -37.3229469 ], [ -12.6839856, -37.3229113 ], [ -12.6842691, -37.3228596 ], [ -12.6845416, -37.3227379 ], [ -12.684867, -37.3226454 ], [ -12.6851492, -37.3226096 ], [ -12.685468, -37.3226158 ], [ -12.6855932, -37.3225896 ], [ -12.6857892, -37.3224142 ], [ -12.6859364, -37.3222906 ], [ -12.6860274, -37.3221145 ], [ -12.686583, -37.3216906 ], [ -12.6868591, -37.3214214 ], [ -12.6868646, -37.3211134 ], [ -12.6867003, -37.3208223 ], [ -12.6864934, -37.3206325 ], [ -12.6862441, -37.3204878 ], [ -12.6861247, -37.3202578 ], [ -12.6861939, -37.3200216 ], [ -12.6861499, -37.3197629 ], [ -12.6860619, -37.3195719 ], [ -12.6858292, -37.3194039 ], [ -12.685674, -37.3193167 ], [ -12.6854781, -37.3191713 ], [ -12.6854398, -37.3190419 ], [ -12.6855071, -37.3189512 ], [ -12.6857464, -37.3187277 ], [ -12.685929, -37.318476 ], [ -12.6861896, -37.3182128 ], [ -12.6865844, -37.3177943 ], [ -12.6866975, -37.3177591 ], [ -12.6867943, -37.3177821 ], [ -12.6868931, -37.3179653 ], [ -12.6870146, -37.3181234 ], [ -12.6870794, -37.3181863 ], [ -12.6871686, -37.3182362 ], [ -12.6872489, -37.3182097 ], [ -12.687298, -37.3181681 ], [ -12.6873202, -37.3181179 ], [ -12.6872596, -37.3179796 ], [ -12.6872114, -37.3177804 ], [ -12.6872335, -37.3176292 ], [ -12.6874323, -37.3173814 ], [ -12.6875937, -37.3172524 ], [ -12.6879243, -37.3171191 ], [ -12.6881989, -37.3170006 ], [ -12.6882884, -37.317019 ], [ -12.6885807, -37.3171581 ], [ -12.6887642, -37.3172648 ], [ -12.688999, -37.3174013 ], [ -12.6891376, -37.3174272 ], [ -12.6892761, -37.3174086 ], [ -12.6895065, -37.3173342 ], [ -12.6897478, -37.317297 ], [ -12.6898723, -37.3173192 ], [ -12.6899276, -37.3173953 ], [ -12.6899202, -37.3176525 ], [ -12.6899828, -37.3177166 ], [ -12.6901342, -37.3177593 ], [ -12.6903557, -37.317724 ], [ -12.6904343, -37.3176831 ], [ -12.6905495, -37.3175416 ], [ -12.6906274, -37.3173629 ], [ -12.6907272, -37.3170649 ], [ -12.6907966, -37.3168079 ], [ -12.6909033, -37.3166102 ], [ -12.6910352, -37.316537 ], [ -12.6911997, -37.316501 ], [ -12.6914327, -37.3164419 ], [ -12.6917629, -37.3164315 ], [ -12.6918467, -37.3164539 ], [ -12.6919304, -37.3165061 ], [ -12.6922052, -37.3167181 ], [ -12.6924669, -37.316838 ], [ -12.6927146, -37.3169765 ], [ -12.693065, -37.3170704 ], [ -12.6936489, -37.3171941 ], [ -12.6938041, -37.31778 ], [ -12.6938566, -37.3178386 ], [ -12.6939609, -37.3178579 ], [ -12.6943128, -37.3178105 ], [ -12.6945401, -37.3177378 ], [ -12.6947589, -37.3176328 ], [ -12.6948562, -37.3174609 ], [ -12.6949325, -37.3173875 ], [ -12.6950088, -37.3173586 ], [ -12.6956737, -37.3173507 ], [ -12.6958101, -37.3173704 ], [ -12.6959092, -37.3174347 ], [ -12.6960045, -37.3175855 ], [ -12.6961092, -37.3178329 ], [ -12.6962887, -37.3179837 ], [ -12.6964525, -37.3180484 ], [ -12.6966724, -37.3180835 ], [ -12.6970421, -37.318083 ], [ -12.697492, -37.3180856 ], [ -12.6978902, -37.3180217 ], [ -12.6982107, -37.3178987 ], [ -12.6984052, -37.3177683 ], [ -12.6984578, -37.3176606 ], [ -12.6984264, -37.3175307 ], [ -12.6982656, -37.3173637 ], [ -12.6981168, -37.3172662 ], [ -12.6979213, -37.3171762 ], [ -12.6976721, -37.3171382 ], [ -12.6974602, -37.3171224 ], [ -12.6971767, -37.317076 ], [ -12.6968528, -37.317064 ], [ -12.6966549, -37.3170111 ], [ -12.6965665, -37.3169481 ], [ -12.6964942, -37.3167754 ], [ -12.696506, -37.3166399 ], [ -12.6966557, -37.3164172 ], [ -12.69674, -37.3163579 ], [ -12.6970469, -37.3162098 ], [ -12.6973258, -37.3161583 ], [ -12.6978575, -37.3160649 ], [ -12.6983986, -37.3159788 ], [ -12.6987379, -37.3158831 ], [ -12.6989553, -37.3157421 ], [ -12.6990681, -37.3155633 ], [ -12.6991859, -37.3152713 ], [ -12.6993363, -37.3151216 ], [ -12.6994987, -37.3150034 ], [ -12.6994902, -37.3149317 ], [ -12.6993685, -37.3146867 ], [ -12.6991371, -37.3142833 ], [ -12.6991214, -37.3141878 ], [ -12.6992202, -37.3141325 ], [ -12.6993706, -37.3140928 ], [ -12.6994844, -37.3141372 ], [ -12.6995901, -37.3142777 ], [ -12.6997915, -37.3146243 ], [ -12.6999565, -37.3147392 ], [ -12.7000889, -37.314867 ], [ -12.7002155, -37.3150579 ], [ -12.7003548, -37.3151285 ], [ -12.7004859, -37.315115 ], [ -12.7006426, -37.3150493 ], [ -12.7009031, -37.3148931 ], [ -12.7010624, -37.3147494 ], [ -12.701119, -37.3145982 ], [ -12.7011201, -37.3144668 ], [ -12.7011122, -37.3143415 ], [ -12.7011633, -37.3143132 ], [ -12.7012201, -37.3143098 ], [ -12.7013317, -37.3144174 ], [ -12.7014909, -37.3146143 ], [ -12.7015444, -37.3146398 ], [ -12.7016941, -37.3146188 ], [ -12.7018438, -37.3145385 ], [ -12.7023704, -37.314168 ], [ -12.7029951, -37.3136675 ], [ -12.7031051, -37.3135356 ], [ -12.7033382, -37.3132734 ], [ -12.7035059, -37.3131375 ], [ -12.7037293, -37.3130142 ], [ -12.7039845, -37.3128494 ], [ -12.7040715, -37.312719 ], [ -12.7040565, -37.3126244 ], [ -12.7040168, -37.312515 ], [ -12.7038166, -37.3124728 ], [ -12.703621, -37.312464 ], [ -12.7033784, -37.3123346 ], [ -12.7031419, -37.3122199 ], [ -12.702996, -37.3120665 ], [ -12.7029302, -37.3118861 ], [ -12.7029692, -37.311713 ], [ -12.7031673, -37.3112773 ], [ -12.7032361, -37.3111405 ], [ -12.7032363, -37.3109916 ], [ -12.703163, -37.3108566 ], [ -12.7030702, -37.3106858 ] ] ] ] } },
{ "type": "Feature", "properties": { "FID": 61299, "id": 1214, "left": -15.0, "top": -35.0, "right": -10.0, "bottom": -40.0, "row_index": 25, "col_index": 33, "min_lon": -15.0, "min_lat": -40.0, "tile_id": "-15_-40" }, "geometry": { "type": "MultiPolygon", "coordinates": [ [ [ [ -12.4724114, -37.4193211 ], [ -12.4723484, -37.4193147 ], [ -12.4723081, -37.4193232 ], [ -12.4722813, -37.4193647 ], [ -12.47228, -37.4194137 ], [ -12.4722894, -37.4194404 ], [ -12.4723282, -37.4195064 ], [ -12.4723846, -37.4195884 ], [ -12.4724369, -37.4196566 ], [ -12.4725053, -37.4196992 ], [ -12.472575, -37.4197215 ], [ -12.4726488, -37.4197365 ], [ -12.4726823, -37.4197759 ], [ -12.4726796, -37.4198227 ], [ -12.4726421, -37.4198856 ], [ -12.4725401, -37.42004 ], [ -12.4724865, -37.4201252 ], [ -12.4725133, -37.4202104 ], [ -12.4726126, -37.4202829 ], [ -12.4728513, -37.4203446 ], [ -12.4730605, -37.4203851 ], [ -12.4733529, -37.4205534 ], [ -12.473444, -37.4206748 ], [ -12.4735835, -37.420973 ], [ -12.4736533, -37.4211861 ], [ -12.473672, -37.421382 ], [ -12.4736291, -37.421529 ], [ -12.4735218, -37.4216036 ], [ -12.4734306, -37.421627 ], [ -12.4732107, -37.4216291 ], [ -12.4729398, -37.4215311 ], [ -12.4726421, -37.421431 ], [ -12.4723953, -37.4213756 ], [ -12.4722371, -37.421414 ], [ -12.4719715, -37.4214651 ], [ -12.4717918, -37.4215098 ], [ -12.4717596, -37.4215567 ], [ -12.471765, -37.4216419 ], [ -12.4717945, -37.4216611 ], [ -12.4720064, -37.4217612 ], [ -12.472288, -37.4219103 ], [ -12.4724168, -37.4219103 ], [ -12.4725321, -37.4218826 ], [ -12.472634, -37.4218571 ], [ -12.4727064, -37.4218635 ], [ -12.4728406, -37.4219188 ], [ -12.4729747, -37.4219721 ], [ -12.4730605, -37.4220509 ], [ -12.4731302, -37.4221468 ], [ -12.4731088, -37.4222171 ], [ -12.4729961, -37.4222426 ], [ -12.4729022, -37.4222426 ], [ -12.4727735, -37.4222874 ], [ -12.4727306, -37.4223321 ], [ -12.4727386, -37.422462 ], [ -12.4727038, -37.4225345 ], [ -12.4726045, -37.4225408 ], [ -12.4725026, -37.4225259 ], [ -12.4721754, -37.4223534 ], [ -12.4719983, -37.4222618 ], [ -12.4718615, -37.4222021 ], [ -12.4716282, -37.4221808 ], [ -12.4715182, -37.4221766 ], [ -12.471415, -37.422183 ], [ -12.4713687, -37.4221915 ], [ -12.4713439, -37.4222043 ], [ -12.4713409, -37.4222184 ], [ -12.4713432, -37.4222357 ], [ -12.4713754, -37.4222495 ], [ -12.4714042, -37.4222671 ], [ -12.4714257, -37.4222895 ], [ -12.471427, -37.4223209 ], [ -12.4713908, -37.4223694 ], [ -12.4713479, -37.422412 ], [ -12.4712701, -37.4225025 ], [ -12.4712259, -37.4225813 ], [ -12.4711829, -37.422658 ], [ -12.4711977, -37.4227208 ], [ -12.4712352, -37.422772 ], [ -12.4713452, -37.4228263 ], [ -12.4716926, -37.4229221 ], [ -12.4724329, -37.423084 ], [ -12.4726313, -37.4231692 ], [ -12.4728245, -37.4233524 ], [ -12.4728245, -37.423591 ], [ -12.4727333, -37.424017 ], [ -12.4726045, -37.4242385 ], [ -12.4724168, -37.4244814 ], [ -12.4722183, -37.4246901 ], [ -12.4717999, -37.4249883 ], [ -12.4716336, -37.4251886 ], [ -12.4716228, -37.4254016 ], [ -12.4714994, -37.4255422 ], [ -12.4713332, -37.4255975 ], [ -12.4711347, -37.4255975 ], [ -12.4707323, -37.4254996 ], [ -12.4705312, -37.4254548 ], [ -12.470381, -37.4254655 ], [ -12.4702334, -37.4255081 ], [ -12.4701154, -37.4255869 ], [ -12.4700886, -37.425687 ], [ -12.4701074, -37.4258042 ], [ -12.4701583, -37.4259383 ], [ -12.4703917, -37.4260385 ], [ -12.4704561, -37.4261237 ], [ -12.4704078, -37.4262195 ], [ -12.4702173, -37.426309 ], [ -12.4700376, -37.4263388 ], [ -12.4698767, -37.4264112 ], [ -12.4698472, -37.4264815 ], [ -12.4698579, -37.4265348 ], [ -12.4699357, -37.426605 ], [ -12.4700993, -37.4266434 ], [ -12.4701852, -37.4267286 ], [ -12.4701959, -37.4268585 ], [ -12.4702039, -37.4269246 ], [ -12.4702925, -37.4269778 ], [ -12.4704105, -37.4269842 ], [ -12.4705687, -37.4269522 ], [ -12.4707055, -37.4268969 ], [ -12.4709147, -37.426882 ], [ -12.4711454, -37.4269118 ], [ -12.4712768, -37.4269693 ], [ -12.47136, -37.4270907 ], [ -12.4714163, -37.4271716 ], [ -12.4714968, -37.4272994 ], [ -12.4715987, -37.4273697 ], [ -12.4717677, -37.4274208 ], [ -12.471946, -37.427489 ], [ -12.4720614, -37.427538 ], [ -12.472233, -37.4275689 ], [ -12.4723658, -37.4275593 ], [ -12.4724194, -37.4275476 ], [ -12.4724986, -37.4275188 ], [ -12.4726756, -37.4274177 ], [ -12.4728325, -37.4273474 ], [ -12.472917, -37.4273112 ], [ -12.4729747, -37.4273325 ], [ -12.4730068, -37.4273793 ], [ -12.4730605, -37.4274826 ], [ -12.4731222, -37.4277467 ], [ -12.473149, -37.42803 ], [ -12.4732161, -37.4284603 ], [ -12.4733073, -37.4286499 ], [ -12.4733958, -37.4288096 ], [ -12.4735621, -37.4291238 ], [ -12.4736586, -37.4293708 ], [ -12.4737176, -37.4294773 ], [ -12.4737525, -37.4295498 ], [ -12.4737485, -37.4296073 ], [ -12.4736828, -37.4296914 ], [ -12.4736385, -37.4297521 ], [ -12.4735889, -37.4298277 ], [ -12.4735554, -37.4298895 ], [ -12.4735728, -37.4299544 ], [ -12.4736372, -37.4300354 ], [ -12.4737753, -37.4301248 ], [ -12.4738303, -37.4301664 ], [ -12.4738477, -37.4302058 ], [ -12.4738477, -37.4302462 ], [ -12.4738598, -37.4303155 ], [ -12.4738866, -37.4303442 ], [ -12.4739376, -37.4303527 ], [ -12.4739912, -37.4303506 ], [ -12.4740475, -37.4303357 ], [ -12.4742863, -37.4302942 ], [ -12.4744177, -37.4302771 ], [ -12.4746162, -37.4302771 ], [ -12.4747342, -37.4302899 ], [ -12.4749139, -37.4303581 ], [ -12.4750775, -37.4304433 ], [ -12.4752572, -37.4305796 ], [ -12.4754289, -37.430718 ], [ -12.4755818, -37.4309374 ], [ -12.4757803, -37.4310758 ], [ -12.4759144, -37.4311227 ], [ -12.4760941, -37.4311568 ], [ -12.4763221, -37.4311653 ], [ -12.4766144, -37.4310908 ], [ -12.4767351, -37.4310844 ], [ -12.4768451, -37.4311589 ], [ -12.4769416, -37.4312697 ], [ -12.4770758, -37.4313911 ], [ -12.4772917, -37.4315572 ], [ -12.4774781, -37.4316733 ], [ -12.4777624, -37.4317958 ], [ -12.4778536, -37.4318352 ], [ -12.4779676, -37.4318554 ], [ -12.4782103, -37.4318852 ], [ -12.4783391, -37.4319076 ], [ -12.4786355, -37.4319779 ], [ -12.478728, -37.4320087 ], [ -12.4788407, -37.4320226 ], [ -12.47896, -37.4320194 ], [ -12.4790297, -37.4320418 ], [ -12.479074, -37.4320822 ], [ -12.4791437, -37.4321301 ], [ -12.4793382, -37.4321951 ], [ -12.4794133, -37.4322153 ], [ -12.4796869, -37.4322601 ], [ -12.4798599, -37.4322707 ], [ -12.4799404, -37.4322707 ], [ -12.4800517, -37.4322537 ], [ -12.4801549, -37.4322026 ], [ -12.4802354, -37.4321546 ], [ -12.480395, -37.4320812 ], [ -12.4804795, -37.4320119 ], [ -12.4805345, -37.4319555 ], [ -12.4805747, -37.4319065 ], [ -12.4805841, -37.4318309 ], [ -12.4805398, -37.4317329 ], [ -12.4805385, -37.4316786 ], [ -12.4805586, -37.4316392 ], [ -12.4805854, -37.4315625 ], [ -12.4805787, -37.4314741 ], [ -12.4803588, -37.4312271 ], [ -12.4802676, -37.4311334 ], [ -12.4802542, -37.4310695 ], [ -12.4803373, -37.43098 ], [ -12.4804285, -37.4308969 ], [ -12.4804634, -37.4308117 ], [ -12.48045, -37.4307244 ], [ -12.4804178, -37.430603 ], [ -12.4803481, -37.4304539 ], [ -12.4803051, -37.43039 ], [ -12.4802542, -37.4303219 ], [ -12.4802434, -37.4302154 ], [ -12.4802381, -37.4300982 ], [ -12.48023, -37.4299108 ], [ -12.4802166, -37.4298085 ], [ -12.4802703, -37.429751 ], [ -12.4803776, -37.4297319 ], [ -12.4805009, -37.4297233 ], [ -12.4805787, -37.429702 ], [ -12.4805895, -37.4296445 ], [ -12.4805492, -37.4295317 ], [ -12.4805492, -37.4294081 ], [ -12.480576, -37.4292803 ], [ -12.4806404, -37.4292313 ], [ -12.4807236, -37.4292484 ], [ -12.4808228, -37.4293016 ], [ -12.4809328, -37.4293634 ], [ -12.4811822, -37.4296105 ], [ -12.4813485, -37.4296594 ], [ -12.4814451, -37.4296573 ], [ -12.4814987, -37.4295806 ], [ -12.4815255, -37.4294976 ], [ -12.4815336, -37.4293229 ], [ -12.4815175, -37.4291547 ], [ -12.4814612, -37.429046 ], [ -12.4813914, -37.4289502 ], [ -12.4813163, -37.4288628 ], [ -12.4812841, -37.4288032 ], [ -12.4813056, -37.4287436 ], [ -12.4813727, -37.4287137 ], [ -12.4816838, -37.4287436 ], [ -12.4817938, -37.4287691 ], [ -12.4819171, -37.428833 ], [ -12.4820539, -37.4289438 ], [ -12.4824536, -37.4292505 ], [ -12.4825797, -37.4293485 ], [ -12.4829096, -37.429521 ], [ -12.4830785, -37.4295423 ], [ -12.4834299, -37.4295338 ], [ -12.4836525, -37.4294954 ], [ -12.4838135, -37.4294614 ], [ -12.4839583, -37.4294614 ], [ -12.4841675, -37.4295082 ], [ -12.4843338, -37.4296275 ], [ -12.4845108, -37.4297532 ], [ -12.4846798, -37.4300088 ], [ -12.4849051, -37.4302218 ], [ -12.4852136, -37.4303687 ], [ -12.4854577, -37.4304241 ], [ -12.4858117, -37.4304667 ], [ -12.4859646, -37.430471 ], [ -12.4863294, -37.4304156 ], [ -12.4865654, -37.4303581 ], [ -12.4867344, -37.4303474 ], [ -12.4868766, -37.4303453 ], [ -12.4870294, -37.4304262 ], [ -12.4871582, -37.4305349 ], [ -12.4872547, -37.4306754 ], [ -12.4873406, -37.43075 ], [ -12.4875096, -37.4308543 ], [ -12.4878153, -37.4309353 ], [ -12.4880165, -37.4309992 ], [ -12.4881801, -37.4310545 ], [ -12.4884, -37.4311547 ], [ -12.4886629, -37.4312931 ], [ -12.4887434, -37.4313889 ], [ -12.4889177, -37.4314869 ], [ -12.4892288, -37.4315892 ], [ -12.4895293, -37.4317532 ], [ -12.4897385, -37.4320364 ], [ -12.4898914, -37.4321685 ], [ -12.4899718, -37.4322089 ], [ -12.4900818, -37.4322388 ], [ -12.4902883, -37.432275 ], [ -12.4906075, -37.432324 ], [ -12.4908274, -37.432243 ], [ -12.4910823, -37.4320982 ], [ -12.4912861, -37.4319704 ], [ -12.4915409, -37.4317915 ], [ -12.4917287, -37.4316552 ], [ -12.4920103, -37.4313634 ], [ -12.4922302, -37.4311078 ], [ -12.4924663, -37.4308203 ], [ -12.4925923, -37.4305519 ], [ -12.4926809, -37.4302218 ], [ -12.4929249, -37.4294869 ], [ -12.4931395, -37.4287926 ], [ -12.4931985, -37.4284731 ], [ -12.4932146, -37.4281876 ], [ -12.4932039, -37.4277659 ], [ -12.4931502, -37.4274634 ], [ -12.4930215, -37.426867 ], [ -12.4928337, -37.4265944 ], [ -12.4926889, -37.4263857 ], [ -12.4926674, -37.4261428 ], [ -12.4927425, -37.4259128 ], [ -12.4928606, -37.4256274 ], [ -12.4929732, -37.4253718 ], [ -12.4931771, -37.4250182 ], [ -12.4934989, -37.4244643 ], [ -12.4936545, -37.4242684 ], [ -12.4939388, -37.4240021 ], [ -12.4941024, -37.4239084 ], [ -12.4944752, -37.4237699 ], [ -12.494604, -37.4236719 ], [ -12.4946764, -37.4235633 ], [ -12.4947166, -37.423427 ], [ -12.4946603, -37.4232885 ], [ -12.4945718, -37.4232097 ], [ -12.4944243, -37.423182 ], [ -12.4942419, -37.4231394 ], [ -12.4940997, -37.4230712 ], [ -12.4940434, -37.422969 ], [ -12.4940729, -37.422724 ], [ -12.4941534, -37.4225345 ], [ -12.4942043, -37.4223917 ], [ -12.4943009, -37.4222298 ], [ -12.494427, -37.422053 ], [ -12.4944377, -37.4219061 ], [ -12.4944243, -37.4217974 ], [ -12.4943599, -37.4216888 ], [ -12.494089, -37.4215184 ], [ -12.4937081, -37.4213522 ], [ -12.4935231, -37.421299 ], [ -12.4935016, -37.4211541 ], [ -12.4935767, -37.4209528 ], [ -12.4936679, -37.4208154 ], [ -12.4937645, -37.4207153 ], [ -12.4938409, -37.4205939 ], [ -12.493861, -37.4205225 ], [ -12.4938181, -37.4204405 ], [ -12.4938302, -37.4204011 ], [ -12.4938717, -37.4203904 ], [ -12.4939469, -37.4203798 ], [ -12.4939777, -37.4203489 ], [ -12.4939924, -37.4202892 ], [ -12.4939455, -37.4202456 ], [ -12.4938677, -37.4202232 ], [ -12.4937148, -37.4202126 ], [ -12.4936156, -37.4201998 ], [ -12.4935351, -37.420187 ], [ -12.4934198, -37.4201742 ], [ -12.4933273, -37.4201976 ], [ -12.4932455, -37.4202328 ], [ -12.4930295, -37.4203425 ], [ -12.4929719, -37.4203734 ], [ -12.4929102, -37.4203808 ], [ -12.4927533, -37.4203574 ], [ -12.4926621, -37.4202211 ], [ -12.4926326, -37.4200954 ], [ -12.492764, -37.4199271 ], [ -12.4928901, -37.4198483 ], [ -12.4929974, -37.4198078 ], [ -12.4930993, -37.4197503 ], [ -12.493228, -37.4196864 ], [ -12.4932978, -37.4195586 ], [ -12.4932978, -37.419467 ], [ -12.4932843, -37.4193477 ], [ -12.4931958, -37.4192582 ], [ -12.4930617, -37.4191943 ], [ -12.4928445, -37.4191219 ], [ -12.4926889, -37.4190963 ], [ -12.4923536, -37.4190175 ], [ -12.492139, -37.418977 ], [ -12.4919835, -37.4189216 ], [ -12.4918976, -37.4189174 ], [ -12.4917823, -37.4189302 ], [ -12.4916562, -37.4190026 ], [ -12.4915677, -37.4191389 ], [ -12.4915355, -37.4193115 ], [ -12.4915248, -37.419435 ], [ -12.4915436, -37.4195075 ], [ -12.4915838, -37.4195841 ], [ -12.4916133, -37.4196715 ], [ -12.4915972, -37.4197695 ], [ -12.4915624, -37.4198526 ], [ -12.4914444, -37.4199101 ], [ -12.4912083, -37.4199825 ], [ -12.4910876, -37.4200251 ], [ -12.4909884, -37.4200954 ], [ -12.4908757, -37.4201316 ], [ -12.4907255, -37.4201337 ], [ -12.4906316, -37.420106 ], [ -12.4905244, -37.4200272 ], [ -12.4903983, -37.4199122 ], [ -12.4901864, -37.4196438 ], [ -12.4899048, -37.4194073 ], [ -12.4897331, -37.4193264 ], [ -12.4895105, -37.4193008 ], [ -12.4889231, -37.4192476 ], [ -12.4885502, -37.4192454 ], [ -12.4883088, -37.4192753 ], [ -12.4882042, -37.4192774 ], [ -12.4880916, -37.4192241 ], [ -12.4879387, -37.4189664 ], [ -12.4878341, -37.4188599 ], [ -12.4877161, -37.4187683 ], [ -12.4875203, -37.4186447 ], [ -12.4874264, -37.4186128 ], [ -12.4873003, -37.418649 ], [ -12.4872172, -37.4187171 ], [ -12.4871716, -37.4188066 ], [ -12.4870563, -37.4189003 ], [ -12.4868739, -37.4189834 ], [ -12.4867773, -37.4190601 ], [ -12.4866834, -37.4191432 ], [ -12.4866298, -37.4192838 ], [ -12.486552, -37.4194308 ], [ -12.4864635, -37.4194883 ], [ -12.4863428, -37.4195096 ], [ -12.4859995, -37.4195096 ], [ -12.4858412, -37.4194989 ], [ -12.485522, -37.419369 ], [ -12.4853745, -37.4192944 ], [ -12.4852055, -37.4192561 ], [ -12.484889, -37.4192433 ], [ -12.4845216, -37.4192582 ], [ -12.4843982, -37.4192689 ], [ -12.4841756, -37.4193136 ], [ -12.4840629, -37.4193903 ], [ -12.4839476, -37.4194734 ], [ -12.4838242, -37.4194883 ], [ -12.4836874, -37.4194521 ], [ -12.483497, -37.4193605 ], [ -12.4833924, -37.4192561 ], [ -12.4833548, -37.4191411 ], [ -12.4833441, -37.4190005 ], [ -12.4833199, -37.4188386 ], [ -12.4832475, -37.4186916 ], [ -12.483049, -37.4184594 ], [ -12.4828801, -37.4182996 ], [ -12.4827889, -37.4182527 ], [ -12.482644, -37.418191 ], [ -12.4825153, -37.418176 ], [ -12.4823785, -37.418142 ], [ -12.4822256, -37.4180568 ], [ -12.4820593, -37.4178565 ], [ -12.4819306, -37.4177287 ], [ -12.4817589, -37.4176073 ], [ -12.4816677, -37.4174581 ], [ -12.4816436, -37.4173303 ], [ -12.4816918, -37.4172174 ], [ -12.481724, -37.4171109 ], [ -12.4816945, -37.4170427 ], [ -12.4815953, -37.416998 ], [ -12.481437, -37.4170172 ], [ -12.4812278, -37.4170193 ], [ -12.4811018, -37.4170257 ], [ -12.4809918, -37.417047 ], [ -12.4808121, -37.4170108 ], [ -12.4806163, -37.4168872 ], [ -12.4803534, -37.4167466 ], [ -12.4798492, -37.4165869 ], [ -12.4796426, -37.4164974 ], [ -12.4794361, -37.4164207 ], [ -12.4791732, -37.4163376 ], [ -12.4789211, -37.416278 ], [ -12.4786904, -37.4161629 ], [ -12.4786513, -37.4161231 ], [ -12.4784035, -37.4158711 ], [ -12.4783391, -37.4157347 ], [ -12.4781567, -37.415609 ], [ -12.4781084, -37.4155068 ], [ -12.4781084, -37.4154556 ], [ -12.4781178, -37.4154066 ], [ -12.4781527, -37.4153385 ], [ -12.4782479, -37.4152746 ], [ -12.4783283, -37.4152213 ], [ -12.4783498, -37.4151574 ], [ -12.4783283, -37.4150871 ], [ -12.4782103, -37.4150381 ], [ -12.4780628, -37.4150243 ], [ -12.4779797, -37.4150338 ], [ -12.4778523, -37.4150509 ], [ -12.4776551, -37.415085 ], [ -12.4775653, -37.4150892 ], [ -12.4774942, -37.4150988 ], [ -12.4774258, -37.4151148 ], [ -12.4773728, -37.4151388 ], [ -12.4773453, -37.4151638 ], [ -12.4773292, -37.4151979 ], [ -12.4773292, -37.4152533 ], [ -12.477352, -37.4153353 ], [ -12.4773923, -37.4154184 ], [ -12.4774969, -37.4156037 ], [ -12.4775451, -37.4156921 ], [ -12.4775425, -37.4157411 ], [ -12.4775183, -37.4157656 ], [ -12.477462, -37.4157741 ], [ -12.4773815, -37.4157358 ], [ -12.4773198, -37.4156687 ], [ -12.4772367, -37.415625 ], [ -12.4771509, -37.4156026 ], [ -12.4770033, -37.4155739 ], [ -12.476837, -37.415511 ], [ -12.4767257, -37.4154812 ], [ -12.4766171, -37.4154663 ], [ -12.4764763, -37.4155057 ], [ -12.4763864, -37.4155504 ], [ -12.476318, -37.4155792 ], [ -12.4761987, -37.415625 ], [ -12.4760914, -37.4157134 ], [ -12.4760257, -37.4157763 ], [ -12.4759975, -37.4158114 ], [ -12.4759452, -37.4158657 ], [ -12.4758849, -37.4158902 ], [ -12.4758205, -37.4158817 ], [ -12.4757427, -37.4158519 ], [ -12.4755938, -37.4158199 ], [ -12.4754825, -37.4158199 ], [ -12.4754034, -37.4158242 ], [ -12.4753377, -37.4158551 ], [ -12.475272, -37.4159254 ], [ -12.4751768, -37.4160351 ], [ -12.475162, -37.4161107 ], [ -12.4751593, -37.4161906 ], [ -12.4751821, -37.4162471 ], [ -12.4752344, -37.4162982 ], [ -12.47528, -37.4163493 ], [ -12.475272, -37.4164122 ], [ -12.4752344, -37.4164569 ], [ -12.4751942, -37.4164995 ], [ -12.4751486, -37.4165421 ], [ -12.4751405, -37.4165794 ], [ -12.4751312, -37.4166209 ], [ -12.4750829, -37.4166412 ], [ -12.4750131, -37.4166444 ], [ -12.4749367, -37.4166529 ], [ -12.4749032, -37.416671 ], [ -12.4749045, -37.4166966 ], [ -12.4749421, -37.4167892 ], [ -12.4749836, -37.416835 ], [ -12.4749957, -37.4168766 ], [ -12.474981, -37.4169117 ], [ -12.4748482, -37.4169607 ], [ -12.4747717, -37.4170268 ], [ -12.4746054, -37.4171514 ], [ -12.4745223, -37.4171588 ], [ -12.4744593, -37.4171407 ], [ -12.4744244, -37.4171077 ], [ -12.4744619, -37.4169767 ], [ -12.4744391, -37.4169202 ], [ -12.4743614, -37.4168744 ], [ -12.4742809, -37.4168382 ], [ -12.4742273, -37.4168286 ], [ -12.4741803, -37.4168297 ], [ -12.474061, -37.4168904 ], [ -12.4739952, -37.4169597 ], [ -12.4739483, -37.4170182 ], [ -12.473892, -37.4171812 ], [ -12.4738517, -37.4173069 ], [ -12.4738303, -37.4173772 ], [ -12.4738222, -37.4175774 ], [ -12.4738169, -37.4177606 ], [ -12.473833, -37.4179076 ], [ -12.4738303, -37.4180269 ], [ -12.4737686, -37.4181185 ], [ -12.4737123, -37.4181462 ], [ -12.4736372, -37.4182187 ], [ -12.4735487, -37.4183188 ], [ -12.4735191, -37.4184125 ], [ -12.4734306, -37.4185041 ], [ -12.4733689, -37.4185765 ], [ -12.4733354, -37.4186159 ], [ -12.473322, -37.4186575 ], [ -12.4733207, -37.4186873 ], [ -12.4733435, -37.4187544 ], [ -12.4733461, -37.4187864 ], [ -12.4733247, -37.4188077 ], [ -12.4732509, -37.4188173 ], [ -12.473204, -37.4188194 ], [ -12.4731611, -37.41883 ], [ -12.473153, -37.4188609 ], [ -12.4731638, -37.4189312 ], [ -12.4731624, -37.4189792 ], [ -12.4731544, -37.4190132 ], [ -12.4731195, -37.4190452 ], [ -12.4730618, -37.4190495 ], [ -12.4729733, -37.4190452 ], [ -12.472925, -37.4190622 ], [ -12.4728915, -37.4191123 ], [ -12.4728473, -37.4192444 ], [ -12.4728204, -37.4193264 ], [ -12.4727386, -37.4194222 ], [ -12.4726917, -37.4194425 ], [ -12.4726434, -37.4194435 ], [ -12.472516, -37.4194169 ], [ -12.4724489, -37.4193466 ], [ -12.4724114, -37.4193211 ] ] ] ] } },
{ "type": "Feature", "properties": { "FID": 61300, "id": 1214, "left": -15.0, "top": -35.0, "right": -10.0, "bottom": -40.0, "row_index": 25, "col_index": 33, "min_lon": -15.0, "min_lat": -40.0, "tile_id": "-15_-40" }, "geometry": { "type": "MultiPolygon", "coordinates": [ [ [ [ -12.4821009, -37.4114692 ], [ -12.4820956, -37.4112442 ], [ -12.482311, -37.4110455 ], [ -12.4826563, -37.4107666 ], [ -12.4827464, -37.4105054 ], [ -12.4827735, -37.4103217 ], [ -12.4826783, -37.410254 ], [ -12.4825369, -37.4104162 ], [ -12.4824768, -37.4104249 ], [ -12.4824522, -37.4102929 ], [ -12.4823594, -37.4102226 ], [ -12.4823345, -37.4100426 ], [ -12.4822237, -37.4099478 ], [ -12.4819387, -37.4098981 ], [ -12.4818419, -37.409915 ], [ -12.4818203, -37.4100172 ], [ -12.4818631, -37.410162 ], [ -12.4817584, -37.4104164 ], [ -12.4816351, -37.4103778 ], [ -12.4814707, -37.4101989 ], [ -12.4815491, -37.4099756 ], [ -12.4815267, -37.4096906 ], [ -12.4812312, -37.409604 ], [ -12.4811494, -37.4094043 ], [ -12.4809368, -37.4092492 ], [ -12.4803808, -37.4092504 ], [ -12.4801942, -37.4090629 ], [ -12.4799141, -37.4089644 ], [ -12.4796809, -37.4090865 ], [ -12.4796065, -37.4093533 ], [ -12.4795041, -37.4095607 ], [ -12.4793843, -37.4098182 ], [ -12.4792544, -37.4098988 ], [ -12.4790213, -37.4097981 ], [ -12.4789937, -37.4096529 ], [ -12.4788645, -37.4095543 ], [ -12.4785945, -37.4095792 ], [ -12.4784552, -37.4094705 ], [ -12.4783517, -37.4094999 ], [ -12.4782483, -37.4096554 ], [ -12.4780001, -37.4096885 ], [ -12.4778433, -37.4096011 ], [ -12.4776715, -37.4096391 ], [ -12.477509, -37.4096251 ], [ -12.4774601, -37.4097467 ], [ -12.4774544, -37.409917 ], [ -12.477514, -37.410013 ], [ -12.4773462, -37.4102934 ], [ -12.477403, -37.4106761 ], [ -12.4775444, -37.4107218 ], [ -12.4775471, -37.4108133 ], [ -12.4773738, -37.4108738 ], [ -12.4771072, -37.4108823 ], [ -12.4768634, -37.4109957 ], [ -12.4766995, -37.4109857 ], [ -12.4765543, -37.4109385 ], [ -12.4761335, -37.4109656 ], [ -12.4759182, -37.4109184 ], [ -12.4757275, -37.4111026 ], [ -12.4758198, -37.4113409 ], [ -12.4761349, -37.4115556 ], [ -12.4761004, -37.4116852 ], [ -12.4763097, -37.4118568 ], [ -12.4762358, -37.4120284 ], [ -12.4761102, -37.4121301 ], [ -12.4761929, -37.4122075 ], [ -12.4764771, -37.4123425 ], [ -12.4769481, -37.4124925 ], [ -12.477265, -37.4125052 ], [ -12.4775632, -37.4124437 ], [ -12.4778848, -37.4125491 ], [ -12.4779915, -37.4127658 ], [ -12.4783018, -37.4128138 ], [ -12.4785093, -37.4129434 ], [ -12.4788029, -37.413032 ], [ -12.4795786, -37.4129326 ], [ -12.4798733, -37.4127219 ], [ -12.4801444, -37.4126868 ], [ -12.4802147, -37.412585 ], [ -12.4801218, -37.4123887 ], [ -12.4800293, -37.4120407 ], [ -12.4801246, -37.4119976 ], [ -12.4804179, -37.4120375 ], [ -12.4807686, -37.4119608 ], [ -12.4808634, -37.4118616 ], [ -12.4810923, -37.4117879 ], [ -12.4811764, -37.4118697 ], [ -12.4812024, -37.4120384 ], [ -12.4811778, -37.4121654 ], [ -12.4812352, -37.4122417 ], [ -12.4813839, -37.4122924 ], [ -12.4815762, -37.412211 ], [ -12.4816375, -37.4120968 ], [ -12.481633, -37.4120533 ], [ -12.4816059, -37.4119771 ], [ -12.4815266, -37.4118643 ], [ -12.4814204, -37.4118325 ], [ -12.481412, -37.4116708 ], [ -12.4814272, -37.4116286 ], [ -12.4815687, -37.411577 ], [ -12.481723, -37.4115112 ], [ -12.4818345, -37.4115348 ], [ -12.4819052, -37.4116323 ], [ -12.4819759, -37.4116637 ], [ -12.4820988, -37.4115732 ], [ -12.4821009, -37.4114692 ] ] ] ] } },
{ "type": "Feature", "properties": { "FID": 61301, "id": 1214, "left": -15.0, "top": -35.0, "right": -10.0, "bottom": -40.0, "row_index": 25, "col_index": 33, "min_lon": -15.0, "min_lat": -40.0, "tile_id": "-15_-40" }, "geometry": { "type": "MultiPolygon", "coordinates": [ [ [ [ -12.4926679, -37.4016049 ], [ -12.4927675, -37.4015629 ], [ -12.4928042, -37.4015202 ], [ -12.4928523, -37.4015594 ], [ -12.4929054, -37.4015197 ], [ -12.4928551, -37.4014417 ], [ -12.4927994, -37.4013642 ], [ -12.4927896, -37.4012977 ], [ -12.4927597, -37.401255 ], [ -12.4927308, -37.4012257 ], [ -12.4927938, -37.4012401 ], [ -12.492859, -37.4012253 ], [ -12.4928888, -37.4011438 ], [ -12.4928377, -37.4010768 ], [ -12.4928057, -37.401038 ], [ -12.4927738, -37.4009919 ], [ -12.4926639, -37.4009215 ], [ -12.4923846, -37.4007422 ], [ -12.4922328, -37.4007019 ], [ -12.4921631, -37.4007135 ], [ -12.4920249, -37.4006981 ], [ -12.4919277, -37.4006457 ], [ -12.4918332, -37.4006377 ], [ -12.4918043, -37.4006301 ], [ -12.4917754, -37.4005641 ], [ -12.4917057, -37.4005002 ], [ -12.4916705, -37.4004564 ], [ -12.4915719, -37.4004078 ], [ -12.4914275, -37.4004397 ], [ -12.4914005, -37.4004715 ], [ -12.4912909, -37.4004557 ], [ -12.4912415, -37.4005447 ], [ -12.4908114, -37.4006828 ], [ -12.4908079, -37.4007303 ], [ -12.4906712, -37.400745 ], [ -12.4906976, -37.4007962 ], [ -12.4905311, -37.4009094 ], [ -12.4904389, -37.4009176 ], [ -12.4902671, -37.4010631 ], [ -12.4901745, -37.4010867 ], [ -12.4901162, -37.401145 ], [ -12.4899326, -37.4012582 ], [ -12.4897975, -37.4013298 ], [ -12.4897555, -37.4013992 ], [ -12.4896656, -37.4014594 ], [ -12.489594, -37.4014685 ], [ -12.4895125, -37.4015367 ], [ -12.4894731, -37.4016602 ], [ -12.4894378, -37.4017521 ], [ -12.4892154, -37.4018053 ], [ -12.4889709, -37.4018632 ], [ -12.4888363, -37.4018945 ], [ -12.4886997, -37.4019046 ], [ -12.488586, -37.4019965 ], [ -12.4884829, -37.4020891 ], [ -12.4883661, -37.4021415 ], [ -12.4882079, -37.4021739 ], [ -12.4880452, -37.4021735 ], [ -12.4877502, -37.4022293 ], [ -12.4873759, -37.4024199 ], [ -12.4872566, -37.402486 ], [ -12.4871786, -37.4025411 ], [ -12.4870851, -37.4025723 ], [ -12.4869986, -37.4025419 ], [ -12.4869353, -37.4024511 ], [ -12.4869243, -37.4023619 ], [ -12.4868536, -37.4023238 ], [ -12.4867473, -37.4023851 ], [ -12.4866717, -37.4024933 ], [ -12.4866155, -37.4026413 ], [ -12.4865823, -37.4028241 ], [ -12.486574, -37.403043 ], [ -12.4865105, -37.4029081 ], [ -12.4864638, -37.4029131 ], [ -12.4864058, -37.4028344 ], [ -12.4863358, -37.4028534 ], [ -12.4862921, -37.4028976 ], [ -12.4863448, -37.4030659 ], [ -12.4862668, -37.4032059 ], [ -12.4862025, -37.4032777 ], [ -12.4861428, -37.4031763 ], [ -12.4860274, -37.4030587 ], [ -12.4858927, -37.4029479 ], [ -12.4858116, -37.4029472 ], [ -12.485703, -37.402837 ], [ -12.4856053, -37.4027918 ], [ -12.4855386, -37.4029008 ], [ -12.4854259, -37.4028602 ], [ -12.4853186, -37.4029351 ], [ -12.4852274, -37.4030245 ], [ -12.4850161, -37.403103 ], [ -12.4849616, -37.4031644 ], [ -12.4848199, -37.4031875 ], [ -12.4846374, -37.4033688 ], [ -12.4845756, -37.4034291 ], [ -12.484537, -37.4034462 ], [ -12.4845129, -37.4033921 ], [ -12.4844503, -37.4034012 ], [ -12.4843373, -37.4034631 ], [ -12.4844542, -37.4035859 ], [ -12.4845504, -37.4036054 ], [ -12.4846043, -37.4036375 ], [ -12.4846941, -37.4036838 ], [ -12.4846781, -37.4037258 ], [ -12.484863, -37.4038142 ], [ -12.4849477, -37.4038612 ], [ -12.4849636, -37.4039062 ], [ -12.4850311, -37.4039134 ], [ -12.4851356, -37.4038912 ], [ -12.4851542, -37.4038658 ], [ -12.4851795, -37.4039014 ], [ -12.4852372, -37.4039212 ], [ -12.485229, -37.4039984 ], [ -12.4852591, -37.4039932 ], [ -12.4852751, -37.4039614 ], [ -12.4853775, -37.4039397 ], [ -12.4854641, -37.4039768 ], [ -12.4855814, -37.4040074 ], [ -12.4856775, -37.403975 ], [ -12.4857472, -37.403915 ], [ -12.4858595, -37.4039867 ], [ -12.4859876, -37.403924 ], [ -12.4860966, -37.4038375 ], [ -12.4861682, -37.4037523 ], [ -12.486179, -37.4036531 ], [ -12.4862099, -37.4036759 ], [ -12.4862408, -37.4037702 ], [ -12.4863716, -37.4037711 ], [ -12.4864449, -37.4036959 ], [ -12.4863784, -37.4036415 ], [ -12.4863028, -37.4036038 ], [ -12.4862862, -37.4035093 ], [ -12.4862514, -37.4033885 ], [ -12.4863452, -37.4034836 ], [ -12.4864357, -37.4035133 ], [ -12.4865659, -37.4035136 ], [ -12.4867166, -37.4035394 ], [ -12.4867695, -37.4036576 ], [ -12.4867922, -37.4037088 ], [ -12.486754, -37.4038524 ], [ -12.4868753, -37.4038955 ], [ -12.4869119, -37.4039848 ], [ -12.4870646, -37.4040038 ], [ -12.4871523, -37.4040428 ], [ -12.487166, -37.4040777 ], [ -12.4872217, -37.4040919 ], [ -12.4873251, -37.4041692 ], [ -12.4874737, -37.4042566 ], [ -12.4878179, -37.4043411 ], [ -12.4880697, -37.4043522 ], [ -12.4881263, -37.4042908 ], [ -12.4882491, -37.4042589 ], [ -12.4890535, -37.4043786 ], [ -12.4891605, -37.404348 ], [ -12.4891555, -37.4042729 ], [ -12.4891328, -37.4041671 ], [ -12.4890302, -37.4040247 ], [ -12.4889072, -37.4038817 ], [ -12.4889684, -37.4038276 ], [ -12.4890455, -37.4037399 ], [ -12.4891672, -37.4036842 ], [ -12.4891876, -37.4035701 ], [ -12.4892887, -37.4034514 ], [ -12.4894241, -37.4034104 ], [ -12.4894378, -37.4032917 ], [ -12.489568, -37.4032277 ], [ -12.4896827, -37.403244 ], [ -12.489704, -37.4030849 ], [ -12.4897732, -37.4030494 ], [ -12.4897744, -37.4029342 ], [ -12.4898124, -37.4029983 ], [ -12.4898188, -37.4030874 ], [ -12.4898781, -37.4031259 ], [ -12.4900059, -37.403055 ], [ -12.4900597, -37.4029714 ], [ -12.4902174, -37.4029653 ], [ -12.4902786, -37.4029892 ], [ -12.4903397, -37.4030384 ], [ -12.4903982, -37.403014 ], [ -12.4903429, -37.4029391 ], [ -12.4904893, -37.4028721 ], [ -12.490588, -37.4028976 ], [ -12.4906283, -37.4028899 ], [ -12.4906616, -37.4028525 ], [ -12.4907564, -37.4028494 ], [ -12.4908322, -37.4027898 ], [ -12.4908947, -37.4028011 ], [ -12.4909732, -37.4028293 ], [ -12.4909925, -37.402852 ], [ -12.4910647, -37.4028967 ], [ -12.4911857, -37.4029417 ], [ -12.4913622, -37.4029048 ], [ -12.4915424, -37.4027715 ], [ -12.4917309, -37.4026608 ], [ -12.4918727, -37.4025478 ], [ -12.4919844, -37.4024719 ], [ -12.492, -37.4023984 ], [ -12.4919925, -37.4023053 ], [ -12.4918846, -37.402204 ], [ -12.4917732, -37.4021619 ], [ -12.4916806, -37.4021695 ], [ -12.4915404, -37.4022297 ], [ -12.4915106, -37.4021848 ], [ -12.4915195, -37.4021308 ], [ -12.4914604, -37.4020676 ], [ -12.4915319, -37.4020744 ], [ -12.4917348, -37.4020726 ], [ -12.4918246, -37.4020275 ], [ -12.4919507, -37.4020002 ], [ -12.4920688, -37.4018889 ], [ -12.4921216, -37.4018925 ], [ -12.4922246, -37.4019024 ], [ -12.4923612, -37.4018416 ], [ -12.4924161, -37.4017925 ], [ -12.4924921, -37.4017561 ], [ -12.4925011, -37.4017024 ], [ -12.4924232, -37.4016798 ], [ -12.4924623, -37.4016344 ], [ -12.4925086, -37.4016439 ], [ -12.4925977, -37.4016289 ], [ -12.4926679, -37.4016049 ] ] ] ] } },
{ "type": "Feature", "properties": { "FID": 120038, "id": 1214, "left": -15.0, "top": -35.0, "right": -10.0, "bottom": -40.0, "row_index": 25, "col_index": 33, "min_lon": -15.0, "min_lat": -40.0, "tile_id": "-15_-40" }, "geometry": { "type": "MultiPolygon", "coordinates": [ [ [ [ -12.6961363, -37.3179972 ], [ -12.6960396, -37.318007 ], [ -12.6959295, -37.3180203 ], [ -12.6958404, -37.3180575 ], [ -12.6957675, -37.3181189 ], [ -12.6957605, -37.3181558 ], [ -12.6957941, -37.3182799 ], [ -12.6958339, -37.318329 ], [ -12.6958493, -37.3184008 ], [ -12.6958434, -37.3184686 ], [ -12.6958244, -37.3185365 ], [ -12.6958401, -37.3185785 ], [ -12.695874, -37.3185943 ], [ -12.6959227, -37.3185794 ], [ -12.6959876, -37.3185326 ], [ -12.6960363, -37.3185327 ], [ -12.6960697, -37.3185728 ], [ -12.6960548, -37.3186385 ], [ -12.6960787, -37.3187316 ], [ -12.6961207, -37.3187647 ], [ -12.6962003, -37.3187765 ], [ -12.6962493, -37.3187332 ], [ -12.6962618, -37.3186955 ], [ -12.6962367, -37.3186323 ], [ -12.696165, -37.3185442 ], [ -12.6961668, -37.3185012 ], [ -12.6961929, -37.3184712 ], [ -12.6962789, -37.3184253 ], [ -12.6963355, -37.3184021 ], [ -12.6963555, -37.3183725 ], [ -12.696352, -37.3183399 ], [ -12.696316, -37.3182556 ], [ -12.6962373, -37.3180888 ], [ -12.696168, -37.3180036 ], [ -12.6961363, -37.3179972 ] ] ] ] } },
{ "type": "Feature", "properties": { "FID": 120039, "id": 1214, "left": -15.0, "top": -35.0, "right": -10.0, "bottom": -40.0, "row_index": 25, "col_index": 33, "min_lon": -15.0, "min_lat": -40.0, "tile_id": "-15_-40" }, "geometry": { "type": "MultiPolygon", "coordinates": [ [ [ [ -12.6941051, -37.3182195 ], [ -12.6941595, -37.3182136 ], [ -12.6942049, -37.3182078 ], [ -12.6942533, -37.3181876 ], [ -12.6942913, -37.3181613 ], [ -12.6943285, -37.3181355 ], [ -12.6943456, -37.3180982 ], [ -12.6943215, -37.318056 ], [ -12.6943029, -37.3180084 ], [ -12.6942612, -37.3179785 ], [ -12.6942094, -37.3179614 ], [ -12.6941476, -37.3179691 ], [ -12.6940925, -37.3179779 ], [ -12.694023, -37.3180146 ], [ -12.6939948, -37.3180659 ], [ -12.6939938, -37.318102 ], [ -12.6940146, -37.3181205 ], [ -12.6940502, -37.3181487 ], [ -12.694073, -37.318185 ], [ -12.6941051, -37.3182195 ] ] ] ] } },
{ "type": "Feature", "properties": { "FID": 121337, "id": 1214, "left": -15.0, "top": -35.0, "right": -10.0, "bottom": -40.0, "row_index": 25, "col_index": 33, "min_lon": -15.0, "min_lat": -40.0, "tile_id": "-15_-40" }, "geometry": { "type": "MultiPolygon", "coordinates": [ [ [ [ -12.4774151, -37.4328649 ], [ -12.4772823, -37.4329214 ], [ -12.477226, -37.4329491 ], [ -12.4772099, -37.4330087 ], [ -12.477234, -37.4330609 ], [ -12.4772823, -37.4331109 ], [ -12.4773185, -37.4331663 ], [ -12.4773413, -37.4332249 ], [ -12.477352, -37.4333005 ], [ -12.4774244, -37.4334911 ], [ -12.4774781, -37.4336764 ], [ -12.4775344, -37.4338362 ], [ -12.4775371, -37.4338649 ], [ -12.4776323, -37.4339938 ], [ -12.4777141, -37.4340619 ], [ -12.4778214, -37.4341141 ], [ -12.4779314, -37.4341386 ], [ -12.4780548, -37.434145 ], [ -12.478146, -37.4341663 ], [ -12.4782345, -37.434211 ], [ -12.4782895, -37.4342248 ], [ -12.4784504, -37.4342312 ], [ -12.4785282, -37.4342131 ], [ -12.4785657, -37.4341865 ], [ -12.4785671, -37.434112 ], [ -12.4785349, -37.4340587 ], [ -12.478555, -37.4340119 ], [ -12.4785939, -37.4339799 ], [ -12.4786261, -37.4339394 ], [ -12.4786355, -37.4338937 ], [ -12.4786113, -37.4338617 ], [ -12.478563, -37.4338489 ], [ -12.4784839, -37.4338372 ], [ -12.4783646, -37.4338298 ], [ -12.4782224, -37.4337861 ], [ -12.4781111, -37.4337233 ], [ -12.4779783, -37.4336753 ], [ -12.4778616, -37.4336274 ], [ -12.4777959, -37.4335955 ], [ -12.4777879, -37.4335444 ], [ -12.4778107, -37.4335103 ], [ -12.4778777, -37.4335177 ], [ -12.4779984, -37.4335689 ], [ -12.4781661, -37.433653 ], [ -12.4782197, -37.4336636 ], [ -12.4782613, -37.4336519 ], [ -12.4782707, -37.4336264 ], [ -12.4782707, -37.4335891 ], [ -12.4782774, -37.4335337 ], [ -12.4783029, -37.4334954 ], [ -12.4783377, -37.433472 ], [ -12.4783364, -37.4334208 ], [ -12.4783123, -37.4333931 ], [ -12.478272, -37.4333346 ], [ -12.4782237, -37.4333101 ], [ -12.4781621, -37.4332845 ], [ -12.4781232, -37.433259 ], [ -12.4780869, -37.4332121 ], [ -12.4781004, -37.4331472 ], [ -12.4780869, -37.4330939 ], [ -12.4780521, -37.4330566 ], [ -12.4779676, -37.4330183 ], [ -12.4778496, -37.4329842 ], [ -12.4777651, -37.4329374 ], [ -12.4776913, -37.432899 ], [ -12.4775223, -37.4328522 ], [ -12.4774151, -37.4328649 ] ] ] ] } },
{ "type": "Feature", "properties": { "FID": 121338, "id": 1214, "left": -15.0, "top": -35.0, "right": -10.0, "bottom": -40.0, "row_index": 25, "col_index": 33, "min_lon": -15.0, "min_lat": -40.0, "tile_id": "-15_-40" }, "geometry": { "type": "MultiPolygon", "coordinates": [ [ [ [ -12.4943545, -37.4245176 ], [ -12.4942043, -37.4245006 ], [ -12.4940354, -37.4244899 ], [ -12.4937779, -37.4245581 ], [ -12.4937135, -37.4245943 ], [ -12.4936679, -37.4246837 ], [ -12.4937162, -37.4248754 ], [ -12.4938315, -37.4249798 ], [ -12.4940032, -37.4250757 ], [ -12.4942312, -37.4251076 ], [ -12.4945825, -37.4250629 ], [ -12.4947676, -37.4250395 ], [ -12.4948534, -37.4249969 ], [ -12.4948883, -37.4248967 ], [ -12.4948186, -37.4247796 ], [ -12.4946764, -37.4246624 ], [ -12.4945021, -37.4245623 ], [ -12.4943545, -37.4245176 ] ] ] ] } },
{ "type": "Feature", "properties": { "FID": 473835, "id": 1214, "left": -15.0, "top": -35.0, "right": -10.0, "bottom": -40.0, "row_index": 25, "col_index": 33, "min_lon": -15.0, "min_lat": -40.0, "tile_id": "-15_-40" }, "geometry": { "type": "MultiPolygon", "coordinates": [ [ [ [ -12.6885227, -37.3236226 ], [ -12.6882896, -37.3237406 ], [ -12.6879579, -37.3238924 ], [ -12.6877094, -37.3240086 ], [ -12.6876357, -37.3241669 ], [ -12.6876896, -37.3243553 ], [ -12.6877412, -37.3244556 ], [ -12.6878659, -37.3245236 ], [ -12.6880029, -37.3245721 ], [ -12.6881805, -37.3245496 ], [ -12.6883232, -37.3244433 ], [ -12.6883846, -37.3243758 ], [ -12.6883273, -37.324238 ], [ -12.6883838, -37.3241327 ], [ -12.6885294, -37.3240189 ], [ -12.688666, -37.3239853 ], [ -12.688871, -37.3240022 ], [ -12.6890508, -37.3239524 ], [ -12.6892226, -37.3238864 ], [ -12.6893465, -37.323777 ], [ -12.689383, -37.3236624 ], [ -12.689334, -37.3235768 ], [ -12.6892605, -37.323464 ], [ -12.6891371, -37.3234315 ], [ -12.6888307, -37.3234895 ], [ -12.6885227, -37.3236226 ] ] ] ] } },
{ "type": "Feature", "properties": { "FID": 547914, "id": 1214, "left": -15.0, "top": -35.0, "right": -10.0, "bottom": -40.0, "row_index": 25, "col_index": 33, "min_lon": -15.0, "min_lat": -40.0, "tile_id": "-15_-40" }, "geometry": { "type": "MultiPolygon", "coordinates": [ [ [ [ -12.688243, -37.3247269 ], [ -12.6882041, -37.324755 ], [ -12.6882041, -37.3247916 ], [ -12.6882288, -37.3248141 ], [ -12.6882501, -37.3248535 ], [ -12.6882713, -37.324907 ], [ -12.6883421, -37.3249014 ], [ -12.688427, -37.3248929 ], [ -12.6885084, -37.3248704 ], [ -12.6885474, -37.3248451 ], [ -12.6885367, -37.3247888 ], [ -12.6884447, -37.3247494 ], [ -12.6883244, -37.3247269 ], [ -12.688243, -37.3247269 ] ] ] ] } },
{ "type": "Feature", "properties": { "FID": 547915, "id": 1214, "left": -15.0, "top": -35.0, "right": -10.0, "bottom": -40.0, "row_index": 25, "col_index": 33, "min_lon": -15.0, "min_lat": -40.0, "tile_id": "-15_-40" }, "geometry": { "type": "MultiPolygon", "coordinates": [ [ [ [ -12.4745951, -37.4092146 ], [ -12.4745138, -37.4092856 ], [ -12.47453, -37.409376 ], [ -12.474587, -37.4094342 ], [ -12.4746357, -37.4094794 ], [ -12.4746439, -37.4095762 ], [ -12.4747414, -37.4096215 ], [ -12.4748797, -37.4095698 ], [ -12.4749447, -37.4095052 ], [ -12.4750016, -37.4094729 ], [ -12.4750423, -37.4094083 ], [ -12.4750423, -37.4093502 ], [ -12.474961, -37.4092533 ], [ -12.4748389, -37.4091628 ], [ -12.4745951, -37.4092146 ] ] ] ] } },
{ "type": "Feature", "properties": { "FID": 547916, "id": 1214, "left": -15.0, "top": -35.0, "right": -10.0, "bottom": -40.0, "row_index": 25, "col_index": 33, "min_lon": -15.0, "min_lat": -40.0, "tile_id": "-15_-40" }, "geometry": { "type": "MultiPolygon", "coordinates": [ [ [ [ -12.4750465, -37.409692 ], [ -12.4750036, -37.4097602 ], [ -12.474907, -37.4098028 ], [ -12.4748212, -37.4098667 ], [ -12.4748373, -37.4099818 ], [ -12.4749553, -37.409986 ], [ -12.475025, -37.4100287 ], [ -12.475143, -37.4099988 ], [ -12.4753147, -37.4099136 ], [ -12.4754649, -37.4098412 ], [ -12.4755722, -37.4097645 ], [ -12.4757063, -37.4097687 ], [ -12.4758297, -37.4097133 ], [ -12.4759262, -37.4096452 ], [ -12.4760174, -37.4096068 ], [ -12.4760228, -37.4095514 ], [ -12.4760067, -37.409479 ], [ -12.4759638, -37.4094449 ], [ -12.4758404, -37.4094832 ], [ -12.4757546, -37.4095003 ], [ -12.4756795, -37.409496 ], [ -12.4755346, -37.4095046 ], [ -12.4753415, -37.409594 ], [ -12.475143, -37.4096835 ], [ -12.4750465, -37.409692 ] ] ] ] } },
{ "type": "Feature", "properties": { "FID": 645212, "id": 1214, "left": -15.0, "top": -35.0, "right": -10.0, "bottom": -40.0, "row_index": 25, "col_index": 33, "min_lon": -15.0, "min_lat": -40.0, "tile_id": "-15_-40" }, "geometry": { "type": "MultiPolygon", "coordinates": [ [ [ [ -12.471493, -37.4294921 ], [ -12.4717016, -37.4293552 ], [ -12.4717485, -37.4293383 ], [ -12.471906, -37.4293214 ], [ -12.4719486, -37.4293011 ], [ -12.4719869, -37.4292639 ], [ -12.4719465, -37.4292369 ], [ -12.4718358, -37.4292352 ], [ -12.4715547, -37.4293146 ], [ -12.4715058, -37.4293129 ], [ -12.4714696, -37.4292893 ], [ -12.4714419, -37.4292589 ], [ -12.4714015, -37.4292369 ], [ -12.4713525, -37.4292369 ], [ -12.4712184, -37.4292791 ], [ -12.4711268, -37.4293197 ], [ -12.4709544, -37.4294482 ], [ -12.4709331, -37.4294803 ], [ -12.4709161, -37.4295564 ], [ -12.470882, -37.4295868 ], [ -12.4707522, -37.4296511 ], [ -12.4706585, -37.4296798 ], [ -12.4705691, -37.4297694 ], [ -12.4705606, -37.4298438 ], [ -12.4705925, -37.4298742 ], [ -12.4706436, -37.4298827 ], [ -12.4707415, -37.4298843 ], [ -12.4708437, -37.4298539 ], [ -12.4708884, -37.4298353 ], [ -12.471063, -37.4297339 ], [ -12.4712503, -37.4296578 ], [ -12.4714526, -37.4295293 ], [ -12.471493, -37.4294921 ] ] ] ] } },
{ "type": "Feature", "properties": { "FID": 645213, "id": 1214, "left": -15.0, "top": -35.0, "right": -10.0, "bottom": -40.0, "row_index": 25, "col_index": 33, "min_lon": -15.0, "min_lat": -40.0, "tile_id": "-15_-40" }, "geometry": { "type": "MultiPolygon", "coordinates": [ [ [ [ -12.3465195, -37.1099155 ], [ -12.3469486, -37.1100695 ], [ -12.3471417, -37.1099669 ], [ -12.3471203, -37.1096588 ], [ -12.3466697, -37.1096246 ], [ -12.3465195, -37.1099155 ] ] ] ] } },
{ "type": "Feature", "properties": { "FID": 645214, "id": 1214, "left": -15.0, "top": -35.0, "right": -10.0, "bottom": -40.0, "row_index": 25, "col_index": 33, "min_lon": -15.0, "min_lat": -40.0, "tile_id": "-15_-40" }, "geometry": { "type": "MultiPolygon", "coordinates": [ [ [ [ -12.3251483, -37.1516521 ], [ -12.325429, -37.1518833 ], [ -12.3254078, -37.1520893 ], [ -12.3258316, -37.1523778 ], [ -12.3260513, -37.152189 ], [ -12.3262632, -37.1521527 ], [ -12.3266146, -37.152298 ], [ -12.3268436, -37.1522932 ], [ -12.3272767, -37.1521033 ], [ -12.3271057, -37.1519853 ], [ -12.3268399, -37.1520351 ], [ -12.3265986, -37.1520445 ], [ -12.3260822, -37.1519841 ], [ -12.3259145, -37.1519004 ], [ -12.3257857, -37.1517243 ], [ -12.3260277, -37.1514026 ], [ -12.3258314, -37.1513403 ], [ -12.3256748, -37.1514191 ], [ -12.3254266, -37.1513667 ], [ -12.3251483, -37.1516521 ] ] ] ] } },
{ "type": "Feature", "properties": { "FID": 645215, "id": 1214, "left": -15.0, "top": -35.0, "right": -10.0, "bottom": -40.0, "row_index": 25, "col_index": 33, "min_lon": -15.0, "min_lat": -40.0, "tile_id": "-15_-40" }, "geometry": { "type": "MultiPolygon", "coordinates": [ [ [ [ -12.3142525, -37.1630448 ], [ -12.3147675, -37.1633868 ], [ -12.3156473, -37.1636946 ], [ -12.3163983, -37.1636775 ], [ -12.3176428, -37.1638143 ], [ -12.3182329, -37.1637288 ], [ -12.3188227, -37.1641534 ], [ -12.3189166, -37.1642838 ], [ -12.3186269, -37.1643714 ], [ -12.318576, -37.164551 ], [ -12.3192492, -37.1643501 ], [ -12.3190507, -37.1634374 ], [ -12.3183509, -37.1633355 ], [ -12.3178574, -37.1631474 ], [ -12.3169776, -37.1629935 ], [ -12.3157331, -37.1628909 ], [ -12.3146387, -37.162737 ], [ -12.3142525, -37.1630448 ] ] ] ] } },
{ "type": "Feature", "properties": { "FID": 646961, "id": 1214, "left": -15.0, "top": -35.0, "right": -10.0, "bottom": -40.0, "row_index": 25, "col_index": 33, "min_lon": -15.0, "min_lat": -40.0, "tile_id": "-15_-40" }, "geometry": { "type": "MultiPolygon", "coordinates": [ [ [ [ -12.6423623, -37.3034654 ], [ -12.6423683, -37.3036294 ], [ -12.6423891, -37.3037523 ], [ -12.6425157, -37.303849 ], [ -12.6427198, -37.3038595 ], [ -12.6428505, -37.3038367 ], [ -12.6429124, -37.3036866 ], [ -12.6429017, -37.3034858 ], [ -12.6428184, -37.3034074 ], [ -12.6426755, -37.303348 ], [ -12.6424534, -37.3033654 ], [ -12.6423623, -37.3034654 ] ] ] ] } },
{ "type": "Feature", "properties": { "FID": 671101, "id": 1214, "left": -15.0, "top": -35.0, "right": -10.0, "bottom": -40.0, "row_index": 25, "col_index": 33, "min_lon": -15.0, "min_lat": -40.0, "tile_id": "-15_-40" }, "geometry": { "type": "MultiPolygon", "coordinates": [ [ [ [ -12.2860721, -37.171431 ], [ -12.2861954, -37.1715891 ], [ -12.286351, -37.1715549 ], [ -12.286351, -37.171384 ], [ -12.2861686, -37.1713882 ], [ -12.2860721, -37.171431 ] ] ] ] } },
{ "type": "Feature", "properties": { "FID": 671102, "id": 1214, "left": -15.0, "top": -35.0, "right": -10.0, "bottom": -40.0, "row_index": 25, "col_index": 33, "min_lon": -15.0, "min_lat": -40.0, "tile_id": "-15_-40" }, "geometry": { "type": "MultiPolygon", "coordinates": [ [ [ [ -12.2865549, -37.1708753 ], [ -12.2867802, -37.1709864 ], [ -12.2869196, -37.1708197 ], [ -12.2868875, -37.1706017 ], [ -12.2866729, -37.1706145 ], [ -12.2865549, -37.1708753 ] ] ] ] } },
{ "type": "Feature", "properties": { "FID": 671103, "id": 1214, "left": -15.0, "top": -35.0, "right": -10.0, "bottom": -40.0, "row_index": 25, "col_index": 33, "min_lon": -15.0, "min_lat": -40.0, "tile_id": "-15_-40" }, "geometry": { "type": "MultiPolygon", "coordinates": [ [ [ [ -12.3174512, -37.164119 ], [ -12.3174915, -37.1642024 ], [ -12.3176229, -37.1641938 ], [ -12.3177221, -37.1640912 ], [ -12.3175558, -37.1640463 ], [ -12.3174512, -37.164119 ] ] ] ] } },
{ "type": "Feature", "properties": { "FID": 671104, "id": 1214, "left": -15.0, "top": -35.0, "right": -10.0, "bottom": -40.0, "row_index": 25, "col_index": 33, "min_lon": -15.0, "min_lat": -40.0, "tile_id": "-15_-40" }, "geometry": { "type": "MultiPolygon", "coordinates": [ [ [ [ -12.3266763, -37.1526855 ], [ -12.3267109, -37.1527057 ], [ -12.3267994, -37.1527933 ], [ -12.3268852, -37.1528072 ], [ -12.3269619, -37.1527294 ], [ -12.3269787, -37.1526503 ], [ -12.3268188, -37.1526073 ], [ -12.3267433, -37.1526257 ], [ -12.3266494, -37.1525466 ], [ -12.3265955, -37.1526319 ], [ -12.3266763, -37.1526855 ] ] ] ] } },
{ "type": "Feature", "properties": { "FID": 693369, "id": 1214, "left": -15.0, "top": -35.0, "right": -10.0, "bottom": -40.0, "row_index": 25, "col_index": 33, "min_lon": -15.0, "min_lat": -40.0, "tile_id": "-15_-40" }, "geometry": { "type": "MultiPolygon", "coordinates": [ [ [ [ -12.4718315, -37.4289191 ], [ -12.4718783, -37.4289174 ], [ -12.471972, -37.4288954 ], [ -12.4720295, -37.4288244 ], [ -12.4720359, -37.4287855 ], [ -12.4720316, -37.4287466 ], [ -12.4720082, -37.4287145 ], [ -12.4719614, -37.4286993 ], [ -12.4719145, -37.4287077 ], [ -12.4718166, -37.4287449 ], [ -12.4717655, -37.4287534 ], [ -12.4717506, -37.4287196 ], [ -12.4717612, -37.4286824 ], [ -12.4717825, -37.4286503 ], [ -12.4718145, -37.4286232 ], [ -12.4718123, -37.4285877 ], [ -12.4717634, -37.4285894 ], [ -12.4715462, -37.4286401 ], [ -12.4714419, -37.4286553 ], [ -12.4712375, -37.4286553 ], [ -12.4711822, -37.4286621 ], [ -12.4707607, -37.4287517 ], [ -12.4705925, -37.4287703 ], [ -12.4704499, -37.4288176 ], [ -12.4704115, -37.4288464 ], [ -12.4704307, -37.4288819 ], [ -12.4705669, -37.428848 ], [ -12.4709097, -37.4288345 ], [ -12.4709523, -37.4288159 ], [ -12.4709778, -37.4287821 ], [ -12.4710119, -37.4287568 ], [ -12.4712141, -37.4287906 ], [ -12.4713099, -37.428821 ], [ -12.4714121, -37.428821 ], [ -12.4714611, -37.4288142 ], [ -12.4716356, -37.4287263 ], [ -12.4716867, -37.4287162 ], [ -12.4717144, -37.42875 ], [ -12.471708, -37.4288261 ], [ -12.4717378, -37.4288565 ], [ -12.4718251, -37.4289089 ], [ -12.4718315, -37.4289191 ] ] ] ] } },
{ "type": "Feature", "properties": { "FID": 693370, "id": 1214, "left": -15.0, "top": -35.0, "right": -10.0, "bottom": -40.0, "row_index": 25, "col_index": 33, "min_lon": -15.0, "min_lat": -40.0, "tile_id": "-15_-40" }, "geometry": { "type": "MultiPolygon", "coordinates": [ [ [ [ -12.4710693, -37.4280511 ], [ -12.4710316, -37.4278834 ], [ -12.4708354, -37.4277636 ], [ -12.4706701, -37.427871 ], [ -12.4706785, -37.4280406 ], [ -12.4707087, -37.4282067 ], [ -12.4709561, -37.4282279 ], [ -12.4710693, -37.4280511 ] ] ] ] } },
{ "type": "Feature", "properties": { "FID": 693371, "id": 1214, "left": -15.0, "top": -35.0, "right": -10.0, "bottom": -40.0, "row_index": 25, "col_index": 33, "min_lon": -15.0, "min_lat": -40.0, "tile_id": "-15_-40" }, "geometry": { "type": "MultiPolygon", "coordinates": [ [ [ [ -12.4694632, -37.4278774 ], [ -12.4695927, -37.4277415 ], [ -12.4695703, -37.4275458 ], [ -12.4693587, -37.4275223 ], [ -12.4692077, -37.4276423 ], [ -12.4690746, -37.4277727 ], [ -12.4692229, -37.4279314 ], [ -12.4694632, -37.4278774 ] ] ] ] } },
{ "type": "Feature", "properties": { "FID": 693372, "id": 1214, "left": -15.0, "top": -35.0, "right": -10.0, "bottom": -40.0, "row_index": 25, "col_index": 33, "min_lon": -15.0, "min_lat": -40.0, "tile_id": "-15_-40" }, "geometry": { "type": "MultiPolygon", "coordinates": [ [ [ [ -12.4698794, -37.4272421 ], [ -12.4697623, -37.4270994 ], [ -12.4695229, -37.4270498 ], [ -12.4694234, -37.4271999 ], [ -12.4695144, -37.4273534 ], [ -12.4696238, -37.4274971 ], [ -12.469862, -37.4274399 ], [ -12.4698794, -37.4272421 ] ] ] ] } },
{ "type": "Feature", "properties": { "FID": 693373, "id": 1214, "left": -15.0, "top": -35.0, "right": -10.0, "bottom": -40.0, "row_index": 25, "col_index": 33, "min_lon": -15.0, "min_lat": -40.0, "tile_id": "-15_-40" }, "geometry": { "type": "MultiPolygon", "coordinates": [ [ [ [ -12.4696909, -37.4269033 ], [ -12.4698204, -37.4267674 ], [ -12.4697416, -37.4266097 ], [ -12.4695864, -37.4265482 ], [ -12.4692833, -37.4265475 ], [ -12.4691928, -37.4266489 ], [ -12.4693023, -37.4267986 ], [ -12.4694289, -37.4268469 ], [ -12.4696909, -37.4269033 ] ] ] ] } },
{ "type": "Feature", "properties": { "FID": 693374, "id": 1214, "left": -15.0, "top": -35.0, "right": -10.0, "bottom": -40.0, "row_index": 25, "col_index": 33, "min_lon": -15.0, "min_lat": -40.0, "tile_id": "-15_-40" }, "geometry": { "type": "MultiPolygon", "coordinates": [ [ [ [ -12.4693742, -37.4272296 ], [ -12.4692798, -37.4271577 ], [ -12.4691855, -37.4271817 ], [ -12.4691516, -37.4272985 ], [ -12.4692534, -37.4273704 ], [ -12.4693515, -37.4273344 ], [ -12.4693742, -37.4272296 ] ] ] ] } },
{ "type": "Feature", "properties": { "FID": 753901, "id": 1214, "left": -15.0, "top": -35.0, "right": -10.0, "bottom": -40.0, "row_index": 25, "col_index": 33, "min_lon": -15.0, "min_lat": -40.0, "tile_id": "-15_-40" }, "geometry": { "type": "MultiPolygon", "coordinates": [ [ [ [ -12.4824198, -37.4117998 ], [ -12.4825663, -37.4118553 ], [ -12.4826744, -37.4118374 ], [ -12.4827286, -37.4117974 ], [ -12.482816, -37.4118203 ], [ -12.4829527, -37.4117599 ], [ -12.483035, -37.4117542 ], [ -12.4831258, -37.4117086 ], [ -12.483218, -37.4116834 ], [ -12.4832593, -37.4116477 ], [ -12.4832514, -37.4116005 ], [ -12.4832312, -37.4115656 ], [ -12.4832336, -37.4114943 ], [ -12.4832076, -37.4114546 ], [ -12.4831094, -37.4114338 ], [ -12.4830298, -37.4114054 ], [ -12.4829963, -37.4113696 ], [ -12.4829279, -37.4111806 ], [ -12.4827753, -37.411141 ], [ -12.4825982, -37.411203 ], [ -12.4823281, -37.4115066 ], [ -12.4823432, -37.4117179 ], [ -12.4824198, -37.4117998 ] ] ] ] } },
{ "type": "Feature", "properties": { "FID": 756492, "id": 1214, "left": -15.0, "top": -35.0, "right": -10.0, "bottom": -40.0, "row_index": 25, "col_index": 33, "min_lon": -15.0, "min_lat": -40.0, "tile_id": "-15_-40" }, "geometry": { "type": "MultiPolygon", "coordinates": [ [ [ [ -12.3278263, -37.0805061 ], [ -12.327898, -37.0804807 ], [ -12.3279439, -37.0804219 ], [ -12.327914, -37.080328 ], [ -12.3278482, -37.0802867 ], [ -12.3277983, -37.0802485 ], [ -12.3278223, -37.0801785 ], [ -12.3277664, -37.0800799 ], [ -12.3277206, -37.0800831 ], [ -12.3276987, -37.0801833 ], [ -12.3277106, -37.0802755 ], [ -12.3277046, -37.080336 ], [ -12.3277086, -37.0804266 ], [ -12.3277525, -37.0804759 ], [ -12.3278263, -37.0805061 ] ] ] ] } }
]
}
