{
"type": "FeatureCollection",
"name": "-15_80",
"crs": { "type": "name", "properties": { "name": "urn:ogc:def:crs:OGC:1.3:CRS84" } },
"xy_coordinate_resolution": 1e-15,
"features": [
{ "type": "Feature", "properties": { "FID": 296248, "id": 1190, "left": -15.0, "top": 85.0, "right": -10.0, "bottom": 80.0, "row_index": 1, "col_index": 33, "min_lon": -15.0, "min_lat": 80.0, "tile_id": "-15_80" }, "geometry": { "type": "MultiPolygon", "coordinates": [ [ [ [ -14.9887305, 81.8077102 ], [ -14.9735557, 81.8071238 ], [ -14.9565776, 81.8065387 ], [ -14.9381759, 81.8059784 ], [ -14.9188553, 81.8054619 ], [ -14.89912, 81.8050079 ], [ -14.8797622, 81.8045388 ], [ -14.8615453, 81.8039971 ], [ -14.8448153, 81.8033889 ], [ -14.8299514, 81.8027383 ], [ -14.8174738, 81.8020735 ], [ -14.8077279, 81.8014009 ], [ -14.8011708, 81.8007511 ], [ -14.798164, 81.8001392 ], [ -14.7961652, 81.7995657 ], [ -14.792469, 81.7991229 ], [ -14.787388, 81.798799 ], [ -14.7808762, 81.7986053 ], [ -14.7732, 81.7985411 ], [ -14.7644841, 81.7986018 ], [ -14.7548236, 81.7988027 ], [ -14.744343, 81.799139 ], [ -14.7318993, 81.7996441 ], [ -14.722012, 81.8001578 ], [ -14.7146027, 81.8006739 ], [ -14.7095795, 81.8012149 ], [ -14.706788, 81.8018058 ], [ -14.706166, 81.802449 ], [ -14.7075427, 81.8031605 ], [ -14.7109053, 81.8039694 ], [ -14.7136402, 81.8045824 ], [ -14.7156211, 81.8051855 ], [ -14.7167822, 81.8057429 ], [ -14.7172022, 81.8062613 ], [ -14.7168317, 81.806714 ], [ -14.7156377, 81.8070829 ], [ -14.7136827, 81.8073659 ], [ -14.7109339, 81.8075451 ], [ -14.7077309, 81.8075505 ], [ -14.7042917, 81.8073548 ], [ -14.7008207, 81.80696 ], [ -14.6973839, 81.8064018 ], [ -14.6941396, 81.8056933 ], [ -14.6910581, 81.8048548 ], [ -14.6883766, 81.8039059 ], [ -14.6861277, 81.8028646 ], [ -14.6829852, 81.8016278 ], [ -14.6776401, 81.8001014 ], [ -14.6704919, 81.7983562 ], [ -14.6617656, 81.7964411 ], [ -14.6517187, 81.7944226 ], [ -14.6406707, 81.7923652 ], [ -14.6289244, 81.7903242 ], [ -14.6167193, 81.7883573 ], [ -14.5994719, 81.7856342 ], [ -14.5863259, 81.7834351 ], [ -14.5770181, 81.7816555 ], [ -14.5711488, 81.7802246 ], [ -14.5684905, 81.7790557 ], [ -14.5688958, 81.7780684 ], [ -14.5719352, 81.7771739 ], [ -14.5773371, 81.7762962 ], [ -14.5836973, 81.7750301 ], [ -14.586511, 81.7736099 ], [ -14.5860996, 81.7721382 ], [ -14.5828789, 81.770733 ], [ -14.5772809, 81.7695212 ], [ -14.5697201, 81.7686207 ], [ -14.5605315, 81.7681428 ], [ -14.5502064, 81.7682122 ], [ -14.5460718, 81.7683181 ], [ -14.5412302, 81.7683645 ], [ -14.5358387, 81.7683646 ], [ -14.5300223, 81.7683136 ], [ -14.5240466, 81.7682113 ], [ -14.5180688, 81.7680709 ], [ -14.5122137, 81.7678877 ], [ -14.5066848, 81.7676638 ], [ -14.4994914, 81.7672918 ], [ -14.494172, 81.7668885 ], [ -14.4906939, 81.766436 ], [ -14.4890388, 81.7658875 ], [ -14.4891418, 81.7652072 ], [ -14.4909382, 81.7643594 ], [ -14.4943627, 81.7633084 ], [ -14.4994747, 81.7620138 ], [ -14.5034828, 81.7611029 ], [ -14.5078199, 81.7602275 ], [ -14.5124097, 81.7594188 ], [ -14.5171277, 81.7586815 ], [ -14.5216947, 81.758045 ], [ -14.5261433, 81.7575272 ], [ -14.5301944, 81.7571576 ], [ -14.53374, 81.7569495 ], [ -14.5371862, 81.7566499 ], [ -14.5408925, 81.7560165 ], [ -14.5447363, 81.7550921 ], [ -14.5485165, 81.7539126 ], [ -14.5522352, 81.7525161 ], [ -14.5557078, 81.7509477 ], [ -14.5588745, 81.7492476 ], [ -14.5615811, 81.7474407 ], [ -14.5648408, 81.7448029 ], [ -14.5666796, 81.742628 ], [ -14.5670914, 81.7408017 ], [ -14.5658538, 81.7392372 ], [ -14.5628359, 81.7378249 ], [ -14.5579715, 81.7364911 ], [ -14.5510519, 81.7351197 ], [ -14.541917, 81.7336211 ], [ -14.5354371, 81.7324905 ], [ -14.529088, 81.7311739 ], [ -14.5231365, 81.729709 ], [ -14.5175551, 81.7281541 ], [ -14.5126562, 81.7265357 ], [ -14.5085681, 81.7249252 ], [ -14.5053705, 81.7233674 ], [ -14.5033291, 81.7218999 ], [ -14.50099, 81.7198241 ], [ -14.498698, 81.7182898 ], [ -14.4961864, 81.7172591 ], [ -14.4930349, 81.716719 ], [ -14.4889609, 81.716623 ], [ -14.4837298, 81.7169511 ], [ -14.4769665, 81.7176791 ], [ -14.4684197, 81.718778 ], [ -14.4628679, 81.7195559 ], [ -14.4578913, 81.7203599 ], [ -14.4534579, 81.7211722 ], [ -14.4497682, 81.7219569 ], [ -14.4468524, 81.7226937 ], [ -14.444881, 81.723367 ], [ -14.4439304, 81.7239452 ], [ -14.444047, 81.7244171 ], [ -14.4430587, 81.7248633 ], [ -14.4389028, 81.7253889 ], [ -14.4319351, 81.7259708 ], [ -14.4223873, 81.726591 ], [ -14.4106774, 81.7272242 ], [ -14.3970531, 81.7278609 ], [ -14.3818708, 81.7284785 ], [ -14.3655029, 81.7290629 ], [ -14.3485417, 81.7296493 ], [ -14.3318453, 81.7303108 ], [ -14.3158946, 81.7310204 ], [ -14.3010148, 81.7317375 ], [ -14.2876731, 81.7324643 ], [ -14.2763514, 81.7331738 ], [ -14.2673917, 81.7338347 ], [ -14.2612923, 81.7344288 ], [ -14.2556737, 81.7349957 ], [ -14.2496299, 81.7353972 ], [ -14.2431453, 81.7356244 ], [ -14.236236, 81.7356861 ], [ -14.2290269, 81.7355778 ], [ -14.2215342, 81.7353084 ], [ -14.2137269, 81.73486 ], [ -14.2056992, 81.7342482 ], [ -14.1966746, 81.7335204 ], [ -14.1891027, 81.7330155 ], [ -14.1828268, 81.7327203 ], [ -14.177629, 81.7326618 ], [ -14.1734152, 81.7328243 ], [ -14.1699828, 81.7332058 ], [ -14.1672228, 81.7338198 ], [ -14.1649329, 81.734664 ], [ -14.1620046, 81.7355218 ], [ -14.157035, 81.7362728 ], [ -14.149837, 81.7369237 ], [ -14.1401147, 81.7374947 ], [ -14.1276033, 81.7379855 ], [ -14.1120692, 81.7384138 ], [ -14.0932166, 81.7387995 ], [ -14.070843, 81.7391399 ], [ -14.0524071, 81.739423 ], [ -14.0332535, 81.739788 ], [ -14.0138801, 81.7402169 ], [ -13.9949717, 81.7406853 ], [ -13.9769953, 81.7411953 ], [ -13.9605587, 81.7417161 ], [ -13.9461916, 81.7422478 ], [ -13.9345023, 81.7427596 ], [ -13.9212678, 81.7433735 ], [ -13.9105274, 81.7437841 ], [ -13.9021111, 81.7439693 ], [ -13.8958481, 81.7439448 ], [ -13.8915056, 81.7436904 ], [ -13.8888813, 81.743204 ], [ -13.8878504, 81.7424899 ], [ -13.8881169, 81.7415302 ], [ -13.8867022, 81.7396705 ], [ -13.8791392, 81.7385802 ], [ -13.8667372, 81.7382127 ], [ -13.8505532, 81.7385299 ], [ -13.8319072, 81.739494 ], [ -13.8118859, 81.7410471 ], [ -13.7916847, 81.7431562 ], [ -13.7724697, 81.7457706 ], [ -13.7544454, 81.7483133 ], [ -13.7372009, 81.7501153 ], [ -13.7203666, 81.7511897 ], [ -13.7034643, 81.751525 ], [ -13.6861237, 81.7511343 ], [ -13.6679914, 81.7500015 ], [ -13.6485579, 81.7481351 ], [ -13.6274395, 81.7455388 ], [ -13.619215, 81.7445436 ], [ -13.5990146, 81.7439196 ], [ -13.5804752, 81.7436731 ], [ -13.5598758, 81.7434759 ], [ -13.5348133, 81.7434266 ], [ -13.5166172, 81.7435745 ], [ -13.5032276, 81.7437717 ], [ -13.4819416, 81.7436731 ], [ -13.4661487, 81.7428349 ], [ -13.457909, 81.7419967 ], [ -13.4500126, 81.7405172 ], [ -13.4448627, 81.7393334 ], [ -13.4352497, 81.7376068 ], [ -13.4119037, 81.7363732 ], [ -13.3734516, 81.7338563 ], [ -13.3277896, 81.731931 ], [ -13.3013538, 81.7299065 ], [ -13.2762912, 81.7276346 ], [ -13.2546619, 81.7252138 ], [ -13.2295993, 81.7219026 ], [ -13.2093433, 81.719134 ], [ -13.1911472, 81.7161666 ], [ -13.175011, 81.7125549 ], [ -13.1554416, 81.7086446 ], [ -13.1434253, 81.7061192 ], [ -13.1262592, 81.7022058 ], [ -13.1163028, 81.7006202 ], [ -13.1032566, 81.6984889 ], [ -13.0912403, 81.6970017 ], [ -13.0830005, 81.6955638 ], [ -13.0778507, 81.6927369 ], [ -13.0716709, 81.6908517 ], [ -13.0654911, 81.6892143 ], [ -13.0545047, 81.6859384 ], [ -13.0438617, 81.6827109 ], [ -13.0352787, 81.6783394 ], [ -13.0342487, 81.6753078 ], [ -13.0311588, 81.6731204 ], [ -13.0232624, 81.6709821 ], [ -13.0098629, 81.6696592 ], [ -13.004189, 81.669529 ], [ -12.9983339, 81.6692989 ], [ -12.992899, 81.6690451 ], [ -12.9860807, 81.668866 ], [ -12.9780935, 81.6687731 ], [ -12.9692617, 81.668765 ], [ -12.9598475, 81.6688424 ], [ -12.9500987, 81.668997 ], [ -12.9402916, 81.6692385 ], [ -12.9307363, 81.6695564 ], [ -12.9177918, 81.6699205 ], [ -12.904916, 81.669998 ], [ -12.891619, 81.6697673 ], [ -12.8774113, 81.6692068 ], [ -12.8618514, 81.6682838 ], [ -12.844451, 81.6669765 ], [ -12.8247986, 81.6652699 ], [ -12.8022697, 81.6631371 ], [ -12.785519, 81.6614375 ], [ -12.7697616, 81.6597427 ], [ -12.7552531, 81.6580915 ], [ -12.7424007, 81.656537 ], [ -12.7315828, 81.655114 ], [ -12.723206, 81.6538757 ], [ -12.7175243, 81.652861 ], [ -12.7149302, 81.6521139 ], [ -12.7132139, 81.6514704 ], [ -12.7103443, 81.6510065 ], [ -12.7081452, 81.6508579 ], [ -12.7061974, 81.6507263 ], [ -12.7007871, 81.6506387 ], [ -12.6940992, 81.6507346 ], [ -12.686023, 81.651027 ], [ -12.6765921, 81.6514958 ], [ -12.6656335, 81.6521561 ], [ -12.6528829, 81.6529216 ], [ -12.642084, 81.6534341 ], [ -12.6330102, 81.6536727 ], [ -12.6251389, 81.6536357 ], [ -12.6181812, 81.6533042 ], [ -12.6117379, 81.6526723 ], [ -12.6054238, 81.6517432 ], [ -12.5989361, 81.6504888 ], [ -12.593692, 81.6494493 ], [ -12.5871188, 81.6482638 ], [ -12.5795206, 81.6469603 ], [ -12.5711671, 81.6455867 ], [ -12.5622378, 81.6441749 ], [ -12.5530777, 81.64278 ], [ -12.5438794, 81.6414429 ], [ -12.5350213, 81.6401986 ], [ -12.5264203, 81.6389931 ], [ -12.518276, 81.6377445 ], [ -12.5107187, 81.6364957 ], [ -12.5039269, 81.6352788 ], [ -12.4981063, 81.6341439 ], [ -12.4934076, 81.6331051 ], [ -12.4900497, 81.6322214 ], [ -12.4883071, 81.631503 ], [ -12.4860977, 81.6307334 ], [ -12.4814986, 81.6296724 ], [ -12.4748546, 81.6283751 ], [ -12.466421, 81.6268802 ], [ -12.4564805, 81.6252448 ], [ -12.4452882, 81.6235079 ], [ -12.433188, 81.6217245 ], [ -12.4203722, 81.6199354 ], [ -12.4074729, 81.6181299 ], [ -12.3951488, 81.6163152 ], [ -12.3835157, 81.6145254 ], [ -12.3730383, 81.6128117 ], [ -12.3640092, 81.6112404 ], [ -12.3566048, 81.6098437 ], [ -12.351227, 81.6086749 ], [ -12.3480792, 81.6077841 ], [ -12.3458466, 81.6070718 ], [ -12.3430106, 81.6063882 ], [ -12.3396871, 81.6057673 ], [ -12.3359379, 81.6052073 ], [ -12.3319885, 81.6047292 ], [ -12.3278659, 81.6043509 ], [ -12.3237204, 81.6040867 ], [ -12.319702, 81.6039505 ], [ -12.3156973, 81.6038233 ], [ -12.3118396, 81.6035781 ], [ -12.3080809, 81.6032259 ], [ -12.3046333, 81.6027788 ], [ -12.301599, 81.6022618 ], [ -12.2989913, 81.6016841 ], [ -12.2969472, 81.6010506 ], [ -12.2955685, 81.6003866 ], [ -12.2940667, 81.5997264 ], [ -12.2916747, 81.5990757 ], [ -12.2885833, 81.5984756 ], [ -12.2847791, 81.5979171 ], [ -12.2804526, 81.5974412 ], [ -12.2757889, 81.597042 ], [ -12.2707665, 81.5967487 ], [ -12.2656451, 81.5965622 ], [ -12.2605374, 81.5963847 ], [ -12.2555025, 81.5960821 ], [ -12.2508273, 81.5956736 ], [ -12.2464772, 81.5951793 ], [ -12.2426773, 81.5946204 ], [ -12.2395509, 81.5939928 ], [ -12.2371514, 81.5933328 ], [ -12.2356154, 81.5926454 ], [ -12.2285495, 81.5904913 ], [ -12.213148, 81.5871479 ], [ -12.1916322, 81.5830165 ], [ -12.1662282, 81.5784601 ], [ -12.1548642, 81.5756339 ], [ -12.1089939, 81.5709748 ], [ -12.0887378, 81.5690119 ], [ -12.0753482, 81.5667968 ], [ -12.0585254, 81.5639767 ], [ -12.0437626, 81.5615083 ], [ -12.0317463, 81.5600471 ], [ -12.009087, 81.5578801 ], [ -11.9860843, 81.5552083 ], [ -11.965485, 81.5528382 ], [ -11.9476322, 81.5499126 ], [ -11.9297794, 81.5473392 ], [ -11.9081501, 81.5432 ], [ -11.9012836, 81.5421902 ], [ -11.8954471, 81.5413317 ], [ -11.8902973, 81.5396145 ], [ -11.8827442, 81.5383011 ], [ -11.8659214, 81.5378969 ], [ -11.8521885, 81.5362295 ], [ -11.8446354, 81.5329443 ], [ -11.8319324, 81.530113 ], [ -11.8216327, 81.528343 ], [ -11.80172, 81.5260666 ], [ -11.7807773, 81.5240933 ], [ -11.7667011, 81.5210566 ], [ -11.759148, 81.5188289 ], [ -11.7564014, 81.5167527 ], [ -11.7546848, 81.5146759 ], [ -11.7529682, 81.5115344 ], [ -11.7433551, 81.5089494 ], [ -11.7330555, 81.5061609 ], [ -11.7255024, 81.5040308 ], [ -11.7179493, 81.5009362 ], [ -11.7121128, 81.4979927 ], [ -11.7093662, 81.493474 ], [ -11.7014698, 81.4905788 ], [ -11.6922001, 81.4887497 ], [ -11.6791538, 81.4869202 ], [ -11.670914, 81.4838194 ], [ -11.6685108, 81.4808192 ], [ -11.6695407, 81.4755281 ], [ -11.6705707, 81.4706412 ], [ -11.6740039, 81.4663119 ], [ -11.6757206, 81.4627449 ], [ -11.6915134, 81.4579527 ], [ -11.7018131, 81.4544843 ], [ -11.7117694, 81.4508103 ], [ -11.7172626, 81.4488196 ], [ -11.7209691, 81.4459513 ], [ -11.7121119, 81.4436588 ], [ -11.6984784, 81.4389563 ], [ -11.6851593, 81.4333309 ], [ -11.6719016, 81.4267339 ], [ -11.6585616, 81.4191039 ], [ -11.6505427, 81.4143515 ], [ -11.6410561, 81.4089853 ], [ -11.6304887, 81.4031913 ], [ -11.6192985, 81.3971625 ], [ -11.6076505, 81.3910633 ], [ -11.5960237, 81.3851048 ], [ -11.5847604, 81.3794459 ], [ -11.5741178, 81.3742763 ], [ -11.5619966, 81.3683806 ], [ -11.5521045, 81.3632353 ], [ -11.5443011, 81.3587883 ], [ -11.5385321, 81.3550036 ], [ -11.53472, 81.3518271 ], [ -11.5328605, 81.3492117 ], [ -11.5327703, 81.347116 ], [ -11.5291216, 81.3465263 ], [ -11.5183069, 81.3466038 ], [ -11.5102388, 81.3471461 ], [ -11.4983942, 81.3482566 ], [ -11.4872362, 81.3496509 ], [ -11.4781381, 81.3509159 ], [ -11.4650919, 81.3522324 ], [ -11.4506723, 81.3531357 ], [ -11.4302446, 81.3536002 ], [ -11.41634, 81.354426 ], [ -11.3842394, 81.3560257 ], [ -11.373768, 81.3562837 ], [ -11.3593485, 81.3565159 ], [ -11.352997, 81.3564385 ], [ -11.3511087, 81.3561547 ], [ -11.352482, 81.3556903 ], [ -11.3591768, 81.3552517 ], [ -11.3759996, 81.3547099 ], [ -11.3875009, 81.3540131 ], [ -11.3941957, 81.3534712 ], [ -11.4201166, 81.351458 ], [ -11.4273264, 81.3506061 ], [ -11.4321329, 81.3498832 ], [ -11.4335062, 81.3491861 ], [ -11.4331629, 81.3482566 ], [ -11.4312746, 81.3474302 ], [ -11.4132501, 81.3465779 ], [ -11.4065553, 81.3466296 ], [ -11.3986589, 81.3466038 ], [ -11.3914491, 81.3461647 ], [ -11.3921358, 81.3455448 ], [ -11.3957407, 81.3447956 ], [ -11.4036371, 81.3439431 ], [ -11.4115335, 81.343323 ], [ -11.4269831, 81.3420569 ], [ -11.4589121, 81.3403512 ], [ -11.4777948, 81.3390588 ], [ -11.4971926, 81.3377145 ], [ -11.5121271, 81.3367062 ], [ -11.5195085, 81.3361114 ], [ -11.5390779, 81.3349736 ], [ -11.5478327, 81.3341201 ], [ -11.5554678, 81.3325662 ], [ -11.5551209, 81.3317581 ], [ -11.5542851, 81.3310499 ], [ -11.5528895, 81.3304812 ], [ -11.5509465, 81.3300612 ], [ -11.5484927, 81.3298168 ], [ -11.5455939, 81.3295203 ], [ -11.5423881, 81.3289509 ], [ -11.5389247, 81.3281447 ], [ -11.5353603, 81.3271252 ], [ -11.5317443, 81.3259286 ], [ -11.5281979, 81.324598 ], [ -11.5249496, 81.3231642 ], [ -11.5219163, 81.321658 ], [ -11.5185311, 81.3194286 ], [ -11.517188, 81.3173717 ], [ -11.5180137, 81.3153516 ], [ -11.5214111, 81.3132523 ], [ -11.5275905, 81.3109543 ], [ -11.5368092, 81.3083272 ], [ -11.5493948, 81.3052475 ], [ -11.5655413, 81.3015864 ], [ -11.6228057, 81.2902465 ], [ -11.6964638, 81.277645 ], [ -11.781662, 81.2644217 ], [ -11.8736185, 81.2512378 ], [ -11.9675226, 81.238742 ], [ -12.0586197, 81.2275878 ], [ -12.142336, 81.2184381 ], [ -12.2140631, 81.2119529 ], [ -12.2393731, 81.2099076 ], [ -12.2612429, 81.2078801 ], [ -12.280766, 81.2056838 ], [ -12.2991179, 81.2031479 ], [ -12.3175304, 81.2000992 ], [ -12.3370757, 81.1963412 ], [ -12.3590505, 81.1917076 ], [ -12.3845433, 81.1860192 ], [ -12.4019698, 81.1821102 ], [ -12.4186801, 81.1784412 ], [ -12.4343107, 81.1751001 ], [ -12.448499, 81.172175 ], [ -12.460844, 81.1697269 ], [ -12.4708799, 81.1678569 ], [ -12.4782321, 81.1666442 ], [ -12.4825708, 81.1661569 ], [ -12.486205, 81.1658634 ], [ -12.4917286, 81.1651751 ], [ -12.4987821, 81.164142 ], [ -12.5071363, 81.1628188 ], [ -12.5165359, 81.1612426 ], [ -12.5266544, 81.1594431 ], [ -12.5372889, 81.1574935 ], [ -12.5480875, 81.1554055 ], [ -12.6006603, 81.1450924 ], [ -12.6952728, 81.154475 ], [ -12.7151699, 81.1563932 ], [ -12.7353473, 81.1582442 ], [ -12.7553158, 81.1599882 ], [ -12.7744418, 81.1615718 ], [ -12.7922478, 81.1629644 ], [ -12.804653, 81.1638568 ], [ -12.791817, 81.1629227 ], [ -12.773724, 81.1615023 ], [ -12.7542396, 81.1598839 ], [ -12.7338999, 81.158096 ], [ -12.7132213, 81.1561962 ], [ -12.6928952, 81.1542361 ], [ -12.6656235, 81.1514667 ], [ -12.6432591, 81.1490178 ], [ -12.6250865, 81.1467825 ], [ -12.6104766, 81.1446694 ], [ -12.5988216, 81.1425583 ], [ -12.5894502, 81.1403684 ], [ -12.5817435, 81.1379702 ], [ -12.5750191, 81.1352737 ], [ -12.5682323, 81.1321923 ], [ -12.5638648, 81.1298493 ], [ -12.5623994, 81.1281148 ], [ -12.5641316, 81.126856 ], [ -12.5696626, 81.1259387 ], [ -12.5794186, 81.1252346 ], [ -12.5937418, 81.1245996 ], [ -12.6131876, 81.1239098 ], [ -12.6250591, 81.1234431 ], [ -12.6362027, 81.1228972 ], [ -12.6463853, 81.1222802 ], [ -12.6553547, 81.1216295 ], [ -12.6628327, 81.120964 ], [ -12.668645, 81.12029 ], [ -12.6723973, 81.1196308 ], [ -12.6740127, 81.1190173 ], [ -12.6749218, 81.1183811 ], [ -12.6767712, 81.1178445 ], [ -12.6796002, 81.1174345 ], [ -12.6833112, 81.117126 ], [ -12.6879305, 81.1169371 ], [ -12.6933869, 81.1168608 ], [ -12.6996804, 81.1168969 ], [ -12.7068246, 81.1170545 ], [ -12.7136911, 81.1172311 ], [ -12.7213862, 81.1173882 ], [ -12.7295792, 81.1175088 ], [ -12.7380504, 81.1176101 ], [ -12.7465406, 81.1176822 ], [ -12.7548617, 81.1177222 ], [ -12.762638, 81.1177244 ], [ -12.7696233, 81.1176879 ], [ -12.7890962, 81.116694 ], [ -12.8148931, 81.1142196 ], [ -12.8443381, 81.1106597 ], [ -12.8747608, 81.1064096 ], [ -12.9035716, 81.1018728 ], [ -12.9279195, 81.0974345 ], [ -12.9453512, 81.0934954 ], [ -12.9531026, 81.0904484 ], [ -12.9547222, 81.0893599 ], [ -12.9578536, 81.0881796 ], [ -12.9621882, 81.0869468 ], [ -12.9676762, 81.0857107 ], [ -12.9740988, 81.0844884 ], [ -12.9812192, 81.0833261 ], [ -12.9888591, 81.0822679 ], [ -12.9969294, 81.081336 ], [ -13.0079873, 81.0801172 ], [ -13.0165966, 81.0789763 ], [ -13.0228831, 81.0778332 ], [ -13.0270568, 81.076624 ], [ -13.0292249, 81.0752974 ], [ -13.0295707, 81.0737714 ], [ -13.0283174, 81.0719906 ], [ -13.0255903, 81.0698749 ], [ -13.0249963, 81.069413 ], [ -13.0236718, 81.0683829 ], [ -13.0224927, 81.0669779 ], [ -13.0220083, 81.0656709 ], [ -13.0221826, 81.0645201 ], [ -13.0230423, 81.0635432 ], [ -13.0245117, 81.0627715 ], [ -13.0266442, 81.0622407 ], [ -13.0293644, 81.0619821 ], [ -13.0319779, 81.0617746 ], [ -13.0337903, 81.0613973 ], [ -13.034886, 81.0608659 ], [ -13.0351186, 81.0602048 ], [ -13.0345728, 81.0594298 ], [ -13.0332889, 81.0585678 ], [ -13.0311918, 81.05765 ], [ -13.0283394, 81.0566742 ], [ -13.0234658, 81.0542575 ], [ -13.0232972, 81.0515676 ], [ -13.0271951, 81.0487502 ], [ -13.0346901, 81.0459829 ], [ -13.0452165, 81.0434181 ], [ -13.0581967, 81.0411994 ], [ -13.0732239, 81.039502 ], [ -13.0896228, 81.0384827 ], [ -13.0971381, 81.0379833 ], [ -13.106221, 81.0370295 ], [ -13.116591, 81.0356785 ], [ -13.12787, 81.0339628 ], [ -13.1396896, 81.031962 ], [ -13.1517432, 81.0297155 ], [ -13.1636366, 81.0272849 ], [ -13.1751491, 81.0247257 ], [ -13.1863235, 81.0221877 ], [ -13.1975787, 81.0197881 ], [ -13.208567, 81.0175777 ], [ -13.2190255, 81.0156228 ], [ -13.2286074, 81.0139742 ], [ -13.2370811, 81.0126783 ], [ -13.2440698, 81.011806 ], [ -13.2493284, 81.0113949 ], [ -13.2536141, 81.0111425 ], [ -13.2579566, 81.010727 ], [ -13.2621971, 81.0101638 ], [ -13.2661901, 81.009477 ], [ -13.2699053, 81.0086868 ], [ -13.2731841, 81.0078084 ], [ -13.2759083, 81.0068842 ], [ -13.2779062, 81.0059204 ], [ -13.2804359, 81.0047476 ], [ -13.2837791, 81.0037531 ], [ -13.2879659, 81.0029167 ], [ -13.2931111, 81.0022342 ], [ -13.2992855, 81.0017125 ], [ -13.3065634, 81.0013202 ], [ -13.3150158, 81.0010642 ], [ -13.3247002, 81.0009423 ], [ -13.337577, 81.0009291 ], [ -13.3479158, 81.001398 ], [ -13.3566687, 81.0028159 ], [ -13.3597571, 81.0038755 ], [ -13.3558878, 81.0008653 ], [ -13.3491689, 80.9945604 ], [ -13.3463175, 80.9900443 ], [ -13.3469635, 80.986838 ], [ -13.3505989, 80.9844486 ], [ -13.3568863, 80.9824151 ], [ -13.3687583, 80.9794441 ], [ -13.3813242, 80.9768159 ], [ -13.3944843, 80.9745437 ], [ -13.4078805, 80.9726693 ], [ -13.4213567, 80.9712081 ], [ -13.4346131, 80.9701998 ], [ -13.4474507, 80.9696709 ], [ -13.4596704, 80.9696479 ], [ -13.4649202, 80.9697255 ], [ -13.4693344, 80.9697301 ], [ -13.4729268, 80.9696709 ], [ -13.4755555, 80.9695341 ], [ -13.477191, 80.9693399 ], [ -13.4778468, 80.9690973 ], [ -13.4772674, 80.9687969 ], [ -13.4755945, 80.9684524 ], [ -13.4752041, 80.9674057 ], [ -13.4848423, 80.966247 ], [ -13.5022223, 80.9650614 ], [ -13.5251573, 80.9639588 ], [ -13.5514079, 80.9630135 ], [ -13.5787071, 80.9623201 ], [ -13.6049181, 80.9619788 ], [ -13.6277775, 80.9620855 ], [ -13.6629938, 80.9627245 ], [ -13.6915712, 80.9633203 ], [ -13.7140627, 80.9638818 ], [ -13.7309927, 80.9644372 ], [ -13.7429427, 80.9650125 ], [ -13.7502958, 80.9656218 ], [ -13.7536909, 80.9662882 ], [ -13.7536391, 80.9670302 ], [ -13.7530849, 80.96745 ], [ -13.7533162, 80.9677921 ], [ -13.7542759, 80.9680588 ], [ -13.7558932, 80.9682434 ], [ -13.7580971, 80.9683389 ], [ -13.7608305, 80.9683477 ], [ -13.7640223, 80.9682629 ], [ -13.7676585, 80.9680756 ], [ -13.7809626, 80.9673454 ], [ -13.7930604, 80.9669268 ], [ -13.8049203, 80.9668585 ], [ -13.8174538, 80.9671813 ], [ -13.8315158, 80.9679382 ], [ -13.8481332, 80.9691653 ], [ -13.8681923, 80.9708849 ], [ -13.8925663, 80.9731482 ], [ -13.9125983, 80.9749905 ], [ -13.9292945, 80.9764016 ], [ -13.94305, 80.9774044 ], [ -13.9542323, 80.9780039 ], [ -13.9632812, 80.9782114 ], [ -13.9706085, 80.9780586 ], [ -13.9765981, 80.977559 ], [ -13.9816342, 80.9767261 ], [ -13.987097, 80.9758574 ], [ -13.9947521, 80.9751879 ], [ -14.0050696, 80.9747083 ], [ -14.0185912, 80.9744165 ], [ -14.0357306, 80.9743051 ], [ -14.0569588, 80.9743649 ], [ -14.0828612, 80.9745815 ], [ -14.1138812, 80.9749652 ], [ -14.1566745, 80.9754319 ], [ -14.1916419, 80.9754723 ], [ -14.2202726, 80.9750008 ], [ -14.2440847, 80.9739107 ], [ -14.2646396, 80.9721216 ], [ -14.2834833, 80.9695055 ], [ -14.3020761, 80.9659946 ], [ -14.3219739, 80.9614693 ], [ -14.3283615, 80.9601478 ], [ -14.3363432, 80.9589143 ], [ -14.3459039, 80.9577597 ], [ -14.3571992, 80.9566682 ], [ -14.3703422, 80.955635 ], [ -14.3854316, 80.9546464 ], [ -14.4025236, 80.9536998 ], [ -14.4217315, 80.9527905 ], [ -14.4471093, 80.9516966 ], [ -14.4667859, 80.9509654 ], [ -14.482145, 80.9506273 ], [ -14.4943146, 80.9507418 ], [ -14.5046765, 80.9513388 ], [ -14.5144987, 80.9524525 ], [ -14.5249657, 80.9541395 ], [ -14.5276838, 80.9546364 ], [ -14.5103188, 80.9513472 ], [ -14.4776185, 80.9426359 ], [ -14.445126, 80.931794 ], [ -14.4144076, 80.9195105 ], [ -14.3869958, 80.9064662 ], [ -14.3644607, 80.8933397 ], [ -14.3483143, 80.8808212 ], [ -14.3400423, 80.8695919 ], [ -14.3369877, 80.8636769 ], [ -14.33241, 80.8583755 ], [ -14.3264817, 80.8537567 ], [ -14.31936, 80.8498807 ], [ -14.3112022, 80.8468456 ], [ -14.302149, 80.8447027 ], [ -14.2923974, 80.8435388 ], [ -14.2820445, 80.8434164 ], [ -14.277874, 80.8434237 ], [ -14.2728825, 80.843179 ], [ -14.2672112, 80.8426955 ], [ -14.2610157, 80.8419955 ], [ -14.2545922, 80.8411145 ], [ -14.2480257, 80.8400682 ], [ -14.2415979, 80.8388831 ], [ -14.2354079, 80.8375838 ], [ -14.2169837, 80.8334327 ], [ -14.1994082, 80.8295417 ], [ -14.1829034, 80.8259399 ], [ -14.1675792, 80.822661 ], [ -14.1536434, 80.8197632 ], [ -14.1413592, 80.8172643 ], [ -14.1308083, 80.8152181 ], [ -14.1222261, 80.8136628 ], [ -14.1127065, 80.8117745 ], [ -14.1051486, 80.8097694 ], [ -14.0996218, 80.8076924 ], [ -14.0962234, 80.8056439 ], [ -14.0949661, 80.803671 ], [ -14.0959889, 80.8018631 ], [ -14.0993889, 80.8002828 ], [ -14.1052073, 80.7989946 ], [ -14.1084014, 80.7982298 ], [ -14.1113819, 80.797027 ], [ -14.113995, 80.79544 ], [ -14.1162973, 80.7935424 ], [ -14.1180797, 80.7913902 ], [ -14.1193709, 80.7890393 ], [ -14.1201161, 80.7865678 ], [ -14.1202602, 80.784016 ], [ -14.1202092, 80.7814911 ], [ -14.1205078, 80.7790756 ], [ -14.1211284, 80.7768276 ], [ -14.1220436, 80.7748052 ], [ -14.1232257, 80.7730666 ], [ -14.1246476, 80.7716697 ], [ -14.1262122, 80.7706661 ], [ -14.1280178, 80.7701182 ], [ -14.1313033, 80.7699095 ], [ -14.1373346, 80.7698654 ], [ -14.1458055, 80.7699791 ], [ -14.1562985, 80.7702484 ], [ -14.1684938, 80.7706574 ], [ -14.1820714, 80.7711906 ], [ -14.1966283, 80.7718547 ], [ -14.2118718, 80.7726139 ], [ -14.237943, 80.7738827 ], [ -14.257848, 80.7746217 ], [ -14.2716374, 80.7748296 ], [ -14.2793502, 80.774496 ], [ -14.2810552, 80.7736279 ], [ -14.2767815, 80.7722052 ], [ -14.2665465, 80.7702367 ], [ -14.2503975, 80.7677107 ], [ -14.2445826, 80.766769 ], [ -14.2392123, 80.7657331 ], [ -14.2344827, 80.7646521 ], [ -14.2304916, 80.7635505 ], [ -14.227281, 80.7624551 ], [ -14.2250465, 80.7614151 ], [ -14.2238857, 80.7604549 ], [ -14.2238405, 80.7596014 ], [ -14.2290643, 80.7578871 ], [ -14.2414228, 80.7555967 ], [ -14.2590785, 80.7529562 ], [ -14.280196, 80.7501919 ], [ -14.3029435, 80.7475301 ], [ -14.3254525, 80.745209 ], [ -14.3458856, 80.7434468 ], [ -14.3623669, 80.7424735 ], [ -14.3880276, 80.7415866 ], [ -14.4092076, 80.7409305 ], [ -14.4264083, 80.7404853 ], [ -14.4401733, 80.7402577 ], [ -14.450976, 80.7402475 ], [ -14.4593714, 80.740432 ], [ -14.4658054, 80.740831 ], [ -14.4708879, 80.7414192 ], [ -14.4745633, 80.741904 ], [ -14.477994, 80.7421992 ], [ -14.4812637, 80.7423202 ], [ -14.4845099, 80.7422424 ], [ -14.4876503, 80.7419882 ], [ -14.4908221, 80.7415328 ], [ -14.4940951, 80.7408829 ], [ -14.4975101, 80.7400272 ], [ -14.5050167, 80.7385539 ], [ -14.5156107, 80.7372371 ], [ -14.5280458, 80.7361476 ], [ -14.5412146, 80.7353315 ], [ -14.5538588, 80.7348508 ], [ -14.5649009, 80.7347698 ], [ -14.5731241, 80.7351396 ], [ -14.5773952, 80.7360269 ], [ -14.5843239, 80.7372407 ], [ -14.599154, 80.7379996 ], [ -14.6199421, 80.738308 ], [ -14.6449663, 80.7381991 ], [ -14.6722946, 80.7376865 ], [ -14.7000236, 80.7368024 ], [ -14.7263324, 80.735557 ], [ -14.7493752, 80.7339809 ], [ -14.760119, 80.7331347 ], [ -14.7706749, 80.7323914 ], [ -14.7807811, 80.7317715 ], [ -14.7902172, 80.7312846 ], [ -14.7986924, 80.7309336 ], [ -14.8058902, 80.7307416 ], [ -14.8115897, 80.7307181 ], [ -14.8155296, 80.7308837 ], [ -14.8209835, 80.7310706 ], [ -14.8311178, 80.7311531 ], [ -14.8453062, 80.73111 ], [ -14.8630098, 80.7309732 ], [ -14.8836019, 80.7307214 ], [ -14.9065839, 80.7303754 ], [ -14.9312625, 80.7299454 ], [ -14.9570951, 80.7294259 ], [ -14.9922603, 80.7286448 ], [ -15.0, 80.728450271634415 ], [ -15.0, 81.808220384298593 ], [ -14.9887305, 81.8077102 ] ] ] ] } },
{ "type": "Feature", "properties": { "FID": 296273, "id": 1190, "left": -15.0, "top": 85.0, "right": -10.0, "bottom": 80.0, "row_index": 1, "col_index": 33, "min_lon": -15.0, "min_lat": 80.0, "tile_id": "-15_80" }, "geometry": { "type": "MultiPolygon", "coordinates": [ [ [ [ -13.7435081, 80.6742891 ], [ -13.7355124, 80.675118 ], [ -13.7260194, 80.6757308 ], [ -13.715788, 80.6761261 ], [ -13.7058819, 80.6762711 ], [ -13.6970333, 80.6761466 ], [ -13.6902642, 80.6757312 ], [ -13.68639, 80.6749834 ], [ -13.6852368, 80.6744885 ], [ -13.6838656, 80.6739264 ], [ -13.6824691, 80.6733084 ], [ -13.6809086, 80.6726589 ], [ -13.6793215, 80.6719915 ], [ -13.6778032, 80.6713309 ], [ -13.6762568, 80.6706904 ], [ -13.6749151, 80.6701082 ], [ -13.6744775, 80.6689594 ], [ -13.6772069, 80.6675055 ], [ -13.6825601, 80.6658532 ], [ -13.6898827, 80.6641513 ], [ -13.6985222, 80.6625109 ], [ -13.7079779, 80.6610655 ], [ -13.7175573, 80.6599371 ], [ -13.7266379, 80.6592548 ], [ -13.7316238, 80.6595787 ], [ -13.7368417, 80.660832 ], [ -13.7417919, 80.6627597 ], [ -13.7461806, 80.665089 ], [ -13.7495197, 80.6675738 ], [ -13.7513347, 80.669939 ], [ -13.7513563, 80.6719296 ], [ -13.7490261, 80.6732927 ], [ -13.7435081, 80.6742891 ] ] ] ] } },
{ "type": "Feature", "properties": { "FID": 296282, "id": 1190, "left": -15.0, "top": 85.0, "right": -10.0, "bottom": 80.0, "row_index": 1, "col_index": 33, "min_lon": -15.0, "min_lat": 80.0, "tile_id": "-15_80" }, "geometry": { "type": "MultiPolygon", "coordinates": [ [ [ [ -13.7527524, 80.6519312 ], [ -13.745701, 80.6526761 ], [ -13.7344184, 80.6532095 ], [ -13.7202809, 80.6535143 ], [ -13.7045688, 80.653587 ], [ -13.6885356, 80.6534063 ], [ -13.6734906, 80.6529488 ], [ -13.660714, 80.6522116 ], [ -13.6493596, 80.6510577 ], [ -13.6356416, 80.6492953 ], [ -13.6209291, 80.6471358 ], [ -13.6064374, 80.6448062 ], [ -13.5935443, 80.6425271 ], [ -13.5835569, 80.6405127 ], [ -13.5777387, 80.6389883 ], [ -13.5774078, 80.6381769 ], [ -13.57915, 80.6379379 ], [ -13.5826891, 80.6374577 ], [ -13.5877077, 80.6367581 ], [ -13.59408, 80.6358726 ], [ -13.6015568, 80.6348297 ], [ -13.6099571, 80.6336648 ], [ -13.6190188, 80.6323978 ], [ -13.6285612, 80.6310641 ], [ -13.6385674, 80.6297307 ], [ -13.6488691, 80.62848 ], [ -13.659205, 80.6273318 ], [ -13.6692725, 80.626317 ], [ -13.6787143, 80.6254689 ], [ -13.6873246, 80.6248051 ], [ -13.6947598, 80.6243678 ], [ -13.700746, 80.6241681 ], [ -13.7059616, 80.6240367 ], [ -13.7106612, 80.6237552 ], [ -13.7148299, 80.6233524 ], [ -13.7183578, 80.6228329 ], [ -13.7211618, 80.6222188 ], [ -13.7232555, 80.6215192 ], [ -13.7244327, 80.6207518 ], [ -13.7246936, 80.6199165 ], [ -13.7253835, 80.6193676 ], [ -13.7278525, 80.6193072 ], [ -13.7319096, 80.619724 ], [ -13.7373785, 80.6205776 ], [ -13.7440287, 80.6218297 ], [ -13.7517112, 80.6234579 ], [ -13.7602504, 80.6254217 ], [ -13.7694427, 80.6277007 ], [ -13.7855656, 80.6321403 ], [ -13.7972815, 80.6360825 ], [ -13.8045558, 80.6395098 ], [ -13.8074374, 80.6424204 ], [ -13.8058398, 80.6447986 ], [ -13.7998147, 80.6466421 ], [ -13.78932, 80.647924 ], [ -13.7743559, 80.6486437 ], [ -13.7698556, 80.6487945 ], [ -13.765752, 80.6490148 ], [ -13.7621696, 80.6492712 ], [ -13.7591354, 80.6495816 ], [ -13.7567741, 80.6499126 ], [ -13.7551545, 80.650271 ], [ -13.7543046, 80.6506367 ], [ -13.7544032, 80.6510121 ], [ -13.7527524, 80.6519312 ] ] ] ] } },
{ "type": "Feature", "properties": { "FID": 296286, "id": 1190, "left": -15.0, "top": 85.0, "right": -10.0, "bottom": 80.0, "row_index": 1, "col_index": 33, "min_lon": -15.0, "min_lat": 80.0, "tile_id": "-15_80" }, "geometry": { "type": "MultiPolygon", "coordinates": [ [ [ [ -13.9188534, 80.6347031 ], [ -13.9185024, 80.6353151 ], [ -13.9174104, 80.6359 ], [ -13.9155635, 80.636449 ], [ -13.9130442, 80.6369396 ], [ -13.9100039, 80.6373562 ], [ -13.9063739, 80.6376923 ], [ -13.902347, 80.6379208 ], [ -13.8981566, 80.6380421 ], [ -13.8940773, 80.6380829 ], [ -13.8903288, 80.6380345 ], [ -13.8868701, 80.6379079 ], [ -13.8838796, 80.6377056 ], [ -13.8814809, 80.637432 ], [ -13.8796877, 80.6370961 ], [ -13.8786097, 80.6366935 ], [ -13.8777251, 80.6362262 ], [ -13.8764165, 80.6356716 ], [ -13.8747932, 80.6350632 ], [ -13.8728003, 80.6344033 ], [ -13.8706022, 80.6337231 ], [ -13.8682396, 80.6330495 ], [ -13.8657261, 80.6323916 ], [ -13.8632122, 80.6317715 ], [ -13.8612095, 80.6309886 ], [ -13.8611317, 80.6300146 ], [ -13.8628135, 80.628856 ], [ -13.8662129, 80.627524 ], [ -13.8713694, 80.6260453 ], [ -13.8781175, 80.6244266 ], [ -13.8865379, 80.6226833 ], [ -13.8964783, 80.620831 ], [ -13.9060304, 80.6190319 ], [ -13.9145927, 80.6171964 ], [ -13.9220419, 80.6153582 ], [ -13.9283099, 80.6135485 ], [ -13.9331914, 80.6118231 ], [ -13.9366734, 80.6102113 ], [ -13.938537, 80.6087597 ], [ -13.9387144, 80.6074999 ], [ -13.9385616, 80.6064052 ], [ -13.9393394, 80.6053108 ], [ -13.9409787, 80.604248 ], [ -13.9434242, 80.6032568 ], [ -13.9465115, 80.6023439 ], [ -13.9503083, 80.6015541 ], [ -13.9545546, 80.6009073 ], [ -13.959305, 80.6004393 ], [ -13.965641, 80.6000206 ], [ -13.9709766, 80.5998228 ], [ -13.9753393, 80.5998638 ], [ -13.9788526, 80.6001481 ], [ -13.9816669, 80.6006981 ], [ -13.9837961, 80.6015227 ], [ -13.9854316, 80.6026332 ], [ -13.9866007, 80.6040474 ], [ -13.9868959, 80.6051555 ], [ -13.9863018, 80.6062142 ], [ -13.9849824, 80.607217 ], [ -13.9829789, 80.6081148 ], [ -13.9803458, 80.6089052 ], [ -13.977193, 80.6095458 ], [ -13.9735479, 80.6100165 ], [ -13.9694931, 80.610295 ], [ -13.9654244, 80.6105645 ], [ -13.9617376, 80.6110083 ], [ -13.9585831, 80.6116107 ], [ -13.95592, 80.6123451 ], [ -13.9538173, 80.6131801 ], [ -13.9524805, 80.6140979 ], [ -13.9518826, 80.6150807 ], [ -13.952079, 80.6160882 ], [ -13.9522472, 80.6171918 ], [ -13.9516058, 80.6184136 ], [ -13.9502782, 80.6197201 ], [ -13.9481959, 80.6210667 ], [ -13.9454822, 80.6224198 ], [ -13.9423019, 80.6237347 ], [ -13.9385731, 80.6249579 ], [ -13.9345017, 80.6260715 ], [ -13.9304161, 80.6271381 ], [ -13.9268091, 80.6282517 ], [ -13.9237499, 80.6293812 ], [ -13.9212392, 80.6304884 ], [ -13.9193597, 80.6315511 ], [ -13.9182084, 80.6325181 ], [ -13.9178818, 80.6333758 ], [ -13.9183807, 80.6340864 ], [ -13.9188534, 80.6347031 ] ] ] ] } },
{ "type": "Feature", "properties": { "FID": 809641, "id": 1190, "left": -15.0, "top": 85.0, "right": -10.0, "bottom": 80.0, "row_index": 1, "col_index": 33, "min_lon": -15.0, "min_lat": 80.0, "tile_id": "-15_80" }, "geometry": { "type": "MultiPolygon", "coordinates": [ [ [ [ -14.7244253, 81.7589023 ], [ -14.7261591, 81.7607511 ], [ -14.7253352, 81.761189 ], [ -14.7270689, 81.7627361 ], [ -14.719327, 81.7647526 ], [ -14.714675, 81.7659721 ], [ -14.7171641, 81.7677588 ], [ -14.7107794, 81.7692482 ], [ -14.7001092, 81.7697815 ], [ -14.6882871, 81.7698921 ], [ -14.6862443, 81.7693563 ], [ -14.6854439, 81.7673731 ], [ -14.6843968, 81.7662079 ], [ -14.6807061, 81.7655089 ], [ -14.6779938, 81.7646601 ], [ -14.6673485, 81.7642175 ], [ -14.661047, 81.7641511 ], [ -14.6523504, 81.764097 ], [ -14.6485739, 81.7650338 ], [ -14.6421815, 81.7652895 ], [ -14.6363106, 81.7652895 ], [ -14.6346798, 81.7654838 ], [ -14.6308408, 81.7662451 ], [ -14.6213995, 81.7664959 ], [ -14.6133705, 81.7666016 ], [ -14.6050744, 81.7659526 ], [ -14.5968871, 81.7661566 ], [ -14.5893412, 81.7663164 ], [ -14.5821829, 81.7672505 ], [ -14.5660593, 81.7675824 ], [ -14.5601559, 81.7657608 ], [ -14.5592118, 81.763465 ], [ -14.5617524, 81.7613576 ], [ -14.5665589, 81.760194 ], [ -14.5669473, 81.7588517 ], [ -14.5631879, 81.7589501 ], [ -14.5590509, 81.7582931 ], [ -14.5583352, 81.7561392 ], [ -14.5516404, 81.7554672 ], [ -14.5466251, 81.7549232 ], [ -14.5556035, 81.7535861 ], [ -14.5603928, 81.7530838 ], [ -14.5726582, 81.7528597 ], [ -14.5785744, 81.7533448 ], [ -14.5846678, 81.7546372 ], [ -14.5936025, 81.7562165 ], [ -14.6034497, 81.7570681 ], [ -14.6070546, 81.7569155 ], [ -14.6107566, 81.7574113 ], [ -14.6052462, 81.7576918 ], [ -14.6046282, 81.7579847 ], [ -14.6088511, 81.7584055 ], [ -14.6194941, 81.7590502 ], [ -14.6276507, 81.7598097 ], [ -14.6400084, 81.7600336 ], [ -14.6488675, 81.7594874 ], [ -14.6593204, 81.7591996 ], [ -14.6645012, 81.7582775 ], [ -14.6572056, 81.7580634 ], [ -14.6539783, 81.7578025 ], [ -14.6520729, 81.7573916 ], [ -14.6665783, 81.7565386 ], [ -14.6692562, 81.7558424 ], [ -14.6825673, 81.7554436 ], [ -14.6886839, 81.754838 ], [ -14.698238, 81.7558497 ], [ -14.7045036, 81.7571142 ], [ -14.7065292, 81.7593006 ], [ -14.7201553, 81.7598911 ], [ -14.7207003, 81.7590324 ], [ -14.7222796, 81.7586587 ], [ -14.7244253, 81.7589023 ] ] ] ] } }
]
}
