{
"type": "FeatureCollection",
"name": "-160_65",
"crs": { "type": "name", "properties": { "name": "urn:ogc:def:crs:OGC:1.3:CRS84" } },
"xy_coordinate_resolution": 1e-15,
"features": [
{ "type": "Feature", "properties": { "FID": 537252, "id": 149, "left": -160.0, "top": 70.0, "right": -155.0, "bottom": 65.0, "row_index": 4, "col_index": 4, "min_lon": -160.0, "min_lat": 65.0, "tile_id": "-160_65" }, "geometry": { "type": "MultiPolygon", "coordinates": [ [ [ [ -155.0, 70.0 ], [ -155.0, 65.0 ], [ -160.0, 65.0 ], [ -160.0, 70.0 ], [ -155.0, 70.0 ] ] ] ] } }
]
}
