{
"type": "FeatureCollection",
"name": "-165_-10",
"crs": { "type": "name", "properties": { "name": "urn:ogc:def:crs:OGC:1.3:CRS84" } },
"xy_coordinate_resolution": 1e-15,
"features": [
{ "type": "Feature", "properties": { "FID": 341277, "id": 128, "left": -165.0, "top": -5.0, "right": -160.0, "bottom": -10.0, "row_index": 19, "col_index": 3, "min_lon": -165.0, "min_lat": -10.0, "tile_id": "-165_-10" }, "geometry": { "type": "MultiPolygon", "coordinates": [ [ [ [ -161.097224399999988, -9.9993113 ], [ -161.0973189, -9.9979504 ], [ -161.0973825, -9.9971654 ], [ -161.097110500000014, -9.9966455 ], [ -161.096327300000013, -9.9959851 ], [ -161.0955424, -9.9956962 ], [ -161.0945937, -9.9956181 ], [ -161.093709499999989, -9.9956523 ], [ -161.0929568, -9.9957292 ], [ -161.092127, -9.9959323 ], [ -161.091338400000012, -9.9961701 ], [ -161.089949, -9.9965504 ], [ -161.08898880000001, -9.9968674 ], [ -161.086403100000013, -9.9978342 ], [ -161.084439800000013, -9.9985897 ], [ -161.082562200000012, -9.9995564 ], [ -161.081870868326774, -10.0 ], [ -161.089521736730774, -10.0 ], [ -161.08989, -9.9997942 ], [ -161.0902548, -9.9996991 ], [ -161.0906813, -9.999604 ], [ -161.090906600000011, -9.9994983 ], [ -161.0911614, -9.9993451 ], [ -161.091574400000013, -9.9992025 ], [ -161.0919446, -9.9990915 ], [ -161.0924006, -9.9987957 ], [ -161.092797499999989, -9.9986319 ], [ -161.0931999, -9.9983625 ], [ -161.0935754, -9.9982727 ], [ -161.0938811, -9.9983414 ], [ -161.0941708, -9.9985368 ], [ -161.094444399999986, -9.9989172 ], [ -161.0947287, -9.9994455 ], [ -161.0950774, -9.9997942 ], [ -161.095187374161412, -10.0 ], [ -161.096973661080455, -10.0 ], [ -161.097224399999988, -9.9993113 ] ] ] ] } }
]
}
