{
"type": "FeatureCollection",
"name": "-165_-20",
"crs": { "type": "name", "properties": { "name": "urn:ogc:def:crs:OGC:1.3:CRS84" } },
"xy_coordinate_resolution": 1e-15,
"features": [
{ "type": "Feature", "properties": { "FID": 74940, "id": 130, "left": -165.0, "top": -15.0, "right": -160.0, "bottom": -20.0, "row_index": 21, "col_index": 3, "min_lon": -165.0, "min_lat": -20.0, "tile_id": "-165_-20" }, "geometry": { "type": "MultiPolygon", "coordinates": [ [ [ [ -163.1592808, -17.9972964 ], [ -163.160255, -17.9973 ], [ -163.1613332, -17.996999 ], [ -163.1627441, -17.9964786 ], [ -163.1631947, -17.9962949 ], [ -163.1635809, -17.9962541 ], [ -163.1654906, -17.9963358 ], [ -163.1672073, -17.9965143 ], [ -163.167340599999989, -17.9962628 ], [ -163.1671957, -17.9961051 ], [ -163.165630099999987, -17.9958357 ], [ -163.1643909, -17.9949736 ], [ -163.164171, -17.9944276 ], [ -163.1641924, -17.9939888 ], [ -163.165082899999987, -17.9927746 ], [ -163.1652546, -17.9925194 ], [ -163.1653101, -17.99211 ], [ -163.1650937, -17.9915041 ], [ -163.1652063, -17.9909072 ], [ -163.164931, -17.9903919 ], [ -163.1637955, -17.9901521 ], [ -163.161896500000012, -17.9905398 ], [ -163.1607003, -17.9906776 ], [ -163.1595898, -17.9909939 ], [ -163.159055599999988, -17.991297 ], [ -163.1584096, -17.9918562 ], [ -163.1576479, -17.9927746 ], [ -163.1570884, -17.9938587 ], [ -163.1569059, -17.9942512 ], [ -163.1569491, -17.9944929 ], [ -163.157094, -17.9946922 ], [ -163.157401099999987, -17.9949327 ], [ -163.157841, -17.9952133 ], [ -163.158184299999988, -17.9955246 ], [ -163.1584364, -17.9959684 ], [ -163.1585679, -17.9964123 ], [ -163.15847930000001, -17.9968077 ], [ -163.1581038, -17.9971878 ], [ -163.1580152, -17.9974606 ], [ -163.158291600000013, -17.9975449 ], [ -163.1592808, -17.9972964 ] ] ] ] } },
{ "type": "Feature", "properties": { "FID": 74960, "id": 130, "left": -165.0, "top": -15.0, "right": -160.0, "bottom": -20.0, "row_index": 21, "col_index": 3, "min_lon": -165.0, "min_lat": -20.0, "tile_id": "-165_-20" }, "geometry": { "type": "MultiPolygon", "coordinates": [ [ [ [ -163.1546397, -18.0023496 ], [ -163.1538606, -18.0026825 ], [ -163.1532444, -18.0026023 ], [ -163.153046, -18.0027705 ], [ -163.153197, -18.0029973 ], [ -163.1536664, -18.0032345 ], [ -163.1546559, -18.0026706 ], [ -163.1546397, -18.0023496 ] ] ] ] } },
{ "type": "Feature", "properties": { "FID": 75609, "id": 130, "left": -165.0, "top": -15.0, "right": -160.0, "bottom": -20.0, "row_index": 21, "col_index": 3, "min_lon": -165.0, "min_lat": -20.0, "tile_id": "-165_-20" }, "geometry": { "type": "MultiPolygon", "coordinates": [ [ [ [ -163.11696950000001, -18.0488425 ], [ -163.118029299999989, -18.0486493 ], [ -163.1185176, -18.0484353 ], [ -163.1196496, -18.0481501 ], [ -163.119923300000011, -18.047732 ], [ -163.1204651, -18.0473856 ], [ -163.1203365, -18.0471358 ], [ -163.119931400000013, -18.0473167 ], [ -163.1196577, -18.0473777 ], [ -163.1186437, -18.0478108 ], [ -163.1179569, -18.0480196 ], [ -163.116898099999986, -18.0483201 ], [ -163.1166834, -18.0486362 ], [ -163.11696950000001, -18.0488425 ] ] ] ] } },
{ "type": "Feature", "properties": { "FID": 75612, "id": 130, "left": -165.0, "top": -15.0, "right": -160.0, "bottom": -20.0, "row_index": 21, "col_index": 3, "min_lon": -165.0, "min_lat": -20.0, "tile_id": "-165_-20" }, "geometry": { "type": "MultiPolygon", "coordinates": [ [ [ [ -163.1258439, -18.055302 ], [ -163.125916499999988, -18.0550599 ], [ -163.1256473, -18.0550572 ], [ -163.1256875, -18.0554524 ], [ -163.1258439, -18.055302 ] ] ] ] } },
{ "type": "Feature", "properties": { "FID": 75614, "id": 130, "left": -165.0, "top": -15.0, "right": -160.0, "bottom": -20.0, "row_index": 21, "col_index": 3, "min_lon": -165.0, "min_lat": -20.0, "tile_id": "-165_-20" }, "geometry": { "type": "MultiPolygon", "coordinates": [ [ [ [ -163.1231353, -18.0565788 ], [ -163.1232348, -18.0562857 ], [ -163.1226105, -18.0565049 ], [ -163.1221998, -18.0571102 ], [ -163.1226397, -18.0572734 ], [ -163.1228707, -18.0570479 ], [ -163.1231353, -18.0565788 ] ] ] ] } },
{ "type": "Feature", "properties": { "FID": 75619, "id": 130, "left": -165.0, "top": -15.0, "right": -160.0, "bottom": -20.0, "row_index": 21, "col_index": 3, "min_lon": -165.0, "min_lat": -20.0, "tile_id": "-165_-20" }, "geometry": { "type": "MultiPolygon", "coordinates": [ [ [ [ -163.119884899999988, -18.045556 ], [ -163.120274, -18.0455935 ], [ -163.12060120000001, -18.045313 ], [ -163.1211633, -18.0447807 ], [ -163.120867299999986, -18.0441455 ], [ -163.120438299999989, -18.0441457 ], [ -163.1197104, -18.044365 ], [ -163.1189789, -18.0447113 ], [ -163.117683199999988, -18.0447134 ], [ -163.1172004, -18.0448868 ], [ -163.1166934, -18.0456082 ], [ -163.1166498, -18.0460397 ], [ -163.119884899999988, -18.045556 ] ] ] ] } },
{ "type": "Feature", "properties": { "FID": 75627, "id": 130, "left": -165.0, "top": -15.0, "right": -160.0, "bottom": -20.0, "row_index": 21, "col_index": 3, "min_lon": -165.0, "min_lat": -20.0, "tile_id": "-165_-20" }, "geometry": { "type": "MultiPolygon", "coordinates": [ [ [ [ -163.1223898, -18.0464888 ], [ -163.1220553, -18.046295 ], [ -163.1216128, -18.0458234 ], [ -163.1215614, -18.0456496 ], [ -163.1214071, -18.0456192 ], [ -163.1214473, -18.04605 ], [ -163.121668199999988, -18.0463943 ], [ -163.1220783, -18.0466109 ], [ -163.1226471, -18.0467641 ], [ -163.1223898, -18.0464888 ] ] ] ] } },
{ "type": "Feature", "properties": { "FID": 75638, "id": 130, "left": -165.0, "top": -15.0, "right": -160.0, "bottom": -20.0, "row_index": 21, "col_index": 3, "min_lon": -165.0, "min_lat": -20.0, "tile_id": "-165_-20" }, "geometry": { "type": "MultiPolygon", "coordinates": [ [ [ [ -163.1344545, -18.0715184 ], [ -163.1348386, -18.0713342 ], [ -163.13543150000001, -18.0711189 ], [ -163.1360628, -18.0710487 ], [ -163.136573, -18.0709039 ], [ -163.1369072, -18.0707318 ], [ -163.13735650000001, -18.0701973 ], [ -163.1379418, -18.0698471 ], [ -163.1385723, -18.0697046 ], [ -163.138630400000011, -18.0692481 ], [ -163.1382013, -18.069103 ], [ -163.1378794, -18.0689173 ], [ -163.1374997, -18.0685643 ], [ -163.13717650000001, -18.068229 ], [ -163.1370602, -18.0679375 ], [ -163.137036200000011, -18.0674814 ], [ -163.136689, -18.0673919 ], [ -163.136203200000011, -18.0673789 ], [ -163.1359468, -18.0674249 ], [ -163.1357214, -18.0675421 ], [ -163.1355409, -18.0677582 ], [ -163.1354244, -18.0680621 ], [ -163.1352794, -18.06831 ], [ -163.13499250000001, -18.0685618 ], [ -163.1347151, -18.0687476 ], [ -163.1346264, -18.0688494 ], [ -163.13456930000001, -18.0692142 ], [ -163.1345452, -18.0696144 ], [ -163.1344584, -18.0698208 ], [ -163.134373399999987, -18.0701116 ], [ -163.1341397, -18.0703722 ], [ -163.1339873, -18.0706238 ], [ -163.133951200000013, -18.0709424 ], [ -163.13403, -18.0711308 ], [ -163.1340777, -18.0713179 ], [ -163.134217400000011, -18.0715591 ], [ -163.1344545, -18.0715184 ] ] ] ] } },
{ "type": "Feature", "properties": { "FID": 75651, "id": 130, "left": -165.0, "top": -15.0, "right": -160.0, "bottom": -20.0, "row_index": 21, "col_index": 3, "min_lon": -165.0, "min_lat": -20.0, "tile_id": "-165_-20" }, "geometry": { "type": "MultiPolygon", "coordinates": [ [ [ [ -163.1893542, -18.0595455 ], [ -163.1899541, -18.0595992 ], [ -163.1903064, -18.059645 ], [ -163.19070880000001, -18.0594919 ], [ -163.1912022, -18.0593836 ], [ -163.1916261, -18.0591288 ], [ -163.1919436, -18.0588676 ], [ -163.1925709, -18.0584154 ], [ -163.193387800000011, -18.0576954 ], [ -163.1938058, -18.05734 ], [ -163.1939328, -18.0572122 ], [ -163.1940079, -18.0570388 ], [ -163.1940186, -18.0568093 ], [ -163.194028800000012, -18.0565267 ], [ -163.1940588, -18.0561131 ], [ -163.1939998, -18.0559295 ], [ -163.193889899999988, -18.0558861 ], [ -163.193804, -18.0556438 ], [ -163.1937404, -18.0550989 ], [ -163.193830600000013, -18.0546474 ], [ -163.193820100000011, -18.0544937 ], [ -163.193734299999988, -18.054277 ], [ -163.193530399999986, -18.0542183 ], [ -163.193329299999988, -18.0541724 ], [ -163.1929907, -18.0542501 ], [ -163.1926617, -18.0542043 ], [ -163.191242499999987, -18.0536573 ], [ -163.191068199999989, -18.0536879 ], [ -163.1900426, -18.0532894 ], [ -163.1896788, -18.0529738 ], [ -163.189568799999989, -18.052933 ], [ -163.1893891, -18.0529509 ], [ -163.189260100000013, -18.0529879 ], [ -163.1890807, -18.0530937 ], [ -163.1888317, -18.0532366 ], [ -163.1885332, -18.0534399 ], [ -163.1883377, -18.0536369 ], [ -163.1882331, -18.0537618 ], [ -163.1881048, -18.0540399 ], [ -163.188002399999988, -18.0543586 ], [ -163.1879059, -18.0548278 ], [ -163.1877379, -18.0553152 ], [ -163.1874833, -18.0560312 ], [ -163.1873989, -18.0562482 ], [ -163.1872085, -18.0565899 ], [ -163.1871879, -18.0568043 ], [ -163.187246, -18.0572938 ], [ -163.1872425, -18.0577939 ], [ -163.187170900000012, -18.0583954 ], [ -163.1871692, -18.0588383 ], [ -163.1872138, -18.0590329 ], [ -163.1872702, -18.0591477 ], [ -163.18739690000001, -18.0592614 ], [ -163.1875867, -18.0593415 ], [ -163.18782, -18.059344 ], [ -163.1883489, -18.0593229 ], [ -163.188670300000013, -18.0593721 ], [ -163.188885, -18.059442 ], [ -163.1893542, -18.0595455 ] ] ] ] } },
{ "type": "Feature", "properties": { "FID": 75659, "id": 130, "left": -165.0, "top": -15.0, "right": -160.0, "bottom": -20.0, "row_index": 21, "col_index": 3, "min_lon": -165.0, "min_lat": -20.0, "tile_id": "-165_-20" }, "geometry": { "type": "MultiPolygon", "coordinates": [ [ [ [ -163.1254935, -18.0313777 ], [ -163.1253916, -18.0314542 ], [ -163.1252441, -18.0314848 ], [ -163.1250536, -18.0313471 ], [ -163.1249003, -18.0312988 ], [ -163.1247667, -18.0313599 ], [ -163.124679500000013, -18.031518 ], [ -163.1246969, -18.0318904 ], [ -163.1248258, -18.0323218 ], [ -163.1250081, -18.0333685 ], [ -163.1252065, -18.0337599 ], [ -163.125233400000013, -18.034145 ], [ -163.125252100000012, -18.0344918 ], [ -163.1256267, -18.03498 ], [ -163.1258449, -18.0353029 ], [ -163.125839500000012, -18.035359 ], [ -163.1256974, -18.0352723 ], [ -163.1255686, -18.0352621 ], [ -163.1253567, -18.0354049 ], [ -163.125338, -18.0356523 ], [ -163.1254265, -18.0358359 ], [ -163.1256598, -18.0358257 ], [ -163.1259511, -18.0357831 ], [ -163.126138, -18.0356377 ], [ -163.1264759, -18.0353293 ], [ -163.127185200000014, -18.0347967 ], [ -163.127414, -18.0346398 ], [ -163.1274669, -18.0345061 ], [ -163.1277332, -18.034372 ], [ -163.1276608, -18.0346194 ], [ -163.1277359, -18.0346398 ], [ -163.1278887, -18.0344842 ], [ -163.12807380000001, -18.0344204 ], [ -163.1284976, -18.0343184 ], [ -163.1285943, -18.0340693 ], [ -163.1285512, -18.0337446 ], [ -163.1281832, -18.03339 ], [ -163.1276086, -18.0326841 ], [ -163.1274422, -18.0323373 ], [ -163.126988899999986, -18.0317581 ], [ -163.1266925, -18.0316991 ], [ -163.126494, -18.0317628 ], [ -163.1264108, -18.0319898 ], [ -163.1266415, -18.0322831 ], [ -163.1269366, -18.0327091 ], [ -163.127143100000012, -18.0330763 ], [ -163.1273147, -18.0333543 ], [ -163.1274864, -18.0336578 ], [ -163.127574900000013, -18.0338466 ], [ -163.1275588, -18.0339231 ], [ -163.127467599999989, -18.0339715 ], [ -163.127363, -18.0339027 ], [ -163.1273067, -18.0337548 ], [ -163.1270599, -18.0333569 ], [ -163.1268695, -18.0330228 ], [ -163.1266549, -18.0325994 ], [ -163.1264806, -18.0323137 ], [ -163.126258, -18.0321072 ], [ -163.1258583, -18.0317195 ], [ -163.1256974, -18.0314339 ], [ -163.1254935, -18.0313777 ] ] ] ] } },
{ "type": "Feature", "properties": { "FID": 75661, "id": 130, "left": -165.0, "top": -15.0, "right": -160.0, "bottom": -20.0, "row_index": 21, "col_index": 3, "min_lon": -165.0, "min_lat": -20.0, "tile_id": "-165_-20" }, "geometry": { "type": "MultiPolygon", "coordinates": [ [ [ [ -163.1331915, -18.03004 ], [ -163.1332491, -18.0299546 ], [ -163.133285300000011, -18.029776 ], [ -163.1333564, -18.0296013 ], [ -163.133462400000013, -18.02946 ], [ -163.133502600000014, -18.0292952 ], [ -163.133347, -18.0292315 ], [ -163.1332035, -18.0291244 ], [ -163.1331566, -18.029095 ], [ -163.1331606, -18.0289764 ], [ -163.1329647, -18.0287619 ], [ -163.132659, -18.0284931 ], [ -163.13249540000001, -18.0283528 ], [ -163.132318199999986, -18.0282791 ], [ -163.132101, -18.0282671 ], [ -163.131880700000011, -18.0282533 ], [ -163.1318263, -18.0285441 ], [ -163.131706900000012, -18.0287392 ], [ -163.131711599999988, -18.0289395 ], [ -163.131862399999989, -18.0291269 ], [ -163.132132, -18.0293222 ], [ -163.1329232, -18.0299405 ], [ -163.1331137, -18.0299597 ], [ -163.1331353, -18.03004 ], [ -163.1331915, -18.03004 ] ] ] ] } },
{ "type": "Feature", "properties": { "FID": 75673, "id": 130, "left": -165.0, "top": -15.0, "right": -160.0, "bottom": -20.0, "row_index": 21, "col_index": 3, "min_lon": -165.0, "min_lat": -20.0, "tile_id": "-165_-20" }, "geometry": { "type": "MultiPolygon", "coordinates": [ [ [ [ -163.1397569, -18.0170852 ], [ -163.139483899999988, -18.0167629 ], [ -163.1392654, -18.0163152 ], [ -163.1388336, -18.0156345 ], [ -163.1385441, -18.0154714 ], [ -163.1385224, -18.0161237 ], [ -163.1385564, -18.0164043 ], [ -163.139417400000013, -18.0175951 ], [ -163.140074, -18.0178035 ], [ -163.1403791, -18.0173703 ], [ -163.1397569, -18.0170852 ] ] ] ] } },
{ "type": "Feature", "properties": { "FID": 75677, "id": 130, "left": -165.0, "top": -15.0, "right": -160.0, "bottom": -20.0, "row_index": 21, "col_index": 3, "min_lon": -165.0, "min_lat": -20.0, "tile_id": "-165_-20" }, "geometry": { "type": "MultiPolygon", "coordinates": [ [ [ [ -163.1499607, -18.0094821 ], [ -163.1485927, -18.0091821 ], [ -163.147549700000013, -18.008429 ], [ -163.1475442, -18.008944 ], [ -163.1478358, -18.0093266 ], [ -163.148755599999987, -18.0098901 ], [ -163.149239099999988, -18.0098925 ], [ -163.1499607, -18.0094821 ] ] ] ] } },
{ "type": "Feature", "properties": { "FID": 75683, "id": 130, "left": -165.0, "top": -15.0, "right": -160.0, "bottom": -20.0, "row_index": 21, "col_index": 3, "min_lon": -165.0, "min_lat": -20.0, "tile_id": "-165_-20" }, "geometry": { "type": "MultiPolygon", "coordinates": [ [ [ [ -163.1361756, -18.0175485 ], [ -163.1356193, -18.0177469 ], [ -163.135791899999987, -18.0181475 ], [ -163.135789, -18.0184049 ], [ -163.1363082, -18.0188035 ], [ -163.1368627, -18.0186727 ], [ -163.1361756, -18.0175485 ] ] ] ] } },
{ "type": "Feature", "properties": { "FID": 75688, "id": 130, "left": -165.0, "top": -15.0, "right": -160.0, "bottom": -20.0, "row_index": 21, "col_index": 3, "min_lon": -165.0, "min_lat": -20.0, "tile_id": "-165_-20" }, "geometry": { "type": "MultiPolygon", "coordinates": [ [ [ [ -163.1380034, -18.0179158 ], [ -163.1373361, -18.0174421 ], [ -163.1369373, -18.0166004 ], [ -163.1367266, -18.0169363 ], [ -163.1368057, -18.0175509 ], [ -163.1371929, -18.0178903 ], [ -163.1374155, -18.018413 ], [ -163.1379948, -18.0184129 ], [ -163.1380034, -18.0179158 ] ] ] ] } },
{ "type": "Feature", "properties": { "FID": 75695, "id": 130, "left": -165.0, "top": -15.0, "right": -160.0, "bottom": -20.0, "row_index": 21, "col_index": 3, "min_lon": -165.0, "min_lat": -20.0, "tile_id": "-165_-20" }, "geometry": { "type": "MultiPolygon", "coordinates": [ [ [ [ -163.11911520000001, -18.0418344 ], [ -163.1186486, -18.0420231 ], [ -163.1180316, -18.0421608 ], [ -163.1175059, -18.0422424 ], [ -163.117085300000014, -18.0425182 ], [ -163.117194899999987, -18.0429523 ], [ -163.1175002, -18.0430366 ], [ -163.1178593, -18.0430446 ], [ -163.118193, -18.0430675 ], [ -163.11852540000001, -18.0430001 ], [ -163.118793399999987, -18.0429612 ], [ -163.1190346, -18.0429675 ], [ -163.1193161, -18.0429088 ], [ -163.1196138, -18.0426345 ], [ -163.120105099999989, -18.0423075 ], [ -163.1203894, -18.0420171 ], [ -163.1199398, -18.0417545 ], [ -163.11950250000001, -18.0417011 ], [ -163.11911520000001, -18.0418344 ] ] ] ] } },
{ "type": "Feature", "properties": { "FID": 75709, "id": 130, "left": -165.0, "top": -15.0, "right": -160.0, "bottom": -20.0, "row_index": 21, "col_index": 3, "min_lon": -165.0, "min_lat": -20.0, "tile_id": "-165_-20" }, "geometry": { "type": "MultiPolygon", "coordinates": [ [ [ [ -163.1218752, -18.0389703 ], [ -163.1223613, -18.0383679 ], [ -163.1226826, -18.0381364 ], [ -163.1229138, -18.0379778 ], [ -163.1235651, -18.0370218 ], [ -163.1238171, -18.0367311 ], [ -163.1240103, -18.0365322 ], [ -163.1240645, -18.0363812 ], [ -163.1241417, -18.0361981 ], [ -163.124165799999986, -18.0360272 ], [ -163.1239754, -18.0359226 ], [ -163.12385470000001, -18.0360705 ], [ -163.123768899999988, -18.0362465 ], [ -163.12348990000001, -18.0362669 ], [ -163.1232458, -18.0362822 ], [ -163.122997, -18.0362231 ], [ -163.1228137, -18.0359659 ], [ -163.1227523, -18.0356344 ], [ -163.12268850000001, -18.0353279 ], [ -163.122511800000012, -18.0347041 ], [ -163.1224554, -18.0342707 ], [ -163.1223666, -18.0332033 ], [ -163.12215470000001, -18.0328769 ], [ -163.1221756, -18.0325917 ], [ -163.1220496, -18.0322729 ], [ -163.121810900000014, -18.032074 ], [ -163.1215829, -18.0321658 ], [ -163.1215373, -18.0325076 ], [ -163.1214166, -18.0325407 ], [ -163.1212395, -18.0323214 ], [ -163.1210867, -18.0320842 ], [ -163.1208345, -18.0321301 ], [ -163.1205449, -18.0317986 ], [ -163.1203147, -18.0316935 ], [ -163.120129100000014, -18.0317986 ], [ -163.120333, -18.032556 ], [ -163.1202671, -18.0326089 ], [ -163.1201077, -18.0324336 ], [ -163.119809299999986, -18.0322388 ], [ -163.1192359, -18.0322423 ], [ -163.11867860000001, -18.0322776 ], [ -163.118420500000013, -18.0323903 ], [ -163.1182308, -18.0325835 ], [ -163.1182677, -18.0331248 ], [ -163.1180913, -18.0333589 ], [ -163.1178895, -18.0336502 ], [ -163.1177451, -18.0339634 ], [ -163.1172516, -18.0347336 ], [ -163.1172377, -18.0350376 ], [ -163.1170875, -18.0353845 ], [ -163.117009700000011, -18.0357441 ], [ -163.1170258, -18.0360884 ], [ -163.1171036, -18.0364072 ], [ -163.1172833, -18.0365322 ], [ -163.1176212, -18.0367107 ], [ -163.117921700000011, -18.036953 ], [ -163.1181684, -18.0372412 ], [ -163.1185171, -18.0376339 ], [ -163.1187424, -18.0378941 ], [ -163.118806799999987, -18.0381109 ], [ -163.119067, -18.0382843 ], [ -163.1195605, -18.0387025 ], [ -163.1198072, -18.0388989 ], [ -163.1200433, -18.0390137 ], [ -163.1204966, -18.0390647 ], [ -163.12057440000001, -18.0390137 ], [ -163.1205449, -18.0389066 ], [ -163.1205958, -18.038904 ], [ -163.1206951, -18.0390035 ], [ -163.1208694, -18.0391667 ], [ -163.121073200000012, -18.0392917 ], [ -163.1212181, -18.0394932 ], [ -163.1216559, -18.0395284 ], [ -163.1218752, -18.0389703 ] ] ] ] } },
{ "type": "Feature", "properties": { "FID": 75783, "id": 130, "left": -165.0, "top": -15.0, "right": -160.0, "bottom": -20.0, "row_index": 21, "col_index": 3, "min_lon": -165.0, "min_lat": -20.0, "tile_id": "-165_-20" }, "geometry": { "type": "MultiPolygon", "coordinates": [ [ [ [ -163.1763033, -18.0888669 ], [ -163.176498400000014, -18.0883819 ], [ -163.1763113, -18.0880945 ], [ -163.1755063, -18.0878295 ], [ -163.1757235, -18.0882652 ], [ -163.175918599999989, -18.0885967 ], [ -163.176034, -18.0888645 ], [ -163.1763033, -18.0888669 ] ] ] ] } },
{ "type": "Feature", "properties": { "FID": 75791, "id": 130, "left": -165.0, "top": -15.0, "right": -160.0, "bottom": -20.0, "row_index": 21, "col_index": 3, "min_lon": -165.0, "min_lat": -20.0, "tile_id": "-165_-20" }, "geometry": { "type": "MultiPolygon", "coordinates": [ [ [ [ -163.174395800000013, -18.0869264 ], [ -163.1747709, -18.0868252 ], [ -163.176306, -18.0860101 ], [ -163.1770105, -18.0847488 ], [ -163.1774451, -18.0832142 ], [ -163.177503, -18.0815715 ], [ -163.1779975, -18.0803807 ], [ -163.178005399999989, -18.0796082 ], [ -163.1781011, -18.0793712 ], [ -163.1777442, -18.0788333 ], [ -163.1761227, -18.0788665 ], [ -163.1756077, -18.0782495 ], [ -163.1752651, -18.078604 ], [ -163.1752275, -18.0787417 ], [ -163.1747578, -18.0792339 ], [ -163.174116, -18.0797896 ], [ -163.173088, -18.0803919 ], [ -163.172834099999989, -18.0812196 ], [ -163.172829400000012, -18.0821991 ], [ -163.1732754, -18.0833125 ], [ -163.1732371, -18.0858374 ], [ -163.1733639, -18.0863139 ], [ -163.1736053, -18.0865861 ], [ -163.1738163, -18.0867469 ], [ -163.1741058, -18.0868657 ], [ -163.174395800000013, -18.0869264 ] ] ] ] } },
{ "type": "Feature", "properties": { "FID": 75797, "id": 130, "left": -165.0, "top": -15.0, "right": -160.0, "bottom": -20.0, "row_index": 21, "col_index": 3, "min_lon": -165.0, "min_lat": -20.0, "tile_id": "-165_-20" }, "geometry": { "type": "MultiPolygon", "coordinates": [ [ [ [ -163.1768954, -18.0775404 ], [ -163.176702299999988, -18.0774282 ], [ -163.1760746, -18.0772803 ], [ -163.175870800000013, -18.0771222 ], [ -163.175452400000012, -18.0771069 ], [ -163.1750241, -18.0771485 ], [ -163.17489, -18.0774797 ], [ -163.177752199999986, -18.0780609 ], [ -163.178166800000014, -18.0779535 ], [ -163.1777574, -18.077546 ], [ -163.1772192, -18.0775409 ], [ -163.1768954, -18.0775404 ] ] ] ] } },
{ "type": "Feature", "properties": { "FID": 75803, "id": 130, "left": -165.0, "top": -15.0, "right": -160.0, "bottom": -20.0, "row_index": 21, "col_index": 3, "min_lon": -165.0, "min_lat": -20.0, "tile_id": "-165_-20" }, "geometry": { "type": "MultiPolygon", "coordinates": [ [ [ [ -163.137316700000014, -18.0751232 ], [ -163.1374994, -18.0748995 ], [ -163.1379297, -18.0740253 ], [ -163.1380486, -18.0735281 ], [ -163.138359900000012, -18.0727328 ], [ -163.1381111, -18.0727989 ], [ -163.1376278, -18.0740063 ], [ -163.1371596, -18.0749148 ], [ -163.137316700000014, -18.0751232 ] ] ] ] } },
{ "type": "Feature", "properties": { "FID": 75806, "id": 130, "left": -165.0, "top": -15.0, "right": -160.0, "bottom": -20.0, "row_index": 21, "col_index": 3, "min_lon": -165.0, "min_lat": -20.0, "tile_id": "-165_-20" }, "geometry": { "type": "MultiPolygon", "coordinates": [ [ [ [ -163.1362698, -18.0743244 ], [ -163.1365587, -18.0739255 ], [ -163.1367535, -18.0736146 ], [ -163.137643200000014, -18.0726978 ], [ -163.1379684, -18.0722739 ], [ -163.137971099999987, -18.0720165 ], [ -163.137526400000013, -18.0721717 ], [ -163.1365865, -18.0732652 ], [ -163.1357672, -18.0741065 ], [ -163.1359651, -18.07438 ], [ -163.1362698, -18.0743244 ] ] ] ] } },
{ "type": "Feature", "properties": { "FID": 75829, "id": 130, "left": -165.0, "top": -15.0, "right": -160.0, "bottom": -20.0, "row_index": 21, "col_index": 3, "min_lon": -165.0, "min_lat": -20.0, "tile_id": "-165_-20" }, "geometry": { "type": "MultiPolygon", "coordinates": [ [ [ [ -163.160118, -18.0912766 ], [ -163.160218500000013, -18.0906003 ], [ -163.1604089, -18.0898362 ], [ -163.1612428, -18.0892771 ], [ -163.1625152, -18.0882447 ], [ -163.1640017, -18.0870608 ], [ -163.164684099999988, -18.086361 ], [ -163.164965099999989, -18.0858766 ], [ -163.1651966, -18.0846339 ], [ -163.1649935, -18.0842045 ], [ -163.164553399999988, -18.0844084 ], [ -163.1641501, -18.084676 ], [ -163.1634535, -18.0850661 ], [ -163.163107599999989, -18.0852115 ], [ -163.162398599999989, -18.0853006 ], [ -163.161406, -18.0851628 ], [ -163.1604408, -18.0852594 ], [ -163.1595457, -18.0859194 ], [ -163.1592044, -18.0863732 ], [ -163.1590837, -18.0868959 ], [ -163.1591675, -18.087105 ], [ -163.1590869, -18.087467 ], [ -163.1587418, -18.0874413 ], [ -163.158096300000011, -18.0872732 ], [ -163.1575501, -18.0875723 ], [ -163.1572491, -18.0876938 ], [ -163.1571884, -18.0879078 ], [ -163.1566473, -18.0881601 ], [ -163.1563727, -18.0886725 ], [ -163.15638340000001, -18.0876426 ], [ -163.1559385, -18.0875498 ], [ -163.155850500000014, -18.0871225 ], [ -163.1574711, -18.0866229 ], [ -163.1574764, -18.0861081 ], [ -163.1553146, -18.0868599 ], [ -163.1550374, -18.0872218 ], [ -163.1550484, -18.0875685 ], [ -163.1553039, -18.0878898 ], [ -163.1553897, -18.0882976 ], [ -163.1552495, -18.0885805 ], [ -163.155290400000013, -18.0891771 ], [ -163.156277499999987, -18.0904863 ], [ -163.156813199999988, -18.0914993 ], [ -163.1573271, -18.0917296 ], [ -163.1590342, -18.0917113 ], [ -163.1596422, -18.0917722 ], [ -163.160118, -18.0912766 ] ] ] ] } },
{ "type": "Feature", "properties": { "FID": 531972, "id": 130, "left": -165.0, "top": -15.0, "right": -160.0, "bottom": -20.0, "row_index": 21, "col_index": 3, "min_lon": -165.0, "min_lat": -20.0, "tile_id": "-165_-20" }, "geometry": { "type": "MultiPolygon", "coordinates": [ [ [ [ -163.1169534, -18.0419721 ], [ -163.1172752, -18.0418905 ], [ -163.1176615, -18.0418701 ], [ -163.118326700000011, -18.0418089 ], [ -163.118820199999988, -18.0416558 ], [ -163.1193352, -18.0414926 ], [ -163.1193245, -18.0412478 ], [ -163.1188095, -18.0410846 ], [ -163.118044700000013, -18.0412449 ], [ -163.1172225, -18.0415215 ], [ -163.1162549, -18.0421178 ], [ -163.1166183, -18.0422473 ], [ -163.1169534, -18.0419721 ] ] ] ] } },
{ "type": "Feature", "properties": { "FID": 531973, "id": 130, "left": -165.0, "top": -15.0, "right": -160.0, "bottom": -20.0, "row_index": 21, "col_index": 3, "min_lon": -165.0, "min_lat": -20.0, "tile_id": "-165_-20" }, "geometry": { "type": "MultiPolygon", "coordinates": [ [ [ [ -163.156848599999989, -17.9988 ], [ -163.1569237, -17.9986214 ], [ -163.1569237, -17.9984633 ], [ -163.1569183, -17.9982796 ], [ -163.1567466, -17.9981061 ], [ -163.1564301, -17.9979786 ], [ -163.1558776, -17.9976062 ], [ -163.155663, -17.9974174 ], [ -163.1554002, -17.9972695 ], [ -163.1550622, -17.997295 ], [ -163.15491750000001, -17.9975363 ], [ -163.15489070000001, -17.997923 ], [ -163.1550455, -17.9983284 ], [ -163.1553862, -17.9984523 ], [ -163.1556759, -17.9987892 ], [ -163.1560634, -17.998889 ], [ -163.1567709, -17.9988117 ], [ -163.156848599999989, -17.9988 ] ] ] ] } },
{ "type": "Feature", "properties": { "FID": 531974, "id": 130, "left": -165.0, "top": -15.0, "right": -160.0, "bottom": -20.0, "row_index": 21, "col_index": 3, "min_lon": -165.0, "min_lat": -20.0, "tile_id": "-165_-20" }, "geometry": { "type": "MultiPolygon", "coordinates": [ [ [ [ -163.1755972, -18.0763777 ], [ -163.175715200000013, -18.0764083 ], [ -163.1760961, -18.0765052 ], [ -163.176235600000012, -18.076495 ], [ -163.1766915, -18.0763828 ], [ -163.1770778, -18.0764134 ], [ -163.177377799999988, -18.0765356 ], [ -163.178210799999988, -18.0766563 ], [ -163.177770900000013, -18.0762586 ], [ -163.1759979, -18.0758765 ], [ -163.175581099999988, -18.076036 ], [ -163.1755536, -18.0762306 ], [ -163.1755972, -18.0763777 ] ] ] ] } },
{ "type": "Feature", "properties": { "FID": 656753, "id": 130, "left": -165.0, "top": -15.0, "right": -160.0, "bottom": -20.0, "row_index": 21, "col_index": 3, "min_lon": -165.0, "min_lat": -20.0, "tile_id": "-165_-20" }, "geometry": { "type": "MultiPolygon", "coordinates": [ [ [ [ -163.1797609, -18.0619574 ], [ -163.1797235, -18.0620782 ], [ -163.1798057, -18.0623197 ], [ -163.1799327, -18.0625328 ], [ -163.1800672, -18.0625257 ], [ -163.180171800000011, -18.0623055 ], [ -163.180119499999989, -18.0619361 ], [ -163.1797609, -18.0619574 ] ] ] ] } },
{ "type": "Feature", "properties": { "FID": 656754, "id": 130, "left": -165.0, "top": -15.0, "right": -160.0, "bottom": -20.0, "row_index": 21, "col_index": 3, "min_lon": -165.0, "min_lat": -20.0, "tile_id": "-165_-20" }, "geometry": { "type": "MultiPolygon", "coordinates": [ [ [ [ -163.179910299999989, -18.0627956 ], [ -163.1797235, -18.0627956 ], [ -163.1795965, -18.0629306 ], [ -163.1795292, -18.063165 ], [ -163.1795367, -18.0633568 ], [ -163.1796189, -18.0635344 ], [ -163.1796189, -18.0637191 ], [ -163.179701099999988, -18.0638186 ], [ -163.179873, -18.063847 ], [ -163.180082199999987, -18.0636978 ], [ -163.180194300000011, -18.0635273 ], [ -163.180194300000011, -18.0631153 ], [ -163.180127, -18.0628098 ], [ -163.179910299999989, -18.0627956 ] ] ] ] } },
{ "type": "Feature", "properties": { "FID": 656755, "id": 130, "left": -165.0, "top": -15.0, "right": -160.0, "bottom": -20.0, "row_index": 21, "col_index": 3, "min_lon": -165.0, "min_lat": -20.0, "tile_id": "-165_-20" }, "geometry": { "type": "MultiPolygon", "coordinates": [ [ [ [ -163.1792178, -18.0645993 ], [ -163.1789576, -18.0647044 ], [ -163.1787234, -18.0649394 ], [ -163.178625899999986, -18.0651311 ], [ -163.1786649, -18.0653909 ], [ -163.1790747, -18.0653909 ], [ -163.179302400000012, -18.0652796 ], [ -163.1795756, -18.0651435 ], [ -163.17969260000001, -18.0649394 ], [ -163.1797772, -18.0646179 ], [ -163.1796081, -18.0644942 ], [ -163.1792178, -18.0645993 ] ] ] ] } },
{ "type": "Feature", "properties": { "FID": 656756, "id": 130, "left": -165.0, "top": -15.0, "right": -160.0, "bottom": -20.0, "row_index": 21, "col_index": 3, "min_lon": -165.0, "min_lat": -20.0, "tile_id": "-165_-20" }, "geometry": { "type": "MultiPolygon", "coordinates": [ [ [ [ -163.1785548, -18.0666896 ], [ -163.178435900000011, -18.0667704 ], [ -163.1783849, -18.0668996 ], [ -163.178175399999986, -18.0669642 ], [ -163.1779885, -18.0670341 ], [ -163.177943199999987, -18.0671957 ], [ -163.1778866, -18.0673356 ], [ -163.1779206, -18.0674864 ], [ -163.1780168, -18.0676532 ], [ -163.1781641, -18.0676371 ], [ -163.1782886, -18.0675402 ], [ -163.1783962, -18.0674002 ], [ -163.1784982, -18.0674056 ], [ -163.178741699999989, -18.0675079 ], [ -163.1789229, -18.0674971 ], [ -163.179132399999986, -18.067341 ], [ -163.1792513, -18.067131 ], [ -163.179189, -18.0669857 ], [ -163.1789568, -18.0669695 ], [ -163.178764300000012, -18.0668834 ], [ -163.1787473, -18.0666465 ], [ -163.1785548, -18.0666896 ] ] ] ] } },
{ "type": "Feature", "properties": { "FID": 656757, "id": 130, "left": -165.0, "top": -15.0, "right": -160.0, "bottom": -20.0, "row_index": 21, "col_index": 3, "min_lon": -165.0, "min_lat": -20.0, "tile_id": "-165_-20" }, "geometry": { "type": "MultiPolygon", "coordinates": [ [ [ [ -163.1757619, -18.0697051 ], [ -163.1755527, -18.0696198 ], [ -163.1753808, -18.0696553 ], [ -163.1754032, -18.0698542 ], [ -163.175478, -18.0700247 ], [ -163.1756423, -18.0701739 ], [ -163.175791800000013, -18.0703089 ], [ -163.1760085, -18.0703231 ], [ -163.1761878, -18.0703089 ], [ -163.1766137, -18.0701313 ], [ -163.1765838, -18.0698969 ], [ -163.176397, -18.0698116 ], [ -163.1761056, -18.0696695 ], [ -163.1757619, -18.0697051 ] ] ] ] } },
{ "type": "Feature", "properties": { "FID": 656758, "id": 130, "left": -165.0, "top": -15.0, "right": -160.0, "bottom": -20.0, "row_index": 21, "col_index": 3, "min_lon": -165.0, "min_lat": -20.0, "tile_id": "-165_-20" }, "geometry": { "type": "MultiPolygon", "coordinates": [ [ [ [ -163.1210572, -18.0397584 ], [ -163.120864, -18.0396819 ], [ -163.1206468, -18.0395926 ], [ -163.120703099999986, -18.0394626 ], [ -163.120560899999987, -18.0394039 ], [ -163.1200004, -18.0392815 ], [ -163.1196222, -18.0391259 ], [ -163.119244, -18.0390213 ], [ -163.119238599999989, -18.0389321 ], [ -163.1195363, -18.0389576 ], [ -163.1195578, -18.0388785 ], [ -163.1191206, -18.0385674 ], [ -163.1188685, -18.0383506 ], [ -163.1186351, -18.0383506 ], [ -163.1184769, -18.0379986 ], [ -163.1184527, -18.0378762 ], [ -163.118340100000012, -18.0376875 ], [ -163.118171100000012, -18.0374044 ], [ -163.1179002, -18.0370728 ], [ -163.117658799999987, -18.0368688 ], [ -163.1173825, -18.0367387 ], [ -163.1170794, -18.0365475 ], [ -163.116982900000011, -18.0364174 ], [ -163.1169131, -18.0360986 ], [ -163.1169131, -18.0358793 ], [ -163.1168729, -18.0355171 ], [ -163.116881, -18.0351881 ], [ -163.1168997, -18.0348846 ], [ -163.1167656, -18.0347035 ], [ -163.1165114, -18.0347081 ], [ -163.1158408, -18.0349682 ], [ -163.1153902, -18.0354274 ], [ -163.1153415, -18.0358901 ], [ -163.1153366, -18.0365291 ], [ -163.115331200000014, -18.0372433 ], [ -163.1148619, -18.0377329 ], [ -163.115250800000013, -18.038192 ], [ -163.1152937, -18.0390565 ], [ -163.1155297, -18.0394876 ], [ -163.1160447, -18.0397528 ], [ -163.1176432, -18.0397732 ], [ -163.119853400000011, -18.0399364 ], [ -163.120786900000013, -18.0403954 ], [ -163.1213555, -18.0406199 ], [ -163.121436, -18.0397863 ], [ -163.1210572, -18.0397584 ] ] ] ] } },
{ "type": "Feature", "properties": { "FID": 656759, "id": 130, "left": -165.0, "top": -15.0, "right": -160.0, "bottom": -20.0, "row_index": 21, "col_index": 3, "min_lon": -165.0, "min_lat": -20.0, "tile_id": "-165_-20" }, "geometry": { "type": "MultiPolygon", "coordinates": [ [ [ [ -163.1451495, -18.0110099 ], [ -163.1450164, -18.0111974 ], [ -163.1450164, -18.011474 ], [ -163.1452185, -18.0118631 ], [ -163.1456375, -18.0119288 ], [ -163.1458939, -18.0117928 ], [ -163.1459333, -18.01146 ], [ -163.145672, -18.0110755 ], [ -163.1454946, -18.0109302 ], [ -163.1451495, -18.0110099 ] ] ] ] } },
{ "type": "Feature", "properties": { "FID": 656760, "id": 130, "left": -165.0, "top": -15.0, "right": -160.0, "bottom": -20.0, "row_index": 21, "col_index": 3, "min_lon": -165.0, "min_lat": -20.0, "tile_id": "-165_-20" }, "geometry": { "type": "MultiPolygon", "coordinates": [ [ [ [ -163.1576613, -17.9972618 ], [ -163.1578758, -17.9971087 ], [ -163.1580475, -17.9968995 ], [ -163.1580985, -17.9966062 ], [ -163.158069, -17.9962439 ], [ -163.157980400000014, -17.9957899 ], [ -163.1576988, -17.9954302 ], [ -163.1575432, -17.9951878 ], [ -163.1573448, -17.9950144 ], [ -163.1568834, -17.9946776 ], [ -163.1567091, -17.9946011 ], [ -163.156548500000014, -17.9946441 ], [ -163.156339, -17.9950908 ], [ -163.1561972, -17.9954474 ], [ -163.155922, -17.995667 ], [ -163.1557132, -17.9963271 ], [ -163.1559902, -17.9965449 ], [ -163.1561887, -17.9965807 ], [ -163.1564194, -17.996647 ], [ -163.1565857, -17.9967541 ], [ -163.156848599999989, -17.9970092 ], [ -163.156988, -17.9972898 ], [ -163.1570149, -17.9975908 ], [ -163.1570041, -17.9978919 ], [ -163.1572634, -17.9976107 ], [ -163.1574525, -17.997406 ], [ -163.1576613, -17.9972618 ] ] ] ] } }
]
}
