{
"type": "FeatureCollection",
"name": "-165_5",
"crs": { "type": "name", "properties": { "name": "urn:ogc:def:crs:OGC:1.3:CRS84" } },
"xy_coordinate_resolution": 1e-15,
"features": [
{ "type": "Feature", "properties": { "FID": 92127, "id": 125, "left": -165.0, "top": 10.0, "right": -160.0, "bottom": 5.0, "row_index": 16, "col_index": 3, "min_lon": -165.0, "min_lat": 5.0, "tile_id": "-165_5" }, "geometry": { "type": "MultiPolygon", "coordinates": [ [ [ [ -162.058054199999987, 5.8787503 ], [ -162.058118900000011, 5.8787152 ], [ -162.058152299999989, 5.8786976 ], [ -162.0581871, 5.8787171 ], [ -162.0582072, 5.8787718 ], [ -162.0581895, 5.8788283 ], [ -162.0582483, 5.878879 ], [ -162.0583287, 5.8788888 ], [ -162.058445299999988, 5.8788717 ], [ -162.0585261, 5.8789643 ], [ -162.0585331, 5.879078 ], [ -162.0584781, 5.8792738 ], [ -162.0583614, 5.8793899 ], [ -162.0583446, 5.8794587 ], [ -162.0583945, 5.8796104 ], [ -162.058510899999987, 5.879798 ], [ -162.0586524, 5.8799718 ], [ -162.0587994, 5.8800794 ], [ -162.058843700000011, 5.8802035 ], [ -162.0588105, 5.8803883 ], [ -162.0587162, 5.8804904 ], [ -162.0585867, 5.8805548 ], [ -162.0584167, 5.8805676 ], [ -162.0582336, 5.880689 ], [ -162.058067200000011, 5.8808987 ], [ -162.057667400000014, 5.8810509 ], [ -162.0575514, 5.8811635 ], [ -162.0572852, 5.8811745 ], [ -162.056882, 5.8814448 ], [ -162.0565919, 5.8816987 ], [ -162.0562473, 5.8820979 ], [ -162.0561654, 5.8822926 ], [ -162.0560807, 5.8823442 ], [ -162.0559036, 5.8823209 ], [ -162.0556532, 5.8822622 ], [ -162.055422600000014, 5.8822871 ], [ -162.055163, 5.8824846 ], [ -162.0548806, 5.8826836 ], [ -162.0546061, 5.8828279 ], [ -162.054308, 5.8829528 ], [ -162.0541629, 5.8830971 ], [ -162.05401, 5.8831634 ], [ -162.0538531, 5.8831985 ], [ -162.0536648, 5.8833468 ], [ -162.0536021, 5.8834833 ], [ -162.0534609, 5.8835496 ], [ -162.0531158, 5.8836043 ], [ -162.0528334, 5.8836862 ], [ -162.052594199999987, 5.8838344 ], [ -162.05243, 5.8839059 ], [ -162.052237100000013, 5.8839488 ], [ -162.052085, 5.8840082 ], [ -162.0519907, 5.8840882 ], [ -162.0519852, 5.8841958 ], [ -162.0519935, 5.8842868 ], [ -162.0519658, 5.8843282 ], [ -162.0518853, 5.8843585 ], [ -162.0517827, 5.8843502 ], [ -162.0516968, 5.8843254 ], [ -162.0515193, 5.8843585 ], [ -162.0513473, 5.8843585 ], [ -162.051217, 5.8843668 ], [ -162.051153199999987, 5.8844578 ], [ -162.0511726, 5.8845792 ], [ -162.051258600000011, 5.8846151 ], [ -162.0514028, 5.8846178 ], [ -162.0515193, 5.8845682 ], [ -162.0520479, 5.8844766 ], [ -162.0524972, 5.8842449 ], [ -162.053024099999988, 5.8840242 ], [ -162.053244, 5.8840022 ], [ -162.053311, 5.8841037 ], [ -162.0532914, 5.8842012 ], [ -162.053205100000014, 5.8842637 ], [ -162.0530482, 5.8843261 ], [ -162.0528756, 5.8843417 ], [ -162.052734500000014, 5.8843924 ], [ -162.0525854, 5.8844743 ], [ -162.0524874, 5.8845992 ], [ -162.0524795, 5.8847318 ], [ -162.052491300000014, 5.8849035 ], [ -162.0525893, 5.8850595 ], [ -162.052707, 5.8851375 ], [ -162.0529306, 5.885239 ], [ -162.0532012, 5.8853053 ], [ -162.0533135, 5.8853617 ], [ -162.053346800000014, 5.885461 ], [ -162.0532719, 5.8855631 ], [ -162.0531111, 5.8855962 ], [ -162.0530612, 5.8858003 ], [ -162.0530612, 5.8859713 ], [ -162.0531222, 5.8861093 ], [ -162.0532387, 5.886181 ], [ -162.053394, 5.8863024 ], [ -162.0535382, 5.8864513 ], [ -162.053721200000012, 5.8865286 ], [ -162.0538765, 5.8865893 ], [ -162.0540651, 5.8865231 ], [ -162.0542758, 5.8863631 ], [ -162.0545032, 5.8862031 ], [ -162.0547675, 5.8858056 ], [ -162.0550292, 5.8855659 ], [ -162.0550331, 5.8854059 ], [ -162.0551419, 5.8852845 ], [ -162.0553582, 5.8852293 ], [ -162.0556003, 5.8852901 ], [ -162.055723699999987, 5.8854694 ], [ -162.0556966, 5.8857093 ], [ -162.055651399999988, 5.885979 ], [ -162.0556345, 5.886087 ], [ -162.055554199999989, 5.8862198 ], [ -162.0554155, 5.886327 ], [ -162.055266100000011, 5.8864163 ], [ -162.0551308, 5.8865072 ], [ -162.055035299999986, 5.8865761 ], [ -162.0547574, 5.8867514 ], [ -162.054434500000013, 5.8868455 ], [ -162.0540361, 5.8869161 ], [ -162.0537368, 5.8869359 ], [ -162.053487499999989, 5.8868957 ], [ -162.0532719, 5.8868019 ], [ -162.0529754, 5.8866612 ], [ -162.0527801, 5.8866277 ], [ -162.0526209, 5.8865573 ], [ -162.0524534, 5.8864064 ], [ -162.052145599999989, 5.8861366 ], [ -162.0517405, 5.8858009 ], [ -162.0511512, 5.8854414 ], [ -162.0508053, 5.8852428 ], [ -162.0504459, 5.8850864 ], [ -162.0501869, 5.885066 ], [ -162.0499346, 5.8851434 ], [ -162.049746199999987, 5.8851685 ], [ -162.049633199999988, 5.8851657 ], [ -162.049518, 5.8851405 ], [ -162.04944, 5.8850698 ], [ -162.0494387, 5.8849372 ], [ -162.049389100000013, 5.8847408 ], [ -162.0493373, 5.8846229 ], [ -162.049351800000011, 5.8845164 ], [ -162.0494133, 5.8844774 ], [ -162.049581100000012, 5.8844389 ], [ -162.0497124, 5.8844483 ], [ -162.049837700000012, 5.8844367 ], [ -162.0499079, 5.8844293 ], [ -162.0499723, 5.8844224 ], [ -162.0501074, 5.8843834 ], [ -162.0503101, 5.8843484 ], [ -162.0505492, 5.884313 ], [ -162.050851099999988, 5.8842583 ], [ -162.0510668, 5.8841959 ], [ -162.0513374, 5.8840009 ], [ -162.0515216, 5.8838377 ], [ -162.051647300000013, 5.8837652 ], [ -162.05171390000001, 5.8836793 ], [ -162.0517963, 5.8835233 ], [ -162.0519453, 5.8834414 ], [ -162.052114, 5.8834141 ], [ -162.052365, 5.883418 ], [ -162.0526395, 5.883375 ], [ -162.0528866, 5.8832775 ], [ -162.0532379, 5.883071 ], [ -162.0536631, 5.8829186 ], [ -162.0543386, 5.8824776 ], [ -162.0544946, 5.882388 ], [ -162.0548937, 5.8820441 ], [ -162.0551782, 5.8819519 ], [ -162.055653799999988, 5.8819498 ], [ -162.0560573, 5.8817286 ], [ -162.0564405, 5.8814126 ], [ -162.05707910000001, 5.8806583 ], [ -162.0573748, 5.8804668 ], [ -162.057667900000013, 5.8800806 ], [ -162.0577774, 5.8796952 ], [ -162.057785, 5.8795602 ], [ -162.0579397, 5.8792124 ], [ -162.0579483, 5.8791268 ], [ -162.0579464, 5.878961 ], [ -162.0579581, 5.8788537 ], [ -162.0579966, 5.8787944 ], [ -162.058054199999987, 5.8787503 ] ] ] ] } },
{ "type": "Feature", "properties": { "FID": 92128, "id": 125, "left": -165.0, "top": 10.0, "right": -160.0, "bottom": 5.0, "row_index": 16, "col_index": 3, "min_lon": -165.0, "min_lat": 5.0, "tile_id": "-165_5" }, "geometry": { "type": "MultiPolygon", "coordinates": [ [ [ [ -162.1084019, 5.8739152 ], [ -162.1084667, 5.8741319 ], [ -162.1084098, 5.8742917 ], [ -162.1082773, 5.8743189 ], [ -162.1080931, 5.8743028 ], [ -162.1076013, 5.8745665 ], [ -162.107228600000013, 5.8748925 ], [ -162.1069613, 5.8753037 ], [ -162.1068414, 5.8753529 ], [ -162.1064882, 5.8754205 ], [ -162.1059213, 5.8757664 ], [ -162.1057831, 5.8759181 ], [ -162.105840300000011, 5.8760839 ], [ -162.105759299999988, 5.8762308 ], [ -162.105459700000011, 5.8763881 ], [ -162.105289199999987, 5.8763454 ], [ -162.1051144, 5.876375 ], [ -162.104579199999989, 5.8766616 ], [ -162.103582499999987, 5.8773471 ], [ -162.103446100000014, 5.8775077 ], [ -162.1033051, 5.8775484 ], [ -162.1031779, 5.8774781 ], [ -162.1029263, 5.8771444 ], [ -162.1029054, 5.8770113 ], [ -162.1030053, 5.8768748 ], [ -162.1034028, 5.8765029 ], [ -162.103919100000013, 5.8762244 ], [ -162.1052387, 5.8753937 ], [ -162.1056699, 5.8750385 ], [ -162.10573260000001, 5.8749121 ], [ -162.1056834, 5.8747296 ], [ -162.105535800000013, 5.8746389 ], [ -162.105463, 5.8746065 ], [ -162.1054374, 5.8744857 ], [ -162.105494, 5.874379 ], [ -162.1056226, 5.8742464 ], [ -162.1057793, 5.8741573 ], [ -162.1059376, 5.8741406 ], [ -162.10599830000001, 5.8740568 ], [ -162.105991499999988, 5.8739797 ], [ -162.1059043, 5.8739222 ], [ -162.1058871, 5.8738457 ], [ -162.1059376, 5.8737619 ], [ -162.1061263, 5.8736279 ], [ -162.106288, 5.8736513 ], [ -162.106416, 5.8737016 ], [ -162.1065743, 5.8738658 ], [ -162.1067119, 5.873868 ], [ -162.1069746, 5.8737273 ], [ -162.1070622, 5.8735463 ], [ -162.1071498, 5.8734692 ], [ -162.1072711, 5.8734458 ], [ -162.1074227, 5.873496 ], [ -162.1074698, 5.8736267 ], [ -162.1074968, 5.8737675 ], [ -162.107570900000013, 5.8738244 ], [ -162.107669499999986, 5.8738038 ], [ -162.1078029, 5.8737257 ], [ -162.107822, 5.8736546 ], [ -162.107741, 5.8735219 ], [ -162.1077362, 5.8733797 ], [ -162.1078172, 5.8733229 ], [ -162.107931400000012, 5.87333 ], [ -162.108050600000013, 5.8734414 ], [ -162.1084019, 5.8739152 ] ] ] ] } },
{ "type": "Feature", "properties": { "FID": 92130, "id": 125, "left": -165.0, "top": 10.0, "right": -160.0, "bottom": 5.0, "row_index": 16, "col_index": 3, "min_lon": -165.0, "min_lat": 5.0, "tile_id": "-165_5" }, "geometry": { "type": "MultiPolygon", "coordinates": [ [ [ [ -162.0985542, 5.8872341 ], [ -162.098688900000013, 5.8871593 ], [ -162.0987436, 5.8871505 ], [ -162.0987289, 5.8872222 ], [ -162.0987445, 5.8872609 ], [ -162.0986785, 5.8873531 ], [ -162.098636699999986, 5.8874418 ], [ -162.098582099999987, 5.8874685 ], [ -162.098505, 5.8874536 ], [ -162.0984733, 5.8874016 ], [ -162.098487, 5.8873054 ], [ -162.0985542, 5.8872341 ] ] ] ] } },
{ "type": "Feature", "properties": { "FID": 92131, "id": 125, "left": -165.0, "top": 10.0, "right": -160.0, "bottom": 5.0, "row_index": 16, "col_index": 3, "min_lon": -165.0, "min_lat": 5.0, "tile_id": "-165_5" }, "geometry": { "type": "MultiPolygon", "coordinates": [ [ [ [ -162.0976483, 5.8727002 ], [ -162.09747680000001, 5.8729443 ], [ -162.097376700000012, 5.8732641 ], [ -162.0973052, 5.8733352 ], [ -162.097248799999988, 5.8732971 ], [ -162.0971777, 5.8732877 ], [ -162.0970881, 5.8732761 ], [ -162.096886, 5.8732926 ], [ -162.096724200000011, 5.8733442 ], [ -162.0967603, 5.8734147 ], [ -162.096692499999989, 5.8734804 ], [ -162.096633700000012, 5.873562 ], [ -162.0964986, 5.8735961 ], [ -162.0961892, 5.8736206 ], [ -162.0959934, 5.8738096 ], [ -162.0958398, 5.8740661 ], [ -162.095720699999987, 5.8743365 ], [ -162.0954949, 5.8745704 ], [ -162.095473700000014, 5.8746709 ], [ -162.0955174, 5.8748719 ], [ -162.095566, 5.8750474 ], [ -162.095585699999987, 5.8751535 ], [ -162.0955638, 5.8752033 ], [ -162.0955423, 5.8751698 ], [ -162.09550010000001, 5.8750856 ], [ -162.0954472, 5.8749465 ], [ -162.095344, 5.8748062 ], [ -162.0952653, 5.874707 ], [ -162.095235699999989, 5.8745729 ], [ -162.0952675, 5.8744329 ], [ -162.095312799999988, 5.8742913 ], [ -162.095420600000011, 5.8741626 ], [ -162.095625, 5.8740536 ], [ -162.095760399999989, 5.8739295 ], [ -162.0958383, 5.873795 ], [ -162.0958389, 5.8736926 ], [ -162.095796400000012, 5.8736202 ], [ -162.0958181, 5.8735471 ], [ -162.096107499999988, 5.8734467 ], [ -162.0962294, 5.8732791 ], [ -162.0965434, 5.8731234 ], [ -162.0967804, 5.872992 ], [ -162.0970199, 5.872767 ], [ -162.097388599999988, 5.8726078 ], [ -162.0975125, 5.8725841 ], [ -162.097629, 5.8726224 ], [ -162.0976483, 5.8727002 ] ] ] ] } },
{ "type": "Feature", "properties": { "FID": 92132, "id": 125, "left": -165.0, "top": 10.0, "right": -160.0, "bottom": 5.0, "row_index": 16, "col_index": 3, "min_lon": -165.0, "min_lat": 5.0, "tile_id": "-165_5" }, "geometry": { "type": "MultiPolygon", "coordinates": [ [ [ [ -162.097785, 5.8733262 ], [ -162.0977681, 5.8732742 ], [ -162.0977974, 5.8732205 ], [ -162.0978716, 5.8732132 ], [ -162.097944, 5.8732541 ], [ -162.0980036, 5.8733252 ], [ -162.0979868, 5.8733885 ], [ -162.0979273, 5.873401 ], [ -162.0978606, 5.8733868 ], [ -162.0978116, 5.8733599 ], [ -162.097796100000011, 5.8733371 ], [ -162.097785, 5.8733262 ] ] ] ] } },
{ "type": "Feature", "properties": { "FID": 92133, "id": 125, "left": -165.0, "top": 10.0, "right": -160.0, "bottom": 5.0, "row_index": 16, "col_index": 3, "min_lon": -165.0, "min_lat": 5.0, "tile_id": "-165_5" }, "geometry": { "type": "MultiPolygon", "coordinates": [ [ [ [ -162.0683905, 5.8910432 ], [ -162.0684521, 5.8908979 ], [ -162.0686719, 5.8901982 ], [ -162.068834399999986, 5.8896638 ], [ -162.0690646, 5.8890552 ], [ -162.06921, 5.8886312 ], [ -162.069378, 5.8881126 ], [ -162.0695289, 5.8877388 ], [ -162.06961290000001, 5.8875769 ], [ -162.0697008, 5.887556 ], [ -162.0697557, 5.8876053 ], [ -162.0697482, 5.8876854 ], [ -162.0696192, 5.8880005 ], [ -162.0693517, 5.8888158 ], [ -162.0692053, 5.889305 ], [ -162.0689887, 5.8899398 ], [ -162.0686813, 5.8907717 ], [ -162.0685145, 5.8912881 ], [ -162.068646699999988, 5.8914937 ], [ -162.0687012, 5.891569 ], [ -162.068937, 5.8916896 ], [ -162.0691122, 5.8917567 ], [ -162.0692621, 5.8917003 ], [ -162.0693865, 5.8915541 ], [ -162.0699524, 5.8913865 ], [ -162.0703095, 5.8912726 ], [ -162.0705723, 5.8910916 ], [ -162.0709209, 5.8909403 ], [ -162.0710099, 5.8908159 ], [ -162.0709623, 5.8907152 ], [ -162.0711004, 5.8906536 ], [ -162.0711957, 5.8905399 ], [ -162.0711052, 5.8903977 ], [ -162.0710766, 5.8902082 ], [ -162.071132799999987, 5.8900956 ], [ -162.0712979, 5.889985 ], [ -162.0714494, 5.8899548 ], [ -162.0715741, 5.8898845 ], [ -162.07170880000001, 5.8898744 ], [ -162.0718503, 5.8899314 ], [ -162.071911, 5.8899414 ], [ -162.071951399999989, 5.8898912 ], [ -162.071948, 5.8897571 ], [ -162.071863799999988, 5.8895661 ], [ -162.0717257, 5.8894522 ], [ -162.0716196, 5.8894271 ], [ -162.0715758, 5.8894455 ], [ -162.0715758, 5.8894807 ], [ -162.071532, 5.8895092 ], [ -162.071471300000013, 5.8895075 ], [ -162.0714427, 5.8895159 ], [ -162.071464600000013, 5.889484 ], [ -162.0714663, 5.8894455 ], [ -162.071429200000011, 5.8894254 ], [ -162.071403299999986, 5.8894021 ], [ -162.0714107, 5.8893751 ], [ -162.0714764, 5.8893651 ], [ -162.071542099999988, 5.8893517 ], [ -162.0715707, 5.8893148 ], [ -162.0715673, 5.8892729 ], [ -162.071516800000012, 5.889226 ], [ -162.0713989, 5.8892243 ], [ -162.0712962, 5.8892662 ], [ -162.0712675, 5.8893299 ], [ -162.0712709, 5.8893835 ], [ -162.0713113, 5.889422 ], [ -162.071331500000014, 5.8894514 ], [ -162.0713206, 5.8894522 ], [ -162.07127220000001, 5.8894153 ], [ -162.0712153, 5.8893936 ], [ -162.071133800000013, 5.8893954 ], [ -162.070957, 5.8892831 ], [ -162.0708961, 5.8893613 ], [ -162.0705123, 5.8895009 ], [ -162.070357300000012, 5.8894607 ], [ -162.070175400000011, 5.8892999 ], [ -162.0700816, 5.8892086 ], [ -162.0699529, 5.8889997 ], [ -162.0699847, 5.888959 ], [ -162.070043, 5.8889552 ], [ -162.0701238, 5.8889988 ], [ -162.0702013, 5.8890423 ], [ -162.0703057, 5.8890557 ], [ -162.070460700000012, 5.8889451 ], [ -162.0707247, 5.8888897 ], [ -162.0709626, 5.8888852 ], [ -162.0711547, 5.8888651 ], [ -162.0713231, 5.8888047 ], [ -162.0714578, 5.8886875 ], [ -162.0714983, 5.8885568 ], [ -162.0715351, 5.8884072 ], [ -162.0715995, 5.888343 ], [ -162.0718185, 5.8882659 ], [ -162.07194, 5.8881856 ], [ -162.0721859, 5.8881086 ], [ -162.072293699999989, 5.8881019 ], [ -162.072559899999987, 5.8881488 ], [ -162.072647499999988, 5.8881086 ], [ -162.072758599999986, 5.8880315 ], [ -162.0728967, 5.8879142 ], [ -162.0730365, 5.8878923 ], [ -162.073115699999988, 5.8879511 ], [ -162.073125800000014, 5.8880449 ], [ -162.0731999, 5.8880784 ], [ -162.073412100000013, 5.8881052 ], [ -162.0735637, 5.8880885 ], [ -162.0736951, 5.8880281 ], [ -162.073813, 5.8879611 ], [ -162.074005, 5.887817 ], [ -162.074126299999989, 5.8877601 ], [ -162.074261, 5.8876461 ], [ -162.0744497, 5.8875657 ], [ -162.074668699999989, 5.8874484 ], [ -162.074789900000013, 5.8873345 ], [ -162.0748337, 5.8871938 ], [ -162.0748183, 5.8870245 ], [ -162.0748456, 5.8869305 ], [ -162.074952, 5.8868069 ], [ -162.0751026, 5.8867719 ], [ -162.075254199999989, 5.8869055 ], [ -162.0753723, 5.887126 ], [ -162.0753331, 5.8872998 ], [ -162.0754791, 5.8874227 ], [ -162.0757223, 5.8875633 ], [ -162.0758429, 5.887673 ], [ -162.075841700000012, 5.8877227 ], [ -162.0758156, 5.887733 ], [ -162.0756819, 5.887622 ], [ -162.0755196, 5.88754 ], [ -162.0753943, 5.8874356 ], [ -162.0752228, 5.8873456 ], [ -162.0751204, 5.8873479 ], [ -162.0749513, 5.8875327 ], [ -162.0746821, 5.8876986 ], [ -162.07434760000001, 5.8878674 ], [ -162.0741639, 5.8880213 ], [ -162.0739067, 5.8881825 ], [ -162.0737399, 5.8883009 ], [ -162.0736018, 5.8883246 ], [ -162.0733088, 5.8883625 ], [ -162.0732564, 5.8883554 ], [ -162.0731587, 5.8883223 ], [ -162.0730825, 5.8882796 ], [ -162.0729896, 5.8882654 ], [ -162.0729015, 5.8882938 ], [ -162.0728729, 5.888327 ], [ -162.07283, 5.8883696 ], [ -162.072758599999986, 5.8883815 ], [ -162.07254660000001, 5.888341 ], [ -162.0724466, 5.8882842 ], [ -162.072363200000012, 5.888251 ], [ -162.0722812, 5.8882718 ], [ -162.0721998, 5.8883695 ], [ -162.0721926, 5.8884643 ], [ -162.0722975, 5.8885852 ], [ -162.0723117, 5.8886515 ], [ -162.0723308, 5.8887723 ], [ -162.0724261, 5.888924 ], [ -162.072603500000014, 5.8891771 ], [ -162.0726679, 5.8891914 ], [ -162.0727346, 5.8891843 ], [ -162.0727608, 5.8891523 ], [ -162.072789300000011, 5.8891073 ], [ -162.0728322, 5.8890824 ], [ -162.0728679, 5.8890966 ], [ -162.072896500000013, 5.8891428 ], [ -162.0728799, 5.8891866 ], [ -162.0728775, 5.8892316 ], [ -162.0729215, 5.8892388 ], [ -162.07295160000001, 5.8892296 ], [ -162.0730661, 5.8892229 ], [ -162.0731203, 5.8892617 ], [ -162.0731963, 5.889403 ], [ -162.0732179, 5.8894819 ], [ -162.07321060000001, 5.8896116 ], [ -162.073247900000013, 5.8896882 ], [ -162.0732969, 5.8897242 ], [ -162.0733904, 5.8897241 ], [ -162.073459500000013, 5.8896819 ], [ -162.073606500000011, 5.8895432 ], [ -162.073784, 5.8894788 ], [ -162.0753635, 5.8888652 ], [ -162.075471, 5.888801 ], [ -162.0755596, 5.888791 ], [ -162.0756357, 5.8888187 ], [ -162.075735400000013, 5.8888295 ], [ -162.0758314, 5.8887642 ], [ -162.075859799999989, 5.8886736 ], [ -162.075825900000012, 5.8885688 ], [ -162.0757874, 5.8884809 ], [ -162.0758017, 5.888398 ], [ -162.07593030000001, 5.8883032 ], [ -162.0761042, 5.8882155 ], [ -162.0763665, 5.8881759 ], [ -162.0764675, 5.8881642 ], [ -162.0765231, 5.8881304 ], [ -162.0765046, 5.8880737 ], [ -162.0763227, 5.8879648 ], [ -162.076132300000012, 5.8878941 ], [ -162.0761393, 5.8878485 ], [ -162.0761846, 5.8878408 ], [ -162.0763698, 5.8879179 ], [ -162.076513, 5.88801 ], [ -162.0766477, 5.8881173 ], [ -162.0767109, 5.8881132 ], [ -162.0767547, 5.8880562 ], [ -162.0768002, 5.8878049 ], [ -162.0768397, 5.8876605 ], [ -162.0768996, 5.8876474 ], [ -162.076926500000013, 5.8876926 ], [ -162.0768406, 5.8879691 ], [ -162.076908, 5.8880595 ], [ -162.077036, 5.8881534 ], [ -162.077153900000013, 5.8881333 ], [ -162.0779408, 5.8878197 ], [ -162.0787291, 5.8873675 ], [ -162.0788369, 5.8872134 ], [ -162.078870599999988, 5.8870123 ], [ -162.078961600000014, 5.886885 ], [ -162.079066, 5.8868582 ], [ -162.07917040000001, 5.8868984 ], [ -162.0792277, 5.8870291 ], [ -162.07925130000001, 5.887153 ], [ -162.0793052, 5.8871966 ], [ -162.0793961, 5.8871765 ], [ -162.079507299999989, 5.8871061 ], [ -162.0796656, 5.8870525 ], [ -162.0797364, 5.8869687 ], [ -162.079709400000013, 5.8868883 ], [ -162.0795982, 5.8867208 ], [ -162.0795982, 5.8866169 ], [ -162.079702700000013, 5.8865365 ], [ -162.079828099999986, 5.8864886 ], [ -162.0799276, 5.8865069 ], [ -162.079999, 5.8865637 ], [ -162.0800681, 5.8867083 ], [ -162.08013, 5.8867817 ], [ -162.080201499999987, 5.886803 ], [ -162.0802491, 5.8867983 ], [ -162.0803611, 5.8867248 ], [ -162.0804349, 5.886623 ], [ -162.0804611, 5.8865708 ], [ -162.0804349, 5.8865234 ], [ -162.0803837, 5.8864583 ], [ -162.080342699999989, 5.8863527 ], [ -162.080340799999988, 5.8862849 ], [ -162.080396799999988, 5.8862178 ], [ -162.0805521, 5.8861768 ], [ -162.0807079, 5.8862192 ], [ -162.0807879, 5.8863443 ], [ -162.08080480000001, 5.8865002 ], [ -162.0808817, 5.8865499 ], [ -162.0809395, 5.886532 ], [ -162.0811955, 5.8863434 ], [ -162.0812478, 5.8862773 ], [ -162.081250899999986, 5.8861771 ], [ -162.081166700000011, 5.8860782 ], [ -162.081166700000011, 5.8860112 ], [ -162.0811953, 5.8859341 ], [ -162.0812963, 5.8858336 ], [ -162.0814715, 5.8857766 ], [ -162.081671699999987, 5.8856581 ], [ -162.0819337, 5.8855255 ], [ -162.082352899999989, 5.8853928 ], [ -162.0826802, 5.8852972 ], [ -162.083226200000013, 5.8853028 ], [ -162.0837883, 5.8852649 ], [ -162.0841266, 5.8851606 ], [ -162.084676300000012, 5.8849775 ], [ -162.0849217, 5.8850154 ], [ -162.0850925, 5.8851467 ], [ -162.0853938, 5.8859055 ], [ -162.0855646, 5.8862106 ], [ -162.0855765, 5.8863409 ], [ -162.085564799999986, 5.8864607 ], [ -162.0856351, 5.8865154 ], [ -162.0857355, 5.8865007 ], [ -162.08588850000001, 5.8863549 ], [ -162.0859385, 5.886304 ], [ -162.08635240000001, 5.8866476 ], [ -162.08684070000001, 5.8874102 ], [ -162.0868217, 5.8875547 ], [ -162.086849699999988, 5.8876133 ], [ -162.0869409, 5.8876748 ], [ -162.0869831, 5.8876997 ], [ -162.0870162, 5.887718 ], [ -162.0871129, 5.8875531 ], [ -162.0872392, 5.8876356 ], [ -162.0872271, 5.8876513 ], [ -162.0872879, 5.8876971 ], [ -162.0875743, 5.8879124 ], [ -162.0879378, 5.8880342 ], [ -162.0880012, 5.8880093 ], [ -162.0880565, 5.8879879 ], [ -162.0880618, 5.8878827 ], [ -162.0880641, 5.8878367 ], [ -162.0881383, 5.8878416 ], [ -162.088195500000012, 5.8877521 ], [ -162.089129, 5.8883041 ], [ -162.0890592, 5.8884287 ], [ -162.0888947, 5.8887223 ], [ -162.0890315, 5.8888276 ], [ -162.089089, 5.8888392 ], [ -162.0891892, 5.8888301 ], [ -162.0892826, 5.8887384 ], [ -162.089396, 5.8885707 ], [ -162.0895392, 5.8885396 ], [ -162.0901399, 5.8888086 ], [ -162.0903668, 5.8889657 ], [ -162.09038, 5.8890996 ], [ -162.0903109, 5.8892181 ], [ -162.0903592, 5.8892966 ], [ -162.0906635, 5.8894692 ], [ -162.091066, 5.8895237 ], [ -162.091482899999988, 5.8895119 ], [ -162.0918021, 5.8895348 ], [ -162.0919748, 5.8896603 ], [ -162.092142700000011, 5.8899613 ], [ -162.092400700000013, 5.8900027 ], [ -162.0925905, 5.8901461 ], [ -162.092834, 5.8902636 ], [ -162.0929669, 5.8902977 ], [ -162.0932051, 5.8903143 ], [ -162.0934719, 5.8902859 ], [ -162.0938387, 5.8902101 ], [ -162.094105500000012, 5.8900892 ], [ -162.0942365, 5.8899423 ], [ -162.0943222, 5.8899202 ], [ -162.0944317, 5.8900006 ], [ -162.094541099999986, 5.8900224 ], [ -162.0946683, 5.8899423 ], [ -162.094882500000011, 5.8899447 ], [ -162.0951172, 5.8898113 ], [ -162.0952148, 5.8897007 ], [ -162.0953024, 5.889627 ], [ -162.0953951, 5.8896354 ], [ -162.09555, 5.889823 ], [ -162.0959776, 5.8898414 ], [ -162.0969299, 5.8897043 ], [ -162.097096599999986, 5.8895359 ], [ -162.0972885, 5.8894566 ], [ -162.0974262, 5.8895258 ], [ -162.0974894, 5.8896065 ], [ -162.097614, 5.8896467 ], [ -162.097765900000013, 5.8896306 ], [ -162.097879, 5.8895549 ], [ -162.098093, 5.8895282 ], [ -162.0984152, 5.8894645 ], [ -162.098571, 5.8894733 ], [ -162.0988006, 5.8895285 ], [ -162.0989913, 5.8895921 ], [ -162.0991091, 5.8895636 ], [ -162.0992819, 5.8894395 ], [ -162.0995735, 5.8891338 ], [ -162.0998399, 5.8888089 ], [ -162.099968499999989, 5.8886074 ], [ -162.1000764, 5.8884538 ], [ -162.1001302, 5.8883997 ], [ -162.1002307, 5.8882658 ], [ -162.1003057, 5.8881678 ], [ -162.1003569, 5.8881284 ], [ -162.1004044, 5.8881427 ], [ -162.10043490000001, 5.8881793 ], [ -162.1004479, 5.8882668 ], [ -162.1004292, 5.8884228 ], [ -162.1004137, 5.8885803 ], [ -162.1003926, 5.8887804 ], [ -162.1003283, 5.8889251 ], [ -162.1002957, 5.8889986 ], [ -162.100254400000011, 5.8891741 ], [ -162.1002115, 5.889458 ], [ -162.1001123, 5.8897667 ], [ -162.1000114, 5.8899356 ], [ -162.0999019, 5.8900699 ], [ -162.0998452, 5.8901397 ], [ -162.0997542, 5.8902518 ], [ -162.0997269, 5.8903213 ], [ -162.0997516, 5.8904573 ], [ -162.0997467, 5.8906393 ], [ -162.09962440000001, 5.8907628 ], [ -162.099509899999987, 5.8908335 ], [ -162.0993736, 5.8909047 ], [ -162.0991769, 5.8909319 ], [ -162.0987687, 5.890892 ], [ -162.0982778, 5.8909096 ], [ -162.0972, 5.8908259 ], [ -162.0966578, 5.8907625 ], [ -162.0959286, 5.8906869 ], [ -162.0956339, 5.8906578 ], [ -162.0951986, 5.8906471 ], [ -162.094708200000014, 5.8906721 ], [ -162.0945163, 5.8906552 ], [ -162.0943365, 5.8906079 ], [ -162.0940938, 5.8905991 ], [ -162.093874699999986, 5.8906451 ], [ -162.093722899999989, 5.8906399 ], [ -162.0935127, 5.8906207 ], [ -162.0932273, 5.8906276 ], [ -162.093102499999986, 5.8906541 ], [ -162.0927137, 5.8907739 ], [ -162.092379599999987, 5.8908256 ], [ -162.0922273, 5.8909183 ], [ -162.0920538, 5.8909025 ], [ -162.0918523, 5.890994 ], [ -162.091417299999989, 5.8910343 ], [ -162.0912816, 5.8910894 ], [ -162.091089899999986, 5.8911671 ], [ -162.0910295, 5.8911916 ], [ -162.090488599999986, 5.8912174 ], [ -162.0898139, 5.8913009 ], [ -162.0894544, 5.8913305 ], [ -162.089174500000013, 5.8913323 ], [ -162.0890011, 5.8913166 ], [ -162.0888232, 5.8912852 ], [ -162.0887261, 5.8912607 ], [ -162.0886236, 5.8911858 ], [ -162.0885499, 5.891132 ], [ -162.0883221, 5.891049 ], [ -162.0880966, 5.8909569 ], [ -162.087856, 5.8908335 ], [ -162.0877485, 5.8907269 ], [ -162.0876584, 5.8906765 ], [ -162.0875706, 5.8906402 ], [ -162.087541, 5.8906091 ], [ -162.087544400000013, 5.8905649 ], [ -162.0875462, 5.8905249 ], [ -162.0875091, 5.8904996 ], [ -162.087468699999988, 5.8904621 ], [ -162.0874291, 5.8903631 ], [ -162.0874279, 5.8902863 ], [ -162.087382600000012, 5.8902269 ], [ -162.0873037, 5.890192 ], [ -162.0871213, 5.8901163 ], [ -162.0870411, 5.8900345 ], [ -162.0870026, 5.8899488 ], [ -162.086979, 5.8898721 ], [ -162.086888, 5.8898084 ], [ -162.085933, 5.8894755 ], [ -162.0853035, 5.889311 ], [ -162.0848972, 5.8892564 ], [ -162.0842275, 5.8891522 ], [ -162.083692899999988, 5.8891102 ], [ -162.0831747, 5.8891698 ], [ -162.082657, 5.8892287 ], [ -162.0821518, 5.8893025 ], [ -162.0816633, 5.8894203 ], [ -162.081521, 5.889568 ], [ -162.0814289, 5.8897301 ], [ -162.0813121, 5.8899436 ], [ -162.0812224, 5.8899383 ], [ -162.081107300000014, 5.8899595 ], [ -162.0810773, 5.8900311 ], [ -162.0811105, 5.8901066 ], [ -162.0811938, 5.8901615 ], [ -162.0809912, 5.890535 ], [ -162.080654900000013, 5.8908158 ], [ -162.0803912, 5.8909718 ], [ -162.079964100000012, 5.891193 ], [ -162.0798055, 5.8911756 ], [ -162.0794223, 5.8912257 ], [ -162.0787426, 5.8914637 ], [ -162.077934, 5.8915575 ], [ -162.0775097, 5.8917452 ], [ -162.077165900000011, 5.8919435 ], [ -162.077024599999987, 5.892154 ], [ -162.0769469, 5.8923544 ], [ -162.076849399999986, 5.8924623 ], [ -162.0766035, 5.8925534 ], [ -162.0763346, 5.8925902 ], [ -162.076260499999989, 5.89256 ], [ -162.076105500000011, 5.8926002 ], [ -162.075964, 5.89255 ], [ -162.0758798, 5.8926002 ], [ -162.0758207, 5.8926269 ], [ -162.075579, 5.8927373 ], [ -162.0754361, 5.8927959 ], [ -162.0752162, 5.8927209 ], [ -162.075094900000011, 5.8926572 ], [ -162.0747079, 5.8927517 ], [ -162.0738586, 5.8929186 ], [ -162.073235399999987, 5.8929755 ], [ -162.0726931, 5.8930962 ], [ -162.072356, 5.8931031 ], [ -162.0718981, 5.8930593 ], [ -162.071392800000012, 5.8929957 ], [ -162.0709852, 5.8928784 ], [ -162.0701742, 5.8928033 ], [ -162.0699276, 5.8927804 ], [ -162.0696905, 5.8927431 ], [ -162.0690308, 5.892519 ], [ -162.0684258, 5.8922394 ], [ -162.068029599999988, 5.8921223 ], [ -162.0674688, 5.8919013 ], [ -162.067115699999988, 5.8916992 ], [ -162.066938, 5.8916579 ], [ -162.066825099999988, 5.8915791 ], [ -162.0667005, 5.8915557 ], [ -162.0666685, 5.8915976 ], [ -162.06658680000001, 5.8916013 ], [ -162.0665357, 5.8915345 ], [ -162.0664547, 5.8914942 ], [ -162.0663452, 5.8915014 ], [ -162.0663356, 5.8915369 ], [ -162.066298100000012, 5.8915462 ], [ -162.0662431, 5.8915215 ], [ -162.0661766, 5.8914571 ], [ -162.066068800000011, 5.891358 ], [ -162.0659339, 5.8912591 ], [ -162.0655432, 5.8910197 ], [ -162.0651359, 5.8907875 ], [ -162.0647411, 5.8905875 ], [ -162.0646547, 5.890534 ], [ -162.0646023, 5.8904321 ], [ -162.0646295, 5.8903324 ], [ -162.064584, 5.8902801 ], [ -162.0645121, 5.8902414 ], [ -162.0645101, 5.8901183 ], [ -162.0644424, 5.8900468 ], [ -162.0643744, 5.8899405 ], [ -162.0643068, 5.8898258 ], [ -162.064276299999989, 5.8897452 ], [ -162.0642551, 5.8896154 ], [ -162.064266, 5.8895209 ], [ -162.0643287, 5.8893414 ], [ -162.0644632, 5.8892383 ], [ -162.0645654, 5.8891321 ], [ -162.064615800000013, 5.8890048 ], [ -162.064711499999987, 5.8888841 ], [ -162.0648431, 5.8888424 ], [ -162.064996400000012, 5.8889311 ], [ -162.0651004, 5.8890764 ], [ -162.0651468, 5.8892394 ], [ -162.0650968, 5.8895355 ], [ -162.0651042, 5.8896664 ], [ -162.0650958, 5.8898321 ], [ -162.0651139, 5.8899072 ], [ -162.0651273, 5.8900321 ], [ -162.0651976, 5.8901324 ], [ -162.065284, 5.8901777 ], [ -162.065301, 5.890276 ], [ -162.0652963, 5.8904134 ], [ -162.065253399999989, 5.8905177 ], [ -162.065329600000013, 5.8905982 ], [ -162.0659823, 5.8908921 ], [ -162.0661728, 5.8909465 ], [ -162.0663396, 5.8908968 ], [ -162.0664587, 5.8907783 ], [ -162.0666778, 5.8906978 ], [ -162.0669208, 5.8906978 ], [ -162.0673019, 5.8907641 ], [ -162.0675115, 5.8909631 ], [ -162.0677068, 5.891001 ], [ -162.0679308, 5.8909631 ], [ -162.068073700000014, 5.8909726 ], [ -162.068327900000014, 5.8909982 ], [ -162.0683905, 5.8910432 ] ] ] ] } },
{ "type": "Feature", "properties": { "FID": 92134, "id": 125, "left": -165.0, "top": 10.0, "right": -160.0, "bottom": 5.0, "row_index": 16, "col_index": 3, "min_lon": -165.0, "min_lat": 5.0, "tile_id": "-165_5" }, "geometry": { "type": "MultiPolygon", "coordinates": [ [ [ [ -162.057760300000012, 5.8855699 ], [ -162.057867499999986, 5.8855227 ], [ -162.0579914, 5.885589 ], [ -162.0580819, 5.8857265 ], [ -162.0581009, 5.8859302 ], [ -162.058143800000011, 5.8860771 ], [ -162.0582867, 5.8861624 ], [ -162.0584964, 5.8861909 ], [ -162.0586202, 5.8860724 ], [ -162.05873840000001, 5.8858442 ], [ -162.0589339, 5.885709 ], [ -162.0591517, 5.885664 ], [ -162.0593533, 5.8856897 ], [ -162.059536799999989, 5.8857588 ], [ -162.0595971, 5.8858173 ], [ -162.0596405, 5.8859777 ], [ -162.0596785, 5.8862101 ], [ -162.0595267, 5.8864058 ], [ -162.0592753, 5.8864915 ], [ -162.059045700000013, 5.8865082 ], [ -162.058836899999989, 5.8864714 ], [ -162.0585202, 5.8864781 ], [ -162.0579372, 5.8865265 ], [ -162.057848, 5.8865091 ], [ -162.0575936, 5.8864596 ], [ -162.057273, 5.8865074 ], [ -162.0568328, 5.8865686 ], [ -162.0564551, 5.8866993 ], [ -162.0562718, 5.8867248 ], [ -162.056197700000013, 5.8866611 ], [ -162.0562313, 5.8865107 ], [ -162.056288599999988, 5.8864332 ], [ -162.05642850000001, 5.8864232 ], [ -162.056469, 5.8864701 ], [ -162.0564319, 5.8865438 ], [ -162.0564757, 5.8865572 ], [ -162.0567553, 5.8864801 ], [ -162.057048400000014, 5.8864232 ], [ -162.0572673, 5.8863595 ], [ -162.0574796, 5.8862958 ], [ -162.057607600000011, 5.8863092 ], [ -162.0577288, 5.8862355 ], [ -162.0577518, 5.8861099 ], [ -162.0577318, 5.885787 ], [ -162.057760300000012, 5.8855699 ] ] ] ] } },
{ "type": "Feature", "properties": { "FID": 92135, "id": 125, "left": -165.0, "top": 10.0, "right": -160.0, "bottom": 5.0, "row_index": 16, "col_index": 3, "min_lon": -165.0, "min_lat": 5.0, "tile_id": "-165_5" }, "geometry": { "type": "MultiPolygon", "coordinates": [ [ [ [ -162.05679520000001, 5.8852663 ], [ -162.0567833, 5.8851644 ], [ -162.0568523, 5.8850744 ], [ -162.0569548, 5.8850104 ], [ -162.0570453, 5.8850081 ], [ -162.057102500000013, 5.8850578 ], [ -162.057110599999987, 5.8851384 ], [ -162.0571525, 5.8852284 ], [ -162.0572335, 5.8852687 ], [ -162.0572525, 5.8853161 ], [ -162.0572144, 5.8853658 ], [ -162.0571522, 5.8853863 ], [ -162.057112499999988, 5.8854437 ], [ -162.0570014, 5.8855342 ], [ -162.056940700000013, 5.8855778 ], [ -162.0568573, 5.8855415 ], [ -162.0568084, 5.8854439 ], [ -162.05679520000001, 5.8852663 ] ] ] ] } },
{ "type": "Feature", "properties": { "FID": 92137, "id": 125, "left": -165.0, "top": 10.0, "right": -160.0, "bottom": 5.0, "row_index": 16, "col_index": 3, "min_lon": -165.0, "min_lat": 5.0, "tile_id": "-165_5" }, "geometry": { "type": "MultiPolygon", "coordinates": [ [ [ [ -162.0992518, 5.8842615 ], [ -162.099457699999988, 5.8843243 ], [ -162.099678399999988, 5.8845076 ], [ -162.099695200000014, 5.8846785 ], [ -162.0996144, 5.8848159 ], [ -162.0994392, 5.8848896 ], [ -162.0992202, 5.8850303 ], [ -162.0990813, 5.8851584 ], [ -162.0989002, 5.8854592 ], [ -162.0987857, 5.8855564 ], [ -162.098667799999987, 5.8855363 ], [ -162.098522, 5.8854156 ], [ -162.0983764, 5.8854067 ], [ -162.0983039, 5.8852883 ], [ -162.0983488, 5.8849958 ], [ -162.098430900000011, 5.8848496 ], [ -162.09854, 5.8847495 ], [ -162.0987284, 5.8846148 ], [ -162.0988867, 5.8845042 ], [ -162.099062, 5.8843238 ], [ -162.0992518, 5.8842615 ] ] ] ] } },
{ "type": "Feature", "properties": { "FID": 92138, "id": 125, "left": -165.0, "top": 10.0, "right": -160.0, "bottom": 5.0, "row_index": 16, "col_index": 3, "min_lon": -165.0, "min_lat": 5.0, "tile_id": "-165_5" }, "geometry": { "type": "MultiPolygon", "coordinates": [ [ [ [ -162.0447842, 5.8697592 ], [ -162.0448819, 5.8697759 ], [ -162.04494170000001, 5.8698098 ], [ -162.0449609, 5.8698396 ], [ -162.0449609, 5.8698858 ], [ -162.044932499999987, 5.8699133 ], [ -162.0448988, 5.8699234 ], [ -162.044861700000013, 5.8699133 ], [ -162.0448297, 5.8698916 ], [ -162.044799399999988, 5.8698782 ], [ -162.0447708, 5.8698916 ], [ -162.0447337, 5.8699452 ], [ -162.044732, 5.8700005 ], [ -162.0447438, 5.8700909 ], [ -162.0447725, 5.8701781 ], [ -162.0448078, 5.8703104 ], [ -162.0448432, 5.8703759 ], [ -162.044893699999989, 5.8704026 ], [ -162.0448988, 5.8704464 ], [ -162.044867, 5.8704863 ], [ -162.0448059, 5.8705045 ], [ -162.0447375, 5.8705031 ], [ -162.0446896, 5.8704613 ], [ -162.044676399999986, 5.8703875 ], [ -162.044679800000011, 5.8702166 ], [ -162.0446461, 5.8700474 ], [ -162.0446394, 5.8699334 ], [ -162.0446613, 5.8698396 ], [ -162.044701300000014, 5.8697841 ], [ -162.0447842, 5.8697592 ] ] ] ] } },
{ "type": "Feature", "properties": { "FID": 92139, "id": 125, "left": -165.0, "top": 10.0, "right": -160.0, "bottom": 5.0, "row_index": 16, "col_index": 3, "min_lon": -165.0, "min_lat": 5.0, "tile_id": "-165_5" }, "geometry": { "type": "MultiPolygon", "coordinates": [ [ [ [ -162.104417500000011, 5.8806535 ], [ -162.1044129, 5.8807867 ], [ -162.1043924, 5.8809306 ], [ -162.1043177, 5.8810557 ], [ -162.1038546, 5.8815067 ], [ -162.1035319, 5.8817028 ], [ -162.1030265, 5.8819031 ], [ -162.102952499999986, 5.8818676 ], [ -162.1029634, 5.8817851 ], [ -162.103093800000011, 5.8815289 ], [ -162.103283800000014, 5.8813249 ], [ -162.1035089, 5.8811716 ], [ -162.10379, 5.8808872 ], [ -162.10403980000001, 5.8807317 ], [ -162.1041941, 5.8805551 ], [ -162.1043162, 5.88049 ], [ -162.104421300000013, 5.8805495 ], [ -162.104417500000011, 5.8806535 ] ] ] ] } },
{ "type": "Feature", "properties": { "FID": 92140, "id": 125, "left": -165.0, "top": 10.0, "right": -160.0, "bottom": 5.0, "row_index": 16, "col_index": 3, "min_lon": -165.0, "min_lat": 5.0, "tile_id": "-165_5" }, "geometry": { "type": "MultiPolygon", "coordinates": [ [ [ [ -162.0465021, 5.8718043 ], [ -162.0465869, 5.87196 ], [ -162.0466757, 5.8720083 ], [ -162.0467727, 5.8720267 ], [ -162.0468143, 5.8720731 ], [ -162.0468325, 5.8721833 ], [ -162.0468878, 5.8723379 ], [ -162.0468823, 5.8724235 ], [ -162.0468562, 5.8725553 ], [ -162.046981, 5.8730933 ], [ -162.0470434, 5.8732889 ], [ -162.0470655, 5.8733772 ], [ -162.0470496, 5.8734642 ], [ -162.047021699999988, 5.8735129 ], [ -162.0469996, 5.873586 ], [ -162.047033, 5.8736625 ], [ -162.0470855, 5.8737046 ], [ -162.0470925, 5.8737736 ], [ -162.047065, 5.8738121 ], [ -162.0470095, 5.8738381 ], [ -162.0469546, 5.8739512 ], [ -162.046962400000012, 5.8741268 ], [ -162.0469043, 5.874348 ], [ -162.0469314, 5.8744168 ], [ -162.0469707, 5.8744787 ], [ -162.0470024, 5.8745604 ], [ -162.04701, 5.8746221 ], [ -162.046963299999987, 5.8747097 ], [ -162.0468873, 5.8747728 ], [ -162.0468679, 5.8748307 ], [ -162.0468679, 5.8749576 ], [ -162.04687340000001, 5.8750956 ], [ -162.0468679, 5.8753163 ], [ -162.0467625, 5.8755369 ], [ -162.0465606, 5.8760303 ], [ -162.0464676, 5.8763282 ], [ -162.0464787, 5.8764758 ], [ -162.0464304, 5.8765377 ], [ -162.046365900000012, 5.8765343 ], [ -162.0462688, 5.8764571 ], [ -162.0461939, 5.876493 ], [ -162.0461551, 5.8766199 ], [ -162.046141299999988, 5.8768902 ], [ -162.0460664, 5.8770668 ], [ -162.0459665, 5.8772295 ], [ -162.0458861, 5.8772626 ], [ -162.0457807, 5.8772543 ], [ -162.045672599999989, 5.8773316 ], [ -162.0456199, 5.8774612 ], [ -162.045614300000011, 5.8776599 ], [ -162.0455834, 5.8777284 ], [ -162.0455173, 5.8777619 ], [ -162.0454785, 5.8778337 ], [ -162.0454147, 5.8780792 ], [ -162.0454202, 5.8782419 ], [ -162.0453731, 5.8783743 ], [ -162.0454341, 5.8785233 ], [ -162.0454119, 5.8786061 ], [ -162.0453675, 5.8786695 ], [ -162.0452649, 5.8787136 ], [ -162.0452522, 5.8788609 ], [ -162.045194, 5.878935 ], [ -162.0450997, 5.8789488 ], [ -162.044997099999989, 5.8789185 ], [ -162.044822399999987, 5.8790398 ], [ -162.0446819, 5.8791721 ], [ -162.0446858, 5.8792697 ], [ -162.0447074, 5.8793126 ], [ -162.0446995, 5.8793789 ], [ -162.0446623, 5.8794179 ], [ -162.0440544, 5.8797846 ], [ -162.044042600000012, 5.8799017 ], [ -162.0440034, 5.8800031 ], [ -162.043914300000012, 5.8800671 ], [ -162.0436426, 5.8800897 ], [ -162.043187, 5.8802104 ], [ -162.042897399999987, 5.8802419 ], [ -162.0425248, 5.8803862 ], [ -162.0422125, 5.8806253 ], [ -162.0420856, 5.8806749 ], [ -162.0418895, 5.8806359 ], [ -162.0413269, 5.8807892 ], [ -162.0410623, 5.8808912 ], [ -162.0409682, 5.880942 ], [ -162.040827, 5.8810707 ], [ -162.0408133, 5.8811897 ], [ -162.0409388, 5.8813009 ], [ -162.04109170000001, 5.8813867 ], [ -162.04128, 5.8814296 ], [ -162.0413184, 5.8815361 ], [ -162.0412427, 5.881613 ], [ -162.0411407, 5.8815875 ], [ -162.0407966, 5.8813667 ], [ -162.040636799999987, 5.8813379 ], [ -162.040413199999989, 5.8812404 ], [ -162.0402641, 5.8812881 ], [ -162.0402015, 5.8811819 ], [ -162.040296500000011, 5.8810637 ], [ -162.040413199999989, 5.8809946 ], [ -162.0407662, 5.8809088 ], [ -162.0410463, 5.8808381 ], [ -162.041324, 5.880717 ], [ -162.0422769, 5.8803518 ], [ -162.0429562, 5.8800039 ], [ -162.0434539, 5.8797063 ], [ -162.0437202, 5.8795114 ], [ -162.044001900000012, 5.8791563 ], [ -162.0441705, 5.8788403 ], [ -162.0444405, 5.8783045 ], [ -162.0447509, 5.8779274 ], [ -162.0450616, 5.8774469 ], [ -162.0454201, 5.8769734 ], [ -162.0456608, 5.8765737 ], [ -162.04575890000001, 5.8762889 ], [ -162.0458844, 5.8760821 ], [ -162.0460883, 5.875809 ], [ -162.0463746, 5.8753058 ], [ -162.0465079, 5.8748259 ], [ -162.0466801, 5.8744595 ], [ -162.0468021, 5.8740573 ], [ -162.0468452, 5.8735658 ], [ -162.0468597, 5.8732518 ], [ -162.046817800000014, 5.8729377 ], [ -162.046742200000011, 5.8726507 ], [ -162.04662350000001, 5.8723795 ], [ -162.046541, 5.8721675 ], [ -162.04643440000001, 5.8719459 ], [ -162.046332400000011, 5.871803 ], [ -162.0463413, 5.8717166 ], [ -162.046409399999987, 5.8716921 ], [ -162.0464589, 5.8717096 ], [ -162.0465021, 5.8718043 ] ] ] ] } },
{ "type": "Feature", "properties": { "FID": 92141, "id": 125, "left": -165.0, "top": 10.0, "right": -160.0, "bottom": 5.0, "row_index": 16, "col_index": 3, "min_lon": -165.0, "min_lat": 5.0, "tile_id": "-165_5" }, "geometry": { "type": "MultiPolygon", "coordinates": [ [ [ [ -162.061446499999988, 5.8791673 ], [ -162.0614234, 5.87934 ], [ -162.0613778, 5.8794806 ], [ -162.0611106, 5.8798331 ], [ -162.060959200000013, 5.880058 ], [ -162.0608565, 5.8801773 ], [ -162.06077, 5.8801744 ], [ -162.060722, 5.8801142 ], [ -162.0607336, 5.8800231 ], [ -162.0610089, 5.8796875 ], [ -162.0611154, 5.8795488 ], [ -162.0611678, 5.8793806 ], [ -162.0612805, 5.8792434 ], [ -162.0613879, 5.8791477 ], [ -162.061446499999988, 5.8791673 ] ] ] ] } },
{ "type": "Feature", "properties": { "FID": 92142, "id": 125, "left": -165.0, "top": 10.0, "right": -160.0, "bottom": 5.0, "row_index": 16, "col_index": 3, "min_lon": -165.0, "min_lat": 5.0, "tile_id": "-165_5" }, "geometry": { "type": "MultiPolygon", "coordinates": [ [ [ [ -162.0617667, 5.8762014 ], [ -162.0618368, 5.8761968 ], [ -162.0619216, 5.8762559 ], [ -162.061964499999988, 5.876462 ], [ -162.062124, 5.8765805 ], [ -162.0621686, 5.8767441 ], [ -162.0621169, 5.8768648 ], [ -162.061942499999986, 5.8769098 ], [ -162.0616881, 5.876789 ], [ -162.0614785, 5.8765236 ], [ -162.061496799999986, 5.8764598 ], [ -162.0617667, 5.8762014 ] ] ] ] } },
{ "type": "Feature", "properties": { "FID": 271414, "id": 125, "left": -165.0, "top": 10.0, "right": -160.0, "bottom": 5.0, "row_index": 16, "col_index": 3, "min_lon": -165.0, "min_lat": 5.0, "tile_id": "-165_5" }, "geometry": { "type": "MultiPolygon", "coordinates": [ [ [ [ -162.0575815, 5.8731446 ], [ -162.0577451, 5.8729902 ], [ -162.0580545, 5.8729581 ], [ -162.0582044, 5.8731515 ], [ -162.058230900000012, 5.8732204 ], [ -162.058183899999989, 5.8732819 ], [ -162.0579539, 5.873277 ], [ -162.057745, 5.8733406 ], [ -162.0576242, 5.8732738 ], [ -162.0575815, 5.8732293 ], [ -162.0575815, 5.8731446 ] ] ] ] } },
{ "type": "Feature", "properties": { "FID": 271415, "id": 125, "left": -165.0, "top": 10.0, "right": -160.0, "bottom": 5.0, "row_index": 16, "col_index": 3, "min_lon": -165.0, "min_lat": 5.0, "tile_id": "-165_5" }, "geometry": { "type": "MultiPolygon", "coordinates": [ [ [ [ -162.0603026, 5.8878616 ], [ -162.0603203, 5.887829 ], [ -162.0603542, 5.8878103 ], [ -162.060386099999988, 5.8878145 ], [ -162.0604435, 5.8878435 ], [ -162.0604813, 5.8878785 ], [ -162.0605721, 5.8879996 ], [ -162.0605746, 5.8880342 ], [ -162.0605519, 5.8880585 ], [ -162.0605199, 5.8880727 ], [ -162.060487, 5.8880644 ], [ -162.060459400000013, 5.8880346 ], [ -162.0604382, 5.8880116 ], [ -162.0603405, 5.8879454 ], [ -162.0603102, 5.8879052 ], [ -162.0603026, 5.8878616 ] ] ] ] } },
{ "type": "Feature", "properties": { "FID": 271416, "id": 125, "left": -165.0, "top": 10.0, "right": -160.0, "bottom": 5.0, "row_index": 16, "col_index": 3, "min_lon": -165.0, "min_lat": 5.0, "tile_id": "-165_5" }, "geometry": { "type": "MultiPolygon", "coordinates": [ [ [ [ -162.0977316, 5.8735815 ], [ -162.097701300000011, 5.873646 ], [ -162.097685399999989, 5.8737096 ], [ -162.0976473, 5.8737473 ], [ -162.0976238, 5.8738308 ], [ -162.097598299999987, 5.8738492 ], [ -162.0975724, 5.8738552 ], [ -162.0975673, 5.8738513 ], [ -162.0975678, 5.8738211 ], [ -162.0976178, 5.8736952 ], [ -162.0976106, 5.873672 ], [ -162.0976348, 5.8736257 ], [ -162.097675400000014, 5.8735936 ], [ -162.0977111, 5.8735785 ], [ -162.0977258, 5.8735754 ], [ -162.0977316, 5.8735815 ] ] ] ] } },
{ "type": "Feature", "properties": { "FID": 271417, "id": 125, "left": -165.0, "top": 10.0, "right": -160.0, "bottom": 5.0, "row_index": 16, "col_index": 3, "min_lon": -165.0, "min_lat": 5.0, "tile_id": "-165_5" }, "geometry": { "type": "MultiPolygon", "coordinates": [ [ [ [ -162.0704426, 5.8751994 ], [ -162.0703948, 5.8751282 ], [ -162.0704067, 5.875031 ], [ -162.0704615, 5.8749765 ], [ -162.0705294, 5.8749285 ], [ -162.070580299999989, 5.874943 ], [ -162.07065320000001, 5.875002 ], [ -162.0707366, 5.875079 ], [ -162.0707759, 5.8751122 ], [ -162.0707836, 5.8751609 ], [ -162.070723500000014, 5.8753006 ], [ -162.0706504, 5.8753396 ], [ -162.0705913, 5.875342 ], [ -162.0705389, 5.8753029 ], [ -162.070509499999986, 5.875232 ], [ -162.0704426, 5.8751994 ] ] ] ] } },
{ "type": "Feature", "properties": { "FID": 271418, "id": 125, "left": -165.0, "top": 10.0, "right": -160.0, "bottom": 5.0, "row_index": 16, "col_index": 3, "min_lon": -165.0, "min_lat": 5.0, "tile_id": "-165_5" }, "geometry": { "type": "MultiPolygon", "coordinates": [ [ [ [ -162.0600857, 5.8872732 ], [ -162.0600863, 5.8873312 ], [ -162.0600738, 5.8873775 ], [ -162.0600255, 5.8874443 ], [ -162.059909, 5.8875437 ], [ -162.059844700000014, 5.8876492 ], [ -162.0597756, 5.8876977 ], [ -162.0597387, 5.8877356 ], [ -162.059751799999987, 5.8877641 ], [ -162.059798199999989, 5.8877783 ], [ -162.0598693, 5.8878075 ], [ -162.059942799999988, 5.8878297 ], [ -162.0600105, 5.8878146 ], [ -162.060071099999988, 5.8877828 ], [ -162.0601351, 5.887756 ], [ -162.0601974, 5.8877359 ], [ -162.0602362, 5.8877386 ], [ -162.060257799999988, 5.8877636 ], [ -162.06026030000001, 5.8877996 ], [ -162.0602519, 5.8878323 ], [ -162.060239, 5.8878529 ], [ -162.0602203, 5.8878655 ], [ -162.0601749, 5.8878669 ], [ -162.0601105, 5.8878818 ], [ -162.0600748, 5.8879198 ], [ -162.0600224, 5.8879589 ], [ -162.059975900000012, 5.8879873 ], [ -162.0599613, 5.8880211 ], [ -162.060003, 5.8880353 ], [ -162.060074500000013, 5.8880957 ], [ -162.060169699999989, 5.8881443 ], [ -162.0602376, 5.8882095 ], [ -162.0603639, 5.8882936 ], [ -162.0604782, 5.8883611 ], [ -162.060558, 5.8883966 ], [ -162.0606283, 5.8884085 ], [ -162.0607669, 5.8885122 ], [ -162.0608265, 5.8885382 ], [ -162.0609355, 5.8885396 ], [ -162.060908899999987, 5.8885104 ], [ -162.0609125, 5.8884879 ], [ -162.0608804, 5.8884464 ], [ -162.060828, 5.888412 ], [ -162.0607767, 5.8883836 ], [ -162.060741, 5.8884002 ], [ -162.0607133, 5.888395 ], [ -162.0607143, 5.8883652 ], [ -162.060720300000014, 5.8883178 ], [ -162.0607, 5.8882692 ], [ -162.060631, 5.88821 ], [ -162.0605875, 5.8881601 ], [ -162.0605584, 5.8881328 ], [ -162.0605607, 5.888102 ], [ -162.060581, 5.8880801 ], [ -162.06062, 5.888073 ], [ -162.0607076, 5.8880732 ], [ -162.0608322, 5.8881494 ], [ -162.0609662, 5.888303 ], [ -162.0610523, 5.88838 ], [ -162.0612284, 5.8884757 ], [ -162.06132310000001, 5.8885477 ], [ -162.0613404, 5.88858 ], [ -162.0613356, 5.8886179 ], [ -162.0613166, 5.8887032 ], [ -162.0612856, 5.8888454 ], [ -162.0613261, 5.8889804 ], [ -162.0614452, 5.8891155 ], [ -162.06155720000001, 5.8892103 ], [ -162.0617263, 5.8893287 ], [ -162.0619145, 5.8894472 ], [ -162.0620346, 5.8895623 ], [ -162.062075599999986, 5.8897445 ], [ -162.0621901, 5.8897813 ], [ -162.0623114, 5.889778 ], [ -162.0624023, 5.8897478 ], [ -162.0625034, 5.8897143 ], [ -162.062621299999989, 5.8897478 ], [ -162.0627763, 5.8897929 ], [ -162.062948299999988, 5.8898001 ], [ -162.063103, 5.8897713 ], [ -162.063288300000011, 5.8896875 ], [ -162.0633599, 5.8896018 ], [ -162.0633982, 5.8894873 ], [ -162.0633866, 5.8893746 ], [ -162.06344630000001, 5.8892452 ], [ -162.0635639, 5.8891141 ], [ -162.063646299999988, 5.889036 ], [ -162.0637528, 5.8888115 ], [ -162.063818199999986, 5.8888001 ], [ -162.063914899999986, 5.8887946 ], [ -162.0640462, 5.8888738 ], [ -162.064198299999987, 5.8891714 ], [ -162.0642336, 5.8893585 ], [ -162.064195500000011, 5.8895684 ], [ -162.064081, 5.8897915 ], [ -162.06393030000001, 5.8899547 ], [ -162.063822499999986, 5.8900377 ], [ -162.0637462, 5.8901104 ], [ -162.063627200000013, 5.8901325 ], [ -162.063517600000011, 5.8901317 ], [ -162.063419900000014, 5.890172 ], [ -162.0632937, 5.8901767 ], [ -162.0631746, 5.8901483 ], [ -162.063043599999986, 5.8901744 ], [ -162.062929200000013, 5.8900962 ], [ -162.0627603, 5.8900255 ], [ -162.062657699999988, 5.8900843 ], [ -162.062621900000011, 5.8901246 ], [ -162.0625743, 5.8901412 ], [ -162.0624743, 5.8901057 ], [ -162.0623218, 5.8900962 ], [ -162.0622606, 5.8900556 ], [ -162.0617835, 5.8898051 ], [ -162.0613579, 5.889624 ], [ -162.061062600000014, 5.8894533 ], [ -162.0607157, 5.8891953 ], [ -162.0605404, 5.8890217 ], [ -162.060223799999989, 5.8887597 ], [ -162.0598735, 5.8883978 ], [ -162.059748899999988, 5.88818 ], [ -162.0595669, 5.8879521 ], [ -162.0593816, 5.8877656 ], [ -162.059321, 5.8876572 ], [ -162.0593682, 5.88755 ], [ -162.0593716, 5.887426 ], [ -162.059348, 5.8873087 ], [ -162.0593742, 5.8871954 ], [ -162.059489500000012, 5.887034 ], [ -162.0595973, 5.8869033 ], [ -162.0597492, 5.8868103 ], [ -162.0599712, 5.8867324 ], [ -162.0601192, 5.8867354 ], [ -162.060265500000014, 5.8867139 ], [ -162.060319600000014, 5.8867388 ], [ -162.0603482, 5.8867873 ], [ -162.060362199999986, 5.8868767 ], [ -162.060410100000013, 5.8868962 ], [ -162.060410600000012, 5.8869348 ], [ -162.0603802, 5.8869851 ], [ -162.0603635, 5.8870386 ], [ -162.0603083, 5.8870866 ], [ -162.0602345, 5.8870691 ], [ -162.0601888, 5.8870789 ], [ -162.0601476, 5.8870896 ], [ -162.0601012, 5.8870813 ], [ -162.0600714, 5.8870386 ], [ -162.0600666, 5.8870102 ], [ -162.060086899999988, 5.8869735 ], [ -162.0600916, 5.8869427 ], [ -162.0601226, 5.8869367 ], [ -162.0601488, 5.8869308 ], [ -162.060140499999989, 5.8869154 ], [ -162.0600857, 5.8869 ], [ -162.0600392, 5.8869047 ], [ -162.059977300000014, 5.8869403 ], [ -162.0599475, 5.8869687 ], [ -162.0599523, 5.8870054 ], [ -162.0600083, 5.8870955 ], [ -162.0600446, 5.8871458 ], [ -162.0600684, 5.8872057 ], [ -162.0600857, 5.8872732 ] ] ] ] } },
{ "type": "Feature", "properties": { "FID": 271419, "id": 125, "left": -165.0, "top": 10.0, "right": -160.0, "bottom": 5.0, "row_index": 16, "col_index": 3, "min_lon": -165.0, "min_lat": 5.0, "tile_id": "-165_5" }, "geometry": { "type": "MultiPolygon", "coordinates": [ [ [ [ -162.0473657, 5.874107 ], [ -162.0473043, 5.8741172 ], [ -162.0471953, 5.8740357 ], [ -162.0472002, 5.8740068 ], [ -162.0472342, 5.8740119 ], [ -162.0472485, 5.8739784 ], [ -162.0472369, 5.8739195 ], [ -162.0471875, 5.8737967 ], [ -162.0472029, 5.8737377 ], [ -162.0472484, 5.873704 ], [ -162.047307600000011, 5.8737184 ], [ -162.0473457, 5.8737612 ], [ -162.0473211, 5.8738843 ], [ -162.0473464, 5.8739804 ], [ -162.0473919, 5.8740535 ], [ -162.0473977, 5.8740779 ], [ -162.0473657, 5.874107 ] ] ] ] } },
{ "type": "Feature", "properties": { "FID": 271420, "id": 125, "left": -165.0, "top": 10.0, "right": -160.0, "bottom": 5.0, "row_index": 16, "col_index": 3, "min_lon": -165.0, "min_lat": 5.0, "tile_id": "-165_5" }, "geometry": { "type": "MultiPolygon", "coordinates": [ [ [ [ -162.0494687, 5.8827347 ], [ -162.0494742, 5.8825848 ], [ -162.049524600000012, 5.8824827 ], [ -162.0496334, 5.882489 ], [ -162.0497825, 5.8825787 ], [ -162.0498839, 5.8827212 ], [ -162.0499386, 5.8828766 ], [ -162.050004, 5.8829951 ], [ -162.050052099999988, 5.8831538 ], [ -162.0500193, 5.883315 ], [ -162.0499844, 5.8833765 ], [ -162.0500381, 5.883453 ], [ -162.04995, 5.8834921 ], [ -162.0498701, 5.8834611 ], [ -162.049649100000011, 5.8832575 ], [ -162.0494526, 5.8829304 ], [ -162.049416, 5.882808 ], [ -162.0494687, 5.8827347 ] ] ] ] } },
{ "type": "Feature", "properties": { "FID": 271421, "id": 125, "left": -165.0, "top": 10.0, "right": -160.0, "bottom": 5.0, "row_index": 16, "col_index": 3, "min_lon": -165.0, "min_lat": 5.0, "tile_id": "-165_5" }, "geometry": { "type": "MultiPolygon", "coordinates": [ [ [ [ -162.0779071, 5.8806859 ], [ -162.0779669, 5.8806582 ], [ -162.077989800000012, 5.8806232 ], [ -162.077996500000012, 5.8805662 ], [ -162.0779972, 5.8804203 ], [ -162.0779915, 5.8802991 ], [ -162.0780033, 5.8802656 ], [ -162.078023800000011, 5.8802562 ], [ -162.078036200000014, 5.8802741 ], [ -162.0780409, 5.8803096 ], [ -162.0780457, 5.8804613 ], [ -162.0780671, 5.8806366 ], [ -162.078132, 5.8806903 ], [ -162.0782035, 5.880714 ], [ -162.0783371, 5.8806861 ], [ -162.0784146, 5.8807331 ], [ -162.078482, 5.8807934 ], [ -162.078660500000012, 5.8808269 ], [ -162.0788053, 5.8808503 ], [ -162.07893, 5.880857 ], [ -162.0790041, 5.8808805 ], [ -162.079204800000014, 5.8809046 ], [ -162.0794069, 5.8809013 ], [ -162.0795922, 5.8808879 ], [ -162.079764, 5.8808577 ], [ -162.0799489, 5.8808809 ], [ -162.080017199999986, 5.8809121 ], [ -162.0800596, 5.8809435 ], [ -162.0800945, 5.8810118 ], [ -162.080111499999987, 5.8810863 ], [ -162.080103400000013, 5.881163 ], [ -162.08012690000001, 5.8812149 ], [ -162.0801741, 5.8812484 ], [ -162.0802072, 5.8812675 ], [ -162.0802822, 5.8813107 ], [ -162.0803594, 5.8814026 ], [ -162.0805244, 5.8814461 ], [ -162.0806053, 5.8815031 ], [ -162.080703, 5.8815366 ], [ -162.0807737, 5.8815399 ], [ -162.0808916, 5.8815869 ], [ -162.0809523, 5.8816472 ], [ -162.0810634, 5.881674 ], [ -162.0812015, 5.8816639 ], [ -162.0813298, 5.8816493 ], [ -162.0813846, 5.8816209 ], [ -162.0814203, 5.8815664 ], [ -162.081491699999987, 5.8815237 ], [ -162.081594200000012, 5.8814763 ], [ -162.0816752, 5.8814574 ], [ -162.0817514, 5.8814645 ], [ -162.0818562, 5.8814432 ], [ -162.081970500000011, 5.8814289 ], [ -162.082080100000013, 5.8813981 ], [ -162.082175400000011, 5.8814218 ], [ -162.0822873, 5.8814645 ], [ -162.0824493, 5.881455 ], [ -162.082547, 5.88141 ], [ -162.082666100000012, 5.8813626 ], [ -162.08275660000001, 5.8813602 ], [ -162.082875699999988, 5.8814313 ], [ -162.082971, 5.881436 ], [ -162.08304720000001, 5.8814029 ], [ -162.0830853, 5.8813081 ], [ -162.0830996, 5.8811849 ], [ -162.0832316, 5.8810371 ], [ -162.083302300000014, 5.8809947 ], [ -162.0833656, 5.8810153 ], [ -162.0834303, 5.8810524 ], [ -162.083530599999989, 5.8811314 ], [ -162.0835975, 5.8811763 ], [ -162.0835748, 5.8813408 ], [ -162.0836282, 5.8814206 ], [ -162.083882499999987, 5.8817057 ], [ -162.08387780000001, 5.8818527 ], [ -162.08379020000001, 5.8819667 ], [ -162.0836217, 5.8820203 ], [ -162.0831713, 5.8820634 ], [ -162.08288060000001, 5.8820772 ], [ -162.0826246, 5.8820638 ], [ -162.082321400000012, 5.8820739 ], [ -162.08203850000001, 5.8821141 ], [ -162.0817218, 5.8821677 ], [ -162.0812856, 5.8821996 ], [ -162.0810447, 5.8821912 ], [ -162.0807045, 5.8821543 ], [ -162.0804855, 5.8821543 ], [ -162.080192399999987, 5.8821308 ], [ -162.0798993, 5.8821275 ], [ -162.079646700000012, 5.8820906 ], [ -162.079541400000011, 5.8820606 ], [ -162.0794984, 5.8820783 ], [ -162.0794081, 5.8820321 ], [ -162.0792071, 5.8820075 ], [ -162.0790627, 5.8819516 ], [ -162.0789388, 5.8818331 ], [ -162.0787742, 5.88173 ], [ -162.0785789, 5.8816968 ], [ -162.078447899999986, 5.8817205 ], [ -162.0782907, 5.8817631 ], [ -162.0781596, 5.8817608 ], [ -162.0780072, 5.8817513 ], [ -162.077895399999989, 5.88173 ], [ -162.0778119, 5.8816565 ], [ -162.0776975, 5.8816328 ], [ -162.0775999, 5.8816423 ], [ -162.077526, 5.8815688 ], [ -162.077512500000012, 5.8814587 ], [ -162.0774752, 5.88115 ], [ -162.077387499999986, 5.8809102 ], [ -162.0771911, 5.8806299 ], [ -162.077017, 5.8804505 ], [ -162.076895400000012, 5.8803329 ], [ -162.0767567, 5.8802233 ], [ -162.0766338, 5.8801663 ], [ -162.0764704, 5.8801496 ], [ -162.0763373, 5.8801462 ], [ -162.076243, 5.8801311 ], [ -162.07612850000001, 5.8801362 ], [ -162.076002100000011, 5.8801613 ], [ -162.075933099999986, 5.8801613 ], [ -162.075832, 5.8801328 ], [ -162.0756787, 5.8801177 ], [ -162.0755389, 5.8800926 ], [ -162.0751813, 5.8801078 ], [ -162.0749017, 5.8800978 ], [ -162.0747737, 5.8800844 ], [ -162.0746019, 5.880024 ], [ -162.074452, 5.8800157 ], [ -162.0741993, 5.8800324 ], [ -162.0740444, 5.8800224 ], [ -162.073882700000013, 5.8799956 ], [ -162.073758, 5.8799688 ], [ -162.0728789, 5.8798998 ], [ -162.0726688, 5.8798417 ], [ -162.0724645, 5.8798145 ], [ -162.0720524, 5.8797245 ], [ -162.071899699999989, 5.8797057 ], [ -162.071745600000014, 5.8797053 ], [ -162.0715812, 5.8797053 ], [ -162.071398, 5.8797262 ], [ -162.071308499999986, 5.8797243 ], [ -162.0712293, 5.8797409 ], [ -162.0711986, 5.8797515 ], [ -162.0711689, 5.8797835 ], [ -162.0711465, 5.8797906 ], [ -162.071129, 5.8797752 ], [ -162.0711091, 5.8797501 ], [ -162.0710793, 5.8797216 ], [ -162.0710799, 5.879705 ], [ -162.071098299999989, 5.8796878 ], [ -162.071156800000011, 5.8796567 ], [ -162.0713378, 5.8796558 ], [ -162.071657, 5.879606 ], [ -162.0719111, 5.8796141 ], [ -162.0720452, 5.8796297 ], [ -162.0721977, 5.8796558 ], [ -162.072416800000013, 5.8797198 ], [ -162.072512100000012, 5.8797529 ], [ -162.0726122, 5.8797482 ], [ -162.0729004, 5.8797837 ], [ -162.0732449, 5.879834 ], [ -162.073575, 5.8798575 ], [ -162.0738311, 5.8799111 ], [ -162.0740265, 5.8799312 ], [ -162.074164599999989, 5.8798977 ], [ -162.074253199999987, 5.8798906 ], [ -162.0745421, 5.8799128 ], [ -162.0748518, 5.8799881 ], [ -162.075064, 5.8800083 ], [ -162.0754312, 5.8800217 ], [ -162.075752099999988, 5.8800554 ], [ -162.0758844, 5.8800521 ], [ -162.0760124, 5.8800438 ], [ -162.0761522, 5.8800521 ], [ -162.0763139, 5.8800471 ], [ -162.0765362, 5.8800639 ], [ -162.0766339, 5.8800605 ], [ -162.076783799999987, 5.8801011 ], [ -162.0770255, 5.8802037 ], [ -162.0773235, 5.8803627 ], [ -162.077506199999988, 5.880481 ], [ -162.077602899999988, 5.8805973 ], [ -162.077701100000013, 5.8806291 ], [ -162.0778355, 5.8806842 ], [ -162.0779071, 5.8806859 ] ] ] ] } },
{ "type": "Feature", "properties": { "FID": 271422, "id": 125, "left": -165.0, "top": 10.0, "right": -160.0, "bottom": 5.0, "row_index": 16, "col_index": 3, "min_lon": -165.0, "min_lat": 5.0, "tile_id": "-165_5" }, "geometry": { "type": "MultiPolygon", "coordinates": [ [ [ [ -162.0721062, 5.8753024 ], [ -162.072077400000012, 5.8752193 ], [ -162.0720455, 5.8750558 ], [ -162.072089299999988, 5.8748923 ], [ -162.0721155, 5.8748354 ], [ -162.0721668, 5.8747945 ], [ -162.0722391, 5.8747923 ], [ -162.072305199999988, 5.8748283 ], [ -162.0724145, 5.8748466 ], [ -162.0724955, 5.8748407 ], [ -162.0725338, 5.8748875 ], [ -162.0725267, 5.8749539 ], [ -162.0724624, 5.8750226 ], [ -162.0724004, 5.8750984 ], [ -162.0724395, 5.8752151 ], [ -162.0724471, 5.8752638 ], [ -162.072387099999986, 5.8754035 ], [ -162.072314, 5.8754425 ], [ -162.0722549, 5.8754449 ], [ -162.0722025, 5.8754059 ], [ -162.072173099999986, 5.8753349 ], [ -162.0721062, 5.8753024 ] ] ] ] } },
{ "type": "Feature", "properties": { "FID": 271423, "id": 125, "left": -165.0, "top": 10.0, "right": -160.0, "bottom": 5.0, "row_index": 16, "col_index": 3, "min_lon": -165.0, "min_lat": 5.0, "tile_id": "-165_5" }, "geometry": { "type": "MultiPolygon", "coordinates": [ [ [ [ -162.0702528, 5.8858784 ], [ -162.070178, 5.886167 ], [ -162.070123099999989, 5.886367 ], [ -162.069967, 5.8867622 ], [ -162.069831599999986, 5.8871423 ], [ -162.0697908, 5.8873197 ], [ -162.069737, 5.8873528 ], [ -162.0696973, 5.8873041 ], [ -162.06972110000001, 5.8871662 ], [ -162.0698533, 5.8867247 ], [ -162.0699453, 5.8865441 ], [ -162.0699692, 5.8863378 ], [ -162.070120300000013, 5.8859392 ], [ -162.0701814, 5.8855084 ], [ -162.070292099999989, 5.884387 ], [ -162.070369699999986, 5.8817829 ], [ -162.070416599999987, 5.8805753 ], [ -162.0704125, 5.8802008 ], [ -162.0704314, 5.8801026 ], [ -162.0704718, 5.8800718 ], [ -162.0705217, 5.8800973 ], [ -162.070536, 5.8801677 ], [ -162.0705337, 5.8805968 ], [ -162.0704807, 5.881838 ], [ -162.0704862, 5.8830849 ], [ -162.070321400000012, 5.8855462 ], [ -162.0702528, 5.8858784 ] ] ] ] } },
{ "type": "Feature", "properties": { "FID": 271424, "id": 125, "left": -165.0, "top": 10.0, "right": -160.0, "bottom": 5.0, "row_index": 16, "col_index": 3, "min_lon": -165.0, "min_lat": 5.0, "tile_id": "-165_5" }, "geometry": { "type": "MultiPolygon", "coordinates": [ [ [ [ -162.0602178, 5.8871818 ], [ -162.0602605, 5.887166 ], [ -162.060289, 5.887171 ], [ -162.0603094, 5.8871978 ], [ -162.0603327, 5.887208 ], [ -162.0604059, 5.8872126 ], [ -162.0604545, 5.8872596 ], [ -162.0604557, 5.8873217 ], [ -162.060432, 5.8873799 ], [ -162.060446, 5.8874089 ], [ -162.0605013, 5.8874318 ], [ -162.0605544, 5.8874498 ], [ -162.0605807, 5.8874996 ], [ -162.0605635, 5.887537 ], [ -162.060528299999987, 5.8875477 ], [ -162.060491399999989, 5.8875419 ], [ -162.0604654, 5.8875216 ], [ -162.0603949, 5.8875011 ], [ -162.0603647, 5.8874643 ], [ -162.0603298, 5.8874644 ], [ -162.0602901, 5.8874394 ], [ -162.060267, 5.8873984 ], [ -162.060213800000014, 5.8873508 ], [ -162.0602001, 5.8872799 ], [ -162.060198899999989, 5.8872322 ], [ -162.060202, 5.8872025 ], [ -162.0602178, 5.8871818 ] ] ] ] } },
{ "type": "Feature", "properties": { "FID": 271425, "id": 125, "left": -165.0, "top": 10.0, "right": -160.0, "bottom": 5.0, "row_index": 16, "col_index": 3, "min_lon": -165.0, "min_lat": 5.0, "tile_id": "-165_5" }, "geometry": { "type": "MultiPolygon", "coordinates": [ [ [ [ -162.0547282, 5.8832647 ], [ -162.0548369, 5.8831727 ], [ -162.0550022, 5.8830788 ], [ -162.0551385, 5.8830157 ], [ -162.0552782, 5.8830186 ], [ -162.0554396, 5.882912 ], [ -162.0555168, 5.8829044 ], [ -162.0555851, 5.8829802 ], [ -162.055625099999986, 5.8830709 ], [ -162.0556085, 5.8832005 ], [ -162.0555422, 5.8832835 ], [ -162.05546480000001, 5.8833975 ], [ -162.0553715, 5.8834382 ], [ -162.0552219, 5.8834629 ], [ -162.055040600000012, 5.8834974 ], [ -162.0548909, 5.8835924 ], [ -162.0548096, 5.8837045 ], [ -162.054662799999988, 5.8838543 ], [ -162.054487599999987, 5.8839348 ], [ -162.0543046, 5.8839293 ], [ -162.054138200000011, 5.8839072 ], [ -162.054032799999987, 5.883852 ], [ -162.054032799999987, 5.8837362 ], [ -162.0541327, 5.8836424 ], [ -162.054293800000011, 5.8836194 ], [ -162.0545434, 5.883429 ], [ -162.0546066, 5.8833143 ], [ -162.0547282, 5.8832647 ] ] ] ] } },
{ "type": "Feature", "properties": { "FID": 271426, "id": 125, "left": -165.0, "top": 10.0, "right": -160.0, "bottom": 5.0, "row_index": 16, "col_index": 3, "min_lon": -165.0, "min_lat": 5.0, "tile_id": "-165_5" }, "geometry": { "type": "MultiPolygon", "coordinates": [ [ [ [ -162.069955, 5.876323 ], [ -162.069704, 5.8755077 ], [ -162.0696059, 5.8750376 ], [ -162.0695863, 5.8749439 ], [ -162.0696108, 5.8748839 ], [ -162.0696553, 5.8748716 ], [ -162.0697118, 5.8749205 ], [ -162.069742100000013, 5.8749716 ], [ -162.0698648, 5.8751722 ], [ -162.0698648, 5.8753867 ], [ -162.0705197, 5.8772301 ], [ -162.0706016, 5.8776079 ], [ -162.070665100000014, 5.8779928 ], [ -162.070665100000014, 5.8783845 ], [ -162.070598600000011, 5.8786163 ], [ -162.070593, 5.878859 ], [ -162.0706041, 5.8791459 ], [ -162.070593, 5.8795818 ], [ -162.070615800000013, 5.8796484 ], [ -162.0707103, 5.8796864 ], [ -162.0707103, 5.8797156 ], [ -162.070663200000013, 5.8797449 ], [ -162.0706377, 5.8797956 ], [ -162.0706044, 5.8798171 ], [ -162.0705671, 5.8798405 ], [ -162.0705495, 5.8799088 ], [ -162.0705099, 5.8799299 ], [ -162.0704671, 5.8799185 ], [ -162.0704494, 5.8798912 ], [ -162.0704534, 5.8798034 ], [ -162.0704273, 5.8797136 ], [ -162.0704488, 5.8791294 ], [ -162.0704155, 5.878837 ], [ -162.070437700000014, 5.8784673 ], [ -162.0703939, 5.8781202 ], [ -162.0703432, 5.8778874 ], [ -162.070253, 5.8776495 ], [ -162.0702196, 5.8775037 ], [ -162.0701673, 5.877194 ], [ -162.069955, 5.876323 ] ] ] ] } },
{ "type": "Feature", "properties": { "FID": 271427, "id": 125, "left": -165.0, "top": 10.0, "right": -160.0, "bottom": 5.0, "row_index": 16, "col_index": 3, "min_lon": -165.0, "min_lat": 5.0, "tile_id": "-165_5" }, "geometry": { "type": "MultiPolygon", "coordinates": [ [ [ [ -162.089192200000014, 5.8742718 ], [ -162.0889063, 5.8743571 ], [ -162.0887789, 5.8743473 ], [ -162.0887411, 5.8742343 ], [ -162.0888187, 5.8741349 ], [ -162.0888132, 5.8740191 ], [ -162.0887023, 5.8739694 ], [ -162.088497100000012, 5.8739363 ], [ -162.0883584, 5.8739032 ], [ -162.08821420000001, 5.8738756 ], [ -162.088137499999988, 5.8738563 ], [ -162.0880728, 5.8738839 ], [ -162.088078700000011, 5.8739695 ], [ -162.0880617, 5.8740356 ], [ -162.0879308, 5.8741223 ], [ -162.08782260000001, 5.8741459 ], [ -162.0877271, 5.8741154 ], [ -162.0876744, 5.8740795 ], [ -162.08724620000001, 5.8740887 ], [ -162.0872599, 5.8743247 ], [ -162.087241299999988, 5.8745578 ], [ -162.087144200000012, 5.8748805 ], [ -162.0869116, 5.8750529 ], [ -162.086619500000012, 5.8751196 ], [ -162.0863311, 5.8750451 ], [ -162.0861193, 5.8748657 ], [ -162.0859782, 5.8745848 ], [ -162.0858134, 5.8743897 ], [ -162.085617, 5.8743419 ], [ -162.0852778, 5.8744079 ], [ -162.0852179, 5.8745069 ], [ -162.0850543, 5.8745841 ], [ -162.08491570000001, 5.8745678 ], [ -162.0847659, 5.8746007 ], [ -162.0846549, 5.8747 ], [ -162.084392900000012, 5.8750221 ], [ -162.0842333, 5.875333 ], [ -162.084221899999989, 5.8755004 ], [ -162.0841, 5.8755593 ], [ -162.083872500000012, 5.8755047 ], [ -162.0836294, 5.8755593 ], [ -162.0833548, 5.8757309 ], [ -162.0831195, 5.8758168 ], [ -162.0829156, 5.8760196 ], [ -162.0826959, 5.8762459 ], [ -162.0825711, 5.8765561 ], [ -162.0824293, 5.8766594 ], [ -162.0821484, 5.8766913 ], [ -162.081821100000013, 5.8765534 ], [ -162.0815494, 5.8765092 ], [ -162.081327499999986, 5.8765258 ], [ -162.0812277, 5.8764706 ], [ -162.081155599999988, 5.8763658 ], [ -162.0810169, 5.8763437 ], [ -162.0808561, 5.8763989 ], [ -162.0807341, 5.8764154 ], [ -162.0805732, 5.8763216 ], [ -162.0804669, 5.8761893 ], [ -162.0803458, 5.8760127 ], [ -162.080229300000013, 5.8758416 ], [ -162.079816599999987, 5.8756833 ], [ -162.079386699999986, 5.8754877 ], [ -162.079175, 5.8754877 ], [ -162.0789867, 5.8754604 ], [ -162.0788337, 5.8753512 ], [ -162.0787566, 5.8751668 ], [ -162.078590600000013, 5.8751093 ], [ -162.078469, 5.8751366 ], [ -162.0783592, 5.8752693 ], [ -162.078323899999987, 5.875437 ], [ -162.0782415, 5.8755697 ], [ -162.078069, 5.8756126 ], [ -162.0779435, 5.8756282 ], [ -162.0777905, 5.8757179 ], [ -162.077712100000014, 5.8758037 ], [ -162.077784, 5.8759329 ], [ -162.0777134, 5.8760031 ], [ -162.077635, 5.8759485 ], [ -162.0776036, 5.8758314 ], [ -162.077635, 5.8756286 ], [ -162.0777291, 5.8754569 ], [ -162.0777448, 5.8752775 ], [ -162.077745599999986, 5.8751311 ], [ -162.0778123, 5.8749516 ], [ -162.0778201, 5.8748385 ], [ -162.0776868, 5.8747527 ], [ -162.0774946, 5.8747175 ], [ -162.077314199999989, 5.8747566 ], [ -162.077078300000011, 5.8747821 ], [ -162.076878599999986, 5.8747932 ], [ -162.0766457, 5.8747656 ], [ -162.0764738, 5.8746773 ], [ -162.076385, 5.8745559 ], [ -162.076373, 5.874396 ], [ -162.076294600000011, 5.8743258 ], [ -162.076173, 5.8743023 ], [ -162.0760357, 5.8744662 ], [ -162.075922, 5.8745676 ], [ -162.0757365, 5.8745607 ], [ -162.0755561, 5.8744905 ], [ -162.0754502, 5.8743656 ], [ -162.075340399999988, 5.8741862 ], [ -162.0752541, 5.8742252 ], [ -162.0752463, 5.8744437 ], [ -162.0752032, 5.8746699 ], [ -162.0750502, 5.8748533 ], [ -162.0750267, 5.8749781 ], [ -162.0750424, 5.8751303 ], [ -162.0751013, 5.875366 ], [ -162.0750855, 5.8755126 ], [ -162.075034499999987, 5.8755672 ], [ -162.0749286, 5.8755282 ], [ -162.0747364, 5.8753176 ], [ -162.0746274, 5.8751238 ], [ -162.0746078, 5.8748936 ], [ -162.0744784, 5.8746869 ], [ -162.0744196, 5.8745347 ], [ -162.0742548, 5.8745035 ], [ -162.074164599999989, 5.8743943 ], [ -162.074145, 5.8742655 ], [ -162.0741215, 5.8741602 ], [ -162.0740391, 5.8740939 ], [ -162.0738862, 5.8740666 ], [ -162.0737607, 5.8741524 ], [ -162.0737685, 5.8743396 ], [ -162.07374, 5.8745248 ], [ -162.0736568, 5.8747951 ], [ -162.0736346, 5.8749827 ], [ -162.07352370000001, 5.875071 ], [ -162.073379499999987, 5.8750103 ], [ -162.0732597, 5.8748229 ], [ -162.07312, 5.8745564 ], [ -162.0729206, 5.8737567 ], [ -162.072791, 5.8735616 ], [ -162.0725565, 5.8734956 ], [ -162.0717943, 5.8735311 ], [ -162.07155370000001, 5.8736046 ], [ -162.071379, 5.8737612 ], [ -162.0709392, 5.8741993 ], [ -162.07077240000001, 5.8743486 ], [ -162.07067, 5.8743723 ], [ -162.070653600000014, 5.8744694 ], [ -162.0705557, 5.8745453 ], [ -162.070406, 5.8745437 ], [ -162.0700725, 5.8733496 ], [ -162.070057600000013, 5.8731399 ], [ -162.0699835, 5.8730149 ], [ -162.069848799999988, 5.8729613 ], [ -162.0696635, 5.8729345 ], [ -162.0695838, 5.872964 ], [ -162.069503, 5.8730545 ], [ -162.0695134, 5.8732789 ], [ -162.0695312, 5.8735444 ], [ -162.069534, 5.8737505 ], [ -162.0695867, 5.8741524 ], [ -162.069636, 5.874381 ], [ -162.0697228, 5.8745696 ], [ -162.0697257, 5.8746206 ], [ -162.0696997, 5.8746415 ], [ -162.0696471, 5.8746229 ], [ -162.069577, 5.8745296 ], [ -162.069514, 5.8744779 ], [ -162.069524300000012, 5.8742994 ], [ -162.0693949, 5.8738225 ], [ -162.069324099999989, 5.873477 ], [ -162.0691483, 5.8733887 ], [ -162.068838, 5.8731804 ], [ -162.068471100000011, 5.8729124 ], [ -162.0682687, 5.8727703 ], [ -162.0681495, 5.8725937 ], [ -162.0679748, 5.8724806 ], [ -162.067822400000011, 5.8724329 ], [ -162.0677053, 5.8724725 ], [ -162.0676316, 5.8725263 ], [ -162.067623700000013, 5.8727543 ], [ -162.067590599999988, 5.8729225 ], [ -162.0675345, 5.872989 ], [ -162.067492499999986, 5.8730755 ], [ -162.0674984, 5.8731673 ], [ -162.067555, 5.873316 ], [ -162.0676244, 5.8735587 ], [ -162.0675635, 5.8737982 ], [ -162.0674546, 5.8738232 ], [ -162.0673649, 5.873718 ], [ -162.067266100000012, 5.8735552 ], [ -162.0673439, 5.873221 ], [ -162.0673586, 5.8731698 ], [ -162.0673932, 5.8729349 ], [ -162.0671774, 5.8727623 ], [ -162.0671193, 5.8726057 ], [ -162.06711150000001, 5.8724029 ], [ -162.0669938, 5.872239 ], [ -162.0668487, 5.8721337 ], [ -162.0666722, 5.8720986 ], [ -162.0664526, 5.8720284 ], [ -162.0662879, 5.8719815 ], [ -162.0661859, 5.8720244 ], [ -162.066127099999989, 5.8721571 ], [ -162.0660447, 5.8724146 ], [ -162.0659388, 5.8726018 ], [ -162.0657977, 5.8727774 ], [ -162.0657702, 5.8729296 ], [ -162.06568, 5.8730661 ], [ -162.0655573, 5.8731128 ], [ -162.0650846, 5.8731945 ], [ -162.0648062, 5.8731711 ], [ -162.0645748, 5.8730619 ], [ -162.0642728, 5.8728551 ], [ -162.0639237, 5.8725157 ], [ -162.0636963, 5.8723129 ], [ -162.06334720000001, 5.872188 ], [ -162.0631041, 5.8721997 ], [ -162.0629629, 5.8723558 ], [ -162.0627864, 5.8724533 ], [ -162.062653, 5.8724845 ], [ -162.0625824, 5.872543 ], [ -162.062586399999986, 5.872703 ], [ -162.0627044, 5.8728347 ], [ -162.0628131, 5.8729858 ], [ -162.0628484, 5.8731887 ], [ -162.062864100000013, 5.8733681 ], [ -162.0629386, 5.8734735 ], [ -162.0629974, 5.8735593 ], [ -162.062981799999989, 5.8736803 ], [ -162.062840599999987, 5.8738051 ], [ -162.0626442, 5.8738736 ], [ -162.0622591, 5.8738769 ], [ -162.0619485, 5.8737003 ], [ -162.061649, 5.8736451 ], [ -162.0613717, 5.8738162 ], [ -162.0609502, 5.8738603 ], [ -162.0607006, 5.8740369 ], [ -162.0605641, 5.874268 ], [ -162.0605557, 5.8747233 ], [ -162.0607109, 5.8748452 ], [ -162.060764400000011, 5.8749822 ], [ -162.060766300000012, 5.8750956 ], [ -162.0607176, 5.8752339 ], [ -162.060596299999986, 5.8753311 ], [ -162.0604885, 5.8752976 ], [ -162.0603336, 5.8751669 ], [ -162.060239200000012, 5.8750362 ], [ -162.0601618, 5.8750448 ], [ -162.060124699999989, 5.8751267 ], [ -162.0600997, 5.8752806 ], [ -162.0600795, 5.8754749 ], [ -162.0600795, 5.8756726 ], [ -162.0601098, 5.8757631 ], [ -162.0601907, 5.8758234 ], [ -162.060343100000011, 5.875901 ], [ -162.0603709, 5.8759642 ], [ -162.0603389, 5.8760446 ], [ -162.0602934, 5.8760865 ], [ -162.0602261, 5.8760915 ], [ -162.0601368, 5.8760563 ], [ -162.0600576, 5.8760597 ], [ -162.0598976, 5.8761569 ], [ -162.059759500000013, 5.8763144 ], [ -162.0597393, 5.8764417 ], [ -162.059766200000013, 5.8765858 ], [ -162.059804899999989, 5.8766658 ], [ -162.05991, 5.8767244 ], [ -162.0599766, 5.8768072 ], [ -162.0599599, 5.8768982 ], [ -162.059925099999987, 5.8769694 ], [ -162.0599599, 5.8770665 ], [ -162.0600681, 5.8771465 ], [ -162.060142899999988, 5.8772403 ], [ -162.06016790000001, 5.8773037 ], [ -162.0602844, 5.877414 ], [ -162.0604452, 5.8775437 ], [ -162.060489600000011, 5.8776899 ], [ -162.0604591, 5.8778168 ], [ -162.0603792, 5.8778938 ], [ -162.0601762, 5.8779382 ], [ -162.0599738, 5.8780099 ], [ -162.059887800000013, 5.8781368 ], [ -162.0597663, 5.8781745 ], [ -162.0595495, 5.8782196 ], [ -162.0592528, 5.8781865 ], [ -162.059191700000014, 5.8781534 ], [ -162.0591751, 5.8780099 ], [ -162.059191700000014, 5.8778389 ], [ -162.058367800000013, 5.8782296 ], [ -162.0582384, 5.8783076 ], [ -162.0581372, 5.8782414 ], [ -162.0582188, 5.8781164 ], [ -162.058407, 5.8780618 ], [ -162.0586698, 5.8779136 ], [ -162.05895670000001, 5.8777122 ], [ -162.0591953, 5.8775195 ], [ -162.059356900000012, 5.8773519 ], [ -162.059424, 5.8770461 ], [ -162.0594312, 5.8765951 ], [ -162.0593552, 5.8760572 ], [ -162.0592407, 5.8756428 ], [ -162.0591287, 5.8753231 ], [ -162.0589326, 5.8751905 ], [ -162.0587027, 5.8751683 ], [ -162.05845020000001, 5.8750968 ], [ -162.058324699999986, 5.8750188 ], [ -162.058203099999986, 5.8750071 ], [ -162.0581335, 5.8750255 ], [ -162.0580698, 5.8749837 ], [ -162.0580698, 5.8748745 ], [ -162.058182, 5.874758 ], [ -162.0583404, 5.8745897 ], [ -162.058363899999989, 5.8744453 ], [ -162.0584815, 5.8742035 ], [ -162.058607, 5.8740552 ], [ -162.0588698, 5.8738523 ], [ -162.059013099999987, 5.8737402 ], [ -162.059348300000011, 5.8736813 ], [ -162.0596156, 5.8735421 ], [ -162.059746600000011, 5.8736116 ], [ -162.0598242, 5.873722 ], [ -162.060035, 5.8738502 ], [ -162.060297, 5.8739814 ], [ -162.060524500000014, 5.873927 ], [ -162.0607089, 5.8737587 ], [ -162.06108660000001, 5.8734045 ], [ -162.0613686, 5.8730009 ], [ -162.0616393, 5.8725988 ], [ -162.0618144, 5.8721875 ], [ -162.0620693, 5.8716848 ], [ -162.0620299, 5.8715835 ], [ -162.0618081, 5.8715062 ], [ -162.0615862, 5.8716 ], [ -162.0614032, 5.8716331 ], [ -162.061326400000013, 5.8717561 ], [ -162.0612995, 5.87183 ], [ -162.0612884, 5.8719514 ], [ -162.0613244, 5.8720203 ], [ -162.061327299999988, 5.8721403 ], [ -162.061215299999986, 5.8722589 ], [ -162.061083200000013, 5.8722887 ], [ -162.060964, 5.8722749 ], [ -162.060839, 5.8722092 ], [ -162.0607508, 5.8721086 ], [ -162.0606773, 5.8719612 ], [ -162.0605635, 5.8717817 ], [ -162.0604851, 5.8715866 ], [ -162.060351700000012, 5.871454 ], [ -162.060175500000014, 5.8714753 ], [ -162.0601043, 5.8715572 ], [ -162.0601058, 5.8717228 ], [ -162.0600389, 5.8717017 ], [ -162.0599952, 5.8717659 ], [ -162.060072100000014, 5.8719011 ], [ -162.0599729, 5.8719434 ], [ -162.060103, 5.872179 ], [ -162.0598869, 5.8721493 ], [ -162.0598813, 5.8718137 ], [ -162.060023699999988, 5.8715047 ], [ -162.0600642, 5.8711362 ], [ -162.0602709, 5.8709524 ], [ -162.060399499999988, 5.8708815 ], [ -162.0605555, 5.8708789 ], [ -162.06073090000001, 5.8708927 ], [ -162.0609795, 5.8709538 ], [ -162.0612351, 5.8710104 ], [ -162.0613017, 5.8710134 ], [ -162.0616521, 5.8710415 ], [ -162.0619294, 5.8710139 ], [ -162.0623732, 5.8709274 ], [ -162.0627437, 5.8708803 ], [ -162.0629778, 5.870824 ], [ -162.06314660000001, 5.870824 ], [ -162.063417, 5.8708322 ], [ -162.0636876, 5.8709103 ], [ -162.063919, 5.8709727 ], [ -162.0641661, 5.8709844 ], [ -162.064425, 5.8709766 ], [ -162.064723, 5.8709727 ], [ -162.0650407, 5.8709298 ], [ -162.0652685, 5.8709436 ], [ -162.0653544, 5.8709763 ], [ -162.0654054, 5.8710114 ], [ -162.0654329, 5.8710894 ], [ -162.0654858, 5.8711382 ], [ -162.0655831, 5.8711651 ], [ -162.0657309, 5.871185 ], [ -162.0658368, 5.8711889 ], [ -162.0658937, 5.8711752 ], [ -162.0659408, 5.8711811 ], [ -162.0659623, 5.8712318 ], [ -162.0659427, 5.8713137 ], [ -162.0658976, 5.8714152 ], [ -162.0659349, 5.8715946 ], [ -162.0660604, 5.8717078 ], [ -162.06632110000001, 5.8718188 ], [ -162.0677004, 5.8718962 ], [ -162.0684325, 5.8720617 ], [ -162.0692201, 5.8721279 ], [ -162.069896699999987, 5.8723376 ], [ -162.0706954, 5.8725914 ], [ -162.0715496, 5.8727458 ], [ -162.0721486, 5.8729058 ], [ -162.0727975, 5.8729996 ], [ -162.073426, 5.8731642 ], [ -162.0738436, 5.8733244 ], [ -162.074322, 5.8734648 ], [ -162.0746672, 5.8735117 ], [ -162.0754202, 5.8736365 ], [ -162.075977200000011, 5.8737204 ], [ -162.0764092, 5.8737869 ], [ -162.07699980000001, 5.873959 ], [ -162.0773916, 5.8740514 ], [ -162.0780627, 5.8741286 ], [ -162.078534100000013, 5.8741949 ], [ -162.0789778, 5.8741838 ], [ -162.0794366, 5.8741723 ], [ -162.0797694, 5.8742109 ], [ -162.0799801, 5.8741778 ], [ -162.0805569, 5.8741667 ], [ -162.0810672, 5.8741778 ], [ -162.081948399999987, 5.8741633 ], [ -162.082997400000011, 5.8741005 ], [ -162.0838848, 5.8740343 ], [ -162.084663400000011, 5.8738948 ], [ -162.084863, 5.8738231 ], [ -162.085046299999988, 5.8737895 ], [ -162.0855425, 5.8737348 ], [ -162.0859237, 5.8737348 ], [ -162.086215, 5.8737037 ], [ -162.086520900000011, 5.8736101 ], [ -162.086764100000011, 5.8734462 ], [ -162.087085699999989, 5.8733448 ], [ -162.0872893, 5.8732527 ], [ -162.0874423, 5.8732566 ], [ -162.087630499999989, 5.8732331 ], [ -162.0877913, 5.8732253 ], [ -162.087956, 5.8731668 ], [ -162.0881168, 5.8731083 ], [ -162.0883177, 5.8730575 ], [ -162.0884776, 5.873042 ], [ -162.088611, 5.8731278 ], [ -162.0886816, 5.8732175 ], [ -162.0886816, 5.8733073 ], [ -162.0886409, 5.8734271 ], [ -162.088657, 5.8735611 ], [ -162.0886927, 5.8736345 ], [ -162.0887571, 5.8736985 ], [ -162.0888833, 5.8737482 ], [ -162.08895480000001, 5.8738099 ], [ -162.0890929, 5.8738857 ], [ -162.08911950000001, 5.8739646 ], [ -162.089192200000014, 5.8742718 ] ] ] ] } },
{ "type": "Feature", "properties": { "FID": 271428, "id": 125, "left": -165.0, "top": 10.0, "right": -160.0, "bottom": 5.0, "row_index": 16, "col_index": 3, "min_lon": -165.0, "min_lat": 5.0, "tile_id": "-165_5" }, "geometry": { "type": "MultiPolygon", "coordinates": [ [ [ [ -162.079746699999987, 5.8775329 ], [ -162.0800706, 5.8775282 ], [ -162.080794700000013, 5.877476 ], [ -162.08151380000001, 5.8774918 ], [ -162.082357300000012, 5.8775282 ], [ -162.0826241, 5.8775566 ], [ -162.0828862, 5.8776419 ], [ -162.0830815, 5.8776466 ], [ -162.0832959, 5.8776135 ], [ -162.083643599999988, 5.8775424 ], [ -162.0838914, 5.8775092 ], [ -162.084143899999987, 5.8775282 ], [ -162.0844322, 5.8775188 ], [ -162.084641299999987, 5.8775682 ], [ -162.0847544, 5.8776213 ], [ -162.084835199999986, 5.877695 ], [ -162.0849636, 5.8778599 ], [ -162.0850806, 5.8780453 ], [ -162.0851754, 5.8783551 ], [ -162.0852066, 5.8783847 ], [ -162.0852169, 5.8784359 ], [ -162.085187499999989, 5.8785044 ], [ -162.085124900000011, 5.8785394 ], [ -162.08502, 5.8785452 ], [ -162.084777, 5.8784917 ], [ -162.08413920000001, 5.8785505 ], [ -162.084048599999988, 5.8785768 ], [ -162.084005600000012, 5.8785752 ], [ -162.08395680000001, 5.8785734 ], [ -162.0830444, 5.8785103 ], [ -162.0824986, 5.8784868 ], [ -162.0821651, 5.8784667 ], [ -162.08147790000001, 5.8784902 ], [ -162.0808783, 5.8785103 ], [ -162.080459, 5.8785126 ], [ -162.0804053, 5.8785485 ], [ -162.0803979, 5.8787334 ], [ -162.0803922, 5.8788672 ], [ -162.080466199999989, 5.8790248 ], [ -162.0802928, 5.8790963 ], [ -162.0802538, 5.8791573 ], [ -162.0802151, 5.8792076 ], [ -162.0802003, 5.8792142 ], [ -162.0801932, 5.8791992 ], [ -162.0801947, 5.8790576 ], [ -162.080186700000013, 5.8788444 ], [ -162.080166600000013, 5.8786708 ], [ -162.080113399999988, 5.8786065 ], [ -162.0799892, 5.878555 ], [ -162.0796617, 5.8785362 ], [ -162.079454199999986, 5.8785538 ], [ -162.079163599999987, 5.8785585 ], [ -162.0788086, 5.8785277 ], [ -162.0786443, 5.8785396 ], [ -162.0783894, 5.8785301 ], [ -162.0780583, 5.878504 ], [ -162.0779315, 5.8784963 ], [ -162.0778364, 5.878524 ], [ -162.0778196, 5.8785698 ], [ -162.07785770000001, 5.878712 ], [ -162.0779125, 5.8789466 ], [ -162.0779384, 5.879301 ], [ -162.0779603, 5.8795825 ], [ -162.078003099999989, 5.8798614 ], [ -162.0780155, 5.8799411 ], [ -162.0780095, 5.8800193 ], [ -162.078, 5.8800785 ], [ -162.0780024, 5.8801188 ], [ -162.0779774, 5.880133 ], [ -162.0779485, 5.8801341 ], [ -162.0779238, 5.8801176 ], [ -162.0778881, 5.8800181 ], [ -162.077870100000013, 5.8798796 ], [ -162.077832300000011, 5.8796009 ], [ -162.077786800000013, 5.8793177 ], [ -162.0777457, 5.8789205 ], [ -162.0776758, 5.8785293 ], [ -162.0776234, 5.8783895 ], [ -162.0776099, 5.878108 ], [ -162.0776253, 5.877825 ], [ -162.0776368, 5.8776984 ], [ -162.077744700000011, 5.8776211 ], [ -162.077845700000012, 5.8776482 ], [ -162.077919799999989, 5.8777453 ], [ -162.0779434, 5.8778392 ], [ -162.0779939, 5.8778794 ], [ -162.0780848, 5.8779095 ], [ -162.0782667, 5.8779062 ], [ -162.0785228, 5.8779347 ], [ -162.0787097, 5.8779816 ], [ -162.0788765, 5.8779967 ], [ -162.0789876, 5.8779866 ], [ -162.0790988, 5.8779615 ], [ -162.079129200000011, 5.8779162 ], [ -162.079138699999987, 5.877793 ], [ -162.0790958, 5.8776698 ], [ -162.0791101, 5.8775703 ], [ -162.0791959, 5.8775229 ], [ -162.079411599999986, 5.8775421 ], [ -162.079746699999987, 5.8775329 ] ] ] ] } },
{ "type": "Feature", "properties": { "FID": 327711, "id": 125, "left": -165.0, "top": 10.0, "right": -160.0, "bottom": 5.0, "row_index": 16, "col_index": 3, "min_lon": -165.0, "min_lat": 5.0, "tile_id": "-165_5" }, "geometry": { "type": "MultiPolygon", "coordinates": [ [ [ [ -162.3831563, 6.3843456 ], [ -162.383228, 6.3843675 ], [ -162.3832941, 6.3843665 ], [ -162.3833579, 6.3843797 ], [ -162.3833847, 6.3843887 ], [ -162.3834076, 6.3844337 ], [ -162.383391100000011, 6.3844776 ], [ -162.383360399999987, 6.3845037 ], [ -162.3833094, 6.3845284 ], [ -162.383261, 6.3845457 ], [ -162.383189, 6.3845719 ], [ -162.3831307, 6.3845954 ], [ -162.3830853, 6.3845992 ], [ -162.3830462, 6.3846045 ], [ -162.382997100000011, 6.3846036 ], [ -162.382967400000013, 6.3846018 ], [ -162.3829397, 6.3845975 ], [ -162.3829001, 6.3845958 ], [ -162.382828499999988, 6.3846181 ], [ -162.3827526, 6.3846147 ], [ -162.3827056, 6.3846036 ], [ -162.382635099999987, 6.3845964 ], [ -162.3825894, 6.3845972 ], [ -162.3825391, 6.3845836 ], [ -162.3824999, 6.3845668 ], [ -162.3823889, 6.3845575 ], [ -162.3822423, 6.3845471 ], [ -162.3820021, 6.3845453 ], [ -162.3818384, 6.3845466 ], [ -162.3816822, 6.3845579 ], [ -162.3815093, 6.3845772 ], [ -162.3813767, 6.3845883 ], [ -162.3812268, 6.3845928 ], [ -162.3810901, 6.3845846 ], [ -162.3810061, 6.384592 ], [ -162.380907799999989, 6.3846112 ], [ -162.3807846, 6.3846259 ], [ -162.3806088, 6.384631 ], [ -162.3804548, 6.3846414 ], [ -162.3803528, 6.3846468 ], [ -162.380219399999987, 6.3846465 ], [ -162.380074799999988, 6.3846377 ], [ -162.3798892, 6.3846224 ], [ -162.379709100000014, 6.3845938 ], [ -162.379603800000012, 6.3845779 ], [ -162.3795194, 6.3845709 ], [ -162.3794441, 6.384566 ], [ -162.3793704, 6.3845526 ], [ -162.37927, 6.3845244 ], [ -162.379106900000011, 6.3844811 ], [ -162.379000499999989, 6.3844767 ], [ -162.3789271, 6.384468 ], [ -162.378901, 6.3844684 ], [ -162.3788567, 6.384473 ], [ -162.378802799999988, 6.3844763 ], [ -162.3787629, 6.3844771 ], [ -162.37869950000001, 6.3844741 ], [ -162.3786294, 6.3844582 ], [ -162.3785847, 6.3844578 ], [ -162.3785292, 6.3844567 ], [ -162.378397299999989, 6.3844318 ], [ -162.3782907, 6.3844205 ], [ -162.3782162, 6.384405 ], [ -162.378129300000012, 6.3843773 ], [ -162.3780486, 6.3843474 ], [ -162.377962700000012, 6.38433 ], [ -162.3778758, 6.384333 ], [ -162.3777744, 6.3843259 ], [ -162.377680199999986, 6.3843104 ], [ -162.3775819, 6.3842991 ], [ -162.3775085, 6.3842765 ], [ -162.3773895, 6.3842508 ], [ -162.3773129, 6.3842271 ], [ -162.377224399999989, 6.3841953 ], [ -162.3771655, 6.3841819 ], [ -162.3770972, 6.3841639 ], [ -162.377039200000013, 6.3841464 ], [ -162.3769833, 6.38413 ], [ -162.37694350000001, 6.3841042 ], [ -162.376879300000013, 6.3840729 ], [ -162.3767676, 6.3840338 ], [ -162.3766781, 6.3839973 ], [ -162.3765803, 6.383967 ], [ -162.3764856, 6.3839366 ], [ -162.3764142, 6.383915 ], [ -162.376320600000014, 6.3838873 ], [ -162.3762331, 6.383861 ], [ -162.3761685, 6.3838379 ], [ -162.3760909, 6.3838137 ], [ -162.3759677, 6.3837824 ], [ -162.375895500000013, 6.3837562 ], [ -162.3757841, 6.383733 ], [ -162.375662, 6.3837083 ], [ -162.375616400000013, 6.3837042 ], [ -162.375529, 6.3836945 ], [ -162.3754597, 6.3836862 ], [ -162.375416699999988, 6.3836698 ], [ -162.3754064, 6.3836623 ], [ -162.3754022, 6.3836487 ], [ -162.375405300000011, 6.3836343 ], [ -162.375417199999987, 6.3836194 ], [ -162.3754343, 6.3836132 ], [ -162.375471, 6.3836117 ], [ -162.3755155, 6.3836112 ], [ -162.3755621, 6.3836112 ], [ -162.3756045, 6.3836106 ], [ -162.375634, 6.3836374 ], [ -162.375661400000013, 6.3836564 ], [ -162.375742699999989, 6.3836862 ], [ -162.3758767, 6.3837253 ], [ -162.3759646, 6.3837536 ], [ -162.3760665, 6.3837865 ], [ -162.376161200000013, 6.3838173 ], [ -162.376213, 6.3838358 ], [ -162.3762906, 6.3838559 ], [ -162.3763863, 6.3838785 ], [ -162.3764478, 6.3838898 ], [ -162.376496, 6.3838955 ], [ -162.376528, 6.3838878 ], [ -162.376544599999988, 6.3839073 ], [ -162.3765803, 6.3839299 ], [ -162.376661, 6.3839592 ], [ -162.376763399999987, 6.3839916 ], [ -162.3768524, 6.3840107 ], [ -162.376899, 6.3840379 ], [ -162.376949200000013, 6.38406 ], [ -162.3769989, 6.3840847 ], [ -162.3770589, 6.3840986 ], [ -162.3771246, 6.3841145 ], [ -162.3771572, 6.3841181 ], [ -162.377181, 6.3841012 ], [ -162.3772017, 6.3840981 ], [ -162.377212500000013, 6.3841089 ], [ -162.3772322, 6.384132 ], [ -162.3772751, 6.3841454 ], [ -162.37732170000001, 6.3841598 ], [ -162.3773864, 6.384186 ], [ -162.377464, 6.3842025 ], [ -162.3775612, 6.384224 ], [ -162.377679199999989, 6.3842467 ], [ -162.3778189, 6.3842652 ], [ -162.377975099999986, 6.3842662 ], [ -162.3780693, 6.3842765 ], [ -162.3781573, 6.3843084 ], [ -162.3782318, 6.3843269 ], [ -162.378282500000012, 6.3843454 ], [ -162.378333199999986, 6.3843711 ], [ -162.378423199999986, 6.384368 ], [ -162.3785334, 6.3843807 ], [ -162.3786127, 6.3843905 ], [ -162.3787065, 6.384397 ], [ -162.3787661, 6.3843959 ], [ -162.3788358, 6.3843937 ], [ -162.3788892, 6.3843756 ], [ -162.3789793, 6.3843499 ], [ -162.3790683, 6.3843369 ], [ -162.3791742, 6.3843326 ], [ -162.379311, 6.3843309 ], [ -162.3794416, 6.384343 ], [ -162.379523299999988, 6.3843517 ], [ -162.3796398, 6.3843592 ], [ -162.379766, 6.384362 ], [ -162.3799199, 6.3843557 ], [ -162.3800676, 6.3843598 ], [ -162.380228, 6.3843735 ], [ -162.3803428, 6.384381 ], [ -162.3804791, 6.3843898 ], [ -162.3806899, 6.3843974 ], [ -162.3809373, 6.3843958 ], [ -162.381155400000011, 6.3844101 ], [ -162.381257799999986, 6.3844236 ], [ -162.3813346, 6.3844518 ], [ -162.3813951, 6.3844617 ], [ -162.3815123, 6.3844637 ], [ -162.38162410000001, 6.3844588 ], [ -162.381666700000011, 6.3844502 ], [ -162.3817237, 6.3844297 ], [ -162.381789700000013, 6.3844229 ], [ -162.3818741, 6.384387 ], [ -162.382051499999989, 6.3843542 ], [ -162.3821381, 6.3843461 ], [ -162.3822147, 6.3843321 ], [ -162.3823, 6.3843234 ], [ -162.3823763, 6.3843192 ], [ -162.3824736, 6.3843139 ], [ -162.3825642, 6.3843044 ], [ -162.3826225, 6.3842889 ], [ -162.3826994, 6.3843012 ], [ -162.382797399999987, 6.3842885 ], [ -162.3828542, 6.3842949 ], [ -162.3829169, 6.3843109 ], [ -162.3829701, 6.3843048 ], [ -162.383024299999988, 6.3843223 ], [ -162.38306750000001, 6.3843409 ], [ -162.3831563, 6.3843456 ] ] ] ] } },
{ "type": "Feature", "properties": { "FID": 327712, "id": 125, "left": -165.0, "top": 10.0, "right": -160.0, "bottom": 5.0, "row_index": 16, "col_index": 3, "min_lon": -165.0, "min_lat": 5.0, "tile_id": "-165_5" }, "geometry": { "type": "MultiPolygon", "coordinates": [ [ [ [ -162.3495623, 6.4024749 ], [ -162.349438600000013, 6.4023758 ], [ -162.3493636, 6.4023011 ], [ -162.3493149, 6.4022485 ], [ -162.349287, 6.4022058 ], [ -162.3492417, 6.4021281 ], [ -162.3492276, 6.4021004 ], [ -162.3492239, 6.4020769 ], [ -162.3492238, 6.4020645 ], [ -162.349225, 6.4020589 ], [ -162.3492287, 6.4020553 ], [ -162.3492348, 6.4020548 ], [ -162.349241400000011, 6.4020581 ], [ -162.349249500000013, 6.4020673 ], [ -162.3492733, 6.4021031 ], [ -162.349295500000011, 6.402126 ], [ -162.349328500000013, 6.4021628 ], [ -162.3493753, 6.402195 ], [ -162.34942430000001, 6.4022392 ], [ -162.34947840000001, 6.4022888 ], [ -162.3495216, 6.402333 ], [ -162.3496276, 6.4024484 ], [ -162.349782299999987, 6.4025983 ], [ -162.3498687, 6.4026732 ], [ -162.3499645, 6.4027621 ], [ -162.350103600000011, 6.4028883 ], [ -162.350216499999988, 6.4030124 ], [ -162.3502307, 6.4030362 ], [ -162.3502456, 6.4030524 ], [ -162.350276900000011, 6.4030742 ], [ -162.350457299999988, 6.4032564 ], [ -162.350528, 6.4033274 ], [ -162.3505647, 6.4033705 ], [ -162.350592299999988, 6.4034043 ], [ -162.3506162, 6.4034425 ], [ -162.350655499999988, 6.4034628 ], [ -162.3506889, 6.4034929 ], [ -162.3507078, 6.4035189 ], [ -162.35073, 6.4035726 ], [ -162.350754099999989, 6.4036274 ], [ -162.3507784, 6.4036753 ], [ -162.350795299999987, 6.4037075 ], [ -162.3508175, 6.4037397 ], [ -162.3508534, 6.4037655 ], [ -162.35089210000001, 6.403802 ], [ -162.3509508, 6.4038474 ], [ -162.350973, 6.4038775 ], [ -162.3509846, 6.403904 ], [ -162.3509937, 6.4039461 ], [ -162.3510028, 6.4039794 ], [ -162.3510178, 6.4040111 ], [ -162.3510185, 6.4040306 ], [ -162.351009299999987, 6.4040453 ], [ -162.3509867, 6.4040515 ], [ -162.35096, 6.4040383 ], [ -162.3509247, 6.4039909 ], [ -162.3508957, 6.403946 ], [ -162.3508611, 6.4039108 ], [ -162.3508104, 6.4038603 ], [ -162.3507644, 6.403814 ], [ -162.350726400000013, 6.4037639 ], [ -162.350677100000013, 6.4036973 ], [ -162.350652599999989, 6.4036442 ], [ -162.350642099999988, 6.403601 ], [ -162.35063, 6.4035566 ], [ -162.3506037, 6.4035062 ], [ -162.3505764, 6.403477 ], [ -162.350539700000013, 6.4034354 ], [ -162.3504878, 6.4033804 ], [ -162.3504197, 6.4033184 ], [ -162.3502579, 6.403178 ], [ -162.3500019, 6.4029673 ], [ -162.3498433, 6.4028175 ], [ -162.3497271, 6.4026645 ], [ -162.3495623, 6.4024749 ] ] ] ] } },
{ "type": "Feature", "properties": { "FID": 509704, "id": 125, "left": -165.0, "top": 10.0, "right": -160.0, "bottom": 5.0, "row_index": 16, "col_index": 3, "min_lon": -165.0, "min_lat": 5.0, "tile_id": "-165_5" }, "geometry": { "type": "MultiPolygon", "coordinates": [ [ [ [ -162.0589249, 5.8735068 ], [ -162.058774699999987, 5.8734481 ], [ -162.0585199, 5.8734 ], [ -162.058321400000011, 5.8733947 ], [ -162.0582329, 5.8733707 ], [ -162.0581712, 5.873368 ], [ -162.0582276, 5.873312 ], [ -162.0583805, 5.8732853 ], [ -162.0586433, 5.873288 ], [ -162.0589383, 5.8733333 ], [ -162.0590617, 5.8733947 ], [ -162.0590456, 5.8734694 ], [ -162.0589249, 5.8735068 ] ] ] ] } },
{ "type": "Feature", "properties": { "FID": 509705, "id": 125, "left": -165.0, "top": 10.0, "right": -160.0, "bottom": 5.0, "row_index": 16, "col_index": 3, "min_lon": -165.0, "min_lat": 5.0, "tile_id": "-165_5" }, "geometry": { "type": "MultiPolygon", "coordinates": [ [ [ [ -162.0593232, 5.8730532 ], [ -162.059301799999986, 5.8729758 ], [ -162.0593165, 5.8728544 ], [ -162.059281700000014, 5.8727464 ], [ -162.0591838, 5.8727263 ], [ -162.0591958, 5.8726263 ], [ -162.0593179, 5.8724875 ], [ -162.0594386, 5.8724048 ], [ -162.0594386, 5.8723261 ], [ -162.0594614, 5.8722407 ], [ -162.0594332, 5.8721847 ], [ -162.0594735, 5.872098 ], [ -162.0595539, 5.8721834 ], [ -162.0596357, 5.8722061 ], [ -162.0597175, 5.8722661 ], [ -162.0597685, 5.8722114 ], [ -162.0598396, 5.8722501 ], [ -162.059741699999989, 5.8723074 ], [ -162.0596223, 5.8723461 ], [ -162.0596813, 5.8723902 ], [ -162.0596237, 5.8725129 ], [ -162.0594735, 5.8724742 ], [ -162.059457400000014, 5.8726623 ], [ -162.059422500000011, 5.8726903 ], [ -162.0594815, 5.8727824 ], [ -162.0593983, 5.8728157 ], [ -162.059350099999989, 5.8729385 ], [ -162.0593393, 5.8730092 ], [ -162.0593943, 5.8730892 ], [ -162.0593232, 5.8730532 ] ] ] ] } },
{ "type": "Feature", "properties": { "FID": 748933, "id": 125, "left": -165.0, "top": 10.0, "right": -160.0, "bottom": 5.0, "row_index": 16, "col_index": 3, "min_lon": -165.0, "min_lat": 5.0, "tile_id": "-165_5" }, "geometry": { "type": "MultiPolygon", "coordinates": [ [ [ [ -162.0895995, 5.8740634 ], [ -162.0897742, 5.8740619 ], [ -162.0900542, 5.8740034 ], [ -162.0904444, 5.8739275 ], [ -162.090746700000011, 5.8737716 ], [ -162.09103540000001, 5.8736757 ], [ -162.0913234, 5.8735241 ], [ -162.0916126, 5.8734761 ], [ -162.0919072, 5.873383 ], [ -162.0920807, 5.8733789 ], [ -162.0921634, 5.8733402 ], [ -162.092254700000012, 5.8733386 ], [ -162.092366, 5.8733724 ], [ -162.0925742, 5.8734178 ], [ -162.092758, 5.8734378 ], [ -162.0929007, 5.87343 ], [ -162.092984699999988, 5.8734103 ], [ -162.093034100000011, 5.8734205 ], [ -162.0931136, 5.8734275 ], [ -162.0931914, 5.8734848 ], [ -162.093287299999986, 5.8735608 ], [ -162.0933498, 5.8737053 ], [ -162.0934547, 5.8738686 ], [ -162.093765600000012, 5.8740019 ], [ -162.094034099999988, 5.8741065 ], [ -162.0943225, 5.8742307 ], [ -162.0946434, 5.8745212 ], [ -162.0946779, 5.8746449 ], [ -162.094660800000014, 5.8747344 ], [ -162.0945951, 5.8747897 ], [ -162.09450240000001, 5.8747931 ], [ -162.094355900000011, 5.8748082 ], [ -162.0941871, 5.8745705 ], [ -162.094027899999986, 5.8744242 ], [ -162.0938784, 5.8743745 ], [ -162.0936106, 5.8743243 ], [ -162.0935125, 5.8743709 ], [ -162.093429, 5.8744166 ], [ -162.0933662, 5.8744993 ], [ -162.0933406, 5.8746375 ], [ -162.0933535, 5.8748031 ], [ -162.0934849, 5.8749443 ], [ -162.093564, 5.8750628 ], [ -162.0937055, 5.8751315 ], [ -162.093801500000012, 5.875227 ], [ -162.093808200000012, 5.8753496 ], [ -162.0937715, 5.8754629 ], [ -162.09366030000001, 5.8755535 ], [ -162.093553899999989, 5.8755554 ], [ -162.0934588, 5.8755061 ], [ -162.0933219, 5.875486 ], [ -162.093105, 5.8754942 ], [ -162.092849, 5.8755344 ], [ -162.092593, 5.8756048 ], [ -162.092448100000013, 5.875655 ], [ -162.0922864, 5.8756316 ], [ -162.0922022, 5.8755344 ], [ -162.0921798, 5.8754296 ], [ -162.0919726, 5.8754598 ], [ -162.091826700000013, 5.8759421 ], [ -162.0917541, 5.8761352 ], [ -162.0917129, 5.8762921 ], [ -162.0916367, 5.8765054 ], [ -162.0915867, 5.8766949 ], [ -162.091560500000014, 5.8768252 ], [ -162.0915152, 5.8769485 ], [ -162.0914962, 5.877095 ], [ -162.0914462, 5.8773272 ], [ -162.091465199999988, 5.8774219 ], [ -162.091541400000011, 5.877493 ], [ -162.091653400000013, 5.8775641 ], [ -162.0918623, 5.8776296 ], [ -162.0919624, 5.8776486 ], [ -162.0920269, 5.877675 ], [ -162.0920648, 5.8777196 ], [ -162.092078500000014, 5.8777507 ], [ -162.0920658, 5.8777883 ], [ -162.0920336, 5.8778088 ], [ -162.091978, 5.8777978 ], [ -162.091506399999986, 5.8776343 ], [ -162.091401600000012, 5.8776485 ], [ -162.091311600000012, 5.877702 ], [ -162.0911978, 5.8776697 ], [ -162.091140700000011, 5.8775607 ], [ -162.0911549, 5.8774801 ], [ -162.091259799999989, 5.8774185 ], [ -162.0913062, 5.8772313 ], [ -162.0914598, 5.8767172 ], [ -162.091526499999986, 5.8761959 ], [ -162.0915885, 5.8758381 ], [ -162.0916528, 5.8755916 ], [ -162.091648600000013, 5.8754249 ], [ -162.0915742, 5.8753144 ], [ -162.091431300000011, 5.8751485 ], [ -162.09122210000001, 5.8750106 ], [ -162.0910216, 5.8748595 ], [ -162.0907595, 5.8747173 ], [ -162.090407, 5.8747031 ], [ -162.0900354, 5.8746699 ], [ -162.0897353, 5.8746017 ], [ -162.0896162, 5.8745514 ], [ -162.0895066, 5.8744093 ], [ -162.0893637, 5.8742955 ], [ -162.0893247, 5.8742901 ], [ -162.0893274, 5.8740542 ], [ -162.0895995, 5.8740634 ] ] ] ] } }
]
}
