{
"type": "FeatureCollection",
"name": "-165_-85",
"crs": { "type": "name", "properties": { "name": "urn:ogc:def:crs:OGC:1.3:CRS84" } },
"xy_coordinate_resolution": 1e-15,
"features": [
{ "type": "Feature", "properties": { "FID": 307096, "id": 143, "left": -165.0, "top": -80.0, "right": -160.0, "bottom": -85.0, "row_index": 34, "col_index": 3, "min_lon": -165.0, "min_lat": -85.0, "tile_id": "-165_-85" }, "geometry": { "type": "MultiPolygon", "coordinates": [ [ [ [ -160.0, -80.0 ], [ -160.0, -85.0 ], [ -165.0, -85.0 ], [ -165.0, -80.0 ], [ -160.0, -80.0 ] ] ] ] } }
]
}
