{
"type": "FeatureCollection",
"name": "-170_-80",
"crs": { "type": "name", "properties": { "name": "urn:ogc:def:crs:OGC:1.3:CRS84" } },
"xy_coordinate_resolution": 1e-15,
"features": [
{ "type": "Feature", "properties": { "FID": 307096, "id": 106, "left": -170.0, "top": -75.0, "right": -165.0, "bottom": -80.0, "row_index": 33, "col_index": 2, "min_lon": -170.0, "min_lat": -80.0, "tile_id": "-170_-80" }, "geometry": { "type": "MultiPolygon", "coordinates": [ [ [ [ -169.986835500000012, -78.3142164 ], [ -169.9468894, -78.3177447 ], [ -169.9092214, -78.3219241 ], [ -169.9027609, -78.3226168 ], [ -169.8927488, -78.3235515 ], [ -169.8797108, -78.3247005 ], [ -169.8641517, -78.3260078 ], [ -169.846561, -78.3274351 ], [ -169.8274362, -78.3289353 ], [ -169.807259499999986, -78.3304795 ], [ -169.786573800000014, -78.3320225 ], [ -169.7467962, -78.3347368 ], [ -169.7098851, -78.336681 ], [ -169.6727294, -78.3378614 ], [ -169.632401499999986, -78.3382808 ], [ -169.6091171, -78.3381133 ], [ -169.5858333, -78.3379439 ], [ -169.5579434, -78.3373971 ], [ -169.530056, -78.3368476 ], [ -169.4960113, -78.3359161 ], [ -169.4619721, -78.3349806 ], [ -169.4203111, -78.3336648 ], [ -169.3786595, -78.3323429 ], [ -169.3420706, -78.3311749 ], [ -169.312572499999987, -78.3303191 ], [ -169.289048900000012, -78.3297908 ], [ -169.2705068, -78.3295721 ], [ -169.255796299999986, -78.3296662 ], [ -169.2439536, -78.3300738 ], [ -169.233838100000014, -78.3307886 ], [ -169.224450600000011, -78.3318002 ], [ -169.2117572, -78.3332035 ], [ -169.1969892, -78.3345171 ], [ -169.180146, -78.3357405 ], [ -169.161219100000011, -78.3368825 ], [ -169.140181, -78.3379228 ], [ -169.11701450000001, -78.3388791 ], [ -169.0917725, -78.3397434 ], [ -169.064358, -78.3405208 ], [ -169.053708199999988, -78.3409028 ], [ -169.0414999, -78.3415205 ], [ -169.0281292, -78.3423428 ], [ -169.0140364, -78.3433404 ], [ -168.999662199999989, -78.3444841 ], [ -168.9854559, -78.345736 ], [ -168.9717789, -78.3470545 ], [ -168.959144, -78.3484321 ], [ -168.9463388, -78.3498398 ], [ -168.932212600000014, -78.3512783 ], [ -168.9172685, -78.3527025 ], [ -168.9019481, -78.3540834 ], [ -168.8867198, -78.355365 ], [ -168.8720262, -78.3565186 ], [ -168.8583362, -78.3574885 ], [ -168.8461288, -78.3582568 ], [ -168.8346273, -78.3589599 ], [ -168.82288650000001, -78.3597645 ], [ -168.8113042, -78.36064 ], [ -168.80019, -78.3615524 ], [ -168.7897915, -78.3624838 ], [ -168.7805605, -78.3633966 ], [ -168.7727452, -78.3642729 ], [ -168.7666558, -78.3650788 ], [ -168.7609641, -78.3658542 ], [ -168.7541197, -78.3666297 ], [ -168.746406, -78.367398 ], [ -168.7380885, -78.3681233 ], [ -168.729459600000013, -78.3687895 ], [ -168.720723099999987, -78.3693768 ], [ -168.7121273, -78.3698673 ], [ -168.7039828, -78.370227 ], [ -168.696201, -78.3705454 ], [ -168.6886759, -78.3708832 ], [ -168.681593600000014, -78.3712388 ], [ -168.6751135, -78.3715906 ], [ -168.6694221, -78.3719369 ], [ -168.664714300000014, -78.3722672 ], [ -168.661194200000011, -78.3725617 ], [ -168.6590482, -78.3728189 ], [ -168.6558915, -78.3730723 ], [ -168.6494719, -78.373361 ], [ -168.640170500000011, -78.3736723 ], [ -168.6284216, -78.3739863 ], [ -168.6145884, -78.3743082 ], [ -168.5990521, -78.3746254 ], [ -168.5822028, -78.3749161 ], [ -168.5644485, -78.3751877 ], [ -168.5377092, -78.3755839 ], [ -168.510968, -78.3759775 ], [ -168.481128399999989, -78.3764648 ], [ -168.4512862, -78.3769488 ], [ -168.4198304, -78.3774935 ], [ -168.3883716, -78.3780346 ], [ -168.3567535, -78.3786124 ], [ -168.325132200000013, -78.3791866 ], [ -168.294860300000011, -78.3797672 ], [ -168.2645853, -78.3803446 ], [ -168.2371645, -78.3809036 ], [ -168.2097412, -78.3814601 ], [ -168.1866159, -78.381967 ], [ -168.163488699999988, -78.382472 ], [ -168.1289306, -78.3833389 ], [ -168.1148048, -78.3836718 ], [ -168.0998137, -78.383902 ], [ -168.0843655, -78.3840375 ], [ -168.0689662, -78.3840812 ], [ -168.0540521, -78.3840143 ], [ -168.0400568, -78.3838647 ], [ -168.0275144, -78.3836087 ], [ -168.016823499999987, -78.3832637 ], [ -168.0041805, -78.3829279 ], [ -167.9875678, -78.3828033 ], [ -167.9674743, -78.3828638 ], [ -167.9443067, -78.3831168 ], [ -167.91840160000001, -78.3835482 ], [ -167.8902727, -78.3841515 ], [ -167.8603261, -78.3849344 ], [ -167.828961600000014, -78.3858672 ], [ -167.7988091, -78.3867842 ], [ -167.7672423, -78.3876738 ], [ -167.735266700000011, -78.388505 ], [ -167.7037271, -78.3892679 ], [ -167.673639900000012, -78.3899235 ], [ -167.6458852, -78.3904737 ], [ -167.6214358, -78.3908781 ], [ -167.6011819, -78.3911303 ], [ -167.5808926, -78.3913701 ], [ -167.556218, -78.3917591 ], [ -167.5281095, -78.3922732 ], [ -167.497562499999987, -78.3928905 ], [ -167.46552890000001, -78.3935876 ], [ -167.4328624, -78.3943462 ], [ -167.4006483, -78.3951496 ], [ -167.3696969, -78.3959785 ], [ -167.338962, -78.396814 ], [ -167.3072449, -78.3976486 ], [ -167.2755089, -78.398451 ], [ -167.244555600000012, -78.3992109 ], [ -167.215349300000014, -78.3998979 ], [ -167.188845, -78.4004907 ], [ -167.1658994, -78.4009731 ], [ -167.147467799999987, -78.4013245 ], [ -167.131823200000014, -78.4016344 ], [ -167.116894800000011, -78.4019672 ], [ -167.10308, -78.4023411 ], [ -167.090694500000012, -78.4027242 ], [ -167.080067899999989, -78.4031131 ], [ -167.0715944, -78.4034889 ], [ -167.0655935, -78.403857 ], [ -167.0623813, -78.4041856 ], [ -167.059233299999988, -78.4044983 ], [ -167.053356900000011, -78.4047972 ], [ -167.0449829, -78.4050833 ], [ -167.0346037, -78.4053326 ], [ -167.022440100000011, -78.4055549 ], [ -167.0088762, -78.4057398 ], [ -166.9942959, -78.4058769 ], [ -166.9789508, -78.4059497 ], [ -166.9406277, -78.406214 ], [ -166.9008598, -78.4067145 ], [ -166.861095799999987, -78.4074438 ], [ -166.82275820000001, -78.4083378 ], [ -166.787318, -78.4093731 ], [ -166.756213300000013, -78.4105157 ], [ -166.7308937, -78.4117234 ], [ -166.7127453, -78.4129698 ], [ -166.7051581, -78.4135555 ], [ -166.6949332, -78.4142031 ], [ -166.6825533, -78.4148977 ], [ -166.6684674, -78.4156137 ], [ -166.6531249, -78.4163254 ], [ -166.636954300000014, -78.417025 ], [ -166.6204265, -78.4176692 ], [ -166.6039599, -78.4182593 ], [ -166.5618767, -78.41971 ], [ -166.52426220000001, -78.4211171 ], [ -166.490678800000012, -78.4224986 ], [ -166.460732299999989, -78.4238742 ], [ -166.433919, -78.4252768 ], [ -166.4098985, -78.4267191 ], [ -166.3881877, -78.4282155 ], [ -166.3683695, -78.4298027 ], [ -166.3582944, -78.4306346 ], [ -166.3471942, -78.4315008 ], [ -166.3353763, -78.4323785 ], [ -166.3232583, -78.4332318 ], [ -166.311192299999988, -78.4340403 ], [ -166.299574799999988, -78.4347859 ], [ -166.288724699999989, -78.4354372 ], [ -166.279005399999988, -78.4359654 ], [ -166.2698024, -78.4364529 ], [ -166.260456299999987, -78.43698 ], [ -166.251176, -78.4375288 ], [ -166.242248100000012, -78.4380947 ], [ -166.2339033, -78.4386421 ], [ -166.2264283, -78.4391663 ], [ -166.220087400000011, -78.4396429 ], [ -166.2151675, -78.4400673 ], [ -166.2097939, -78.4404411 ], [ -166.202225199999987, -78.44081 ], [ -166.192857800000013, -78.4411559 ], [ -166.1819893, -78.441465 ], [ -166.1699944, -78.441737 ], [ -166.157171, -78.4419581 ], [ -166.143894, -78.4421282 ], [ -166.1305714, -78.4422203 ], [ -166.1060596, -78.4423816 ], [ -166.0815471, -78.4425409 ], [ -166.0363596, -78.4430069 ], [ -165.9957799, -78.4436023 ], [ -165.9605573, -78.4443291 ], [ -165.9314972, -78.4451452 ], [ -165.90943870000001, -78.446057 ], [ -165.8950783, -78.4470353 ], [ -165.889245499999987, -78.4480574 ], [ -165.8763, -78.4496231 ], [ -165.8434389, -78.452129 ], [ -165.8196791, -78.4536963 ], [ -165.7959128, -78.4552617 ], [ -165.767427, -78.4569855 ], [ -165.7389327, -78.4587065 ], [ -165.7083307, -78.4604305 ], [ -165.6777195, -78.4621512 ], [ -165.647611500000011, -78.4637255 ], [ -165.617495100000014, -78.4652967 ], [ -165.5905526, -78.4665671 ], [ -165.563604199999986, -78.467835 ], [ -165.5212454, -78.4694727 ], [ -165.492574100000013, -78.4705987 ], [ -165.452794, -78.4724737 ], [ -165.429353, -78.4736723 ], [ -165.4059071, -78.4748689 ], [ -165.3808943, -78.476213 ], [ -165.355875700000013, -78.4775549 ], [ -165.3312636, -78.4789398 ], [ -165.3066457, -78.4803225 ], [ -165.2844384, -78.4816415 ], [ -165.262226, -78.4829587 ], [ -165.2266114, -78.4852328 ], [ -165.20371080000001, -78.4869484 ], [ -165.1990801, -78.4873075 ], [ -165.1935637, -78.4876575 ], [ -165.1874173, -78.4879836 ], [ -165.1807966, -78.4882752 ], [ -165.173901699999988, -78.4885238 ], [ -165.1669767, -78.4887235 ], [ -165.160209900000012, -78.4888749 ], [ -165.1538247, -78.488952 ], [ -165.1470602, -78.4890655 ], [ -165.139267, -78.4893129 ], [ -165.130668, -78.4896684 ], [ -165.1215836, -78.4901393 ], [ -165.112304599999987, -78.4906846 ], [ -165.1030632, -78.491307 ], [ -165.094171, -78.4919855 ], [ -165.0858957, -78.4926966 ], [ -165.0779195, -78.4933951 ], [ -165.06986, -78.4940135 ], [ -165.061973200000011, -78.4945371 ], [ -165.0544155, -78.4949555 ], [ -165.047463599999986, -78.4952739 ], [ -165.0413093, -78.4954554 ], [ -165.0361735, -78.4955118 ], [ -165.0323242, -78.4954197 ], [ -165.0286839, -78.4953482 ], [ -165.024286600000011, -78.4954532 ], [ -165.0193204, -78.4957354 ], [ -165.0139088, -78.496173 ], [ -165.0082754, -78.4967403 ], [ -165.00251990000001, -78.497433 ], [ -165.0, -78.497785583867795 ], [ -165.0, -80.0 ], [ -170.0, -80.0 ], [ -170.0, -78.313339363493142 ], [ -169.986835500000012, -78.3142164 ] ] ] ] } }
]
}
