{
"type": "FeatureCollection",
"name": "-180_-80",
"crs": { "type": "name", "properties": { "name": "urn:ogc:def:crs:OGC:1.3:CRS84" } },
"xy_coordinate_resolution": 1e-15,
"features": [
{ "type": "Feature", "properties": { "FID": 307096, "id": 34, "left": -180.0, "top": -75.0, "right": -175.0, "bottom": -80.0, "row_index": 33, "col_index": 0, "min_lon": -180.0, "min_lat": -80.0, "tile_id": "-180_-80" }, "geometry": { "type": "MultiPolygon", "coordinates": [ [ [ [ -180.0, -79.0 ], [ -180.0, -78.0 ], [ -180.0, -77.7028294 ], [ -179.9839785, -77.7027739 ], [ -179.9580885, -77.7025754 ], [ -179.9321993, -77.7023744 ], [ -179.9101561, -77.7021404 ], [ -179.888113800000013, -77.7019046 ], [ -179.850142, -77.7013218 ], [ -179.8167038, -77.7006002 ], [ -179.7861347, -77.6996856 ], [ -179.7568561, -77.6985411 ], [ -179.7272472, -77.6971291 ], [ -179.6957741, -77.6954023 ], [ -179.6687621, -77.6940096 ], [ -179.6417564, -77.6926142 ], [ -179.614385199999987, -77.6914931 ], [ -179.5870191, -77.6903693 ], [ -179.5600742, -77.6895346 ], [ -179.533133099999986, -77.6886972 ], [ -179.507463800000011, -77.6881553 ], [ -179.4817969, -77.6876109 ], [ -179.4582092, -77.6873778 ], [ -179.4346224, -77.6871426 ], [ -179.39326410000001, -77.6873345 ], [ -179.3593371, -77.6881933 ], [ -179.33449920000001, -77.6897714 ], [ -179.3225337, -77.6908065 ], [ -179.309513, -77.6915926 ], [ -179.2943263, -77.6921539 ], [ -179.2757791, -77.6924869 ], [ -179.2528026, -77.6926242 ], [ -179.224246099999988, -77.6925524 ], [ -179.188913500000012, -77.6923024 ], [ -179.1673259, -77.6920908 ], [ -179.145739, -77.6918773 ], [ -179.121850200000011, -77.6916274 ], [ -179.0979623, -77.6913753 ], [ -179.060289899999987, -77.6910823 ], [ -179.0306685, -77.6910226 ], [ -179.006916, -77.6912362 ], [ -178.9868507, -77.6917621 ], [ -178.9684182, -77.6926479 ], [ -178.949438, -77.6939125 ], [ -178.9277687, -77.6956022 ], [ -178.9142199, -77.6966858 ], [ -178.901230199999986, -77.6976981 ], [ -178.8891878, -77.6986045 ], [ -178.8783502, -77.6993971 ], [ -178.8690621, -77.7000501 ], [ -178.8616247, -77.7005467 ], [ -178.856341, -77.700852 ], [ -178.8534684, -77.7009582 ], [ -178.8508477, -77.7011108 ], [ -178.8463202, -77.7015467 ], [ -178.840016100000014, -77.7022388 ], [ -178.832320900000013, -77.7031705 ], [ -178.8233672, -77.7042877 ], [ -178.8134978, -77.7055736 ], [ -178.8028866, -77.7069923 ], [ -178.79183470000001, -77.708518 ], [ -178.780521, -77.7100693 ], [ -178.7691671, -77.7115654 ], [ -178.758032500000013, -77.71298 ], [ -178.7474651, -77.7142603 ], [ -178.73776860000001, -77.7153713 ], [ -178.7292021, -77.7162961 ], [ -178.7221567, -77.716982 ], [ -178.716893700000014, -77.717394 ], [ -178.7125778, -77.7177467 ], [ -178.7082891, -77.7182452 ], [ -178.7041147, -77.7188715 ], [ -178.7001859, -77.7195992 ], [ -178.6966328, -77.7204106 ], [ -178.693501199999986, -77.7212786 ], [ -178.6909651, -77.7221767 ], [ -178.6891123, -77.7230873 ], [ -178.6875188, -77.7239719 ], [ -178.6857607, -77.7247918 ], [ -178.683882, -77.7255384 ], [ -178.681971, -77.7261846 ], [ -178.6799861, -77.7267212 ], [ -178.6781014, -77.7271217 ], [ -178.676318, -77.727377 ], [ -178.6747245, -77.7274602 ], [ -178.652865, -77.7276431 ], [ -178.628728, -77.728268 ], [ -178.603128, -77.729302 ], [ -178.5768401, -77.7306851 ], [ -178.5506806, -77.7323759 ], [ -178.525424, -77.7343332 ], [ -178.5018905, -77.7364981 ], [ -178.4808983, -77.7388393 ], [ -178.4678438, -77.7403863 ], [ -178.4547569, -77.7418233 ], [ -178.4419416, -77.7431246 ], [ -178.4298327, -77.7442473 ], [ -178.4186905, -77.7451748 ], [ -178.4089502, -77.7458643 ], [ -178.4009163, -77.7462903 ], [ -178.39498, -77.746419 ], [ -178.3895675, -77.7464778 ], [ -178.3831046, -77.7466941 ], [ -178.3758076, -77.747051 ], [ -178.3679359, -77.7475317 ], [ -178.3597475, -77.7481286 ], [ -178.3515031, -77.748816 ], [ -178.3433765, -77.7495768 ], [ -178.3356689, -77.7504036 ], [ -178.325701900000013, -77.7514257 ], [ -178.315242500000011, -77.7522713 ], [ -178.304034, -77.7529388 ], [ -178.2919038, -77.753436 ], [ -178.2786367, -77.7537707 ], [ -178.264016, -77.7539594 ], [ -178.247872, -77.7539917 ], [ -178.2299454, -77.7538839 ], [ -178.2094462, -77.7537578 ], [ -178.1912787, -77.7538279 ], [ -178.1744492, -77.7541336 ], [ -178.1580906, -77.7547238 ], [ -178.1412528, -77.7556285 ], [ -178.1229825, -77.7568956 ], [ -178.1024553, -77.7585646 ], [ -178.0786314, -77.7606732 ], [ -178.060656200000011, -77.7624211 ], [ -178.040811600000012, -77.7645368 ], [ -178.0197952, -77.7669432 ], [ -177.9982207, -77.7695533 ], [ -177.976744599999989, -77.7722901 ], [ -177.9560242, -77.7750765 ], [ -177.9367643, -77.7778179 ], [ -177.919537100000014, -77.7804461 ], [ -177.888180299999988, -77.7850859 ], [ -177.869758, -77.7875333 ], [ -177.8513283, -77.7899794 ], [ -177.831384899999989, -77.7924168 ], [ -177.811433599999987, -77.7948527 ], [ -177.7912426, -77.7971395 ], [ -177.771044100000012, -77.7994248 ], [ -177.732668600000011, -77.8034341 ], [ -177.698741399999989, -77.8065921 ], [ -177.6718663, -77.8086496 ], [ -177.6545242, -77.8093293 ], [ -177.651544, -77.809349 ], [ -177.6487201, -77.8094521 ], [ -177.6461386, -77.8096393 ], [ -177.6438909, -77.809884 ], [ -177.6419752, -77.8101954 ], [ -177.6405226, -77.8105654 ], [ -177.6395813, -77.8109672 ], [ -177.639192799999989, -77.8114103 ], [ -177.637494299999986, -77.8119331 ], [ -177.6327933, -77.8125846 ], [ -177.6253978, -77.8133309 ], [ -177.6157002, -77.8141479 ], [ -177.6039207, -77.81501 ], [ -177.5904519, -77.815893 ], [ -177.5756437, -77.8167725 ], [ -177.5597165, -77.8176229 ], [ -177.54262, -77.8184801 ], [ -177.524297600000011, -77.819407 ], [ -177.5053183, -77.8203631 ], [ -177.486293, -77.8213176 ], [ -177.4676995, -77.8222565 ], [ -177.4501962, -77.8231315 ], [ -177.434304700000013, -77.8239295 ], [ -177.4206389, -77.824611 ], [ -177.379922, -77.8269096 ], [ -177.3422807, -77.829688 ], [ -177.3058421, -77.8331934 ], [ -177.2685477, -77.8377063 ], [ -177.248535299999986, -77.8405898 ], [ -177.2285134, -77.8434718 ], [ -177.206141699999989, -77.8471123 ], [ -177.1837564, -77.8507509 ], [ -177.158029, -77.8552782 ], [ -177.1322822, -77.8598032 ], [ -177.1021748, -77.8653416 ], [ -177.0720397, -77.8708767 ], [ -177.0549414, -77.8740976 ], [ -177.037834, -77.8773174 ], [ -177.0212687, -77.8805012 ], [ -177.004694699999988, -77.883684 ], [ -176.9734066, -77.8898031 ], [ -176.944842, -77.8955119 ], [ -176.9197869, -77.9006558 ], [ -176.8990796, -77.9050537 ], [ -176.8835499, -77.9085611 ], [ -176.873993500000012, -77.9109961 ], [ -176.860710399999988, -77.9143457 ], [ -176.844558400000011, -77.9174792 ], [ -176.82621180000001, -77.9203128 ], [ -176.8064305, -77.9227729 ], [ -176.7858458, -77.9247844 ], [ -176.7652228, -77.926265 ], [ -176.745238300000011, -77.9271407 ], [ -176.7266131, -77.927338 ], [ -176.70268440000001, -77.9276344 ], [ -176.6845845, -77.9290757 ], [ -176.672295, -77.9317176 ], [ -176.6657677, -77.9355786 ], [ -176.6649909, -77.9407137 ], [ -176.6699231, -77.9471406 ], [ -176.6805626, -77.9549045 ], [ -176.688733899999988, -77.9594775 ], [ -176.6969114, -77.9640502 ], [ -176.7067697, -77.969213 ], [ -176.7142359, -77.9733981 ], [ -176.7194739, -77.9767901 ], [ -176.722564, -77.9795635 ], [ -176.7237213, -77.9818851 ], [ -176.723028, -77.9839292 ], [ -176.7206951, -77.9858808 ], [ -176.7168079, -77.987905 ], [ -176.7140819, -77.9893685 ], [ -176.7116858, -77.9910639 ], [ -176.7096831, -77.9929191 ], [ -176.7080867, -77.9948886 ], [ -176.7069167, -77.9968997 ], [ -176.7063221, -77.9988903 ], [ -176.7062285, -78.0008139 ], [ -176.706743499999988, -78.0025989 ], [ -176.707542499999988, -78.0049438 ], [ -176.70756, -78.0069418 ], [ -176.7065518, -78.0086812 ], [ -176.704417299999989, -78.0102064 ], [ -176.701041, -78.0116165 ], [ -176.6962735, -78.0129733 ], [ -176.689962799999989, -78.014348 ], [ -176.6820006, -78.0158122 ], [ -176.669906200000014, -78.0182207 ], [ -176.661091199999987, -78.0206685 ], [ -176.6555112, -78.0231644 ], [ -176.6531683, -78.0257086 ], [ -176.654110800000012, -78.0282928 ], [ -176.6582996, -78.0309072 ], [ -176.6657344, -78.0335607 ], [ -176.6764198, -78.036244 ], [ -176.6816144, -78.0374925 ], [ -176.6863798, -78.0388635 ], [ -176.6906409, -78.0403104 ], [ -176.694278700000012, -78.0417863 ], [ -176.6972568, -78.0432633 ], [ -176.699417, -78.0446758 ], [ -176.700635, -78.045995 ], [ -176.7008817, -78.0471656 ], [ -176.701164799999987, -78.0483641 ], [ -176.7025413, -78.049749 ], [ -176.7049313, -78.0512919 ], [ -176.7081776, -78.0529272 ], [ -176.7122051, -78.0546081 ], [ -176.7168978, -78.0562786 ], [ -176.7220901, -78.0579003 ], [ -176.7277973, -78.0594184 ], [ -176.7373019, -78.0617202 ], [ -176.745558499999987, -78.0634413 ], [ -176.7538693, -78.0646519 ], [ -176.76363, -78.0654049 ], [ -176.7761851, -78.0657795 ], [ -176.792926, -78.0658463 ], [ -176.815199400000012, -78.0656748 ], [ -176.8443547, -78.0653247 ], [ -176.8732397, -78.0649867 ], [ -176.895595899999989, -78.0648188 ], [ -176.912905099999989, -78.0648939 ], [ -176.926605200000012, -78.0652836 ], [ -176.938224100000014, -78.0660509 ], [ -176.949199599999986, -78.0672666 ], [ -176.9609702, -78.0690014 ], [ -176.975112200000012, -78.0713088 ], [ -176.994220899999988, -78.0747548 ], [ -177.008004699999987, -78.0778319 ], [ -177.016541499999988, -78.0805598 ], [ -177.0197365, -78.0829473 ], [ -177.0176698, -78.0850138 ], [ -177.0102507, -78.086758 ], [ -176.9976026, -78.0882084 ], [ -176.9795948, -78.0893536 ], [ -176.9702048, -78.0897893 ], [ -176.9598377, -78.0902414 ], [ -176.948764899999986, -78.0906853 ], [ -176.9373386, -78.0911249 ], [ -176.925962700000014, -78.0915372 ], [ -176.9149505, -78.0919074 ], [ -176.9046568, -78.0922306 ], [ -176.895439399999987, -78.0924924 ], [ -176.8870196, -78.0927447 ], [ -176.879162799999989, -78.0930395 ], [ -176.8720451, -78.093379 ], [ -176.8658011, -78.0937555 ], [ -176.860661, -78.0941352 ], [ -176.856710600000014, -78.0945283 ], [ -176.8541775, -78.0949101 ], [ -176.853238299999987, -78.0952826 ], [ -176.850999, -78.0957224 ], [ -176.844692400000014, -78.0963258 ], [ -176.8348564, -78.0970622 ], [ -176.8218084, -78.0978983 ], [ -176.806081299999988, -78.0988215 ], [ -176.7880834, -78.0997906 ], [ -176.768218100000013, -78.1007825 ], [ -176.746936, -78.1017655 ], [ -176.724074, -78.1028468 ], [ -176.6997017, -78.1040909 ], [ -176.6746216, -78.1054704 ], [ -176.649515, -78.1069204 ], [ -176.6251418, -78.1084136 ], [ -176.6022704, -78.1098957 ], [ -176.581620500000014, -78.1113304 ], [ -176.5640061, -78.1126643 ], [ -176.548088799999988, -78.1139362 ], [ -176.5323057, -78.1151905 ], [ -176.517153400000012, -78.1163972 ], [ -176.502952, -78.1175238 ], [ -176.4901571, -78.1185306 ], [ -176.4791749, -78.1193956 ], [ -176.470417200000014, -78.1200785 ], [ -176.4642931, -78.1205482 ], [ -176.459388, -78.1209421 ], [ -176.4541156, -78.1213768 ], [ -176.44869940000001, -78.1218461 ], [ -176.443233099999986, -78.1223329 ], [ -176.437896099999989, -78.1228304 ], [ -176.432873300000011, -78.1233136 ], [ -176.4283469, -78.1237666 ], [ -176.424405400000012, -78.1241905 ], [ -176.4197845, -78.1246604 ], [ -176.4132611, -78.1252608 ], [ -176.405063899999988, -78.1259672 ], [ -176.395595500000013, -78.1267665 ], [ -176.3850902, -78.1276159 ], [ -176.3738625, -78.128501 ], [ -176.36223, -78.1293988 ], [ -176.3504687, -78.1302761 ], [ -176.338205499999987, -78.131192 ], [ -176.3251109, -78.1322059 ], [ -176.3115522, -78.133277 ], [ -176.2979853, -78.1343656 ], [ -176.284772299999986, -78.1354491 ], [ -176.272367, -78.1364973 ], [ -176.2611407, -78.1374604 ], [ -176.2514975, -78.1383257 ], [ -176.2359128, -78.1395759 ], [ -176.2183843, -78.1405068 ], [ -176.1962011, -78.1411266 ], [ -176.1667818, -78.1414533 ], [ -176.1274602, -78.1414933 ], [ -176.101513899999986, -78.1413776 ], [ -176.0755682, -78.1412594 ], [ -176.042025099999989, -78.1410127 ], [ -176.008483399999989, -78.1407619 ], [ -175.966056900000012, -78.1403829 ], [ -175.923633200000012, -78.1399975 ], [ -175.9080251, -78.1399145 ], [ -175.894229, -78.1399852 ], [ -175.8819192, -78.1402508 ], [ -175.870697299999989, -78.1407055 ], [ -175.860240800000014, -78.1413813 ], [ -175.8501449, -78.1422903 ], [ -175.840134299999988, -78.1434561 ], [ -175.8298039, -78.1448907 ], [ -175.8223135, -78.1459566 ], [ -175.8150914, -78.1468894 ], [ -175.8082771, -78.1476728 ], [ -175.8020951, -78.1483013 ], [ -175.796732600000013, -78.1487501 ], [ -175.7922848, -78.1490026 ], [ -175.7889796, -78.149044 ], [ -175.7869564, -78.1488581 ], [ -175.7852494, -78.1486587 ], [ -175.782715599999989, -78.1486569 ], [ -175.7795352, -78.1488462 ], [ -175.775758599999989, -78.1492091 ], [ -175.7715249, -78.1497294 ], [ -175.7670173, -78.1503917 ], [ -175.76227990000001, -78.1511965 ], [ -175.7574991, -78.1521194 ], [ -175.7499612, -78.1535299 ], [ -175.7424581, -78.1545937 ], [ -175.7341367, -78.1553342 ], [ -175.7240993, -78.1557741 ], [ -175.7114517, -78.1559268 ], [ -175.695378299999987, -78.1558342 ], [ -175.674944399999987, -78.1554993 ], [ -175.6493827, -78.1549551 ], [ -175.6312314, -78.1545887 ], [ -175.612251, -78.1542994 ], [ -175.5929789, -78.1540774 ], [ -175.573901299999989, -78.1539301 ], [ -175.5556812, -78.1538683 ], [ -175.538855899999987, -78.1538826 ], [ -175.523952400000013, -78.1539906 ], [ -175.5115964, -78.1541846 ], [ -175.500975399999987, -78.1543787 ], [ -175.4910558, -78.1544833 ], [ -175.4821475, -78.1545034 ], [ -175.4743868, -78.1544322 ], [ -175.467988, -78.1542916 ], [ -175.4632236, -78.1540678 ], [ -175.4602634, -78.1537819 ], [ -175.459339, -78.1534105 ], [ -175.450702299999989, -78.1535345 ], [ -175.4273949, -78.1549896 ], [ -175.3940422, -78.1574101 ], [ -175.3553665, -78.1604144 ], [ -175.316005100000012, -78.1636308 ], [ -175.280693500000012, -78.1666912 ], [ -175.254050400000011, -78.1692096 ], [ -175.2408668, -78.1708313 ], [ -175.2277753, -78.1727649 ], [ -175.2033649, -78.1756463 ], [ -175.170654500000012, -78.1791501 ], [ -175.1327844, -78.1829902 ], [ -175.0928759, -78.1868355 ], [ -175.0539508, -78.1904004 ], [ -175.0191384, -78.1933753 ], [ -175.0, -78.194811145259138 ], [ -175.0, -80.0 ], [ -180.0, -80.0 ], [ -180.0, -79.0 ] ] ] ] } }
]
}
