{
"type": "FeatureCollection",
"name": "-180_-90",
"crs": { "type": "name", "properties": { "name": "urn:ogc:def:crs:OGC:1.3:CRS84" } },
"xy_coordinate_resolution": 1e-15,
"features": [
{ "type": "Feature", "properties": { "FID": 307096, "id": 36, "left": -180.0, "top": -85.0, "right": -175.0, "bottom": -90.0, "row_index": 35, "col_index": 0, "min_lon": -180.0, "min_lat": -90.0, "tile_id": "-180_-90" }, "geometry": { "type": "MultiPolygon", "coordinates": [ [ [ [ -176.0, -90.0 ], [ -177.0, -90.0 ], [ -178.0, -90.0 ], [ -179.0, -90.0 ], [ -180.0, -90.0 ], [ -180.0, -89.0 ], [ -180.0, -88.0 ], [ -180.0, -87.0 ], [ -180.0, -86.0 ], [ -180.0, -85.0 ], [ -175.0, -85.0 ], [ -175.0, -90.0 ], [ -176.0, -90.0 ] ] ] ] } }
]
}
