{
"type": "FeatureCollection",
"name": "-180_-35",
"crs": { "type": "name", "properties": { "name": "urn:ogc:def:crs:OGC:1.3:CRS84" } },
"xy_coordinate_resolution": 1e-15,
"features": [
{ "type": "Feature", "properties": { "FID": 279100, "id": 25, "left": -180.0, "top": -30.0, "right": -175.0, "bottom": -35.0, "row_index": 24, "col_index": 0, "min_lon": -180.0, "min_lat": -35.0, "tile_id": "-180_-35" }, "geometry": { "type": "MultiPolygon", "coordinates": [ [ [ [ -178.8253078, -31.3535044 ], [ -178.8252842, -31.3534374 ], [ -178.8252732, -31.3534061 ], [ -178.825212, -31.3533543 ], [ -178.8250969, -31.3533261 ], [ -178.824961800000011, -31.353327 ], [ -178.8248605, -31.3533334 ], [ -178.8247322, -31.35334 ], [ -178.8246848, -31.3533287 ], [ -178.824637, -31.3532653 ], [ -178.8245014, -31.3532082 ], [ -178.8244137, -31.3532261 ], [ -178.824326500000012, -31.3532963 ], [ -178.8242462, -31.3533837 ], [ -178.8242062, -31.3534478 ], [ -178.824173699999989, -31.3535871 ], [ -178.8242148, -31.3536564 ], [ -178.824343699999986, -31.3537251 ], [ -178.8244118, -31.3537885 ], [ -178.8244124, -31.3538465 ], [ -178.82439930000001, -31.3538987 ], [ -178.824399699999987, -31.3539451 ], [ -178.8243664, -31.3539975 ], [ -178.8243468, -31.3540788 ], [ -178.8243139, -31.3541775 ], [ -178.8242132, -31.3542535 ], [ -178.8240921, -31.3543065 ], [ -178.8239977, -31.3543245 ], [ -178.823944, -31.3543712 ], [ -178.8239447, -31.3544466 ], [ -178.8239383, -31.3544872 ], [ -178.8239322, -31.3545626 ], [ -178.8239667, -31.3546435 ], [ -178.824008099999986, -31.3547418 ], [ -178.8240693, -31.3547936 ], [ -178.8241305, -31.3548396 ], [ -178.824157899999989, -31.35488 ], [ -178.8241516, -31.3549264 ], [ -178.8241114, -31.3549673 ], [ -178.8241322, -31.3550251 ], [ -178.8241854, -31.3550595 ], [ -178.8242476, -31.3550997 ], [ -178.8243364, -31.3552093 ], [ -178.824398, -31.3552959 ], [ -178.8245279, -31.3554748 ], [ -178.8245551, -31.3554978 ], [ -178.82469, -31.3554737 ], [ -178.824791, -31.3554383 ], [ -178.8248447, -31.3553974 ], [ -178.824898499999989, -31.355368 ], [ -178.824972800000012, -31.3553617 ], [ -178.82502, -31.3553556 ], [ -178.8250673, -31.3553553 ], [ -178.8251014, -31.3553899 ], [ -178.8251424, -31.3554476 ], [ -178.825163, -31.3554881 ], [ -178.8251636, -31.3555576 ], [ -178.825211200000012, -31.3555863 ], [ -178.825211599999989, -31.3556385 ], [ -178.82517150000001, -31.3556851 ], [ -178.8251653, -31.3557489 ], [ -178.8251792, -31.3557952 ], [ -178.825199700000013, -31.3558241 ], [ -178.825267, -31.3557889 ], [ -178.8252936, -31.3557423 ], [ -178.825313599999987, -31.3557074 ], [ -178.825340399999988, -31.355684 ], [ -178.8253609, -31.3557129 ], [ -178.8253679, -31.3557418 ], [ -178.8254354, -31.3557298 ], [ -178.8254349, -31.3556776 ], [ -178.825420799999989, -31.3556139 ], [ -178.82542, -31.3555154 ], [ -178.8253518, -31.3554463 ], [ -178.825324200000011, -31.3553827 ], [ -178.8252965, -31.3553017 ], [ -178.8252958, -31.3552205 ], [ -178.825302, -31.3551509 ], [ -178.8254157, -31.3550227 ], [ -178.8255029, -31.3549525 ], [ -178.82556360000001, -31.3549463 ], [ -178.825591, -31.3549809 ], [ -178.8256183, -31.3550156 ], [ -178.825706200000013, -31.3550266 ], [ -178.825807, -31.3549622 ], [ -178.8259272, -31.3548049 ], [ -178.825953199999987, -31.3546887 ], [ -178.825865099999987, -31.3546545 ], [ -178.8257642, -31.3547016 ], [ -178.825697, -31.3547426 ], [ -178.8256159, -31.3547431 ], [ -178.8255617, -31.354726 ], [ -178.825561, -31.3546391 ], [ -178.825560200000012, -31.3545521 ], [ -178.8255594, -31.3544652 ], [ -178.825565399999988, -31.3543782 ], [ -178.8255107, -31.3543032 ], [ -178.8254839, -31.3543265 ], [ -178.825436700000012, -31.3543326 ], [ -178.825436200000013, -31.3542747 ], [ -178.8254152, -31.3541936 ], [ -178.8253473, -31.3541535 ], [ -178.8252455, -31.3540962 ], [ -178.8251974, -31.3540037 ], [ -178.8251294, -31.3539578 ], [ -178.8250342, -31.3538888 ], [ -178.824932499999989, -31.3538489 ], [ -178.824911899999989, -31.3538027 ], [ -178.8249658, -31.3537907 ], [ -178.825060400000012, -31.3537901 ], [ -178.8251348, -31.353807 ], [ -178.825223099999988, -31.3538528 ], [ -178.825284, -31.3538698 ], [ -178.8253244, -31.353858 ], [ -178.8253781, -31.3538113 ], [ -178.8253771, -31.3537011 ], [ -178.8253494, -31.3536201 ], [ -178.8253279, -31.3535602 ], [ -178.8253078, -31.3535044 ] ] ] ] } },
{ "type": "Feature", "properties": { "FID": 279101, "id": 25, "left": -180.0, "top": -30.0, "right": -175.0, "bottom": -35.0, "row_index": 24, "col_index": 0, "min_lon": -180.0, "min_lat": -35.0, "tile_id": "-180_-35" }, "geometry": { "type": "MultiPolygon", "coordinates": [ [ [ [ -178.5675736, -30.535116 ], [ -178.5675114, -30.5350815 ], [ -178.567438399999986, -30.5350818 ], [ -178.567394900000011, -30.535082 ], [ -178.5673654, -30.5350821 ], [ -178.5673218, -30.5351076 ], [ -178.5672563, -30.5351426 ], [ -178.5672272, -30.5351648 ], [ -178.5671983, -30.5352123 ], [ -178.567162, -30.5352473 ], [ -178.5671184, -30.535279 ], [ -178.5670639, -30.5353109 ], [ -178.5670129, -30.53533 ], [ -178.5669545, -30.5353366 ], [ -178.5668889, -30.53534 ], [ -178.566823199999988, -30.5353466 ], [ -178.5667503, -30.5353533 ], [ -178.566681100000011, -30.5353757 ], [ -178.5665866, -30.5354424 ], [ -178.5665502, -30.5354679 ], [ -178.5665032, -30.5355281 ], [ -178.5664998, -30.5355786 ], [ -178.5664966, -30.5356482 ], [ -178.566497199999986, -30.5357555 ], [ -178.5665198, -30.5358881 ], [ -178.566542199999986, -30.5359701 ], [ -178.5665792, -30.536049 ], [ -178.5665869, -30.5361216 ], [ -178.566602, -30.53621 ], [ -178.5665952, -30.5362921 ], [ -178.56657, -30.5363617 ], [ -178.5665526, -30.5363854 ], [ -178.566530199999988, -30.5364156 ], [ -178.566479500000014, -30.5364885 ], [ -178.5663711, -30.5366658 ], [ -178.566349800000012, -30.5367765 ], [ -178.5662992, -30.5368588 ], [ -178.5662702, -30.5368874 ], [ -178.566248699999989, -30.5369601 ], [ -178.566253100000012, -30.537077 ], [ -178.566275600000012, -30.5371969 ], [ -178.5662252, -30.5373045 ], [ -178.5661562, -30.5373712 ], [ -178.5660914, -30.5375136 ], [ -178.5660737, -30.5376147 ], [ -178.566078, -30.537719 ], [ -178.566125699999986, -30.5377693 ], [ -178.5661661, -30.537807 ], [ -178.5661954, -30.5378322 ], [ -178.5662029, -30.5378606 ], [ -178.5661921, -30.5378922 ], [ -178.5661814, -30.5379365 ], [ -178.566141499999986, -30.5379809 ], [ -178.566108899999989, -30.5380189 ], [ -178.5660983, -30.5380727 ], [ -178.5660915, -30.538158 ], [ -178.5661461, -30.5381483 ], [ -178.5661577, -30.5382461 ], [ -178.5661581, -30.5383188 ], [ -178.5661585, -30.5383851 ], [ -178.5662063, -30.5384607 ], [ -178.566246, -30.5385508 ], [ -178.5662618, -30.5385868 ], [ -178.56635, -30.5386875 ], [ -178.56639770000001, -30.5387347 ], [ -178.5664564, -30.538785 ], [ -178.566595400000011, -30.5388507 ], [ -178.5666358, -30.5388916 ], [ -178.5666798, -30.5389261 ], [ -178.566705500000012, -30.5389545 ], [ -178.5667349, -30.5389828 ], [ -178.566760499999987, -30.5389953 ], [ -178.566785900000013, -30.5389762 ], [ -178.566804100000013, -30.5389572 ], [ -178.566844, -30.5389286 ], [ -178.5668695, -30.538919 ], [ -178.5669753, -30.5389091 ], [ -178.5670155, -30.5389215 ], [ -178.5670375, -30.5389372 ], [ -178.5670413, -30.5389625 ], [ -178.5670742, -30.538975 ], [ -178.567110500000013, -30.5389464 ], [ -178.5671323, -30.5389273 ], [ -178.567157900000012, -30.5389272 ], [ -178.56714, -30.5389905 ], [ -178.567140099999989, -30.5390189 ], [ -178.5671403, -30.5390537 ], [ -178.5671587, -30.5390725 ], [ -178.5672027, -30.5391039 ], [ -178.5672247, -30.5391259 ], [ -178.5672467, -30.5391416 ], [ -178.5673051, -30.5391414 ], [ -178.567337900000012, -30.5391381 ], [ -178.567356100000012, -30.5391254 ], [ -178.5673741, -30.5390874 ], [ -178.5673846, -30.5390178 ], [ -178.5673807, -30.5389768 ], [ -178.5673588, -30.5389706 ], [ -178.567355099999986, -30.5389548 ], [ -178.5673732, -30.5389294 ], [ -178.5674132, -30.538904 ], [ -178.5674203, -30.5388819 ], [ -178.567354599999987, -30.5388664 ], [ -178.5673653, -30.5388379 ], [ -178.567365099999989, -30.5388031 ], [ -178.567405, -30.5387524 ], [ -178.567412, -30.5386955 ], [ -178.567437, -30.538607 ], [ -178.5674478, -30.5385785 ], [ -178.567484400000012, -30.5385941 ], [ -178.567531800000012, -30.5386034 ], [ -178.5675501, -30.5386096 ], [ -178.5675645, -30.538578 ], [ -178.567575299999987, -30.5385527 ], [ -178.5675861, -30.5385147 ], [ -178.567593100000011, -30.5384641 ], [ -178.5676037, -30.5384009 ], [ -178.5676034, -30.5383504 ], [ -178.567584900000014, -30.5383094 ], [ -178.5675807, -30.5382115 ], [ -178.5675838, -30.5381294 ], [ -178.567601700000012, -30.5380724 ], [ -178.5676636, -30.5380374 ], [ -178.5677183, -30.5380309 ], [ -178.5677294, -30.5380656 ], [ -178.5677334, -30.5381192 ], [ -178.567781200000013, -30.5381885 ], [ -178.567891, -30.5382386 ], [ -178.567923799999988, -30.5382384 ], [ -178.567971199999988, -30.5382319 ], [ -178.56800770000001, -30.5382223 ], [ -178.56806610000001, -30.5382252 ], [ -178.5680954, -30.5382472 ], [ -178.568153700000011, -30.5382374 ], [ -178.5681573, -30.5382153 ], [ -178.5681864, -30.538212 ], [ -178.5682084, -30.5382277 ], [ -178.5682414, -30.5382465 ], [ -178.5682924, -30.53824 ], [ -178.5683032, -30.5382147 ], [ -178.568336, -30.5382051 ], [ -178.5683875, -30.5382775 ], [ -178.5684132, -30.538309 ], [ -178.5684681, -30.5383277 ], [ -178.568533699999989, -30.5383053 ], [ -178.5685187, -30.5382516 ], [ -178.568569700000012, -30.5382356 ], [ -178.5686426, -30.5382069 ], [ -178.5686706, -30.5381613 ], [ -178.568693200000013, -30.5381245 ], [ -178.568732899999986, -30.5380517 ], [ -178.5687652, -30.5379663 ], [ -178.568823400000014, -30.5379344 ], [ -178.5688633, -30.53789 ], [ -178.5688667, -30.5378426 ], [ -178.5688338, -30.5378396 ], [ -178.5687756, -30.5378746 ], [ -178.568756799999989, -30.5377768 ], [ -178.5687565, -30.5377168 ], [ -178.568792699999989, -30.5376755 ], [ -178.5688183, -30.5376723 ], [ -178.568862, -30.5376594 ], [ -178.5688728, -30.5376373 ], [ -178.5688543, -30.5375963 ], [ -178.568806599999988, -30.5375491 ], [ -178.568751600000013, -30.5375146 ], [ -178.568700400000012, -30.5374833 ], [ -178.5686417, -30.5374361 ], [ -178.568641500000012, -30.5373951 ], [ -178.56867410000001, -30.5373633 ], [ -178.568721399999987, -30.5373347 ], [ -178.5687579, -30.5373377 ], [ -178.568765500000012, -30.5373787 ], [ -178.568798500000014, -30.5374165 ], [ -178.568820499999987, -30.5374259 ], [ -178.5688643, -30.5374257 ], [ -178.5688969, -30.5373971 ], [ -178.5689626, -30.5374 ], [ -178.5689883, -30.537422 ], [ -178.569035899999989, -30.5374439 ], [ -178.5690687, -30.5374406 ], [ -178.5690941, -30.5374152 ], [ -178.569104900000013, -30.5373994 ], [ -178.569148399999989, -30.5373455 ], [ -178.569181, -30.5373011 ], [ -178.5692137, -30.5372694 ], [ -178.5692211, -30.5372978 ], [ -178.569243199999988, -30.5373356 ], [ -178.5692435, -30.5373798 ], [ -178.56925480000001, -30.5374335 ], [ -178.569309800000013, -30.5374806 ], [ -178.5693829, -30.5375056 ], [ -178.5694449, -30.5375021 ], [ -178.5694923, -30.5374956 ], [ -178.5695251, -30.537486 ], [ -178.5695359, -30.5374543 ], [ -178.569532, -30.5374196 ], [ -178.569528, -30.5373565 ], [ -178.5694803, -30.5373188 ], [ -178.5694437, -30.5372937 ], [ -178.5693556, -30.5372119 ], [ -178.569348100000013, -30.5371772 ], [ -178.569351399999988, -30.5371045 ], [ -178.5693659, -30.5370855 ], [ -178.5693876, -30.5370633 ], [ -178.569405499999988, -30.5370032 ], [ -178.569408900000013, -30.5369558 ], [ -178.5694087, -30.5369148 ], [ -178.569404600000013, -30.5368453 ], [ -178.5694044, -30.5368105 ], [ -178.569441, -30.536823 ], [ -178.569481200000013, -30.5368386 ], [ -178.5694957, -30.5368228 ], [ -178.5694992, -30.5367912 ], [ -178.5694734, -30.5367597 ], [ -178.5694296, -30.5367504 ], [ -178.5693894, -30.5367379 ], [ -178.5693781, -30.5366875 ], [ -178.5693813, -30.5366085 ], [ -178.56941040000001, -30.5365957 ], [ -178.56946880000001, -30.5365891 ], [ -178.569494099999986, -30.5365574 ], [ -178.5694939, -30.5365164 ], [ -178.56945730000001, -30.5364976 ], [ -178.5694062, -30.5364915 ], [ -178.5693478, -30.5364854 ], [ -178.5691438, -30.5363425 ], [ -178.5692369, -30.5362522 ], [ -178.5692656, -30.5361573 ], [ -178.5692723, -30.5360593 ], [ -178.56926820000001, -30.5359835 ], [ -178.5692425, -30.5359489 ], [ -178.5692022, -30.5359206 ], [ -178.5691727, -30.5358797 ], [ -178.5691723, -30.5358102 ], [ -178.5692048, -30.5357437 ], [ -178.569252, -30.5357025 ], [ -178.5693394, -30.5356705 ], [ -178.5694049, -30.5356481 ], [ -178.569426600000014, -30.5356133 ], [ -178.5693679, -30.5355535 ], [ -178.569313, -30.535538 ], [ -178.569276300000013, -30.5355034 ], [ -178.569283500000012, -30.5354749 ], [ -178.569360100000011, -30.5354683 ], [ -178.569422300000014, -30.5354964 ], [ -178.569459, -30.535531 ], [ -178.569531899999987, -30.5355307 ], [ -178.569550099999987, -30.5355116 ], [ -178.5695644, -30.5354579 ], [ -178.5695897, -30.5354199 ], [ -178.569615, -30.5353819 ], [ -178.5696184, -30.5353408 ], [ -178.569618100000014, -30.5352871 ], [ -178.5696178, -30.5352429 ], [ -178.569668900000011, -30.5352363 ], [ -178.569698100000011, -30.5352362 ], [ -178.5697491, -30.5352233 ], [ -178.5697634, -30.5351727 ], [ -178.5697303, -30.5351318 ], [ -178.5696644, -30.5350973 ], [ -178.569627700000012, -30.5350564 ], [ -178.5695141, -30.5349811 ], [ -178.5694263, -30.5349436 ], [ -178.5693932, -30.5348932 ], [ -178.5693311, -30.5348777 ], [ -178.569396399999988, -30.5348142 ], [ -178.5694546, -30.5347824 ], [ -178.5695531, -30.5347756 ], [ -178.569636800000012, -30.5347342 ], [ -178.569662, -30.5346836 ], [ -178.5696838, -30.5346614 ], [ -178.5696982, -30.5346297 ], [ -178.569705199999987, -30.5345855 ], [ -178.5697013, -30.5345318 ], [ -178.569664499999988, -30.5344909 ], [ -178.5695842, -30.5344723 ], [ -178.5694967, -30.5344884 ], [ -178.5693728, -30.5345206 ], [ -178.5693326, -30.5345081 ], [ -178.5692996, -30.5344767 ], [ -178.5692956, -30.5344261 ], [ -178.5692991, -30.5343977 ], [ -178.5693172, -30.534366 ], [ -178.5693828, -30.5343657 ], [ -178.5694192, -30.534369 ], [ -178.5694676, -30.5343704 ], [ -178.5694647, -30.5343372 ], [ -178.56946880000001, -30.5343047 ], [ -178.5695026, -30.5342564 ], [ -178.569830700000011, -30.5341343 ], [ -178.5697979, -30.5341344 ], [ -178.5697468, -30.5341346 ], [ -178.569713900000011, -30.5341285 ], [ -178.5696955, -30.5341096 ], [ -178.5696225, -30.5340561 ], [ -178.569597, -30.5340562 ], [ -178.5695677, -30.5340468 ], [ -178.569498399999986, -30.5340471 ], [ -178.5694655, -30.534041 ], [ -178.5691588, -30.5341235 ], [ -178.5691334, -30.5341394 ], [ -178.569104399999986, -30.5341838 ], [ -178.5691593, -30.5342056 ], [ -178.5691922, -30.5342213 ], [ -178.5691814, -30.5342403 ], [ -178.5691668, -30.5342403 ], [ -178.5691376, -30.5342405 ], [ -178.569123, -30.5342374 ], [ -178.5690682, -30.5342345 ], [ -178.5689988, -30.5342221 ], [ -178.568904, -30.5342225 ], [ -178.5688055, -30.5342293 ], [ -178.5687691, -30.5342452 ], [ -178.568769300000014, -30.53428 ], [ -178.5687733, -30.5343337 ], [ -178.568758800000012, -30.534359 ], [ -178.5687591, -30.5344032 ], [ -178.568770199999989, -30.5344379 ], [ -178.5687996, -30.5344694 ], [ -178.568796, -30.5344852 ], [ -178.5687778, -30.5344853 ], [ -178.5687413, -30.5344886 ], [ -178.568555300000014, -30.5344611 ], [ -178.5685226, -30.5344833 ], [ -178.568522699999988, -30.5345054 ], [ -178.5685195, -30.5345718 ], [ -178.5685015, -30.5346192 ], [ -178.568458, -30.5346637 ], [ -178.5685666, -30.5347222 ], [ -178.56852760000001, -30.534758 ], [ -178.568542400000013, -30.5347959 ], [ -178.5685498, -30.5348179 ], [ -178.5685867, -30.5348778 ], [ -178.568586900000014, -30.5349157 ], [ -178.5685834, -30.534941 ], [ -178.568554299999988, -30.5349601 ], [ -178.5685032, -30.5349634 ], [ -178.5684522, -30.5349637 ], [ -178.568371899999988, -30.5349703 ], [ -178.568335499999989, -30.5349863 ], [ -178.568277200000011, -30.5349992 ], [ -178.568251800000013, -30.5350214 ], [ -178.568277599999988, -30.5350623 ], [ -178.568288700000011, -30.5351002 ], [ -178.568234100000012, -30.5351225 ], [ -178.5681902, -30.5351006 ], [ -178.5681317, -30.5350788 ], [ -178.5680695, -30.5350569 ], [ -178.567956400000014, -30.5350574 ], [ -178.56785450000001, -30.5351021 ], [ -178.567770599999989, -30.5351056 ], [ -178.5676942, -30.5351375 ], [ -178.5676212, -30.5351347 ], [ -178.5675736, -30.535116 ] ] ] ] } },
{ "type": "Feature", "properties": { "FID": 279102, "id": 25, "left": -180.0, "top": -30.0, "right": -175.0, "bottom": -35.0, "row_index": 24, "col_index": 0, "min_lon": -180.0, "min_lat": -35.0, "tile_id": "-180_-35" }, "geometry": { "type": "MultiPolygon", "coordinates": [ [ [ [ -178.569956, -30.5372203 ], [ -178.5700381, -30.5372137 ], [ -178.5700836, -30.5371929 ], [ -178.570268700000014, -30.537179 ], [ -178.570298400000013, -30.5371579 ], [ -178.5703073, -30.5371215 ], [ -178.5703052, -30.5370836 ], [ -178.57027, -30.5370355 ], [ -178.5701444, -30.5369905 ], [ -178.5701278, -30.5369558 ], [ -178.5701331, -30.5369305 ], [ -178.5701477, -30.5369226 ], [ -178.570174900000012, -30.5369003 ], [ -178.57018020000001, -30.5368687 ], [ -178.5701582, -30.5368499 ], [ -178.5701326, -30.5368468 ], [ -178.5701307, -30.5368358 ], [ -178.570136100000013, -30.5368152 ], [ -178.570150500000011, -30.5367836 ], [ -178.57013760000001, -30.5367552 ], [ -178.570101, -30.5367506 ], [ -178.5700773, -30.5367492 ], [ -178.5700536, -30.5367572 ], [ -178.570024600000011, -30.5367794 ], [ -178.5700156, -30.5368015 ], [ -178.5699883, -30.5368206 ], [ -178.5698232, -30.5367167 ], [ -178.569784700000014, -30.53669 ], [ -178.569762700000013, -30.5366696 ], [ -178.569711500000011, -30.5366493 ], [ -178.5696422, -30.5366575 ], [ -178.5696131, -30.5366766 ], [ -178.5696115, -30.5367097 ], [ -178.5695862, -30.5367509 ], [ -178.5695845, -30.536773 ], [ -178.5696011, -30.5368045 ], [ -178.569624800000014, -30.5368029 ], [ -178.5696051, -30.536834 ], [ -178.569613800000013, -30.5368504 ], [ -178.5696341, -30.5368812 ], [ -178.569668900000011, -30.5369119 ], [ -178.56978860000001, -30.5370335 ], [ -178.5697942, -30.5370651 ], [ -178.569816300000014, -30.537095 ], [ -178.569873300000012, -30.5371196 ], [ -178.5698917, -30.5371527 ], [ -178.569943099999989, -30.5372062 ], [ -178.569956, -30.5372203 ] ] ] ] } },
{ "type": "Feature", "properties": { "FID": 279103, "id": 25, "left": -180.0, "top": -30.0, "right": -175.0, "bottom": -35.0, "row_index": 24, "col_index": 0, "min_lon": -180.0, "min_lat": -35.0, "tile_id": "-180_-35" }, "geometry": { "type": "MultiPolygon", "coordinates": [ [ [ [ -178.5537235, -30.5425012 ], [ -178.5536995, -30.5425789 ], [ -178.5536471, -30.5426886 ], [ -178.553663699999987, -30.542745 ], [ -178.5536978, -30.5427703 ], [ -178.5537252, -30.5427906 ], [ -178.5538312, -30.5427937 ], [ -178.553978, -30.5427931 ], [ -178.554043299999989, -30.5427963 ], [ -178.5541292, -30.5428524 ], [ -178.5542313, -30.5428767 ], [ -178.5543088, -30.5428728 ], [ -178.5544107, -30.5428583 ], [ -178.5544922, -30.5428579 ], [ -178.5546186, -30.5428574 ], [ -178.5547125, -30.5428746 ], [ -178.554733199999987, -30.5429204 ], [ -178.5546967, -30.5429665 ], [ -178.5546234, -30.5429774 ], [ -178.5545624, -30.5430024 ], [ -178.5544569, -30.5431052 ], [ -178.5544816, -30.5431439 ], [ -178.554473800000011, -30.5432039 ], [ -178.5543759, -30.5432008 ], [ -178.5543104, -30.5431587 ], [ -178.554286, -30.5431765 ], [ -178.5542496, -30.5432296 ], [ -178.5542867, -30.5432859 ], [ -178.554307200000011, -30.5433105 ], [ -178.5543197, -30.5433528 ], [ -178.55428710000001, -30.5433706 ], [ -178.554246400000011, -30.5433708 ], [ -178.5542381, -30.5433602 ], [ -178.5542259, -30.5433532 ], [ -178.5542053, -30.5433286 ], [ -178.554168800000014, -30.543357 ], [ -178.554169, -30.5433994 ], [ -178.554157, -30.5434383 ], [ -178.55412050000001, -30.5434737 ], [ -178.5541249, -30.5435337 ], [ -178.5541701, -30.5435864 ], [ -178.5542232, -30.5435968 ], [ -178.554259800000011, -30.5435896 ], [ -178.5543087, -30.5435753 ], [ -178.5543735, -30.5434938 ], [ -178.5543978, -30.5434655 ], [ -178.5544504, -30.5433946 ], [ -178.5545401, -30.5433837 ], [ -178.554605, -30.5433234 ], [ -178.554665699999987, -30.543249 ], [ -178.55469, -30.5432171 ], [ -178.554686, -30.5432383 ], [ -178.5546742, -30.5433019 ], [ -178.5546215, -30.5433657 ], [ -178.554556600000012, -30.543426 ], [ -178.5545366, -30.5434931 ], [ -178.554541199999989, -30.5435778 ], [ -178.5545578, -30.5436307 ], [ -178.554509700000011, -30.5437756 ], [ -178.554502, -30.5438639 ], [ -178.55449440000001, -30.5439557 ], [ -178.554454, -30.5440194 ], [ -178.5544545, -30.5441182 ], [ -178.5544753, -30.5441852 ], [ -178.5545045, -30.5443051 ], [ -178.554513, -30.5443615 ], [ -178.5544724, -30.5443935 ], [ -178.554403400000012, -30.5444573 ], [ -178.5543999, -30.5445597 ], [ -178.5544085, -30.5446408 ], [ -178.554417, -30.5446938 ], [ -178.5544501, -30.5447713 ], [ -178.554487, -30.5448099 ], [ -178.554544, -30.5447991 ], [ -178.5545928, -30.5447742 ], [ -178.5546048, -30.5447283 ], [ -178.5546005, -30.5446894 ], [ -178.5546371, -30.5446681 ], [ -178.5547025, -30.544689 ], [ -178.5547434, -30.54471 ], [ -178.5548005, -30.5447274 ], [ -178.554878, -30.5447306 ], [ -178.554967799999986, -30.5447373 ], [ -178.5550493, -30.5447299 ], [ -178.5550902, -30.5447403 ], [ -178.5550821, -30.544758 ], [ -178.555029499999989, -30.5448288 ], [ -178.5551438, -30.5448424 ], [ -178.5552049, -30.5448351 ], [ -178.5552495, -30.5447855 ], [ -178.555298599999986, -30.5448206 ], [ -178.555384299999986, -30.5448238 ], [ -178.555506400000013, -30.5447915 ], [ -178.5558159, -30.544716 ], [ -178.555889, -30.5446522 ], [ -178.555962099999988, -30.5445919 ], [ -178.5560351, -30.544528 ], [ -178.5561164, -30.5444747 ], [ -178.5562017, -30.5444285 ], [ -178.556255099999987, -30.5444847 ], [ -178.556275699999986, -30.544534 ], [ -178.5563208, -30.5445727 ], [ -178.5563658, -30.5445901 ], [ -178.556418900000011, -30.544604 ], [ -178.556459600000011, -30.5445862 ], [ -178.5564919, -30.5445402 ], [ -178.5565325, -30.5445012 ], [ -178.5565689, -30.5444551 ], [ -178.5566178, -30.5444373 ], [ -178.5566992, -30.5444193 ], [ -178.5567685, -30.5444084 ], [ -178.5568538, -30.544348 ], [ -178.55689430000001, -30.5443055 ], [ -178.5569595, -30.5443017 ], [ -178.5570411, -30.5443013 ], [ -178.5571104, -30.5442905 ], [ -178.5571309, -30.544308 ], [ -178.557102500000013, -30.5443434 ], [ -178.5570376, -30.5444002 ], [ -178.5569644, -30.5444429 ], [ -178.5569035, -30.544482 ], [ -178.5569037, -30.5445278 ], [ -178.5569741, -30.544704 ], [ -178.557056, -30.5447672 ], [ -178.557117299999987, -30.5447917 ], [ -178.5572357, -30.5448088 ], [ -178.5573742, -30.54478 ], [ -178.5575167, -30.5447405 ], [ -178.557666899999987, -30.5446269 ], [ -178.5577441, -30.5445701 ], [ -178.5578295, -30.5445274 ], [ -178.557804800000014, -30.5444852 ], [ -178.557768, -30.5444818 ], [ -178.5577313, -30.5444784 ], [ -178.557723, -30.5444502 ], [ -178.5577633, -30.5443724 ], [ -178.5578203, -30.544351 ], [ -178.5578609, -30.5443084 ], [ -178.557889100000011, -30.5442483 ], [ -178.5579213, -30.5441846 ], [ -178.5579617, -30.5441103 ], [ -178.5580185, -30.5440571 ], [ -178.5580793, -30.5439898 ], [ -178.5581239, -30.5439508 ], [ -178.5581357, -30.5438731 ], [ -178.5582171, -30.543841 ], [ -178.5582573, -30.5437525 ], [ -178.558289300000013, -30.543643 ], [ -178.5583133, -30.5435511 ], [ -178.558325, -30.5434593 ], [ -178.558369199999987, -30.5433497 ], [ -178.5584055, -30.5432824 ], [ -178.5584174, -30.5432118 ], [ -178.5584129, -30.5431447 ], [ -178.5584369, -30.5430564 ], [ -178.5584935, -30.5429679 ], [ -178.558546299999989, -30.5429394 ], [ -178.5586075, -30.5429498 ], [ -178.558672800000011, -30.5429495 ], [ -178.5587054, -30.5429494 ], [ -178.558742, -30.542928 ], [ -178.55875, -30.5428962 ], [ -178.5587497, -30.5428503 ], [ -178.558769899999987, -30.5428255 ], [ -178.558773800000012, -30.5427902 ], [ -178.5587817, -30.5427443 ], [ -178.5588426, -30.5426981 ], [ -178.5588871, -30.5426344 ], [ -178.5588951, -30.5425991 ], [ -178.5589396, -30.5425354 ], [ -178.5589765, -30.542574 ], [ -178.5590214, -30.5425774 ], [ -178.5590621, -30.5425772 ], [ -178.559111, -30.5425699 ], [ -178.5591681, -30.5425591 ], [ -178.5591846, -30.5425908 ], [ -178.5592091, -30.5426013 ], [ -178.559270199999986, -30.5425904 ], [ -178.5593068, -30.5425726 ], [ -178.5593639, -30.5425759 ], [ -178.559429200000011, -30.5425791 ], [ -178.5594822, -30.5425825 ], [ -178.559539300000012, -30.5425857 ], [ -178.5595679, -30.5425927 ], [ -178.5595803, -30.5426103 ], [ -178.559596699999986, -30.5426349 ], [ -178.5596214, -30.5426666 ], [ -178.5596419, -30.5426982 ], [ -178.55967480000001, -30.5427334 ], [ -178.559760399999988, -30.542726 ], [ -178.5597928, -30.5426941 ], [ -178.5597764, -30.5426772 ], [ -178.5597723, -30.542673 ], [ -178.559727400000014, -30.5426626 ], [ -178.5597069, -30.5426521 ], [ -178.559706799999987, -30.5426238 ], [ -178.5597515, -30.5425989 ], [ -178.5598084, -30.542574 ], [ -178.5598652, -30.5425208 ], [ -178.5598852, -30.5424536 ], [ -178.5598728, -30.5424149 ], [ -178.5598807, -30.5423795 ], [ -178.5599172, -30.542337 ], [ -178.5599618, -30.542298 ], [ -178.5600393, -30.5423012 ], [ -178.5601083, -30.5422409 ], [ -178.5601323, -30.5421561 ], [ -178.5601278, -30.542082 ], [ -178.5600906, -30.5420045 ], [ -178.5601105, -30.5419232 ], [ -178.560130500000014, -30.5418561 ], [ -178.560134299999987, -30.5418066 ], [ -178.560126, -30.5417678 ], [ -178.560093099999989, -30.5417327 ], [ -178.5600929, -30.5416938 ], [ -178.560092700000013, -30.5416585 ], [ -178.560117, -30.5416196 ], [ -178.5601412, -30.5415877 ], [ -178.5601323, -30.5414501 ], [ -178.5601034, -30.5413867 ], [ -178.560103, -30.5413232 ], [ -178.560062, -30.541281 ], [ -178.5600172, -30.5412953 ], [ -178.5599847, -30.5413201 ], [ -178.5599604, -30.5413485 ], [ -178.5599525, -30.5413874 ], [ -178.559903600000013, -30.5413982 ], [ -178.559887, -30.5413453 ], [ -178.5598948, -30.5412852 ], [ -178.559939500000013, -30.5412497 ], [ -178.5600081, -30.5411294 ], [ -178.5600201, -30.541087 ], [ -178.5600198, -30.5410306 ], [ -178.5600236, -30.5409882 ], [ -178.5600763, -30.5409315 ], [ -178.5601088, -30.5409066 ], [ -178.560165399999988, -30.5408181 ], [ -178.560173099999986, -30.540751 ], [ -178.5601483, -30.5406841 ], [ -178.56014780000001, -30.5406029 ], [ -178.5601962, -30.5405109 ], [ -178.5602365, -30.5404225 ], [ -178.5602519, -30.5402671 ], [ -178.56027180000001, -30.5401858 ], [ -178.5602911, -30.539981 ], [ -178.560253499999988, -30.5398365 ], [ -178.560183200000012, -30.5396673 ], [ -178.5601298, -30.5395899 ], [ -178.5600966, -30.5394948 ], [ -178.5600677, -30.5394278 ], [ -178.56001, -30.5393222 ], [ -178.5599277, -30.5391919 ], [ -178.559796799999987, -30.5391254 ], [ -178.5596702, -30.5390907 ], [ -178.5596129, -30.5390556 ], [ -178.5595473, -30.5390029 ], [ -178.5595023, -30.5389784 ], [ -178.5594208, -30.5389788 ], [ -178.559331, -30.5389721 ], [ -178.5592656, -30.5389441 ], [ -178.5592082, -30.5388809 ], [ -178.5591794, -30.5388351 ], [ -178.5591872, -30.5387821 ], [ -178.559207500000014, -30.5387573 ], [ -178.5592237, -30.5387431 ], [ -178.5592235, -30.5387149 ], [ -178.5591623, -30.5386975 ], [ -178.5591133, -30.5386907 ], [ -178.559084399999989, -30.5386343 ], [ -178.5589123, -30.5384868 ], [ -178.5588061, -30.5384555 ], [ -178.55874080000001, -30.5384452 ], [ -178.558663200000012, -30.5384208 ], [ -178.5586304, -30.5384033 ], [ -178.55863020000001, -30.5383539 ], [ -178.5586299, -30.538315 ], [ -178.558642, -30.5382832 ], [ -178.558645899999988, -30.5382479 ], [ -178.5586334, -30.5382091 ], [ -178.5586089, -30.5381951 ], [ -178.5585477, -30.5381954 ], [ -178.5584498, -30.5381958 ], [ -178.558356, -30.5381962 ], [ -178.5582742, -30.5381542 ], [ -178.558155699999986, -30.5381088 ], [ -178.55809450000001, -30.5381055 ], [ -178.5580377, -30.5381517 ], [ -178.558009199999987, -30.5381553 ], [ -178.558009, -30.53812 ], [ -178.5580128, -30.5380812 ], [ -178.55800450000001, -30.5380494 ], [ -178.5579514, -30.5380391 ], [ -178.5578864, -30.5380676 ], [ -178.55785, -30.5381313 ], [ -178.5577853, -30.5382304 ], [ -178.5577161, -30.5382484 ], [ -178.557724, -30.5381989 ], [ -178.557731600000011, -30.5381106 ], [ -178.5578006, -30.5380397 ], [ -178.5578327, -30.5379514 ], [ -178.5578405, -30.5378984 ], [ -178.5578401, -30.5378172 ], [ -178.5578194, -30.5377608 ], [ -178.5577988, -30.5377256 ], [ -178.5576925, -30.5376872 ], [ -178.5575533, -30.537589 ], [ -178.557447, -30.5375365 ], [ -178.55739410000001, -30.5375614 ], [ -178.5573416, -30.5376428 ], [ -178.557346, -30.5377063 ], [ -178.5573464, -30.537784 ], [ -178.55727730000001, -30.5378161 ], [ -178.557265, -30.5377985 ], [ -178.5572647, -30.5377491 ], [ -178.557244, -30.5377033 ], [ -178.5572033, -30.5377034 ], [ -178.5571788, -30.5377035 ], [ -178.5571383, -30.5377461 ], [ -178.5571017, -30.537778 ], [ -178.5571021, -30.5378486 ], [ -178.557110599999987, -30.537898 ], [ -178.5571271, -30.5379403 ], [ -178.5570783, -30.5379652 ], [ -178.557053700000012, -30.53793 ], [ -178.557037, -30.5378595 ], [ -178.5570041, -30.5378172 ], [ -178.556959, -30.5377751 ], [ -178.5568774, -30.5377719 ], [ -178.556775499999986, -30.5377759 ], [ -178.5567389, -30.5377937 ], [ -178.5566861, -30.5378327 ], [ -178.556613199999987, -30.5379213 ], [ -178.556511699999987, -30.5380029 ], [ -178.5564344, -30.5380315 ], [ -178.5563895, -30.5380175 ], [ -178.5563689, -30.5379858 ], [ -178.5563563, -30.5379259 ], [ -178.55631120000001, -30.5378802 ], [ -178.5562679, -30.537847 ], [ -178.5562334, -30.5378205 ], [ -178.5561884, -30.537796 ], [ -178.5561721, -30.5377996 ], [ -178.5561315, -30.537828 ], [ -178.556091, -30.5378706 ], [ -178.5560954, -30.5379341 ], [ -178.5560917, -30.5379941 ], [ -178.556010500000014, -30.538058 ], [ -178.5558638, -30.5380833 ], [ -178.5557498, -30.5381226 ], [ -178.555619799999988, -30.5382044 ], [ -178.555526500000013, -30.5382895 ], [ -178.5554046, -30.5383677 ], [ -178.5554496, -30.5383886 ], [ -178.5554784, -30.5384273 ], [ -178.555462299999988, -30.5384733 ], [ -178.5554096, -30.5385335 ], [ -178.5554099, -30.5385759 ], [ -178.5554266, -30.5386429 ], [ -178.555516399999988, -30.5386531 ], [ -178.555581499999988, -30.5386422 ], [ -178.5556669, -30.538603 ], [ -178.5557402, -30.538571 ], [ -178.5557891, -30.5385743 ], [ -178.555797500000011, -30.5386131 ], [ -178.555769199999986, -30.5386485 ], [ -178.5557447, -30.5386592 ], [ -178.555622699999986, -30.5387021 ], [ -178.5554603, -30.5388439 ], [ -178.555351, -30.5389785 ], [ -178.55527810000001, -30.5390742 ], [ -178.5552255, -30.5391344 ], [ -178.555152600000014, -30.5392194 ], [ -178.555156899999986, -30.5392618 ], [ -178.5552017, -30.539251 ], [ -178.555225900000011, -30.539212 ], [ -178.555250199999989, -30.5391731 ], [ -178.555303, -30.5391341 ], [ -178.55536, -30.5391232 ], [ -178.5553763, -30.5391232 ], [ -178.5553763, -30.5391267 ], [ -178.5553765, -30.539162 ], [ -178.555380899999989, -30.5392114 ], [ -178.5553811, -30.5392431 ], [ -178.555352699999986, -30.5392821 ], [ -178.555292, -30.5393671 ], [ -178.5552516, -30.5394167 ], [ -178.555190900000014, -30.5395016 ], [ -178.5552155, -30.5395298 ], [ -178.5552726, -30.5395295 ], [ -178.5553174, -30.5395223 ], [ -178.555378499999989, -30.5395185 ], [ -178.5554234, -30.5395112 ], [ -178.555464300000011, -30.5395464 ], [ -178.555468600000012, -30.5395781 ], [ -178.5554363, -30.5396312 ], [ -178.555371400000013, -30.539695 ], [ -178.5552901, -30.5397483 ], [ -178.555237299999987, -30.5397874 ], [ -178.5551887, -30.5398405 ], [ -178.5551523, -30.5398936 ], [ -178.555107600000014, -30.539922 ], [ -178.5550589, -30.5399575 ], [ -178.555116, -30.5399538 ], [ -178.555144500000011, -30.5399536 ], [ -178.5551812, -30.5399535 ], [ -178.555222, -30.5399533 ], [ -178.5552544, -30.5399249 ], [ -178.5552626, -30.5399284 ], [ -178.5552791, -30.5399637 ], [ -178.555279399999989, -30.5400096 ], [ -178.5552918, -30.5400483 ], [ -178.555324500000012, -30.5400517 ], [ -178.5553571, -30.540048 ], [ -178.5554142, -30.5400478 ], [ -178.5554468, -30.5400406 ], [ -178.55542650000001, -30.5400619 ], [ -178.555394, -30.5400797 ], [ -178.5553452, -30.540101 ], [ -178.5553166, -30.5401012 ], [ -178.5552921, -30.5401013 ], [ -178.555243100000013, -30.5400838 ], [ -178.5552147, -30.5401016 ], [ -178.5551945, -30.540137 ], [ -178.555170299999986, -30.5401865 ], [ -178.555146, -30.5402184 ], [ -178.5551259, -30.5402679 ], [ -178.555122399999988, -30.5403703 ], [ -178.5551391, -30.5404408 ], [ -178.5551476, -30.5404902 ], [ -178.5551479, -30.5405466 ], [ -178.5551481, -30.5405925 ], [ -178.555107600000014, -30.5406351 ], [ -178.55505070000001, -30.5406671 ], [ -178.5550182, -30.5406954 ], [ -178.5550062, -30.5407237 ], [ -178.5549613, -30.540731 ], [ -178.5549082, -30.540703 ], [ -178.5548672, -30.5406749 ], [ -178.554854799999987, -30.5406361 ], [ -178.554809799999987, -30.5406152 ], [ -178.5547772, -30.5406153 ], [ -178.5547693, -30.5406647 ], [ -178.5547613, -30.5406965 ], [ -178.5547124, -30.5407073 ], [ -178.5546718, -30.5407322 ], [ -178.554631300000011, -30.5407818 ], [ -178.554598700000014, -30.5407855 ], [ -178.5545535, -30.5407292 ], [ -178.5545329, -30.540694 ], [ -178.5545002, -30.5406659 ], [ -178.5544634, -30.540666 ], [ -178.554426799999987, -30.5406733 ], [ -178.554402399999987, -30.540691 ], [ -178.5544026, -30.5407228 ], [ -178.5544232, -30.5407615 ], [ -178.5544478, -30.5407791 ], [ -178.554488600000013, -30.5407824 ], [ -178.5545009, -30.5408 ], [ -178.5545093, -30.5408353 ], [ -178.554509599999989, -30.5408847 ], [ -178.5545586, -30.5408986 ], [ -178.554636, -30.5408877 ], [ -178.554701099999988, -30.5408662 ], [ -178.5548028, -30.540827 ], [ -178.5548597, -30.540795 ], [ -178.5548722, -30.5408337 ], [ -178.5548305, -30.5408901 ], [ -178.5547794, -30.5409348 ], [ -178.5547456, -30.5409941 ], [ -178.5547373, -30.5410533 ], [ -178.55473760000001, -30.5410977 ], [ -178.5548064, -30.541164 ], [ -178.5548493, -30.5411935 ], [ -178.5548751, -30.5412304 ], [ -178.5548412, -30.5412675 ], [ -178.5547901, -30.5413121 ], [ -178.5547903, -30.5413417 ], [ -178.55480750000001, -30.5413712 ], [ -178.5548933, -30.5414227 ], [ -178.5548851, -30.5414819 ], [ -178.5548339, -30.5414895 ], [ -178.554774, -30.5414898 ], [ -178.5547484, -30.5414899 ], [ -178.5546972, -30.5415049 ], [ -178.554629, -30.5415496 ], [ -178.554561, -30.5416165 ], [ -178.5544844, -30.541676 ], [ -178.554450300000013, -30.541691 ], [ -178.5543652, -30.5417579 ], [ -178.554365600000011, -30.5418393 ], [ -178.5543916, -30.541891 ], [ -178.5544348, -30.5419648 ], [ -178.5544095, -30.5420389 ], [ -178.5543068, -30.5420172 ], [ -178.5541691, -30.5419769 ], [ -178.5542067, -30.5421285 ], [ -178.554182700000013, -30.5422098 ], [ -178.554154399999987, -30.5422593 ], [ -178.554077400000011, -30.5423443 ], [ -178.5540245, -30.5423693 ], [ -178.5539552, -30.542359 ], [ -178.5538776, -30.5423523 ], [ -178.553788, -30.5423632 ], [ -178.5537352, -30.5424129 ], [ -178.5537235, -30.5425012 ] ] ] ] } },
{ "type": "Feature", "properties": { "FID": 279104, "id": 25, "left": -180.0, "top": -30.0, "right": -175.0, "bottom": -35.0, "row_index": 24, "col_index": 0, "min_lon": -180.0, "min_lat": -35.0, "tile_id": "-180_-35" }, "geometry": { "type": "MultiPolygon", "coordinates": [ [ [ [ -178.4126235, -30.233714 ], [ -178.4126464, -30.2336889 ], [ -178.412692600000014, -30.2337237 ], [ -178.412744300000014, -30.2337036 ], [ -178.4127728, -30.2336486 ], [ -178.4127723, -30.2335287 ], [ -178.4127661, -30.2334189 ], [ -178.4127025, -30.2333292 ], [ -178.4126216, -30.2332545 ], [ -178.412552299999987, -30.2331799 ], [ -178.4125005, -30.23316 ], [ -178.4124717, -30.2331651 ], [ -178.4123971, -30.2332103 ], [ -178.4123568, -30.2331954 ], [ -178.4123509, -30.2331605 ], [ -178.4123391, -30.2330757 ], [ -178.412292900000011, -30.2330458 ], [ -178.412212399999987, -30.2330461 ], [ -178.412189399999988, -30.2330462 ], [ -178.412137800000011, -30.2330813 ], [ -178.4121035, -30.2331363 ], [ -178.4121671, -30.233206 ], [ -178.4122248, -30.2332508 ], [ -178.412225, -30.2332957 ], [ -178.4122079, -30.2333357 ], [ -178.4121908, -30.2333658 ], [ -178.412190900000013, -30.2334107 ], [ -178.4122026, -30.2334556 ], [ -178.4122372, -30.2334655 ], [ -178.4123176, -30.2334453 ], [ -178.412427, -30.2334849 ], [ -178.412496299999987, -30.2335346 ], [ -178.4125081, -30.2336045 ], [ -178.412462299999987, -30.2336645 ], [ -178.4124625, -30.2336995 ], [ -178.412531699999988, -30.2337442 ], [ -178.412571899999989, -30.2337491 ], [ -178.4126235, -30.233714 ] ] ] ] } },
{ "type": "Feature", "properties": { "FID": 279105, "id": 25, "left": -180.0, "top": -30.0, "right": -175.0, "bottom": -35.0, "row_index": 24, "col_index": 0, "min_lon": -180.0, "min_lat": -35.0, "tile_id": "-180_-35" }, "geometry": { "type": "MultiPolygon", "coordinates": [ [ [ [ -178.4152154, -30.2332713 ], [ -178.4151177, -30.2332666 ], [ -178.414824399999986, -30.2332676 ], [ -178.414675100000011, -30.2333379 ], [ -178.4145891, -30.2334031 ], [ -178.414509, -30.2334883 ], [ -178.414469200000013, -30.2336133 ], [ -178.4144757, -30.233783 ], [ -178.4145279, -30.2338778 ], [ -178.4146204, -30.2339923 ], [ -178.414724, -30.2340269 ], [ -178.4148798, -30.2341513 ], [ -178.41503, -30.2343106 ], [ -178.4151746, -30.2344899 ], [ -178.4152732, -30.2346894 ], [ -178.4153485, -30.234834 ], [ -178.4154068, -30.2350086 ], [ -178.4154073, -30.2351384 ], [ -178.4154134, -30.2352033 ], [ -178.4154136, -30.2352632 ], [ -178.4154139, -30.2353332 ], [ -178.415466, -30.2354129 ], [ -178.4154776, -30.2354378 ], [ -178.4155237, -30.2354626 ], [ -178.415604300000012, -30.2354824 ], [ -178.4157424, -30.2354869 ], [ -178.4158287, -30.2355066 ], [ -178.415967, -30.2355761 ], [ -178.4161862, -30.2357202 ], [ -178.4162498, -30.2358099 ], [ -178.4163538, -30.2359244 ], [ -178.4164115, -30.2359692 ], [ -178.416521, -30.2360138 ], [ -178.416659, -30.2360134 ], [ -178.4167913, -30.2360129 ], [ -178.4169063, -30.2359926 ], [ -178.4169867, -30.2359824 ], [ -178.417101699999989, -30.235967 ], [ -178.4171591, -30.2359369 ], [ -178.4171529, -30.235847 ], [ -178.4171011, -30.2358222 ], [ -178.4171007, -30.2357373 ], [ -178.4171519, -30.2356023 ], [ -178.417168299999986, -30.2353975 ], [ -178.4171619, -30.2352427 ], [ -178.4171039, -30.235128 ], [ -178.4170401, -30.2350034 ], [ -178.4170277, -30.2347837 ], [ -178.4170385, -30.2346189 ], [ -178.4170609, -30.234479 ], [ -178.417095, -30.234374 ], [ -178.417117499999989, -30.234269 ], [ -178.417082599999986, -30.2341743 ], [ -178.4170191, -30.2341046 ], [ -178.4167769, -30.2339505 ], [ -178.4166439, -30.2337861 ], [ -178.416430600000012, -30.233657 ], [ -178.4162519, -30.2335776 ], [ -178.4160501, -30.2334385 ], [ -178.415952299999987, -30.2334388 ], [ -178.4158832, -30.233419 ], [ -178.415819699999986, -30.2333643 ], [ -178.4157218, -30.2333346 ], [ -178.4156183, -30.233335 ], [ -178.415520500000014, -30.2333403 ], [ -178.415411299999988, -30.2333456 ], [ -178.4152848, -30.233346 ], [ -178.4152436, -30.2333017 ], [ -178.4152154, -30.2332713 ] ] ] ] } },
{ "type": "Feature", "properties": { "FID": 279106, "id": 25, "left": -180.0, "top": -30.0, "right": -175.0, "bottom": -35.0, "row_index": 24, "col_index": 0, "min_lon": -180.0, "min_lat": -35.0, "tile_id": "-180_-35" }, "geometry": { "type": "MultiPolygon", "coordinates": [ [ [ [ -178.4330163, -30.2407858 ], [ -178.4330703, -30.2407514 ], [ -178.4331488, -30.2406913 ], [ -178.4331831, -30.2406355 ], [ -178.4332124, -30.2405798 ], [ -178.4332564, -30.2405155 ], [ -178.4332857, -30.2404385 ], [ -178.4333054, -30.2403917 ], [ -178.4333417, -30.2403058 ], [ -178.4333518, -30.2402862 ], [ -178.433429, -30.2401947 ], [ -178.4335748, -30.2401189 ], [ -178.433625, -30.2401029 ], [ -178.433707199999986, -30.2400986 ], [ -178.433793799999989, -30.2400745 ], [ -178.4339215, -30.2400345 ], [ -178.4340355, -30.2399905 ], [ -178.4342087, -30.2399225 ], [ -178.434341, -30.2398784 ], [ -178.4344367, -30.2398345 ], [ -178.434514400000012, -30.2398541 ], [ -178.434614900000014, -30.2398656 ], [ -178.4346971, -30.2398693 ], [ -178.4347788, -30.239758 ], [ -178.4348197, -30.2397143 ], [ -178.4348515, -30.2396666 ], [ -178.4348649, -30.2396031 ], [ -178.434919400000013, -30.2395197 ], [ -178.434923700000013, -30.239476 ], [ -178.4349509, -30.2394323 ], [ -178.4349643, -30.2393569 ], [ -178.434977800000013, -30.2393133 ], [ -178.434996, -30.2392934 ], [ -178.435005, -30.2392616 ], [ -178.4349957, -30.239226 ], [ -178.434968199999986, -30.2392023 ], [ -178.434972499999986, -30.2391388 ], [ -178.434981099999987, -30.2390159 ], [ -178.434989800000011, -30.2389167 ], [ -178.435021400000011, -30.2388492 ], [ -178.435035, -30.2388095 ], [ -178.4350393, -30.238754 ], [ -178.435020900000012, -30.2387382 ], [ -178.4349932, -30.238655 ], [ -178.4350388, -30.238643 ], [ -178.4350662, -30.2386389 ], [ -178.4350982, -30.2386547 ], [ -178.4351302, -30.2386585 ], [ -178.4351301, -30.2386387 ], [ -178.4351299, -30.2385832 ], [ -178.4351115, -30.2385555 ], [ -178.4350839, -30.2385239 ], [ -178.4350928, -30.2384644 ], [ -178.4351155, -30.2384405 ], [ -178.435152, -30.2384364 ], [ -178.4351791, -30.238365 ], [ -178.4352199, -30.2382815 ], [ -178.435278899999986, -30.2382139 ], [ -178.435333500000013, -30.2381701 ], [ -178.4353792, -30.2381779 ], [ -178.4354064, -30.2381342 ], [ -178.4353921, -30.2379796 ], [ -178.4353779, -30.2378766 ], [ -178.435400499999986, -30.2378289 ], [ -178.4354643, -30.2377891 ], [ -178.435514399999988, -30.2377651 ], [ -178.4355827, -30.2377133 ], [ -178.43558250000001, -30.2376737 ], [ -178.4355731, -30.2376063 ], [ -178.43561840000001, -30.2375269 ], [ -178.4357322, -30.2374511 ], [ -178.4359057, -30.2374347 ], [ -178.4359833, -30.2374344 ], [ -178.436061, -30.237454 ], [ -178.4361295, -30.2374577 ], [ -178.436166, -30.2374497 ], [ -178.4361932, -30.2373862 ], [ -178.436215800000014, -30.2373425 ], [ -178.4362841, -30.2372947 ], [ -178.4363754, -30.2372825 ], [ -178.4364943, -30.2373178 ], [ -178.4365995, -30.2373729 ], [ -178.4366911, -30.2374281 ], [ -178.4367916, -30.2374357 ], [ -178.4368828, -30.2374116 ], [ -178.4369236, -30.2373361 ], [ -178.436968799999988, -30.237225 ], [ -178.4370235, -30.2372129 ], [ -178.4371328, -30.2371412 ], [ -178.4371965, -30.2370815 ], [ -178.43722360000001, -30.2370259 ], [ -178.4372553, -30.2369544 ], [ -178.4372778, -30.2368869 ], [ -178.437241, -30.2368157 ], [ -178.4372407, -30.2367641 ], [ -178.4372587, -30.2366402 ], [ -178.4373664, -30.2364816 ], [ -178.4374545, -30.236353 ], [ -178.437533, -30.2362972 ], [ -178.43760180000001, -30.2362456 ], [ -178.437759199999988, -30.2362066 ], [ -178.4379605, -30.2360562 ], [ -178.4381122, -30.2358462 ], [ -178.4382781, -30.2354735 ], [ -178.4384392, -30.2351693 ], [ -178.438624800000014, -30.2348009 ], [ -178.438839800000011, -30.2344281 ], [ -178.4390693, -30.2339782 ], [ -178.4392187, -30.2337243 ], [ -178.439227499999987, -30.2337094 ], [ -178.4393272, -30.233593 ], [ -178.439386500000012, -30.233569 ], [ -178.4394595, -30.2335687 ], [ -178.439528, -30.2335645 ], [ -178.4395462, -30.2335526 ], [ -178.4395415, -30.2335169 ], [ -178.4395002, -30.2334655 ], [ -178.4395046, -30.2334219 ], [ -178.43951340000001, -30.2333505 ], [ -178.4394767, -30.2333109 ], [ -178.4395083, -30.2332434 ], [ -178.4396399, -30.2330606 ], [ -178.439624900000013, -30.2329853 ], [ -178.4396578, -30.2327744 ], [ -178.4397243, -30.232485 ], [ -178.4397397, -30.2321419 ], [ -178.4397606, -30.2317791 ], [ -178.439837899999986, -30.2313916 ], [ -178.4398989, -30.2311513 ], [ -178.4400154, -30.2310547 ], [ -178.4400329, -30.2310402 ], [ -178.440083, -30.2310369 ], [ -178.4401469, -30.2310406 ], [ -178.4401605, -30.2310128 ], [ -178.4401648, -30.2309454 ], [ -178.4401555, -30.2309217 ], [ -178.440146199999987, -30.2308741 ], [ -178.440109299999989, -30.2307989 ], [ -178.4401273, -30.2307354 ], [ -178.4401088, -30.2306839 ], [ -178.440022, -30.2306763 ], [ -178.439976300000012, -30.2306645 ], [ -178.439962, -30.2305298 ], [ -178.4398596, -30.2304178 ], [ -178.439842700000014, -30.2303993 ], [ -178.4397605, -30.2303917 ], [ -178.439650699999987, -30.2303405 ], [ -178.439632100000011, -30.2302731 ], [ -178.4396318, -30.2302057 ], [ -178.4396999, -30.2301183 ], [ -178.439735899999988, -30.2300071 ], [ -178.4397309, -30.2299001 ], [ -178.4397075, -30.2297654 ], [ -178.439656899999989, -30.2296783 ], [ -178.4396108, -30.2295912 ], [ -178.4395056, -30.2295479 ], [ -178.4393317, -30.2294692 ], [ -178.439057100000014, -30.2293195 ], [ -178.4388557, -30.2292131 ], [ -178.4387643, -30.2292015 ], [ -178.438641100000012, -30.2292059 ], [ -178.4385359, -30.2291745 ], [ -178.438471600000014, -30.2290954 ], [ -178.438402700000012, -30.2290084 ], [ -178.4382747, -30.2289613 ], [ -178.4381783, -30.2288585 ], [ -178.438187, -30.2287593 ], [ -178.4381404, -30.2285454 ], [ -178.4381353, -30.2284145 ], [ -178.4381074, -30.2282996 ], [ -178.438043099999987, -30.2282206 ], [ -178.437956, -30.2281534 ], [ -178.4377546, -30.2280431 ], [ -178.43762670000001, -30.2280197 ], [ -178.437507900000014, -30.2279963 ], [ -178.437384400000013, -30.227965 ], [ -178.4372428, -30.2279576 ], [ -178.43715610000001, -30.2279579 ], [ -178.437037299999986, -30.2279384 ], [ -178.436991400000011, -30.2278791 ], [ -178.436813, -30.2278163 ], [ -178.4367671, -30.2277688 ], [ -178.4366479, -30.2276423 ], [ -178.4365745, -30.2275673 ], [ -178.4364646, -30.2274962 ], [ -178.436396, -30.2274885 ], [ -178.4363457, -30.227453 ], [ -178.436313500000011, -30.2274095 ], [ -178.4363132, -30.2273381 ], [ -178.4362629, -30.2273185 ], [ -178.4362219, -30.2273543 ], [ -178.4361534, -30.2273387 ], [ -178.4361486, -30.2272832 ], [ -178.4360199, -30.2271091 ], [ -178.436019499999986, -30.2270061 ], [ -178.4360283, -30.2269346 ], [ -178.4359915, -30.2268793 ], [ -178.4359138, -30.2268597 ], [ -178.4358134, -30.2268561 ], [ -178.4357583, -30.2268007 ], [ -178.4356808, -30.2268129 ], [ -178.435593899999986, -30.2267815 ], [ -178.4355161, -30.226746 ], [ -178.4354428, -30.2266868 ], [ -178.4353832, -30.2266473 ], [ -178.4352739, -30.2266993 ], [ -178.435141499999986, -30.2267155 ], [ -178.435032, -30.2267278 ], [ -178.4348952, -30.2267639 ], [ -178.4348268, -30.226784 ], [ -178.4345984, -30.226761 ], [ -178.434433899999988, -30.2267417 ], [ -178.4343196, -30.2267183 ], [ -178.4342418, -30.2266789 ], [ -178.434232400000013, -30.2266115 ], [ -178.434223, -30.2265521 ], [ -178.434136200000012, -30.2265405 ], [ -178.43400840000001, -30.2265567 ], [ -178.4338075, -30.2265534 ], [ -178.433657, -30.2265976 ], [ -178.433602400000012, -30.2266255 ], [ -178.4334791, -30.2266299 ], [ -178.4333421, -30.2266303 ], [ -178.4331823, -30.2266189 ], [ -178.4330726, -30.2266074 ], [ -178.432894299999987, -30.2265565 ], [ -178.4327572, -30.2265331 ], [ -178.432474, -30.2264984 ], [ -178.4321357, -30.2264162 ], [ -178.431966499999987, -30.2263414 ], [ -178.4318245, -30.2262467 ], [ -178.4317101, -30.2261995 ], [ -178.4316188, -30.2261919 ], [ -178.4315274, -30.2261843 ], [ -178.4314269, -30.2261687 ], [ -178.4313216, -30.2260938 ], [ -178.43123, -30.2260465 ], [ -178.4311979, -30.2260109 ], [ -178.4311657, -30.2259396 ], [ -178.4310786, -30.2258685 ], [ -178.4309824, -30.2258094 ], [ -178.4309365, -30.2257342 ], [ -178.430886, -30.2256828 ], [ -178.430835699999989, -30.2256552 ], [ -178.4307125, -30.2256953 ], [ -178.4306258, -30.2257035 ], [ -178.4305344, -30.225676 ], [ -178.4303837, -30.2256726 ], [ -178.4302604, -30.225669 ], [ -178.4301142, -30.2256457 ], [ -178.4300044, -30.2256104 ], [ -178.429949599999986, -30.2255987 ], [ -178.429830900000013, -30.225599 ], [ -178.4297396, -30.2256152 ], [ -178.429662, -30.2256155 ], [ -178.429452, -30.2256162 ], [ -178.4293104, -30.2256166 ], [ -178.4291735, -30.2256369 ], [ -178.4290138, -30.2256533 ], [ -178.428813, -30.2256658 ], [ -178.428644100000014, -30.2256981 ], [ -178.4285439, -30.225746 ], [ -178.4284299, -30.225786 ], [ -178.4282748, -30.2258064 ], [ -178.4281789, -30.2258067 ], [ -178.4280876, -30.2258149 ], [ -178.427950900000013, -30.2258748 ], [ -178.4278687, -30.225887 ], [ -178.4278366, -30.2258554 ], [ -178.4278227, -30.225792 ], [ -178.4277633, -30.2257842 ], [ -178.427708599999988, -30.2258082 ], [ -178.4276539, -30.2258401 ], [ -178.4276127, -30.2258046 ], [ -178.427503, -30.2257851 ], [ -178.427388900000011, -30.2257894 ], [ -178.4272383, -30.2258097 ], [ -178.427064800000011, -30.2258103 ], [ -178.4269277, -30.225787 ], [ -178.426804299999986, -30.2257596 ], [ -178.4266628, -30.2257601 ], [ -178.426544, -30.2257565 ], [ -178.4264024, -30.2257332 ], [ -178.4262972, -30.2257058 ], [ -178.4261739, -30.2256943 ], [ -178.4260324, -30.2256947 ], [ -178.4259457, -30.2257267 ], [ -178.425799899999987, -30.2257787 ], [ -178.425722400000012, -30.2258147 ], [ -178.4256493, -30.2258149 ], [ -178.425585399999989, -30.2258151 ], [ -178.425434700000011, -30.2258116 ], [ -178.4253708, -30.2258119 ], [ -178.4252612, -30.2258122 ], [ -178.4252155, -30.2258044 ], [ -178.4251698, -30.2257848 ], [ -178.425124, -30.2257611 ], [ -178.4251194, -30.2257413 ], [ -178.4250781, -30.2257097 ], [ -178.425028200000014, -30.2257694 ], [ -178.424936800000012, -30.2257696 ], [ -178.4249094, -30.2257618 ], [ -178.4248498, -30.2257065 ], [ -178.4248225, -30.2257343 ], [ -178.424758700000012, -30.2257583 ], [ -178.4247494, -30.2257266 ], [ -178.424703599999987, -30.2256832 ], [ -178.4246532, -30.2256437 ], [ -178.4246303, -30.2256279 ], [ -178.4245893, -30.2256399 ], [ -178.4245575, -30.2256797 ], [ -178.4245257, -30.2257274 ], [ -178.4244755, -30.2257275 ], [ -178.424407, -30.2257357 ], [ -178.4243132, -30.2257645 ], [ -178.4242246, -30.2257918 ], [ -178.4241108, -30.2258596 ], [ -178.424042500000013, -30.2259153 ], [ -178.4240063, -30.2259907 ], [ -178.423947199999986, -30.2260583 ], [ -178.4238972, -30.2261101 ], [ -178.423838, -30.2261459 ], [ -178.423651299999989, -30.2262536 ], [ -178.4236177, -30.2262828 ], [ -178.4234954, -30.2262871 ], [ -178.4233778, -30.2263032 ], [ -178.4231518, -30.2263983 ], [ -178.423002700000012, -30.2264893 ], [ -178.4227995, -30.2266118 ], [ -178.422519599999987, -30.2268172 ], [ -178.422361599999988, -30.2269278 ], [ -178.422221900000011, -30.2270777 ], [ -178.4221364, -30.2271999 ], [ -178.4220559, -30.22744 ], [ -178.4219754, -30.2276722 ], [ -178.4218493, -30.2278378 ], [ -178.421709600000014, -30.2279916 ], [ -178.4215922, -30.2280746 ], [ -178.421452, -30.2281222 ], [ -178.4212757, -30.2281935 ], [ -178.4211446, -30.228249 ], [ -178.4210407, -30.2282887 ], [ -178.4209593, -30.2283204 ], [ -178.42090970000001, -30.2283677 ], [ -178.420792400000011, -30.2284782 ], [ -178.42072490000001, -30.2285846 ], [ -178.42065740000001, -30.2286674 ], [ -178.4205629, -30.228825 ], [ -178.4205456, -30.2290059 ], [ -178.420546800000011, -30.229289 ], [ -178.4205389, -30.2295565 ], [ -178.4204174, -30.2297417 ], [ -178.4202645, -30.229982 ], [ -178.4201248, -30.2301476 ], [ -178.4198089, -30.2303924 ], [ -178.419655299999988, -30.2304021 ], [ -178.4195868, -30.2303944 ], [ -178.419527499999987, -30.2304144 ], [ -178.4195095, -30.2304779 ], [ -178.4194915, -30.2305216 ], [ -178.4194367, -30.2305336 ], [ -178.4193773, -30.2305219 ], [ -178.419322599999987, -30.2305717 ], [ -178.419238299999989, -30.2306455 ], [ -178.4192047, -30.2307094 ], [ -178.419182299999989, -30.2307584 ], [ -178.4191548, -30.2309252 ], [ -178.419155100000012, -30.2310036 ], [ -178.4191442, -30.2310967 ], [ -178.4190712, -30.2311754 ], [ -178.418969800000013, -30.2312296 ], [ -178.4187671, -30.2313381 ], [ -178.418615100000011, -30.2314268 ], [ -178.4184687, -30.2315106 ], [ -178.4183731, -30.2315893 ], [ -178.418294300000014, -30.2316582 ], [ -178.4182609, -30.2317612 ], [ -178.418261300000012, -30.2318544 ], [ -178.4182616, -30.2319377 ], [ -178.418245, -30.2320113 ], [ -178.41820580000001, -30.2320751 ], [ -178.418172199999987, -30.232134 ], [ -178.4181556, -30.2322125 ], [ -178.4181558, -30.2322762 ], [ -178.4181505, -30.2323498 ], [ -178.418179, -30.2324232 ], [ -178.4182132, -30.2325015 ], [ -178.4182643, -30.2325552 ], [ -178.41835, -30.2326375 ], [ -178.4183907, -30.2326107 ], [ -178.4184635, -30.2325471 ], [ -178.4185455, -30.2325111 ], [ -178.4185683, -30.2325031 ], [ -178.4186186, -30.2325109 ], [ -178.4186004, -30.2325347 ], [ -178.4185276, -30.2325825 ], [ -178.4184502, -30.2326462 ], [ -178.4184184, -30.232686 ], [ -178.4183868, -30.2327574 ], [ -178.4183232, -30.2328409 ], [ -178.4183418, -30.2329162 ], [ -178.418396800000011, -30.2329795 ], [ -178.418497699999989, -30.2330664 ], [ -178.418598300000014, -30.2330978 ], [ -178.418653299999988, -30.2331452 ], [ -178.4187128, -30.2331926 ], [ -178.418808899999988, -30.2332478 ], [ -178.4189551, -30.2332592 ], [ -178.4190969, -30.2333222 ], [ -178.41911540000001, -30.2333737 ], [ -178.4191478, -30.2334687 ], [ -178.4191845, -30.2335043 ], [ -178.419253, -30.23352 ], [ -178.4193261, -30.2335118 ], [ -178.4193899, -30.2334918 ], [ -178.419376, -30.2334363 ], [ -178.4193484, -30.2333967 ], [ -178.4193665, -30.2333531 ], [ -178.419471, -30.2332377 ], [ -178.4195075, -30.2332297 ], [ -178.4195671, -30.2332771 ], [ -178.4196264, -30.233261 ], [ -178.4196536, -30.2332252 ], [ -178.4196623, -30.2331063 ], [ -178.4196848, -30.2330428 ], [ -178.41974350000001, -30.2328919 ], [ -178.4198572, -30.2327646 ], [ -178.419934500000011, -30.232697 ], [ -178.4200851, -30.2326767 ], [ -178.420231300000012, -30.2326841 ], [ -178.4203317, -30.2326878 ], [ -178.420395899999988, -30.2327352 ], [ -178.420528600000011, -30.2328021 ], [ -178.4206456, -30.2329116 ], [ -178.420689, -30.2329523 ], [ -178.4207169, -30.2330513 ], [ -178.4207036, -30.2331664 ], [ -178.420644399999986, -30.2332022 ], [ -178.420599, -30.233246 ], [ -178.4206221, -30.2333133 ], [ -178.4206725, -30.2333568 ], [ -178.42072730000001, -30.2333606 ], [ -178.4207728, -30.2333287 ], [ -178.4208049, -30.2333445 ], [ -178.4208324, -30.2333721 ], [ -178.420832600000011, -30.2334118 ], [ -178.4208328, -30.2334792 ], [ -178.4208879, -30.2335425 ], [ -178.4209155, -30.2335781 ], [ -178.4209157, -30.2336296 ], [ -178.42078810000001, -30.2336855 ], [ -178.4206969, -30.2337374 ], [ -178.4206012, -30.2337773 ], [ -178.420578299999988, -30.2338369 ], [ -178.4205507, -30.2339889 ], [ -178.4205459, -30.2341801 ], [ -178.420626199999987, -30.2344739 ], [ -178.420677899999987, -30.2346845 ], [ -178.4207524, -30.234944 ], [ -178.4208921, -30.2350393 ], [ -178.4209674, -30.235049 ], [ -178.4210952, -30.2350485 ], [ -178.4212368, -30.2350481 ], [ -178.4213373, -30.2350636 ], [ -178.421415200000013, -30.235111 ], [ -178.4214476, -30.2352139 ], [ -178.4214524, -30.2352853 ], [ -178.4214992, -30.2353631 ], [ -178.4215787, -30.2354658 ], [ -178.421788099999986, -30.2356073 ], [ -178.4219752, -30.2357782 ], [ -178.4221226, -30.2359346 ], [ -178.4223493, -30.2361495 ], [ -178.4225647, -30.2363743 ], [ -178.42287060000001, -30.2366281 ], [ -178.423385200000013, -30.23699 ], [ -178.4234875, -30.2370551 ], [ -178.4236663, -30.2372013 ], [ -178.4238317, -30.2374347 ], [ -178.423923699999989, -30.237593 ], [ -178.424061200000011, -30.2377194 ], [ -178.4242535, -30.2378417 ], [ -178.424468499999989, -30.2379282 ], [ -178.4246377, -30.2379673 ], [ -178.424815700000011, -30.2379628 ], [ -178.425034900000014, -30.2379581 ], [ -178.4252131, -30.2379774 ], [ -178.4254512, -30.2381312 ], [ -178.4256253, -30.2382576 ], [ -178.425781199999989, -30.2384117 ], [ -178.4259606, -30.2387164 ], [ -178.426044, -30.2389778 ], [ -178.42607670000001, -30.2391522 ], [ -178.4260971, -30.2393274 ], [ -178.4261099, -30.2394376 ], [ -178.426110200000011, -30.239501 ], [ -178.426073800000012, -30.2395329 ], [ -178.4260008, -30.2395609 ], [ -178.425913900000012, -30.2395334 ], [ -178.4258776, -30.2395692 ], [ -178.425864, -30.239597 ], [ -178.4258367, -30.2396367 ], [ -178.425814, -30.2396566 ], [ -178.4257546, -30.2396489 ], [ -178.4256724, -30.2396492 ], [ -178.4256177, -30.2396811 ], [ -178.425576799999988, -30.2397248 ], [ -178.4255633, -30.2397645 ], [ -178.4255817, -30.2397843 ], [ -178.425622800000014, -30.2397881 ], [ -178.4257141, -30.2397918 ], [ -178.4257871, -30.2397836 ], [ -178.425846400000012, -30.2397557 ], [ -178.425923899999987, -30.2397356 ], [ -178.4260061, -30.2397353 ], [ -178.4260612, -30.2396709 ], [ -178.4261252, -30.239675 ], [ -178.4261597, -30.2396749 ], [ -178.426184299999989, -30.2396791 ], [ -178.4262434, -30.2396575 ], [ -178.4262827, -30.2396403 ], [ -178.4262972, -30.2395761 ], [ -178.4263314, -30.2395204 ], [ -178.426356, -30.2394989 ], [ -178.4264643, -30.2394857 ], [ -178.4265775, -30.2394768 ], [ -178.426710500000013, -30.2394764 ], [ -178.4268583, -30.2394759 ], [ -178.4270209, -30.2394925 ], [ -178.4272083, -30.2395346 ], [ -178.427292200000011, -30.2395728 ], [ -178.4274352, -30.2396237 ], [ -178.4275308, -30.2396826 ], [ -178.4275441, -30.2396907 ], [ -178.4276137, -30.2397578 ], [ -178.4278242, -30.2398642 ], [ -178.4280757, -30.2399387 ], [ -178.4283864, -30.2399615 ], [ -178.428496, -30.2399691 ], [ -178.4286195, -30.2400083 ], [ -178.4287019, -30.2400556 ], [ -178.4287615, -30.2401228 ], [ -178.4287984, -30.2402099 ], [ -178.42880790000001, -30.2402852 ], [ -178.42878540000001, -30.2403686 ], [ -178.428758499999986, -30.2404678 ], [ -178.4287359, -30.2405353 ], [ -178.4287361, -30.2405789 ], [ -178.4287728, -30.2406224 ], [ -178.428855199999987, -30.2406499 ], [ -178.4288915, -30.240618 ], [ -178.4289278, -30.2405545 ], [ -178.4289641, -30.2405028 ], [ -178.4289757, -30.2404612 ], [ -178.4290001, -30.240397 ], [ -178.4290394, -30.2403755 ], [ -178.4290837, -30.2403753 ], [ -178.4291675, -30.2403879 ], [ -178.4292269, -30.2404476 ], [ -178.4295184, -30.2406647 ], [ -178.4297109, -30.2407582 ], [ -178.4298589, -30.2408047 ], [ -178.4301054, -30.240851 ], [ -178.430302899999987, -30.2409572 ], [ -178.4306039, -30.2410888 ], [ -178.4306736, -30.2412426 ], [ -178.430673899999988, -30.2413238 ], [ -178.430728499999987, -30.2414178 ], [ -178.430797899999988, -30.2415031 ], [ -178.430793200000011, -30.2415715 ], [ -178.430759, -30.2416187 ], [ -178.430670600000013, -30.2416874 ], [ -178.4306906, -30.2417557 ], [ -178.4307203, -30.2417984 ], [ -178.4307648, -30.2418239 ], [ -178.4308536, -30.2418536 ], [ -178.430932500000011, -30.2418704 ], [ -178.4310063, -30.2418702 ], [ -178.4311147, -30.2418613 ], [ -178.431168899999989, -30.2418739 ], [ -178.4312529, -30.2419335 ], [ -178.431346499999989, -30.2419289 ], [ -178.4313759, -30.2418989 ], [ -178.4313822, -30.2418352 ], [ -178.4313826, -30.2418305 ], [ -178.4314037, -30.2417636 ], [ -178.4314353, -30.2416723 ], [ -178.4314531, -30.2415771 ], [ -178.4314894, -30.2415294 ], [ -178.431535, -30.2414976 ], [ -178.4316718, -30.2414614 ], [ -178.431744900000012, -30.2414612 ], [ -178.4317905, -30.241461 ], [ -178.4318544, -30.2414489 ], [ -178.4318953, -30.2414052 ], [ -178.4318997, -30.2413695 ], [ -178.4318949, -30.241306 ], [ -178.4318399, -30.2412626 ], [ -178.431762099999986, -30.2412153 ], [ -178.4317117, -30.2411917 ], [ -178.4317069, -30.2411282 ], [ -178.431738599999989, -30.2410766 ], [ -178.4317935, -30.2410962 ], [ -178.431917, -30.2411394 ], [ -178.432008, -30.2411313 ], [ -178.4321558, -30.2411436 ], [ -178.4322395, -30.2411433 ], [ -178.4322987, -30.2411431 ], [ -178.4323724, -30.2411172 ], [ -178.4323573, -30.2410403 ], [ -178.432352, -30.2409462 ], [ -178.4323962, -30.2409119 ], [ -178.4325144, -30.2409072 ], [ -178.4325685, -30.2408899 ], [ -178.4326027, -30.2408385 ], [ -178.4326518, -30.2407955 ], [ -178.432696099999987, -30.2407826 ], [ -178.432765, -30.2407866 ], [ -178.4328291, -30.240795 ], [ -178.4329227, -30.2407946 ], [ -178.4330163, -30.2407858 ] ] ] ] } },
{ "type": "Feature", "properties": { "FID": 282489, "id": 25, "left": -180.0, "top": -30.0, "right": -175.0, "bottom": -35.0, "row_index": 24, "col_index": 0, "min_lon": -180.0, "min_lat": -35.0, "tile_id": "-180_-35" }, "geometry": { "type": "MultiPolygon", "coordinates": [ [ [ [ -178.8258617, -31.3558082 ], [ -178.8258951, -31.3557674 ], [ -178.825908199999986, -31.3557268 ], [ -178.8259012, -31.3556978 ], [ -178.8258534, -31.3556344 ], [ -178.8258132, -31.3556694 ], [ -178.8257461, -31.3557278 ], [ -178.8257265, -31.3557975 ], [ -178.8257606, -31.3558437 ], [ -178.825835, -31.3558548 ], [ -178.8258617, -31.3558082 ] ] ] ] } },
{ "type": "Feature", "properties": { "FID": 282490, "id": 25, "left": -180.0, "top": -30.0, "right": -175.0, "bottom": -35.0, "row_index": 24, "col_index": 0, "min_lon": -180.0, "min_lat": -35.0, "tile_id": "-180_-35" }, "geometry": { "type": "MultiPolygon", "coordinates": [ [ [ [ -178.8263538, -31.3556949 ], [ -178.8264347, -31.355677 ], [ -178.8264753, -31.3556767 ], [ -178.8265089, -31.3556649 ], [ -178.8265155, -31.3556475 ], [ -178.8264547, -31.3556421 ], [ -178.8264141, -31.3556365 ], [ -178.8263533, -31.3556369 ], [ -178.8263258, -31.3555849 ], [ -178.8263052, -31.3555387 ], [ -178.8262444, -31.3555391 ], [ -178.8262449, -31.355597 ], [ -178.826238499999988, -31.3556377 ], [ -178.8262523, -31.3556782 ], [ -178.8262795, -31.3556954 ], [ -178.8263538, -31.3556949 ] ] ] ] } },
{ "type": "Feature", "properties": { "FID": 282491, "id": 25, "left": -180.0, "top": -30.0, "right": -175.0, "bottom": -35.0, "row_index": 24, "col_index": 0, "min_lon": -180.0, "min_lat": -35.0, "tile_id": "-180_-35" }, "geometry": { "type": "MultiPolygon", "coordinates": [ [ [ [ -178.8253225, -31.3559566 ], [ -178.825335599999988, -31.3559044 ], [ -178.8253015, -31.3558698 ], [ -178.8252407, -31.3558702 ], [ -178.825193899999988, -31.3559227 ], [ -178.8251875, -31.3559633 ], [ -178.8251878, -31.3560039 ], [ -178.8252755, -31.3559917 ], [ -178.8253225, -31.3559566 ] ] ] ] } }
]
}
