{
"type": "FeatureCollection",
"name": "-20_-80",
"crs": { "type": "name", "properties": { "name": "urn:ogc:def:crs:OGC:1.3:CRS84" } },
"xy_coordinate_resolution": 1e-15,
"features": [
{ "type": "Feature", "properties": { "FID": 307096, "id": 1186, "left": -20.0, "top": -75.0, "right": -15.0, "bottom": -80.0, "row_index": 33, "col_index": 32, "min_lon": -20.0, "min_lat": -80.0, "tile_id": "-20_-80" }, "geometry": { "type": "MultiPolygon", "coordinates": [ [ [ [ -15.0, -75.0 ], [ -15.0, -80.0 ], [ -20.0, -80.0 ], [ -20.0, -75.0 ], [ -15.0, -75.0 ] ] ] ] } }
]
}
