{
"type": "FeatureCollection",
"name": "-20_-75",
"crs": { "type": "name", "properties": { "name": "urn:ogc:def:crs:OGC:1.3:CRS84" } },
"xy_coordinate_resolution": 1e-15,
"features": [
{ "type": "Feature", "properties": { "FID": 307096, "id": 1185, "left": -20.0, "top": -70.0, "right": -15.0, "bottom": -75.0, "row_index": 32, "col_index": 32, "min_lon": -20.0, "min_lat": -75.0, "tile_id": "-20_-75" }, "geometry": { "type": "MultiPolygon", "coordinates": [ [ [ [ -19.9986309, -73.0773222 ], [ -19.9967706, -73.0737759 ], [ -19.9900287, -73.0697491 ], [ -19.9737333, -73.0669841 ], [ -19.9598553, -73.0599705 ], [ -19.9529879, -73.0572047 ], [ -19.941106, -73.055219 ], [ -19.9382971, -73.0522734 ], [ -19.9308219, -73.0483246 ], [ -19.9184673, -73.0466381 ], [ -19.9075729, -73.041305 ], [ -19.899225, -73.0359525 ], [ -19.898706, -73.0300222 ], [ -19.9030539, -73.0245749 ], [ -19.9089077, -73.0189679 ], [ -19.9105058, -73.0140604 ], [ -19.9127146, -73.0103351 ], [ -19.9097224, -73.0051655 ], [ -19.916998, -73.001402 ], [ -19.9224248, -72.9968365 ], [ -19.9277824, -72.9915296 ], [ -19.9244405, -72.9881432 ], [ -19.9277345, -72.9852997 ], [ -19.9315072, -72.9821559 ], [ -19.9198879, -72.9796485 ], [ -19.9115548, -72.9770416 ], [ -19.9026148, -72.9732523 ], [ -19.8944956, -72.9701239 ], [ -19.891724, -72.964434 ], [ -19.885867, -72.961066 ], [ -19.8772131, -72.9574961 ], [ -19.8682468, -72.9502202 ], [ -19.8681391, -72.9459939 ], [ -19.8671353, -72.9431091 ], [ -19.8626471, -72.940843 ], [ -19.8541961, -72.9394957 ], [ -19.8407595, -72.9389255 ], [ -19.8280751, -72.938275 ], [ -19.8174964, -72.9386468 ], [ -19.8110052, -72.9395826 ], [ -19.7971788, -72.9435357 ], [ -19.7840384, -72.9466674 ], [ -19.7706814, -72.9503188 ], [ -19.754792, -72.9539864 ], [ -19.7428124, -72.955995 ], [ -19.7258887, -72.9595189 ], [ -19.7058342, -72.961875 ], [ -19.6944852, -72.9623194 ], [ -19.7148115, -72.960185 ], [ -19.72728, -72.9578782 ], [ -19.7459184, -72.9536754 ], [ -19.7647593, -72.9489502 ], [ -19.7848226, -72.9438441 ], [ -19.7966081, -72.9396094 ], [ -19.7982011, -72.9374478 ], [ -19.8060134, -72.9341302 ], [ -19.7981113, -72.9332215 ], [ -19.7852543, -72.9303448 ], [ -19.7709584, -72.9283669 ], [ -19.7569727, -72.9238648 ], [ -19.746421, -72.918004 ], [ -19.7402249, -72.9129293 ], [ -19.735688, -72.9064346 ], [ -19.7398449, -72.901513 ], [ -19.7385963, -72.8984072 ], [ -19.7178398, -72.8938739 ], [ -19.7067943, -72.8910547 ], [ -19.7002504, -72.887761 ], [ -19.6940792, -72.8826851 ], [ -19.692943, -72.8775767 ], [ -19.6969479, -72.8739178 ], [ -19.6901994, -72.8711442 ], [ -19.6795453, -72.8665419 ], [ -19.6767044, -72.8621117 ], [ -19.6729577, -72.8590219 ], [ -19.6598572, -72.8551758 ], [ -19.6460148, -72.8514075 ], [ -19.6359713, -72.8479855 ], [ -19.6257178, -72.8450833 ], [ -19.6122608, -72.8430155 ], [ -19.607352, -72.8410437 ], [ -19.5996172, -72.8381251 ], [ -19.5936973, -72.8360107 ], [ -19.5824947, -72.8337051 ], [ -19.5732057, -72.8336857 ], [ -19.5637007, -72.834186 ], [ -19.5521679, -72.834401 ], [ -19.5382941, -72.8333685 ], [ -19.5301402, -72.8314873 ], [ -19.5224231, -72.8285657 ], [ -19.5161282, -72.8282302 ], [ -19.5058765, -72.828806 ], [ -19.487926, -72.8306834 ], [ -19.4719967, -72.8328447 ], [ -19.4579994, -72.8338086 ], [ -19.4422392, -72.8347064 ], [ -19.4274033, -72.834264 ], [ -19.4185987, -72.8339382 ], [ -19.4060521, -72.8340014 ], [ -19.3931999, -72.8331017 ], [ -19.3773545, -72.8325122 ], [ -19.3624409, -72.8305827 ], [ -19.3545707, -72.8289154 ], [ -19.3409765, -72.8280899 ], [ -19.328093, -72.8264448 ], [ -19.3127809, -72.8262923 ], [ -19.2960093, -72.8270347 ], [ -19.2850394, -72.8284172 ], [ -19.2743662, -72.8307615 ], [ -19.2589333, -72.8333479 ], [ -19.2447684, -72.8362983 ], [ -19.2275999, -72.8395565 ], [ -19.2096073, -72.8414081 ], [ -19.2001543, -72.8433728 ], [ -19.1919047, -72.8442205 ], [ -19.187993, -72.8466077 ], [ -19.1974889, -72.8510922 ], [ -19.190703, -72.8510446 ], [ -19.1836561, -72.8507754 ], [ -19.1791215, -72.856204 ], [ -19.1730824, -72.8617865 ], [ -19.1660591, -72.8679656 ], [ -19.1613489, -72.875396 ], [ -19.1545134, -72.880314 ], [ -19.1438088, -72.8891007 ], [ -19.1402956, -72.8954147 ], [ -19.1372098, -72.8999479 ], [ -19.1262222, -72.9085127 ], [ -19.1287258, -72.9142121 ], [ -19.1273104, -72.9165895 ], [ -19.1210512, -72.9177237 ], [ -19.1141791, -72.9161909 ], [ -19.1127464, -72.9056688 ], [ -19.1198353, -72.9002322 ], [ -19.1235573, -72.8926576 ], [ -19.1289804, -72.8836685 ], [ -19.1354098, -72.8748241 ], [ -19.1388895, -72.8677694 ], [ -19.1393625, -72.8610222 ], [ -19.1412309, -72.8576056 ], [ -19.1350093, -72.8530324 ], [ -19.1257888, -72.8487662 ], [ -19.1199251, -72.8466374 ], [ -19.1157932, -72.8438353 ], [ -19.1114327, -72.8415528 ], [ -19.0933674, -72.8419113 ], [ -19.0725034, -72.8413139 ], [ -19.0551607, -72.8408513 ], [ -19.0739481, -72.8396784 ], [ -19.0938004, -72.840131 ], [ -19.1113733, -72.8400705 ], [ -19.1273854, -72.8386798 ], [ -19.1358955, -72.8380564 ], [ -19.1423228, -72.8356611 ], [ -19.1552033, -72.8316112 ], [ -19.1653085, -72.8273486 ], [ -19.1802287, -72.824327 ], [ -19.1891192, -72.8211795 ], [ -19.1985277, -72.8184745 ], [ -19.2059143, -72.8154805 ], [ -19.2242445, -72.8160737 ], [ -19.2389889, -72.8150496 ], [ -19.2717269, -72.8129098 ], [ -19.2904681, -72.8117161 ], [ -19.3141416, -72.809016 ], [ -19.3311177, -72.8077523 ], [ -19.345506, -72.8050169 ], [ -19.3627982, -72.8004877 ], [ -19.3766089, -72.7965669 ], [ -19.3801787, -72.7932141 ], [ -19.3831391, -72.7879374 ], [ -19.3861388, -72.7834015 ], [ -19.3958525, -72.7781654 ], [ -19.3988893, -72.7743704 ], [ -19.3934165, -72.7704696 ], [ -19.3939111, -72.7659462 ], [ -19.390941, -72.762033 ], [ -19.3842869, -72.7592495 ], [ -19.374957, -72.7577389 ], [ -19.3665142, -72.7541483 ], [ -19.3642568, -72.7494162 ], [ -19.3622221, -72.7441643 ], [ -19.3648583, -72.7421507 ], [ -19.3644752, -72.739707 ], [ -19.3578744, -72.7376636 ], [ -19.3472912, -72.7357873 ], [ -19.3421039, -72.7321064 ], [ -19.336253, -72.7299848 ], [ -19.3250103, -72.7296665 ], [ -19.3171906, -72.727998 ], [ -19.3055752, -72.7252348 ], [ -19.2981678, -72.7217854 ], [ -19.2953021, -72.7193528 ], [ -19.3003247, -72.7200713 ], [ -19.3057556, -72.7190094 ], [ -19.3016241, -72.7162122 ], [ -19.2946675, -72.7117232 ], [ -19.2882719, -72.7084171 ], [ -19.2756344, -72.7047677 ], [ -19.2663078, -72.7025111 ], [ -19.2539391, -72.6990815 ], [ -19.246813, -72.6958515 ], [ -19.2399488, -72.6928423 ], [ -19.232828, -72.6896118 ], [ -19.2254851, -72.6869006 ], [ -19.2091966, -72.6843735 ], [ -19.1993725, -72.6816713 ], [ -19.1882592, -72.6778624 ], [ -19.1697248, -72.6748223 ], [ -19.1531669, -72.6713285 ], [ -19.1376464, -72.6687186 ], [ -19.1223879, -72.6663289 ], [ -19.1068766, -72.6637165 ], [ -19.0903139, -72.6594766 ], [ -19.0765829, -72.6576708 ], [ -19.0648248, -72.6554131 ], [ -19.0525843, -72.6534525 ], [ -19.0376597, -72.6527591 ], [ -19.023914, -72.6502087 ], [ -19.003979, -72.6480463 ], [ -18.9845362, -72.6455841 ], [ -18.970294, -72.642587 ], [ -18.9511168, -72.640343 ], [ -18.9401295, -72.6380016 ], [ -18.9241843, -72.6356723 ], [ -18.9144334, -72.632956 ], [ -18.8937706, -72.6301174 ], [ -18.8783464, -72.6282276 ], [ -18.8577501, -72.6276075 ], [ -18.8346244, -72.624768 ], [ -18.8149797, -72.6220671 ], [ -18.7948671, -72.6204021 ], [ -18.7784682, -72.6183581 ], [ -18.7635855, -72.6176435 ], [ -18.7481733, -72.6150025 ], [ -18.737243, -72.6133905 ], [ -18.7203797, -72.6123793 ], [ -18.7034837, -72.6091444 ], [ -18.6878265, -72.6055361 ], [ -18.6835942, -72.6039861 ], [ -18.6793734, -72.6031768 ], [ -18.6637663, -72.6025294 ], [ -18.652611, -72.6014314 ], [ -18.6389728, -72.5995946 ], [ -18.6201457, -72.5982805 ], [ -18.6020629, -72.5968898 ], [ -18.5866943, -72.594236 ], [ -18.5654022, -72.5929185 ], [ -18.5498138, -72.5930025 ], [ -18.5307437, -72.5899761 ], [ -18.5141641, -72.589169 ], [ -18.5012979, -72.5887294 ], [ -18.4879413, -72.5893262 ], [ -18.470128, -72.5888859 ], [ -18.4542934, -72.5872586 ], [ -18.4340096, -72.5882966 ], [ -18.424611, -72.5857779 ], [ -18.4035888, -72.5846646 ], [ -18.3810855, -72.5836967 ], [ -18.3439889, -72.5836827 ], [ -18.3281572, -72.5842671 ], [ -18.3096003, -72.5853668 ], [ -18.2885611, -72.5872036 ], [ -18.2716565, -72.5897807 ], [ -18.2521605, -72.5908017 ], [ -18.2467304, -72.5896113 ], [ -18.2385569, -72.5904178 ], [ -18.2365468, -72.5930822 ], [ -18.23762, -72.5976538 ], [ -18.2367062, -72.6007117 ], [ -18.2285092, -72.6029993 ], [ -18.2136729, -72.6015013 ], [ -18.2010502, -72.6012641 ], [ -18.1849424, -72.6023548 ], [ -18.1695767, -72.6033712 ], [ -18.156453, -72.6034266 ], [ -18.1487441, -72.6054152 ], [ -18.1469499, -72.6090421 ], [ -18.1490838, -72.614749 ], [ -18.1460557, -72.6180038 ], [ -18.1467631, -72.620153 ], [ -18.1373117, -72.6220646 ], [ -18.127872, -72.6232349 ], [ -18.1112375, -72.624615 ], [ -18.1040441, -72.6248249 ], [ -18.1000169, -72.6279292 ], [ -18.1036427, -72.6327505 ], [ -18.107027, -72.6373493 ], [ -18.1144002, -72.6410657 ], [ -18.1212882, -72.6443366 ], [ -18.118683, -72.6509997 ], [ -18.1151682, -72.6530682 ], [ -18.0952592, -72.6552565 ], [ -18.096567, -72.651925 ], [ -18.0899244, -72.6488759 ], [ -18.0837563, -72.6470127 ], [ -18.0724134, -72.6434356 ], [ -18.0705291, -72.638691 ], [ -18.0578173, -72.6300732 ], [ -18.0556955, -72.6251058 ], [ -18.0547564, -72.6227335 ], [ -18.0486348, -72.6193878 ], [ -18.0342335, -72.6205434 ], [ -18.0197763, -72.6239202 ], [ -18.0174495, -72.6278413 ], [ -18.0209089, -72.6385903 ], [ -18.0275177, -72.6423825 ], [ -18.0360736, -72.6479566 ], [ -18.0382097, -72.6521837 ], [ -18.0400866, -72.656929 ], [ -18.037308, -72.6589235 ], [ -18.0307761, -72.6620214 ], [ -18.0267092, -72.6658653 ], [ -18.026395, -72.6686057 ], [ -18.0245679, -72.6722321 ], [ -18.0179122, -72.669921 ], [ -18.0135006, -72.6673925 ], [ -18.0088657, -72.6639002 ], [ -18.0141691, -72.66043 ], [ -18.0172298, -72.6571769 ], [ -18.0098892, -72.6527158 ], [ -18.0032804, -72.6489229 ], [ -17.9859615, -72.6466607 ], [ -17.9753262, -72.6452279 ], [ -17.9611199, -72.6473418 ], [ -17.9580502, -72.6505939 ], [ -17.9455943, -72.6520442 ], [ -17.9437733, -72.6549287 ], [ -17.9481504, -72.6581997 ], [ -17.9547088, -72.6634762 ], [ -17.9677973, -72.6755105 ], [ -17.9666443, -72.6812866 ], [ -17.9578045, -72.6860807 ], [ -17.9534393, -72.682069 ], [ -17.9476645, -72.6752383 ], [ -17.9413673, -72.6694434 ], [ -17.9340629, -72.6642385 ], [ -17.928434, -72.6613343 ], [ -17.9172885, -72.6601934 ], [ -17.9163894, -72.6570793 ], [ -17.9105241, -72.6539519 ], [ -17.9148783, -72.6495928 ], [ -17.9181975, -72.6465643 ], [ -17.9092802, -72.6459474 ], [ -17.894147, -72.6456832 ], [ -17.8810382, -72.6442382 ], [ -17.8701479, -72.6433175 ], [ -17.8607526, -72.6422525 ], [ -17.8557395, -72.6437191 ], [ -17.8570833, -72.64802 ], [ -17.8630785, -72.6543351 ], [ -17.8690536, -72.6613909 ], [ -17.8792802, -72.6677922 ], [ -17.8863039, -72.6735171 ], [ -17.8988128, -72.6789609 ], [ -17.9138623, -72.682929 ], [ -17.9199803, -72.6862796 ], [ -17.9218279, -72.6910263 ], [ -17.924448, -72.6949601 ], [ -17.921076, -72.6994708 ], [ -17.9115326, -72.7021124 ], [ -17.9129253, -72.6973002 ], [ -17.9078188, -72.6933594 ], [ -17.9044082, -72.6909791 ], [ -17.8998356, -72.6860023 ], [ -17.8872498, -72.682781 ], [ -17.8630326, -72.6779688 ], [ -17.8549501, -72.6743142 ], [ -17.8456155, -72.6710258 ], [ -17.82696, -72.6713382 ], [ -17.8266404, -72.6733376 ], [ -17.8401711, -72.6774549 ], [ -17.8451806, -72.6836198 ], [ -17.8585988, -72.6914401 ], [ -17.8646346, -72.697015 ], [ -17.8777342, -72.6999429 ], [ -17.8818444, -72.7037336 ], [ -17.8716901, -72.702 ], [ -17.8593641, -72.6982589 ], [ -17.8460791, -72.693625 ], [ -17.8360644, -72.6881853 ], [ -17.8227669, -72.6842906 ], [ -17.8113459, -72.6836613 ], [ -17.7961252, -72.6848709 ], [ -17.8012033, -72.6888146 ], [ -17.811716, -72.6939613 ], [ -17.8233316, -72.6962954 ], [ -17.8256355, -72.7014893 ], [ -17.8341029, -72.7085549 ], [ -17.8394383, -72.7127209 ], [ -17.8392568, -72.7179071 ], [ -17.8328498, -72.7158125 ], [ -17.8224241, -72.7077032 ], [ -17.8079873, -72.7073603 ], [ -17.7997922, -72.7066666 ], [ -17.7903102, -72.7070797 ], [ -17.7886978, -72.7101863 ], [ -17.7915587, -72.7136043 ], [ -17.7968576, -72.7185124 ], [ -17.8067182, -72.7215088 ], [ -17.8158051, -72.7253172 ], [ -17.8098531, -72.7244088 ], [ -17.8002312, -72.7216357 ], [ -17.7900743, -72.7198977 ], [ -17.7820578, -72.7209081 ], [ -17.7886453, -72.7247093 ], [ -17.7950502, -72.7268055 ], [ -17.8025524, -72.7329806 ], [ -17.8056339, -72.7373626 ], [ -17.8064896, -72.7412186 ], [ -17.7971832, -72.7364456 ], [ -17.7893841, -72.731529 ], [ -17.7815328, -72.7280939 ], [ -17.7686399, -72.7261233 ], [ -17.7619391, -72.7252849 ], [ -17.7611648, -72.7322476 ], [ -17.7672414, -72.7363444 ], [ -17.7556652, -72.7325247 ], [ -17.7508569, -72.7342121 ], [ -17.7468291, -72.735087 ], [ -17.7301775, -72.7334708 ], [ -17.7258472, -72.7356038 ], [ -17.7189579, -72.7392094 ], [ -17.7050894, -72.7424922 ], [ -17.6931216, -72.7421501 ], [ -17.6852522, -72.7394519 ], [ -17.6841188, -72.7368539 ], [ -17.6885525, -72.732499 ], [ -17.69722, -72.7282345 ], [ -17.6973485, -72.725271 ], [ -17.7029742, -72.7220319 ], [ -17.698756, -72.7157915 ], [ -17.6999703, -72.7107574 ], [ -17.7004654, -72.7050538 ], [ -17.6978316, -72.7025985 ], [ -17.6862727, -72.704925 ], [ -17.665431, -72.7086219 ], [ -17.6465942, -72.7118802 ], [ -17.6340671, -72.7133105 ], [ -17.6436939, -72.7099417 ], [ -17.6546811, -72.7039846 ], [ -17.6706059, -72.6987875 ], [ -17.6831193, -72.6973549 ], [ -17.6968911, -72.6955559 ], [ -17.7030177, -72.6920227 ], [ -17.7093497, -72.6894533 ], [ -17.7154089, -72.6874015 ], [ -17.7040215, -72.6860249 ], [ -17.6979141, -72.6834083 ], [ -17.6792098, -72.6844471 ], [ -17.6625806, -72.683566 ], [ -17.647111, -72.6845407 ], [ -17.6378415, -72.6859103 ], [ -17.6354188, -72.6898272 ], [ -17.631192, -72.6897355 ], [ -17.6268677, -72.6864573 ], [ -17.6154882, -72.6850753 ], [ -17.6152857, -72.6841113 ], [ -17.6219366, -72.6802867 ], [ -17.6292988, -72.6771316 ], [ -17.6399936, -72.677102 ], [ -17.657124, -72.672282 ], [ -17.6756765, -72.6687998 ], [ -17.6922145, -72.6657526 ], [ -17.7003378, -72.6617831 ], [ -17.7148587, -72.6591708 ], [ -17.7258429, -72.6578781 ], [ -17.7321893, -72.6545675 ], [ -17.7245621, -72.6528355 ], [ -17.7019454, -72.653269 ], [ -17.6817779, -72.6544505 ], [ -17.6653827, -72.6545337 ], [ -17.6524229, -72.6555186 ], [ -17.6464697, -72.655346 ], [ -17.642318, -72.6591816 ], [ -17.6394928, -72.6611703 ], [ -17.6307113, -72.662986 ], [ -17.6112049, -72.6655706 ], [ -17.6205361, -72.6627209 ], [ -17.6338454, -72.6597391 ], [ -17.6364331, -72.6575272 ], [ -17.6368095, -72.6547875 ], [ -17.6361648, -72.6526363 ], [ -17.6546665, -72.649897 ], [ -17.6763922, -72.6470947 ], [ -17.6891703, -72.6444036 ], [ -17.7073844, -72.6421768 ], [ -17.7163235, -72.6420623 ], [ -17.7208395, -72.6408938 ], [ -17.7055382, -72.6389101 ], [ -17.6946608, -72.6379795 ], [ -17.6747492, -72.6393832 ], [ -17.6471187, -72.6412721 ], [ -17.6339302, -72.6420325 ], [ -17.6106133, -72.6417856 ], [ -17.5995019, -72.6406262 ], [ -17.5869497, -72.6435346 ], [ -17.5753277, -72.642668 ], [ -17.5532703, -72.6420493 ], [ -17.5377122, -72.6405695 ], [ -17.5179039, -72.639735 ], [ -17.4910137, -72.6368633 ], [ -17.4898036, -72.6318194 ], [ -17.5175133, -72.6331394 ], [ -17.5457001, -72.634902 ], [ -17.5719234, -72.6363553 ], [ -17.5898338, -72.6353978 ], [ -17.6004102, -72.6321844 ], [ -17.605607, -72.6324292 ], [ -17.6224562, -72.6327977 ], [ -17.6321733, -72.6318755 ], [ -17.6427737, -72.627919 ], [ -17.6628793, -72.6274824 ], [ -17.6889918, -72.6257337 ], [ -17.7080273, -72.6212138 ], [ -17.7202111, -72.6202966 ], [ -17.7324547, -72.6178972 ], [ -17.7420683, -72.6130429 ], [ -17.7464553, -72.6086881 ], [ -17.7333873, -72.6072332 ], [ -17.7231205, -72.6099362 ], [ -17.7077525, -72.6101748 ], [ -17.6881767, -72.6103217 ], [ -17.6703969, -72.6090663 ], [ -17.6573017, -72.6083469 ], [ -17.6485151, -72.6109038 ], [ -17.6434247, -72.613846 ], [ -17.6363339, -72.6118165 ], [ -17.6392545, -72.6076061 ], [ -17.6374253, -72.6043389 ], [ -17.6273195, -72.6033336 ], [ -17.6341045, -72.6012138 ], [ -17.6287839, -72.5985246 ], [ -17.6229912, -72.5953889 ], [ -17.6146559, -72.5937237 ], [ -17.6208944, -72.5926391 ], [ -17.6259475, -72.5904383 ], [ -17.6304905, -72.5885314 ], [ -17.6345933, -72.5854375 ], [ -17.6463498, -72.5825973 ], [ -17.6566124, -72.5798986 ], [ -17.6554938, -72.5773015 ], [ -17.6518367, -72.5761754 ], [ -17.6500082, -72.5729087 ], [ -17.6550854, -72.5699667 ], [ -17.6629016, -72.566517 ], [ -17.6463874, -72.5656348 ], [ -17.6262218, -72.5636246 ], [ -17.6080227, -72.5619171 ], [ -17.5933134, -72.5596308 ], [ -17.5897002, -72.557763 ], [ -17.6008651, -72.5567011 ], [ -17.6176753, -72.5563293 ], [ -17.6257293, -72.5531045 ], [ -17.6255976, -72.5506597 ], [ -17.5987206, -72.5500254 ], [ -17.5753303, -72.5488105 ], [ -17.5647897, -72.5473554 ], [ -17.5561721, -72.5469455 ], [ -17.5515485, -72.5456651 ], [ -17.5575297, -72.5396931 ], [ -17.5617465, -72.5343795 ], [ -17.5487507, -72.5329123 ], [ -17.5461649, -72.5304561 ], [ -17.5522258, -72.5276697 ], [ -17.5518694, -72.5250017 ], [ -17.539821, -72.5244271 ], [ -17.5298458, -72.5219358 ], [ -17.5169409, -72.5189856 ], [ -17.5101386, -72.5171751 ], [ -17.4892623, -72.5159617 ], [ -17.4576446, -72.5130617 ], [ -17.4424873, -72.5110577 ], [ -17.4369055, -72.5096213 ], [ -17.4158105, -72.5081764 ], [ -17.3921677, -72.5081966 ], [ -17.3750256, -72.5066206 ], [ -17.3538931, -72.5059094 ], [ -17.3463231, -72.5049033 ], [ -17.3365722, -72.503366 ], [ -17.3183808, -72.5039679 ], [ -17.3042119, -72.5012509 ], [ -17.2971586, -72.4999498 ], [ -17.2850869, -72.5000995 ], [ -17.2682745, -72.5011822 ], [ -17.252536, -72.500937 ], [ -17.2297498, -72.4993868 ], [ -17.2158875, -72.4970025 ], [ -17.2003124, -72.494532 ], [ -17.1852017, -72.4925075 ], [ -17.1755936, -72.4926664 ], [ -17.1604978, -72.4938251 ], [ -17.1386465, -72.493159 ], [ -17.114852, -72.4921807 ], [ -17.1006113, -72.4886001 ], [ -17.08254, -72.490028 ], [ -17.0660121, -72.4905764 ], [ -17.0498894, -72.4891264 ], [ -17.0333139, -72.4872273 ], [ -17.0216583, -72.4853634 ], [ -17.0050282, -72.4842021 ], [ -16.9826563, -72.4869955 ], [ -16.963997, -72.4894448 ], [ -16.9521568, -72.4897973 ], [ -16.9318066, -72.488971 ], [ -16.9120721, -72.4895548 ], [ -16.9001647, -72.4906443 ], [ -16.8831787, -72.4907288 ], [ -16.8702744, -72.4892156 ], [ -16.8541914, -72.4901939 ], [ -16.8387142, -72.4925834 ], [ -16.8233712, -72.4934911 ], [ -16.8113697, -72.4928706 ], [ -16.7987653, -72.4908365 ], [ -16.7856313, -72.4866487 ], [ -16.7638758, -72.4851994 ], [ -16.7512896, -72.485607 ], [ -16.7376615, -72.4865971 ], [ -16.7233908, -72.4865498 ], [ -16.7080891, -72.4846271 ], [ -16.6986305, -72.4832816 ], [ -16.6820994, -72.4813519 ], [ -16.6718245, -72.4808124 ], [ -16.6535799, -72.4812351 ], [ -16.6374926, -72.482195 ], [ -16.6261059, -72.4805312 ], [ -16.617623, -72.479339 ], [ -16.5751558, -72.4831513 ], [ -16.5611373, -72.4853846 ], [ -16.5453806, -72.4899704 ], [ -16.5415267, -72.4959335 ], [ -16.5436169, -72.5038081 ], [ -16.5426047, -72.50854 ], [ -16.5448, -72.5132297 ], [ -16.5452, -72.5185686 ], [ -16.5412802, -72.5228273 ], [ -16.5303296, -72.5282014 ], [ -16.5198665, -72.529134 ], [ -16.489806, -72.5266571 ], [ -16.491133, -72.5240707 ], [ -16.4898877, -72.5223231 ], [ -16.4910498, -72.518137 ], [ -16.4918862, -72.5158852 ], [ -16.4901344, -72.514455 ], [ -16.48772, -72.511751 ], [ -16.4871368, -72.5112774 ], [ -16.4863865, -72.509195 ], [ -16.4857221, -72.5079214 ], [ -16.4853047, -72.5039137 ], [ -16.4862156, -72.502453 ], [ -16.4860532, -72.5008533 ], [ -16.4827243, -72.4996012 ], [ -16.4764819, -72.4959715 ], [ -16.470157, -72.4915328 ], [ -16.4688294, -72.4889766 ], [ -16.4687473, -72.4881769 ], [ -16.4616859, -72.4816646 ], [ -16.4604402, -72.4799082 ], [ -16.4471489, -72.4748982 ], [ -16.4389283, -72.4725708 ], [ -16.4388392, -72.4717625 ], [ -16.4371853, -72.4711402 ], [ -16.4268059, -72.4685073 ], [ -16.4214101, -72.4677578 ], [ -16.4165848, -72.4674734 ], [ -16.4106911, -72.4670493 ], [ -16.4064504, -72.4672475 ], [ -16.4000501, -72.4671401 ], [ -16.3904154, -72.4665877 ], [ -16.3860238, -72.4651856 ], [ -16.3783929, -72.4633296 ], [ -16.3762323, -72.463024 ], [ -16.3745694, -72.4623929 ], [ -16.3594659, -72.4602793 ], [ -16.3552347, -72.460485 ], [ -16.3466738, -72.4600703 ], [ -16.343947, -72.4592987 ], [ -16.3508769, -72.4569205 ], [ -16.3515637, -72.4557709 ], [ -16.3504922, -72.4540508 ], [ -16.3483134, -72.4524288 ], [ -16.3445692, -72.4516713 ], [ -16.3380559, -72.4511586 ], [ -16.3491995, -72.4496283 ], [ -16.3526549, -72.4482335 ], [ -16.3553934, -72.4467206 ], [ -16.3528902, -72.4447646 ], [ -16.3501585, -72.4431916 ], [ -16.349509, -72.4425233 ], [ -16.3585943, -72.4413556 ], [ -16.3659522, -72.4408849 ], [ -16.3708366, -72.4397259 ], [ -16.3699269, -72.4381731 ], [ -16.3658598, -72.4370819 ], [ -16.3608491, -72.4362557 ], [ -16.3610471, -72.4346048 ], [ -16.368665, -72.4319329 ], [ -16.3733184, -72.431157 ], [ -16.3864304, -72.4298114 ], [ -16.3934574, -72.4290056 ], [ -16.4009383, -72.4274331 ], [ -16.3995383, -72.4253793 ], [ -16.3929684, -72.4254189 ], [ -16.3882851, -72.4249275 ], [ -16.3915047, -72.4239154 ], [ -16.4097473, -72.422293 ], [ -16.4117616, -72.4206615 ], [ -16.4106222, -72.4194923 ], [ -16.4119202, -72.417743 ], [ -16.4174117, -72.4159834 ], [ -16.4190986, -72.4140178 ], [ -16.4091737, -72.4038293 ], [ -16.4030303, -72.3987498 ], [ -16.3915987, -72.3937784 ], [ -16.374414, -72.3876004 ], [ -16.3529258, -72.3818556 ], [ -16.3298762, -72.3773822 ], [ -16.3066921, -72.3717853 ], [ -16.2850716, -72.3697328 ], [ -16.2532245, -72.3677321 ], [ -16.227918, -72.3657165 ], [ -16.2027279, -72.3628378 ], [ -16.1838272, -72.3596864 ], [ -16.1571796, -72.3572146 ], [ -16.1459331, -72.3542376 ], [ -16.1411047, -72.3521129 ], [ -16.1248516, -72.3526895 ], [ -16.103792, -72.3531193 ], [ -16.0915965, -72.3530544 ], [ -16.0735881, -72.3498167 ], [ -16.0643316, -72.3469457 ], [ -16.0536033, -72.344486 ], [ -16.038711, -72.3455029 ], [ -16.0250272, -72.3418847 ], [ -16.0054335, -72.335951 ], [ -15.9836424, -72.3316225 ], [ -15.962601, -72.3280761 ], [ -15.9478399, -72.3242659 ], [ -15.938617, -72.3233691 ], [ -15.9399708, -72.3198571 ], [ -15.9366535, -72.3153361 ], [ -15.9280508, -72.3141026 ], [ -15.909494, -72.3131659 ], [ -15.8996636, -72.3126034 ], [ -15.8925467, -72.3089775 ], [ -15.8815026, -72.3051259 ], [ -15.8648142, -72.3011966 ], [ -15.8484941, -72.2986484 ], [ -15.8325253, -72.2994614 ], [ -15.8155803, -72.2992264 ], [ -15.7991392, -72.2975331 ], [ -15.7971756, -72.2974195 ], [ -15.7916584, -72.296481 ], [ -15.7727731, -72.2941484 ], [ -15.7613904, -72.2908873 ], [ -15.7546857, -72.2866589 ], [ -15.7491965, -72.2837393 ], [ -15.7401613, -72.2799937 ], [ -15.7224019, -72.2778441 ], [ -15.7035187, -72.2774846 ], [ -15.6900352, -72.2769437 ], [ -15.6744869, -72.2751661 ], [ -15.6599775, -72.2775356 ], [ -15.6371053, -72.2808992 ], [ -15.6213184, -72.2788552 ], [ -15.603335, -72.2764324 ], [ -15.5897154, -72.2767434 ], [ -15.5734163, -72.2761515 ], [ -15.5525256, -72.27256 ], [ -15.5397681, -72.2727944 ], [ -15.526867, -72.2738869 ], [ -15.5136766, -72.2766963 ], [ -15.5062666, -72.2787339 ], [ -15.4906323, -72.280901 ], [ -15.4736953, -72.2857161 ], [ -15.4589119, -72.287808 ], [ -15.4282938, -72.2898186 ], [ -15.4138596, -72.2882092 ], [ -15.3972564, -72.2893198 ], [ -15.3843342, -72.2904025 ], [ -15.3681151, -72.2909139 ], [ -15.3531452, -72.2907553 ], [ -15.3768817, -72.2893341 ], [ -15.3938733, -72.2876287 ], [ -15.4226207, -72.2866273 ], [ -15.4365788, -72.2877116 ], [ -15.4507418, -72.2859561 ], [ -15.4702551, -72.2827381 ], [ -15.4794994, -72.2777219 ], [ -15.4967903, -72.2758891 ], [ -15.512304, -72.2702006 ], [ -15.5123456, -72.2660834 ], [ -15.5065258, -72.2586731 ], [ -15.5037149, -72.2535486 ], [ -15.5008117, -72.2473032 ], [ -15.4901827, -72.2417117 ], [ -15.4810396, -72.2357124 ], [ -15.4785302, -72.2288702 ], [ -15.4747291, -72.224677 ], [ -15.4660206, -72.221181 ], [ -15.4609833, -72.2176568 ], [ -15.4516257, -72.2113944 ], [ -15.4358912, -72.2062349 ], [ -15.426106, -72.2025475 ], [ -15.4123647, -72.2006039 ], [ -15.4001915, -72.1993736 ], [ -15.4102991, -72.1962652 ], [ -15.4078501, -72.1925231 ], [ -15.3933243, -72.188671 ], [ -15.3739873, -72.1866333 ], [ -15.3534793, -72.1832827 ], [ -15.3422621, -72.1830975 ], [ -15.3262107, -72.1816257 ], [ -15.331101, -72.1778321 ], [ -15.343359, -72.1689079 ], [ -15.36255, -72.1636277 ], [ -15.3841456, -72.1589879 ], [ -15.3891034, -72.1563137 ], [ -15.3736715, -72.1514119 ], [ -15.3516969, -72.1566467 ], [ -15.3324829, -72.1557257 ], [ -15.3139735, -72.1555894 ], [ -15.2888557, -72.1562871 ], [ -15.2700364, -72.1578634 ], [ -15.2530811, -72.1553363 ], [ -15.2344198, -72.1529506 ], [ -15.2181659, -72.1543073 ], [ -15.2065782, -72.15471 ], [ -15.2007662, -72.1481509 ], [ -15.1894259, -72.1457151 ], [ -15.1665795, -72.1447995 ], [ -15.1422762, -72.1411858 ], [ -15.1156485, -72.1380441 ], [ -15.0979748, -72.133595 ], [ -15.0841902, -72.1293863 ], [ -15.0665985, -72.126055 ], [ -15.0535461, -72.126852 ], [ -15.0411819, -72.1284358 ], [ -15.0232035, -72.1256961 ], [ -15.0075661, -72.1224809 ], [ -15.000543, -72.1196817 ], [ -15.0, -72.119663041898676 ], [ -15.0, -75.0 ], [ -20.0, -75.0 ], [ -20.0, -73.0774431 ], [ -19.9986309, -73.0773222 ] ] ] ] } }
]
}
