{
"type": "FeatureCollection",
"name": "-25_-80",
"crs": { "type": "name", "properties": { "name": "urn:ogc:def:crs:OGC:1.3:CRS84" } },
"xy_coordinate_resolution": 1e-15,
"features": [
{ "type": "Feature", "properties": { "FID": 307096, "id": 1150, "left": -25.0, "top": -75.0, "right": -20.0, "bottom": -80.0, "row_index": 33, "col_index": 31, "min_lon": -25.0, "min_lat": -80.0, "tile_id": "-25_-80" }, "geometry": { "type": "MultiPolygon", "coordinates": [ [ [ [ -24.8964234, -75.0079171 ], [ -24.8749093, -75.0175658 ], [ -24.8518707, -75.019955 ], [ -24.8513847, -75.0140639 ], [ -24.866834428796043, -75.0 ], [ -20.0, -75.0 ], [ -20.0, -80.0 ], [ -25.0, -80.0 ], [ -25.0, -75.0 ], [ -24.91307209159142, -75.0 ], [ -24.8964234, -75.0079171 ] ] ] ] } }
]
}
