{
"type": "FeatureCollection",
"name": "-25_-75",
"crs": { "type": "name", "properties": { "name": "urn:ogc:def:crs:OGC:1.3:CRS84" } },
"xy_coordinate_resolution": 1e-15,
"features": [
{ "type": "Feature", "properties": { "FID": 307096, "id": 1149, "left": -25.0, "top": -70.0, "right": -20.0, "bottom": -75.0, "row_index": 32, "col_index": 31, "min_lon": -25.0, "min_lat": -75.0, "tile_id": "-25_-75" }, "geometry": { "type": "MultiPolygon", "coordinates": [ [ [ [ -24.9815586, -74.9753364 ], [ -24.9539423, -74.9831361 ], [ -24.9173607, -74.9979606 ], [ -24.91307209159142, -75.0 ], [ -25.0, -75.0 ], [ -25.0, -74.9707027 ], [ -24.9815586, -74.9753364 ] ] ], [ [ [ -24.8683213, -74.9986465 ], [ -24.8661869, -74.9918375 ], [ -24.8816809, -74.9836541 ], [ -24.8910883, -74.9776879 ], [ -24.9055855, -74.9729673 ], [ -24.8905506, -74.9669673 ], [ -24.8935876, -74.9606511 ], [ -24.8956129, -74.9529689 ], [ -24.8901937, -74.9443248 ], [ -24.8885171, -74.9375593 ], [ -24.8952734, -74.9350104 ], [ -24.9086497, -74.9298245 ], [ -24.9101172, -74.9218368 ], [ -24.9013057, -74.8968693 ], [ -24.8965324, -74.8877785 ], [ -24.908345, -74.8856043 ], [ -24.9067936, -74.8735202 ], [ -24.8969644, -74.8631844 ], [ -24.8806688, -74.8540057 ], [ -24.8507215, -74.8483411 ], [ -24.9058712, -74.8505765 ], [ -24.9175702, -74.8491558 ], [ -24.9249046, -74.8348762 ], [ -24.9339041, -74.8263429 ], [ -24.9295614, -74.8238963 ], [ -24.9321745, -74.8157682 ], [ -24.9392053, -74.8093328 ], [ -24.9027017, -74.8063422 ], [ -24.8848277, -74.8066581 ], [ -24.8709099, -74.8076068 ], [ -24.8541755, -74.8029499 ], [ -24.8547763, -74.7976736 ], [ -24.8369985, -74.7972319 ], [ -24.8375182, -74.7927096 ], [ -24.8654141, -74.7900619 ], [ -24.9195168, -74.7894205 ], [ -24.9588548, -74.7924292 ], [ -24.9887903, -74.7953645 ], [ -25.0, -74.797048 ], [ -25.0, -73.9196596 ], [ -24.9865643, -73.9173945 ], [ -24.9703115, -73.9125161 ], [ -24.9300796, -73.9107302 ], [ -24.9177526, -73.9075762 ], [ -24.8863763, -73.9032489 ], [ -24.868958, -73.8982396 ], [ -24.860405, -73.8943209 ], [ -24.837491, -73.8950359 ], [ -24.8076904, -73.8916151 ], [ -24.7933869, -73.8938991 ], [ -24.7894295, -73.8981368 ], [ -24.7665709, -73.8982784 ], [ -24.7524911, -73.9037017 ], [ -24.7178813, -73.9100736 ], [ -24.6856591, -73.9063869 ], [ -24.6720198, -73.8975461 ], [ -24.6522308, -73.8958921 ], [ -24.637691, -73.8913421 ], [ -24.6025518, -73.8919165 ], [ -24.568736, -73.8884224 ], [ -24.5460851, -73.8837871 ], [ -24.536863, -73.8793949 ], [ -24.5177209, -73.8793189 ], [ -24.4948968, -73.8824871 ], [ -24.4660145, -73.8727991 ], [ -24.4336235, -73.8713345 ], [ -24.4284968, -73.8761493 ], [ -24.4004016, -73.8730259 ], [ -24.3945408, -73.8682095 ], [ -24.3707373, -73.8695422 ], [ -24.3475411, -73.8694071 ], [ -24.3376295, -73.8762062 ], [ -24.3049497, -73.8825303 ], [ -24.2746211, -73.8780064 ], [ -24.2637234, -73.8688275 ], [ -24.2378353, -73.8731787 ], [ -24.2233517, -73.8691651 ], [ -24.2121891, -73.8702834 ], [ -24.1551446, -73.8676991 ], [ -24.0986224, -73.8592171 ], [ -24.0929657, -73.8563185 ], [ -24.0667693, -73.859852 ], [ -24.0074753, -73.8564063 ], [ -23.9916825, -73.8533785 ], [ -23.9301235, -73.8490889 ], [ -23.9133569, -73.8398141 ], [ -23.8912177, -73.8408864 ], [ -23.8846558, -73.843632 ], [ -23.8116537, -73.8470844 ], [ -23.7896499, -73.8425983 ], [ -23.7604076, -73.8354062 ], [ -23.7158152, -73.8392099 ], [ -23.6932496, -73.8538467 ], [ -23.6642087, -73.8568373 ], [ -23.6652571, -73.8600236 ], [ -23.6713618, -73.8645271 ], [ -23.6645096, -73.8753048 ], [ -23.6713057, -73.8827631 ], [ -23.6494617, -73.8884591 ], [ -23.6392404, -73.8952244 ], [ -23.6420142, -73.9045529 ], [ -23.650844, -73.9076231 ], [ -23.6486152, -73.921979 ], [ -23.6444416, -73.9313231 ], [ -23.6373844, -73.9407398 ], [ -23.656465, -73.9572101 ], [ -23.6559531, -73.964454 ], [ -23.6688626, -73.9700732 ], [ -23.6629437, -73.9732761 ], [ -23.6585096, -73.9862437 ], [ -23.6483282, -73.988027 ], [ -23.6357239, -73.9762922 ], [ -23.6280649, -73.9733513 ], [ -23.60457, -73.9717706 ], [ -23.5952985, -73.9665392 ], [ -23.5853131, -73.9564249 ], [ -23.5576503, -73.9445811 ], [ -23.5502582, -73.9360891 ], [ -23.5349468, -73.9326928 ], [ -23.5272365, -73.91955 ], [ -23.5103477, -73.9202072 ], [ -23.4966297, -73.9240463 ], [ -23.4701521, -73.9250476 ], [ -23.4483999, -73.929593 ], [ -23.430491, -73.9270559 ], [ -23.4146601, -73.9182034 ], [ -23.3899549, -73.9170318 ], [ -23.3784961, -73.9211614 ], [ -23.381212, -73.9280022 ], [ -23.3939944, -73.933638 ], [ -23.3863335, -73.9351067 ], [ -23.3726931, -73.9276441 ], [ -23.3376666, -73.9268734 ], [ -23.3255175, -73.9222637 ], [ -23.3040631, -73.9231726 ], [ -23.3049534, -73.9307795 ], [ -23.3143397, -73.9348939 ], [ -23.3037305, -73.9410068 ], [ -23.2864398, -73.9451063 ], [ -23.2818126, -73.9555731 ], [ -23.2573165, -73.9590366 ], [ -23.2458042, -73.967013 ], [ -23.2526787, -73.973357 ], [ -23.2377949, -73.9855867 ], [ -23.2249227, -73.9901405 ], [ -23.2107279, -74.0066881 ], [ -23.1990367, -74.0171548 ], [ -23.1828686, -74.0234673 ], [ -23.1768208, -74.0343654 ], [ -23.1734211, -74.0463274 ], [ -23.1580542, -74.0544662 ], [ -23.1571924, -74.0603478 ], [ -23.1645483, -74.0702187 ], [ -23.1624646, -74.0817496 ], [ -23.1529969, -74.0891917 ], [ -23.1473953, -74.097831 ], [ -23.119613, -74.1019101 ], [ -23.1048777, -74.1124392 ], [ -23.0839589, -74.1190092 ], [ -23.048628, -74.1195519 ], [ -23.0217825, -74.1210265 ], [ -23.0006086, -74.1248628 ], [ -22.9750525, -74.1116095 ], [ -22.9597958, -74.1095322 ], [ -22.9262484, -74.1131469 ], [ -22.9098926, -74.1108738 ], [ -22.8665865, -74.0939512 ], [ -22.8581725, -74.0962972 ], [ -22.8588066, -74.1006186 ], [ -22.8516463, -74.1063897 ], [ -22.8492795, -74.1146279 ], [ -22.8104401, -74.1245966 ], [ -22.7873482, -74.1206639 ], [ -22.8203151, -74.1179675 ], [ -22.8299576, -74.1105401 ], [ -22.8252119, -74.1009269 ], [ -22.7939115, -74.0968473 ], [ -22.7661911, -74.0865891 ], [ -22.7373735, -74.0860621 ], [ -22.7063486, -74.0818462 ], [ -22.6969212, -74.0857695 ], [ -22.6855827, -74.1065467 ], [ -22.697702, -74.1144861 ], [ -22.6794374, -74.1163028 ], [ -22.6465066, -74.1104687 ], [ -22.6342838, -74.112962 ], [ -22.645738, -74.1185097 ], [ -22.6321628, -74.1280125 ], [ -22.6125255, -74.1236707 ], [ -22.6172215, -74.1181998 ], [ -22.609758, -74.1132933 ], [ -22.5963087, -74.1222288 ], [ -22.5833584, -74.1242518 ], [ -22.5810677, -74.1299951 ], [ -22.5913744, -74.1367725 ], [ -22.5697191, -74.1403316 ], [ -22.5688213, -74.1535913 ], [ -22.52085, -74.1656077 ], [ -22.5299039, -74.1788335 ], [ -22.5274832, -74.1897958 ], [ -22.5181932, -74.1902977 ], [ -22.5088258, -74.1814912 ], [ -22.4678923, -74.1836466 ], [ -22.4297711, -74.2002652 ], [ -22.4318748, -74.2096146 ], [ -22.3942013, -74.2179516 ], [ -22.3811439, -74.2013452 ], [ -22.3574311, -74.2042769 ], [ -22.3437113, -74.2118349 ], [ -22.346224, -74.2194916 ], [ -22.3227675, -74.2259449 ], [ -22.3077082, -74.2306362 ], [ -22.2853211, -74.2391515 ], [ -22.2641482, -74.2311125 ], [ -22.2472634, -74.2392826 ], [ -22.2422411, -74.2513293 ], [ -22.237875, -74.2684999 ], [ -22.1890427, -74.2842996 ], [ -22.1087538, -74.2953404 ], [ -22.0438552, -74.2978228 ], [ -21.967753, -74.3263997 ], [ -21.9668093, -74.3032026 ], [ -22.0105962, -74.2910873 ], [ -22.055863, -74.2782013 ], [ -22.0722101, -74.2608313 ], [ -22.1079995, -74.2571621 ], [ -22.1284381, -74.2442362 ], [ -22.1127767, -74.2448838 ], [ -22.1130181, -74.2396647 ], [ -22.1005486, -74.2310258 ], [ -22.0868943, -74.2302518 ], [ -22.0857198, -74.2227312 ], [ -22.1088383, -74.2119799 ], [ -22.1106422, -74.207135 ], [ -22.0856086, -74.2071703 ], [ -22.1010262, -74.1997187 ], [ -22.0722529, -74.1918988 ], [ -22.0474342, -74.1949957 ], [ -22.0428806, -74.1905821 ], [ -22.0581887, -74.1880724 ], [ -22.0501924, -74.1840392 ], [ -22.0031293, -74.1840427 ], [ -22.0004602, -74.1775111 ], [ -21.9809531, -74.1744732 ], [ -21.9534039, -74.1761402 ], [ -21.9370029, -74.1724848 ], [ -21.8775842, -74.1749122 ], [ -21.8638787, -74.1513197 ], [ -21.836513, -74.1455916 ], [ -21.837019, -74.141173 ], [ -21.8579513, -74.1296058 ], [ -21.8539844, -74.1248595 ], [ -21.8710953, -74.1107072 ], [ -21.930234, -74.0997586 ], [ -21.9441361, -74.1011048 ], [ -21.9609921, -74.1031196 ], [ -21.9729163, -74.104656 ], [ -21.9806846, -74.1061644 ], [ -21.9901316, -74.1074578 ], [ -22.0036581, -74.1099072 ], [ -22.0134749, -74.1119971 ], [ -22.0184201, -74.1124727 ], [ -22.0254747, -74.1123929 ], [ -22.0288184, -74.1119542 ], [ -22.0342706, -74.11096 ], [ -22.0363827, -74.1104042 ], [ -22.0381136, -74.1090426 ], [ -22.0408611, -74.1047417 ], [ -22.0394686, -74.1004224 ], [ -22.0334111, -74.091085 ], [ -22.0310811, -74.0885758 ], [ -22.0291141, -74.0868644 ], [ -22.0158811, -74.0798742 ], [ -21.9968658, -74.0730875 ], [ -21.9745995, -74.0655996 ], [ -21.9677025, -74.0634026 ], [ -21.9603903, -74.0615535 ], [ -21.9388808, -74.0556569 ], [ -21.9315632, -74.0537985 ], [ -21.9213534, -74.0520458 ], [ -21.9017418, -74.0489956 ], [ -21.8874039, -74.0472116 ], [ -21.8377595, -74.0427423 ], [ -21.8151894, -74.0409181 ], [ -21.813953, -74.0407915 ], [ -21.7310032, -74.0353167 ], [ -21.6463397, -74.0311589 ], [ -21.6331879, -74.0306223 ], [ -21.6048636, -74.028961 ], [ -21.5945987, -74.0283214 ], [ -21.5516709, -74.0240585 ], [ -21.5389639, -74.0231773 ], [ -21.5250436, -74.0221748 ], [ -21.5020871, -74.0206475 ], [ -21.4841491, -74.018477 ], [ -21.4812525, -74.0185678 ], [ -21.473012, -74.0185096 ], [ -21.4656555, -74.0177731 ], [ -21.457527, -74.0165764 ], [ -21.4506239, -74.0155089 ], [ -21.4348064, -74.0127761 ], [ -21.4234603, -74.0108788 ], [ -21.4079868, -74.0089421 ], [ -21.3908511, -74.007223 ], [ -21.3596013, -74.0025541 ], [ -21.3401529, -73.9994524 ], [ -21.3295893, -73.9980012 ], [ -21.3271531, -73.9977594 ], [ -21.3110517, -73.994228 ], [ -21.2897383, -73.9893954 ], [ -21.2788685, -73.987152 ], [ -21.2660011, -73.9843185 ], [ -21.252041, -73.980226 ], [ -21.2359743, -73.9766889 ], [ -21.2275577, -73.9746851 ], [ -21.2199087, -73.9731415 ], [ -21.2142605, -73.9721874 ], [ -21.207844, -73.970773 ], [ -21.2046291, -73.9700617 ], [ -21.1878152, -73.9660608 ], [ -21.1771035, -73.962675 ], [ -21.1720333, -73.9602445 ], [ -21.1676073, -73.9594108 ], [ -21.1656132, -73.9588204 ], [ -21.1592046, -73.9574048 ], [ -21.1540135, -73.9561106 ], [ -21.1465201, -73.9534358 ], [ -21.1425435, -73.9522635 ], [ -21.1361297, -73.9508385 ], [ -21.1285129, -73.9493 ], [ -21.1228669, -73.9483351 ], [ -21.1156994, -73.9464579 ], [ -21.1097502, -73.9447023 ], [ -21.1007275, -73.9410968 ], [ -21.09644, -73.939125 ], [ -21.0941455, -73.9377439 ], [ -21.0906374, -73.9362406 ], [ -21.0872497, -73.9335921 ], [ -21.0825209, -73.9319579 ], [ -21.0754963, -73.9289428 ], [ -21.0700036, -73.9268483 ], [ -21.0655568, -73.9229485 ], [ -21.058757, -73.9145874 ], [ -21.0557061, -73.9127455 ], [ -21.0520281, -73.9093062 ], [ -21.0494124, -73.9071179 ], [ -21.0411507, -73.9009074 ], [ -21.0282877, -73.8888613 ], [ -21.0233649, -73.882228 ], [ -21.0204625, -73.8792488 ], [ -21.018452, -73.8755941 ], [ -21.0120224, -73.8680392 ], [ -21.0080413, -73.8637924 ], [ -21.0069661, -73.8625338 ], [ -21.0027269, -73.8605684 ], [ -21.0002767, -73.8572515 ], [ -21.0009995, -73.8546403 ], [ -21.0065282, -73.8494652 ], [ -21.0072558, -73.846863 ], [ -21.0057026, -73.8428702 ], [ -21.0005346, -73.8385095 ], [ -20.9976286, -73.8355223 ], [ -20.9976065, -73.832459 ], [ -20.9986451, -73.8306555 ], [ -20.9996513, -73.8257801 ], [ -21.000792, -73.8197684 ], [ -20.9986603, -73.8172501 ], [ -20.9968336, -73.8155308 ], [ -20.9969729, -73.8143941 ], [ -20.9940834, -73.8114155 ], [ -20.9907385, -73.8087661 ], [ -20.9875419, -73.8049889 ], [ -20.9862495, -73.7956608 ], [ -20.9866395, -73.789189 ], [ -20.9861572, -73.7864559 ], [ -20.9844558, -73.7805371 ], [ -20.9811185, -73.7778878 ], [ -20.9749371, -73.7753307 ], [ -20.963605, -73.7684048 ], [ -20.9619307, -73.7655487 ], [ -20.9576929, -73.7605121 ], [ -20.9552633, -73.7571958 ], [ -20.9477021, -73.7495096 ], [ -20.941499, -73.7408183 ], [ -20.9394996, -73.7340932 ], [ -20.9348271, -73.7293946 ], [ -20.9327063, -73.7268677 ], [ -20.9289523, -73.7245643 ], [ -20.9214173, -73.7168779 ], [ -20.9187034, -73.7127626 ], [ -20.9162711, -73.7063754 ], [ -20.9134164, -73.7033963 ], [ -20.9140025, -73.7019227 ], [ -20.9114524, -73.6997421 ], [ -20.9075392, -73.6954951 ], [ -20.903798, -73.6931913 ], [ -20.9013821, -73.689866 ], [ -20.8988336, -73.6876855 ], [ -20.8950822, -73.6853733 ], [ -20.8922386, -73.6823937 ], [ -20.8917761, -73.6796611 ], [ -20.8911715, -73.6780643 ], [ -20.8799459, -73.6711352 ], [ -20.8780076, -73.6705511 ], [ -20.8727715, -73.6673168 ], [ -20.8697751, -73.665465 ], [ -20.866494, -73.6628228 ], [ -20.8628967, -73.6563127 ], [ -20.8625982, -73.6555141 ], [ -20.8566242, -73.6518187 ], [ -20.8485651, -73.6486659 ], [ -20.8311121, -73.6433724 ], [ -20.8205335, -73.6411075 ], [ -20.8157557, -73.6405961 ], [ -20.8059227, -73.6387916 ], [ -20.799211, -73.6376954 ], [ -20.7925152, -73.6366069 ], [ -20.7889387, -73.6362271 ], [ -20.7704621, -73.6327308 ], [ -20.7646588, -73.6309673 ], [ -20.7573792, -73.6282808 ], [ -20.7463623, -73.626341 ], [ -20.7167524, -73.6220437 ], [ -20.6996306, -73.6205994 ], [ -20.6803056, -73.6177778 ], [ -20.6621654, -73.6150701 ], [ -20.650431, -73.6126637 ], [ -20.6391583, -73.6099282 ], [ -20.6270149, -73.6047878 ], [ -20.6223429, -73.5981496 ], [ -20.6200448, -73.5917607 ], [ -20.6215514, -73.5896144 ], [ -20.6224584, -73.5889491 ], [ -20.6270812, -73.587522 ], [ -20.6303556, -73.5871061 ], [ -20.6436082, -73.5806084 ], [ -20.6479024, -73.5767587 ], [ -20.6832276, -73.5717774 ], [ -20.685514, -73.5645054 ], [ -20.6920414, -73.5604147 ], [ -20.6723805, -73.5630008 ], [ -20.6459789, -73.5682416 ], [ -20.6276072, -73.5692308 ], [ -20.6403417, -73.5659356 ], [ -20.6428622, -73.5639709 ], [ -20.6289749, -73.5606064 ], [ -20.6191439, -73.5628652 ], [ -20.6061256, -73.5659469 ], [ -20.5963791, -73.5669839 ], [ -20.5905628, -73.5651807 ], [ -20.5824958, -73.5616792 ], [ -20.5721815, -73.5564795 ], [ -20.5665563, -73.5502974 ], [ -20.5728265, -73.5459984 ], [ -20.5789068, -73.5422036 ], [ -20.5683284, -73.5406655 ], [ -20.5709478, -73.5394183 ], [ -20.5840498, -73.5389924 ], [ -20.586759, -73.5365244 ], [ -20.5720662, -73.5344565 ], [ -20.5787988, -73.5318025 ], [ -20.5852485, -73.5289362 ], [ -20.5691571, -73.5238702 ], [ -20.5852308, -73.5192519 ], [ -20.583076, -73.5163336 ], [ -20.5655068, -73.5172373 ], [ -20.5507402, -73.5163884 ], [ -20.5614874, -73.5154863 ], [ -20.5836342, -73.5148213 ], [ -20.6011045, -73.5131996 ], [ -20.6041777, -73.5097233 ], [ -20.5984714, -73.5067 ], [ -20.6039695, -73.5024803 ], [ -20.6121637, -73.4957924 ], [ -20.6100966, -73.4916542 ], [ -20.6023201, -73.4806197 ], [ -20.6005322, -73.4747572 ], [ -20.6039681, -73.470273 ], [ -20.5936056, -73.4624227 ], [ -20.5908025, -73.4583643 ], [ -20.5913538, -73.4549156 ], [ -20.5843618, -73.4496111 ], [ -20.577745, -73.4432984 ], [ -20.5712236, -73.4338289 ], [ -20.5670346, -73.4267732 ], [ -20.5625712, -73.4214417 ], [ -20.5563455, -73.4083117 ], [ -20.5509637, -73.3996912 ], [ -20.5494811, -73.3940415 ], [ -20.5434578, -73.3862167 ], [ -20.5419776, -73.3825033 ], [ -20.5467063, -73.3803022 ], [ -20.5377266, -73.3708594 ], [ -20.5254223, -73.3627421 ], [ -20.5129488, -73.3531921 ], [ -20.5040036, -73.3437484 ], [ -20.4973637, -73.3386547 ], [ -20.4986701, -73.3351279 ], [ -20.4909221, -73.3311209 ], [ -20.4828931, -73.3288375 ], [ -20.4820015, -73.3216768 ], [ -20.4787959, -73.315974 ], [ -20.4745878, -73.3082023 ], [ -20.4658761, -73.2982543 ], [ -20.4612048, -73.29271 ], [ -20.4579127, -73.2882269 ], [ -20.4483588, -73.283449 ], [ -20.4265931, -73.2744204 ], [ -20.4147589, -73.2691622 ], [ -20.3898748, -73.2628852 ], [ -20.3769448, -73.258711 ], [ -20.3600037, -73.2520663 ], [ -20.3455341, -73.2473319 ], [ -20.3313717, -73.2408734 ], [ -20.3539676, -73.2493293 ], [ -20.3784393, -73.2566177 ], [ -20.4026584, -73.2636909 ], [ -20.4259729, -73.2713441 ], [ -20.4448102, -73.2768179 ], [ -20.4545464, -73.2810922 ], [ -20.4638686, -73.2779148 ], [ -20.448085, -73.2689709 ], [ -20.4253431, -73.2578738 ], [ -20.4105068, -73.2502801 ], [ -20.3941081, -73.2440631 ], [ -20.3781847, -73.2375535 ], [ -20.3633047, -73.2292409 ], [ -20.3443006, -73.2216122 ], [ -20.329944, -73.2175929 ], [ -20.3029639, -73.211542 ], [ -20.2780965, -73.2064714 ], [ -20.2570673, -73.1978509 ], [ -20.2366789, -73.1903694 ], [ -20.2182021, -73.1843738 ], [ -20.2028688, -73.1775603 ], [ -20.1891013, -73.1667192 ], [ -20.173632, -73.1630581 ], [ -20.1623297, -73.1613658 ], [ -20.1592931, -73.1583111 ], [ -20.1492406, -73.1543144 ], [ -20.1339872, -73.1501469 ], [ -20.1234814, -73.1464395 ], [ -20.1118343, -73.141165 ], [ -20.1035478, -73.1350459 ], [ -20.098215, -73.1290114 ], [ -20.1036743, -73.127331 ], [ -20.0922179, -73.1230478 ], [ -20.0884232, -73.1188306 ], [ -20.0907698, -73.115281 ], [ -20.0814569, -73.1120907 ], [ -20.0703889, -73.1093066 ], [ -20.0651521, -73.1063432 ], [ -20.0711594, -73.1057051 ], [ -20.0635498, -73.101454 ], [ -20.0529789, -73.0990572 ], [ -20.0504171, -73.0958101 ], [ -20.0473693, -73.0921747 ], [ -20.0386266, -73.0900238 ], [ -20.0345624, -73.0897954 ], [ -20.028428, -73.0867078 ], [ -20.0218722, -73.0838849 ], [ -20.020032, -73.0800442 ], [ -20.0140434, -73.0786828 ], [ -20.0, -73.0774431 ], [ -20.0, -75.0 ], [ -24.866834428796043, -75.0 ], [ -24.8683213, -74.9986465 ] ] ] ] } }
]
}
