{
"type": "FeatureCollection",
"name": "-30_-90",
"crs": { "type": "name", "properties": { "name": "urn:ogc:def:crs:OGC:1.3:CRS84" } },
"xy_coordinate_resolution": 1e-15,
"features": [
{ "type": "Feature", "properties": { "FID": 307096, "id": 1116, "left": -30.0, "top": -85.0, "right": -25.0, "bottom": -90.0, "row_index": 35, "col_index": 30, "min_lon": -30.0, "min_lat": -90.0, "tile_id": "-30_-90" }, "geometry": { "type": "MultiPolygon", "coordinates": [ [ [ [ -26.0, -90.0 ], [ -27.0, -90.0 ], [ -28.0, -90.0 ], [ -29.0, -90.0 ], [ -30.0, -90.0 ], [ -30.0, -85.0 ], [ -25.0, -85.0 ], [ -25.0, -90.0 ], [ -26.0, -90.0 ] ] ] ] } }
]
}
