{
"type": "FeatureCollection",
"name": "-30_-80",
"crs": { "type": "name", "properties": { "name": "urn:ogc:def:crs:OGC:1.3:CRS84" } },
"xy_coordinate_resolution": 1e-15,
"features": [
{ "type": "Feature", "properties": { "FID": 307096, "id": 1114, "left": -30.0, "top": -75.0, "right": -25.0, "bottom": -80.0, "row_index": 33, "col_index": 30, "min_lon": -30.0, "min_lat": -80.0, "tile_id": "-30_-80" }, "geometry": { "type": "MultiPolygon", "coordinates": [ [ [ [ -29.9978974, -76.600942 ], [ -29.9967387, -76.6008967 ], [ -29.9956022, -76.6008275 ], [ -29.9945076, -76.6007275 ], [ -29.9940025, -76.6006587 ], [ -29.9935442, -76.6005711 ], [ -29.9931799, -76.6004657 ], [ -29.9925479, -76.6002357 ], [ -29.9918069, -76.6000244 ], [ -29.9905968, -76.599728 ], [ -29.9896987, -76.5995524 ], [ -29.9881891, -76.5993412 ], [ -29.9830233, -76.598691 ], [ -29.9819427, -76.5985838 ], [ -29.9813667, -76.5985581 ], [ -29.9807819, -76.598565 ], [ -29.9803062, -76.5986454 ], [ -29.9785455, -76.5990057 ], [ -29.97808, -76.5990889 ], [ -29.9775631, -76.5991539 ], [ -29.9758077, -76.5991915 ], [ -29.9734588, -76.599213 ], [ -29.9723043, -76.5992625 ], [ -29.9712393, -76.5993777 ], [ -29.9691794, -76.5996405 ], [ -29.967565, -76.5998039 ], [ -29.9669928, -76.5998353 ], [ -29.9664046, -76.5998373 ], [ -29.9658233, -76.5998196 ], [ -29.9646824, -76.599754 ], [ -29.9624404, -76.5995903 ], [ -29.9568612, -76.5991616 ], [ -29.9552196, -76.599014 ], [ -29.952151, -76.5986105 ], [ -29.9481988, -76.598022 ], [ -29.9466703, -76.5978174 ], [ -29.9327772, -76.5963427 ], [ -29.9316806, -76.596248 ], [ -29.9264749, -76.5960343 ], [ -29.9253058, -76.5960059 ], [ -29.9241334, -76.596023 ], [ -29.922538, -76.5961951 ], [ -29.9158103, -76.5970342 ], [ -29.9141782, -76.597188 ], [ -29.9108341, -76.5974465 ], [ -29.9085863, -76.5976049 ], [ -29.9068736, -76.5977013 ], [ -29.9045522, -76.5977845 ], [ -29.9022138, -76.5978428 ], [ -29.8928147, -76.5977914 ], [ -29.8910563, -76.5977691 ], [ -29.8898885, -76.5977309 ], [ -29.8875991, -76.5976117 ], [ -29.8813409, -76.5972377 ], [ -29.8709915, -76.5967287 ], [ -29.8647309, -76.5963609 ], [ -29.8636285, -76.5962658 ], [ -29.8631222, -76.596197 ], [ -29.8597277, -76.5956571 ], [ -29.8587307, -76.5955154 ], [ -29.8528715, -76.5948826 ], [ -29.8513554, -76.5946749 ], [ -29.8478887, -76.5941613 ], [ -29.8469386, -76.5940008 ], [ -29.8456116, -76.5937323 ], [ -29.8401642, -76.5924906 ], [ -29.8392317, -76.5923256 ], [ -29.8387166, -76.5922612 ], [ -29.8376355, -76.5921547 ], [ -29.8359758, -76.5920164 ], [ -29.8270564, -76.5913286 ], [ -29.818567, -76.5907856 ], [ -29.8174489, -76.5907029 ], [ -29.8163657, -76.5905967 ], [ -29.8153297, -76.5904685 ], [ -29.810775, -76.5898449 ], [ -29.8098209, -76.5896881 ], [ -29.808508, -76.5894135 ], [ -29.8064862, -76.5889212 ], [ -29.8049194, -76.5885139 ], [ -29.8038988, -76.5881827 ], [ -29.8004614, -76.5869135 ], [ -29.7991368, -76.5864636 ], [ -29.7969407, -76.5858249 ], [ -29.7957127, -76.5855318 ], [ -29.7948056, -76.5853571 ], [ -29.794311, -76.5852858 ], [ -29.793772, -76.5852318 ], [ -29.7926426, -76.5851579 ], [ -29.7903343, -76.5850585 ], [ -29.7880082, -76.5849782 ], [ -29.7856675, -76.584949 ], [ -29.7809734, -76.5849278 ], [ -29.7803867, -76.5849357 ], [ -29.7763121, -76.5850592 ], [ -29.773995, -76.5851492 ], [ -29.7728675, -76.5852236 ], [ -29.7690093, -76.5855527 ], [ -29.7678835, -76.5856299 ], [ -29.7650157, -76.585773 ], [ -29.7638541, -76.5858152 ], [ -29.7626821, -76.5858347 ], [ -29.7609349, -76.5857935 ], [ -29.7569012, -76.5856099 ], [ -29.7545736, -76.585539 ], [ -29.7481413, -76.5853994 ], [ -29.7364321, -76.5852102 ], [ -29.7335132, -76.5851401 ], [ -29.7317739, -76.5850767 ], [ -29.7295305, -76.5849149 ], [ -29.7156116, -76.5838328 ], [ -29.7139202, -76.5837222 ], [ -29.70694, -76.5835047 ], [ -29.7052016, -76.583439 ], [ -29.702927, -76.5833041 ], [ -29.6955773, -76.5828258 ], [ -29.6932882, -76.5827053 ], [ -29.6822346, -76.5823677 ], [ -29.6724042, -76.5819703 ], [ -29.6701174, -76.5818494 ], [ -29.6605137, -76.580828 ], [ -29.655124, -76.5802894 ], [ -29.6534649, -76.5801533 ], [ -29.6472271, -76.5797653 ], [ -29.6455467, -76.5796456 ], [ -29.6326265, -76.5783449 ], [ -29.629952, -76.5780649 ], [ -29.6289168, -76.5779362 ], [ -29.6279944, -76.5777697 ], [ -29.6276573, -76.5776585 ], [ -29.6266032, -76.5771707 ], [ -29.625933, -76.5766501 ], [ -29.6249034, -76.5757265 ], [ -29.6238627, -76.5749456 ], [ -29.6225948, -76.5741831 ], [ -29.6221253, -76.5739327 ], [ -29.6215519, -76.573695 ], [ -29.6208459, -76.5734789 ], [ -29.6203132, -76.5734197 ], [ -29.6191925, -76.573342 ], [ -29.6156938, -76.5732587 ], [ -29.6135604, -76.5730336 ], [ -29.6126034, -76.5728758 ], [ -29.6122068, -76.5727756 ], [ -29.6113405, -76.5721253 ], [ -29.61063, -76.5714648 ], [ -29.6098654, -76.5702515 ], [ -29.6098084, -76.5698432 ], [ -29.6102278, -76.5688946 ], [ -29.6102827, -76.5684862 ], [ -29.6100671, -76.5678074 ], [ -29.6095174, -76.5667256 ], [ -29.609265, -76.5664581 ], [ -29.6081718, -76.56554 ], [ -29.6076437, -76.5648701 ], [ -29.6073556, -76.5646052 ], [ -29.6061681, -76.5639838 ], [ -29.6028407, -76.5623904 ], [ -29.5992755, -76.5603741 ], [ -29.5982854, -76.5598802 ], [ -29.5924854, -76.5575126 ], [ -29.5894791, -76.5561884 ], [ -29.588486, -76.5558506 ], [ -29.5863886, -76.5551948 ], [ -29.5857657, -76.5549638 ], [ -29.5848479, -76.5544635 ], [ -29.5838353, -76.5538244 ], [ -29.583529, -76.5535609 ], [ -29.5833187, -76.5532921 ], [ -29.5833331, -76.5531565 ], [ -29.5836691, -76.552755 ], [ -29.5855165, -76.5508973 ], [ -29.5856235, -76.5506263 ], [ -29.585582, -76.5504908 ], [ -29.5851643, -76.5502368 ], [ -29.5843694, -76.5498718 ], [ -29.5834403, -76.5495256 ], [ -29.5816071, -76.5489949 ], [ -29.5804028, -76.5486955 ], [ -29.5775448, -76.5482219 ], [ -29.5766731, -76.5480415 ], [ -29.5763097, -76.5479339 ], [ -29.5753365, -76.5475945 ], [ -29.5728595, -76.5466685 ], [ -29.568842, -76.5453288 ], [ -29.5650025, -76.5439594 ], [ -29.5643124, -76.5437394 ], [ -29.5592242, -76.5422446 ], [ -29.5578202, -76.5418087 ], [ -29.5571749, -76.5415818 ], [ -29.555961, -76.5411156 ], [ -29.5548256, -76.540639 ], [ -29.5543098, -76.5403939 ], [ -29.5537248, -76.5400097 ], [ -29.5532151, -76.5396186 ], [ -29.5529496, -76.5393519 ], [ -29.5526849, -76.5388116 ], [ -29.5525492, -76.5382668 ], [ -29.5525579, -76.5379942 ], [ -29.5527192, -76.5377255 ], [ -29.5532032, -76.5373327 ], [ -29.5541328, -76.5366868 ], [ -29.5549935, -76.5361796 ], [ -29.559057, -76.5340662 ], [ -29.5601523, -76.5335853 ], [ -29.5628978, -76.5325397 ], [ -29.5644974, -76.5319691 ], [ -29.5671531, -76.5310719 ], [ -29.5678464, -76.5308529 ], [ -29.5686219, -76.5306491 ], [ -29.5704633, -76.5303138 ], [ -29.571925, -76.5300881 ], [ -29.5729439, -76.5299544 ], [ -29.5734864, -76.5299036 ], [ -29.5763807, -76.5298153 ], [ -29.5769379, -76.529774 ], [ -29.5774406, -76.5297044 ], [ -29.5783428, -76.5295308 ], [ -29.5791757, -76.5293391 ], [ -29.5795263, -76.5292301 ], [ -29.5801023, -76.5289941 ], [ -29.5798477, -76.5288712 ], [ -29.579605, -76.5286036 ], [ -29.5794201, -76.528062 ], [ -29.5793539, -76.527653 ], [ -29.5794076, -76.5272449 ], [ -29.5798568, -76.5262968 ], [ -29.5798359, -76.5260249 ], [ -29.5787277, -76.5251063 ], [ -29.5784348, -76.5247044 ], [ -29.5787935, -76.5238915 ], [ -29.5787789, -76.5236198 ], [ -29.5786733, -76.5234844 ], [ -29.5784625, -76.5233588 ], [ -29.5780546, -76.5232614 ], [ -29.5777174, -76.5231494 ], [ -29.5768396, -76.5227956 ], [ -29.5760356, -76.5224331 ], [ -29.5753139, -76.5220597 ], [ -29.5749687, -76.5218005 ], [ -29.5743028, -76.5209979 ], [ -29.5741113, -76.5208697 ], [ -29.5738335, -76.5207498 ], [ -29.5734363, -76.5206499 ], [ -29.5729742, -76.5205669 ], [ -29.5699862, -76.5201384 ], [ -29.5690728, -76.51997 ], [ -29.5683345, -76.5197586 ], [ -29.566984, -76.5193139 ], [ -29.5664035, -76.5190775 ], [ -29.5659032, -76.5188304 ], [ -29.5656996, -76.518564 ], [ -29.5654667, -76.517748 ], [ -29.5652536, -76.5173429 ], [ -29.564433, -76.5164084 ], [ -29.5641339, -76.5161451 ], [ -29.5636989, -76.5158926 ], [ -29.5629888, -76.5156764 ], [ -29.5597816, -76.5148844 ], [ -29.5558997, -76.5138664 ], [ -29.5544307, -76.5134437 ], [ -29.5541024, -76.5133305 ], [ -29.5531235, -76.5128357 ], [ -29.5506835, -76.5114495 ], [ -29.5498853, -76.5110863 ], [ -29.5491668, -76.5108723 ], [ -29.5471707, -76.5103753 ], [ -29.5426539, -76.5093098 ], [ -29.5417959, -76.5091258 ], [ -29.5408337, -76.5089712 ], [ -29.5397376, -76.5088803 ], [ -29.538592, -76.5088241 ], [ -29.5357115, -76.5087175 ], [ -29.5328485, -76.5085815 ], [ -29.527677, -76.5083728 ], [ -29.5265411, -76.5083079 ], [ -29.5248687, -76.5081888 ], [ -29.523778, -76.5080918 ], [ -29.5227558, -76.5079608 ], [ -29.5218897, -76.5077778 ], [ -29.5211102, -76.507575 ], [ -29.5204777, -76.5073466 ], [ -29.5202617, -76.5072207 ], [ -29.5201484, -76.5070864 ], [ -29.5201705, -76.5066775 ], [ -29.5202951, -76.5064074 ], [ -29.5205387, -76.5061415 ], [ -29.520754, -76.5060149 ], [ -29.5210566, -76.5058977 ], [ -29.5214863, -76.5058064 ], [ -29.5229616, -76.5055864 ], [ -29.5286786, -76.5049056 ], [ -29.5301903, -76.5046995 ], [ -29.5310755, -76.5045229 ], [ -29.531804, -76.5043097 ], [ -29.5324506, -76.5040832 ], [ -29.5329279, -76.5038354 ], [ -29.5330452, -76.5037019 ], [ -29.5330291, -76.5035663 ], [ -29.5329261, -76.5034306 ], [ -29.5324667, -76.5030373 ], [ -29.5313553, -76.5022627 ], [ -29.5308877, -76.5018684 ], [ -29.5295424, -76.5002647 ], [ -29.5293742, -76.499858 ], [ -29.5294059, -76.4997213 ], [ -29.5301119, -76.4987824 ], [ -29.530219, -76.4986482 ], [ -29.5305122, -76.4982462 ], [ -29.5306077, -76.4979747 ], [ -29.530302, -76.4972981 ], [ -29.5298987, -76.496623 ], [ -29.5296699, -76.4963558 ], [ -29.5293051, -76.4960972 ], [ -29.5286093, -76.4957227 ], [ -29.5270834, -76.4949874 ], [ -29.5259931, -76.4945054 ], [ -29.5234554, -76.4935909 ], [ -29.5228743, -76.4933557 ], [ -29.5221745, -76.4929808 ], [ -29.5207216, -76.4920897 ], [ -29.5199672, -76.491722 ], [ -29.5188439, -76.4914094 ], [ -29.5159894, -76.4907278 ], [ -29.5151118, -76.4905485 ], [ -29.5146357, -76.4904696 ], [ -29.513597, -76.4903472 ], [ -29.51196, -76.4902027 ], [ -29.5102876, -76.4900837 ], [ -29.5079986, -76.4899774 ], [ -29.5051251, -76.489867 ], [ -29.5028123, -76.4897993 ], [ -29.4964101, -76.4897183 ], [ -29.4946606, -76.4897273 ], [ -29.4929489, -76.4898075 ], [ -29.489545, -76.4899956 ], [ -29.4872512, -76.4900911 ], [ -29.4855052, -76.4900798 ], [ -29.4825981, -76.4900268 ], [ -29.4808585, -76.4899812 ], [ -29.4791353, -76.4899147 ], [ -29.4773923, -76.4898758 ], [ -29.4733182, -76.4898246 ], [ -29.4704068, -76.4898169 ], [ -29.4560293, -76.4903706 ], [ -29.4537133, -76.490429 ], [ -29.4525486, -76.490418 ], [ -29.450808, -76.4903786 ], [ -29.4467556, -76.4902667 ], [ -29.4450299, -76.4902024 ], [ -29.4365036, -76.4897493 ], [ -29.435379, -76.4896786 ], [ -29.4337366, -76.4895365 ], [ -29.4301208, -76.4888496 ], [ -29.4291744, -76.4886908 ], [ -29.4276232, -76.4885022 ], [ -29.4228475, -76.4879974 ], [ -29.4187517, -76.487476 ], [ -29.4167572, -76.4871947 ], [ -29.4096016, -76.4860214 ], [ -29.4082349, -76.4857668 ], [ -29.4065111, -76.4853997 ], [ -29.3993042, -76.483811 ], [ -29.3931467, -76.4821747 ], [ -29.3912726, -76.4816534 ], [ -29.3905927, -76.4814324 ], [ -29.3896544, -76.481088 ], [ -29.3869441, -76.480039 ], [ -29.3864063, -76.4797972 ], [ -29.3857347, -76.4794197 ], [ -29.3840856, -76.478256 ], [ -29.3828715, -76.4773456 ], [ -29.3825664, -76.4770836 ], [ -29.3822125, -76.4766821 ], [ -29.3822142, -76.4764109 ], [ -29.3823046, -76.4761384 ], [ -29.3831679, -76.4742426 ], [ -29.3834919, -76.4731556 ], [ -29.3835738, -76.4726102 ], [ -29.3833998, -76.4719317 ], [ -29.3829741, -76.4707091 ], [ -29.3826783, -76.4703072 ], [ -29.3821411, -76.4699174 ], [ -29.3818596, -76.4697982 ], [ -29.381409, -76.4697137 ], [ -29.3804796, -76.4695507 ], [ -29.377064, -76.4690284 ], [ -29.3678041, -76.4673806 ], [ -29.3659924, -76.4670379 ], [ -29.3626835, -76.4662723 ], [ -29.3578084, -76.4651025 ], [ -29.3543548, -76.4641789 ], [ -29.3528889, -76.4637572 ], [ -29.3525551, -76.4636449 ], [ -29.3517037, -76.4632882 ], [ -29.3496441, -76.4623123 ], [ -29.3473051, -76.4610649 ], [ -29.3465473, -76.4605501 ], [ -29.3464463, -76.4604165 ], [ -29.3465226, -76.4601449 ], [ -29.346896, -76.4597457 ], [ -29.3476214, -76.4590855 ], [ -29.347795, -76.4589564 ], [ -29.3482075, -76.458701 ], [ -29.3484944, -76.458583 ], [ -29.3507873, -76.4577955 ], [ -29.3513609, -76.4575585 ], [ -29.3515769, -76.4574321 ], [ -29.3518553, -76.4571683 ], [ -29.3519913, -76.4568972 ], [ -29.3520021, -76.456625 ], [ -29.3519238, -76.4564905 ], [ -29.3517565, -76.4563583 ], [ -29.3514715, -76.4562396 ], [ -29.3511101, -76.4561341 ], [ -29.3502602, -76.4559491 ], [ -29.3497912, -76.4558671 ], [ -29.3487899, -76.4557302 ], [ -29.3456798, -76.4553607 ], [ -29.3452083, -76.4552811 ], [ -29.3447887, -76.4551874 ], [ -29.3441999, -76.4549525 ], [ -29.3433253, -76.4544478 ], [ -29.3425808, -76.4539313 ], [ -29.3421557, -76.4535341 ], [ -29.3417149, -76.4530005 ], [ -29.341596, -76.4527297 ], [ -29.3415943, -76.4525924 ], [ -29.3418688, -76.4517791 ], [ -29.3418901, -76.4515065 ], [ -29.3416848, -76.4511013 ], [ -29.3415302, -76.4509696 ], [ -29.3395856, -76.4496851 ], [ -29.3388994, -76.4493109 ], [ -29.3378891, -76.44882 ], [ -29.3367438, -76.4483459 ], [ -29.3360151, -76.4481347 ], [ -29.3348339, -76.4478319 ], [ -29.3331445, -76.4474597 ], [ -29.3312269, -76.4471509 ], [ -29.3262787, -76.4464382 ], [ -29.3222028, -76.4459158 ], [ -29.3206407, -76.445733 ], [ -29.3201042, -76.4456828 ], [ -29.3189774, -76.4456135 ], [ -29.3121645, -76.4452691 ], [ -29.3104362, -76.4452175 ], [ -29.3081182, -76.4452498 ], [ -29.3075397, -76.4452343 ], [ -29.3069841, -76.445197 ], [ -29.3064889, -76.4451258 ], [ -29.3060527, -76.4450364 ], [ -29.3052669, -76.4448357 ], [ -29.303788, -76.444415 ], [ -29.3019928, -76.4438796 ], [ -29.3010533, -76.4435357 ], [ -29.300271, -76.4430233 ], [ -29.299009, -76.4419752 ], [ -29.2985313, -76.4417268 ], [ -29.2982044, -76.4416146 ], [ -29.2970629, -76.4413057 ], [ -29.2950413, -76.4408179 ], [ -29.2921043, -76.4399716 ], [ -29.2909626, -76.4396637 ], [ -29.2905417, -76.4395712 ], [ -29.2895942, -76.4394116 ], [ -29.2871015, -76.4390629 ], [ -29.2860503, -76.4389492 ], [ -29.285498, -76.4389074 ], [ -29.2849231, -76.4388862 ], [ -29.2826035, -76.4388779 ], [ -29.2785396, -76.4389138 ], [ -29.2773874, -76.4389446 ], [ -29.2768185, -76.4389736 ], [ -29.2706446, -76.4393554 ], [ -29.268342, -76.439425 ], [ -29.267764, -76.4394396 ], [ -29.2654488, -76.4394899 ], [ -29.2642889, -76.4394966 ], [ -29.2637115, -76.4394882 ], [ -29.262577, -76.4394302 ], [ -29.2581788, -76.4390808 ], [ -29.2522921, -76.4384992 ], [ -29.2507081, -76.4383295 ], [ -29.2466386, -76.4378036 ], [ -29.2451814, -76.4375787 ], [ -29.2430538, -76.4371172 ], [ -29.2406276, -76.4365315 ], [ -29.238678, -76.4360258 ], [ -29.2378464, -76.4358364 ], [ -29.2373893, -76.4357528 ], [ -29.2363687, -76.4356236 ], [ -29.2352954, -76.43552 ], [ -29.2259781, -76.4347569 ], [ -29.22491, -76.4346495 ], [ -29.2244106, -76.4345808 ], [ -29.2239518, -76.4344964 ], [ -29.2235856, -76.4343915 ], [ -29.2226719, -76.4340433 ], [ -29.2218743, -76.4336808 ], [ -29.2209517, -76.4331797 ], [ -29.2189498, -76.4319027 ], [ -29.2173237, -76.4311798 ], [ -29.215324, -76.4303498 ], [ -29.2138258, -76.4297662 ], [ -29.2131469, -76.4295464 ], [ -29.2127554, -76.4294438 ], [ -29.2118195, -76.4292857 ], [ -29.2076723, -76.428797 ], [ -29.2031825, -76.4281701 ], [ -29.1991195, -76.4276442 ], [ -29.1980822, -76.4275203 ], [ -29.1970101, -76.4274165 ], [ -29.1958826, -76.4273511 ], [ -29.1941657, -76.4272882 ], [ -29.1912846, -76.4272074 ], [ -29.1878183, -76.4271378 ], [ -29.1860778, -76.4271289 ], [ -29.1802857, -76.4271989 ], [ -29.1791252, -76.4271825 ], [ -29.1774506, -76.4270744 ], [ -29.1675702, -76.4262792 ], [ -29.1625231, -76.4259703 ], [ -29.1614188, -76.4258841 ], [ -29.1608908, -76.4258285 ], [ -29.1604016, -76.4257554 ], [ -29.1567362, -76.4250876 ], [ -29.1475781, -76.4236473 ], [ -29.1471149, -76.4235665 ], [ -29.14629, -76.4233741 ], [ -29.1459566, -76.4232639 ], [ -29.1457184, -76.4231391 ], [ -29.1453742, -76.4230303 ], [ -29.144966, -76.422933 ], [ -29.1422475, -76.422422 ], [ -29.1414801, -76.4222199 ], [ -29.1409847, -76.421974 ], [ -29.1394434, -76.4209459 ], [ -29.1383323, -76.420029 ], [ -29.137906, -76.419776 ], [ -29.1374108, -76.4195301 ], [ -29.1366613, -76.4193226 ], [ -29.1362206, -76.4190705 ], [ -29.1354391, -76.4187061 ], [ -29.1343015, -76.4182313 ], [ -29.1333659, -76.417886 ], [ -29.1308107, -76.4171457 ], [ -29.1270219, -76.4161148 ], [ -29.1257547, -76.4158358 ], [ -29.1247547, -76.4156975 ], [ -29.123357, -76.4154543 ], [ -29.122897, -76.4153711 ], [ -29.1201734, -76.4148649 ], [ -29.1181238, -76.4143828 ], [ -29.1176418, -76.4143077 ], [ -29.1171189, -76.4142503 ], [ -29.0952258, -76.4124548 ], [ -29.0936465, -76.4122873 ], [ -29.0931694, -76.4122094 ], [ -29.0927894, -76.4121073 ], [ -29.0907581, -76.4114441 ], [ -29.0899453, -76.411249 ], [ -29.0889527, -76.4111087 ], [ -29.0857277, -76.4108072 ], [ -29.0846855, -76.4106878 ], [ -29.0842014, -76.4106129 ], [ -29.0823913, -76.410273 ], [ -29.0779856, -76.4093892 ], [ -29.0770511, -76.4092277 ], [ -29.0741414, -76.40878 ], [ -29.0732483, -76.4086079 ], [ -29.0717631, -76.4081901 ], [ -29.0678416, -76.40684 ], [ -29.0668191, -76.4065103 ], [ -29.0660308, -76.406311 ], [ -29.0651495, -76.4061322 ], [ -29.0632497, -76.4058227 ], [ -29.0605469, -76.4055785 ], [ -29.059492, -76.4054639 ], [ -29.0560951, -76.4049449 ], [ -29.0545222, -76.4047733 ], [ -29.0497146, -76.4042972 ], [ -29.0481693, -76.4041127 ], [ -29.0476968, -76.4040341 ], [ -29.04729, -76.4039367 ], [ -29.0447612, -76.403192 ], [ -29.0439666, -76.4029935 ], [ -29.0425847, -76.4027472 ], [ -29.0381719, -76.4020938 ], [ -29.0372842, -76.4019199 ], [ -29.0369202, -76.4018138 ], [ -29.0365865, -76.401553 ], [ -29.0359398, -76.4008898 ], [ -29.0356148, -76.4006269 ], [ -29.0351448, -76.4003798 ], [ -29.0344001, -76.4001707 ], [ -29.0336264, -76.399658 ], [ -29.0326399, -76.398874 ], [ -29.0322649, -76.3984754 ], [ -29.032078, -76.3980699 ], [ -29.031007, -76.3964547 ], [ -29.0308163, -76.3960487 ], [ -29.0307398, -76.3955042 ], [ -29.0304645, -76.39524 ], [ -29.029263, -76.3943294 ], [ -29.0284101, -76.3935374 ], [ -29.0279951, -76.3932832 ], [ -29.0273593, -76.3930568 ], [ -29.0266495, -76.3928411 ], [ -29.0251866, -76.3924195 ], [ -29.024019, -76.3921172 ], [ -29.0227521, -76.3918382 ], [ -29.0187104, -76.3910639 ], [ -29.0174693, -76.3907795 ], [ -29.0164539, -76.390448 ], [ -29.0158395, -76.3902178 ], [ -29.0117065, -76.3885781 ], [ -29.0087609, -76.3875663 ], [ -29.0073694, -76.3871323 ], [ -29.0061575, -76.3868399 ], [ -29.0023443, -76.3860058 ], [ -29.0011237, -76.3857156 ], [ -29.0000132, -76.3854017 ], [ -28.9972577, -76.384526 ], [ -28.9961359, -76.3842157 ], [ -28.9936142, -76.3836521 ], [ -28.9918381, -76.3833047 ], [ -28.9885141, -76.3827606 ], [ -28.9870579, -76.3825386 ], [ -28.9804732, -76.3816861 ], [ -28.975743, -76.3809031 ], [ -28.9699227, -76.3800142 ], [ -28.9690332, -76.3798396 ], [ -28.9686576, -76.379736 ], [ -28.9659584, -76.378852 ], [ -28.9648939, -76.378529 ], [ -28.9644883, -76.3784325 ], [ -28.9635594, -76.3782703 ], [ -28.9600235, -76.3778058 ], [ -28.9549013, -76.3771765 ], [ -28.9538403, -76.3770658 ], [ -28.9522225, -76.3769218 ], [ -28.9451422, -76.3763266 ], [ -28.9440961, -76.3762139 ], [ -28.9426393, -76.3759919 ], [ -28.9366555, -76.3749217 ], [ -28.9310115, -76.3739712 ], [ -28.930103, -76.3738032 ], [ -28.929288, -76.3736117 ], [ -28.9263944, -76.3727614 ], [ -28.9248837, -76.3723492 ], [ -28.9235922, -76.3720766 ], [ -28.9204958, -76.3714643 ], [ -28.920052, -76.3713769 ], [ -28.9182994, -76.3710212 ], [ -28.9174783, -76.3708304 ], [ -28.9134002, -76.3695089 ], [ -28.9118407, -76.3691073 ], [ -28.9084633, -76.3681739 ], [ -28.9051745, -76.3674093 ], [ -28.9014272, -76.3663747 ], [ -28.8984399, -76.3657327 ], [ -28.8973332, -76.3654174 ], [ -28.8971105, -76.3652929 ], [ -28.897526, -76.3647576 ], [ -28.897599, -76.3644857 ], [ -28.897571, -76.3643494 ], [ -28.8971238, -76.3638155 ], [ -28.8967633, -76.3630027 ], [ -28.8963892, -76.3626044 ], [ -28.8961399, -76.3624813 ], [ -28.8946245, -76.3619019 ], [ -28.8930037, -76.3613383 ], [ -28.8893103, -76.3602916 ], [ -28.8878895, -76.3598627 ], [ -28.8837308, -76.3582275 ], [ -28.8827908, -76.3578843 ], [ -28.8791679, -76.3568244 ], [ -28.8771339, -76.3561632 ], [ -28.8742069, -76.3551517 ], [ -28.8711781, -76.3539918 ], [ -28.869893, -76.353539 ], [ -28.8668443, -76.3527228 ], [ -28.8662408, -76.3524903 ], [ -28.8650578, -76.3518698 ], [ -28.8642602, -76.3515081 ], [ -28.863897, -76.3514009 ], [ -28.8634562, -76.3513131 ], [ -28.8629686, -76.3512418 ], [ -28.8619257, -76.3511256 ], [ -28.8603083, -76.3509794 ], [ -28.8439816, -76.3496242 ], [ -28.8428584, -76.3495651 ], [ -28.8422832, -76.3495549 ], [ -28.8394143, -76.34962 ], [ -28.8388404, -76.3496034 ], [ -28.8377307, -76.34953 ], [ -28.8279298, -76.3487187 ], [ -28.8268222, -76.348645 ], [ -28.8256799, -76.3486069 ], [ -28.8216424, -76.3486082 ], [ -28.8199181, -76.3485886 ], [ -28.8182171, -76.3485143 ], [ -28.8148486, -76.348327 ], [ -28.8137068, -76.3482867 ], [ -28.8125528, -76.3482812 ], [ -28.8085202, -76.348322 ], [ -28.8073725, -76.348298 ], [ -28.8051224, -76.3481809 ], [ -28.7978531, -76.3477466 ], [ -28.7956482, -76.3475852 ], [ -28.7941017, -76.3474026 ], [ -28.789599, -76.3467935 ], [ -28.7881344, -76.3465764 ], [ -28.7872275, -76.3464082 ], [ -28.7855536, -76.3460328 ], [ -28.784378, -76.3457327 ], [ -28.7836594, -76.3455203 ], [ -28.7809728, -76.3446352 ], [ -28.7805823, -76.3445346 ], [ -28.7796931, -76.344362 ], [ -28.773915, -76.3434626 ], [ -28.7668336, -76.3422909 ], [ -28.7659451, -76.3421161 ], [ -28.7629695, -76.3414736 ], [ -28.7620677, -76.3413036 ], [ -28.7587613, -76.3407568 ], [ -28.7558679, -76.3403096 ], [ -28.7530502, -76.3398361 ], [ -28.7515937, -76.3396158 ], [ -28.7505248, -76.3395142 ], [ -28.7483437, -76.3393371 ], [ -28.747209, -76.3392895 ], [ -28.746634, -76.3392967 ], [ -28.7446033, -76.3395547 ], [ -28.7430193, -76.3397185 ], [ -28.74134, -76.3398139 ], [ -28.7288117, -76.3402802 ], [ -28.7265213, -76.3403366 ], [ -28.724794, -76.3403159 ], [ -28.71964, -76.3401684 ], [ -28.7179221, -76.3401351 ], [ -28.7121631, -76.3401931 ], [ -28.7098583, -76.3401911 ], [ -28.7029883, -76.3400034 ], [ -28.696162, -76.3397375 ], [ -28.6955941, -76.3397157 ], [ -28.6933392, -76.3396016 ], [ -28.690646, -76.339362 ], [ -28.6864011, -76.338936 ], [ -28.6843068, -76.3387089 ], [ -28.6756149, -76.3376386 ], [ -28.6740617, -76.3374606 ], [ -28.6719184, -76.3372605 ], [ -28.6648755, -76.3366556 ], [ -28.6527911, -76.3353703 ], [ -28.6430425, -76.334532 ], [ -28.6388631, -76.3340753 ], [ -28.637872, -76.3339363 ], [ -28.6374135, -76.3338538 ], [ -28.636685, -76.3336427 ], [ -28.6339697, -76.3327622 ], [ -28.6328845, -76.3324451 ], [ -28.6273162, -76.331064 ], [ -28.6256375, -76.3306911 ], [ -28.6251805, -76.3306104 ], [ -28.6241395, -76.3304934 ], [ -28.6208896, -76.3302156 ], [ -28.6192324, -76.3301005 ], [ -28.6169454, -76.3300336 ], [ -28.6152214, -76.3300057 ], [ -28.6140702, -76.3300114 ], [ -28.6123515, -76.3300521 ], [ -28.6106438, -76.3301141 ], [ -28.6095382, -76.3301895 ], [ -28.6065929, -76.3306158 ], [ -28.6060651, -76.3306714 ], [ -28.60551, -76.3307058 ], [ -28.6032213, -76.3307671 ], [ -28.5997738, -76.3308227 ], [ -28.5974701, -76.3308373 ], [ -28.5951672, -76.3308249 ], [ -28.594023, -76.3307946 ], [ -28.5923535, -76.3306881 ], [ -28.5825774, -76.3298726 ], [ -28.5809153, -76.329761 ], [ -28.5769131, -76.3296489 ], [ -28.5729748, -76.3294448 ], [ -28.5718407, -76.3293986 ], [ -28.5706912, -76.3293894 ], [ -28.5695411, -76.3294062 ], [ -28.5672565, -76.329476 ], [ -28.566103, -76.3294818 ], [ -28.5643841, -76.3294499 ], [ -28.5598117, -76.3293117 ], [ -28.5581105, -76.3292433 ], [ -28.5509059, -76.3287625 ], [ -28.549205, -76.328693 ], [ -28.5480575, -76.3287155 ], [ -28.5463444, -76.3287736 ], [ -28.5440718, -76.3288592 ], [ -28.5423788, -76.3289426 ], [ -28.5407323, -76.3290665 ], [ -28.5347872, -76.3295829 ], [ -28.5336928, -76.3296688 ], [ -28.5325753, -76.3297329 ], [ -28.5291487, -76.3298416 ], [ -28.5193838, -76.3300093 ], [ -28.5130851, -76.3301758 ], [ -28.511362, -76.3301997 ], [ -28.510213, -76.3301799 ], [ -28.5027831, -76.3299593 ], [ -28.5010796, -76.3298918 ], [ -28.499389, -76.3298062 ], [ -28.4965377, -76.3297073 ], [ -28.4936855, -76.3296188 ], [ -28.4919594, -76.3295924 ], [ -28.4896684, -76.3296437 ], [ -28.4856756, -76.3297789 ], [ -28.4833805, -76.3298234 ], [ -28.4822563, -76.3298809 ], [ -28.481709, -76.3299232 ], [ -28.4806637, -76.3300376 ], [ -28.4789757, -76.3299505 ], [ -28.4750716, -76.3297127 ], [ -28.4662224, -76.329105 ], [ -28.464543, -76.3290084 ], [ -28.4554723, -76.3286261 ], [ -28.4464567, -76.3281745 ], [ -28.4362759, -76.3277139 ], [ -28.4294551, -76.3274475 ], [ -28.4249027, -76.3272848 ], [ -28.4243305, -76.3272662 ], [ -28.4197692, -76.327115 ], [ -28.4186451, -76.3270554 ], [ -28.418096, -76.3270122 ], [ -28.4165257, -76.3268446 ], [ -28.4124552, -76.3263352 ], [ -28.4108723, -76.3261703 ], [ -28.4086804, -76.3260027 ], [ -28.3943247, -76.3250004 ], [ -28.392708, -76.3248562 ], [ -28.387429, -76.3243123 ], [ -28.384758, -76.3240562 ], [ -28.3837257, -76.3239373 ], [ -28.3827329, -76.3238011 ], [ -28.3808423, -76.3232874 ], [ -28.3804116, -76.3231979 ], [ -28.3794244, -76.3230558 ], [ -28.3767648, -76.3227972 ], [ -28.3654031, -76.3218219 ], [ -28.3638062, -76.3216669 ], [ -28.3617784, -76.321409 ], [ -28.3553162, -76.3205154 ], [ -28.3371951, -76.3181392 ], [ -28.3362648, -76.3179774 ], [ -28.3358607, -76.3178825 ], [ -28.3325252, -76.3169436 ], [ -28.3270128, -76.3155532 ], [ -28.3239667, -76.3147383 ], [ -28.3227717, -76.3144431 ], [ -28.3214478, -76.3141799 ], [ -28.3173295, -76.3134368 ], [ -28.3121249, -76.3125868 ], [ -28.3107897, -76.3123291 ], [ -28.3093302, -76.3119078 ], [ -28.3065983, -76.3110312 ], [ -28.3050349, -76.3106325 ], [ -28.3021891, -76.3099581 ], [ -28.300704, -76.3095422 ], [ -28.3001482, -76.3093037 ], [ -28.2983725, -76.3084486 ], [ -28.2978249, -76.3082091 ], [ -28.2971676, -76.3079856 ], [ -28.2956114, -76.307585 ], [ -28.2935486, -76.3071108 ], [ -28.2926592, -76.3069386 ], [ -28.2911822, -76.3067269 ], [ -28.2839998, -76.305865 ], [ -28.2803659, -76.3054569 ], [ -28.2793032, -76.3053532 ], [ -28.2781902, -76.3052847 ], [ -28.2776163, -76.3052764 ], [ -28.2741787, -76.3053401 ], [ -28.2736037, -76.3053361 ], [ -28.2730356, -76.3053136 ], [ -28.2719274, -76.3052424 ], [ -28.2702967, -76.30511 ], [ -28.2686912, -76.3049599 ], [ -28.2676519, -76.3048449 ], [ -28.2640895, -76.3044018 ], [ -28.2616213, -76.3040514 ], [ -28.2601853, -76.3038261 ], [ -28.2597342, -76.3037423 ], [ -28.2589035, -76.3035523 ], [ -28.2565611, -76.3029539 ], [ -28.2557012, -76.3027737 ], [ -28.2552194, -76.302697 ], [ -28.2537036, -76.3025035 ], [ -28.2485001, -76.3019271 ], [ -28.2421612, -76.301116 ], [ -28.2420093, -76.3008942 ], [ -28.2369842, -76.3003898 ], [ -28.2334376, -76.2999405 ], [ -28.2323865, -76.2998269 ], [ -28.231281, -76.2997553 ], [ -28.2301385, -76.2997368 ], [ -28.2272831, -76.2998104 ], [ -28.2238456, -76.2998767 ], [ -28.2226968, -76.2998878 ], [ -28.2215502, -76.299876 ], [ -28.2192783, -76.2997919 ], [ -28.2147585, -76.2995939 ], [ -28.2130703, -76.2995107 ], [ -28.2119594, -76.2994366 ], [ -28.2109022, -76.299332 ], [ -28.2073156, -76.2988989 ], [ -28.2062558, -76.2987956 ], [ -28.1974674, -76.298156 ], [ -28.1963788, -76.2980687 ], [ -28.1953264, -76.2979603 ], [ -28.1918219, -76.2974919 ], [ -28.1881744, -76.2970911 ], [ -28.1871609, -76.2969623 ], [ -28.1828328, -76.2962915 ], [ -28.1795656, -76.2957341 ], [ -28.1790969, -76.2956577 ], [ -28.175703, -76.2951473 ], [ -28.1684613, -76.2938052 ], [ -28.1671843, -76.2935307 ], [ -28.1664155, -76.2933286 ], [ -28.1638984, -76.2925844 ], [ -28.1612758, -76.2918618 ], [ -28.1571515, -76.2905545 ], [ -28.1553148, -76.2900308 ], [ -28.1541064, -76.2897394 ], [ -28.1515707, -76.289186 ], [ -28.149809, -76.2888371 ], [ -28.1484066, -76.288599 ], [ -28.1473577, -76.2884902 ], [ -28.1462675, -76.2884051 ], [ -28.1446058, -76.2882988 ], [ -28.1429105, -76.2882245 ], [ -28.1400631, -76.2881338 ], [ -28.1360556, -76.2880603 ], [ -28.1308984, -76.2879885 ], [ -28.1291856, -76.2879483 ], [ -28.1263459, -76.2878451 ], [ -28.1218666, -76.2876079 ], [ -28.1207695, -76.2875267 ], [ -28.1197334, -76.28741 ], [ -28.1164432, -76.2868635 ], [ -28.1144439, -76.2865951 ], [ -28.1134824, -76.2864462 ], [ -28.1123023, -76.2861501 ], [ -28.1115741, -76.2859387 ], [ -28.1098496, -76.2853946 ], [ -28.1078511, -76.2847288 ], [ -28.106542, -76.2842823 ], [ -28.105297, -76.2838246 ], [ -28.1044227, -76.2834723 ], [ -28.1039072, -76.2832288 ], [ -28.1036434, -76.2829648 ], [ -28.1035182, -76.2826936 ], [ -28.1034268, -76.2821495 ], [ -28.1034237, -76.2813327 ], [ -28.1032326, -76.2806541 ], [ -28.1026692, -76.2801255 ], [ -28.1021426, -76.2797374 ], [ -28.1015078, -76.2793578 ], [ -28.1009271, -76.2791227 ], [ -28.0997983, -76.278815 ], [ -28.0965665, -76.278041 ], [ -28.0849119, -76.2754169 ], [ -28.083351, -76.2750179 ], [ -28.0795691, -76.2739947 ], [ -28.0782911, -76.2737213 ], [ -28.0775097, -76.2735219 ], [ -28.0764037, -76.2732093 ], [ -28.075065, -76.2727666 ], [ -28.0730211, -76.2719462 ], [ -28.0723945, -76.271719 ], [ -28.071336, -76.2713973 ], [ -28.0694064, -76.2708916 ], [ -28.0685816, -76.2707029 ], [ -28.0668157, -76.2703555 ], [ -28.0636663, -76.2697656 ], [ -28.0609143, -76.2692756 ], [ -28.0585117, -76.2689049 ], [ -28.0519422, -76.2678087 ], [ -28.0504888, -76.2675905 ], [ -28.0453865, -76.2669679 ], [ -28.0395707, -76.2663903 ], [ -28.0355413, -76.2658715 ], [ -28.0350232, -76.2658105 ], [ -28.0344834, -76.2657677 ], [ -28.033375, -76.2656971 ], [ -28.0283347, -76.2654367 ], [ -28.0233738, -76.2650983 ], [ -28.0205285, -76.2650178 ], [ -28.0153858, -76.2649203 ], [ -28.0113763, -76.2648974 ], [ -28.0085136, -76.264925 ], [ -28.0027988, -76.2650331 ], [ -28.0016541, -76.2650307 ], [ -28.001092, -76.2650019 ], [ -28.0000071, -76.2649148 ], [ -27.9973688, -76.2646487 ], [ -27.9957536, -76.2645082 ], [ -27.9947086, -76.2643966 ], [ -27.9942358, -76.2643195 ], [ -27.9938382, -76.2642217 ], [ -27.9931646, -76.2640004 ], [ -27.9915774, -76.263435 ], [ -27.990431, -76.2631305 ], [ -27.9891775, -76.2628519 ], [ -27.9887343, -76.2627649 ], [ -27.9877706, -76.2626183 ], [ -27.9847123, -76.2622448 ], [ -27.9832122, -76.2620445 ], [ -27.9821281, -76.2615646 ], [ -27.9811743, -76.2610704 ], [ -27.98061, -76.2605423 ], [ -27.9796169, -76.259202 ], [ -27.9785103, -76.2580045 ], [ -27.9781876, -76.257744 ], [ -27.9776033, -76.2573594 ], [ -27.9763117, -76.2566025 ], [ -27.9760473, -76.2564817 ], [ -27.9753609, -76.2562642 ], [ -27.9746233, -76.2560551 ], [ -27.9722891, -76.2554556 ], [ -27.9720475, -76.2553329 ], [ -27.9716858, -76.2552254 ], [ -27.9708784, -76.2550334 ], [ -27.9686895, -76.2545944 ], [ -27.9685621, -76.2545695 ], [ -27.9678522, -76.2520599 ], [ -27.9640139, -76.2492442 ], [ -27.9576693, -76.2471333 ], [ -27.9546024, -76.248685 ], [ -27.9457448, -76.2497414 ], [ -27.9355594, -76.248564 ], [ -27.9274619, -76.2482264 ], [ -27.9163267, -76.246525 ], [ -27.9089409, -76.2435751 ], [ -27.9045557, -76.2416053 ], [ -27.8910681, -76.2421401 ], [ -27.8826755, -76.2420328 ], [ -27.8713611, -76.2417109 ], [ -27.8618491, -76.2399982 ], [ -27.8549964, -76.2391147 ], [ -27.8442014, -76.2408596 ], [ -27.8338268, -76.2402242 ], [ -27.8218777, -76.2399801 ], [ -27.8083182, -76.2397437 ], [ -27.7948877, -76.2373584 ], [ -27.7885404, -76.2348598 ], [ -27.7818597, -76.2322093 ], [ -27.7637441, -76.2240173 ], [ -27.7615982, -76.2215738 ], [ -27.7572413, -76.2196014 ], [ -27.7445755, -76.2182834 ], [ -27.7345576, -76.2177955 ], [ -27.724401, -76.2194552 ], [ -27.7203421, -76.2209319 ], [ -27.7218109, -76.2230723 ], [ -27.7195678, -76.2233531 ], [ -27.7184639, -76.2231486 ], [ -27.7168973, -76.2229858 ], [ -27.7136352, -76.2227437 ], [ -27.7102416, -76.2226059 ], [ -27.7096907, -76.2225682 ], [ -27.708115, -76.2224086 ], [ -27.7075613, -76.2223733 ], [ -27.7069927, -76.2223593 ], [ -27.7058521, -76.2223739 ], [ -27.7047246, -76.2224176 ], [ -27.703654, -76.2225064 ], [ -27.7031286, -76.222566 ], [ -27.7016108, -76.2227558 ], [ -27.7011296, -76.2228304 ], [ -27.7002545, -76.2230044 ], [ -27.6973219, -76.2236531 ], [ -27.6955542, -76.2239982 ], [ -27.6905505, -76.2249046 ], [ -27.6858605, -76.2256826 ], [ -27.6841519, -76.2260437 ], [ -27.6828244, -76.2263018 ], [ -27.6751, -76.2277065 ], [ -27.6733553, -76.2280587 ], [ -27.6715221, -76.2285807 ], [ -27.6711245, -76.2286775 ], [ -27.6702296, -76.2288477 ], [ -27.6659198, -76.229517 ], [ -27.6617667, -76.2302403 ], [ -27.6594094, -76.2306247 ], [ -27.656984, -76.2309858 ], [ -27.6559522, -76.2311022 ], [ -27.6548248, -76.2311424 ], [ -27.6536807, -76.2311335 ], [ -27.6519765, -76.23109 ], [ -27.648548, -76.2311149 ], [ -27.6474025, -76.2311102 ], [ -27.6428412, -76.2310285 ], [ -27.6394155, -76.2310324 ], [ -27.6359869, -76.2310071 ], [ -27.6348439, -76.2310266 ], [ -27.6320136, -76.2311202 ], [ -27.6297397, -76.2311782 ], [ -27.6285968, -76.2311905 ], [ -27.6280268, -76.2311796 ], [ -27.6274801, -76.2311402 ], [ -27.6269852, -76.2310728 ], [ -27.6253979, -76.2309171 ], [ -27.6205103, -76.2305334 ], [ -27.6124873, -76.229814 ], [ -27.6013585, -76.2287395 ], [ -27.5997885, -76.2285755 ], [ -27.5960692, -76.2279426 ], [ -27.5946247, -76.227723 ], [ -27.5936263, -76.2275902 ], [ -27.5920272, -76.2274431 ], [ -27.5882095, -76.2271583 ], [ -27.5874018, -76.2271096 ], [ -27.5864022, -76.2269838 ], [ -27.5845597, -76.2266621 ], [ -27.579183, -76.2256466 ], [ -27.5769058, -76.2252366 ], [ -27.5710234, -76.2243966 ], [ -27.5695195, -76.2242007 ], [ -27.5684796, -76.2240853 ], [ -27.5616344, -76.2233997 ], [ -27.5606297, -76.2232697 ], [ -27.5601629, -76.2231916 ], [ -27.5584028, -76.2228442 ], [ -27.5571268, -76.2225718 ], [ -27.5554403, -76.2222041 ], [ -27.5542306, -76.2219142 ], [ -27.5535739, -76.2216928 ], [ -27.5511846, -76.2206078 ], [ -27.5505798, -76.2203769 ], [ -27.5502236, -76.2202707 ], [ -27.5497935, -76.2201808 ], [ -27.5488405, -76.22003 ], [ -27.5478431, -76.2198971 ], [ -27.5402786, -76.2189373 ], [ -27.5339188, -76.2180242 ], [ -27.5319899, -76.2177326 ], [ -27.5310779, -76.2175685 ], [ -27.5285102, -76.2170277 ], [ -27.5221724, -76.2156523 ], [ -27.5205294, -76.2152751 ], [ -27.5198071, -76.2150639 ], [ -27.5188396, -76.2147255 ], [ -27.5135798, -76.2127813 ], [ -27.50789, -76.2104209 ], [ -27.5065178, -76.2099865 ], [ -27.5038875, -76.2092683 ], [ -27.5032203, -76.2090462 ], [ -27.5029607, -76.208925 ], [ -27.5026873, -76.2086622 ], [ -27.5025625, -76.2083911 ], [ -27.5023902, -76.2077116 ], [ -27.50235, -76.2075764 ], [ -27.5021927, -76.2071703 ], [ -27.5011655, -76.2061088 ], [ -27.4997121, -76.2043728 ], [ -27.4982759, -76.2031974 ], [ -27.497904, -76.2029397 ], [ -27.4974233, -76.2026924 ], [ -27.4963517, -76.2023732 ], [ -27.4920088, -76.2012939 ], [ -27.4908874, -76.2009849 ], [ -27.4881481, -76.2001147 ], [ -27.4844782, -76.1988996 ], [ -27.4830887, -76.1984675 ], [ -27.4815106, -76.1980741 ], [ -27.4774108, -76.1971283 ], [ -27.4762161, -76.1968357 ], [ -27.4729494, -76.1958908 ], [ -27.4705012, -76.1951369 ], [ -27.469368, -76.1946659 ], [ -27.4665835, -76.1931733 ], [ -27.4660141, -76.1927887 ], [ -27.4644878, -76.1916177 ], [ -27.4640889, -76.1913645 ], [ -27.4614893, -76.1901528 ], [ -27.4599842, -76.1892707 ], [ -27.4593908, -76.1890386 ], [ -27.4586863, -76.1888242 ], [ -27.4582819, -76.1887282 ], [ -27.4578267, -76.1886445 ], [ -27.4573289, -76.1885805 ], [ -27.4567793, -76.1885444 ], [ -27.4556425, -76.1885238 ], [ -27.4533644, -76.1885324 ], [ -27.4522233, -76.1885185 ], [ -27.4505489, -76.1884379 ], [ -27.4467063, -76.1881823 ], [ -27.4456314, -76.1880916 ], [ -27.4445921, -76.1879792 ], [ -27.4400392, -76.1874138 ], [ -27.4384951, -76.1872402 ], [ -27.436335, -76.1870653 ], [ -27.4308639, -76.1866853 ], [ -27.429257, -76.1865429 ], [ -27.426182, -76.1861879 ], [ -27.4241943, -76.185922 ], [ -27.4183452, -76.1848351 ], [ -27.4141338, -76.1841362 ], [ -27.4082476, -76.183062 ], [ -27.4068089, -76.1828415 ], [ -27.4057573, -76.1827377 ], [ -27.4046711, -76.1826524 ], [ -27.3860515, -76.1813772 ], [ -27.3849847, -76.1812823 ], [ -27.3829797, -76.1810246 ], [ -27.3810246, -76.1807442 ], [ -27.3800785, -76.1805915 ], [ -27.3787629, -76.1803322 ], [ -27.3783593, -76.180236 ], [ -27.3756973, -76.179527 ], [ -27.3715455, -76.1782287 ], [ -27.3703094, -76.1777716 ], [ -27.3682527, -76.1767997 ], [ -27.3672807, -76.1763078 ], [ -27.3655221, -76.1753032 ], [ -27.3650322, -76.1750572 ], [ -27.3644898, -76.1748177 ], [ -27.3637742, -76.1746068 ], [ -27.3606393, -76.1738164 ], [ -27.3593875, -76.173538 ], [ -27.3570488, -76.1731499 ], [ -27.3517141, -76.1723659 ], [ -27.3503484, -76.172121 ], [ -27.3488487, -76.1717118 ], [ -27.3460623, -76.1708507 ], [ -27.3449729, -76.1705358 ], [ -27.3420934, -76.1698774 ], [ -27.3399227, -76.1694377 ], [ -27.335716, -76.168738 ], [ -27.3342518, -76.1685287 ], [ -27.3326748, -76.1683722 ], [ -27.3278567, -76.1679574 ], [ -27.3267571, -76.1678859 ], [ -27.3261952, -76.1678655 ], [ -27.3188184, -76.1677289 ], [ -27.3131747, -76.1675517 ], [ -27.3114906, -76.167485 ], [ -27.3103899, -76.1674166 ], [ -27.3087781, -76.1672807 ], [ -27.3002876, -76.1664937 ], [ -27.29975, -76.1664488 ], [ -27.2970283, -76.1662496 ], [ -27.2855414, -76.1654604 ], [ -27.2844632, -76.1653749 ], [ -27.2834171, -76.1652671 ], [ -27.2809306, -76.1649367 ], [ -27.2745736, -76.164032 ], [ -27.2659885, -76.1626954 ], [ -27.257675, -76.1615111 ], [ -27.2561669, -76.1613223 ], [ -27.2540923, -76.1610993 ], [ -27.2499066, -76.1606709 ], [ -27.2482973, -76.1605364 ], [ -27.2471832, -76.1604808 ], [ -27.2449254, -76.1604079 ], [ -27.2381326, -76.1602444 ], [ -27.2278959, -76.1602344 ], [ -27.2233496, -76.160194 ], [ -27.2159543, -76.1601787 ], [ -27.2114095, -76.1602318 ], [ -27.2097052, -76.1602312 ], [ -27.2080463, -76.1601363 ], [ -27.1971096, -76.1593847 ], [ -27.195448, -76.1592921 ], [ -27.1869339, -76.1591563 ], [ -27.1852294, -76.1591567 ], [ -27.1840986, -76.1591886 ], [ -27.1807385, -76.1593312 ], [ -27.1796391, -76.1594 ], [ -27.1791011, -76.1594446 ], [ -27.1775795, -76.1596296 ], [ -27.1736659, -76.1601848 ], [ -27.1726368, -76.1603001 ], [ -27.1720903, -76.1603396 ], [ -27.1698587, -76.1604434 ], [ -27.1647794, -76.1605979 ], [ -27.1602996, -76.1607899 ], [ -27.1580999, -76.1609284 ], [ -27.1575816, -76.1609849 ], [ -27.1567129, -76.1611599 ], [ -27.1543214, -76.161742 ], [ -27.1530414, -76.1620123 ], [ -27.1512681, -76.1623534 ], [ -27.1463306, -76.1632743 ], [ -27.1411385, -76.16411 ], [ -27.1392238, -76.164404 ], [ -27.1377357, -76.1646048 ], [ -27.1315165, -76.1652785 ], [ -27.1293903, -76.1654739 ], [ -27.127169, -76.1655911 ], [ -27.1238059, -76.16573 ], [ -27.1226702, -76.1657508 ], [ -27.1181189, -76.1657466 ], [ -27.1164152, -76.1657697 ], [ -27.1124715, -76.1659061 ], [ -27.1068566, -76.1661267 ], [ -27.1057469, -76.1661872 ], [ -27.1046764, -76.1662795 ], [ -27.1011064, -76.1667012 ], [ -27.1000554, -76.1668064 ], [ -27.0995088, -76.1668448 ], [ -27.0983757, -76.1668642 ], [ -27.0972406, -76.166843 ], [ -27.0927383, -76.1666845 ], [ -27.0899313, -76.1665702 ], [ -27.079888, -76.1660883 ], [ -27.0776596, -76.1659766 ], [ -27.0760045, -76.1658762 ], [ -27.0694427, -76.1654249 ], [ -27.0678196, -76.1652972 ], [ -27.0657229, -76.1650847 ], [ -27.0626278, -76.1647414 ], [ -27.0606717, -76.1644638 ], [ -27.0595106, -76.1641644 ], [ -27.0576469, -76.1636482 ], [ -27.0564432, -76.1633612 ], [ -27.054239, -76.1629284 ], [ -27.0524267, -76.1625996 ], [ -27.0514682, -76.1624548 ], [ -27.0509598, -76.1623936 ], [ -27.0504208, -76.1623494 ], [ -27.0498565, -76.1623368 ], [ -27.0493016, -76.16237 ], [ -27.0487915, -76.1626137 ], [ -27.0484817, -76.1627279 ], [ -27.0471417, -76.1631678 ], [ -27.0460569, -76.1634827 ], [ -27.0440159, -76.1639572 ], [ -27.0406205, -76.1646826 ], [ -27.0401669, -76.1647644 ], [ -27.0391956, -76.1649055 ], [ -27.0376491, -76.165079 ], [ -27.0323368, -76.1655675 ], [ -27.0254773, -76.1662293 ], [ -27.0222208, -76.1664748 ], [ -27.0205486, -76.1665545 ], [ -27.0194134, -76.1665738 ], [ -27.0188764, -76.1665293 ], [ -27.0167749, -76.1663201 ], [ -27.012617, -76.1658767 ], [ -27.0094608, -76.1655658 ], [ -27.0083855, -76.1654759 ], [ -27.0067166, -76.1653921 ], [ -27.0055984, -76.1654419 ], [ -27.003969, -76.1655641 ], [ -27.0013996, -76.1658559 ], [ -27.0003402, -76.1659545 ], [ -26.9997874, -76.1659872 ], [ -26.9992175, -76.1659945 ], [ -26.9980888, -76.165962 ], [ -26.9958832, -76.1658285 ], [ -26.9926096, -76.1655959 ], [ -26.9904853, -76.1653994 ], [ -26.988945, -76.1652245 ], [ -26.988029, -76.1650642 ], [ -26.9863233, -76.1645194 ], [ -26.9855887, -76.1643104 ], [ -26.9851518, -76.1642252 ], [ -26.9836746, -76.1640212 ], [ -26.981116, -76.1637228 ], [ -26.9800354, -76.1636375 ], [ -26.9794707, -76.1636197 ], [ -26.9777653, -76.1636085 ], [ -26.9737835, -76.1636137 ], [ -26.972648, -76.1635951 ], [ -26.9715322, -76.1635446 ], [ -26.9676897, -76.1632925 ], [ -26.9524122, -76.1622143 ], [ -26.9503156, -76.162001 ], [ -26.9462503, -76.161512 ], [ -26.9437874, -76.1611712 ], [ -26.9374656, -76.1602542 ], [ -26.9361038, -76.1600086 ], [ -26.9344465, -76.1596349 ], [ -26.9324512, -76.1591497 ], [ -26.9313682, -76.1588335 ], [ -26.9308212, -76.1585946 ], [ -26.928825, -76.1576178 ], [ -26.9270998, -76.1569125 ], [ -26.9253021, -76.156217 ], [ -26.9242945, -76.1558886 ], [ -26.923912, -76.1557885 ], [ -26.920974, -76.1551451 ], [ -26.9202102, -76.1549428 ], [ -26.9191034, -76.1544687 ], [ -26.916582, -76.1532485 ], [ -26.912291, -76.1510241 ], [ -26.9112956, -76.1505345 ], [ -26.9050346, -76.1479422 ], [ -26.9019929, -76.1464801 ], [ -26.9009029, -76.146003 ], [ -26.8992831, -76.1454437 ], [ -26.8942156, -76.1438015 ], [ -26.8852278, -76.1404928 ], [ -26.8787279, -76.1384286 ], [ -26.8737946, -76.1367642 ], [ -26.8731901, -76.1365334 ], [ -26.8723835, -76.1361746 ], [ -26.868518, -76.1342025 ], [ -26.8676652, -76.1338503 ], [ -26.86731, -76.1337439 ], [ -26.8645416, -76.1330598 ], [ -26.8628775, -76.1326903 ], [ -26.8614972, -76.132451 ], [ -26.8595991, -76.1321525 ], [ -26.8580964, -76.1319607 ], [ -26.8575596, -76.131915 ], [ -26.8535909, -76.1319503 ], [ -26.8524551, -76.1319447 ], [ -26.8434139, -76.1317371 ], [ -26.8417115, -76.1317495 ], [ -26.8383171, -76.1318104 ], [ -26.8371813, -76.1318048 ], [ -26.8360692, -76.1317516 ], [ -26.8322438, -76.1314925 ], [ -26.8311225, -76.1314485 ], [ -26.8305589, -76.1314478 ], [ -26.8294597, -76.131516 ], [ -26.8163781, -76.1289108 ], [ -26.8280098, -76.129952 ], [ -26.8295573, -76.1288213 ], [ -26.8242096, -76.1281498 ], [ -26.8138187, -76.1262039 ], [ -26.8090788, -76.1243272 ], [ -26.8112398, -76.122368 ], [ -26.8140124, -76.1195804 ], [ -26.8070945, -76.1185338 ], [ -26.7948229, -76.1160622 ], [ -26.7860249, -76.1148663 ], [ -26.777848, -76.1132179 ], [ -26.7731232, -76.1117168 ], [ -26.7649553, -76.1104443 ], [ -26.7586607, -76.1085679 ], [ -26.7539398, -76.1070665 ], [ -26.7432642, -76.1053436 ], [ -26.735719, -76.1032418 ], [ -26.7247732, -76.1047547 ], [ -26.7147616, -76.1059654 ], [ -26.7050782, -76.1088312 ], [ -26.696017, -76.111621 ], [ -26.678479, -76.1133611 ], [ -26.6693783, -76.1120105 ], [ -26.6621471, -76.1089278 ], [ -26.65931, -76.1064453 ], [ -26.6654016, -76.1027084 ], [ -26.6669424, -76.1025469 ], [ -26.6677687, -76.1021902 ], [ -26.6681637, -76.1019344 ], [ -26.6683755, -76.1016682 ], [ -26.6688101, -76.1007211 ], [ -26.6692036, -76.1003243 ], [ -26.6701301, -76.0995382 ], [ -26.6702807, -76.0992692 ], [ -26.6702452, -76.0991334 ], [ -26.6700771, -76.0990024 ], [ -26.6692703, -76.0986428 ], [ -26.668221, -76.0983227 ], [ -26.6670896, -76.0980175 ], [ -26.6662832, -76.0978275 ], [ -26.6658382, -76.0977421 ], [ -26.6639858, -76.0974306 ], [ -26.6597364, -76.0967524 ], [ -26.6530024, -76.0957476 ], [ -26.6507631, -76.0953324 ], [ -26.6472772, -76.0946362 ], [ -26.6455831, -76.0942771 ], [ -26.6399109, -76.0929461 ], [ -26.63838, -76.092545 ], [ -26.6373862, -76.0922141 ], [ -26.6350103, -76.0912876 ], [ -26.6337596, -76.0908334 ], [ -26.6326821, -76.0905177 ], [ -26.6292298, -76.0896175 ], [ -26.6281501, -76.089302 ], [ -26.6235975, -76.0877417 ], [ -26.6226624, -76.0874018 ], [ -26.6218191, -76.0870477 ], [ -26.6198286, -76.0860697 ], [ -26.6186811, -76.0854468 ], [ -26.6179949, -76.0849287 ], [ -26.6169079, -76.0840133 ], [ -26.6158843, -76.0832344 ], [ -26.6127216, -76.0811941 ], [ -26.6116444, -76.0802767 ], [ -26.6113543, -76.0798752 ], [ -26.6113434, -76.0797395 ], [ -26.6124812, -76.0768946 ], [ -26.6129232, -76.0751281 ], [ -26.612915, -76.0747191 ], [ -26.6126044, -76.0741811 ], [ -26.6094924, -76.0704432 ], [ -26.6079138, -76.0680245 ], [ -26.6075808, -76.0677643 ], [ -26.607353, -76.0676395 ], [ -26.6067623, -76.0674074 ], [ -26.6068789, -76.0668646 ], [ -26.6076097, -76.0651039 ], [ -26.6077565, -76.0645605 ], [ -26.6068054, -76.062258 ], [ -26.6064852, -76.0618572 ], [ -26.6054495, -76.060798 ], [ -26.6050627, -76.0602612 ], [ -26.6051992, -76.059719 ], [ -26.6058632, -76.0582303 ], [ -26.6072561, -76.0562162 ], [ -26.6073064, -76.0559453 ], [ -26.607241, -76.0558101 ], [ -26.6068295, -76.0555563 ], [ -26.606303, -76.0553155 ], [ -26.6056634, -76.0550913 ], [ -26.6035883, -76.0544458 ], [ -26.6029512, -76.0542214 ], [ -26.602688, -76.0541009 ], [ -26.6024065, -76.0538376 ], [ -26.6018998, -76.0530301 ], [ -26.6014195, -76.0524986 ], [ -26.5994791, -76.0515162 ], [ -26.5984588, -76.0507373 ], [ -26.5980329, -76.0504853 ], [ -26.5977425, -76.0503682 ], [ -26.5973741, -76.0502655 ], [ -26.5965113, -76.0500907 ], [ -26.5951089, -76.0498623 ], [ -26.591749, -76.0493608 ], [ -26.5910425, -76.0492568 ], [ -26.6219316, -76.0456658 ], [ -26.6405711, -76.0392248 ], [ -26.6271777, -76.0257138 ], [ -26.6212817, -76.0170916 ], [ -26.6355574, -76.0143955 ], [ -26.6339307, -76.0084754 ], [ -26.6504164, -76.0067969 ], [ -26.6189782, -75.9948365 ], [ -26.5806881, -75.9814572 ], [ -26.5615715, -75.970261 ], [ -26.559453, -75.9602227 ], [ -26.5658161, -75.9536594 ], [ -26.5658155, -75.9459379 ], [ -26.5769866, -75.9384994 ], [ -26.5854526, -75.9348956 ], [ -26.6082093, -75.9337344 ], [ -26.6182522, -75.9302577 ], [ -26.64201, -75.9205998 ], [ -26.6578177, -75.9122298 ], [ -26.6619968, -75.9052794 ], [ -26.6667252, -75.901803 ], [ -26.6771144, -75.9001126 ], [ -26.6892365, -75.8976617 ], [ -26.6876179, -75.8936736 ], [ -26.7291332, -75.8785933 ], [ -26.745396, -75.872405 ], [ -26.7563338, -75.8630035 ], [ -26.7709665, -75.8553997 ], [ -26.7866031, -75.8457355 ], [ -26.8111846, -75.8378625 ], [ -26.8242305, -75.8327019 ], [ -26.83252, -75.8265169 ], [ -26.8381522, -75.8190482 ], [ -26.8437914, -75.8122227 ], [ -26.8588943, -75.8068007 ], [ -26.8750169, -75.8006044 ], [ -26.8885646, -75.7969838 ], [ -26.9000301, -75.7920402 ], [ -26.9282326, -75.7885245 ], [ -26.9417892, -75.7861873 ], [ -26.95688, -75.7826889 ], [ -26.9750556, -75.7775116 ], [ -26.9891248, -75.7754281 ], [ -27.0041524, -75.7706403 ], [ -27.0186384, -75.7655954 ], [ -27.0362807, -75.7614436 ], [ -27.0518086, -75.7569092 ], [ -27.0642742, -75.7546958 ], [ -27.0731059, -75.7532616 ], [ -27.0834613, -75.7506659 ], [ -27.0906452, -75.7471764 ], [ -27.1018849, -75.7405901 ], [ -27.1178759, -75.7356643 ], [ -27.1370219, -75.7316301 ], [ -27.1520594, -75.7294057 ], [ -27.1540011, -75.7259276 ], [ -27.161182, -75.7230792 ], [ -27.1767114, -75.7204661 ], [ -27.1922918, -75.7191381 ], [ -27.2030457, -75.7148639 ], [ -27.2179957, -75.7113491 ], [ -27.2412834, -75.7080665 ], [ -27.2620515, -75.7067187 ], [ -27.2905604, -75.7040585 ], [ -27.3206613, -75.7021615 ], [ -27.3423767, -75.6993884 ], [ -27.3600577, -75.6990712 ], [ -27.3891802, -75.6985836 ], [ -27.4150858, -75.6965605 ], [ -27.4385014, -75.6964735 ], [ -27.4629085, -75.6956083 ], [ -27.4763701, -75.6945267 ], [ -27.4876398, -75.6917807 ], [ -27.5030322, -75.6885029 ], [ -27.5225412, -75.6846926 ], [ -27.5389041, -75.6806366 ], [ -27.554272, -75.6773555 ], [ -27.5660512, -75.6748608 ], [ -27.5824822, -75.6720877 ], [ -27.5917478, -75.6708891 ], [ -27.6037392, -75.6643354 ], [ -27.6038793, -75.6575621 ], [ -27.6197486, -75.6521668 ], [ -27.6558096, -75.6419194 ], [ -27.6650244, -75.6379382 ], [ -27.6895559, -75.6351425 ], [ -27.7019906, -75.6319316 ], [ -27.7123778, -75.6269978 ], [ -27.74124, -75.62323 ], [ -27.7185683, -75.6094851 ], [ -27.7008576, -75.6018562 ], [ -27.6945629, -75.5943278 ], [ -27.6768224, -75.5859101 ], [ -27.6729895, -75.5772672 ], [ -27.6587412, -75.5727686 ], [ -27.6571288, -75.5682095 ], [ -27.6365296, -75.5546065 ], [ -27.5901573, -75.55907 ], [ -27.5604031, -75.5577836 ], [ -27.5379992, -75.5531557 ], [ -27.534419, -75.5468724 ], [ -27.5098797, -75.5381571 ], [ -27.4929296, -75.5391711 ], [ -27.4776261, -75.5363983 ], [ -27.4519722, -75.5393331 ], [ -27.4256582, -75.5419527 ], [ -27.4056384, -75.5445462 ], [ -27.3924284, -75.5450665 ], [ -27.3820546, -75.5400652 ], [ -27.3728944, -75.5341145 ], [ -27.3689206, -75.5306647 ], [ -27.361932, -75.5295869 ], [ -27.3522268, -75.524897 ], [ -27.3476139, -75.5211341 ], [ -27.3342544, -75.5185029 ], [ -27.3142916, -75.5218754 ], [ -27.3027522, -75.5178194 ], [ -27.2969045, -75.514217 ], [ -27.2811787, -75.5142667 ], [ -27.2733657, -75.5089381 ], [ -27.2643858, -75.5053447 ], [ -27.2709292, -75.4977677 ], [ -27.2620712, -75.4965354 ], [ -27.2432234, -75.4965921 ], [ -27.2136655, -75.4960481 ], [ -27.1941069, -75.4942135 ], [ -27.1826572, -75.4909387 ], [ -27.1681729, -75.4900329 ], [ -27.1418032, -75.4902583 ], [ -27.1260414, -75.4887233 ], [ -27.0971441, -75.4884776 ], [ -27.0742355, -75.4888446 ], [ -27.0584283, -75.4857308 ], [ -27.0263232, -75.4831216 ], [ -26.9973504, -75.482529 ], [ -26.9779915, -75.4805576 ], [ -26.9526278, -75.4826092 ], [ -26.9205975, -75.4819529 ], [ -26.8970191, -75.4802175 ], [ -26.9025399, -75.4747784 ], [ -26.885609, -75.475157 ], [ -26.8776899, -75.4788279 ], [ -26.8564387, -75.4753142 ], [ -26.8389747, -75.4725023 ], [ -26.8111604, -75.4708643 ], [ -26.7777468, -75.4678452 ], [ -26.7538207, -75.4723524 ], [ -26.7467193, -75.4688164 ], [ -26.7480867, -75.4653916 ], [ -26.7363381, -75.465991 ], [ -26.7269468, -75.4671784 ], [ -26.712778, -75.4612851 ], [ -26.6963305, -75.4618855 ], [ -26.6779843, -75.4603606 ], [ -26.669068, -75.4623718 ], [ -26.6516779, -75.4630874 ], [ -26.6361481, -75.4600233 ], [ -26.6173569, -75.4629798 ], [ -26.5995028, -75.4675875 ], [ -26.5844498, -75.4647558 ], [ -26.5778635, -75.4608604 ], [ -26.5628209, -75.4633399 ], [ -26.5468332, -75.4653462 ], [ -26.5195722, -75.4616826 ], [ -26.4918354, -75.4619115 ], [ -26.4838762, -75.4561241 ], [ -26.4829625, -75.4515196 ], [ -26.4617978, -75.4550526 ], [ -26.4580793, -75.4496203 ], [ -26.4376598, -75.4481932 ], [ -26.4193469, -75.4478281 ], [ -26.4108821, -75.448885 ], [ -26.3996951, -75.4414398 ], [ -26.3923212, -75.4299834 ], [ -26.389589, -75.4232525 ], [ -26.3737156, -75.4181636 ], [ -26.3615997, -75.4131952 ], [ -26.3556309, -75.4048086 ], [ -26.3440421, -75.3971249 ], [ -26.3361778, -75.3913331 ], [ -26.329257, -75.385424 ], [ -26.3302422, -75.382356 ], [ -26.3200148, -75.3789221 ], [ -26.2920598, -75.3741687 ], [ -26.2632109, -75.3683484 ], [ -26.2470323, -75.360654 ], [ -26.232268, -75.3530788 ], [ -26.2365299, -75.346192 ], [ -26.2291285, -75.3435845 ], [ -26.21068, -75.3352943 ], [ -26.1909192, -75.3245221 ], [ -26.1771389, -75.3174174 ], [ -26.1665671, -75.3125601 ], [ -26.1592285, -75.3087704 ], [ -26.1458518, -75.3048513 ], [ -26.1217574, -75.3019727 ], [ -26.1023394, -75.2985111 ], [ -26.0912533, -75.2963638 ], [ -26.0846809, -75.2983562 ], [ -26.0721869, -75.296677 ], [ -26.0592809, -75.29358 ], [ -26.0510673, -75.2893127 ], [ -26.0321173, -75.2866723 ], [ -26.0090315, -75.2830761 ], [ -25.9975845, -75.278917 ], [ -25.9884645, -75.2747632 ], [ -25.9740046, -75.2725764 ], [ -25.9455516, -75.2715941 ], [ -25.9095977, -75.265906 ], [ -25.8877093, -75.2644824 ], [ -25.8754442, -75.2603687 ], [ -25.8607268, -75.2580584 ], [ -25.8412038, -75.2570906 ], [ -25.8265338, -75.2540234 ], [ -25.8177962, -75.2509749 ], [ -25.8030583, -75.2494158 ], [ -25.7841271, -75.2487469 ], [ -25.7634286, -75.2479191 ], [ -25.7463972, -75.2451401 ], [ -25.7283522, -75.2394876 ], [ -25.7043125, -75.2353203 ], [ -25.6903118, -75.2317938 ], [ -25.6729241, -75.2256864 ], [ -25.6453456, -75.2219517 ], [ -25.6271264, -75.2200646 ], [ -25.6190714, -75.2165584 ], [ -25.6148416, -75.208841 ], [ -25.5998457, -75.203191 ], [ -25.5937183, -75.1975786 ], [ -25.5794253, -75.1993278 ], [ -25.5650738, -75.1932254 ], [ -25.545508, -75.1858908 ], [ -25.5304026, -75.1825001 ], [ -25.514898, -75.1765403 ], [ -25.5105176, -75.1718397 ], [ -25.5086273, -75.1653394 ], [ -25.5095745, -75.1603621 ], [ -25.4903156, -75.1578549 ], [ -25.4729302, -75.1539967 ], [ -25.4675508, -75.1471771 ], [ -25.4538623, -75.141373 ], [ -25.4442069, -75.1290974 ], [ -25.4549451, -75.1270377 ], [ -25.4512202, -75.1218868 ], [ -25.4422473, -75.1162566 ], [ -25.4427074, -75.1102209 ], [ -25.4454798, -75.1046499 ], [ -25.4294701, -75.0991348 ], [ -25.4280715, -75.0944483 ], [ -25.436534, -75.0911707 ], [ -25.4154218, -75.0836665 ], [ -25.4122837, -75.0788202 ], [ -25.4062792, -75.0732042 ], [ -25.4002199, -75.0683426 ], [ -25.4023205, -75.0639765 ], [ -25.3950844, -75.0592596 ], [ -25.3828078, -75.0517988 ], [ -25.3957172, -75.0438679 ], [ -25.3958129, -75.0352656 ], [ -25.4077283, -75.0323096 ], [ -25.399946, -75.0272884 ], [ -25.4110868, -75.0191969 ], [ -25.4380963, -75.0016789 ], [ -25.436307263585842, -75.0 ], [ -25.0, -75.0 ], [ -25.0, -80.0 ], [ -30.0, -80.0 ], [ -30.0, -76.6009924 ], [ -29.9978974, -76.600942 ] ] ] ] } }
]
}
