{
"type": "FeatureCollection",
"name": "-35_75",
"crs": { "type": "name", "properties": { "name": "urn:ogc:def:crs:OGC:1.3:CRS84" } },
"xy_coordinate_resolution": 1e-15,
"features": [
{ "type": "Feature", "properties": { "FID": 296248, "id": 1047, "left": -35.0, "top": 80.0, "right": -30.0, "bottom": 75.0, "row_index": 2, "col_index": 29, "min_lon": -35.0, "min_lat": 75.0, "tile_id": "-35_75" }, "geometry": { "type": "MultiPolygon", "coordinates": [ [ [ [ -30.0, 80.0 ], [ -30.0, 75.0 ], [ -35.0, 75.0 ], [ -35.0, 80.0 ], [ -30.0, 80.0 ] ] ] ] } }
]
}
