{
"type": "FeatureCollection",
"name": "-40_-80",
"crs": { "type": "name", "properties": { "name": "urn:ogc:def:crs:OGC:1.3:CRS84" } },
"xy_coordinate_resolution": 1e-15,
"features": [
{ "type": "Feature", "properties": { "FID": 307096, "id": 1042, "left": -40.0, "top": -75.0, "right": -35.0, "bottom": -80.0, "row_index": 33, "col_index": 28, "min_lon": -40.0, "min_lat": -80.0, "tile_id": "-40_-80" }, "geometry": { "type": "MultiPolygon", "coordinates": [ [ [ [ -39.9844036, -77.9110965 ], [ -39.9657256, -77.9143527 ], [ -39.9470375, -77.9176076 ], [ -39.9281358, -77.9205763 ], [ -39.9092248, -77.9235437 ], [ -39.8904803, -77.9261705 ], [ -39.8717276, -77.928796 ], [ -39.8350265, -77.9332702 ], [ -39.8199189, -77.9349561 ], [ -39.8027546, -77.9368802 ], [ -39.7841231, -77.9389629 ], [ -39.7646646, -77.9411514 ], [ -39.7449143, -77.9433525 ], [ -39.7255086, -77.9455267 ], [ -39.7070065, -77.9476007 ], [ -39.690063, -77.9494969 ], [ -39.6570414, -77.9529089 ], [ -39.622801, -77.9558859 ], [ -39.5876575, -77.9584207 ], [ -39.5519273, -77.9605062 ], [ -39.5159113, -77.962103 ], [ -39.4798934, -77.96321 ], [ -39.4442248, -77.9638148 ], [ -39.4092295, -77.9638983 ], [ -39.3959534, -77.9638987 ], [ -39.3814529, -77.9640609 ], [ -39.3662372, -77.9643564 ], [ -39.3507479, -77.9647685 ], [ -39.3354546, -77.9652873 ], [ -39.3207992, -77.9658961 ], [ -39.3072853, -77.9665797 ], [ -39.2953831, -77.9673286 ], [ -39.259939, -77.9691378 ], [ -39.2220529, -77.969875 ], [ -39.1837436, -77.9696208 ], [ -39.147146, -77.9684721 ], [ -39.1143247, -77.9665386 ], [ -39.0873935, -77.9638867 ], [ -39.0683475, -77.9606261 ], [ -39.059333, -77.9568633 ], [ -39.0554099, -77.9546546 ], [ -39.0479183, -77.9526401 ], [ -39.0375976, -77.9508938 ], [ -39.0253151, -77.9494797 ], [ -39.0117195, -77.9484636 ], [ -38.9976634, -77.9479351 ], [ -38.983889, -77.947956 ], [ -38.9711317, -77.9486008 ], [ -38.9655066, -77.9491177 ], [ -38.9585182, -77.9498763 ], [ -38.9504032, -77.9508365 ], [ -38.9414663, -77.9519466 ], [ -38.9319927, -77.9531934 ], [ -38.922226, -77.9545241 ], [ -38.9125197, -77.9559142 ], [ -38.903084, -77.9573165 ], [ -38.8821851, -77.960308 ], [ -38.8599848, -77.9631524 ], [ -38.8373066, -77.9657579 ], [ -38.8149284, -77.968064 ], [ -38.7936151, -77.9699781 ], [ -38.7742759, -77.9714304 ], [ -38.7576025, -77.9723528 ], [ -38.7444566, -77.9726487 ], [ -38.7395031, -77.9726715 ], [ -38.7336358, -77.972777 ], [ -38.7270932, -77.9729251 ], [ -38.7200458, -77.9731458 ], [ -38.7127868, -77.9734132 ], [ -38.7054457, -77.9737175 ], [ -38.6983023, -77.9740585 ], [ -38.6915817, -77.974422 ], [ -38.6850926, -77.9747583 ], [ -38.6788145, -77.9749892 ], [ -38.6728023, -77.975129 ], [ -38.6673017, -77.9751832 ], [ -38.6624153, -77.9751349 ], [ -38.6583205, -77.9750013 ], [ -38.6551813, -77.9747666 ], [ -38.6531205, -77.9744337 ], [ -38.651285, -77.974145 ], [ -38.6487466, -77.9740083 ], [ -38.6455939, -77.9740324 ], [ -38.6419292, -77.9742 ], [ -38.6379434, -77.9745026 ], [ -38.6336705, -77.9749346 ], [ -38.6292673, -77.9754931 ], [ -38.6248292, -77.9761738 ], [ -38.6199604, -77.9769027 ], [ -38.6152418, -77.9774667 ], [ -38.6107419, -77.9778542 ], [ -38.6065224, -77.9780667 ], [ -38.6026176, -77.9780986 ], [ -38.5991233, -77.9779457 ], [ -38.5960055, -77.9776136 ], [ -38.5934213, -77.9770996 ], [ -38.5874944, -77.9763258 ], [ -38.5777851, -77.9758779 ], [ -38.5654465, -77.9757502 ], [ -38.5515221, -77.9759087 ], [ -38.5371715, -77.976335 ], [ -38.5235269, -77.9770041 ], [ -38.5116527, -77.9779025 ], [ -38.5026892, -77.9789927 ], [ -38.4994618, -77.9793762 ], [ -38.4939458, -77.979848 ], [ -38.4863866, -77.9804137 ], [ -38.4771531, -77.9810235 ], [ -38.4664635, -77.9816761 ], [ -38.4547002, -77.9823546 ], [ -38.4420956, -77.9830318 ], [ -38.4290323, -77.9836911 ], [ -38.4129109, -77.984529 ], [ -38.3986033, -77.9854033 ], [ -38.3860141, -77.9863184 ], [ -38.3750064, -77.9872971 ], [ -38.3654503, -77.9883495 ], [ -38.3571816, -77.9894911 ], [ -38.3501391, -77.9907207 ], [ -38.3441171, -77.9920721 ], [ -38.3384042, -77.9933143 ], [ -38.3300025, -77.9948476 ], [ -38.3193567, -77.9965983 ], [ -38.3068703, -77.9985112 ], [ -38.2928858, -78.0005297 ], [ -38.277876, -78.0025873 ], [ -38.2621842, -78.0046275 ], [ -38.2462503, -78.0065896 ], [ -38.2233792, -78.0092682 ], [ -38.2041689, -78.0113678 ], [ -38.1876983, -78.0129246 ], [ -38.1731459, -78.0140159 ], [ -38.1594847, -78.0146941 ], [ -38.1458716, -78.0150161 ], [ -38.1313743, -78.01503 ], [ -38.1151146, -78.0147978 ], [ -38.0908405, -78.0144928 ], [ -38.0700932, -78.0146185 ], [ -38.0520643, -78.015272 ], [ -38.0359876, -78.016532 ], [ -38.0209045, -78.0184846 ], [ -38.0061021, -78.0212222 ], [ -37.9906819, -78.0248324 ], [ -37.9738126, -78.0293912 ], [ -37.9650721, -78.0318345 ], [ -37.9552933, -78.0344911 ], [ -37.9448097, -78.0372722 ], [ -37.9340092, -78.0401032 ], [ -37.923138, -78.0428868 ], [ -37.9125851, -78.0455484 ], [ -37.9026593, -78.0479924 ], [ -37.8936894, -78.0501427 ], [ -37.8801031, -78.0532899 ], [ -37.8681229, -78.0557382 ], [ -37.8558492, -78.0576788 ], [ -37.8412911, -78.0592934 ], [ -37.8225606, -78.0607468 ], [ -37.7977176, -78.062234 ], [ -37.7648079, -78.0639164 ], [ -37.7219203, -78.0659809 ], [ -37.6952795, -78.0672822 ], [ -37.6698924, -78.0685755 ], [ -37.6463472, -78.0698248 ], [ -37.6251898, -78.0710128 ], [ -37.6071413, -78.0720944 ], [ -37.5926325, -78.0730362 ], [ -37.5823768, -78.0738061 ], [ -37.5769637, -78.0743683 ], [ -37.5702498, -78.0749993 ], [ -37.5564761, -78.0759592 ], [ -37.5363683, -78.0771888 ], [ -37.5107939, -78.0786519 ], [ -37.4806288, -78.0802995 ], [ -37.4467225, -78.0820754 ], [ -37.4098819, -78.0839422 ], [ -37.3709583, -78.0858443 ], [ -37.331713, -78.0877323 ], [ -37.2940864, -78.0895759 ], [ -37.2588721, -78.0913199 ], [ -37.2270067, -78.092933 ], [ -37.1994444, -78.0943589 ], [ -37.1770432, -78.0955451 ], [ -37.160706, -78.0964663 ], [ -37.1513522, -78.0970716 ], [ -37.1117128, -78.1000183 ], [ -37.0788606, -78.1022183 ], [ -37.0516403, -78.1037185 ], [ -37.0289808, -78.1045285 ], [ -37.0096681, -78.1046792 ], [ -36.9926723, -78.1042063 ], [ -36.9767856, -78.1031271 ], [ -36.960915, -78.1014749 ], [ -36.9464442, -78.0998106 ], [ -36.9340828, -78.098799 ], [ -36.9218596, -78.0985975 ], [ -36.9079001, -78.0993594 ], [ -36.8901606, -78.1012523 ], [ -36.8667257, -78.1044338 ], [ -36.8356646, -78.1090735 ], [ -36.8153296, -78.1122001 ], [ -36.7949838, -78.1153252 ], [ -36.7750346, -78.1183861 ], [ -36.7550751, -78.1214455 ], [ -36.7238718, -78.1261039 ], [ -36.699303, -78.1295332 ], [ -36.6793595, -78.1319542 ], [ -36.6619813, -78.1336052 ], [ -36.6451226, -78.1346979 ], [ -36.6267882, -78.1354587 ], [ -36.604857, -78.1361091 ], [ -36.5793209, -78.1366156 ], [ -36.5560901, -78.1366433 ], [ -36.5350172, -78.1361815 ], [ -36.5160068, -78.1352343 ], [ -36.4988224, -78.1337817 ], [ -36.4833416, -78.1318204 ], [ -36.4694867, -78.1293285 ], [ -36.4570016, -78.1263115 ], [ -36.450975, -78.1247703 ], [ -36.445025, -78.1236026 ], [ -36.4386484, -78.1227602 ], [ -36.4314285, -78.1222497 ], [ -36.4228268, -78.1220283 ], [ -36.4124452, -78.122077 ], [ -36.3998143, -78.1223876 ], [ -36.3844474, -78.1229314 ], [ -36.3550786, -78.123877 ], [ -36.3288067, -78.1243501 ], [ -36.3057591, -78.1243553 ], [ -36.2858767, -78.1238917 ], [ -36.2692589, -78.1229563 ], [ -36.2542667, -78.1233997 ], [ -36.2329115, -78.1263014 ], [ -36.1875929, -78.1296917 ], [ -36.1257948, -78.1375986 ], [ -36.055757, -78.1500132 ], [ -35.9774794, -78.1576249 ], [ -35.9431471, -78.162415 ], [ -35.9198012, -78.1725525 ], [ -35.9156813, -78.1798686 ], [ -35.9136202, -78.1943298 ], [ -35.9115604, -78.1959238 ], [ -35.91132, -78.1955451 ], [ -35.9110161, -78.1952797 ], [ -35.9103654, -78.1944707 ], [ -35.910358, -78.193924 ], [ -35.9100008, -78.1936609 ], [ -35.909319, -78.1929925 ], [ -35.909178, -78.1925838 ], [ -35.9090065, -78.1924517 ], [ -35.9085386, -78.1923535 ], [ -35.9082561, -78.19223 ], [ -35.9074237, -78.192016 ], [ -35.9071757, -78.1918896 ], [ -35.9064287, -78.1916629 ], [ -35.9060673, -78.1914004 ], [ -35.9053052, -78.1910219 ], [ -35.9048832, -78.1907627 ], [ -35.9044579, -78.1906571 ], [ -35.9037179, -78.1904293 ], [ -35.901933, -78.1902451 ], [ -35.9008533, -78.1900835 ], [ -35.900265, -78.19002 ], [ -35.8984075, -78.1898656 ], [ -35.8972136, -78.1897445 ], [ -35.8955773, -78.1895079 ], [ -35.8949742, -78.18945 ], [ -35.8930461, -78.1893387 ], [ -35.8904407, -78.189222 ], [ -35.8891048, -78.1892209 ], [ -35.888461, -78.1892544 ], [ -35.8878832, -78.1893231 ], [ -35.8858971, -78.189271 ], [ -35.8709299, -78.1885755 ], [ -35.8702866, -78.1885381 ], [ -35.8690786, -78.1884235 ], [ -35.8685414, -78.1883423 ], [ -35.8681053, -78.1882382 ], [ -35.8664224, -78.1880163 ], [ -35.8659246, -78.1879248 ], [ -35.8655744, -78.1878091 ], [ -35.8649502, -78.1877587 ], [ -35.8623783, -78.1876134 ], [ -35.8539276, -78.1872117 ], [ -35.8526698, -78.1871236 ], [ -35.852079, -78.1870593 ], [ -35.8515466, -78.1869773 ], [ -35.8511172, -78.1868723 ], [ -35.8498785, -78.1867701 ], [ -35.8473362, -78.1866056 ], [ -35.8461307, -78.1864895 ], [ -35.8440832, -78.1861395 ], [ -35.8435921, -78.1860469 ], [ -35.843197, -78.1859368 ], [ -35.8413571, -78.1857741 ], [ -35.8401662, -78.1856513 ], [ -35.8386164, -78.1853917 ], [ -35.8374936, -78.1852454 ], [ -35.836111, -78.1849487 ], [ -35.8357474, -78.1848339 ], [ -35.8356608, -78.1845613 ], [ -35.835532, -78.1844275 ], [ -35.8352479, -78.1843032 ], [ -35.8342005, -78.1841345 ], [ -35.8337362, -78.1840369 ], [ -35.8331049, -78.1837965 ], [ -35.830342, -78.1830253 ], [ -35.8298953, -78.182924 ], [ -35.8288481, -78.1827552 ], [ -35.8274664, -78.1824585 ], [ -35.8264608, -78.1822791 ], [ -35.8261773, -78.1821558 ], [ -35.8253694, -78.1819383 ], [ -35.8246766, -78.1817048 ], [ -35.8242151, -78.1814483 ], [ -35.8237578, -78.1813497 ], [ -35.8232136, -78.1810998 ], [ -35.8227272, -78.1810066 ], [ -35.8224322, -78.1808839 ], [ -35.8217107, -78.1806547 ], [ -35.8212471, -78.1803986 ], [ -35.8203656, -78.1801941 ], [ -35.8179405, -78.1790698 ], [ -35.8174787, -78.1789718 ], [ -35.8171, -78.1788593 ], [ -35.816478, -78.1786176 ], [ -35.8159939, -78.1783634 ], [ -35.8155543, -78.1782599 ], [ -35.8149006, -78.1777308 ], [ -35.8148954, -78.1771845 ], [ -35.8136787, -78.1764039 ], [ -35.8136415, -78.1762678 ], [ -35.813806, -78.1759964 ], [ -35.8137975, -78.1757235 ], [ -35.8136225, -78.175591 ], [ -35.8132732, -78.1754753 ], [ -35.8136549, -78.1749346 ], [ -35.8137575, -78.1746622 ], [ -35.8137392, -78.1745256 ], [ -35.8135171, -78.1742563 ], [ -35.8135417, -78.173983 ], [ -35.8138611, -78.1735785 ], [ -35.8144288, -78.1730441 ], [ -35.8145985, -78.1727741 ], [ -35.8145307, -78.172638 ], [ -35.8143275, -78.1725075 ], [ -35.813575, -78.1722829 ], [ -35.8134117, -78.1718745 ], [ -35.8130287, -78.1714718 ], [ -35.813012, -78.170926 ], [ -35.8127084, -78.1706598 ], [ -35.8126876, -78.1705235 ], [ -35.812938, -78.1701169 ], [ -35.812932, -78.1698437 ], [ -35.8127942, -78.1697102 ], [ -35.8125042, -78.1695868 ], [ -35.8126191, -78.1691778 ], [ -35.8126058, -78.1689045 ], [ -35.8121554, -78.168505 ], [ -35.8120036, -78.1682331 ], [ -35.8116146, -78.1679728 ], [ -35.8109188, -78.167304 ], [ -35.8109678, -78.1668946 ], [ -35.8108674, -78.16676 ], [ -35.8105501, -78.1666396 ], [ -35.8093079, -78.1665404 ], [ -35.8087187, -78.1664771 ], [ -35.807669, -78.1663089 ], [ -35.8064597, -78.1661958 ], [ -35.8045384, -78.1660825 ], [ -35.8025888, -78.1659913 ], [ -35.8012623, -78.1659663 ], [ -35.8005977, -78.1659691 ], [ -35.7992823, -78.1660144 ], [ -35.7979546, -78.1660086 ], [ -35.7966373, -78.1659688 ], [ -35.7933733, -78.1658316 ], [ -35.7920429, -78.1658173 ], [ -35.7913837, -78.165835 ], [ -35.7895033, -78.1659727 ], [ -35.7875722, -78.1660775 ], [ -35.787008, -78.1661497 ], [ -35.7857664, -78.1662491 ], [ -35.7852234, -78.1663283 ], [ -35.7847595, -78.166426 ], [ -35.7844075, -78.1665421 ], [ -35.7841416, -78.1666679 ], [ -35.7837466, -78.1669284 ], [ -35.7826349, -78.1678575 ], [ -35.7821578, -78.1681122 ], [ -35.7818475, -78.1682333 ], [ -35.7810275, -78.1684488 ], [ -35.7799642, -78.1687958 ], [ -35.7781461, -78.1691947 ], [ -35.7776414, -78.1692839 ], [ -35.7770119, -78.1693287 ], [ -35.7764293, -78.1693957 ], [ -35.7742193, -78.1696998 ], [ -35.7729434, -78.16962 ], [ -35.7723313, -78.1695656 ], [ -35.7717657, -78.1694942 ], [ -35.7712999, -78.1693957 ], [ -35.7711002, -78.1692658 ], [ -35.7707377, -78.1691509 ], [ -35.7702741, -78.1690521 ], [ -35.7697239, -78.1689762 ], [ -35.767357, -78.1687253 ], [ -35.7662901, -78.1685618 ], [ -35.7639635, -78.1682947 ], [ -35.7623569, -78.1680516 ], [ -35.7611231, -78.1679487 ], [ -35.7539956, -78.1675993 ], [ -35.75268, -78.1675578 ], [ -35.7513483, -78.1675535 ], [ -35.7500512, -78.1676137 ], [ -35.7493823, -78.1676171 ], [ -35.7473914, -78.1675878 ], [ -35.7467263, -78.1675962 ], [ -35.746075, -78.167625 ], [ -35.7454707, -78.1676828 ], [ -35.7441458, -78.1676561 ], [ -35.7435105, -78.1676163 ], [ -35.7429173, -78.1675535 ], [ -35.742406, -78.1674662 ], [ -35.7420846, -78.1673464 ], [ -35.7416865, -78.1672369 ], [ -35.7407808, -78.1670372 ], [ -35.7383082, -78.1668354 ], [ -35.7371516, -78.1666997 ], [ -35.73644, -78.1663166 ], [ -35.7359442, -78.1662259 ], [ -35.7355666, -78.1661133 ], [ -35.7346511, -78.165749 ], [ -35.7326255, -78.1653937 ], [ -35.7309317, -78.1651768 ], [ -35.7304223, -78.1650882 ], [ -35.7300243, -78.1649786 ], [ -35.7283392, -78.1647593 ], [ -35.7264927, -78.1643652 ], [ -35.7255167, -78.1641794 ], [ -35.7243067, -78.1640673 ], [ -35.7237305, -78.1639986 ], [ -35.7231955, -78.1639171 ], [ -35.7227371, -78.1638175 ], [ -35.7223504, -78.1637062 ], [ -35.7211677, -78.1635823 ], [ -35.720643, -78.163497 ], [ -35.720234, -78.163389 ], [ -35.7183618, -78.1632479 ], [ -35.7131923, -78.1629839 ], [ -35.6937386, -78.1620519 ], [ -35.6930824, -78.1620264 ], [ -35.6917522, -78.1620184 ], [ -35.6910966, -78.1620398 ], [ -35.6905324, -78.1621129 ], [ -35.6893397, -78.1622337 ], [ -35.6889054, -78.1623381 ], [ -35.6864746, -78.1628041 ], [ -35.6854264, -78.1629731 ], [ -35.6842608, -78.1631056 ], [ -35.683851, -78.1632131 ], [ -35.6815159, -78.1636996 ], [ -35.6809801, -78.1637808 ], [ -35.6797759, -78.1641074 ], [ -35.6787448, -78.1642794 ], [ -35.6782536, -78.1645335 ], [ -35.6779255, -78.1646525 ], [ -35.6775156, -78.1647599 ], [ -35.6769978, -78.1648463 ], [ -35.6758825, -78.1651855 ], [ -35.6753876, -78.1652775 ], [ -35.6747397, -78.165309 ], [ -35.6741563, -78.1653747 ], [ -35.673623, -78.1654566 ], [ -35.672671, -78.1656473 ], [ -35.6710424, -78.1658848 ], [ -35.6700447, -78.1660665 ], [ -35.6688673, -78.1661928 ], [ -35.6684599, -78.166301 ], [ -35.6679472, -78.1663888 ], [ -35.6662398, -78.1666009 ], [ -35.6644663, -78.1667902 ], [ -35.6635465, -78.1669873 ], [ -35.662404, -78.1671285 ], [ -35.6619792, -78.1672337 ], [ -35.6614763, -78.1673234 ], [ -35.6581974, -78.1677913 ], [ -35.6566019, -78.1680385 ], [ -35.6561063, -78.1681293 ], [ -35.6552341, -78.1683361 ], [ -35.654716, -78.1684224 ], [ -35.650767, -78.1689305 ], [ -35.6502307, -78.1690117 ], [ -35.6494255, -78.1692288 ], [ -35.6485229, -78.1694299 ], [ -35.6472654, -78.1697483 ], [ -35.6466687, -78.1698091 ], [ -35.6455857, -78.1699684 ], [ -35.6449578, -78.1700136 ], [ -35.6432417, -78.1702234 ], [ -35.6422864, -78.1704143 ], [ -35.6416554, -78.1704566 ], [ -35.641132, -78.1705415 ], [ -35.6399241, -78.1706563 ], [ -35.6393851, -78.1707366 ], [ -35.6380945, -78.1708042 ], [ -35.636865, -78.1709109 ], [ -35.6356068, -78.1709995 ], [ -35.6350043, -78.1710578 ], [ -35.6344446, -78.1711322 ], [ -35.6299134, -78.1709071 ], [ -35.6292976, -78.1708542 ], [ -35.6287285, -78.1707831 ], [ -35.6282574, -78.1706865 ], [ -35.6280313, -78.1705583 ], [ -35.6276951, -78.1704396 ], [ -35.6273255, -78.170327 ], [ -35.6264614, -78.1701188 ], [ -35.6257187, -78.1698917 ], [ -35.6245614, -78.169757 ], [ -35.6240418, -78.1696708 ], [ -35.6236197, -78.1695647 ], [ -35.6219772, -78.1693332 ], [ -35.6215285, -78.1692321 ], [ -35.6214841, -78.1690952 ], [ -35.620841, -78.1687078 ], [ -35.6205484, -78.1685849 ], [ -35.6193508, -78.1682577 ], [ -35.6194841, -78.1681239 ], [ -35.6195266, -78.1679865 ], [ -35.619443, -78.167852 ], [ -35.6191363, -78.1677301 ], [ -35.6179561, -78.1676043 ], [ -35.6174435, -78.1675171 ], [ -35.6171991, -78.1673905 ], [ -35.6163226, -78.1671854 ], [ -35.6161358, -78.1670537 ], [ -35.6157793, -78.166938 ], [ -35.6153022, -78.1666831 ], [ -35.6149504, -78.1665667 ], [ -35.6137286, -78.1662431 ], [ -35.6134657, -78.166117 ], [ -35.6124173, -78.1657679 ], [ -35.6115857, -78.1655551 ], [ -35.6113642, -78.1654263 ], [ -35.6106766, -78.1651912 ], [ -35.6093721, -78.1648819 ], [ -35.6091881, -78.164751 ], [ -35.6087775, -78.1646432 ], [ -35.6080969, -78.1644082 ], [ -35.6076022, -78.1643173 ], [ -35.6072144, -78.1642062 ], [ -35.6071754, -78.163933 ], [ -35.6069677, -78.1636632 ], [ -35.6066229, -78.1635458 ], [ -35.6061716, -78.1632894 ], [ -35.6046752, -78.1628381 ], [ -35.6043323, -78.1624347 ], [ -35.6039515, -78.1623226 ], [ -35.603413, -78.1620735 ], [ -35.6030322, -78.1619613 ], [ -35.60259, -78.1617036 ], [ -35.6014648, -78.1612079 ], [ -35.6012436, -78.1610791 ], [ -35.6000148, -78.1597371 ], [ -35.5998754, -78.1593273 ], [ -35.5997152, -78.1591963 ], [ -35.5992602, -78.1590962 ], [ -35.5985918, -78.1588606 ], [ -35.5980578, -78.1587788 ], [ -35.5976612, -78.158669 ], [ -35.5975545, -78.1583968 ], [ -35.5973956, -78.1582633 ], [ -35.5971018, -78.1581418 ], [ -35.597234, -78.1575958 ], [ -35.5972088, -78.1574595 ], [ -35.5968896, -78.1570549 ], [ -35.5969022, -78.1569186 ], [ -35.5971235, -78.1566486 ], [ -35.597717, -78.1561155 ], [ -35.6004982, -78.1537237 ], [ -35.6010826, -78.1534786 ], [ -35.6015152, -78.1533747 ], [ -35.6020743, -78.1533004 ], [ -35.6025306, -78.1530439 ], [ -35.6028828, -78.1527793 ], [ -35.6030475, -78.1526475 ], [ -35.6036715, -78.1521165 ], [ -35.6040649, -78.1518548 ], [ -35.6046349, -78.1516085 ], [ -35.6054101, -78.1513869 ], [ -35.6057166, -78.1512645 ], [ -35.6063854, -78.1508793 ], [ -35.6102894, -78.1475588 ], [ -35.6105351, -78.1474319 ], [ -35.6108883, -78.147316 ], [ -35.6113455, -78.1472174 ], [ -35.6125001, -78.1470822 ], [ -35.6127798, -78.1469581 ], [ -35.6132115, -78.1466996 ], [ -35.6134636, -78.1464317 ], [ -35.6134735, -78.1462958 ], [ -35.613394, -78.1461596 ], [ -35.6127503, -78.1457725 ], [ -35.6126945, -78.1456362 ], [ -35.6127945, -78.1453637 ], [ -35.612767, -78.1450899 ], [ -35.6126227, -78.1449576 ], [ -35.6122694, -78.1448415 ], [ -35.6118452, -78.1444412 ], [ -35.6111514, -78.1439136 ], [ -35.6107214, -78.1438088 ], [ -35.6100874, -78.1435682 ], [ -35.6096137, -78.1434733 ], [ -35.6092334, -78.1433612 ], [ -35.6088961, -78.1432439 ], [ -35.6083536, -78.1429943 ], [ -35.6075322, -78.1427791 ], [ -35.6072975, -78.1426512 ], [ -35.6064671, -78.1424373 ], [ -35.6061917, -78.1423142 ], [ -35.6057664, -78.1422088 ], [ -35.6047229, -78.1418593 ], [ -35.6042492, -78.1416041 ], [ -35.6038442, -78.1414956 ], [ -35.6033941, -78.1412392 ], [ -35.6027352, -78.1410012 ], [ -35.6025035, -78.140874 ], [ -35.6025067, -78.1406002 ], [ -35.6024185, -78.1403274 ], [ -35.601549, -78.1401227 ], [ -35.6012092, -78.1400046 ], [ -35.6009085, -78.1398831 ], [ -35.600444, -78.1396266 ], [ -35.6001502, -78.139504 ], [ -35.5997792, -78.1393906 ], [ -35.5998984, -78.1391187 ], [ -35.59988, -78.1389814 ], [ -35.5995314, -78.138719 ], [ -35.5993059, -78.1384497 ], [ -35.5987434, -78.1380564 ], [ -35.5985755, -78.1377842 ], [ -35.5982664, -78.1375194 ], [ -35.5982937, -78.1372465 ], [ -35.5984863, -78.1369762 ], [ -35.5985845, -78.136704 ], [ -35.5985636, -78.1365671 ], [ -35.5983404, -78.1362975 ], [ -35.5983272, -78.1361616 ], [ -35.5987796, -78.1353478 ], [ -35.598766, -78.1352109 ], [ -35.5984516, -78.1348057 ], [ -35.5985686, -78.1345341 ], [ -35.6049295, -78.1289468 ], [ -35.605084, -78.1286753 ], [ -35.6050284, -78.1285401 ], [ -35.6047944, -78.1284121 ], [ -35.6043007, -78.1283201 ], [ -35.6039523, -78.1282034 ], [ -35.6037273, -78.1280741 ], [ -35.6036274, -78.1279398 ], [ -35.6035609, -78.1275306 ], [ -35.6032842, -78.1271244 ], [ -35.6032595, -78.1268513 ], [ -35.6030989, -78.1265803 ], [ -35.6023487, -78.1262013 ], [ -35.6019772, -78.125939 ], [ -35.600949, -78.1254351 ], [ -35.6007746, -78.1253028 ], [ -35.6005006, -78.1248973 ], [ -35.6003422, -78.1247638 ], [ -35.6000877, -78.1246378 ], [ -35.5999786, -78.1245038 ], [ -35.5999541, -78.1240929 ], [ -35.5996498, -78.1236885 ], [ -35.599622, -78.1231425 ], [ -35.5986911, -78.1224866 ], [ -35.5983429, -78.1223698 ], [ -35.5982653, -78.1219612 ], [ -35.5978728, -78.1215597 ], [ -35.5982004, -78.1211552 ], [ -35.5989229, -78.1204886 ], [ -35.5992223, -78.1202226 ], [ -35.5996758, -78.119823 ], [ -35.599892, -78.1195537 ], [ -35.5999257, -78.1192798 ], [ -35.5996498, -78.1188746 ], [ -35.5996645, -78.118738 ], [ -35.599928, -78.1183317 ], [ -35.599983, -78.1181959 ], [ -35.5999605, -78.1179225 ], [ -35.6001455, -78.117651 ], [ -35.6045219, -78.1137936 ], [ -35.605157, -78.1134053 ], [ -35.6057514, -78.1131607 ], [ -35.6059849, -78.1130333 ], [ -35.6067789, -78.1125128 ], [ -35.6074147, -78.1122734 ], [ -35.6083436, -78.112078 ], [ -35.6092818, -78.1114231 ], [ -35.6097847, -78.1111707 ], [ -35.610139, -78.1110557 ], [ -35.6106119, -78.110959 ], [ -35.6122651, -78.1107318 ], [ -35.6140314, -78.1105439 ], [ -35.6149927, -78.110356 ], [ -35.6155553, -78.1102842 ], [ -35.6161522, -78.1102252 ], [ -35.6186467, -78.1100396 ], [ -35.6199587, -78.1100016 ], [ -35.6212561, -78.1099456 ], [ -35.6231149, -78.1098 ], [ -35.6236826, -78.1097296 ], [ -35.6247475, -78.1093841 ], [ -35.6251533, -78.1092759 ], [ -35.6253673, -78.1091468 ], [ -35.626228, -78.1084874 ], [ -35.6292735, -78.1058276 ], [ -35.6298427, -78.1054353 ], [ -35.6303903, -78.1051863 ], [ -35.63252, -78.1046642 ], [ -35.6330457, -78.1045809 ], [ -35.6340708, -78.1042299 ], [ -35.6352553, -78.1039013 ], [ -35.6362533, -78.1035464 ], [ -35.6367086, -78.1034478 ], [ -35.6373183, -78.1033935 ], [ -35.638301, -78.1032101 ], [ -35.6387413, -78.103108 ], [ -35.6391049, -78.1029938 ], [ -35.6409891, -78.1022724 ], [ -35.6413573, -78.1021586 ], [ -35.6422674, -78.1019601 ], [ -35.6427375, -78.1017045 ], [ -35.6436092, -78.1013369 ], [ -35.6440365, -78.1012322 ], [ -35.6446444, -78.1011793 ], [ -35.6463494, -78.1007612 ], [ -35.6466545, -78.1006399 ], [ -35.6471917, -78.1002455 ], [ -35.6494628, -78.0982505 ], [ -35.6496656, -78.0979806 ], [ -35.6496938, -78.0977074 ], [ -35.6493726, -78.0974422 ], [ -35.6493589, -78.0973064 ], [ -35.649625, -78.0969004 ], [ -35.6496224, -78.0966262 ], [ -35.649483, -78.0964933 ], [ -35.6491851, -78.0963715 ], [ -35.6494113, -78.0959647 ], [ -35.6507029, -78.0947647 ], [ -35.6509128, -78.0944949 ], [ -35.6509478, -78.0942218 ], [ -35.6506121, -78.0938175 ], [ -35.650692, -78.0934077 ], [ -35.6506219, -78.0932724 ], [ -35.6502175, -78.0928727 ], [ -35.6498316, -78.0927617 ], [ -35.6495974, -78.0926338 ], [ -35.6486974, -78.0922682 ], [ -35.6479997, -78.0920352 ], [ -35.6474976, -78.0917834 ], [ -35.6471208, -78.091671 ], [ -35.646644, -78.0914165 ], [ -35.6459198, -78.0911875 ], [ -35.6435295, -78.0905337 ], [ -35.642276, -78.0902148 ], [ -35.6409498, -78.0897431 ], [ -35.6406862, -78.0896174 ], [ -35.6403655, -78.0893522 ], [ -35.6401113, -78.0892262 ], [ -35.6398159, -78.0889594 ], [ -35.6383435, -78.0885072 ], [ -35.6380437, -78.0883846 ], [ -35.6375787, -78.0881295 ], [ -35.6373201, -78.0877228 ], [ -35.6371485, -78.0875913 ], [ -35.6367403, -78.0874836 ], [ -35.6356128, -78.0868414 ], [ -35.6352765, -78.0865774 ], [ -35.634427, -78.0862066 ], [ -35.6340889, -78.0860897 ], [ -35.6329483, -78.0857542 ], [ -35.6317117, -78.0854341 ], [ -35.6308721, -78.0847739 ], [ -35.6305114, -78.0846592 ], [ -35.6302555, -78.08439 ], [ -35.6296143, -78.0840031 ], [ -35.6293057, -78.0838829 ], [ -35.6283929, -78.0836852 ], [ -35.6273581, -78.0830372 ], [ -35.626884, -78.0829415 ], [ -35.6265141, -78.0828282 ], [ -35.6260601, -78.0827295 ], [ -35.6250618, -78.0825512 ], [ -35.6248443, -78.082422 ], [ -35.6240289, -78.0822066 ], [ -35.6238597, -78.0820747 ], [ -35.6222386, -78.0816435 ], [ -35.6208803, -78.0813448 ], [ -35.6207252, -78.081212 ], [ -35.6198355, -78.0808451 ], [ -35.6193187, -78.0805944 ], [ -35.6173179, -78.0802373 ], [ -35.6162155, -78.0800856 ], [ -35.6157352, -78.079992 ], [ -35.6153186, -78.0798856 ], [ -35.6142575, -78.0793849 ], [ -35.6136152, -78.0789982 ], [ -35.613165, -78.0788968 ], [ -35.6129643, -78.0787674 ], [ -35.61242, -78.0785186 ], [ -35.612098, -78.0782537 ], [ -35.6118444, -78.0781276 ], [ -35.6106445, -78.0776397 ], [ -35.6098034, -78.0774303 ], [ -35.6097155, -78.0772955 ], [ -35.6094662, -78.0771688 ], [ -35.6086825, -78.0767929 ], [ -35.6082528, -78.0766885 ], [ -35.6080425, -78.0765594 ], [ -35.6069841, -78.0760584 ], [ -35.6065313, -78.0758006 ], [ -35.606344, -78.0755314 ], [ -35.6058397, -78.0751355 ], [ -35.6054434, -78.0750262 ], [ -35.6051827, -78.0749001 ], [ -35.6041451, -78.0745506 ], [ -35.6032535, -78.0743499 ], [ -35.6030107, -78.0742211 ], [ -35.6021768, -78.0740107 ], [ -35.6019712, -78.073881 ], [ -35.6012759, -78.0736489 ], [ -35.6010909, -78.0733795 ], [ -35.6002093, -78.0730115 ], [ -35.5997845, -78.0727528 ], [ -35.5994744, -78.0726329 ], [ -35.5990989, -78.0722292 ], [ -35.5983458, -78.0720069 ], [ -35.5980421, -78.0718849 ], [ -35.5971022, -78.0716936 ], [ -35.5962971, -78.0714778 ], [ -35.5955695, -78.0709527 ], [ -35.5950804, -78.0708604 ], [ -35.5946804, -78.0707516 ], [ -35.5930969, -78.0705054 ], [ -35.5923884, -78.0702753 ], [ -35.5918474, -78.0701964 ], [ -35.5905914, -78.0698804 ], [ -35.5905178, -78.0697446 ], [ -35.5900405, -78.0694904 ], [ -35.589138, -78.0692902 ], [ -35.5889535, -78.0691596 ], [ -35.5885443, -78.0690522 ], [ -35.5880035, -78.0688029 ], [ -35.5875832, -78.0686971 ], [ -35.5870194, -78.0684501 ], [ -35.5860685, -78.0682604 ], [ -35.5835326, -78.0676311 ], [ -35.5825818, -78.0674414 ], [ -35.5822831, -78.0673199 ], [ -35.5818339, -78.0672183 ], [ -35.5798674, -78.0666694 ], [ -35.5793577, -78.0665847 ], [ -35.5771419, -78.0662865 ], [ -35.5766123, -78.0662047 ], [ -35.5761636, -78.0661054 ], [ -35.5742244, -78.0655524 ], [ -35.5736043, -78.0653105 ], [ -35.5730751, -78.0652297 ], [ -35.5711917, -78.0648455 ], [ -35.5707478, -78.0647454 ], [ -35.5704652, -78.0646226 ], [ -35.5700563, -78.0645152 ], [ -35.568657, -78.0642239 ], [ -35.5685419, -78.0640897 ], [ -35.5682891, -78.0639648 ], [ -35.5680355, -78.0636966 ], [ -35.5674182, -78.0633076 ], [ -35.5671266, -78.063185 ], [ -35.5660997, -78.0630122 ], [ -35.5656534, -78.0629125 ], [ -35.565283, -78.0627994 ], [ -35.5646496, -78.0625594 ], [ -35.5644267, -78.0624311 ], [ -35.5639375, -78.0620332 ], [ -35.5632688, -78.0617985 ], [ -35.5628537, -78.0616931 ], [ -35.5624203, -78.0615893 ], [ -35.5618466, -78.0613438 ], [ -35.5613889, -78.0612447 ], [ -35.5596596, -78.060662 ], [ -35.5589097, -78.060437 ], [ -35.5584202, -78.0601847 ], [ -35.5579587, -78.0600873 ], [ -35.5573328, -78.0598474 ], [ -35.5568142, -78.0597618 ], [ -35.5555803, -78.0594427 ], [ -35.5546456, -78.0592485 ], [ -35.5531396, -78.0587996 ], [ -35.5527047, -78.0586982 ], [ -35.5508173, -78.0585755 ], [ -35.5463252, -78.0583465 ], [ -35.5450697, -78.0582658 ], [ -35.5438735, -78.0581494 ], [ -35.5422692, -78.0579098 ], [ -35.5405308, -78.0577146 ], [ -35.5400363, -78.0576232 ], [ -35.5397157, -78.0575038 ], [ -35.5386122, -78.0573536 ], [ -35.5371625, -78.0570754 ], [ -35.5360423, -78.056931 ], [ -35.5344832, -78.056678 ], [ -35.5334608, -78.0563277 ], [ -35.5322232, -78.0560082 ], [ -35.5313291, -78.0558068 ], [ -35.5309749, -78.0556913 ], [ -35.5285245, -78.0554884 ], [ -35.5279534, -78.0554217 ], [ -35.5274267, -78.0553395 ], [ -35.5269939, -78.0552357 ], [ -35.5264437, -78.0551603 ], [ -35.5240079, -78.0549507 ], [ -35.522439, -78.0547014 ], [ -35.5220442, -78.0545919 ], [ -35.5211872, -78.0542228 ], [ -35.5210613, -78.0540892 ], [ -35.5194237, -78.0529079 ], [ -35.5190132, -78.0525075 ], [ -35.5186947, -78.0523867 ], [ -35.5187017, -78.0519772 ], [ -35.5185617, -78.0518435 ], [ -35.517935, -78.0516038 ], [ -35.5174477, -78.0515125 ], [ -35.5170981, -78.0513963 ], [ -35.5168299, -78.0512714 ], [ -35.5166666, -78.0511389 ], [ -35.5165047, -78.0508674 ], [ -35.5163256, -78.0507361 ], [ -35.5168182, -78.0502001 ], [ -35.5169359, -78.0499275 ], [ -35.5169284, -78.049791 ], [ -35.5166147, -78.0493864 ], [ -35.5166372, -78.04925 ], [ -35.5173241, -78.0485822 ], [ -35.5176408, -78.0481773 ], [ -35.5176636, -78.0480408 ], [ -35.5175169, -78.047908 ], [ -35.5173709, -78.0476365 ], [ -35.5158657, -78.0467322 ], [ -35.5153278, -78.0464839 ], [ -35.5144522, -78.0462777 ], [ -35.5141527, -78.0461575 ], [ -35.5116671, -78.0457093 ], [ -35.5113403, -78.0455909 ], [ -35.5103012, -78.0454234 ], [ -35.509896, -78.0453155 ], [ -35.5092131, -78.0450819 ], [ -35.5089997, -78.0449523 ], [ -35.5089383, -78.044816 ], [ -35.509001, -78.0442696 ], [ -35.5082771, -78.0436047 ], [ -35.507921, -78.0434895 ], [ -35.5077097, -78.0433585 ], [ -35.5072525, -78.0428219 ], [ -35.5067691, -78.0425678 ], [ -35.5066565, -78.0420206 ], [ -35.5069972, -78.0416178 ], [ -35.5082399, -78.0405557 ], [ -35.5086628, -78.0402974 ], [ -35.509515, -78.0399274 ], [ -35.5097145, -78.0397972 ], [ -35.5109686, -78.0387356 ], [ -35.5111756, -78.0384656 ], [ -35.5112381, -78.0383299 ], [ -35.5112162, -78.0376472 ], [ -35.5110646, -78.0375141 ], [ -35.5107542, -78.0373945 ], [ -35.510879, -78.037122 ], [ -35.5111005, -78.0368532 ], [ -35.5112041, -78.0365805 ], [ -35.5111895, -78.0364439 ], [ -35.5108598, -78.0360396 ], [ -35.5108852, -78.0359038 ], [ -35.5112429, -78.0353619 ], [ -35.5111972, -78.0350889 ], [ -35.5112762, -78.0349542 ], [ -35.5119886, -78.0342871 ], [ -35.5121487, -78.0340161 ], [ -35.5121154, -78.0338789 ], [ -35.5119575, -78.0337479 ], [ -35.5116195, -78.0336301 ], [ -35.51158, -78.0332197 ], [ -35.5111866, -78.0329613 ], [ -35.5111023, -78.0328261 ], [ -35.5111553, -78.0326896 ], [ -35.5115815, -78.032151 ], [ -35.5116294, -78.0320141 ], [ -35.5115476, -78.0318785 ], [ -35.5117327, -78.0314707 ], [ -35.5117383, -78.031198 ], [ -35.5108838, -78.0306811 ], [ -35.5106004, -78.0305586 ], [ -35.5099005, -78.0303266 ], [ -35.5095796, -78.0300619 ], [ -35.5089069, -78.0298281 ], [ -35.5089247, -78.0296912 ], [ -35.5088523, -78.0295553 ], [ -35.5085638, -78.0292892 ], [ -35.5073892, -78.0287997 ], [ -35.5071514, -78.0286726 ], [ -35.5072182, -78.0279903 ], [ -35.5073967, -78.0277189 ], [ -35.5076652, -78.027452 ], [ -35.5080379, -78.0271899 ], [ -35.5085508, -78.0269383 ], [ -35.5098968, -78.0264693 ], [ -35.5108881, -78.0262901 ], [ -35.5114801, -78.0260458 ], [ -35.5118451, -78.0259324 ], [ -35.5128484, -78.0257559 ], [ -35.5132376, -78.0256456 ], [ -35.5137482, -78.0253943 ], [ -35.5141034, -78.0252791 ], [ -35.5153912, -78.0249686 ], [ -35.5157196, -78.0248506 ], [ -35.516197, -78.0245964 ], [ -35.5170666, -78.0239372 ], [ -35.5173159, -78.0238107 ], [ -35.5176324, -78.0236911 ], [ -35.5180287, -78.023582 ], [ -35.5185291, -78.0234934 ], [ -35.5188914, -78.0233793 ], [ -35.5191003, -78.0232498 ], [ -35.5191719, -78.0231139 ], [ -35.5190872, -78.0229776 ], [ -35.5175014, -78.0227359 ], [ -35.5171101, -78.0226261 ], [ -35.5172886, -78.0223546 ], [ -35.5172845, -78.022081 ], [ -35.5175797, -78.021677 ], [ -35.5176139, -78.0215399 ], [ -35.5175827, -78.0214035 ], [ -35.5174435, -78.0212709 ], [ -35.5171441, -78.0211485 ], [ -35.5172636, -78.0208757 ], [ -35.5176361, -78.0204736 ], [ -35.5200159, -78.0183451 ], [ -35.5201077, -78.018073 ], [ -35.5200607, -78.0179368 ], [ -35.5197353, -78.0176717 ], [ -35.5197227, -78.0175348 ], [ -35.5198911, -78.0171272 ], [ -35.5198567, -78.0168537 ], [ -35.5200491, -78.0165834 ], [ -35.5209355, -78.0157851 ], [ -35.5210926, -78.0155134 ], [ -35.5210661, -78.0153775 ], [ -35.5209104, -78.0152439 ], [ -35.5205911, -78.0151256 ], [ -35.5208918, -78.0145831 ], [ -35.5209144, -78.0144466 ], [ -35.5208437, -78.0143105 ], [ -35.5204686, -78.0140495 ], [ -35.5195559, -78.0135369 ], [ -35.5191292, -78.0134324 ], [ -35.5185249, -78.0131908 ], [ -35.5182616, -78.0129232 ], [ -35.5179221, -78.0128057 ], [ -35.5171721, -78.0122836 ], [ -35.5169359, -78.0118778 ], [ -35.5170413, -78.0116048 ], [ -35.5174067, -78.0112027 ], [ -35.5188941, -78.0098721 ], [ -35.51928, -78.0096112 ], [ -35.5197919, -78.0093596 ], [ -35.5201708, -78.0092474 ], [ -35.520727, -78.0088538 ], [ -35.521292, -78.0086078 ], [ -35.5216755, -78.0084972 ], [ -35.5221481, -78.0084025 ], [ -35.5225023, -78.0082872 ], [ -35.5233806, -78.0079208 ], [ -35.5237398, -78.007806 ], [ -35.524682, -78.0076158 ], [ -35.5250795, -78.0073554 ], [ -35.5252882, -78.0070861 ], [ -35.5252803, -78.0069496 ], [ -35.5251756, -78.0068152 ], [ -35.5249058, -78.0066896 ], [ -35.5247642, -78.0065573 ], [ -35.5246579, -78.0062844 ], [ -35.5243561, -78.0060192 ], [ -35.5243636, -78.0057462 ], [ -35.5245079, -78.0053376 ], [ -35.5243629, -78.0047918 ], [ -35.5239624, -78.0043902 ], [ -35.5240626, -78.0039815 ], [ -35.5239772, -78.0037088 ], [ -35.5239793, -78.0032989 ], [ -35.5236478, -78.0030348 ], [ -35.523408, -78.0027661 ], [ -35.5232388, -78.0026345 ], [ -35.5229602, -78.0025103 ], [ -35.5228645, -78.0023756 ], [ -35.5231291, -78.0018317 ], [ -35.5229566, -78.0012866 ], [ -35.5227897, -78.0011548 ], [ -35.5224619, -78.0010367 ], [ -35.5228202, -78.0004956 ], [ -35.5228543, -78.0003585 ], [ -35.5228303, -78.0002222 ], [ -35.5227138, -78.0000885 ], [ -35.5224556, -77.9999623 ], [ -35.5223786, -77.9998272 ], [ -35.5225111, -77.9994181 ], [ -35.522487, -77.9992818 ], [ -35.5222343, -77.9988751 ], [ -35.5214296, -77.9983545 ], [ -35.5212899, -77.9978102 ], [ -35.5210703, -77.9976806 ], [ -35.5210023, -77.9975452 ], [ -35.521231, -77.9971386 ], [ -35.5212318, -77.9968655 ], [ -35.521067, -77.9967333 ], [ -35.5206901, -77.9966215 ], [ -35.5200867, -77.9960901 ], [ -35.5198018, -77.9959668 ], [ -35.5192583, -77.9958897 ], [ -35.5187992, -77.9957912 ], [ -35.5184512, -77.995675 ], [ -35.518337, -77.9955409 ], [ -35.5176657, -77.995014 ], [ -35.5173021, -77.9949002 ], [ -35.5169638, -77.994636 ], [ -35.5161177, -77.9942649 ], [ -35.5156496, -77.9940099 ], [ -35.5148847, -77.9937879 ], [ -35.5146451, -77.9936612 ], [ -35.5143196, -77.9935417 ], [ -35.5134729, -77.9933341 ], [ -35.5125551, -77.9931381 ], [ -35.5120625, -77.9928856 ], [ -35.5111022, -77.9925282 ], [ -35.5103086, -77.9921537 ], [ -35.5095575, -77.9919308 ], [ -35.5095658, -77.9916577 ], [ -35.5092985, -77.9913897 ], [ -35.5094328, -77.9907086 ], [ -35.5091969, -77.9903017 ], [ -35.5086947, -77.9899053 ], [ -35.5082437, -77.989367 ], [ -35.5079265, -77.989102 ], [ -35.5076885, -77.9886954 ], [ -35.507312, -77.9882927 ], [ -35.5073089, -77.9881555 ], [ -35.5073923, -77.9880201 ], [ -35.5079014, -77.9874847 ], [ -35.5080355, -77.9872131 ], [ -35.5077606, -77.9868075 ], [ -35.5071696, -77.9862744 ], [ -35.5067479, -77.9860171 ], [ -35.5064228, -77.9858987 ], [ -35.5066657, -77.9854923 ], [ -35.5066711, -77.9852186 ], [ -35.5070021, -77.9846772 ], [ -35.5069545, -77.9844045 ], [ -35.5065688, -77.984143 ], [ -35.5067033, -77.9835972 ], [ -35.5068878, -77.9831895 ], [ -35.5073733, -77.9826531 ], [ -35.5074646, -77.9822446 ], [ -35.5068815, -77.981999 ], [ -35.5072532, -77.9815969 ], [ -35.5079982, -77.9809325 ], [ -35.5081648, -77.9806616 ], [ -35.508141, -77.9805253 ], [ -35.5080156, -77.9803906 ], [ -35.5077377, -77.9802664 ], [ -35.507902, -77.9795853 ], [ -35.5077812, -77.9794511 ], [ -35.5077535, -77.9790413 ], [ -35.5074344, -77.9787766 ], [ -35.5074891, -77.9780939 ], [ -35.5072433, -77.9778261 ], [ -35.5071643, -77.9772796 ], [ -35.5070321, -77.977146 ], [ -35.5069845, -77.9768734 ], [ -35.5068638, -77.9767381 ], [ -35.5066245, -77.9766115 ], [ -35.5063039, -77.9764913 ], [ -35.5064333, -77.9762204 ], [ -35.5064459, -77.9759478 ], [ -35.5067927, -77.9754062 ], [ -35.5068099, -77.975133 ], [ -35.5065685, -77.9748635 ], [ -35.5063329, -77.9744566 ], [ -35.5057591, -77.9740665 ], [ -35.5056291, -77.9739325 ], [ -35.505356, -77.9738076 ], [ -35.5051172, -77.9735399 ], [ -35.5048598, -77.9734138 ], [ -35.5047509, -77.973279 ], [ -35.5047372, -77.9728693 ], [ -35.5042631, -77.9724711 ], [ -35.5039006, -77.971931 ], [ -35.5037503, -77.9717979 ], [ -35.5035022, -77.9716714 ], [ -35.5031729, -77.9715537 ], [ -35.5034048, -77.9712843 ], [ -35.5035155, -77.9710128 ], [ -35.5032502, -77.9706071 ], [ -35.5022373, -77.9701033 ], [ -35.5018149, -77.9699983 ], [ -35.5014387, -77.9697366 ], [ -35.501189, -77.9694695 ], [ -35.5009453, -77.9693424 ], [ -35.5004441, -77.9692547 ], [ -35.5000459, -77.9691462 ], [ -35.4997235, -77.9690275 ], [ -35.4992546, -77.9687717 ], [ -35.4990609, -77.9683642 ], [ -35.4988311, -77.9682362 ], [ -35.498347, -77.9681438 ], [ -35.4980881, -77.968019 ], [ -35.4978851, -77.9676118 ], [ -35.49702, -77.9670962 ], [ -35.496322, -77.9668656 ], [ -35.4963677, -77.966729 ], [ -35.496314, -77.9665927 ], [ -35.4958297, -77.9663393 ], [ -35.4953478, -77.9662465 ], [ -35.4941315, -77.9659241 ], [ -35.4940729, -77.9656521 ], [ -35.4938023, -77.9653847 ], [ -35.4928106, -77.964879 ], [ -35.4919247, -77.9645131 ], [ -35.4914541, -77.9642587 ], [ -35.4905502, -77.964061 ], [ -35.4900231, -77.9639794 ], [ -35.4887238, -77.9636727 ], [ -35.4883746, -77.9635569 ], [ -35.4880895, -77.9631519 ], [ -35.4863211, -77.9624207 ], [ -35.4859367, -77.9621602 ], [ -35.4845542, -77.9616948 ], [ -35.4840954, -77.9615998 ], [ -35.4837221, -77.9614876 ], [ -35.482684, -77.961321 ], [ -35.4822659, -77.9612154 ], [ -35.4817263, -77.9611369 ], [ -35.4804971, -77.9610457 ], [ -35.4798517, -77.9610186 ], [ -35.4785485, -77.9610156 ], [ -35.477912, -77.9610499 ], [ -35.4773661, -77.9611255 ], [ -35.4760558, -77.9611302 ], [ -35.4741072, -77.9611728 ], [ -35.473451, -77.9611708 ], [ -35.472168, -77.9611189 ], [ -35.4716865, -77.9608651 ], [ -35.4713112, -77.9607532 ], [ -35.4711534, -77.9604814 ], [ -35.4710014, -77.9603486 ], [ -35.4709916, -77.9600761 ], [ -35.4708159, -77.9598059 ], [ -35.4699788, -77.9595961 ], [ -35.4689994, -77.9594152 ], [ -35.4685929, -77.9593079 ], [ -35.4684656, -77.9591725 ], [ -35.468169, -77.9590522 ], [ -35.4669195, -77.9589708 ], [ -35.462477, -77.9587367 ], [ -35.4618757, -77.9586841 ], [ -35.4613322, -77.9586083 ], [ -35.4609325, -77.9585 ], [ -35.4614402, -77.9579639 ], [ -35.4636913, -77.955969 ], [ -35.4639702, -77.9555642 ], [ -35.4639748, -77.9552918 ], [ -35.4642651, -77.9548864 ], [ -35.4643298, -77.954614 ], [ -35.4642694, -77.9544776 ], [ -35.4638699, -77.9542173 ], [ -35.4642384, -77.9535386 ], [ -35.4641711, -77.9531293 ], [ -35.4640207, -77.9528588 ], [ -35.4637439, -77.9525903 ], [ -35.4636509, -77.9520451 ], [ -35.4643526, -77.951101 ], [ -35.4643243, -77.9506916 ], [ -35.4641743, -77.9504209 ], [ -35.4635201, -77.950184 ], [ -35.4629915, -77.9499339 ], [ -35.4623822, -77.9496925 ], [ -35.4620349, -77.9494288 ], [ -35.461745, -77.9493065 ], [ -35.4606866, -77.948962 ], [ -35.4602543, -77.9488597 ], [ -35.459319, -77.9484991 ], [ -35.4585139, -77.9481247 ], [ -35.4580101, -77.9480397 ], [ -35.4566017, -77.9475796 ], [ -35.4558104, -77.947059 ], [ -35.455516, -77.9469373 ], [ -35.454735, -77.9467181 ], [ -35.4541549, -77.946327 ], [ -35.4533696, -77.9461085 ], [ -35.4530593, -77.9459881 ], [ -35.4520576, -77.9458129 ], [ -35.4511515, -77.9456167 ], [ -35.4503178, -77.9454054 ], [ -35.450021, -77.9452841 ], [ -35.4488085, -77.9449625 ], [ -35.4475568, -77.9444825 ], [ -35.4472172, -77.9442189 ], [ -35.4469724, -77.9440921 ], [ -35.446411, -77.9438459 ], [ -35.4457148, -77.9436141 ], [ -35.4456042, -77.9433421 ], [ -35.4451724, -77.9429436 ], [ -35.4444987, -77.9427085 ], [ -35.4444158, -77.9425733 ], [ -35.4441665, -77.9424471 ], [ -35.4439756, -77.9421771 ], [ -35.4437423, -77.9420497 ], [ -35.4436298, -77.9419156 ], [ -35.443572, -77.9413686 ], [ -35.4438348, -77.9409629 ], [ -35.4438395, -77.9406906 ], [ -35.443711, -77.9405566 ], [ -35.4434346, -77.9404323 ], [ -35.4433931, -77.9400227 ], [ -35.4430578, -77.9396199 ], [ -35.4428626, -77.9394891 ], [ -35.4424616, -77.9393811 ], [ -35.4415896, -77.9388659 ], [ -35.4411514, -77.9387656 ], [ -35.4409339, -77.938637 ], [ -35.4403319, -77.9383935 ], [ -35.4398432, -77.938141 ], [ -35.4387133, -77.9378072 ], [ -35.438442, -77.9376833 ], [ -35.4376201, -77.9374714 ], [ -35.4373059, -77.9373516 ], [ -35.4368552, -77.9370945 ], [ -35.4363779, -77.9370035 ], [ -35.4353479, -77.9366537 ], [ -35.4341962, -77.9363221 ], [ -35.4333398, -77.9361176 ], [ -35.4331515, -77.9359858 ], [ -35.4328378, -77.9358671 ], [ -35.4326385, -77.9357369 ], [ -35.4315736, -77.9353935 ], [ -35.4313448, -77.9352655 ], [ -35.431024, -77.9351456 ], [ -35.4309159, -77.9350108 ], [ -35.4307238, -77.9348807 ], [ -35.4303011, -77.9347771 ], [ -35.4299533, -77.9346612 ], [ -35.4290694, -77.9342953 ], [ -35.4285971, -77.9338974 ], [ -35.4282362, -77.9337834 ], [ -35.4273935, -77.9335769 ], [ -35.4273087, -77.9333045 ], [ -35.427574, -77.9328985 ], [ -35.428126, -77.9323638 ], [ -35.4305442, -77.9302383 ], [ -35.4307234, -77.929968 ], [ -35.4307123, -77.9298322 ], [ -35.4306086, -77.9296968 ], [ -35.4303849, -77.9295691 ], [ -35.4302748, -77.9294346 ], [ -35.4302431, -77.9290248 ], [ -35.4300616, -77.9287545 ], [ -35.4299608, -77.9286197 ], [ -35.4295469, -77.9283606 ], [ -35.4298052, -77.927817 ], [ -35.4298124, -77.9276808 ], [ -35.4297137, -77.9275457 ], [ -35.4298207, -77.9272727 ], [ -35.4297954, -77.9271368 ], [ -35.4296899, -77.9270017 ], [ -35.4294726, -77.926872 ], [ -35.4291791, -77.9267514 ], [ -35.429391, -77.9263443 ], [ -35.4291775, -77.9259369 ], [ -35.429008, -77.9258057 ], [ -35.4297812, -77.9250022 ], [ -35.4298322, -77.9248661 ], [ -35.4298187, -77.9247295 ], [ -35.4297132, -77.9245944 ], [ -35.4294847, -77.9244664 ], [ -35.4294113, -77.9243309 ], [ -35.4296017, -77.9237851 ], [ -35.4294949, -77.9232412 ], [ -35.429341, -77.9231076 ], [ -35.4289854, -77.9229941 ], [ -35.4286503, -77.9225903 ], [ -35.428522, -77.9223188 ], [ -35.4283479, -77.9221872 ], [ -35.4279675, -77.9220762 ], [ -35.4278116, -77.9218055 ], [ -35.4275607, -77.9216786 ], [ -35.4273655, -77.9214082 ], [ -35.4270657, -77.9212885 ], [ -35.4266564, -77.9210276 ], [ -35.4263364, -77.9209099 ], [ -35.4257374, -77.9205197 ], [ -35.4255199, -77.9202504 ], [ -35.4250634, -77.9199943 ], [ -35.4240353, -77.9196457 ], [ -35.4238794, -77.9193739 ], [ -35.4236176, -77.9192497 ], [ -35.4234849, -77.9191164 ], [ -35.4232316, -77.9189898 ], [ -35.4227551, -77.9188976 ], [ -35.4224213, -77.9187797 ], [ -35.4220531, -77.9185172 ], [ -35.4214554, -77.9182755 ], [ -35.4212263, -77.9180068 ], [ -35.4212407, -77.9178706 ], [ -35.4215922, -77.9174674 ], [ -35.4216711, -77.9171941 ], [ -35.4216028, -77.917059 ], [ -35.4211036, -77.9168071 ], [ -35.4217954, -77.9161398 ], [ -35.4249729, -77.9133501 ], [ -35.4251865, -77.9130802 ], [ -35.4252589, -77.9128079 ], [ -35.4250067, -77.9124008 ], [ -35.4245914, -77.9121431 ], [ -35.4244996, -77.912007 ], [ -35.4244382, -77.9115971 ], [ -35.4246244, -77.911328 ], [ -35.4250176, -77.9109264 ], [ -35.4250345, -77.9106535 ], [ -35.4248883, -77.910521 ], [ -35.4244881, -77.9104131 ], [ -35.4241567, -77.9101496 ], [ -35.4239875, -77.9097412 ], [ -35.4224749, -77.9089844 ], [ -35.4220442, -77.9087279 ], [ -35.4217875, -77.9083215 ], [ -35.4216166, -77.9081905 ], [ -35.4214564, -77.907782 ], [ -35.4211587, -77.907661 ], [ -35.4208431, -77.9073951 ], [ -35.4206064, -77.9072684 ], [ -35.4204576, -77.9069978 ], [ -35.4200674, -77.9067364 ], [ -35.4199144, -77.906329 ], [ -35.4195754, -77.9059248 ], [ -35.4189919, -77.9056811 ], [ -35.418773, -77.9055528 ], [ -35.4178774, -77.9047555 ], [ -35.4176766, -77.9046257 ], [ -35.4166457, -77.9042777 ], [ -35.4156867, -77.9034843 ], [ -35.4150917, -77.9032412 ], [ -35.4148662, -77.9031128 ], [ -35.4145441, -77.902848 ], [ -35.4140796, -77.9025932 ], [ -35.4137192, -77.9023307 ], [ -35.4136849, -77.902194 ], [ -35.413848, -77.9019238 ], [ -35.4138466, -77.9016503 ], [ -35.4136843, -77.9015181 ], [ -35.4132583, -77.901414 ], [ -35.4129548, -77.9011498 ], [ -35.4128229, -77.9006041 ], [ -35.412618, -77.9004749 ], [ -35.4125514, -77.9003385 ], [ -35.4125922, -77.8999291 ], [ -35.4125006, -77.8997941 ], [ -35.4111845, -77.8990228 ], [ -35.410845, -77.898907 ], [ -35.4099254, -77.8987134 ], [ -35.409227, -77.8983315 ], [ -35.4083039, -77.8979709 ], [ -35.4080853, -77.8978426 ], [ -35.4078068, -77.8975758 ], [ -35.4073832, -77.8973172 ], [ -35.4071987, -77.8971861 ], [ -35.4066761, -77.8969366 ], [ -35.4063363, -77.8968197 ], [ -35.4055994, -77.8965944 ], [ -35.4051762, -77.8964911 ], [ -35.4050368, -77.8963577 ], [ -35.4044646, -77.8961112 ], [ -35.4039021, -77.8957203 ], [ -35.4030487, -77.8952041 ], [ -35.402631, -77.8948039 ], [ -35.4022892, -77.8946873 ], [ -35.4021413, -77.8944167 ], [ -35.4016172, -77.8940223 ], [ -35.4012005, -77.8937627 ], [ -35.4008567, -77.8936475 ], [ -35.4006651, -77.8933767 ], [ -35.4004829, -77.8932464 ], [ -35.4003278, -77.8929746 ], [ -35.4001364, -77.8928445 ], [ -35.3995451, -77.892602 ], [ -35.3991347, -77.8924957 ], [ -35.3988288, -77.8923748 ], [ -35.398445, -77.8922645 ], [ -35.3975243, -77.8917539 ], [ -35.3971183, -77.8916469 ], [ -35.3952592, -77.8906272 ], [ -35.3949534, -77.8905064 ], [ -35.3945697, -77.8903961 ], [ -35.3942008, -77.8901339 ], [ -35.3939274, -77.8898675 ], [ -35.3935203, -77.8896076 ], [ -35.3921121, -77.8889933 ], [ -35.3912947, -77.8887812 ], [ -35.3908578, -77.8885224 ], [ -35.3897379, -77.8880304 ], [ -35.3884996, -77.8877147 ], [ -35.387281, -77.8872318 ], [ -35.3868585, -77.8869743 ], [ -35.3857105, -77.8866429 ], [ -35.3856286, -77.8865077 ], [ -35.3854399, -77.8863761 ], [ -35.3846425, -77.8861622 ], [ -35.3840515, -77.8859186 ], [ -35.3835731, -77.8853813 ], [ -35.3832437, -77.8851177 ], [ -35.3828568, -77.8847163 ], [ -35.3822676, -77.8844725 ], [ -35.3816769, -77.8840826 ], [ -35.3801156, -77.8834834 ], [ -35.379972, -77.8833496 ], [ -35.3793499, -77.8829622 ], [ -35.3792113, -77.8828287 ], [ -35.3789504, -77.8827034 ], [ -35.3787986, -77.8824335 ], [ -35.3782772, -77.8821829 ], [ -35.3770217, -77.8818687 ], [ -35.3765788, -77.8814713 ], [ -35.3751144, -77.8808622 ], [ -35.3747845, -77.8805976 ], [ -35.3745103, -77.8804732 ], [ -35.3741472, -77.8803599 ], [ -35.3737186, -77.8801033 ], [ -35.3735659, -77.8799698 ], [ -35.3724899, -77.8796288 ], [ -35.3722044, -77.879505 ], [ -35.3717947, -77.8793986 ], [ -35.3708523, -77.8790411 ], [ -35.3700889, -77.8788211 ], [ -35.369763, -77.8787022 ], [ -35.3692991, -77.8786061 ], [ -35.3685421, -77.8783851 ], [ -35.3679964, -77.8783101 ], [ -35.3675131, -77.8782192 ], [ -35.3667693, -77.8779951 ], [ -35.3666922, -77.8778592 ], [ -35.3664228, -77.8777352 ], [ -35.3662613, -77.877603 ], [ -35.3650072, -77.8771256 ], [ -35.36462, -77.8770159 ], [ -35.3647188, -77.8767432 ], [ -35.3646759, -77.8766067 ], [ -35.3647192, -77.8763334 ], [ -35.3646136, -77.8760622 ], [ -35.3644185, -77.8759317 ], [ -35.3641424, -77.8758087 ], [ -35.3639792, -77.8755372 ], [ -35.363537, -77.8752804 ], [ -35.3633373, -77.8750098 ], [ -35.3631423, -77.8748804 ], [ -35.363233, -77.8744716 ], [ -35.3631078, -77.8743373 ], [ -35.3634277, -77.8739335 ], [ -35.3635588, -77.8736616 ], [ -35.3635562, -77.873116 ], [ -35.3632359, -77.8727116 ], [ -35.3630657, -77.8725795 ], [ -35.3626984, -77.8724668 ], [ -35.3624967, -77.8721977 ], [ -35.3622791, -77.8720683 ], [ -35.36205, -77.8717999 ], [ -35.3620127, -77.8712539 ], [ -35.3623325, -77.87085 ], [ -35.363831, -77.8695212 ], [ -35.3644659, -77.8691339 ], [ -35.3650577, -77.8688904 ], [ -35.3652844, -77.8687628 ], [ -35.3660962, -77.8682442 ], [ -35.3669238, -77.867874 ], [ -35.3674764, -77.8674811 ], [ -35.3680751, -77.8669496 ], [ -35.3683178, -77.8665438 ], [ -35.368266, -77.8664075 ], [ -35.3682859, -77.8658619 ], [ -35.3683898, -77.8654523 ], [ -35.3683518, -77.8653161 ], [ -35.3682245, -77.865181 ], [ -35.3679801, -77.8650556 ], [ -35.367901, -77.86492 ], [ -35.3681054, -77.8643759 ], [ -35.3679966, -77.8642414 ], [ -35.3679338, -77.8639683 ], [ -35.3678115, -77.8638347 ], [ -35.366746, -77.8630481 ], [ -35.3655436, -77.8627262 ], [ -35.3637818, -77.8619967 ], [ -35.3627304, -77.8618365 ], [ -35.3614492, -77.8615276 ], [ -35.3610935, -77.8614132 ], [ -35.3605588, -77.8613345 ], [ -35.3600851, -77.8612422 ], [ -35.3597934, -77.8611194 ], [ -35.3579193, -77.8605618 ], [ -35.3576146, -77.8604421 ], [ -35.3572726, -77.8600387 ], [ -35.3571605, -77.8597674 ], [ -35.3574537, -77.8590873 ], [ -35.3574067, -77.8589515 ], [ -35.3575617, -77.8585432 ], [ -35.357502, -77.8582707 ], [ -35.3570942, -77.8580112 ], [ -35.3572009, -77.8576023 ], [ -35.3572334, -77.8569187 ], [ -35.3571, -77.8567857 ], [ -35.3571158, -77.856512 ], [ -35.3570391, -77.8563773 ], [ -35.3566183, -77.8561197 ], [ -35.3562516, -77.856007 ], [ -35.3553689, -77.8558061 ], [ -35.3546228, -77.8554274 ], [ -35.3543203, -77.8553073 ], [ -35.3539184, -77.8551999 ], [ -35.3524922, -77.8549194 ], [ -35.3516101, -77.8547207 ], [ -35.3512216, -77.8546112 ], [ -35.350752, -77.8545172 ], [ -35.3495047, -77.8542022 ], [ -35.3479963, -77.8537577 ], [ -35.3466294, -77.8534661 ], [ -35.3462388, -77.853357 ], [ -35.346137, -77.8532226 ], [ -35.3459132, -77.8530942 ], [ -35.345676, -77.8529677 ], [ -35.3453359, -77.8528511 ], [ -35.3444516, -77.8526516 ], [ -35.3436744, -77.8524327 ], [ -35.3427204, -77.852247 ], [ -35.3418996, -77.8520358 ], [ -35.3398465, -77.8517027 ], [ -35.3388518, -77.8515275 ], [ -35.3384198, -77.8514257 ], [ -35.3382162, -77.8512964 ], [ -35.3364791, -77.8507187 ], [ -35.3359155, -77.8504735 ], [ -35.3352622, -77.8500878 ], [ -35.3347924, -77.8495508 ], [ -35.3345062, -77.8494283 ], [ -35.3341441, -77.849315 ], [ -35.3339226, -77.8491862 ], [ -35.3333058, -77.8489468 ], [ -35.3326864, -77.8484165 ], [ -35.3323957, -77.8482947 ], [ -35.332003, -77.8481859 ], [ -35.3310638, -77.8478273 ], [ -35.3299277, -77.8474947 ], [ -35.3294392, -77.8474046 ], [ -35.3276954, -77.8469998 ], [ -35.3269635, -77.8467754 ], [ -35.32577, -77.8466678 ], [ -35.3223156, -77.8462917 ], [ -35.3199307, -77.8460741 ], [ -35.3183785, -77.8458293 ], [ -35.3167017, -77.8454144 ], [ -35.3156548, -77.8452549 ], [ -35.3148346, -77.8450425 ], [ -35.314366, -77.8449484 ], [ -35.3139954, -77.8448364 ], [ -35.3111106, -77.8445259 ], [ -35.3105604, -77.8444529 ], [ -35.3088161, -77.8440493 ], [ -35.308501, -77.8439301 ], [ -35.3069316, -77.8436878 ], [ -35.3063444, -77.8436293 ], [ -35.3038721, -77.8434659 ], [ -35.3032828, -77.8434088 ], [ -35.3027391, -77.8433337 ], [ -35.3009082, -77.8429486 ], [ -35.2997458, -77.8428263 ], [ -35.2992089, -77.8427502 ], [ -35.2982398, -77.8425702 ], [ -35.2962347, -77.8420337 ], [ -35.2952805, -77.8418491 ], [ -35.2936571, -77.8414231 ], [ -35.2932192, -77.8413233 ], [ -35.2921919, -77.8411564 ], [ -35.2899225, -77.8408936 ], [ -35.2883859, -77.840642 ], [ -35.2878024, -77.8405806 ], [ -35.2853602, -77.8403982 ], [ -35.2842261, -77.8402684 ], [ -35.2830011, -77.8401756 ], [ -35.2818218, -77.8400648 ], [ -35.281304, -77.8399825 ], [ -35.2809406, -77.8398693 ], [ -35.28052, -77.8397647 ], [ -35.2801235, -77.8396566 ], [ -35.2790607, -77.8395016 ], [ -35.2785796, -77.8394105 ], [ -35.2775059, -77.8392572 ], [ -35.2769208, -77.8391972 ], [ -35.2725716, -77.8389254 ], [ -35.2708138, -77.8387525 ], [ -35.2702067, -77.8387036 ], [ -35.2670995, -77.8385121 ], [ -35.2658942, -77.838414 ], [ -35.2647288, -77.8382933 ], [ -35.2628666, -77.838175 ], [ -35.259096, -77.8379786 ], [ -35.2571786, -77.8379108 ], [ -35.2558856, -77.8379038 ], [ -35.2545998, -77.8378735 ], [ -35.2533318, -77.8378148 ], [ -35.2527231, -77.8377684 ], [ -35.2521323, -77.8377115 ], [ -35.2515895, -77.8376384 ], [ -35.2507209, -77.8374356 ], [ -35.2496819, -77.8372726 ], [ -35.2484841, -77.8371678 ], [ -35.246617, -77.8370557 ], [ -35.2454558, -77.8369332 ], [ -35.244962, -77.8368451 ], [ -35.2446015, -77.8367316 ], [ -35.2428752, -77.8365461 ], [ -35.241255, -77.8363191 ], [ -35.2407761, -77.8362255 ], [ -35.2396343, -77.8360979 ], [ -35.239117, -77.8360155 ], [ -35.2374218, -77.8358164 ], [ -35.2354532, -77.8354608 ], [ -35.2332114, -77.8351882 ], [ -35.2320161, -77.835083 ], [ -35.2307792, -77.8350019 ], [ -35.2232376, -77.8346042 ], [ -35.2220029, -77.8345216 ], [ -35.2203124, -77.8343218 ], [ -35.2192671, -77.833977 ], [ -35.2188057, -77.8338807 ], [ -35.2182439, -77.8338116 ], [ -35.2164486, -77.8336553 ], [ -35.2153087, -77.8335241 ], [ -35.2140848, -77.8334387 ], [ -35.2090544, -77.8331765 ], [ -35.207809, -77.8330965 ], [ -35.2066476, -77.8329796 ], [ -35.2056345, -77.8328072 ], [ -35.2050757, -77.8327399 ], [ -35.2038656, -77.8326446 ], [ -35.201989, -77.832536 ], [ -35.1975797, -77.8323138 ], [ -35.1962988, -77.8322726 ], [ -35.194362, -77.8322553 ], [ -35.1918199, -77.8321509 ], [ -35.1899768, -77.8320206 ], [ -35.1870325, -77.8317375 ], [ -35.1864567, -77.831675 ], [ -35.1859551, -77.8315891 ], [ -35.1784222, -77.8311828 ], [ -35.1765865, -77.8310524 ], [ -35.1749113, -77.8308446 ], [ -35.1743799, -77.8307666 ], [ -35.1734175, -77.8305843 ], [ -35.1728544, -77.8305165 ], [ -35.171042, -77.8303693 ], [ -35.16988, -77.8302468 ], [ -35.1689354, -77.830062 ], [ -35.1679037, -77.8298945 ], [ -35.167476, -77.8297932 ], [ -35.1658332, -77.8295751 ], [ -35.1646773, -77.8294495 ], [ -35.1641633, -77.8293677 ], [ -35.1633603, -77.829154 ], [ -35.1628058, -77.8290838 ], [ -35.1613311, -77.8288163 ], [ -35.1605765, -77.8285943 ], [ -35.1594036, -77.8284812 ], [ -35.1571539, -77.8282107 ], [ -35.1566569, -77.8281242 ], [ -35.1548425, -77.8279761 ], [ -35.154261, -77.8279166 ], [ -35.1537341, -77.8278378 ], [ -35.1506667, -77.8276198 ], [ -35.150081, -77.827562 ], [ -35.1495411, -77.8274863 ], [ -35.1471437, -77.82728 ], [ -35.146606, -77.827204 ], [ -35.1442045, -77.8269994 ], [ -35.1430646, -77.8268714 ], [ -35.1424565, -77.8268236 ], [ -35.1405839, -77.8267142 ], [ -35.1368052, -77.8265259 ], [ -35.1355181, -77.8264921 ], [ -35.1342239, -77.8264927 ], [ -35.1335827, -77.8264766 ], [ -35.130393, -77.8263589 ], [ -35.1271656, -77.8263425 ], [ -35.1233069, -77.8264364 ], [ -35.1226605, -77.8264355 ], [ -35.1213738, -77.8264038 ], [ -35.1195116, -77.8262894 ], [ -35.1167451, -77.8259363 ], [ -35.1155173, -77.825848 ], [ -35.1136114, -77.8257689 ], [ -35.112971, -77.8257549 ], [ -35.1116776, -77.8257575 ], [ -35.1103973, -77.8257148 ], [ -35.0908894, -77.8247202 ], [ -35.089602, -77.8247018 ], [ -35.0889548, -77.8247143 ], [ -35.087734, -77.824804 ], [ -35.0857953, -77.8248187 ], [ -35.0845496, -77.824892 ], [ -35.0838995, -77.8248938 ], [ -35.0826303, -77.8248471 ], [ -35.0763371, -77.8245279 ], [ -35.0744159, -77.8244666 ], [ -35.0718332, -77.8244976 ], [ -35.0712048, -77.8245306 ], [ -35.0706375, -77.8245968 ], [ -35.0687181, -77.8245418 ], [ -35.064925, -77.8243616 ], [ -35.0636311, -77.824353 ], [ -35.062998, -77.8243767 ], [ -35.0623973, -77.8244278 ], [ -35.0617505, -77.8244424 ], [ -35.0585561, -77.824337 ], [ -35.0566244, -77.8243326 ], [ -35.0540939, -77.8242168 ], [ -35.0396346, -77.8234674 ], [ -35.0384041, -77.8233826 ], [ -35.0378277, -77.8233222 ], [ -35.0372929, -77.8232446 ], [ -35.0360729, -77.8229269 ], [ -35.0345075, -77.8226848 ], [ -35.0336983, -77.8224721 ], [ -35.0318686, -77.8223347 ], [ -35.0312881, -77.8222749 ], [ -35.0302766, -77.8221043 ], [ -35.029815, -77.8220069 ], [ -35.02947, -77.8218912 ], [ -35.0286239, -77.8216861 ], [ -35.0277298, -77.8214893 ], [ -35.0271248, -77.8212486 ], [ -35.0255809, -77.8209988 ], [ -35.0242428, -77.820702 ], [ -35.0237365, -77.8206179 ], [ -35.0231786, -77.8205481 ], [ -35.022584, -77.820496 ], [ -35.018218, -77.8202401 ], [ -35.0176228, -77.8201858 ], [ -35.0170614, -77.8201187 ], [ -35.0165566, -77.8200322 ], [ -35.0161765, -77.8199217 ], [ -35.0144314, -77.819745 ], [ -35.0115638, -77.8194276 ], [ -35.0110661, -77.8193411 ], [ -35.0099828, -77.8191912 ], [ -35.0095066, -77.8190993 ], [ -35.009164, -77.8189832 ], [ -35.0079543, -77.8188864 ], [ -35.0077007, -77.8188701 ], [ -35.012711, -77.8180308 ], [ -35.0144117, -77.8179009 ], [ -35.0365797, -77.8129009 ], [ -35.0214557, -77.8095935 ], [ -35.0413822, -77.8081023 ], [ -35.0376654, -77.8057335 ], [ -35.0486964, -77.8061427 ], [ -35.070386, -77.806431 ], [ -35.0843725, -77.8052321 ], [ -35.0985309, -77.8028378 ], [ -35.0846036, -77.7990635 ], [ -35.0923796, -77.7984929 ], [ -35.1159062, -77.7985027 ], [ -35.1235789, -77.7970696 ], [ -35.1341938, -77.794029 ], [ -35.1416908, -77.79379 ], [ -35.1598974, -77.7913707 ], [ -35.1764166, -77.788031 ], [ -35.1729522, -77.7853311 ], [ -35.1663427, -77.7825156 ], [ -35.1634273, -77.7791495 ], [ -35.172927, -77.7774396 ], [ -35.1790673, -77.7738912 ], [ -35.1835864, -77.7673674 ], [ -35.1853832, -77.7641744 ], [ -35.1865298, -77.760786 ], [ -35.1960697, -77.7570195 ], [ -35.1982399, -77.7543548 ], [ -35.1904495, -77.752011 ], [ -35.1796894, -77.7483571 ], [ -35.1602774, -77.7454132 ], [ -35.1440112, -77.7425837 ], [ -35.1453732, -77.7409186 ], [ -35.1491195, -77.7383123 ], [ -35.1443801, -77.7352214 ], [ -35.1318099, -77.7318408 ], [ -35.1174074, -77.7287347 ], [ -35.1013464, -77.7247083 ], [ -35.0846508, -77.7204854 ], [ -35.0742241, -77.7164945 ], [ -35.0664817, -77.7141473 ], [ -35.051198, -77.711175 ], [ -35.0423656, -77.7101587 ], [ -35.0212233, -77.7133141 ], [ -35.0045769, -77.7149209 ], [ -35.0, -77.714749101098946 ], [ -35.0, -80.0 ], [ -40.0, -80.0 ], [ -40.0, -77.908111217829514 ], [ -39.9844036, -77.9110965 ] ] ] ] } }
]
}
