{
"type": "FeatureCollection",
"name": "-40_60",
"crs": { "type": "name", "properties": { "name": "urn:ogc:def:crs:OGC:1.3:CRS84" } },
"xy_coordinate_resolution": 1e-15,
"features": [
{ "type": "Feature", "properties": { "FID": 114188, "id": 1014, "left": -40.0, "top": 65.0, "right": -35.0, "bottom": 60.0, "row_index": 5, "col_index": 28, "min_lon": -40.0, "min_lat": 60.0, "tile_id": "-40_60" }, "geometry": { "type": "MultiPolygon", "coordinates": [ [ [ [ -39.9815406, 64.9999499 ], [ -39.9806973, 64.9994407 ], [ -39.979131, 64.9982187 ], [ -39.9799744, 64.9976076 ], [ -39.9799744, 64.9967419 ], [ -39.9814201, 64.9967419 ], [ -39.9837092, 64.9964364 ], [ -39.9856369, 64.9965383 ], [ -39.9870826, 64.9961309 ], [ -39.9878055, 64.9947559 ], [ -39.9893717, 64.9956725 ], [ -39.9890103, 64.9968438 ], [ -39.9884079, 64.9971493 ], [ -39.9884079, 64.9978622 ], [ -39.9920222, 64.9978622 ], [ -39.9920222, 64.9970475 ], [ -39.9947932, 64.9985242 ], [ -39.992986, 64.9987788 ], [ -39.9919017, 64.9990843 ], [ -39.991208360648912, 65.0 ], [ -39.9815406, 65.0 ], [ -39.9815406, 64.9999499 ] ] ] ] } },
{ "type": "Feature", "properties": { "FID": 114189, "id": 1014, "left": -40.0, "top": 65.0, "right": -35.0, "bottom": 60.0, "row_index": 5, "col_index": 28, "min_lon": -40.0, "min_lat": 60.0, "tile_id": "-40_60" }, "geometry": { "type": "MultiPolygon", "coordinates": [ [ [ [ -39.9816611, 64.9933808 ], [ -39.9808177, 64.9938392 ], [ -39.979131, 64.9933299 ], [ -39.9790106, 64.9945522 ], [ -39.9767215, 64.9938392 ], [ -39.9751552, 64.9935846 ], [ -39.9762396, 64.9926678 ], [ -39.9744324, 64.9926678 ], [ -39.9721433, 64.9920057 ], [ -39.9725047, 64.9912927 ], [ -39.9757576, 64.9910889 ], [ -39.9757576, 64.9907833 ], [ -39.9725047, 64.9910889 ], [ -39.9712999, 64.9907324 ], [ -39.9712999, 64.9917511 ], [ -39.9704566, 64.9917511 ], [ -39.9685289, 64.9907833 ], [ -39.9672037, 64.9907324 ], [ -39.9662398, 64.9913436 ], [ -39.9653965, 64.9919548 ], [ -39.9621436, 64.9919548 ], [ -39.9633484, 64.9914455 ], [ -39.9657579, 64.9909361 ], [ -39.9629869, 64.9909871 ], [ -39.9605774, 64.9907324 ], [ -39.9592521, 64.9901721 ], [ -39.9604569, 64.9897646 ], [ -39.9623845, 64.9891534 ], [ -39.9600954, 64.9891534 ], [ -39.9594931, 64.988695 ], [ -39.956963, 64.988644 ], [ -39.9563606, 64.9878799 ], [ -39.9573244, 64.9871668 ], [ -39.9556377, 64.9861989 ], [ -39.9546739, 64.9848234 ], [ -39.956963, 64.9847725 ], [ -39.9552763, 64.9839573 ], [ -39.9570835, 64.9836007 ], [ -39.9553968, 64.9832441 ], [ -39.9550354, 64.9824798 ], [ -39.9558787, 64.9816137 ], [ -39.9575654, 64.9816137 ], [ -39.9563606, 64.9809513 ], [ -39.9556377, 64.9803908 ], [ -39.9563606, 64.9796265 ], [ -39.9592521, 64.9796774 ], [ -39.9581678, 64.9804927 ], [ -39.9603364, 64.9805437 ], [ -39.9640712, 64.980136 ], [ -39.9651555, 64.9806965 ], [ -39.9650351, 64.9813079 ], [ -39.9661194, 64.9816137 ], [ -39.9696132, 64.982327 ], [ -39.968047, 64.9814099 ], [ -39.9681675, 64.9809003 ], [ -39.9714204, 64.9814099 ], [ -39.9733481, 64.9814099 ], [ -39.9767215, 64.9829893 ], [ -39.9758781, 64.9819194 ], [ -39.9767215, 64.9818175 ], [ -39.9797334, 64.9838554 ], [ -39.9810587, 64.98518 ], [ -39.9826249, 64.9866064 ], [ -39.9847935, 64.9868611 ], [ -39.9857573, 64.9875234 ], [ -39.9838297, 64.9887459 ], [ -39.982143, 64.9887459 ], [ -39.9828659, 64.9897137 ], [ -39.981902, 64.9904777 ], [ -39.9808177, 64.9915473 ], [ -39.9829863, 64.9920057 ], [ -39.9843116, 64.9927697 ], [ -39.9837092, 64.9934318 ], [ -39.9816611, 64.9933808 ] ] ] ] } },
{ "type": "Feature", "properties": { "FID": 114190, "id": 1014, "left": -40.0, "top": 65.0, "right": -35.0, "bottom": 60.0, "row_index": 5, "col_index": 28, "min_lon": -40.0, "min_lat": 60.0, "tile_id": "-40_60" }, "geometry": { "type": "MultiPolygon", "coordinates": [ [ [ [ -39.9734685, 64.9935846 ], [ -39.9744324, 64.9940938 ], [ -39.973589, 64.9943994 ], [ -39.9719023, 64.9941448 ], [ -39.9722638, 64.9935336 ], [ -39.9734685, 64.9935846 ] ] ] ] } },
{ "type": "Feature", "properties": { "FID": 114192, "id": 1014, "left": -40.0, "top": 65.0, "right": -35.0, "bottom": 60.0, "row_index": 5, "col_index": 28, "min_lon": -40.0, "min_lat": 60.0, "tile_id": "-40_60" }, "geometry": { "type": "MultiPolygon", "coordinates": [ [ [ [ -39.7207208, 64.9991927 ], [ -39.7220469, 64.9982585 ], [ -39.7208681, 64.9975112 ], [ -39.7205734, 64.9964524 ], [ -39.7232258, 64.9967638 ], [ -39.7232258, 64.9954559 ], [ -39.7245519, 64.9946462 ], [ -39.7266149, 64.9950199 ], [ -39.730446, 64.9959541 ], [ -39.7320669, 64.9968884 ], [ -39.7333931, 64.9962033 ], [ -39.7367822, 64.9963278 ], [ -39.7375189, 64.9974489 ], [ -39.7392871, 64.9959541 ], [ -39.7422342, 64.996577 ], [ -39.7454759, 64.9965147 ], [ -39.7444445, 64.9976357 ], [ -39.7456233, 64.998134 ], [ -39.74636, 64.9967015 ], [ -39.748423, 64.9967638 ], [ -39.7518121, 64.9986322 ], [ -39.7521068, 64.9973243 ], [ -39.7535803, 64.9962033 ], [ -39.7544644, 64.9968261 ], [ -39.7541697, 64.9977603 ], [ -39.7568221, 64.9979471 ], [ -39.7543171, 64.9997531 ], [ -39.753083833398769, 65.0 ], [ -39.722085283310399, 65.0 ], [ -39.7207208, 64.9991927 ] ] ], [ [ [ -39.7557906, 64.9996909 ], [ -39.7574115, 64.9982585 ], [ -39.7600638, 64.9985076 ], [ -39.757265386086956, 65.0 ], [ -39.75524996635945, 65.0 ], [ -39.7557906, 64.9996909 ] ] ], [ [ [ -39.7600638, 64.9995663 ], [ -39.760234857873137, 65.0 ], [ -39.759187753857901, 65.0 ], [ -39.7600638, 64.9995663 ] ] ], [ [ [ -39.7612426, 64.9988813 ], [ -39.7640423, 64.9985699 ], [ -39.7665473, 64.9988813 ], [ -39.766833468907599, 65.0 ], [ -39.760786236807128, 65.0 ], [ -39.7612426, 64.9988813 ] ] ], [ [ [ -39.7712626, 64.9994418 ], [ -39.7696417, 64.9979471 ], [ -39.7696417, 64.9964524 ], [ -39.7712626, 64.9966392 ], [ -39.771852, 64.9976357 ], [ -39.7767146, 64.9975112 ], [ -39.7830507, 64.9975734 ], [ -39.7818719, 64.9983208 ], [ -39.7829034, 64.9988813 ], [ -39.7857031, 64.9974489 ], [ -39.7876187, 64.9960787 ], [ -39.7896816, 64.9962033 ], [ -39.7901236, 64.9952067 ], [ -39.7886501, 64.994397 ], [ -39.7907131, 64.9940856 ], [ -39.7924813, 64.9947707 ], [ -39.7966071, 64.994833 ], [ -39.7986701, 64.995705 ], [ -39.7999962, 64.9968884 ], [ -39.8025012, 64.9970129 ], [ -39.8058903, 64.9978226 ], [ -39.8058903, 64.9990681 ], [ -39.8075112, 64.9986945 ], [ -39.8078059, 64.9996909 ], [ -39.8110477, 64.9979471 ], [ -39.8123738, 64.9988813 ], [ -39.8138473, 64.9981962 ], [ -39.8163523, 64.9983208 ], [ -39.8157629, 64.9990681 ], [ -39.8157629, 65.0 ], [ -39.771592794700624, 65.0 ], [ -39.7712626, 64.9994418 ] ] ], [ [ [ -39.8175311, 64.9996909 ], [ -39.8192994, 64.9989436 ], [ -39.8213623, 64.9986322 ], [ -39.824162, 64.9986945 ], [ -39.8256355, 64.9993795 ], [ -39.825558252155176, 65.0 ], [ -39.816945990675521, 65.0 ], [ -39.8175311, 64.9996909 ] ] ], [ [ [ -39.8805979, 64.9993795 ], [ -39.8795664, 64.9984453 ], [ -39.8816293, 64.9984453 ], [ -39.8842817, 64.9983831 ], [ -39.8853131, 64.9994418 ], [ -39.8863446, 64.9984453 ], [ -39.888997, 64.9984453 ], [ -39.8917966, 64.9990058 ], [ -39.894449, 64.9993795 ], [ -39.894449, 65.0 ], [ -39.882506732182442, 65.0 ], [ -39.8805979, 64.9993795 ] ] ], [ [ [ -39.8963646, 64.9997531 ], [ -39.896795068230212, 65.0 ], [ -39.895822150590675, 65.0 ], [ -39.8963646, 64.9997531 ] ] ] ] } },
{ "type": "Feature", "properties": { "FID": 114193, "id": 1014, "left": -40.0, "top": 65.0, "right": -35.0, "bottom": 60.0, "row_index": 5, "col_index": 28, "min_lon": -40.0, "min_lat": 60.0, "tile_id": "-40_60" }, "geometry": { "type": "MultiPolygon", "coordinates": [ [ [ [ -39.8537269, 64.966994 ], [ -39.85628, 64.9680108 ], [ -39.8568807, 64.9696629 ], [ -39.8549283, 64.9709338 ], [ -39.8523752, 64.9695994 ], [ -39.8523752, 64.967566 ], [ -39.8537269, 64.966994 ] ] ] ] } },
{ "type": "Feature", "properties": { "FID": 114194, "id": 1014, "left": -40.0, "top": 65.0, "right": -35.0, "bottom": 60.0, "row_index": 5, "col_index": 28, "min_lon": -40.0, "min_lat": 60.0, "tile_id": "-40_60" }, "geometry": { "type": "MultiPolygon", "coordinates": [ [ [ [ -39.8466682, 64.9599392 ], [ -39.8445657, 64.9610198 ], [ -39.8430638, 64.9595578 ], [ -39.8451664, 64.9584136 ], [ -39.8451664, 64.9569514 ], [ -39.8481701, 64.9569514 ], [ -39.848921, 64.9580957 ], [ -39.8508734, 64.9589857 ], [ -39.8487708, 64.9601934 ], [ -39.8466682, 64.9599392 ] ] ] ] } },
{ "type": "Feature", "properties": { "FID": 114195, "id": 1014, "left": -40.0, "top": 65.0, "right": -35.0, "bottom": 60.0, "row_index": 5, "col_index": 28, "min_lon": -40.0, "min_lat": 60.0, "tile_id": "-40_60" }, "geometry": { "type": "MultiPolygon", "coordinates": [ [ [ [ -39.8272945, 64.9572057 ], [ -39.8263934, 64.9584771 ], [ -39.8241407, 64.9591764 ], [ -39.8202359, 64.9598756 ], [ -39.8203861, 64.9614012 ], [ -39.8218879, 64.9630537 ], [ -39.8218879, 64.9642613 ], [ -39.8199355, 64.9652146 ], [ -39.8193348, 64.9664221 ], [ -39.8187341, 64.9678201 ], [ -39.8164813, 64.9690275 ], [ -39.8145289, 64.9701713 ], [ -39.810474, 64.9706796 ], [ -39.8073201, 64.9701713 ], [ -39.8053677, 64.9688369 ], [ -39.8034153, 64.9689004 ], [ -39.8035655, 64.9676295 ], [ -39.8004117, 64.9667398 ], [ -39.7980087, 64.9669305 ], [ -39.795756, 64.9663585 ], [ -39.7927523, 64.9645791 ], [ -39.7951552, 64.9636893 ], [ -39.7995106, 64.9634986 ], [ -39.79906, 64.9618461 ], [ -39.8014629, 64.9608927 ], [ -39.8038659, 64.9598756 ], [ -39.8070197, 64.9589221 ], [ -39.8109245, 64.9594942 ], [ -39.8083714, 64.9585407 ], [ -39.8094227, 64.9567607 ], [ -39.8076205, 64.9578414 ], [ -39.8037157, 64.9586043 ], [ -39.8010124, 64.9586043 ], [ -39.8010124, 64.9577143 ], [ -39.8032652, 64.9576507 ], [ -39.8032652, 64.9552985 ], [ -39.8086718, 64.9540905 ], [ -39.8086718, 64.9552349 ], [ -39.8122762, 64.9558707 ], [ -39.8155802, 64.9549806 ], [ -39.8167817, 64.9533911 ], [ -39.8200857, 64.9537726 ], [ -39.8191846, 64.9518651 ], [ -39.8217377, 64.9518016 ], [ -39.8248916, 64.9530732 ], [ -39.8254923, 64.954472 ], [ -39.8287964, 64.9532004 ], [ -39.8298477, 64.9518651 ], [ -39.8336023, 64.9526282 ], [ -39.8370565, 64.9527553 ], [ -39.8370565, 64.953709 ], [ -39.8366059, 64.9552349 ], [ -39.8330015, 64.9568243 ], [ -39.8272945, 64.9572057 ] ] ] ] } },
{ "type": "Feature", "properties": { "FID": 114196, "id": 1014, "left": -40.0, "top": 65.0, "right": -35.0, "bottom": 60.0, "row_index": 5, "col_index": 28, "min_lon": -40.0, "min_lat": 60.0, "tile_id": "-40_60" }, "geometry": { "type": "MultiPolygon", "coordinates": [ [ [ [ -39.8200857, 64.9694088 ], [ -39.8223385, 64.9683285 ], [ -39.8254923, 64.9683285 ], [ -39.8256425, 64.968964 ], [ -39.8239905, 64.9694088 ], [ -39.8247414, 64.9702348 ], [ -39.8205363, 64.9708067 ], [ -39.8202359, 64.9718868 ], [ -39.821137, 64.9730305 ], [ -39.8200857, 64.9744917 ], [ -39.8161809, 64.9739835 ], [ -39.8151297, 64.9725857 ], [ -39.8173824, 64.9712515 ], [ -39.8200857, 64.9694088 ] ] ] ] } }
]
}
