{
"type": "FeatureCollection",
"name": "-45_-55",
"crs": { "type": "name", "properties": { "name": "urn:ogc:def:crs:OGC:1.3:CRS84" } },
"xy_coordinate_resolution": 1e-15,
"features": [
{ "type": "Feature", "properties": { "FID": 236147, "id": 1001, "left": -45.0, "top": -50.0, "right": -40.0, "bottom": -55.0, "row_index": 28, "col_index": 27, "min_lon": -45.0, "min_lat": -55.0, "tile_id": "-45_-55" }, "geometry": { "type": "MultiPolygon", "coordinates": [ [ [ [ -42.019175, -53.5471037 ], [ -42.0183353, -53.5476026 ], [ -42.0171358, -53.5478639 ], [ -42.0172557, -53.5483391 ], [ -42.0177355, -53.5486004 ], [ -42.0188151, -53.5486242 ], [ -42.0199347, -53.5485529 ], [ -42.0207344, -53.5482916 ], [ -42.0216141, -53.5478639 ], [ -42.021854, -53.54727 ], [ -42.0209343, -53.5468424 ], [ -42.0200547, -53.5467949 ], [ -42.0196948, -53.5468661 ], [ -42.019175, -53.5471037 ] ] ] ] } },
{ "type": "Feature", "properties": { "FID": 236149, "id": 1001, "left": -45.0, "top": -50.0, "right": -40.0, "bottom": -55.0, "row_index": 28, "col_index": 27, "min_lon": -45.0, "min_lat": -55.0, "tile_id": "-45_-55" }, "geometry": { "type": "MultiPolygon", "coordinates": [ [ [ [ -41.7779461, -53.6357213 ], [ -41.7776262, -53.6351997 ], [ -41.7765866, -53.6345122 ], [ -41.775507, -53.6340854 ], [ -41.7748272, -53.6342277 ], [ -41.7747073, -53.6348441 ], [ -41.7757069, -53.6354605 ], [ -41.7767465, -53.6359584 ], [ -41.7775862, -53.6359821 ], [ -41.7777861, -53.6358872 ], [ -41.7779461, -53.6357213 ] ] ] ] } },
{ "type": "Feature", "properties": { "FID": 529255, "id": 1001, "left": -45.0, "top": -50.0, "right": -40.0, "bottom": -55.0, "row_index": 28, "col_index": 27, "min_lon": -45.0, "min_lat": -55.0, "tile_id": "-45_-55" }, "geometry": { "type": "MultiPolygon", "coordinates": [ [ [ [ -42.0193791, -53.5505009 ], [ -42.0188951, -53.5506197 ], [ -42.0182153, -53.5508572 ], [ -42.0182153, -53.5512611 ], [ -42.0186552, -53.5515699 ], [ -42.019215, -53.5518074 ], [ -42.0200147, -53.5516649 ], [ -42.0207344, -53.5513323 ], [ -42.0209343, -53.5509523 ], [ -42.0207636, -53.5506295 ], [ -42.020216, -53.5504818 ], [ -42.019805, -53.5504627 ], [ -42.0193791, -53.5505009 ] ] ] ] } }
]
}
