{
"type": "FeatureCollection",
"name": "-45_70",
"crs": { "type": "name", "properties": { "name": "urn:ogc:def:crs:OGC:1.3:CRS84" } },
"xy_coordinate_resolution": 1e-15,
"features": [
{ "type": "Feature", "properties": { "FID": 296248, "id": 976, "left": -45.0, "top": 75.0, "right": -40.0, "bottom": 70.0, "row_index": 3, "col_index": 27, "min_lon": -45.0, "min_lat": 70.0, "tile_id": "-45_70" }, "geometry": { "type": "MultiPolygon", "coordinates": [ [ [ [ -40.0, 75.0 ], [ -40.0, 70.0 ], [ -45.0, 70.0 ], [ -45.0, 75.0 ], [ -40.0, 75.0 ] ] ] ] } }
]
}
