{
"type": "FeatureCollection",
"name": "-50_-20",
"crs": { "type": "name", "properties": { "name": "urn:ogc:def:crs:OGC:1.3:CRS84" } },
"xy_coordinate_resolution": 1e-15,
"features": [
{ "type": "Feature", "properties": { "FID": 537252, "id": 958, "left": -50.0, "top": -15.0, "right": -45.0, "bottom": -20.0, "row_index": 21, "col_index": 26, "min_lon": -50.0, "min_lat": -20.0, "tile_id": "-50_-20" }, "geometry": { "type": "MultiPolygon", "coordinates": [ [ [ [ -45.0, -15.0 ], [ -45.0, -20.0 ], [ -50.0, -20.0 ], [ -50.0, -15.0 ], [ -45.0, -15.0 ] ] ] ] } }
]
}
