{
"type": "FeatureCollection",
"name": "-50_0",
"crs": { "type": "name", "properties": { "name": "urn:ogc:def:crs:OGC:1.3:CRS84" } },
"xy_coordinate_resolution": 1e-15,
"features": [
{ "type": "Feature", "properties": { "FID": 35991, "id": 954, "left": -50.0, "top": 5.0, "right": -45.0, "bottom": 0.0, "row_index": 17, "col_index": 26, "min_lon": -50.0, "min_lat": 0.0, "tile_id": "-50_0" }, "geometry": { "type": "MultiPolygon", "coordinates": [ [ [ [ -49.1739794, 0.0482411 ], [ -49.1739361, 0.0482458 ], [ -49.1738972, 0.0482893 ], [ -49.1738801, 0.0483654 ], [ -49.1738241, 0.0483803 ], [ -49.1737591, 0.0484652 ], [ -49.1737626, 0.048496 ], [ -49.1737067, 0.0485321 ], [ -49.1736235, 0.0486514 ], [ -49.1735097, 0.0487726 ], [ -49.1732624, 0.0488909 ], [ -49.173173, 0.0489464 ], [ -49.1730079, 0.0490489 ], [ -49.1726433, 0.0493035 ], [ -49.1724192, 0.0494411 ], [ -49.1723456, 0.0494836 ], [ -49.1719785, 0.0497467 ], [ -49.1718677, 0.0498365 ], [ -49.1716386, 0.0500076 ], [ -49.1714239, 0.0501787 ], [ -49.1712732, 0.0502737 ], [ -49.1710456, 0.0504333 ], [ -49.1708432, 0.0506145 ], [ -49.1707365, 0.0507199 ], [ -49.1705288, 0.0510274 ], [ -49.1704538, 0.0513358 ], [ -49.1704445, 0.0513738 ], [ -49.1704473, 0.0514581 ], [ -49.1704177, 0.0515461 ], [ -49.1703501, 0.0516394 ], [ -49.1702736, 0.0517202 ], [ -49.1699405, 0.0519356 ], [ -49.1698023, 0.0520807 ], [ -49.1696517, 0.0522218 ], [ -49.1695156, 0.052363 ], [ -49.1693191, 0.0525839 ], [ -49.1692104, 0.0526669 ], [ -49.1690909, 0.0527426 ], [ -49.1690108, 0.0528183 ], [ -49.1686989, 0.0530815 ], [ -49.1685083, 0.0531759 ], [ -49.1684988, 0.0531806 ], [ -49.1683437, 0.053305 ], [ -49.1682356, 0.0534456 ], [ -49.1682149, 0.0535268 ], [ -49.1682303, 0.0536079 ], [ -49.1678695, 0.0540534 ], [ -49.1675339, 0.0545025 ], [ -49.167312, 0.054921 ], [ -49.1671261, 0.055343 ], [ -49.1668047, 0.0560969 ], [ -49.166712, 0.0563514 ], [ -49.1666482, 0.0566059 ], [ -49.1666051, 0.0568568 ], [ -49.1665801, 0.0571042 ], [ -49.1665704, 0.0575505 ], [ -49.1665625, 0.0578524 ], [ -49.1665402, 0.0582717 ], [ -49.1665829, 0.0585863 ], [ -49.1666286, 0.0587309 ], [ -49.1668475, 0.0591137 ], [ -49.1668875, 0.0591716 ], [ -49.1669744, 0.0592186 ], [ -49.1670577, 0.0592477 ], [ -49.1671302, 0.0592586 ], [ -49.1670877, 0.0593281 ], [ -49.1670272, 0.0593578 ], [ -49.1670127, 0.0594244 ], [ -49.1668609, 0.0595253 ], [ -49.1666476, 0.059561 ], [ -49.166497, 0.0595671 ], [ -49.1663247, 0.0595532 ], [ -49.1659525, 0.0594217 ], [ -49.1659649, 0.0593859 ], [ -49.1660027, 0.0593644 ], [ -49.1659481, 0.0593007 ], [ -49.165735, 0.0591804 ], [ -49.1655976, 0.0591323 ], [ -49.165457, 0.0590951 ], [ -49.1653102, 0.0590503 ], [ -49.1652556, 0.0589338 ], [ -49.1652335, 0.05881 ], [ -49.1651785, 0.0585804 ], [ -49.1651686, 0.0583238 ], [ -49.1651046, 0.0581141 ], [ -49.1650857, 0.058024 ], [ -49.1650813, 0.0578726 ], [ -49.1651229, 0.0576565 ], [ -49.1651123, 0.057004 ], [ -49.1650776, 0.0566569 ], [ -49.1650466, 0.0565299 ], [ -49.1649844, 0.0560486 ], [ -49.16498, 0.0558389 ], [ -49.1649987, 0.0558082 ], [ -49.1649972, 0.0556276 ], [ -49.1649714, 0.0552067 ], [ -49.1649729, 0.0551237 ], [ -49.1649867, 0.055093 ], [ -49.1649851, 0.0550608 ], [ -49.1649694, 0.0547588 ], [ -49.1649566, 0.0543294 ], [ -49.1649373, 0.0542481 ], [ -49.1649302, 0.0540865 ], [ -49.164939, 0.0539942 ], [ -49.1649539, 0.0539019 ], [ -49.1649714, 0.0537944 ], [ -49.1650132, 0.053685 ], [ -49.1650557, 0.0536088 ], [ -49.1651176, 0.0534595 ], [ -49.1651809, 0.0533721 ], [ -49.1652673, 0.0532538 ], [ -49.1654325, 0.0530744 ], [ -49.1655071, 0.0529625 ], [ -49.165594, 0.0528507 ], [ -49.1657648, 0.0526498 ], [ -49.1658337, 0.0525619 ], [ -49.1658544, 0.0525355 ], [ -49.1659234, 0.0524475 ], [ -49.1659631, 0.0524167 ], [ -49.1660185, 0.052345 ], [ -49.1660956, 0.0522453 ], [ -49.1661271, 0.052189 ], [ -49.1661694, 0.0521328 ], [ -49.1661975, 0.0521044 ], [ -49.1662504, 0.0520375 ], [ -49.1663009, 0.0519991 ], [ -49.1663499, 0.0519438 ], [ -49.1663695, 0.0519343 ], [ -49.1663954, 0.0518956 ], [ -49.1665613, 0.05173 ], [ -49.1666116, 0.0517099 ], [ -49.1667077, 0.0516197 ], [ -49.1667503, 0.051551 ], [ -49.1668213, 0.0515062 ], [ -49.166877, 0.0514476 ], [ -49.1669563, 0.0514166 ], [ -49.1670006, 0.051352 ], [ -49.16703, 0.0513181 ], [ -49.1670837, 0.0512873 ], [ -49.1671843, 0.0512348 ], [ -49.1673321, 0.0511023 ], [ -49.1673672, 0.0510582 ], [ -49.1674681, 0.0509919 ], [ -49.1675645, 0.0509333 ], [ -49.1676796, 0.0508359 ], [ -49.1677351, 0.050811 ], [ -49.1677799, 0.0507403 ], [ -49.1678409, 0.0507084 ], [ -49.1678622, 0.0506765 ], [ -49.1679475, 0.0506202 ], [ -49.1680876, 0.0505138 ], [ -49.1681561, 0.0504412 ], [ -49.1682131, 0.0504129 ], [ -49.168235, 0.050386 ], [ -49.168276, 0.0503805 ], [ -49.1683063, 0.0503506 ], [ -49.1683339, 0.0503302 ], [ -49.16836, 0.0503236 ], [ -49.1683848, 0.0502889 ], [ -49.1684654, 0.0502597 ], [ -49.1685369, 0.0501787 ], [ -49.1688993, 0.0499464 ], [ -49.1689671, 0.0499325 ], [ -49.1692741, 0.0497353 ], [ -49.1694567, 0.0496455 ], [ -49.1696412, 0.0495321 ], [ -49.1696925, 0.0495184 ], [ -49.169791, 0.0494654 ], [ -49.1698423, 0.0494606 ], [ -49.1699113, 0.0494185 ], [ -49.1699856, 0.0493964 ], [ -49.1700263, 0.0493653 ], [ -49.1702678, 0.0492775 ], [ -49.1703229, 0.0492644 ], [ -49.1703662, 0.0492315 ], [ -49.1705236, 0.0491614 ], [ -49.1706327, 0.0491349 ], [ -49.1706907, 0.0491045 ], [ -49.1708323, 0.0490594 ], [ -49.1711896, 0.0489386 ], [ -49.1712201, 0.0489452 ], [ -49.1712685, 0.0489169 ], [ -49.1713679, 0.0488905 ], [ -49.1714434, 0.0488592 ], [ -49.171469, 0.0488615 ], [ -49.171892, 0.0487316 ], [ -49.1719404, 0.0487309 ], [ -49.1721712, 0.0486659 ], [ -49.1722021, 0.0486355 ], [ -49.1723912, 0.0485864 ], [ -49.1724134, 0.0485612 ], [ -49.1724608, 0.0485765 ], [ -49.1724877, 0.0485582 ], [ -49.172529, 0.0485589 ], [ -49.1726357, 0.0485301 ], [ -49.1726756, 0.0485073 ], [ -49.1727754, 0.0484813 ], [ -49.173263, 0.0483341 ], [ -49.1733576, 0.0483043 ], [ -49.1734109, 0.048297 ], [ -49.1734592, 0.0482845 ], [ -49.1735196, 0.0482741 ], [ -49.1735888, 0.0482503 ], [ -49.1736349, 0.0482381 ], [ -49.1736862, 0.0482336 ], [ -49.1737795, 0.0482154 ], [ -49.1738329, 0.0481986 ], [ -49.1738748, 0.0482143 ], [ -49.1739275, 0.0481804 ], [ -49.1739934, 0.0481778 ], [ -49.1739794, 0.0482411 ] ] ] ] } },
{ "type": "Feature", "properties": { "FID": 537252, "id": 954, "left": -50.0, "top": 5.0, "right": -45.0, "bottom": 0.0, "row_index": 17, "col_index": 26, "min_lon": -50.0, "min_lat": 0.0, "tile_id": "-50_0" }, "geometry": { "type": "MultiPolygon", "coordinates": [ [ [ [ -49.9792958, 1.730384 ], [ -49.9590422, 1.7200986 ], [ -49.9537678, 1.716816 ], [ -49.9465505, 1.7118356 ], [ -49.9378467, 1.7052425 ], [ -49.9280141, 1.6976086 ], [ -49.9249472, 1.6944113 ], [ -49.9221124, 1.689706 ], [ -49.9202178, 1.684974 ], [ -49.9195454, 1.6824799 ], [ -49.9198828, 1.6804801 ], [ -49.9201391, 1.6804803 ], [ -49.9201393, 1.6802225 ], [ -49.9203954, 1.6802227 ], [ -49.9203956, 1.6799649 ], [ -49.9211886, 1.6776468 ], [ -49.9218061, 1.6704932 ], [ -49.9216014, 1.6703504 ], [ -49.9214593, 1.6701654 ], [ -49.9211991, 1.6699643 ], [ -49.920791, 1.6698191 ], [ -49.920609, 1.6694683 ], [ -49.9204507, 1.6691466 ], [ -49.9203569, 1.6688061 ], [ -49.9201879, 1.6686452 ], [ -49.919738, 1.6680195 ], [ -49.9190801, 1.6672779 ], [ -49.9186225, 1.6666667 ], [ -49.918474, 1.6664682 ], [ -49.9180191, 1.6660685 ], [ -49.9177551, 1.6658033 ], [ -49.9174601, 1.6655111 ], [ -49.9172482, 1.6652778 ], [ -49.9170309, 1.6651196 ], [ -49.9167278, 1.6650553 ], [ -49.9164945, 1.6649186 ], [ -49.9164248, 1.6646665 ], [ -49.9162155, 1.664318 ], [ -49.9159044, 1.6641571 ], [ -49.9156368, 1.6639189 ], [ -49.9153304, 1.6634976 ], [ -49.9150568, 1.6629453 ], [ -49.9145579, 1.662275 ], [ -49.9139688, 1.6614244 ], [ -49.9131847, 1.6602267 ], [ -49.9125409, 1.6589827 ], [ -49.9122298, 1.6576206 ], [ -49.9109165, 1.6535123 ], [ -49.9096625, 1.6456699 ], [ -49.9092365, 1.6405582 ], [ -49.908979, 1.6380486 ], [ -49.9083844, 1.6356375 ], [ -49.9057036, 1.6252161 ], [ -49.9028421, 1.6133823 ], [ -49.9021864, 1.6091474 ], [ -49.9025631, 1.6082344 ], [ -49.90237, 1.6070118 ], [ -49.9012327, 1.6050171 ], [ -49.900353, 1.6027649 ], [ -49.8997951, 1.5984536 ], [ -49.8999024, 1.591075 ], [ -49.899559, 1.5888013 ], [ -49.8997629, 1.5871712 ], [ -49.9004161, 1.5859091 ], [ -49.9008465, 1.5846294 ], [ -49.9012756, 1.584297 ], [ -49.9019408, 1.584608 ], [ -49.902488, 1.5844042 ], [ -49.902767, 1.5839645 ], [ -49.9029064, 1.5834926 ], [ -49.903221, 1.5829362 ], [ -49.9032837, 1.5827651 ], [ -49.9040781, 1.5816159 ], [ -49.9048671, 1.5806827 ], [ -49.9051106, 1.5800803 ], [ -49.9045694, 1.5788917 ], [ -49.9035443, 1.5785126 ], [ -49.9036145, 1.5780444 ], [ -49.9032377, 1.5776843 ], [ -49.9022453, 1.5773729 ], [ -49.9013661, 1.5769101 ], [ -49.9014688, 1.5762534 ], [ -49.9011327, 1.5755907 ], [ -49.90134, 1.5734864 ], [ -49.9009896, 1.5714834 ], [ -49.900752, 1.5688426 ], [ -49.9001769, 1.5646728 ], [ -49.8990655, 1.5572276 ], [ -49.8991299, 1.5544606 ], [ -49.8979712, 1.5448082 ], [ -49.8962546, 1.5316379 ], [ -49.8944951, 1.5188965 ], [ -49.8928213, 1.5098231 ], [ -49.8924995, 1.4999345 ], [ -49.8918987, 1.4954514 ], [ -49.8911906, 1.4877722 ], [ -49.890461, 1.4804576 ], [ -49.8900104, 1.4762962 ], [ -49.8893023, 1.4718773 ], [ -49.8874999, 1.4643267 ], [ -49.8865772, 1.4596934 ], [ -49.8871136, 1.4585136 ], [ -49.8878217, 1.457677 ], [ -49.8878002, 1.4547811 ], [ -49.8865128, 1.4537515 ], [ -49.8854614, 1.4483888 ], [ -49.8850751, 1.4457504 ], [ -49.8847318, 1.4427258 ], [ -49.8840666, 1.4398514 ], [ -49.8846889, 1.4383284 ], [ -49.8845601, 1.4350249 ], [ -49.8848176, 1.4318073 ], [ -49.8848176, 1.4296193 ], [ -49.8847532, 1.4253291 ], [ -49.884603, 1.4224117 ], [ -49.8845601, 1.4191941 ], [ -49.8835945, 1.4178855 ], [ -49.8825538, 1.417124 ], [ -49.8821676, 1.4159228 ], [ -49.8821032, 1.4148609 ], [ -49.8824358, 1.4068167 ], [ -49.8825431, 1.4042426 ], [ -49.8816419, 1.4007031 ], [ -49.8803115, 1.394804 ], [ -49.8795176, 1.3927662 ], [ -49.8793459, 1.3909857 ], [ -49.8792601, 1.3895056 ], [ -49.8796249, 1.3879611 ], [ -49.8807192, 1.3872317 ], [ -49.8826504, 1.3862664 ], [ -49.8848176, 1.3854942 ], [ -49.8860836, 1.3846146 ], [ -49.8857188, 1.3831774 ], [ -49.8849678, 1.382684 ], [ -49.8835945, 1.3817831 ], [ -49.8823285, 1.3807748 ], [ -49.8813629, 1.3795521 ], [ -49.8809767, 1.3783294 ], [ -49.8806119, 1.3750258 ], [ -49.8801184, 1.372988 ], [ -49.8804188, 1.3713362 ], [ -49.8811054, 1.3692768 ], [ -49.8806977, 1.3664667 ], [ -49.8811484, 1.3656301 ], [ -49.8812986, 1.3621549 ], [ -49.8811484, 1.3613398 ], [ -49.8808909, 1.3562128 ], [ -49.8814595, 1.3520512 ], [ -49.881589, 1.3480489 ], [ -49.8819595, 1.3447936 ], [ -49.8825002, 1.3408319 ], [ -49.8833086, 1.3378224 ], [ -49.8843963, 1.334391 ], [ -49.8850107, 1.3324872 ], [ -49.8852253, 1.3299773 ], [ -49.8867488, 1.3270598 ], [ -49.8875213, 1.3258156 ], [ -49.8894739, 1.3219114 ], [ -49.8915408, 1.3175513 ], [ -49.8924263, 1.3163257 ], [ -49.8925648, 1.3161341 ], [ -49.8923063, 1.3148966 ], [ -49.8924566, 1.3140385 ], [ -49.8937869, 1.3114213 ], [ -49.8962975, 1.3083108 ], [ -49.8965121, 1.3072167 ], [ -49.8967481, 1.3062514 ], [ -49.8974562, 1.3053075 ], [ -49.8975849, 1.3044065 ], [ -49.8978639, 1.3036128 ], [ -49.8988724, 1.3018537 ], [ -49.8993659, 1.2998157 ], [ -49.9007607, 1.2973917 ], [ -49.9043012, 1.291621 ], [ -49.9067428, 1.2872034 ], [ -49.9083055, 1.283791 ], [ -49.9029909, 1.2487346 ], [ -49.8977781, 1.214349 ], [ -49.896791, 1.2115815 ], [ -49.8965979, 1.210938 ], [ -49.896276, 1.2089643 ], [ -49.8962331, 1.2075699 ], [ -49.896276, 1.2044377 ], [ -49.8964906, 1.2006191 ], [ -49.8965979, 1.19886 ], [ -49.8976708, 1.1986025 ], [ -49.8988939, 1.1979375 ], [ -49.8992586, 1.1967147 ], [ -49.8991513, 1.1955347 ], [ -49.8986578, 1.1948912 ], [ -49.8981534, 1.1928916 ], [ -49.8966623, 1.1868248 ], [ -49.8952031, 1.1868034 ], [ -49.8944521, 1.1863314 ], [ -49.8944092, 1.1854733 ], [ -49.8943234, 1.1845508 ], [ -49.8941732, 1.1809038 ], [ -49.8942805, 1.1785225 ], [ -49.8950529, 1.1765273 ], [ -49.8954177, 1.1751543 ], [ -49.8952461, 1.1737599 ], [ -49.894023, 1.1732235 ], [ -49.8925424, 1.1739529 ], [ -49.891727, 1.1748754 ], [ -49.8915768, 1.1761412 ], [ -49.8900533, 1.1790588 ], [ -49.8888302, 1.1789301 ], [ -49.8868346, 1.1795093 ], [ -49.8857188, 1.1800027 ], [ -49.8850537, 1.1800242 ], [ -49.8838735, 1.1795308 ], [ -49.8832512, 1.1786297 ], [ -49.8821354, 1.1770207 ], [ -49.8812771, 1.1740173 ], [ -49.8811698, 1.1733093 ], [ -49.8806977, 1.1713571 ], [ -49.8802042, 1.1683322 ], [ -49.880805, 1.1658222 ], [ -49.8816848, 1.1650499 ], [ -49.8826933, 1.1636125 ], [ -49.8837447, 1.1618962 ], [ -49.8844743, 1.1602229 ], [ -49.8850537, 1.1589357 ], [ -49.885397, 1.158571 ], [ -49.8883582, 1.1585495 ], [ -49.8832728, 1.1168657 ], [ -49.8862341, 0.9943847 ], [ -49.9173824, 0.917544 ], [ -49.9618709, 0.8077911 ], [ -49.9947424, 0.7065296 ], [ -49.9452223, 0.5863864 ], [ -49.8518385, 0.4504362 ], [ -49.533235, 0.3982526 ], [ -49.289691387955173, 0.0 ], [ -50.0, 0.0 ], [ -50.0, 1.741167547498998 ], [ -49.9792958, 1.730384 ] ] ] ] } }
]
}
