{
"type": "FeatureCollection",
"name": "-50_-85",
"crs": { "type": "name", "properties": { "name": "urn:ogc:def:crs:OGC:1.3:CRS84" } },
"xy_coordinate_resolution": 1e-15,
"features": [
{ "type": "Feature", "properties": { "FID": 307096, "id": 971, "left": -50.0, "top": -80.0, "right": -45.0, "bottom": -85.0, "row_index": 34, "col_index": 26, "min_lon": -50.0, "min_lat": -85.0, "tile_id": "-50_-85" }, "geometry": { "type": "MultiPolygon", "coordinates": [ [ [ [ -45.0, -80.0 ], [ -45.0, -85.0 ], [ -50.0, -85.0 ], [ -50.0, -80.0 ], [ -45.0, -80.0 ] ] ] ] } }
]
}
