{
"type": "FeatureCollection",
"name": "-55_80",
"crs": { "type": "name", "properties": { "name": "urn:ogc:def:crs:OGC:1.3:CRS84" } },
"xy_coordinate_resolution": 1e-15,
"features": [
{ "type": "Feature", "properties": { "FID": 296248, "id": 902, "left": -55.0, "top": 85.0, "right": -50.0, "bottom": 80.0, "row_index": 1, "col_index": 25, "min_lon": -55.0, "min_lat": 80.0, "tile_id": "-55_80" }, "geometry": { "type": "MultiPolygon", "coordinates": [ [ [ [ -54.9958423, 82.2964767 ], [ -54.9893192, 82.2949579 ], [ -54.9789879, 82.2936125 ], [ -54.9704364, 82.291643 ], [ -54.9559022, 82.2900213 ], [ -54.9375775, 82.2871076 ], [ -54.9240866, 82.2854709 ], [ -54.9116528, 82.2842626 ], [ -54.9069217, 82.2844558 ], [ -54.8979953, 82.2843175 ], [ -54.8756794, 82.2822892 ], [ -54.8691562, 82.2787382 ], [ -54.8700267, 82.2769544 ], [ -54.8655379, 82.2752398 ], [ -54.8564068, 82.2708945 ], [ -54.8525594, 82.2690628 ], [ -54.85405, 82.2670132 ], [ -54.8513034, 82.2651651 ], [ -54.8519901, 82.2618375 ], [ -54.8468402, 82.259387 ], [ -54.8410038, 82.2576759 ], [ -54.8375705, 82.2552704 ], [ -54.8303389, 82.2529215 ], [ -54.8292154, 82.2513165 ], [ -54.823151, 82.2499017 ], [ -54.8207477, 82.2483274 ], [ -54.8204044, 82.2475865 ], [ -54.8186878, 82.2451779 ], [ -54.8138813, 82.2436027 ], [ -54.8066715, 82.2427222 ], [ -54.8011783, 82.2411465 ], [ -54.799805, 82.2392923 ], [ -54.7960285, 82.2362782 ], [ -54.7987751, 82.2351651 ], [ -54.8001484, 82.2339126 ], [ -54.7960285, 82.2327063 ], [ -54.7925953, 82.2316854 ], [ -54.7881321, 82.2305251 ], [ -54.7771457, 82.2290398 ], [ -54.7695926, 82.2280184 ], [ -54.7637561, 82.2259753 ], [ -54.767876, 82.2246285 ], [ -54.766846, 82.2233743 ], [ -54.7634128, 82.2221663 ], [ -54.7589496, 82.2208188 ], [ -54.758263, 82.2194246 ], [ -54.7510532, 82.2173792 ], [ -54.7517398, 82.2164028 ], [ -54.7524265, 82.2150078 ], [ -54.74659, 82.2140777 ], [ -54.7407535, 82.2131474 ], [ -54.7376636, 82.2116122 ], [ -54.7338871, 82.210449 ], [ -54.7321704, 82.2089133 ], [ -54.7301105, 82.208122 ], [ -54.7270206, 82.2061203 ], [ -54.726334, 82.2050028 ], [ -54.7208408, 82.2042112 ], [ -54.7177509, 82.2030934 ], [ -54.7095111, 82.2020687 ], [ -54.7088245, 82.2007177 ], [ -54.7057346, 82.2000188 ], [ -54.6995548, 82.1976422 ], [ -54.6974949, 82.1968032 ], [ -54.6937183, 82.1958709 ], [ -54.6944049, 82.194239 ], [ -54.6895984, 82.1935396 ], [ -54.6858219, 82.1919539 ], [ -54.6823886, 82.191021 ], [ -54.6755222, 82.187475 ], [ -54.6734623, 82.1857481 ], [ -54.6707157, 82.1844876 ], [ -54.6631626, 82.1825733 ], [ -54.6562961, 82.1814991 ], [ -54.6518329, 82.1804249 ], [ -54.6504596, 82.1793972 ], [ -54.6429065, 82.1782292 ], [ -54.6384433, 82.1765002 ], [ -54.6271137, 82.1750981 ], [ -54.6236805, 82.173649 ], [ -54.6161274, 82.1721528 ], [ -54.6140674, 82.1707966 ], [ -54.6154407, 82.1696274 ], [ -54.6037677, 82.1693935 ], [ -54.6003345, 82.1692532 ], [ -54.5927814, 82.1672415 ], [ -54.5972446, 82.1657909 ], [ -54.6010212, 82.1651357 ], [ -54.5941547, 82.1631698 ], [ -54.5972446, 82.162374 ], [ -54.6003345, 82.1608757 ], [ -54.6030811, 82.1590492 ], [ -54.5986179, 82.1574566 ], [ -54.5941547, 82.1563322 ], [ -54.5900348, 82.1553013 ], [ -54.5862583, 82.1533799 ], [ -54.5841983, 82.1512235 ], [ -54.5814518, 82.1498169 ], [ -54.5797351, 82.1484569 ], [ -54.574242, 82.1465806 ], [ -54.5759586, 82.1456893 ], [ -54.5714954, 82.144704 ], [ -54.573212, 82.1432492 ], [ -54.5660022, 82.141982 ], [ -54.5670322, 82.1405737 ], [ -54.5660022, 82.1391182 ], [ -54.5642856, 82.1372398 ], [ -54.5574192, 82.1357367 ], [ -54.5550159, 82.1338574 ], [ -54.550896, 82.1317897 ], [ -54.5457462, 82.1297685 ], [ -54.5340732, 82.1260538 ], [ -54.5302967, 82.1246427 ], [ -54.5285801, 82.1225726 ], [ -54.5206836, 82.1210196 ], [ -54.5169071, 82.1187132 ], [ -54.5169071, 82.1173008 ], [ -54.517937, 82.1150875 ], [ -54.5172504, 82.1126851 ], [ -54.5148471, 82.1100463 ], [ -54.5138172, 82.1066995 ], [ -54.5121006, 82.1051435 ], [ -54.5110706, 82.1033985 ], [ -54.5079807, 82.1016531 ], [ -54.5055774, 82.0994354 ], [ -54.5059208, 82.096509 ], [ -54.5035175, 82.0954231 ], [ -54.5014576, 82.093251 ], [ -54.5010088, 82.0910498 ], [ -54.4956691, 82.089426 ], [ -54.5024875, 82.0890938 ], [ -54.4993976, 82.0878652 ], [ -54.4969944, 82.087298 ], [ -54.4897846, 82.08484 ], [ -54.4770816, 82.0823338 ], [ -54.4684986, 82.0806784 ], [ -54.465752, 82.0799215 ], [ -54.455109, 82.0772246 ], [ -54.4465259, 82.0759941 ], [ -54.4403461, 82.0728223 ], [ -54.443436, 82.0716385 ], [ -54.4485859, 82.0702651 ], [ -54.4571689, 82.0690809 ], [ -54.4664386, 82.0682281 ], [ -54.4757084, 82.0660485 ], [ -54.476395, 82.0645319 ], [ -54.4726184, 82.0631098 ], [ -54.4678119, 82.0610237 ], [ -54.4650653, 82.0597433 ], [ -54.4575122, 82.0562804 ], [ -54.4571689, 82.055189 ], [ -54.4599155, 82.053433 ], [ -54.4623188, 82.0517241 ], [ -54.4715885, 82.0479728 ], [ -54.4757084, 82.0462627 ], [ -54.4799173, 82.0448276 ], [ -54.4809216, 82.0421537 ], [ -54.4781116, 82.0390384 ], [ -54.4781116, 82.0375167 ], [ -54.4757084, 82.0363752 ], [ -54.4739917, 82.034853 ], [ -54.4746784, 82.0331401 ], [ -54.4736484, 82.0312841 ], [ -54.4770816, 82.0305225 ], [ -54.4791416, 82.0294752 ], [ -54.4794849, 82.0274755 ], [ -54.4815448, 82.0252848 ], [ -54.4822315, 82.0232364 ], [ -54.4839481, 82.021521 ], [ -54.4890979, 82.0167543 ], [ -54.4904712, 82.0149898 ], [ -54.4897846, 82.0129388 ], [ -54.4932178, 82.0107441 ], [ -54.4942478, 82.0085965 ], [ -54.4982558, 82.0037841 ], [ -54.5007709, 82.0018637 ], [ -54.4997409, 81.9995226 ], [ -54.498711, 81.9951253 ], [ -54.497681, 81.9928779 ], [ -54.4923511, 81.9912561 ], [ -54.4919582, 81.9897455 ], [ -54.497681, 81.9871849 ], [ -54.5042041, 81.984313 ], [ -54.5062641, 81.9827808 ], [ -54.5090107, 81.9812484 ], [ -54.5096973, 81.9796678 ], [ -54.5098855, 81.9767378 ], [ -54.5138172, 81.9753555 ], [ -54.5086673, 81.9740134 ], [ -54.5035175, 81.9732943 ], [ -54.5018009, 81.9713765 ], [ -54.5045475, 81.9692184 ], [ -54.5049947, 81.9675243 ], [ -54.5011142, 81.9636527 ], [ -54.4990543, 81.9595239 ], [ -54.4942478, 81.9537112 ], [ -54.4942478, 81.9521733 ], [ -54.4925312, 81.9496254 ], [ -54.4935611, 81.9475577 ], [ -54.4925312, 81.945249 ], [ -54.4904712, 81.9410626 ], [ -54.4890979, 81.939426 ], [ -54.4887546, 81.9371631 ], [ -54.4842914, 81.932539 ], [ -54.4805149, 81.9307079 ], [ -54.477425, 81.9288764 ], [ -54.4729618, 81.9274783 ], [ -54.4709018, 81.9259354 ], [ -54.4660953, 81.9228487 ], [ -54.4650653, 81.9212084 ], [ -54.4616321, 81.9196643 ], [ -54.4599155, 81.9180234 ], [ -54.4578556, 81.9162855 ], [ -54.453049, 81.9116495 ], [ -54.4485859, 81.910007 ], [ -54.4478992, 81.9087024 ], [ -54.4451526, 81.9069142 ], [ -54.4437793, 81.9046906 ], [ -54.4386295, 81.9000963 ], [ -54.431763, 81.8976773 ], [ -54.4300464, 81.8967579 ], [ -54.4297031, 81.8953059 ], [ -54.4286731, 81.8936116 ], [ -54.4255832, 81.8917233 ], [ -54.4248966, 81.8904158 ], [ -54.4224933, 81.8887205 ], [ -54.4197467, 81.885232 ], [ -54.4183735, 81.8834387 ], [ -54.4170002, 81.8819359 ], [ -54.4149402, 81.8780079 ], [ -54.4142536, 81.8768922 ], [ -54.4111637, 81.8756308 ], [ -54.4121936, 81.8740781 ], [ -54.4149402, 81.8730589 ], [ -54.4132236, 81.8714571 ], [ -54.4077304, 81.8698065 ], [ -54.4111637, 81.8674755 ], [ -54.4077304, 81.8650954 ], [ -54.4077304, 81.8642209 ], [ -54.4084171, 81.8633463 ], [ -54.4067005, 81.8616454 ], [ -54.4077304, 81.8605274 ], [ -54.4091037, 81.8594094 ], [ -54.4056705, 81.858048 ], [ -54.4084171, 81.8568323 ], [ -54.4091037, 81.855811 ], [ -54.4077304, 81.8544005 ], [ -54.4077304, 81.8530869 ], [ -54.4070438, 81.8522111 ], [ -54.4077304, 81.8502646 ], [ -54.4077304, 81.8472465 ], [ -54.4097904, 81.8457857 ], [ -54.4108204, 81.8430096 ], [ -54.4135669, 81.8356019 ], [ -54.4149402, 81.8341391 ], [ -54.4132236, 81.8329199 ], [ -54.412537, 81.832237 ], [ -54.4166568, 81.8303833 ], [ -54.4180301, 81.8293099 ], [ -54.4166568, 81.8277972 ], [ -54.4176868, 81.825259 ], [ -54.4173435, 81.8236967 ], [ -54.4228366, 81.8214015 ], [ -54.4245533, 81.8200827 ], [ -54.4259266, 81.8182751 ], [ -54.4259266, 81.8173956 ], [ -54.4266132, 81.8160273 ], [ -54.4303897, 81.8145121 ], [ -54.4348529, 81.8117742 ], [ -54.4386295, 81.8105028 ], [ -54.4406894, 81.8091822 ], [ -54.4396595, 81.8082039 ], [ -54.4430927, 81.8070298 ], [ -54.4468692, 81.8061491 ], [ -54.4482425, 81.8049257 ], [ -54.4547657, 81.8031148 ], [ -54.4568256, 81.8014993 ], [ -54.4599155, 81.8004711 ], [ -54.4599155, 81.7994917 ], [ -54.4578556, 81.7985612 ], [ -54.4571689, 81.7976796 ], [ -54.4592289, 81.796406 ], [ -54.466782, 81.7955731 ], [ -54.4678119, 81.7935641 ], [ -54.466782, 81.7924859 ], [ -54.4678119, 81.7917507 ], [ -54.4712452, 81.7908684 ], [ -54.4726184, 81.7897408 ], [ -54.4743351, 81.7884169 ], [ -54.477425, 81.7866514 ], [ -54.4832615, 81.7836099 ], [ -54.4863514, 81.7813526 ], [ -54.4822315, 81.7804201 ], [ -54.476395, 81.7788493 ], [ -54.475365, 81.7778182 ], [ -54.4790321, 81.7758015 ], [ -54.4846347, 81.7728086 ], [ -54.4942478, 81.7709415 ], [ -54.5042041, 81.7690248 ], [ -54.5145038, 81.7674026 ], [ -54.5224002, 81.7647967 ], [ -54.5302967, 81.7620916 ], [ -54.5351032, 81.7602712 ], [ -54.5307765, 81.758922 ], [ -54.5298154, 81.7575893 ], [ -54.5354258, 81.756744 ], [ -54.5443729, 81.7564325 ], [ -54.5503798, 81.754944 ], [ -54.5557026, 81.7529367 ], [ -54.5622257, 81.7504247 ], [ -54.5656589, 81.7490453 ], [ -54.5720959, 81.7478528 ], [ -54.5741528, 81.746565 ], [ -54.5772024, 81.7453193 ], [ -54.5844953, 81.7430191 ], [ -54.5945688, 81.7402675 ], [ -54.6085743, 81.7393827 ], [ -54.6175006, 81.7384948 ], [ -54.627457, 81.7366693 ], [ -54.6350101, 81.7346953 ], [ -54.6398166, 81.7329184 ], [ -54.6446231, 81.7309929 ], [ -54.6535495, 81.7285237 ], [ -54.6686186, 81.723591 ], [ -54.6820453, 81.7171064 ], [ -54.6861652, 81.7151773 ], [ -54.6861652, 81.7136435 ], [ -54.6858219, 81.712258 ], [ -54.6895984, 81.7106742 ], [ -54.6944049, 81.7093872 ], [ -54.6992115, 81.706763 ], [ -54.7105411, 81.7025031 ], [ -54.7132877, 81.6992324 ], [ -54.7249607, 81.6951175 ], [ -54.7328571, 81.6920424 ], [ -54.7431568, 81.6871298 ], [ -54.7551466, 81.68045 ], [ -54.7598078, 81.6768982 ], [ -54.7598078, 81.67578 ], [ -54.7608377, 81.6741893 ], [ -54.7610094, 81.672822 ], [ -54.7635843, 81.671554 ], [ -54.7761156, 81.6689926 ], [ -54.7802355, 81.6680474 ], [ -54.7859003, 81.6667786 ], [ -54.7913935, 81.6655595 ], [ -54.8003198, 81.6636682 ], [ -54.8103761, 81.6610896 ], [ -54.8147396, 81.6592121 ], [ -54.8200611, 81.6578424 ], [ -54.821091, 81.6560988 ], [ -54.8241809, 81.6544048 ], [ -54.8204044, 81.6527103 ], [ -54.8101047, 81.6514144 ], [ -54.8080448, 81.6505669 ], [ -54.8138813, 81.6491709 ], [ -54.8180011, 81.6474754 ], [ -54.8152546, 81.6456299 ], [ -54.8083881, 81.644283 ], [ -54.8022083, 81.6427362 ], [ -54.7960285, 81.6414886 ], [ -54.7843555, 81.6405902 ], [ -54.7743991, 81.6407399 ], [ -54.7713092, 81.638194 ], [ -54.7723392, 81.6341989 ], [ -54.7788623, 81.6311014 ], [ -54.7846988, 81.6288525 ], [ -54.7943119, 81.6246529 ], [ -54.7987751, 81.6205513 ], [ -54.8035816, 81.6161974 ], [ -54.8056415, 81.6139445 ], [ -54.8028949, 81.6113905 ], [ -54.7956852, 81.6057289 ], [ -54.7949985, 81.6038742 ], [ -54.7987751, 81.5977561 ], [ -54.7984317, 81.5939927 ], [ -54.7953418, 81.5874656 ], [ -54.7905353, 81.5831449 ], [ -54.7833255, 81.5796767 ], [ -54.7761158, 81.5726857 ], [ -54.7761158, 81.5694146 ], [ -54.7723765, 81.5670209 ], [ -54.7742063, 81.5620019 ], [ -54.7764591, 81.5580817 ], [ -54.7816089, 81.5534938 ], [ -54.7844331, 81.5468438 ], [ -54.791341, 81.5425024 ], [ -54.7938559, 81.5372807 ], [ -54.7970584, 81.5335509 ], [ -54.7980884, 81.5277866 ], [ -54.7943119, 81.5244981 ], [ -54.7932197, 81.5213563 ], [ -54.7922518, 81.5177655 ], [ -54.7871019, 81.5134853 ], [ -54.7826387, 81.5080876 ], [ -54.7768022, 81.5036757 ], [ -54.7747423, 81.5014689 ], [ -54.7768022, 81.500175 ], [ -54.773369, 81.499566 ], [ -54.7680475, 81.4986017 ], [ -54.7689058, 81.4980434 ], [ -54.7599794, 81.4978658 ], [ -54.7556879, 81.4972312 ], [ -54.7501947, 81.4980942 ], [ -54.7455599, 81.4980688 ], [ -54.7359468, 81.4978658 ], [ -54.7299387, 81.4983226 ], [ -54.7254755, 81.498754 ], [ -54.7213556, 81.4994391 ], [ -54.7189524, 81.4999213 ], [ -54.7162058, 81.5005302 ], [ -54.7153476, 81.5007839 ], [ -54.6950916, 81.499769 ], [ -54.672089, 81.4992108 ], [ -54.6559528, 81.4977896 ], [ -54.6435932, 81.495759 ], [ -54.628487, 81.4942865 ], [ -54.6023944, 81.4940326 ], [ -54.5890049, 81.4936264 ], [ -54.5745853, 81.4928646 ], [ -54.5649723, 81.4931693 ], [ -54.5512394, 81.4937279 ], [ -54.5364765, 81.4935248 ], [ -54.5175937, 81.4926614 ], [ -54.5145038, 81.4930677 ], [ -54.4949344, 81.4971297 ], [ -54.4842914, 81.4974343 ], [ -54.4798282, 81.4989063 ], [ -54.4794849, 81.5012406 ], [ -54.4735623, 81.5021031 ], [ -54.4667817, 81.5012532 ], [ -54.4587136, 81.5003779 ], [ -54.4575978, 81.5013547 ], [ -54.4539932, 81.5013802 ], [ -54.477425, 81.5070736 ], [ -54.4901279, 81.5108756 ], [ -54.4963077, 81.5142706 ], [ -54.4983677, 81.5157396 ], [ -54.5048908, 81.521664 ], [ -54.5031742, 81.5253583 ], [ -54.5038608, 81.5280395 ], [ -54.5055774, 81.5301636 ], [ -54.5059208, 81.5327421 ], [ -54.508324, 81.5350167 ], [ -54.5100406, 81.537038 ], [ -54.5155338, 81.5414832 ], [ -54.5182804, 81.5440583 ], [ -54.5169071, 81.547642 ], [ -54.5162204, 81.5498622 ], [ -54.517937, 81.5522835 ], [ -54.5196537, 81.5548049 ], [ -54.518967, 81.5565191 ], [ -54.518967, 81.5620121 ], [ -54.518967, 81.5640774 ], [ -54.5182804, 81.5696159 ], [ -54.5148471, 81.5717297 ], [ -54.5162204, 81.5733901 ], [ -54.5182804, 81.5756035 ], [ -54.5196537, 81.5769112 ], [ -54.5261768, 81.5818382 ], [ -54.5326999, 81.5840997 ], [ -54.5385364, 81.5863103 ], [ -54.5426563, 81.5896251 ], [ -54.5502094, 81.5955986 ], [ -54.5498661, 81.6036737 ], [ -54.5505527, 81.6072824 ], [ -54.5532993, 81.6097375 ], [ -54.5563892, 81.6110399 ], [ -54.5632557, 81.6127928 ], [ -54.5646289, 81.6176489 ], [ -54.5649723, 81.6211516 ], [ -54.5653156, 81.6237527 ], [ -54.5605091, 81.626653 ], [ -54.5557026, 81.6283026 ], [ -54.5484928, 81.6294522 ], [ -54.542313, 81.6307516 ], [ -54.5351032, 81.631651 ], [ -54.5241169, 81.6319009 ], [ -54.5127872, 81.6306517 ], [ -54.4949344, 81.6305017 ], [ -54.4853214, 81.6309515 ], [ -54.4681553, 81.6318009 ], [ -54.4578556, 81.63305 ], [ -54.4499591, 81.6346485 ], [ -54.442406, 81.6360968 ], [ -54.4427494, 81.6376448 ], [ -54.4334797, 81.6405902 ], [ -54.4276432, 81.6422372 ], [ -54.4176868, 81.642836 ], [ -54.4080738, 81.643335 ], [ -54.4046405, 81.6448317 ], [ -54.4022373, 81.6473756 ], [ -54.3909076, 81.650866 ], [ -54.3764881, 81.6554013 ], [ -54.367905, 81.6582907 ], [ -54.3555454, 81.6627224 ], [ -54.345589, 81.6667538 ], [ -54.3424991, 81.6695398 ], [ -54.3239597, 81.6761031 ], [ -54.3177799, 81.680128 ], [ -54.3002704, 81.685293 ], [ -54.292374, 81.6880232 ], [ -54.2789844, 81.691199 ], [ -54.2669681, 81.6929353 ], [ -54.260445, 81.6940265 ], [ -54.2570118, 81.6969521 ], [ -54.2552951, 81.6998272 ], [ -54.2501453, 81.7015121 ], [ -54.2446521, 81.7021563 ], [ -54.2329792, 81.7016112 ], [ -54.226456, 81.7018094 ], [ -54.2192463, 81.7031967 ], [ -54.2055133, 81.7057725 ], [ -54.1883472, 81.7099812 ], [ -54.1780475, 81.7120105 ], [ -54.163628, 81.7144352 ], [ -54.1502384, 81.7165623 ], [ -54.1299823, 81.7198262 ], [ -54.1145328, 81.7227923 ], [ -54.1011432, 81.7252138 ], [ -54.0891269, 81.7272394 ], [ -54.0712741, 81.7305979 ], [ -54.0589145, 81.7331652 ], [ -54.0582279, 81.733955 ], [ -54.0575412, 81.7358304 ], [ -54.0506748, 81.73662 ], [ -54.0417484, 81.7372121 ], [ -54.0403751, 81.7381001 ], [ -54.043465, 81.7390868 ], [ -54.0362552, 81.7403199 ], [ -54.0283588, 81.7415529 ], [ -54.0208057, 81.7440675 ], [ -54.0053562, 81.7482569 ], [ -53.9947132, 81.7506218 ], [ -53.9826969, 81.7533799 ], [ -53.9665607, 81.7567278 ], [ -53.9641574, 81.7589426 ], [ -53.9662174, 81.760468 ], [ -53.9555744, 81.7629278 ], [ -53.9511112, 81.7650426 ], [ -53.9555744, 81.7656327 ], [ -53.9634708, 81.7669602 ], [ -53.9638141, 81.769074 ], [ -53.9586643, 81.7710398 ], [ -53.9511112, 81.7723664 ], [ -53.9390949, 81.7730542 ], [ -53.9305118, 81.7740367 ], [ -53.924332, 81.7757558 ], [ -53.9119724, 81.7775727 ], [ -53.9112857, 81.7788002 ], [ -53.9057926, 81.7799293 ], [ -53.8893131, 81.7837571 ], [ -53.88279, 81.7855233 ], [ -53.8779834, 81.7887111 ], [ -53.8772968, 81.7911625 ], [ -53.8742069, 81.7938582 ], [ -53.8707737, 81.7951812 ], [ -53.8735202, 81.7966999 ], [ -53.8721469, 81.7981204 ], [ -53.869057, 81.8021847 ], [ -53.871117, 81.8039469 ], [ -53.8694004, 81.8058555 ], [ -53.8652805, 81.806883 ], [ -53.8625339, 81.8081061 ], [ -53.8597873, 81.8096225 ], [ -53.8529209, 81.810894 ], [ -53.8539508, 81.8131433 ], [ -53.8549808, 81.8152941 ], [ -53.8549808, 81.8172001 ], [ -53.8566974, 81.8190568 ], [ -53.8611606, 81.8213527 ], [ -53.8580707, 81.8229154 ], [ -53.8536075, 81.8246244 ], [ -53.8529209, 81.8266258 ], [ -53.8508609, 81.8284316 ], [ -53.8525776, 81.8314566 ], [ -53.8542942, 81.8325297 ], [ -53.8573841, 81.8333588 ], [ -53.858414, 81.8348706 ], [ -53.8556675, 81.836772 ], [ -53.8515476, 81.8385755 ], [ -53.848801, 81.8407685 ], [ -53.847771, 81.8415481 ], [ -53.8481144, 81.8428635 ], [ -53.8443378, 81.8436915 ], [ -53.8467411, 81.8447631 ], [ -53.8446811, 81.8454936 ], [ -53.8439945, 81.8484149 ], [ -53.8436512, 81.8514812 ], [ -53.8433078, 81.8541086 ], [ -53.8402179, 81.8560056 ], [ -53.8436512, 81.858826 ], [ -53.8405613, 81.8607705 ], [ -53.8364414, 81.8622286 ], [ -53.8347248, 81.8631519 ], [ -53.8354114, 81.8666013 ], [ -53.8336948, 81.8686411 ], [ -53.8347248, 81.8703405 ], [ -53.8374714, 81.8714086 ], [ -53.8446811, 81.8730104 ], [ -53.8367847, 81.8742237 ], [ -53.8340381, 81.8750001 ], [ -53.8350681, 81.8765526 ], [ -53.8357547, 81.8776684 ], [ -53.8405613, 81.879366 ], [ -53.8409046, 81.8802389 ], [ -53.8378147, 81.8814995 ], [ -53.837128, 81.883681 ], [ -53.8412479, 81.8874125 ], [ -53.8463977, 81.8890112 ], [ -53.8501743, 81.8906579 ], [ -53.8467411, 81.8926918 ], [ -53.848801, 81.8943862 ], [ -53.8501743, 81.8959351 ], [ -53.8522342, 81.8989353 ], [ -53.8549808, 81.9007736 ], [ -53.859444, 81.9023696 ], [ -53.8566974, 81.905174 ], [ -53.8608173, 81.9075909 ], [ -53.8608173, 81.9095721 ], [ -53.8615039, 81.9110699 ], [ -53.8635639, 81.9119877 ], [ -53.8649372, 81.9132918 ], [ -53.860474, 81.9155131 ], [ -53.8642505, 81.9194713 ], [ -53.8659671, 81.9222216 ], [ -53.8659671, 81.9238134 ], [ -53.8673404, 81.9251156 ], [ -53.869057, 81.9267551 ], [ -53.8718036, 81.9282497 ], [ -53.8718036, 81.9294066 ], [ -53.8745502, 81.9311416 ], [ -53.8745502, 81.9323944 ], [ -53.8724903, 81.9332135 ], [ -53.8752369, 81.9343215 ], [ -53.8735202, 81.9349477 ], [ -53.8766101, 81.9372112 ], [ -53.8776401, 81.939763 ], [ -53.88073, 81.9410626 ], [ -53.88073, 81.9428433 ], [ -53.88073, 81.9445754 ], [ -53.8803867, 81.9462591 ], [ -53.8803867, 81.9478944 ], [ -53.88073, 81.9490484 ], [ -53.8831333, 81.9502504 ], [ -53.88073, 81.9513561 ], [ -53.8848499, 81.9549606 ], [ -53.88279, 81.9576989 ], [ -53.88176, 81.9593798 ], [ -53.8786701, 81.9623087 ], [ -53.8697437, 81.9639407 ], [ -53.8635639, 81.9648525 ], [ -53.8587574, 81.9661961 ], [ -53.8597873, 81.9672517 ], [ -53.8601307, 81.9689786 ], [ -53.8481144, 81.9698419 ], [ -53.8439945, 81.9711368 ], [ -53.8378147, 81.9732943 ], [ -53.8278583, 81.9752117 ], [ -53.814812, 81.9775119 ], [ -53.8038257, 81.979093 ], [ -53.7804798, 81.9818231 ], [ -53.77224, 81.9825414 ], [ -53.7495807, 81.9827329 ], [ -53.7324146, 81.9824935 ], [ -53.7100986, 81.9817752 ], [ -53.6997989, 81.9819189 ], [ -53.6898426, 81.9825893 ], [ -53.66581, 81.9820147 ], [ -53.6386875, 81.9808653 ], [ -53.6198047, 81.9805779 ], [ -53.600922, 81.9809132 ], [ -53.5816959, 81.9811526 ], [ -53.5696796, 81.9799552 ], [ -53.5720829, 81.9777994 ], [ -53.5885624, 81.9757868 ], [ -53.5919956, 81.9743489 ], [ -53.5858158, 81.972767 ], [ -53.5724262, 81.9717601 ], [ -53.5710529, 81.9703695 ], [ -53.5751728, 81.9692664 ], [ -53.5765461, 81.9683071 ], [ -53.5827259, 81.9675875 ], [ -53.5758594, 81.9663881 ], [ -53.5696796, 81.9650445 ], [ -53.567963, 81.9641806 ], [ -53.568993, 81.9633167 ], [ -53.5641864, 81.9620686 ], [ -53.5628131, 81.9610604 ], [ -53.5545734, 81.9603402 ], [ -53.5487369, 81.959812 ], [ -53.5528568, 81.9586595 ], [ -53.5525135, 81.9569303 ], [ -53.5370639, 81.9557293 ], [ -53.5329441, 81.9543359 ], [ -53.5260776, 81.95275 ], [ -53.514748, 81.9526539 ], [ -53.504105, 81.9517407 ], [ -53.4920887, 81.9509716 ], [ -53.4721759, 81.9518849 ], [ -53.4536365, 81.95275 ], [ -53.4419635, 81.953519 ], [ -53.4278873, 81.9545281 ], [ -53.4213642, 81.9537112 ], [ -53.4103778, 81.954384 ], [ -53.4060861, 81.9537833 ], [ -53.3969881, 81.9533508 ], [ -53.3897783, 81.9523415 ], [ -53.3880617, 81.9512359 ], [ -53.38892, 81.9503466 ], [ -53.38995, 81.9497456 ], [ -53.3892633, 81.9493129 ], [ -53.3892633, 81.9486157 ], [ -53.3865167, 81.9482791 ], [ -53.3921816, 81.9473172 ], [ -53.3938982, 81.9466198 ], [ -53.3954431, 81.9457781 ], [ -53.3940698, 81.9444311 ], [ -53.3897783, 81.943974 ], [ -53.3872034, 81.942747 ], [ -53.376732, 81.9413755 ], [ -53.3729555, 81.9401721 ], [ -53.3715822, 81.9395463 ], [ -53.3696939, 81.9385835 ], [ -53.3638574, 81.9379576 ], [ -53.3602526, 81.937765 ], [ -53.3609392, 81.9360554 ], [ -53.356476, 81.9346346 ], [ -53.3484079, 81.9340324 ], [ -53.3496095, 81.9327799 ], [ -53.3408548, 81.9303464 ], [ -53.3290102, 81.9295029 ], [ -53.3254053, 81.9285148 ], [ -53.3211138, 81.9263212 ], [ -53.3104708, 81.9256943 ], [ -53.3058359, 81.9246816 ], [ -53.3029177, 81.9243681 ], [ -53.2903864, 81.924344 ], [ -53.2864382, 81.9237169 ], [ -53.2811167, 81.9219562 ], [ -53.2720186, 81.9206535 ], [ -53.2639505, 81.9196643 ], [ -53.2543375, 81.9184336 ], [ -53.2522775, 81.9172269 ], [ -53.2397463, 81.9155855 ], [ -53.2304766, 81.9140403 ], [ -53.2215502, 81.9129537 ], [ -53.215027, 81.9125914 ], [ -53.204384, 81.9124465 ], [ -53.1923677, 81.9115529 ], [ -53.1897928, 81.9102969 ], [ -53.1872179, 81.9091856 ], [ -53.1791498, 81.9083158 ], [ -53.160782, 81.9077842 ], [ -53.1509973, 81.9073734 ], [ -53.1406977, 81.9065759 ], [ -53.1334879, 81.9060683 ], [ -53.1235315, 81.9056091 ], [ -53.1175234, 81.9054399 ], [ -53.1130602, 81.9060442 ], [ -53.107052, 81.9068417 ], [ -53.0989839, 81.9075667 ], [ -53.0893709, 81.9078808 ], [ -53.0612184, 81.9079291 ], [ -53.0443956, 81.9074217 ], [ -53.0340959, 81.9069625 ], [ -53.0286028, 81.9064067 ], [ -53.0248262, 81.9054882 ], [ -53.0225946, 81.9043521 ], [ -53.0201914, 81.9035302 ], [ -53.0188181, 81.9029015 ], [ -53.0244829, 81.9013056 ], [ -53.0291178, 81.8994916 ], [ -53.0287744, 81.8978708 ], [ -53.0280878, 81.8968062 ], [ -53.0083467, 81.8920139 ], [ -52.9939272, 81.8889385 ], [ -52.9870607, 81.8881876 ], [ -52.9834558, 81.887146 ], [ -52.9795076, 81.8855954 ], [ -52.9724695, 81.8844323 ], [ -52.9590799, 81.8816935 ], [ -52.9551317, 81.8803843 ], [ -52.9479219, 81.8791477 ], [ -52.9386522, 81.8777654 ], [ -52.9183962, 81.8751699 ], [ -52.9130747, 81.8735685 ], [ -52.9070665, 81.8727191 ], [ -52.8849222, 81.8695151 ], [ -52.8737642, 81.8690053 ], [ -52.8651811, 81.8685682 ], [ -52.8600313, 81.8680826 ], [ -52.8572847, 81.8674027 ], [ -52.8514482, 81.8649739 ], [ -52.8437235, 81.863905 ], [ -52.8356554, 81.8625201 ], [ -52.8205492, 81.8601872 ], [ -52.8159143, 81.8592149 ], [ -52.8083612, 81.8577563 ], [ -52.8028681, 81.8569053 ], [ -52.7989198, 81.8561515 ], [ -52.7860452, 81.8561271 ], [ -52.7738573, 81.855349 ], [ -52.762871, 81.8548139 ], [ -52.7515413, 81.8547653 ], [ -52.73901, 81.8543761 ], [ -52.7285387, 81.8538896 ], [ -52.7115442, 81.8534275 ], [ -52.7012445, 81.8526247 ], [ -52.6840784, 81.8510432 ], [ -52.6603891, 81.8482689 ], [ -52.6500894, 81.8482202 ], [ -52.6399614, 81.8476603 ], [ -52.6282884, 81.8465892 ], [ -52.6174738, 81.8454692 ], [ -52.6045992, 81.8445926 ], [ -52.5987627, 81.8441542 ], [ -52.588978, 81.8414993 ], [ -52.5803949, 81.8406954 ], [ -52.5687219, 81.8402812 ], [ -52.5587656, 81.8404518 ], [ -52.5506975, 81.840939 ], [ -52.5409128, 81.8408903 ], [ -52.5366213, 81.8402812 ], [ -52.5278665, 81.8402081 ], [ -52.5196268, 81.8397452 ], [ -52.5120737, 81.8398183 ], [ -52.5034906, 81.8400376 ], [ -52.4947359, 81.8400619 ], [ -52.4839212, 81.8402081 ], [ -52.4715616, 81.8396964 ], [ -52.4516489, 81.8392578 ], [ -52.4477007, 81.8393309 ], [ -52.438431, 81.8400376 ], [ -52.4209217, 81.8407685 ], [ -52.4054721, 81.8415481 ], [ -52.3797229, 81.8402812 ], [ -52.3604969, 81.837357 ], [ -52.3481372, 81.8349193 ], [ -52.3354343, 81.8327248 ], [ -52.3295978, 81.8312127 ], [ -52.3320011, 81.8260889 ], [ -52.324448, 81.8230619 ], [ -52.3103717, 81.8190568 ], [ -52.2897724, 81.8162228 ], [ -52.2805027, 81.8144143 ], [ -52.2695163, 81.8132899 ], [ -52.2547535, 81.8126544 ], [ -52.2472004, 81.8107473 ], [ -52.2190479, 81.8097203 ], [ -52.2049717, 81.8087909 ], [ -52.192612, 81.8093779 ], [ -52.1809391, 81.8080082 ], [ -52.1654895, 81.8046321 ], [ -52.1486667, 81.8011076 ], [ -52.1301273, 81.7952302 ], [ -52.1205143, 81.7897898 ], [ -52.1098713, 81.7834627 ], [ -52.1019748, 81.7801256 ], [ -52.0827488, 81.77497 ], [ -52.0662693, 81.7723664 ], [ -52.0460132, 81.7699586 ], [ -52.0388034, 81.7680909 ], [ -52.0199207, 81.7645016 ], [ -51.997948, 81.7624359 ], [ -51.9770053, 81.7609108 ], [ -51.9584659, 81.7589918 ], [ -51.9430164, 81.7569247 ], [ -51.9279102, 81.7543155 ], [ -51.9124607, 81.7514099 ], [ -51.8973545, 81.7501291 ], [ -51.8856815, 81.7502277 ], [ -51.8733676, 81.7491734 ], [ -51.8630222, 81.7488975 ], [ -51.8499759, 81.7487004 ], [ -51.8336729, 81.74832 ], [ -51.8300632, 81.7455464 ], [ -51.82766, 81.7434759 ], [ -51.82457, 81.7422432 ], [ -51.8108371, 81.7391361 ], [ -51.8027108, 81.7377504 ], [ -51.7950958, 81.7334731 ], [ -51.7898162, 81.7301872 ], [ -51.785171, 81.7268904 ], [ -51.7812451, 81.7236864 ], [ -51.7781412, 81.7206457 ], [ -51.7758538, 81.7178736 ], [ -51.7745359, 81.7154461 ], [ -51.7742612, 81.713454 ], [ -51.7751935, 81.7119864 ], [ -51.7761561, 81.7107219 ], [ -51.7763836, 81.7095839 ], [ -51.7741014, 81.708397 ], [ -51.7703249, 81.7061192 ], [ -51.7663767, 81.7043361 ], [ -51.7595102, 81.7017351 ], [ -51.7438892, 81.6989846 ], [ -51.7363361, 81.6973487 ], [ -51.7246631, 81.6928857 ], [ -51.7195133, 81.6907029 ], [ -51.7157367, 81.6892639 ], [ -51.7088703, 81.6869312 ], [ -51.6923908, 81.6833565 ], [ -51.6779712, 81.6785381 ], [ -51.6724781, 81.6769977 ], [ -51.6659549, 81.6753078 ], [ -51.6580585, 81.6736673 ], [ -51.6450122, 81.6679479 ], [ -51.6381458, 81.6660074 ], [ -51.6312793, 81.6643153 ], [ -51.6237262, 81.6626727 ], [ -51.6089634, 81.6599342 ], [ -51.599007, 81.6575435 ], [ -51.5931705, 81.6562981 ], [ -51.5859607, 81.6551024 ], [ -51.5739444, 81.6536573 ], [ -51.5481952, 81.650866 ], [ -51.533089, 81.649819 ], [ -51.5152362, 81.6485226 ], [ -51.4936069, 81.6463781 ], [ -51.4620212, 81.6445324 ], [ -51.4407352, 81.6424867 ], [ -51.4297489, 81.6416882 ], [ -51.4170459, 81.6410893 ], [ -51.405373, 81.6403906 ], [ -51.39473, 81.6389928 ], [ -51.380997, 81.6378945 ], [ -51.372414, 81.6371954 ], [ -51.3631443, 81.6356474 ], [ -51.3466648, 81.6344986 ], [ -51.3387683, 81.6337493 ], [ -51.3195423, 81.6298521 ], [ -51.3071827, 81.6272529 ], [ -51.2896732, 81.6247529 ], [ -51.2845234, 81.6233026 ], [ -51.2810901, 81.6216519 ], [ -51.2762836, 81.6193004 ], [ -51.2680439, 81.6157969 ], [ -51.2652973, 81.6113905 ], [ -51.2622074, 81.6083347 ], [ -51.2646106, 81.6061298 ], [ -51.2652973, 81.6015679 ], [ -51.2683872, 81.5939425 ], [ -51.2727643, 81.5859963 ], [ -51.2723351, 81.5852553 ], [ -51.271391, 81.5841122 ], [ -51.2667561, 81.5832328 ], [ -51.2679495, 81.5822576 ], [ -51.2715535, 81.5799678 ], [ -51.2738379, 81.5775758 ], [ -51.2780427, 81.5746413 ], [ -51.280398, 81.5727665 ], [ -51.2843108, 81.5709754 ], [ -51.2843668, 81.5689604 ], [ -51.2851915, 81.5665663 ], [ -51.2830479, 81.5645998 ], [ -51.2799329, 81.5627081 ], [ -51.2758071, 81.5609573 ], [ -51.2726785, 81.5601479 ], [ -51.2660554, 81.5595749 ], [ -51.2611739, 81.5581839 ], [ -51.256941, 81.5568218 ], [ -51.2534345, 81.5555334 ], [ -51.2506731, 81.5543445 ], [ -51.2517313, 81.5535124 ], [ -51.2518798, 81.5527791 ], [ -51.2529954, 81.5511558 ], [ -51.2522952, 81.5506947 ], [ -51.2557711, 81.5497238 ], [ -51.2584307, 81.5487269 ], [ -51.2601073, 81.5474476 ], [ -51.2553527, 81.5468154 ], [ -51.2266806, 81.5463125 ], [ -51.2190116, 81.5461278 ], [ -51.2113105, 81.5454901 ], [ -51.2001792, 81.5452685 ], [ -51.1884736, 81.5446044 ], [ -51.1801815, 81.5433394 ], [ -51.1754902, 81.542049 ], [ -51.1738268, 81.5414215 ], [ -51.1737459, 81.5400143 ], [ -51.1730946, 81.5373581 ], [ -51.1648118, 81.5345409 ], [ -51.1554227, 81.5318475 ], [ -51.148649, 81.5294579 ], [ -51.1451392, 81.5264185 ], [ -51.138371, 81.5205011 ], [ -51.1071563, 81.5170306 ], [ -51.0882803, 81.5177377 ], [ -51.0809687, 81.5166483 ], [ -51.0671719, 81.5145894 ], [ -51.0280613, 81.5119905 ], [ -50.9762195, 81.5073778 ], [ -50.9381107, 81.5042337 ], [ -50.8872989, 81.500581 ], [ -50.840607, 81.496216 ], [ -50.8240871, 81.4960931 ], [ -50.8184301, 81.4979678 ], [ -50.8094613, 81.4994965 ], [ -50.7947136, 81.5010593 ], [ -50.789795, 81.5022553 ], [ -50.7827569, 81.5025977 ], [ -50.7860185, 81.503067 ], [ -50.7727434, 81.5048142 ], [ -50.7731439, 81.5061989 ], [ -50.7599953, 81.5079782 ], [ -50.7508279, 81.5117498 ], [ -50.7414723, 81.5121045 ], [ -50.7399063, 81.5148363 ], [ -50.7178613, 81.519003 ], [ -50.7041361, 81.5196896 ], [ -50.6901005, 81.5207747 ], [ -50.6724542, 81.522144 ], [ -50.6590698, 81.5234878 ], [ -50.6588174, 81.5241186 ], [ -50.6755544, 81.5230811 ], [ -50.6844808, 81.5233342 ], [ -50.6706621, 81.5241692 ], [ -50.6564142, 81.5252824 ], [ -50.651951, 81.5266231 ], [ -50.6661989, 81.5265978 ], [ -50.6755999, 81.5274089 ], [ -50.6825067, 81.5294303 ], [ -50.7207874, 81.5337531 ], [ -50.7317737, 81.5335509 ], [ -50.7396701, 81.5351178 ], [ -50.7568363, 81.537038 ], [ -50.7651832, 81.5370328 ], [ -50.7794956, 81.539564 ], [ -50.8209871, 81.5426952 ], [ -50.869081, 81.5466953 ], [ -50.8955387, 81.5487017 ], [ -50.9106037, 81.5504642 ], [ -50.9452988, 81.5528463 ], [ -50.9637011, 81.555062 ], [ -50.9755398, 81.5570764 ], [ -50.982643, 81.5591438 ], [ -50.9868908, 81.5613728 ], [ -50.9897336, 81.5639237 ], [ -50.9915377, 81.5668221 ], [ -50.9907723, 81.5687336 ], [ -50.9914879, 81.5716666 ], [ -50.9917307, 81.5748758 ], [ -50.9881302, 81.5782115 ], [ -50.9874684, 81.5816575 ], [ -50.9863839, 81.5850773 ], [ -50.9848506, 81.5883729 ], [ -50.9799964, 81.5949965 ], [ -50.9829034, 81.601399 ], [ -50.9864564, 81.61433 ], [ -51.0064541, 81.6255042 ], [ -51.0372529, 81.6357119 ], [ -51.0767931, 81.6455103 ], [ -51.129067, 81.6536807 ], [ -51.1919479, 81.6607735 ], [ -51.2652896, 81.6667662 ], [ -51.3154993, 81.6702656 ], [ -51.3620924, 81.6727338 ], [ -51.3949907, 81.6752515 ], [ -51.4207403, 81.6774111 ], [ -51.4401694, 81.6792987 ], [ -51.450895, 81.6817843 ], [ -51.4607269, 81.6833883 ], [ -51.4672463, 81.6849875 ], [ -51.4779224, 81.6882311 ], [ -51.4901984, 81.6918223 ], [ -51.5066988, 81.6947447 ], [ -51.5197353, 81.6983495 ], [ -51.5340365, 81.7043014 ], [ -51.541243, 81.7068407 ], [ -51.5493623, 81.708806 ], [ -51.5541922, 81.710525 ], [ -51.5586118, 81.7130898 ], [ -51.5729799, 81.7180656 ], [ -51.5840293, 81.7256334 ], [ -51.5931841, 81.7340535 ], [ -51.59957, 81.742474 ], [ -51.6024402, 81.7483062 ], [ -51.6069034, 81.7517547 ], [ -51.6168598, 81.7473206 ], [ -51.6326526, 81.747025 ], [ -51.637112, 81.7502314 ], [ -51.6008997, 81.754504 ], [ -51.5908265, 81.7557674 ], [ -51.5978311, 81.7605317 ], [ -51.6057959, 81.7636359 ], [ -51.6188147, 81.7687618 ], [ -51.6316227, 81.7720225 ], [ -51.647307, 81.7734461 ], [ -51.6905675, 81.7775826 ], [ -51.7369168, 81.7834333 ], [ -51.7905473, 81.7897091 ], [ -51.8556093, 81.7946408 ], [ -51.8676, 81.7963004 ], [ -51.8781825, 81.7985755 ], [ -51.8869869, 81.8013541 ], [ -51.8891982, 81.8047141 ], [ -51.8941185, 81.8081707 ], [ -51.8926072, 81.8118767 ], [ -51.8927729, 81.8155402 ], [ -51.8901601, 81.81914 ], [ -51.8877493, 81.8223288 ], [ -51.8882653, 81.8253753 ], [ -51.8921681, 81.8284356 ], [ -51.8999811, 81.8316849 ], [ -51.9120649, 81.8352678 ], [ -51.9289362, 81.8393461 ], [ -51.9510753, 81.8440884 ], [ -51.9879634, 81.8493435 ], [ -52.0003078, 81.8517641 ], [ -52.0123342, 81.8541834 ], [ -52.0238142, 81.8565528 ], [ -52.0344852, 81.8587851 ], [ -52.0438835, 81.8608291 ], [ -52.0518594, 81.8626218 ], [ -52.0580284, 81.8640978 ], [ -52.062138, 81.8651826 ], [ -52.0655445, 81.8663651 ], [ -52.0672024, 81.8674602 ], [ -52.0671447, 81.8685063 ], [ -52.0651592, 81.8695273 ], [ -52.0611073, 81.8705778 ], [ -52.0549709, 81.8716911 ], [ -52.0465883, 81.8728962 ], [ -52.0358606, 81.8742407 ], [ -52.026677, 81.8756434 ], [ -52.0111829, 81.8775317 ], [ -51.9975831, 81.8784776 ], [ -51.9859837, 81.8788363 ], [ -51.9760611, 81.878607 ], [ -51.9674506, 81.8777962 ], [ -51.9597355, 81.8764045 ], [ -51.9525395, 81.8744255 ], [ -51.9483496, 81.873341 ], [ -51.9426057, 81.8721781 ], [ -51.935445, 81.8709869 ], [ -51.9272275, 81.8698072 ], [ -51.9181592, 81.8686617 ], [ -51.9085079, 81.8675918 ], [ -51.8985816, 81.8666315 ], [ -51.8885962, 81.8658166 ], [ -51.8776383, 81.8648933 ], [ -51.866045, 81.8637111 ], [ -51.8542168, 81.8623027 ], [ -51.8423306, 81.860711 ], [ -51.8305919, 81.8589588 ], [ -51.8192684, 81.8570877 ], [ -51.8086162, 81.8551261 ], [ -51.7988506, 81.85311 ], [ -51.7897036, 81.8511621 ], [ -51.78091, 81.8494643 ], [ -51.7726003, 81.8480079 ], [ -51.7648974, 81.8468303 ], [ -51.7579937, 81.8459412 ], [ -51.7520014, 81.8453653 ], [ -51.7470215, 81.8451139 ], [ -51.7432685, 81.8452228 ], [ -51.7320795, 81.8457453 ], [ -51.7205331, 81.8453933 ], [ -51.7088697, 81.8442283 ], [ -51.6974202, 81.8423108 ], [ -51.6866682, 81.839718 ], [ -51.6767602, 81.8365133 ], [ -51.6681265, 81.8327684 ], [ -51.6611043, 81.8285568 ], [ -51.6569528, 81.8258081 ], [ -51.6180265, 81.8197667 ], [ -51.6193905, 81.8211561 ], [ -51.6176485, 81.8226428 ], [ -51.6130761, 81.8243403 ], [ -51.60601, 81.8263809 ], [ -51.6008344, 81.8277401 ], [ -51.5965559, 81.8286707 ], [ -51.5927197, 81.8291803 ], [ -51.5890614, 81.8292272 ], [ -51.5851661, 81.8288118 ], [ -51.58074, 81.8279125 ], [ -51.575358, 81.8265167 ], [ -51.5687674, 81.8245955 ], [ -51.5604673, 81.8222689 ], [ -51.5599028, 81.8223701 ], [ -51.5705176, 81.825217 ], [ -51.579865, 81.8281436 ], [ -51.5872175, 81.8309386 ], [ -51.5917549, 81.8333924 ], [ -51.5928787, 81.835285 ], [ -51.5911957, 81.8369675 ], [ -51.5886392, 81.8383162 ], [ -51.5851984, 81.8393183 ], [ -51.5811773, 81.8399489 ], [ -51.5766166, 81.8402008 ], [ -51.5717804, 81.8400567 ], [ -51.5667397, 81.839489 ], [ -51.5616376, 81.838502 ], [ -51.5588915, 81.8379098 ], [ -51.5557718, 81.8373698 ], [ -51.55241, 81.836873 ], [ -51.5488886, 81.8364642 ], [ -51.5453795, 81.8361274 ], [ -51.5419035, 81.8358886 ], [ -51.5386536, 81.8357576 ], [ -51.5356805, 81.8357403 ], [ -51.532251, 81.8357305 ], [ -51.5279464, 81.83561 ], [ -51.5227265, 81.8353862 ], [ -51.5168863, 81.8350805 ], [ -51.5106593, 81.8346956 ], [ -51.5040968, 81.8342372 ], [ -51.4974529, 81.8337341 ], [ -51.4909509, 81.8331761 ], [ -51.4715714, 81.8314799 ], [ -51.4549426, 81.8301522 ], [ -51.4404216, 81.8291446 ], [ -51.4273975, 81.8284474 ], [ -51.4151485, 81.8280263 ], [ -51.4030446, 81.8278454 ], [ -51.3904763, 81.8278947 ], [ -51.3767532, 81.8281195 ], [ -51.3686751, 81.8282412 ], [ -51.3604342, 81.8282734 ], [ -51.352173, 81.8282204 ], [ -51.344307, 81.8280822 ], [ -51.3368469, 81.8278719 ], [ -51.3301575, 81.8275836 ], [ -51.3244417, 81.8272405 ], [ -51.3199224, 81.8268326 ], [ -51.3138467, 81.8252546 ], [ -51.3130748, 81.8227792 ], [ -51.3168111, 81.8197538 ], [ -51.3201996, 81.8182489 ], [ -51.3135395, 81.8200547 ], [ -51.3041146, 81.8217584 ], [ -51.2939294, 81.8228438 ], [ -51.2827631, 81.8233207 ], [ -51.2707598, 81.8231934 ], [ -51.2577804, 81.8224576 ], [ -51.2438787, 81.8211189 ], [ -51.2372539, 81.8204214 ], [ -51.2304572, 81.8197986 ], [ -51.2236399, 81.8192679 ], [ -51.216994, 81.8188395 ], [ -51.2108027, 81.818522 ], [ -51.2051261, 81.8183343 ], [ -51.2002372, 81.8182721 ], [ -51.1962973, 81.8183658 ], [ -51.1817605, 81.8182883 ], [ -51.1602711, 81.8171886 ], [ -51.1345253, 81.8153263 ], [ -51.1070561, 81.8129311 ], [ -51.0806026, 81.8102696 ], [ -51.0578179, 81.8075644 ], [ -51.0412459, 81.8050858 ], [ -51.0335386, 81.8030701 ], [ -51.031809, 81.80204 ], [ -51.0299201, 81.8012289 ], [ -51.0277399, 81.8006451 ], [ -51.0251583, 81.8002642 ], [ -51.0221344, 81.8000932 ], [ -51.0185579, 81.8001077 ], [ -51.0143877, 81.8003146 ], [ -51.0096141, 81.8007012 ], [ -51.00467, 81.8010443 ], [ -51.0001807, 81.8011313 ], [ -50.9959049, 81.8009461 ], [ -50.9918238, 81.8004628 ], [ -50.987878, 81.7996627 ], [ -50.9838861, 81.7985483 ], [ -50.9752766, 81.7983622 ], [ -50.9722732, 81.7973928 ], [ -50.964282, 81.7959031 ], [ -50.9508744, 81.7943966 ], [ -50.9479179, 81.7930484 ], [ -50.9404036, 81.7904185 ], [ -50.9281583, 81.7835793 ], [ -50.9263762, 81.7824137 ], [ -50.9203329, 81.7799183 ], [ -50.8982714, 81.7846966 ], [ -50.8995978, 81.7864673 ], [ -50.9034059, 81.7888113 ], [ -50.909755, 81.7918063 ], [ -50.9502197, 81.8049589 ], [ -50.9526238, 81.8061157 ], [ -50.9534317, 81.8070995 ], [ -50.952257, 81.8079487 ], [ -50.9488231, 81.8087266 ], [ -50.9427123, 81.8094916 ], [ -50.9336383, 81.8102934 ], [ -50.9191728, 81.8099249 ], [ -50.901775, 81.8106855 ], [ -50.8897718, 81.8115164 ], [ -50.8764994, 81.8125684 ], [ -50.8623838, 81.8137961 ], [ -50.8479014, 81.8163325 ], [ -50.8369029, 81.8181639 ], [ -50.8270376, 81.8204378 ], [ -50.8140181, 81.8219351 ], [ -50.8044118, 81.8234972 ], [ -50.7799229, 81.8265656 ], [ -50.7563681, 81.8292054 ], [ -50.7383464, 81.8311466 ], [ -50.7202795, 81.832391 ], [ -50.7026352, 81.8342167 ], [ -50.6914146, 81.8338953 ], [ -50.6849974, 81.8318334 ], [ -50.667618, 81.8311858 ], [ -50.6644777, 81.8302236 ], [ -50.6174519, 81.8206446 ], [ -50.6119348, 81.820394 ], [ -50.6065488, 81.820266 ], [ -50.6014027, 81.8202854 ], [ -50.5967199, 81.8204424 ], [ -50.5922481, 81.8205894 ], [ -50.5885221, 81.820639 ], [ -50.582649, 81.8210812 ], [ -50.5773111, 81.8216101 ], [ -50.5681789, 81.8227146 ], [ -50.5597599, 81.823819 ], [ -50.552227, 81.8251518 ], [ -50.5419402, 81.8263806 ], [ -50.5302653, 81.827355 ], [ -50.5164075, 81.8283067 ], [ -50.4969461, 81.8291712 ], [ -50.4747968, 81.8292979 ], [ -50.4666021, 81.8291404 ], [ -50.4543065, 81.8309266 ], [ -50.4378194, 81.831815 ], [ -50.4449754, 81.8331575 ], [ -50.4500826, 81.8350608 ], [ -50.4552469, 81.837114 ], [ -50.4604336, 81.8392652 ], [ -50.4656995, 81.8414612 ], [ -50.4714586, 81.8436308 ], [ -50.4774101, 81.8457388 ], [ -50.4834098, 81.8477084 ], [ -50.4892892, 81.8494961 ], [ -50.4948204, 81.8510395 ], [ -50.4998671, 81.8522749 ], [ -50.50426, 81.8531587 ], [ -50.5131463, 81.8548658 ], [ -50.5221337, 81.8569188 ], [ -50.5309542, 81.8592623 ], [ -50.5392947, 81.8617762 ], [ -50.5469687, 81.8643908 ], [ -50.5536793, 81.8670121 ], [ -50.5590965, 81.869566 ], [ -50.5630141, 81.871957 ], [ -50.5660655, 81.8730882 ], [ -50.5724454, 81.8746062 ], [ -50.5817441, 81.8764509 ], [ -50.593635, 81.8785481 ], [ -50.6076576, 81.8808317 ], [ -50.6234523, 81.8832477 ], [ -50.6407323, 81.8857146 ], [ -50.6589015, 81.888175 ], [ -50.6773165, 81.8906379 ], [ -50.6950568, 81.8931162 ], [ -50.7117167, 81.8955632 ], [ -50.7268618, 81.8978934 ], [ -50.7400752, 81.9000472 ], [ -50.7508796, 81.9019464 ], [ -50.758857, 81.9035315 ], [ -50.7635895, 81.9047429 ], [ -50.7682177, 81.9060017 ], [ -50.7758212, 81.9077689 ], [ -50.7860519, 81.9099444 ], [ -50.7984881, 81.9124556 ], [ -50.812657, 81.9152236 ], [ -50.8282697, 81.9181674 ], [ -50.8448517, 81.9212082 ], [ -50.862061, 81.9242592 ], [ -50.9056596, 81.9319843 ], [ -50.9431137, 81.9388774 ], [ -50.9752726, 81.9451111 ], [ -51.0028598, 81.9508658 ], [ -51.0265758, 81.9562828 ], [ -51.0472069, 81.9615478 ], [ -51.0655753, 81.9668262 ], [ -51.0823215, 81.9722857 ], [ -51.1102695, 81.9818365 ], [ -51.1342594, 81.9898314 ], [ -51.156415, 81.9968558 ], [ -51.1787718, 82.0035418 ], [ -51.2035047, 82.0104998 ], [ -51.2327521, 82.0183339 ], [ -51.2685886, 82.0276615 ], [ -51.3133032, 82.0390967 ], [ -51.323308, 82.0417072 ], [ -51.3335587, 82.0444976 ], [ -51.3437022, 82.0473815 ], [ -51.3535716, 82.0502694 ], [ -51.3627288, 82.0530895 ], [ -51.3710367, 82.0557321 ], [ -51.3780556, 82.0581254 ], [ -51.383616, 82.06018 ], [ -51.3892834, 82.0621869 ], [ -51.3968658, 82.06444 ], [ -51.4058845, 82.0668744 ], [ -51.4161213, 82.0693948 ], [ -51.4271904, 82.0719349 ], [ -51.4387884, 82.0744142 ], [ -51.4506636, 82.0767575 ], [ -51.4623754, 82.078893 ], [ -51.4738518, 82.0809663 ], [ -51.485054, 82.0831619 ], [ -51.495583, 82.0854007 ], [ -51.5053011, 82.0876324 ], [ -51.5138497, 82.0897706 ], [ -51.5209852, 82.0917537 ], [ -51.5263694, 82.0935212 ], [ -51.5298106, 82.0950171 ], [ -51.5326442, 82.0964701 ], [ -51.5363443, 82.098159 ], [ -51.540847, 82.100006 ], [ -51.5459211, 82.1019623 ], [ -51.5514186, 82.1039643 ], [ -51.5571912, 82.1059489 ], [ -51.5630069, 82.1078671 ], [ -51.5688002, 82.1096411 ], [ -51.5744925, 82.1114627 ], [ -51.579973, 82.1134846 ], [ -51.5851874, 82.1156421 ], [ -51.5899974, 82.1178848 ], [ -51.5941373, 82.120125 ], [ -51.5976463, 82.1222964 ], [ -51.6002908, 82.1243501 ], [ -51.6019405, 82.1261897 ], [ -51.603296, 82.1280208 ], [ -51.6050787, 82.1300159 ], [ -51.6072452, 82.1321232 ], [ -51.6096353, 82.1342665 ], [ -51.6122471, 82.1363864 ], [ -51.6150259, 82.1384184 ], [ -51.6178108, 82.140286 ], [ -51.6206106, 82.1419432 ], [ -51.6244614, 82.1457977 ], [ -51.6274889, 82.152129 ], [ -51.6296676, 82.1602282 ], [ -51.6308637, 82.1693746 ], [ -51.631101, 82.1788647 ], [ -51.6302963, 82.1879839 ], [ -51.6283243, 82.1960242 ], [ -51.6251985, 82.2022694 ], [ -51.6248195, 82.2035237 ], [ -51.6248554, 82.205376 ], [ -51.6253891, 82.2077526 ], [ -51.6263854, 82.2105556 ], [ -51.6277562, 82.2136813 ], [ -51.6294463, 82.2170648 ], [ -51.6315055, 82.2205936 ], [ -51.6338251, 82.2241972 ], [ -51.6383577, 82.2323459 ], [ -51.6407151, 82.2400492 ], [ -51.6409059, 82.2471559 ], [ -51.6389397, 82.2535145 ], [ -51.6350309, 82.2589837 ], [ -51.6290964, 82.2634134 ], [ -51.6213547, 82.2666621 ], [ -51.6118121, 82.2685655 ], [ -51.5995162, 82.2693747 ], [ -51.5862346, 82.2692658 ], [ -51.5726187, 82.2683667 ], [ -51.5595121, 82.2668023 ], [ -51.5484062, 82.2647933 ], [ -51.5485527, 82.26483 ], [ -51.5543368, 82.266002 ], [ -51.560481, 82.2669647 ], [ -51.5665174, 82.2678567 ], [ -51.5721066, 82.2687951 ], [ -51.5772262, 82.2697538 ], [ -51.5815645, 82.2707115 ], [ -51.5851306, 82.271622 ], [ -51.5877201, 82.2724753 ], [ -51.589353, 82.2732384 ], [ -51.5897487, 82.2738696 ], [ -51.587314, 82.2751886 ], [ -51.5817944, 82.2759904 ], [ -51.5739415, 82.2762961 ], [ -51.5646694, 82.276144 ], [ -51.5588736, 82.2758063 ], [ -51.5625516, 82.2763541 ], [ -51.5804539, 82.2797826 ], [ -51.5936196, 82.283317 ], [ -51.6027027, 82.2870986 ], [ -51.6083809, 82.2912945 ], [ -51.6114298, 82.2960702 ], [ -51.6122235, 82.2987453 ], [ -51.6126265, 82.3013083 ], [ -51.6124964, 82.3037087 ], [ -51.6119704, 82.3058788 ], [ -51.6111431, 82.3077578 ], [ -51.6098183, 82.3092896 ], [ -51.6082306, 82.310405 ], [ -51.6062812, 82.3110463 ], [ -51.6046202, 82.311624 ], [ -51.6037691, 82.3125703 ], [ -51.6036179, 82.3138145 ], [ -51.6042414, 82.3153293 ], [ -51.6055839, 82.3170498 ], [ -51.6076012, 82.3189242 ], [ -51.6102713, 82.3209265 ], [ -51.6135815, 82.3229845 ], [ -51.6168935, 82.3250426 ], [ -51.6195998, 82.3270246 ], [ -51.6216118, 82.3288859 ], [ -51.6229923, 82.3305862 ], [ -51.6236414, 82.3320678 ], [ -51.6236106, 82.3332774 ], [ -51.6227685, 82.3341776 ], [ -51.6211242, 82.3347222 ], [ -51.6067581, 82.3357995 ], [ -51.6211967, 82.3361076 ], [ -51.6366578, 82.3369983 ], [ -51.6378256, 82.3381105 ], [ -51.6252979, 82.3394021 ], [ -51.599531, 82.3408385 ], [ -51.5611206, 82.3423752 ], [ -51.5105652, 82.3439682 ], [ -51.4482779, 82.3455872 ], [ -51.4371331, 82.3458797 ], [ -51.4263668, 82.3462121 ], [ -51.4162601, 82.3465672 ], [ -51.4070621, 82.3469479 ], [ -51.3990541, 82.3473369 ], [ -51.3924202, 82.3477184 ], [ -51.388353, 82.3480144 ], [ -51.39452, 82.3476345 ], [ -51.4032861, 82.347208 ], [ -51.414162, 82.3467694 ], [ -51.426801, 82.3463173 ], [ -51.4408783, 82.3458759 ], [ -51.4559608, 82.3454583 ], [ -51.4717566, 82.3450689 ], [ -51.4884271, 82.3446655 ], [ -51.5060682, 82.3441877 ], [ -51.524052, 82.3436512 ], [ -51.5419567, 82.3430824 ], [ -51.5592411, 82.3424828 ], [ -51.5753437, 82.3418876 ], [ -51.589681, 82.3413057 ], [ -51.6017782, 82.3407578 ], [ -51.6252635, 82.3399283 ], [ -51.6469329, 82.3397894 ], [ -51.6665323, 82.3403257 ], [ -51.6838375, 82.3415017 ], [ -51.6984398, 82.3432977 ], [ -51.7102205, 82.3456896 ], [ -51.7187558, 82.348645 ], [ -51.723869, 82.3521338 ], [ -51.7258122, 82.3537136 ], [ -51.7289028, 82.3552492 ], [ -51.7329234, 82.3567176 ], [ -51.7377969, 82.3580871 ], [ -51.7433914, 82.3593204 ], [ -51.7495981, 82.3604059 ], [ -51.7563274, 82.3612991 ], [ -51.763404, 82.3619699 ], [ -51.7817062, 82.3640738 ], [ -51.7966829, 82.3672027 ], [ -51.8081378, 82.3711366 ], [ -51.8157417, 82.3756772 ], [ -51.8193453, 82.3806099 ], [ -51.8186017, 82.3857234 ], [ -51.81326, 82.3908045 ], [ -51.8030809, 82.3956529 ], [ -51.7972764, 82.3978679 ], [ -51.7921312, 82.4000462 ], [ -51.7877174, 82.402101 ], [ -51.7840988, 82.4039921 ], [ -51.7814806, 82.4056702 ], [ -51.7798054, 82.4070705 ], [ -51.7793333, 82.4081495 ], [ -51.7800065, 82.4088423 ], [ -51.7808892, 82.4093807 ], [ -51.7810135, 82.4100164 ], [ -51.7802579, 82.4107251 ], [ -51.7788382, 82.4114706 ], [ -51.7766993, 82.412247 ], [ -51.7739708, 82.4130327 ], [ -51.7706175, 82.4137887 ], [ -51.7668241, 82.4144989 ], [ -51.7632796, 82.4153761 ], [ -51.7608896, 82.4165968 ], [ -51.7595645, 82.4181164 ], [ -51.7592464, 82.41987 ], [ -51.7600861, 82.4218027 ], [ -51.7619396, 82.4238643 ], [ -51.7649027, 82.4259939 ], [ -51.7689299, 82.4281398 ], [ -51.7732931, 82.430379 ], [ -51.777559, 82.4327842 ], [ -51.7815039, 82.4352732 ], [ -51.785014, 82.4377756 ], [ -51.7880736, 82.4402194 ], [ -51.7905131, 82.4425283 ], [ -51.7922614, 82.4446244 ], [ -51.7932039, 82.4464374 ], [ -51.7940055, 82.4493636 ], [ -51.7941092, 82.4516302 ], [ -51.7931901, 82.4533211 ], [ -51.7908165, 82.454568 ], [ -51.7868292, 82.4554718 ], [ -51.7808283, 82.4561441 ], [ -51.7725128, 82.4566946 ], [ -51.7615374, 82.4572403 ], [ -51.745091, 82.4576077 ], [ -51.7269185, 82.4573372 ], [ -51.7078525, 82.4565145 ], [ -51.6886905, 82.4551863 ], [ -51.6703071, 82.4534314 ], [ -51.6535086, 82.4513098 ], [ -51.6390123, 82.4488961 ], [ -51.6277744, 82.4462549 ], [ -51.622091, 82.4447447 ], [ -51.6160312, 82.4433716 ], [ -51.6095626, 82.4421558 ], [ -51.6028937, 82.4411073 ], [ -51.5960904, 82.4402448 ], [ -51.5892624, 82.4395797 ], [ -51.582519, 82.4391235 ], [ -51.576036, 82.4389065 ], [ -51.5683322, 82.4388919 ], [ -51.5621044, 82.4391373 ], [ -51.5571454, 82.439692 ], [ -51.5532915, 82.440598 ], [ -51.5504344, 82.4419028 ], [ -51.5484108, 82.4436485 ], [ -51.5471238, 82.4458955 ], [ -51.5464429, 82.4486657 ], [ -51.5456059, 82.452575 ], [ -51.5442824, 82.4555849 ], [ -51.5422875, 82.4577703 ], [ -51.5392387, 82.4592093 ], [ -51.5350941, 82.4599681 ], [ -51.5294169, 82.4601191 ], [ -51.5221659, 82.4597286 ], [ -51.5130152, 82.4588801 ], [ -51.5077232, 82.458552 ], [ -51.5001395, 82.4584092 ], [ -51.4906592, 82.4584458 ], [ -51.4796656, 82.4586426 ], [ -51.4674107, 82.4590025 ], [ -51.4543329, 82.4595122 ], [ -51.4407277, 82.4601673 ], [ -51.4268799, 82.4609503 ], [ -51.4132271, 82.46173 ], [ -51.3999439, 82.4623593 ], [ -51.3872953, 82.4628539 ], [ -51.3756556, 82.4631824 ], [ -51.3653776, 82.463346 ], [ -51.3567588, 82.4633406 ], [ -51.3501405, 82.4631548 ], [ -51.3459189, 82.4627829 ], [ -51.3421813, 82.4623907 ], [ -51.3370042, 82.4621312 ], [ -51.3305852, 82.4620013 ], [ -51.3232869, 82.4620155 ], [ -51.3151967, 82.4621593 ], [ -51.3066111, 82.4624284 ], [ -51.2977382, 82.4628328 ], [ -51.2888636, 82.4633552 ], [ -51.2801856, 82.4638747 ], [ -51.2718703, 82.4642902 ], [ -51.26405, 82.4645801 ], [ -51.2570332, 82.4647533 ], [ -51.2510072, 82.4647939 ], [ -51.2461812, 82.4647122 ], [ -51.2425994, 82.4645009 ], [ -51.240603, 82.4641486 ], [ -51.2379148, 82.4637471 ], [ -51.232115, 82.4633968 ], [ -51.2237536, 82.4630962 ], [ -51.2130836, 82.4628481 ], [ -51.2005222, 82.4626727 ], [ -51.1863113, 82.4625597 ], [ -51.170912, 82.4625223 ], [ -51.1546313, 82.4625691 ], [ -51.1381632, 82.462631 ], [ -51.1222461, 82.462632 ], [ -51.1073313, 82.4625724 ], [ -51.0937264, 82.4624611 ], [ -51.0817834, 82.4622999 ], [ -51.0719973, 82.462082 ], [ -51.0646967, 82.4618425 ], [ -51.0602561, 82.4615498 ], [ -51.0569465, 82.4612939 ], [ -51.0528641, 82.4611341 ], [ -51.0481521, 82.4610617 ], [ -51.0430187, 82.4610871 ], [ -51.0375521, 82.4611958 ], [ -51.0319503, 82.4613851 ], [ -51.0263666, 82.4616594 ], [ -51.0209545, 82.4620232 ], [ -51.015719, 82.4623582 ], [ -51.0105429, 82.4625807 ], [ -51.0056245, 82.462688 ], [ -51.0010734, 82.4626917 ], [ -50.9970227, 82.4625703 ], [ -50.9935923, 82.4623484 ], [ -50.9909256, 82.4620175 ], [ -50.9890773, 82.4615835 ], [ -50.9870001, 82.4611132 ], [ -50.9835687, 82.4607009 ], [ -50.9788822, 82.4603452 ], [ -50.9731046, 82.4600635 ], [ -50.9665329, 82.4598517 ], [ -50.959375, 82.4597201 ], [ -50.9516412, 82.4596816 ], [ -50.9436384, 82.459745 ], [ -50.9359529, 82.4598303 ], [ -50.9290282, 82.4598656 ], [ -50.9230624, 82.4598484 ], [ -50.9180658, 82.4597917 ], [ -50.9143354, 82.4596915 ], [ -50.9118712, 82.4595478 ], [ -50.9108814, 82.4593709 ], [ -50.9114648, 82.4591595 ], [ -50.911608, 82.4589606 ], [ -50.9093966, 82.45882 ], [ -50.9049741, 82.4587291 ], [ -50.8986475, 82.4586968 ], [ -50.8905703, 82.4587275 ], [ -50.8810391, 82.4588171 ], [ -50.8701526, 82.4589641 ], [ -50.8582075, 82.4591645 ], [ -50.8460537, 82.4593542 ], [ -50.834685, 82.4594609 ], [ -50.8243543, 82.4594877 ], [ -50.81527, 82.4594452 ], [ -50.8077193, 82.4593164 ], [ -50.8019204, 82.4591247 ], [ -50.7981257, 82.4588734 ], [ -50.7966222, 82.4585457 ], [ -50.791989, 82.4571441 ], [ -50.7813377, 82.4559078 ], [ -50.7660067, 82.4548843 ], [ -50.7475746, 82.4541113 ], [ -50.7274751, 82.453635 ], [ -50.7070961, 82.4535093 ], [ -50.687968, 82.4537796 ], [ -50.6714233, 82.4544943 ], [ -50.6628222, 82.4550131 ], [ -50.6543493, 82.4554383 ], [ -50.6463659, 82.4557847 ], [ -50.6389964, 82.4560181 ], [ -50.6325033, 82.4561547 ], [ -50.6270305, 82.4561861 ], [ -50.6228109, 82.4560898 ], [ -50.6201068, 82.455882 ], [ -50.6085522, 82.454529 ], [ -50.5950925, 82.4534954 ], [ -50.580563, 82.4527637 ], [ -50.5659903, 82.4523733 ], [ -50.552218, 82.4523198 ], [ -50.5479064, 82.4524306 ], [ -50.5400647, 82.4526322 ], [ -50.5305822, 82.4533169 ], [ -50.5246796, 82.4543889 ], [ -50.5221123, 82.4551758 ], [ -50.5199405, 82.4557543 ], [ -50.5180657, 82.4561257 ], [ -50.5166317, 82.4562816 ], [ -50.5155493, 82.4562363 ], [ -50.5148536, 82.4559697 ], [ -50.5146085, 82.4555005 ], [ -50.5147054, 82.4548172 ], [ -50.5121384, 82.4532953 ], [ -50.5039468, 82.4515233 ], [ -50.491481, 82.4496347 ], [ -50.4758285, 82.4477466 ], [ -50.458148, 82.4460081 ], [ -50.4397648, 82.444527 ], [ -50.4216703, 82.4434351 ], [ -50.4051597, 82.4428736 ], [ -50.3996095, 82.4427132 ], [ -50.3937145, 82.4424192 ], [ -50.3876913, 82.4420153 ], [ -50.3816484, 82.4415131 ], [ -50.3759457, 82.4409281 ], [ -50.3705479, 82.4402801 ], [ -50.3657068, 82.4395728 ], [ -50.3616476, 82.4388427 ], [ -50.3566724, 82.4380845 ], [ -50.3491378, 82.4372987 ], [ -50.3394136, 82.4365136 ], [ -50.3279045, 82.4357371 ], [ -50.3149889, 82.4350104 ], [ -50.3010263, 82.4343485 ], [ -50.2864298, 82.4337726 ], [ -50.2714686, 82.4333122 ], [ -50.2514185, 82.4326899 ], [ -50.2332829, 82.4319519 ], [ -50.2164785, 82.4310465 ], [ -50.2004856, 82.4299406 ], [ -50.1848207, 82.4285811 ], [ -50.1689202, 82.4269421 ], [ -50.1522034, 82.4249715 ], [ -50.1342522, 82.4226348 ], [ -50.1200806, 82.4207248 ], [ -50.104449, 82.4186284 ], [ -50.0879588, 82.4164237 ], [ -50.0710405, 82.4141579 ], [ -50.0543017, 82.4119223 ], [ -50.038126, 82.4097713 ], [ -50.0231098, 82.4077834 ], [ -50.009733, 82.4060119 ], [ -50.0, 82.404682915510989 ], [ -50.0, 80.0 ], [ -55.0, 80.0 ], [ -55.0, 82.297219795189164 ], [ -54.9958423, 82.2964767 ] ] ] ] } },
{ "type": "Feature", "properties": { "FID": 296260, "id": 902, "left": -55.0, "top": 85.0, "right": -50.0, "bottom": 80.0, "row_index": 1, "col_index": 25, "min_lon": -55.0, "min_lat": 80.0, "tile_id": "-55_80" }, "geometry": { "type": "MultiPolygon", "coordinates": [ [ [ [ -53.3859768, 82.2185631 ], [ -53.3900653, 82.2189169 ], [ -53.3927938, 82.2193638 ], [ -53.3942028, 82.2198964 ], [ -53.3941826, 82.2205038 ], [ -53.392883, 82.2211895 ], [ -53.3901941, 82.2219425 ], [ -53.3861702, 82.2227683 ], [ -53.3774679, 82.2240896 ], [ -53.3680425, 82.2250624 ], [ -53.3583861, 82.2256898 ], [ -53.3487725, 82.2259533 ], [ -53.3397084, 82.2258693 ], [ -53.3315222, 82.2254247 ], [ -53.3247876, 82.2246082 ], [ -53.3197102, 82.223429 ], [ -53.3183447, 82.2222556 ], [ -53.3208268, 82.2211247 ], [ -53.3264881, 82.2200957 ], [ -53.3347018, 82.2192205 ], [ -53.3448416, 82.2185509 ], [ -53.3562825, 82.2181388 ], [ -53.3683449, 82.2180307 ], [ -53.3805549, 82.2182821 ], [ -53.3859768, 82.2185631 ] ] ] ] } },
{ "type": "Feature", "properties": { "FID": 296265, "id": 902, "left": -55.0, "top": 85.0, "right": -50.0, "bottom": 80.0, "row_index": 1, "col_index": 25, "min_lon": -55.0, "min_lat": 80.0, "tile_id": "-55_80" }, "geometry": { "type": "MultiPolygon", "coordinates": [ [ [ [ -52.2001876, 82.2269145 ], [ -52.202935, 82.2287096 ], [ -52.2031778, 82.2302185 ], [ -52.2009617, 82.2313879 ], [ -52.1966088, 82.2321464 ], [ -52.1901786, 82.2324534 ], [ -52.1820909, 82.232236 ], [ -52.172353, 82.2314479 ], [ -52.1650347, 82.2303291 ], [ -52.1593571, 82.2287745 ], [ -52.1575531, 82.2279605 ], [ -52.1553388, 82.2269614 ], [ -52.1531473, 82.2250713 ], [ -52.1528835, 82.2232669 ], [ -52.1547142, 82.2217295 ], [ -52.1586452, 82.2206233 ], [ -52.1648984, 82.2201355 ], [ -52.1679606, 82.2201886 ], [ -52.1713529, 82.22044 ], [ -52.1751472, 82.2208621 ], [ -52.1791284, 82.2214324 ], [ -52.1832011, 82.2221523 ], [ -52.1872214, 82.2229718 ], [ -52.1910939, 82.2238924 ], [ -52.1946569, 82.2248973 ], [ -52.2001876, 82.2269145 ] ] ] ] } },
{ "type": "Feature", "properties": { "FID": 296285, "id": 902, "left": -55.0, "top": 85.0, "right": -50.0, "bottom": 80.0, "row_index": 1, "col_index": 25, "min_lon": -55.0, "min_lat": 80.0, "tile_id": "-55_80" }, "geometry": { "type": "MultiPolygon", "coordinates": [ [ [ [ -52.6533261, 82.1473283 ], [ -52.6558565, 82.1472135 ], [ -52.6592755, 82.1471889 ], [ -52.6659364, 82.1472643 ], [ -52.6732824, 82.1472992 ], [ -52.675699, 82.1472424 ], [ -52.6783717, 82.1471462 ], [ -52.6810765, 82.147203 ], [ -52.6848054, 82.1470981 ], [ -52.6898948, 82.1472271 ], [ -52.7101562, 82.1478503 ], [ -52.7159657, 82.1479552 ], [ -52.7189905, 82.1479115 ], [ -52.7238398, 82.1481039 ], [ -52.7323221, 82.1484165 ], [ -52.7381476, 82.14881 ], [ -52.7455416, 82.1492976 ], [ -52.7504869, 82.1495446 ], [ -52.7534157, 82.1496408 ], [ -52.7567766, 82.1496364 ], [ -52.7612578, 82.1497304 ], [ -52.7642666, 82.1498637 ], [ -52.7681556, 82.1501326 ], [ -52.7703162, 82.1501763 ], [ -52.7718846, 82.1501807 ], [ -52.7705563, 82.150008 ], [ -52.7702202, 82.149796 ], [ -52.7716126, 82.149667 ], [ -52.7750695, 82.1495052 ], [ -52.7765099, 82.1494943 ], [ -52.7783664, 82.1496845 ], [ -52.7794707, 82.1497348 ], [ -52.7797907, 82.1495861 ], [ -52.7791986, 82.1493588 ], [ -52.7794546, 82.1492276 ], [ -52.7810071, 82.1490746 ], [ -52.7863365, 82.1490221 ], [ -52.7889452, 82.1491576 ], [ -52.7912498, 82.1493741 ], [ -52.7932183, 82.1493478 ], [ -52.7977955, 82.1491336 ], [ -52.8007083, 82.1491358 ], [ -52.8041652, 82.1492189 ], [ -52.8067739, 82.1490899 ], [ -52.8084064, 82.1490155 ], [ -52.8112071, 82.1490593 ], [ -52.8125355, 82.1491227 ], [ -52.8150161, 82.1490068 ], [ -52.8195613, 82.14895 ], [ -52.8229062, 82.148915 ], [ -52.8248907, 82.1489522 ], [ -52.8293399, 82.1491839 ], [ -52.8312444, 82.1492407 ], [ -52.8344453, 82.1492298 ], [ -52.8374221, 82.1492495 ], [ -52.8392946, 82.1492538 ], [ -52.8415512, 82.149503 ], [ -52.8434877, 82.1496211 ], [ -52.8470086, 82.1497807 ], [ -52.8496813, 82.1498025 ], [ -52.8518899, 82.1499184 ], [ -52.8544346, 82.1499118 ], [ -52.8567872, 82.1498484 ], [ -52.8603082, 82.1496145 ], [ -52.863573, 82.1493784 ], [ -52.8678622, 82.1491773 ], [ -52.8726155, 82.1492014 ], [ -52.8797854, 82.1492036 ], [ -52.8849867, 82.149361 ], [ -52.8963978, 82.1495205 ], [ -52.9038238, 82.1496211 ], [ -52.9150427, 82.1498812 ], [ -52.9261337, 82.1504408 ], [ -52.94241, 82.1515795 ], [ -52.9463791, 82.1516931 ], [ -52.9476434, 82.1518614 ], [ -52.9492278, 82.1518439 ], [ -52.953725, 82.1520406 ], [ -52.9553415, 82.1522394 ], [ -52.9593105, 82.1524449 ], [ -52.9625594, 82.152482 ], [ -52.9664804, 82.1523793 ], [ -52.9673447, 82.1522569 ], [ -52.9693292, 82.1522613 ], [ -52.9711057, 82.1523968 ], [ -52.9769152, 82.1526743 ], [ -52.9804842, 82.1527639 ], [ -52.9841011, 82.1528447 ], [ -52.9897346, 82.1532249 ], [ -52.9929195, 82.1536881 ], [ -52.998617, 82.1545555 ], [ -53.0010496, 82.1548919 ], [ -53.0017058, 82.1551846 ], [ -53.0032102, 82.1553594 ], [ -53.0046346, 82.1556542 ], [ -53.0051307, 82.1561217 ], [ -53.0114204, 82.1578295 ], [ -53.0124518, 82.158006 ], [ -53.0131457, 82.158316 ], [ -53.013336, 82.1585023 ], [ -53.0148469, 82.1586214 ], [ -53.0156303, 82.1588016 ], [ -53.0159437, 82.1590505 ], [ -53.0161451, 82.1592032 ], [ -53.0192453, 82.1595543 ], [ -53.0199728, 82.1597635 ], [ -53.0219202, 82.159991 ], [ -53.0225245, 82.1603131 ], [ -53.0254344, 82.1608535 ], [ -53.0275049, 82.1611191 ], [ -53.029083, 82.1615648 ], [ -53.0293628, 82.1618014 ], [ -53.031478, 82.1619754 ], [ -53.0372978, 82.1631475 ], [ -53.0375329, 82.1632833 ], [ -53.0397601, 82.1636342 ], [ -53.0403308, 82.1637273 ], [ -53.0429498, 82.1645131 ], [ -53.04699, 82.1653721 ], [ -53.049262, 82.1655476 ], [ -53.0529441, 82.1661532 ], [ -53.0538395, 82.1664354 ], [ -53.0599055, 82.1672896 ], [ -53.0619872, 82.1677975 ], [ -53.063319, 82.1683374 ], [ -53.0674153, 82.1691502 ], [ -53.068568, 82.1701016 ], [ -53.0703811, 82.1709234 ], [ -53.0766486, 82.1727694 ], [ -53.0776335, 82.1732114 ], [ -53.0795809, 82.1738332 ], [ -53.0785848, 82.1746622 ], [ -53.0779357, 82.1748801 ], [ -53.0765926, 82.17513 ], [ -53.0768165, 82.1753647 ], [ -53.0776335, 82.1755932 ], [ -53.077958, 82.1765089 ], [ -53.081047, 82.1767054 ], [ -53.0831847, 82.1771502 ], [ -53.0844493, 82.1776423 ], [ -53.0839284, 82.1781368 ], [ -53.08468, 82.1785386 ], [ -53.083338, 82.1790981 ], [ -53.0833702, 82.1793626 ], [ -53.0820282, 82.1799235 ], [ -53.0804929, 82.1806889 ], [ -53.0805573, 82.1809767 ], [ -53.0798917, 82.1812147 ], [ -53.0800635, 82.181631 ], [ -53.0785497, 82.1823509 ], [ -53.0735253, 82.1848389 ], [ -53.070809, 82.1861045 ], [ -53.0703367, 82.1863351 ], [ -53.0685115, 82.1866095 ], [ -53.0655162, 82.1874575 ], [ -53.0640776, 82.1878252 ], [ -53.0620592, 82.1886278 ], [ -53.0619304, 82.1890291 ], [ -53.0607709, 82.1895281 ], [ -53.0596114, 82.1901073 ], [ -53.0581298, 82.1906689 ], [ -53.0580869, 82.1910234 ], [ -53.0546192, 82.1918446 ], [ -53.0525042, 82.1924178 ], [ -53.0512051, 82.1926715 ], [ -53.0510011, 82.1931105 ], [ -53.0517312, 82.1937536 ], [ -53.0506146, 82.1943529 ], [ -53.0508723, 82.1950411 ], [ -53.0481454, 82.19584 ], [ -53.0469644, 82.1966651 ], [ -53.0469215, 82.1974114 ], [ -53.0475656, 82.1979798 ], [ -53.0485211, 82.1984403 ], [ -53.0479092, 82.1989139 ], [ -53.0467175, 82.1995085 ], [ -53.0464813, 82.200154 ], [ -53.0473402, 82.2004556 ], [ -53.0471469, 82.2007178 ], [ -53.0461914, 82.2014127 ], [ -53.0460304, 82.2023683 ], [ -53.0473294, 82.2027121 ], [ -53.048768, 82.2029786 ], [ -53.0500027, 82.2044772 ], [ -53.0505395, 82.2049213 ], [ -53.0532986, 82.2061138 ], [ -53.054587, 82.2065054 ], [ -53.0548017, 82.2065957 ], [ -53.0584197, 82.2068301 ], [ -53.0595792, 82.2071532 ], [ -53.0591927, 82.2075579 ], [ -53.0606098, 82.2080135 ], [ -53.0644426, 82.2090818 ], [ -53.0648076, 82.2098342 ], [ -53.0660852, 82.2102969 ], [ -53.0660208, 82.210815 ], [ -53.0685652, 82.2118378 ], [ -53.0686082, 82.212555 ], [ -53.0701541, 82.2128226 ], [ -53.0711848, 82.2132794 ], [ -53.0717753, 82.2139717 ], [ -53.0732783, 82.2144313 ], [ -53.0767675, 82.2151105 ], [ -53.0770264, 82.2154245 ], [ -53.076093, 82.2158212 ], [ -53.076443, 82.2161562 ], [ -53.077213, 82.2163648 ], [ -53.0784614, 82.216567 ], [ -53.0789398, 82.2168641 ], [ -53.0784148, 82.2172749 ], [ -53.0791879, 82.2174771 ], [ -53.0791557, 82.2177452 ], [ -53.0816823, 82.2180677 ], [ -53.0831468, 82.218412 ], [ -53.085416, 82.2196082 ], [ -53.0852872, 82.220155 ], [ -53.0854642, 82.2209479 ], [ -53.0862206, 82.2211636 ], [ -53.0874115, 82.2212986 ], [ -53.0874759, 82.2218257 ], [ -53.0881679, 82.2224617 ], [ -53.0910647, 82.2244302 ], [ -53.090936, 82.2249048 ], [ -53.089568, 82.2257038 ], [ -53.0877495, 82.2272515 ], [ -53.084386, 82.2281764 ], [ -53.0816019, 82.2288249 ], [ -53.0784798, 82.22958 ], [ -53.0750036, 82.2304373 ], [ -53.0728632, 82.2306592 ], [ -53.0692101, 82.2308354 ], [ -53.0626923, 82.2315533 ], [ -53.0573493, 82.2321014 ], [ -53.0550319, 82.2321906 ], [ -53.0492222, 82.2320819 ], [ -53.0482084, 82.2320971 ], [ -53.0470496, 82.2322385 ], [ -53.0465508, 82.2325256 ], [ -53.0455369, 82.2330084 ], [ -53.0438632, 82.2333977 ], [ -53.041594, 82.2336761 ], [ -53.0405802, 82.2339349 ], [ -53.0402744, 82.2346655 ], [ -53.0408537, 82.2358897 ], [ -53.0393088, 82.2371788 ], [ -53.0384558, 82.2379657 ], [ -53.03675, 82.2389654 ], [ -53.0334669, 82.2410602 ], [ -53.031407, 82.2418228 ], [ -53.0293471, 82.2422529 ], [ -53.027094, 82.2425136 ], [ -53.0252783, 82.2426324 ], [ -53.0231242, 82.242616 ], [ -53.0215916, 82.2425724 ], [ -53.0189845, 82.2423769 ], [ -53.0165383, 82.2421683 ], [ -53.012, 82.2419381 ], [ -53.0070433, 82.2416426 ], [ -52.9970976, 82.2407214 ], [ -52.9892924, 82.2398762 ], [ -52.9859772, 82.2396154 ], [ -52.9812619, 82.2393611 ], [ -52.976788, 82.23882 ], [ -52.9713967, 82.2382853 ], [ -52.9659089, 82.2374116 ], [ -52.9581842, 82.2365681 ], [ -52.9543701, 82.2362268 ], [ -52.946243, 82.2356202 ], [ -52.9419943, 82.2355007 ], [ -52.9376814, 82.2354507 ], [ -52.930552, 82.2354507 ], [ -52.9254827, 82.2355289 ], [ -52.9214272, 82.2354485 ], [ -52.916567, 82.2355224 ], [ -52.9111597, 82.2354572 ], [ -52.906911, 82.2353159 ], [ -52.9002806, 82.2350027 ], [ -52.8964022, 82.2346896 ], [ -52.8935376, 82.2343308 ], [ -52.8911879, 82.2338655 ], [ -52.8885165, 82.2332544 ], [ -52.8860542, 82.2326845 ], [ -52.8843, 82.2322038 ], [ -52.8829965, 82.2315708 ], [ -52.8800192, 82.23099 ], [ -52.8783455, 82.2308095 ], [ -52.8759154, 82.2303743 ], [ -52.8749338, 82.2300654 ], [ -52.874113, 82.229813 ], [ -52.8714093, 82.2295323 ], [ -52.8681585, 82.2286771 ], [ -52.8667101, 82.2284204 ], [ -52.8626063, 82.2279829 ], [ -52.8602084, 82.2273866 ], [ -52.8574404, 82.2265312 ], [ -52.8551712, 82.2261241 ], [ -52.8527733, 82.22568 ], [ -52.8505847, 82.2253513 ], [ -52.8480741, 82.2249115 ], [ -52.8437611, 82.2238664 ], [ -52.8396091, 82.223113 ], [ -52.838225, 82.2227254 ], [ -52.8333488, 82.2218912 ], [ -52.8310153, 82.2212334 ], [ -52.825785, 82.2201399 ], [ -52.8228882, 82.2198262 ], [ -52.8214398, 82.2196541 ], [ -52.8178188, 82.2190353 ], [ -52.8142783, 82.218471 ], [ -52.8092411, 82.2180178 ], [ -52.8065374, 82.2177236 ], [ -52.8048637, 82.2176996 ], [ -52.8020635, 82.2175688 ], [ -52.8007278, 82.2173945 ], [ -52.7998909, 82.2173858 ], [ -52.7987322, 82.2173161 ], [ -52.7935663, 82.2167995 ], [ -52.7913937, 82.2163724 ], [ -52.7869841, 82.2147702 ], [ -52.7853587, 82.2145566 ], [ -52.7830896, 82.2143735 ], [ -52.7817216, 82.2141903 ], [ -52.780579, 82.2141206 ], [ -52.7797422, 82.2140028 ], [ -52.7798548, 82.2138677 ], [ -52.7807399, 82.2133117 ], [ -52.7805307, 82.2131612 ], [ -52.7788087, 82.2128974 ], [ -52.7773282, 82.2125878 ], [ -52.7763626, 82.2121538 ], [ -52.77522, 82.2119968 ], [ -52.7730635, 82.2110481 ], [ -52.7729186, 82.2106882 ], [ -52.7711323, 82.2103567 ], [ -52.7694425, 82.2098768 ], [ -52.7693781, 82.2096041 ], [ -52.7690562, 82.2094972 ], [ -52.7685413, 82.2093663 ], [ -52.7666262, 82.20917 ], [ -52.7656606, 82.2089562 ], [ -52.7640512, 82.2086202 ], [ -52.7631017, 82.208485 ], [ -52.7620718, 82.2083322 ], [ -52.7611223, 82.2079351 ], [ -52.760382, 82.2077213 ], [ -52.7596417, 82.2075271 ], [ -52.7572438, 82.2071889 ], [ -52.7555379, 82.2068616 ], [ -52.7542343, 82.2064884 ], [ -52.751418, 82.2056722 ], [ -52.7500018, 82.205371 ], [ -52.7479097, 82.2050414 ], [ -52.7455923, 82.20481 ], [ -52.7439508, 82.2041661 ], [ -52.7425828, 82.2039609 ], [ -52.7407965, 82.2035156 ], [ -52.7398148, 82.2032274 ], [ -52.7391711, 82.2027252 ], [ -52.7381572, 82.2022623 ], [ -52.7370628, 82.2019981 ], [ -52.7348098, 82.2016946 ], [ -52.7339568, 82.2013627 ], [ -52.7324602, 82.2011247 ], [ -52.7309313, 82.2008539 ], [ -52.7300945, 82.2001987 ], [ -52.7291772, 82.1997509 ], [ -52.728453, 82.1993905 ], [ -52.7268758, 82.1992049 ], [ -52.7259746, 82.198851 ], [ -52.7252665, 82.1987068 ], [ -52.7242687, 82.1985801 ], [ -52.7234319, 82.1983835 ], [ -52.7221283, 82.19801 ], [ -52.7214202, 82.1976364 ], [ -52.7212754, 82.1973305 ], [ -52.720342, 82.1970224 ], [ -52.7189418, 82.196793 ], [ -52.7183947, 82.1965417 ], [ -52.7178475, 82.1960829 ], [ -52.7173003, 82.1959692 ], [ -52.7159163, 82.1959212 ], [ -52.7144357, 82.1959146 ], [ -52.7132126, 82.1956611 ], [ -52.7119896, 82.1954972 ], [ -52.7087548, 82.1948153 ], [ -52.7059224, 82.194164 ], [ -52.704474, 82.1939192 ], [ -52.7027198, 82.1934471 ], [ -52.7024623, 82.1931017 ], [ -52.7014324, 82.1928765 ], [ -52.7013197, 82.1926732 ], [ -52.7007243, 82.1925399 ], [ -52.7000323, 82.1924961 ], [ -52.6990345, 82.192365 ], [ -52.6986482, 82.1921529 ], [ -52.6983586, 82.1919037 ], [ -52.6969745, 82.1916522 ], [ -52.6955262, 82.1913396 ], [ -52.6948181, 82.1909963 ], [ -52.6942226, 82.1904715 ], [ -52.6936915, 82.1897935 ], [ -52.6920339, 82.1892096 ], [ -52.6913097, 82.1888225 ], [ -52.6898452, 82.1880482 ], [ -52.689797, 82.1877725 ], [ -52.6900705, 82.1876763 ], [ -52.6908752, 82.1876435 ], [ -52.6918408, 82.1877025 ], [ -52.692742, 82.1877485 ], [ -52.6938203, 82.1878097 ], [ -52.6950916, 82.1878622 ], [ -52.6960894, 82.1878075 ], [ -52.6969906, 82.18772 ], [ -52.699115, 82.1866678 ], [ -52.699131, 82.1864862 ], [ -52.6984068, 82.186274 ], [ -52.697747, 82.1860202 ], [ -52.6969906, 82.1855081 ], [ -52.6964274, 82.1851558 ], [ -52.6955101, 82.1849873 ], [ -52.694641, 82.1846766 ], [ -52.6935467, 82.1844096 ], [ -52.6910844, 82.1840792 ], [ -52.6892498, 82.1839128 ], [ -52.6882037, 82.1836524 ], [ -52.6864657, 82.1831293 ], [ -52.6834723, 82.1816867 ], [ -52.6833597, 82.181343 ], [ -52.6825872, 82.1809314 ], [ -52.68204, 82.180314 ], [ -52.6814124, 82.1799658 ], [ -52.6796904, 82.1795782 ], [ -52.6793846, 82.1792958 ], [ -52.6803824, 82.1787658 ], [ -52.6799318, 82.1785249 ], [ -52.6799801, 82.178227 ], [ -52.6782098, 82.1774276 ], [ -52.6779201, 82.1766894 ], [ -52.677904, 82.1761483 ], [ -52.678065, 82.1757145 ], [ -52.6743474, 82.17463 ], [ -52.6722231, 82.1738104 ], [ -52.6723036, 82.173096 ], [ -52.6716116, 82.1723859 ], [ -52.6701413, 82.1714836 ], [ -52.6699964, 82.1708404 ], [ -52.6708365, 82.1706392 ], [ -52.6724008, 82.170578 ], [ -52.6724442, 82.1704044 ], [ -52.6718594, 82.1702505 ], [ -52.6702983, 82.1700401 ], [ -52.6698477, 82.1698669 ], [ -52.6689143, 82.1695095 ], [ -52.6674176, 82.1691499 ], [ -52.6668705, 82.1690424 ], [ -52.6656152, 82.1683407 ], [ -52.6648427, 82.1681302 ], [ -52.6633943, 82.1677135 ], [ -52.6622034, 82.167049 ], [ -52.6618977, 82.1667727 ], [ -52.6617045, 82.1662638 ], [ -52.6621552, 82.1654302 ], [ -52.662477, 82.1650156 ], [ -52.6616724, 82.1648313 ], [ -52.6605136, 82.1646865 ], [ -52.6594837, 82.1643047 ], [ -52.6589365, 82.163923 ], [ -52.6580353, 82.1635061 ], [ -52.6573433, 82.1629575 ], [ -52.6566191, 82.1625866 ], [ -52.6554443, 82.162343 ], [ -52.6553638, 82.1622574 ], [ -52.6548649, 82.1618163 ], [ -52.6546074, 82.1612786 ], [ -52.6542695, 82.1609076 ], [ -52.653497, 82.1606333 ], [ -52.6532073, 82.160192 ], [ -52.6534487, 82.1594852 ], [ -52.6527406, 82.1589736 ], [ -52.6524026, 82.1583786 ], [ -52.6530625, 82.1581239 ], [ -52.653674, 82.1580229 ], [ -52.6548971, 82.1579746 ], [ -52.6557178, 82.1578758 ], [ -52.6568766, 82.1576079 ], [ -52.6573594, 82.157318 ], [ -52.6568927, 82.156993 ], [ -52.657472, 82.1566658 ], [ -52.6575686, 82.156198 ], [ -52.6566352, 82.1557763 ], [ -52.6562811, 82.1553414 ], [ -52.6559432, 82.1552184 ], [ -52.6552672, 82.1547835 ], [ -52.6529659, 82.1543485 ], [ -52.651775, 82.1537949 ], [ -52.6494737, 82.1533071 ], [ -52.6494093, 82.1530786 ], [ -52.6495059, 82.1529424 ], [ -52.6482184, 82.1522415 ], [ -52.6478, 82.1518701 ], [ -52.6487817, 82.1510548 ], [ -52.649007, 82.1505889 ], [ -52.6494254, 82.1501273 ], [ -52.6479609, 82.1494877 ], [ -52.6485885, 82.1491096 ], [ -52.6482828, 82.1487534 ], [ -52.6486773, 82.1480774 ], [ -52.6505192, 82.1476309 ], [ -52.6523824, 82.1474157 ], [ -52.6533261, 82.1473283 ] ] ] ] } },
{ "type": "Feature", "properties": { "FID": 645082, "id": 902, "left": -55.0, "top": 85.0, "right": -50.0, "bottom": 80.0, "row_index": 1, "col_index": 25, "min_lon": -55.0, "min_lat": 80.0, "tile_id": "-55_80" }, "geometry": { "type": "MultiPolygon", "coordinates": [ [ [ [ -50.3791813, 82.4463725 ], [ -50.3929142, 82.4458761 ], [ -50.399094, 82.4459212 ], [ -50.4090503, 82.4455601 ], [ -50.4152301, 82.4462823 ], [ -50.4124836, 82.447952 ], [ -50.4066471, 82.449125 ], [ -50.3966907, 82.4497115 ], [ -50.3881076, 82.4493957 ], [ -50.376778, 82.4490348 ], [ -50.3740314, 82.4481776 ], [ -50.366135, 82.4477263 ], [ -50.3705982, 82.4470495 ], [ -50.3791813, 82.4463725 ] ] ] ] } },
{ "type": "Feature", "properties": { "FID": 669805, "id": 902, "left": -55.0, "top": 85.0, "right": -50.0, "bottom": 80.0, "row_index": 1, "col_index": 25, "min_lon": -55.0, "min_lat": 80.0, "tile_id": "-55_80" }, "geometry": { "type": "MultiPolygon", "coordinates": [ [ [ [ -53.5733336, 82.2446671 ], [ -53.5832669, 82.243752 ], [ -53.5883719, 82.2424136 ], [ -53.5890239, 82.2407237 ], [ -53.5853816, 82.2387782 ], [ -53.5775756, 82.2366468 ], [ -53.5660523, 82.2344195 ], [ -53.5508465, 82.2321679 ], [ -53.5322527, 82.229978 ], [ -53.5200877, 82.2286473 ], [ -53.5077864, 82.2272333 ], [ -53.495733, 82.2257744 ], [ -53.4842304, 82.224324 ], [ -53.4735522, 82.2229095 ], [ -53.4641504, 82.2215878 ], [ -53.4563121, 82.2203996 ], [ -53.4504196, 82.2193832 ], [ -53.4428192, 82.2175632 ], [ -53.4397404, 82.2159095 ], [ -53.4404477, 82.2145097 ], [ -53.4444116, 82.2134601 ], [ -53.4510493, 82.2128515 ], [ -53.4597651, 82.2127617 ], [ -53.4699525, 82.2133019 ], [ -53.4811134, 82.2145481 ], [ -53.4877461, 82.2153511 ], [ -53.4942554, 82.21582 ], [ -53.5004357, 82.2159457 ], [ -53.5064098, 82.2157521 ], [ -53.5119723, 82.2152302 ], [ -53.5171367, 82.214393 ], [ -53.5217525, 82.2132368 ], [ -53.5259693, 82.2117653 ], [ -53.5263863, 82.2113938 ], [ -53.5259579, 82.2110066 ], [ -53.5248343, 82.210607 ], [ -53.5230298, 82.2102081 ], [ -53.5206541, 82.2098208 ], [ -53.517681, 82.2094654 ], [ -53.5142605, 82.2091455 ], [ -53.5103664, 82.2088813 ], [ -53.4996796, 82.207798 ], [ -53.4891051, 82.2058411 ], [ -53.478758, 82.2030678 ], [ -53.4687929, 82.1995279 ], [ -53.4593376, 82.1952915 ], [ -53.4505857, 82.1904009 ], [ -53.442649, 82.1849133 ], [ -53.4355981, 82.1788933 ], [ -53.4318974, 82.1758077 ], [ -53.4272622, 82.1726618 ], [ -53.4218726, 82.1695312 ], [ -53.4158415, 82.1665191 ], [ -53.4094429, 82.1636992 ], [ -53.4028289, 82.1611673 ], [ -53.3961914, 82.1590118 ], [ -53.3896271, 82.1573233 ], [ -53.3836424, 82.1559001 ], [ -53.378418, 82.1545077 ], [ -53.3740358, 82.1531775 ], [ -53.370591, 82.1519539 ], [ -53.368111, 82.1508625 ], [ -53.3667857, 82.1499459 ], [ -53.3666563, 82.1492427 ], [ -53.3677907, 82.1487714 ], [ -53.3691306, 82.1484014 ], [ -53.3696309, 82.1479692 ], [ -53.3691706, 82.1474969 ], [ -53.3679668, 82.1470066 ], [ -53.3659653, 82.1464927 ], [ -53.3632888, 82.1459792 ], [ -53.3599109, 82.1454864 ], [ -53.3558997, 82.1450327 ], [ -53.3518876, 82.1445327 ], [ -53.3484404, 82.1439291 ], [ -53.3455858, 82.1432476 ], [ -53.3433777, 82.1424938 ], [ -53.3419522, 82.1417045 ], [ -53.3412422, 82.1409075 ], [ -53.3414502, 82.1401118 ], [ -53.3424689, 82.1393526 ], [ -53.343305, 82.1383333 ], [ -53.3414939, 82.1372286 ], [ -53.3369147, 82.1360145 ], [ -53.3292848, 82.1346504 ], [ -53.31843, 82.1331068 ], [ -53.3041771, 82.1313539 ], [ -53.2862595, 82.1293638 ], [ -53.2645323, 82.1270862 ], [ -53.2314458, 82.1236088 ], [ -53.2048017, 82.1206021 ], [ -53.1843856, 82.1180119 ], [ -53.1698781, 82.1157728 ], [ -53.1607742, 82.1138226 ], [ -53.1568807, 82.1121192 ], [ -53.1577361, 82.1105927 ], [ -53.1631224, 82.1091748 ], [ -53.1655668, 82.108619 ], [ -53.1670025, 82.1080172 ], [ -53.1675506, 82.1073932 ], [ -53.1672788, 82.1067657 ], [ -53.1660664, 82.1061567 ], [ -53.1640614, 82.1055699 ], [ -53.1612104, 82.105046 ], [ -53.1575134, 82.1045848 ], [ -53.1414144, 82.1033655 ], [ -53.1197993, 82.1023264 ], [ -53.0947774, 82.101511 ], [ -53.0682007, 82.1009487 ], [ -53.0421215, 82.1006782 ], [ -53.0184169, 82.1007094 ], [ -52.9991515, 82.1010951 ], [ -52.9862707, 82.1018642 ], [ -52.9705511, 82.1027205 ], [ -52.9502268, 82.1026827 ], [ -52.9275709, 82.1019045 ], [ -52.9046544, 82.1005305 ], [ -52.8835994, 82.0987116 ], [ -52.8665499, 82.0966247 ], [ -52.8555936, 82.0943954 ], [ -52.8529196, 82.0922064 ], [ -52.8529699, 82.0903939 ], [ -52.849718, 82.088677 ], [ -52.8435124, 82.087115 ], [ -52.8348885, 82.0857634 ], [ -52.8242741, 82.0846668 ], [ -52.8120279, 82.0838972 ], [ -52.7986697, 82.0834973 ], [ -52.7846909, 82.0835302 ], [ -52.7775765, 82.0834929 ], [ -52.7703574, 82.0831083 ], [ -52.7628618, 82.0823469 ], [ -52.7549713, 82.0811844 ], [ -52.7465147, 82.0795912 ], [ -52.7372805, 82.0775449 ], [ -52.7272049, 82.0750269 ], [ -52.7161587, 82.0720001 ], [ -52.7068976, 82.0695193 ], [ -52.696999, 82.0670636 ], [ -52.6867139, 82.0646939 ], [ -52.6763056, 82.0624844 ], [ -52.6661578, 82.0604872 ], [ -52.6565855, 82.058782 ], [ -52.6478777, 82.0574227 ], [ -52.6402829, 82.0564707 ], [ -52.633071, 82.0556167 ], [ -52.6271583, 82.0547255 ], [ -52.6223978, 82.0537932 ], [ -52.6189606, 82.0528495 ], [ -52.6168871, 82.0518871 ], [ -52.616136, 82.0509135 ], [ -52.616785, 82.0499601 ], [ -52.6188866, 82.0490325 ], [ -52.6205261, 82.0480212 ], [ -52.6206931, 82.0466685 ], [ -52.6194258, 82.0450132 ], [ -52.6168407, 82.0431256 ], [ -52.6130419, 82.0410629 ], [ -52.6081458, 82.0388955 ], [ -52.602191, 82.036662 ], [ -52.5953466, 82.0344384 ], [ -52.5884002, 82.0322035 ], [ -52.582086, 82.0299305 ], [ -52.5765992, 82.0276752 ], [ -52.5720663, 82.0255207 ], [ -52.5685763, 82.0235116 ], [ -52.5662429, 82.0217182 ], [ -52.565273, 82.0202089 ], [ -52.5656748, 82.019043 ], [ -52.5661228, 82.017975 ], [ -52.5652978, 82.0168647 ], [ -52.5631197, 82.0157266 ], [ -52.5598124, 82.0145962 ], [ -52.5553887, 82.0134864 ], [ -52.5499389, 82.0124415 ], [ -52.5435158, 82.0114671 ], [ -52.53629, 82.010593 ], [ -52.5237537, 82.008862 ], [ -52.508065, 82.006096 ], [ -52.4906144, 82.002605 ], [ -52.4725908, 81.9986897 ], [ -52.4555219, 81.9946645 ], [ -52.4407194, 81.9908213 ], [ -52.4293697, 81.9874745 ], [ -52.4230678, 81.9849241 ], [ -52.4233185, 81.9843339 ], [ -52.4254777, 81.983413 ], [ -52.429371, 81.9821775 ], [ -52.4324153, 81.9813416 ], [ -52.4262448, 81.9825173 ], [ -52.4215688, 81.9833195 ], [ -52.4194344, 81.9835096 ], [ -52.4185633, 81.9833346 ], [ -52.4163697, 81.9828547 ], [ -52.4128901, 81.9821085 ], [ -52.4082424, 81.9811203 ], [ -52.4027133, 81.9799441 ], [ -52.3963561, 81.9785855 ], [ -52.3893528, 81.9770872 ], [ -52.3818449, 81.9754993 ], [ -52.3697061, 81.9728765 ], [ -52.361134, 81.9708931 ], [ -52.3564107, 81.969452 ], [ -52.3555183, 81.9684353 ], [ -52.3587538, 81.9677585 ], [ -52.3661537, 81.9673091 ], [ -52.3778999, 81.9669783 ], [ -52.3941338, 81.9666645 ], [ -52.404355, 81.9665556 ], [ -52.3953375, 81.9666426 ], [ -52.3792291, 81.9668885 ], [ -52.3655942, 81.966806 ], [ -52.3524764, 81.9661612 ], [ -52.3377643, 81.9647027 ], [ -52.3195472, 81.9621884 ], [ -52.2957766, 81.958372 ], [ -52.2644273, 81.9530192 ], [ -52.2236117, 81.9458731 ], [ -52.1830416, 81.9387068 ], [ -52.1530664, 81.9332451 ], [ -52.1326075, 81.9291666 ], [ -52.1207872, 81.9261458 ], [ -52.1164107, 81.9238556 ], [ -52.1186298, 81.9219822 ], [ -52.1264327, 81.9201817 ], [ -52.1386985, 81.9181447 ], [ -52.1578481, 81.9151308 ], [ -52.1731913, 81.9127882 ], [ -52.185373, 81.9110467 ], [ -52.1949553, 81.9098508 ], [ -52.2024466, 81.9091389 ], [ -52.2084061, 81.9088554 ], [ -52.2134721, 81.9089295 ], [ -52.2180587, 81.9093016 ], [ -52.221068, 81.9094781 ], [ -52.2253119, 81.9095208 ], [ -52.2306466, 81.9094255 ], [ -52.2368994, 81.9092086 ], [ -52.2438058, 81.9088878 ], [ -52.2511698, 81.9084535 ], [ -52.2588189, 81.9079218 ], [ -52.2665687, 81.9072961 ], [ -52.2743692, 81.9066759 ], [ -52.2821187, 81.906155 ], [ -52.2896856, 81.9057426 ], [ -52.2967943, 81.9054435 ], [ -52.3033014, 81.9052537 ], [ -52.3089953, 81.905197 ], [ -52.3136004, 81.9052782 ], [ -52.3169733, 81.9054935 ], [ -52.3202543, 81.9057105 ], [ -52.3245086, 81.905765 ], [ -52.3296276, 81.9056921 ], [ -52.3354035, 81.905469 ], [ -52.3416757, 81.9051251 ], [ -52.3482203, 81.9046708 ], [ -52.3548411, 81.9040966 ], [ -52.3614179, 81.9034244 ], [ -52.3799091, 81.9018442 ], [ -52.401685, 81.9007949 ], [ -52.4261058, 81.900288 ], [ -52.4527446, 81.9003111 ], [ -52.4810439, 81.9008611 ], [ -52.510474, 81.9019146 ], [ -52.540502, 81.9034946 ], [ -52.5706904, 81.9055764 ], [ -52.5846297, 81.906625 ], [ -52.5979908, 81.9075525 ], [ -52.6103286, 81.9083342 ], [ -52.621446, 81.908961 ], [ -52.6309101, 81.9094211 ], [ -52.6384994, 81.9096795 ], [ -52.6438976, 81.9097487 ], [ -52.6467395, 81.9095897 ], [ -52.6487844, 81.9093799 ], [ -52.651936, 81.9093006 ], [ -52.656038, 81.9093349 ], [ -52.6608671, 81.9094936 ], [ -52.666359, 81.9097583 ], [ -52.6722259, 81.9101211 ], [ -52.6784284, 81.9105894 ], [ -52.6847061, 81.9111351 ], [ -52.7323461, 81.9155081 ], [ -52.7740562, 81.9191673 ], [ -52.8097647, 81.9221089 ], [ -52.839324, 81.9243437 ], [ -52.8626957, 81.925847 ], [ -52.8809127, 81.9284003 ], [ -52.8824534, 81.9283647 ], [ -52.8865318, 81.9280067 ], [ -52.8884315, 81.9279654 ], [ -52.8913988, 81.9280033 ], [ -52.8941746, 81.9280667 ], [ -52.8967557, 81.9282923 ], [ -52.8987824, 81.9285455 ], [ -52.8997217, 81.9287088 ], [ -52.9010768, 81.92925 ], [ -52.9021428, 81.9293841 ], [ -52.9034812, 81.9295229 ], [ -52.906554, 81.9296559 ], [ -52.915591, 81.9302979 ], [ -52.9214906, 81.9314211 ], [ -52.9282731, 81.9325336 ], [ -52.9356765, 81.9336075 ], [ -52.943505, 81.9345874 ], [ -52.9515613, 81.9354638 ], [ -52.999019, 81.9404607 ], [ -53.046399, 81.9459225 ], [ -53.092366, 81.9516852 ], [ -53.1107169, 81.9541764 ], [ -53.1355895, 81.9575516 ], [ -53.1747444, 81.9633383 ], [ -53.2084449, 81.9688567 ], [ -53.2354447, 81.9739219 ], [ -53.2542952, 81.9783402 ], [ -53.2669834, 81.9817688 ], [ -53.2794483, 81.9847006 ], [ -53.2926965, 81.9872866 ], [ -53.3079231, 81.9897201 ], [ -53.3263116, 81.9921349 ], [ -53.3489698, 81.9947256 ], [ -53.3770478, 81.997633 ], [ -53.4117279, 82.0010231 ], [ -53.4406311, 82.0038574 ], [ -53.4781149, 82.0075942 ], [ -53.52247, 82.0120761 ], [ -53.5723559, 82.0171379 ], [ -53.6260949, 82.0226155 ], [ -53.6822022, 82.0283544 ], [ -53.7390241, 82.0341845 ], [ -53.7950193, 82.0399602 ], [ -53.8767983, 82.0484165 ], [ -53.9404851, 82.0550875 ], [ -53.98859, 82.0602883 ], [ -54.0234406, 82.0643088 ], [ -54.0475411, 82.0674866 ], [ -54.0633375, 82.0700929 ], [ -54.0733609, 82.0724625 ], [ -54.0800349, 82.0748729 ], [ -54.0835498, 82.0763748 ], [ -54.0870698, 82.0777973 ], [ -54.0904565, 82.0791038 ], [ -54.093586, 82.0802706 ], [ -54.0964526, 82.0812516 ], [ -54.0989323, 82.0820229 ], [ -54.1009013, 82.0825611 ], [ -54.1022994, 82.0828144 ], [ -54.1039546, 82.0834123 ], [ -54.1067142, 82.0849177 ], [ -54.1104205, 82.0872349 ], [ -54.1149552, 82.0902608 ], [ -54.1201609, 82.0938999 ], [ -54.1258649, 82.0980435 ], [ -54.131909, 82.1025961 ], [ -54.1382679, 82.1074524 ], [ -54.145013, 82.1124259 ], [ -54.1524033, 82.1173258 ], [ -54.1602334, 82.1220178 ], [ -54.1682183, 82.1263825 ], [ -54.1760564, 82.1302878 ], [ -54.1836092, 82.1336177 ], [ -54.1906129, 82.1362326 ], [ -54.1967788, 82.1380133 ], [ -54.2020949, 82.1394821 ], [ -54.2066056, 82.1411672 ], [ -54.2102496, 82.1430169 ], [ -54.2130597, 82.1449777 ], [ -54.2148098, 82.1469818 ], [ -54.2154774, 82.1489702 ], [ -54.2150399, 82.150884 ], [ -54.2134354, 82.1526716 ], [ -54.2117268, 82.1544945 ], [ -54.2110482, 82.1565326 ], [ -54.211403, 82.1587065 ], [ -54.2126758, 82.1609592 ], [ -54.2148305, 82.163219 ], [ -54.217791, 82.1654212 ], [ -54.2215604, 82.1674866 ], [ -54.2261174, 82.1693561 ], [ -54.2343315, 82.1731083 ], [ -54.2401385, 82.1775222 ], [ -54.2435731, 82.1823854 ], [ -54.2447087, 82.1874781 ], [ -54.243444, 82.1925975 ], [ -54.2397567, 82.1975258 ], [ -54.2337754, 82.2020483 ], [ -54.2254002, 82.2059621 ], [ -54.2220843, 82.2072649 ], [ -54.2185146, 82.2088047 ], [ -54.2147637, 82.2105204 ], [ -54.211015, 82.2123615 ], [ -54.2072619, 82.214282 ], [ -54.2038077, 82.2162091 ], [ -54.2005911, 82.2180913 ], [ -54.1977809, 82.2198653 ], [ -54.1943464, 82.221772 ], [ -54.1893998, 82.2240092 ], [ -54.1830926, 82.2265009 ], [ -54.1757517, 82.2291538 ], [ -54.1674894, 82.2318993 ], [ -54.1586489, 82.2346571 ], [ -54.1494637, 82.2373362 ], [ -54.1401279, 82.2398529 ], [ -54.1308448, 82.2422954 ], [ -54.1218424, 82.2447316 ], [ -54.1134018, 82.247109 ], [ -54.1057337, 82.249357 ], [ -54.0989691, 82.2514201 ], [ -54.0934555, 82.253218 ], [ -54.0893243, 82.2546952 ], [ -54.0867472, 82.2557885 ], [ -54.0842899, 82.2568594 ], [ -54.0802297, 82.2582754 ], [ -54.0748468, 82.2599841 ], [ -54.0683503, 82.261915 ], [ -54.0608694, 82.2640123 ], [ -54.0527249, 82.2662161 ], [ -54.0440869, 82.2684632 ], [ -54.0350854, 82.2706981 ], [ -54.0095918, 82.2767078 ], [ -53.9852449, 82.2820101 ], [ -53.9623521, 82.286566 ], [ -53.9411403, 82.2903512 ], [ -53.9217098, 82.2933178 ], [ -53.9044386, 82.2954451 ], [ -53.8893447, 82.2967 ], [ -53.8767334, 82.2970434 ], [ -53.8633875, 82.296629 ], [ -53.8500104, 82.2957193 ], [ -53.8372203, 82.2944206 ], [ -53.8256044, 82.292813 ], [ -53.815834, 82.2910084 ], [ -53.8084123, 82.2891019 ], [ -53.8040187, 82.2871721 ], [ -53.8032397, 82.2853456 ], [ -53.8026419, 82.2844861 ], [ -53.7999699, 82.2834915 ], [ -53.795295, 82.28238 ], [ -53.7887994, 82.2811808 ], [ -53.7807762, 82.2799339 ], [ -53.7712412, 82.2786523 ], [ -53.7604316, 82.2773705 ], [ -53.7485438, 82.2761306 ], [ -53.7225814, 82.2731009 ], [ -53.6923905, 82.2688365 ], [ -53.6606595, 82.2638297 ], [ -53.6301046, 82.2585664 ], [ -53.6034267, 82.2535329 ], [ -53.5832585, 82.249211 ], [ -53.5723344, 82.2460933 ], [ -53.5733336, 82.2446671 ] ] ] ] } },
{ "type": "Feature", "properties": { "FID": 706246, "id": 902, "left": -55.0, "top": 85.0, "right": -50.0, "bottom": 80.0, "row_index": 1, "col_index": 25, "min_lon": -55.0, "min_lat": 80.0, "tile_id": "-55_80" }, "geometry": { "type": "MultiPolygon", "coordinates": [ [ [ [ -50.7242793, 82.7539212 ], [ -50.7153386, 82.7536217 ], [ -50.7023639, 82.7530569 ], [ -50.6927222, 82.7525227 ], [ -50.6821508, 82.7517521 ], [ -50.6753558, 82.751207 ], [ -50.6692333, 82.7507594 ], [ -50.6584329, 82.7501564 ], [ -50.6531972, 82.7499542 ], [ -50.6457443, 82.7494596 ], [ -50.6420392, 82.7490335 ], [ -50.6427831, 82.7486561 ], [ -50.6436414, 82.7483293 ], [ -50.6431836, 82.7479049 ], [ -50.6446141, 82.7474282 ], [ -50.6442708, 82.7469695 ], [ -50.6429261, 82.7462831 ], [ -50.6429977, 82.7458298 ], [ -50.6416673, 82.7454053 ], [ -50.6413097, 82.7451668 ], [ -50.6415958, 82.744717 ], [ -50.6417245, 82.7445038 ], [ -50.640952, 82.743033 ], [ -50.6393213, 82.7417915 ], [ -50.6391925, 82.7409113 ], [ -50.6368036, 82.7404504 ], [ -50.6362886, 82.7400653 ], [ -50.6353158, 82.7398502 ], [ -50.6332988, 82.7394145 ], [ -50.6313247, 82.7382338 ], [ -50.6298513, 82.7377926 ], [ -50.6263465, 82.7369662 ], [ -50.623929, 82.7366931 ], [ -50.6189365, 82.7365303 ], [ -50.6138582, 82.736297 ], [ -50.6089229, 82.7359443 ], [ -50.6040878, 82.7354903 ], [ -50.6010122, 82.7352298 ], [ -50.6000108, 82.7350579 ], [ -50.6004829, 82.7348987 ], [ -50.5998678, 82.7345333 ], [ -50.5999536, 82.7339833 ], [ -50.5980224, 82.7337572 ], [ -50.5947179, 82.733464 ], [ -50.5909557, 82.7331492 ], [ -50.5866069, 82.7330262 ], [ -50.5826444, 82.7328199 ], [ -50.5780524, 82.732619 ], [ -50.572359, 82.7325756 ], [ -50.5635471, 82.7323295 ], [ -50.5611867, 82.7324362 ], [ -50.5575246, 82.732163 ], [ -50.5554218, 82.732058 ], [ -50.5526466, 82.7318137 ], [ -50.5495853, 82.7317576 ], [ -50.5473251, 82.7315567 ], [ -50.5443496, 82.731325 ], [ -50.5409164, 82.7310517 ], [ -50.5388421, 82.7309395 ], [ -50.5388707, 82.7302643 ], [ -50.5385417, 82.7299856 ], [ -50.5354232, 82.7300019 ], [ -50.5328626, 82.7301503 ], [ -50.5299443, 82.7304436 ], [ -50.524208, 82.7303675 ], [ -50.5197162, 82.7302607 ], [ -50.5167121, 82.7304001 ], [ -50.513379, 82.7303223 ], [ -50.5110187, 82.7299874 ], [ -50.5109901, 82.7299349 ], [ -50.510189, 82.7295149 ], [ -50.5059547, 82.7293755 ], [ -50.505268, 82.7292814 ], [ -50.5040092, 82.7290388 ], [ -50.5033368, 82.7288993 ], [ -50.5062551, 82.7286748 ], [ -50.5073423, 82.7284648 ], [ -50.511362, 82.7282113 ], [ -50.5112905, 82.7280592 ], [ -50.5139941, 82.7279451 ], [ -50.5160112, 82.7276753 ], [ -50.5148954, 82.7274508 ], [ -50.5131788, 82.7272697 ], [ -50.513236, 82.7270415 ], [ -50.515396, 82.7268604 ], [ -50.5216903, 82.7267554 ], [ -50.5291147, 82.7267029 ], [ -50.5349797, 82.7264366 ], [ -50.5333347, 82.7257936 ], [ -50.5336637, 82.7254404 ], [ -50.5319471, 82.7252937 ], [ -50.5286998, 82.7251434 ], [ -50.523364, 82.7249405 ], [ -50.5209178, 82.7247992 ], [ -50.5185718, 82.7244224 ], [ -50.5186576, 82.7241597 ], [ -50.5232639, 82.7235165 ], [ -50.5278558, 82.7228769 ], [ -50.5337638, 82.7225109 ], [ -50.5359096, 82.7221774 ], [ -50.5385131, 82.7217008 ], [ -50.5406589, 82.721293 ], [ -50.5428762, 82.720994 ], [ -50.5514592, 82.7204267 ], [ -50.5570525, 82.7201421 ], [ -50.5630893, 82.7198575 ], [ -50.5720157, 82.7194623 ], [ -50.5782098, 82.7192175 ], [ -50.578639, 82.7190489 ], [ -50.5833453, 82.7187045 ], [ -50.5869645, 82.7184271 ], [ -50.5913705, 82.7181841 ], [ -50.5979938, 82.7178922 ], [ -50.6025714, 82.7176147 ], [ -50.6060619, 82.7175114 ], [ -50.6098098, 82.717243 ], [ -50.6134862, 82.7171578 ], [ -50.6159467, 82.7171977 ], [ -50.6172342, 82.7169855 ], [ -50.6181211, 82.716699 ], [ -50.6194658, 82.7166681 ], [ -50.6234712, 82.7167225 ], [ -50.627262, 82.7165956 ], [ -50.6296224, 82.7164596 ], [ -50.6321401, 82.7165321 ], [ -50.6380052, 82.7165339 ], [ -50.6456727, 82.7164034 ], [ -50.6504649, 82.7164578 ], [ -50.6557435, 82.7163036 ], [ -50.6605214, 82.7162292 ], [ -50.6630105, 82.7162873 ], [ -50.6662435, 82.7162347 ], [ -50.6715793, 82.7163199 ], [ -50.6775588, 82.7164034 ], [ -50.6814784, 82.7165829 ], [ -50.6843967, 82.7165303 ], [ -50.6887597, 82.7166754 ], [ -50.6901473, 82.7168912 ], [ -50.6941528, 82.7170907 ], [ -50.6989593, 82.7171324 ], [ -50.7051677, 82.7173355 ], [ -50.7164115, 82.7174842 ], [ -50.7185001, 82.7176002 ], [ -50.7209372, 82.7180626 ], [ -50.7233729, 82.7183511 ], [ -50.7256617, 82.7188315 ], [ -50.727221, 82.7193682 ], [ -50.7306685, 82.7201839 ], [ -50.7315125, 82.7202818 ], [ -50.7335867, 82.7204141 ], [ -50.736691, 82.7205084 ], [ -50.7392945, 82.7203869 ], [ -50.7411112, 82.7201332 ], [ -50.7411398, 82.71968 ], [ -50.741712, 82.7193899 ], [ -50.7415833, 82.7192159 ], [ -50.744759, 82.719011 ], [ -50.7480206, 82.7187372 ], [ -50.7555165, 82.7182332 ], [ -50.7617678, 82.7178361 ], [ -50.770451, 82.7174172 ], [ -50.7731833, 82.717332 ], [ -50.7755579, 82.7174009 ], [ -50.7775607, 82.7172014 ], [ -50.7777466, 82.7169004 ], [ -50.7775607, 82.7166375 ], [ -50.781795, 82.7167662 ], [ -50.7850852, 82.7162312 ], [ -50.788547, 82.7159737 ], [ -50.7931962, 82.715883 ], [ -50.797645, 82.7156635 ], [ -50.8019509, 82.7156635 ], [ -50.8048119, 82.7157469 ], [ -50.8120932, 82.7161822 ], [ -50.814711, 82.7164597 ], [ -50.8194174, 82.7166955 ], [ -50.8210339, 82.7167408 ], [ -50.8259263, 82.716603 ], [ -50.8324351, 82.7167916 ], [ -50.8378281, 82.7166846 ], [ -50.8408751, 82.7166048 ], [ -50.8450522, 82.7166919 ], [ -50.8477416, 82.7167553 ], [ -50.8429637, 82.7171851 ], [ -50.8418479, 82.717575 ], [ -50.8440508, 82.7177382 ], [ -50.8492007, 82.7179377 ], [ -50.8490433, 82.7188497 ], [ -50.8474268, 82.7194479 ], [ -50.8418049, 82.7204921 ], [ -50.8407607, 82.7208564 ], [ -50.8382859, 82.7211844 ], [ -50.8357825, 82.722424 ], [ -50.8351388, 82.7236652 ], [ -50.8355679, 82.7243646 ], [ -50.8383002, 82.725475 ], [ -50.8391299, 82.7258264 ], [ -50.8383288, 82.726808 ], [ -50.8356537, 82.7273568 ], [ -50.8355536, 82.7278584 ], [ -50.8333649, 82.7287166 ], [ -50.8325209, 82.7289719 ], [ -50.8321919, 82.7292942 ], [ -50.8286872, 82.7297848 ], [ -50.8222498, 82.7303369 ], [ -50.8172288, 82.7310103 ], [ -50.8119216, 82.7314826 ], [ -50.8117785, 82.7320202 ], [ -50.815226, 82.7322717 ], [ -50.8166565, 82.7330697 ], [ -50.8190455, 82.733428 ], [ -50.8194174, 82.7336886 ], [ -50.8158555, 82.7344032 ], [ -50.8146109, 82.7348844 ], [ -50.8111348, 82.7355284 ], [ -50.8104624, 82.7359933 ], [ -50.8120932, 82.7362989 ], [ -50.8144679, 82.736525 ], [ -50.8134379, 82.7368958 ], [ -50.8121075, 82.7374456 ], [ -50.8125796, 82.7379067 ], [ -50.8127226, 82.7383081 ], [ -50.8140387, 82.7389175 ], [ -50.8164563, 82.7394508 ], [ -50.819446, 82.7397762 ], [ -50.8206477, 82.7401775 ], [ -50.8232655, 82.74115 ], [ -50.8271708, 82.741835 ], [ -50.827743, 82.7425887 ], [ -50.8286442, 82.7431488 ], [ -50.828258, 82.7442113 ], [ -50.8291306, 82.7444967 ], [ -50.8284154, 82.7455915 ], [ -50.8284583, 82.746155 ], [ -50.8275857, 82.747078 ], [ -50.8271565, 82.7477209 ], [ -50.8248248, 82.7484161 ], [ -50.8210911, 82.7490517 ], [ -50.8185877, 82.7495446 ], [ -50.8149829, 82.7505862 ], [ -50.810162, 82.7511404 ], [ -50.8066001, 82.7520988 ], [ -50.8063855, 82.7524074 ], [ -50.8061385, 82.7526678 ], [ -50.8022189, 82.7531333 ], [ -50.79777, 82.7539074 ], [ -50.7918763, 82.7549611 ], [ -50.788629, 82.7555077 ], [ -50.7863402, 82.7556971 ], [ -50.7814335, 82.7557783 ], [ -50.7724845, 82.7557214 ], [ -50.7679498, 82.7558043 ], [ -50.7602537, 82.7556492 ], [ -50.7557333, 82.7552343 ], [ -50.7516992, 82.7550449 ], [ -50.7476223, 82.7549601 ], [ -50.7427871, 82.7545289 ], [ -50.7341182, 82.7542204 ], [ -50.7242793, 82.7539212 ] ] ] ] } },
{ "type": "Feature", "properties": { "FID": 716217, "id": 902, "left": -55.0, "top": 85.0, "right": -50.0, "bottom": 80.0, "row_index": 1, "col_index": 25, "min_lon": -55.0, "min_lat": 80.0, "tile_id": "-55_80" }, "geometry": { "type": "MultiPolygon", "coordinates": [ [ [ [ -52.1901338, 82.2483148 ], [ -52.1886747, 82.2479907 ], [ -52.189533, 82.2474349 ], [ -52.1881597, 82.2468676 ], [ -52.1915929, 82.2464391 ], [ -52.1914213, 82.2455938 ], [ -52.1902196, 82.2444819 ], [ -52.1908205, 82.2431151 ], [ -52.1942537, 82.2436595 ], [ -52.1963994, 82.244146 ], [ -52.199146, 82.2450263 ], [ -52.1987598, 82.2456054 ], [ -52.1997254, 82.246497 ], [ -52.202944, 82.2469718 ], [ -52.2023218, 82.2477128 ], [ -52.2003477, 82.2484711 ], [ -52.196378, 82.248911 ], [ -52.191786, 82.2486621 ], [ -52.1901338, 82.2483148 ] ] ] ] } }
]
}
