{
"type": "FeatureCollection",
"name": "-55_-25",
"crs": { "type": "name", "properties": { "name": "urn:ogc:def:crs:OGC:1.3:CRS84" } },
"xy_coordinate_resolution": 1e-15,
"features": [
{ "type": "Feature", "properties": { "FID": 537252, "id": 923, "left": -55.0, "top": -20.0, "right": -50.0, "bottom": -25.0, "row_index": 22, "col_index": 25, "min_lon": -55.0, "min_lat": -25.0, "tile_id": "-55_-25" }, "geometry": { "type": "MultiPolygon", "coordinates": [ [ [ [ -50.0, -20.0 ], [ -50.0, -25.0 ], [ -55.0, -25.0 ], [ -55.0, -20.0 ], [ -50.0, -20.0 ] ] ] ] } }
]
}
