{
"type": "FeatureCollection",
"name": "-55_-40",
"crs": { "type": "name", "properties": { "name": "urn:ogc:def:crs:OGC:1.3:CRS84" } },
"xy_coordinate_resolution": 1e-15,
"features": [
{ "type": "Feature", "properties": { "FID": 35968, "id": 926, "left": -55.0, "top": -35.0, "right": -50.0, "bottom": -40.0, "row_index": 25, "col_index": 25, "min_lon": -55.0, "min_lat": -40.0, "tile_id": "-55_-40" }, "geometry": { "type": "MultiPolygon", "coordinates": [ [ [ [ -54.8838673, -35.0310105 ], [ -54.8839263, -35.0310135 ], [ -54.8839269, -35.0310524 ], [ -54.8840186, -35.0310679 ], [ -54.8840614, -35.0311288 ], [ -54.8841216, -35.0311276 ], [ -54.8841495, -35.0311665 ], [ -54.8842534, -35.0312458 ], [ -54.8842534, -35.0313161 ], [ -54.8841439, -35.0313455 ], [ -54.8841104, -35.0313575 ], [ -54.8841062, -35.031385 ], [ -54.8841372, -35.0314062 ], [ -54.8841805, -35.0314137 ], [ -54.8842063, -35.0314297 ], [ -54.8842348, -35.0315222 ], [ -54.8843049, -35.0315325 ], [ -54.8843809, -35.0315764 ], [ -54.8844043, -35.0315555 ], [ -54.8843831, -35.0315473 ], [ -54.8844131, -35.0315306 ], [ -54.8844423, -35.0315427 ], [ -54.8844701, -35.0315335 ], [ -54.8844983, -35.0315147 ], [ -54.8845021, -35.0314909 ], [ -54.8845257, -35.0314845 ], [ -54.8845378, -35.0314652 ], [ -54.8845168, -35.0314359 ], [ -54.8845776, -35.0314376 ], [ -54.884593, -35.0314588 ], [ -54.8846493, -35.0314475 ], [ -54.8846801, -35.0314141 ], [ -54.8847048, -35.0313811 ], [ -54.884742, -35.031379 ], [ -54.8847587, -35.0313829 ], [ -54.8847336, -35.0314067 ], [ -54.884758, -35.031416 ], [ -54.8848256, -35.0313975 ], [ -54.8847827, -35.0313677 ], [ -54.884805, -35.0313457 ], [ -54.8848069, -35.0313264 ], [ -54.8848301, -35.0313365 ], [ -54.884845, -35.0313284 ], [ -54.8847757, -35.0312477 ], [ -54.8848181, -35.0312235 ], [ -54.8847969, -35.0311844 ], [ -54.8848102, -35.0311706 ], [ -54.8848454, -35.0312309 ], [ -54.884875, -35.0312283 ], [ -54.8849744, -35.0311861 ], [ -54.8849596, -35.0311563 ], [ -54.8848674, -35.0311707 ], [ -54.8848389, -35.0311145 ], [ -54.8848695, -35.0310969 ], [ -54.8849045, -35.0311008 ], [ -54.8849452, -35.0310906 ], [ -54.8849484, -35.0310703 ], [ -54.8849793, -35.0310511 ], [ -54.8850325, -35.0310416 ], [ -54.8850864, -35.0310142 ], [ -54.8850549, -35.0310083 ], [ -54.885038, -35.0309844 ], [ -54.8850596, -35.0309574 ], [ -54.8850762, -35.0308865 ], [ -54.8850914, -35.030873 ], [ -54.8851023, -35.0308339 ], [ -54.8851439, -35.0307889 ], [ -54.8851672, -35.030769 ], [ -54.8851668, -35.0307335 ], [ -54.8851943, -35.0307229 ], [ -54.8852088, -35.0307327 ], [ -54.8852296, -35.0307433 ], [ -54.8852491, -35.0307332 ], [ -54.8852422, -35.0307184 ], [ -54.8852344, -35.0307069 ], [ -54.8852471, -35.0306995 ], [ -54.8852771, -35.0307191 ], [ -54.8852606, -35.0307476 ], [ -54.885288, -35.030752 ], [ -54.8853323, -35.030723 ], [ -54.8853293, -35.0306896 ], [ -54.885473, -35.030649 ], [ -54.885563, -35.0306034 ], [ -54.8855816, -35.0305748 ], [ -54.8856196, -35.0305778 ], [ -54.8856628, -35.0305594 ], [ -54.8856788, -35.0305295 ], [ -54.88572, -35.0305274 ], [ -54.8857298, -35.0305003 ], [ -54.8856915, -35.0304668 ], [ -54.8856687, -35.0304786 ], [ -54.8855999, -35.030464 ], [ -54.8856055, -35.0304549 ], [ -54.8856644, -35.0304543 ], [ -54.8856675, -35.0304409 ], [ -54.8857077, -35.0304263 ], [ -54.8856739, -35.0303759 ], [ -54.8856496, -35.0303598 ], [ -54.8856817, -35.030305 ], [ -54.8857577, -35.0302972 ], [ -54.8857927, -35.0302514 ], [ -54.8857872, -35.0302303 ], [ -54.8858321, -35.0301898 ], [ -54.8857742, -35.0301556 ], [ -54.8858053, -35.0301088 ], [ -54.885826, -35.0301239 ], [ -54.885857, -35.0300971 ], [ -54.8857982, -35.0300894 ], [ -54.885833, -35.0300459 ], [ -54.8858945, -35.0300533 ], [ -54.8859122, -35.0300464 ], [ -54.8858722, -35.0299879 ], [ -54.8859403, -35.0299488 ], [ -54.885941, -35.0299212 ], [ -54.8858705, -35.0298888 ], [ -54.8857823, -35.0298915 ], [ -54.8857408, -35.029847 ], [ -54.8856618, -35.0298051 ], [ -54.8856824, -35.0297574 ], [ -54.8856905, -35.0297287 ], [ -54.8857, -35.0297036 ], [ -54.8857406, -35.0296158 ], [ -54.8857545, -35.0295354 ], [ -54.885694, -35.0295024 ], [ -54.8856425, -35.0294962 ], [ -54.8856512, -35.0293619 ], [ -54.8855608, -35.0293228 ], [ -54.8855274, -35.0292147 ], [ -54.8856226, -35.029103 ], [ -54.8856483, -35.0289692 ], [ -54.8856331, -35.0289048 ], [ -54.88564, -35.028867 ], [ -54.8856881, -35.0288143 ], [ -54.8856807, -35.0287959 ], [ -54.8856551, -35.0287995 ], [ -54.8856349, -35.0287765 ], [ -54.8856507, -35.0287558 ], [ -54.8856445, -35.0287291 ], [ -54.8856917, -35.0286915 ], [ -54.8857621, -35.0286915 ], [ -54.8857753, -35.0286815 ], [ -54.8857841, -35.0286592 ], [ -54.8857325, -35.0286485 ], [ -54.8857576, -35.0285375 ], [ -54.8857955, -35.0284849 ], [ -54.8858203, -35.0284739 ], [ -54.8858961, -35.028419 ], [ -54.8859261, -35.0283825 ], [ -54.8859587, -35.0283033 ], [ -54.8859789, -35.0282086 ], [ -54.8860304, -35.0281812 ], [ -54.88622, -35.028076 ], [ -54.8864101, -35.0279194 ], [ -54.8864665, -35.0278332 ], [ -54.8864485, -35.0277692 ], [ -54.8863687, -35.0277919 ], [ -54.8864449, -35.0277063 ], [ -54.8864969, -35.0277063 ], [ -54.8865347, -35.0276652 ], [ -54.8866262, -35.0276586 ], [ -54.8867431, -35.0277409 ], [ -54.8867545, -35.0276651 ], [ -54.8867091, -35.0276217 ], [ -54.886833, -35.0276131 ], [ -54.886848, -35.027652 ], [ -54.8868974, -35.0276368 ], [ -54.886881, -35.0275135 ], [ -54.8867985, -35.0274682 ], [ -54.8869033, -35.0273969 ], [ -54.886923, -35.027365 ], [ -54.8869679, -35.0273678 ], [ -54.8869777, -35.0273361 ], [ -54.8868962, -35.0273108 ], [ -54.8868734, -35.0272517 ], [ -54.8870871, -35.0271617 ], [ -54.8870962, -35.0270977 ], [ -54.8871761, -35.027121 ], [ -54.8872137, -35.0271118 ], [ -54.8872176, -35.0270706 ], [ -54.8871084, -35.0270294 ], [ -54.8871093, -35.0269796 ], [ -54.8871579, -35.0269557 ], [ -54.8871126, -35.0269113 ], [ -54.8871111, -35.0268782 ], [ -54.8871917, -35.0268061 ], [ -54.887299, -35.0267242 ], [ -54.8873746, -35.0266942 ], [ -54.8874515, -35.0266286 ], [ -54.8874926, -35.0265578 ], [ -54.8874536, -35.0264228 ], [ -54.8875099, -35.0263094 ], [ -54.8873827, -35.0261965 ], [ -54.8873369, -35.0261406 ], [ -54.8873492, -35.0260837 ], [ -54.8873653, -35.0260114 ], [ -54.8874237, -35.0259477 ], [ -54.8874179, -35.0259224 ], [ -54.8874385, -35.0258451 ], [ -54.8874076, -35.0258132 ], [ -54.887403, -35.0257305 ], [ -54.8872893, -35.0256529 ], [ -54.8871664, -35.0256361 ], [ -54.8870562, -35.0255833 ], [ -54.8870855, -35.0255474 ], [ -54.8871439, -35.0255223 ], [ -54.8871351, -35.0254772 ], [ -54.8871659, -35.0254365 ], [ -54.8871324, -35.0253919 ], [ -54.8870033, -35.0253726 ], [ -54.8869321, -35.0253403 ], [ -54.8868609, -35.0252884 ], [ -54.8868403, -35.0251517 ], [ -54.8868452, -35.0249809 ], [ -54.8867839, -35.0248947 ], [ -54.8867524, -35.0248208 ], [ -54.8867698, -35.0247806 ], [ -54.8867342, -35.0247122 ], [ -54.8866209, -35.0245903 ], [ -54.8865408, -35.0245187 ], [ -54.8863747, -35.0245023 ], [ -54.8862968, -35.024485 ], [ -54.8861345, -35.0243729 ], [ -54.8860043, -35.0241588 ], [ -54.8858373, -35.0241469 ], [ -54.8858055, -35.0240854 ], [ -54.8857229, -35.0240112 ], [ -54.8857041, -35.0239208 ], [ -54.8857154, -35.0238381 ], [ -54.8857576, -35.0238236 ], [ -54.8857602, -35.0237137 ], [ -54.8858209, -35.0237878 ], [ -54.8858607, -35.0237219 ], [ -54.8858578, -35.0236916 ], [ -54.8858297, -35.0236921 ], [ -54.8858354, -35.0236648 ], [ -54.8858715, -35.0236374 ], [ -54.8858758, -35.0236022 ], [ -54.8858296, -35.0236114 ], [ -54.8858026, -35.023634 ], [ -54.8858022, -35.0236053 ], [ -54.8858407, -35.02358 ], [ -54.8858671, -35.0235271 ], [ -54.885847, -35.0235144 ], [ -54.8857988, -35.023532 ], [ -54.8858221, -35.0235169 ], [ -54.8858482, -35.0235029 ], [ -54.8858689, -35.0234424 ], [ -54.8858254, -35.0234681 ], [ -54.8858027, -35.023461 ], [ -54.8858045, -35.0234415 ], [ -54.8857647, -35.0234337 ], [ -54.8857616, -35.0234121 ], [ -54.8857249, -35.0234142 ], [ -54.8857354, -35.0233939 ], [ -54.8857836, -35.0233763 ], [ -54.8857784, -35.023353 ], [ -54.8858077, -35.0232954 ], [ -54.8857624, -35.0233001 ], [ -54.8857002, -35.0232844 ], [ -54.8856736, -35.0232659 ], [ -54.8856699, -35.023235 ], [ -54.8855765, -35.0232405 ], [ -54.8855725, -35.0232277 ], [ -54.8855944, -35.0232186 ], [ -54.885588, -35.023198 ], [ -54.8855705, -35.0231883 ], [ -54.8855744, -35.0231599 ], [ -54.8854202, -35.023101 ], [ -54.8854006, -35.0231297 ], [ -54.8853488, -35.0231079 ], [ -54.8853245, -35.0231289 ], [ -54.8852747, -35.0231246 ], [ -54.885222, -35.0232001 ], [ -54.8852564, -35.0232335 ], [ -54.8851999, -35.0232563 ], [ -54.8851857, -35.0233088 ], [ -54.885091, -35.023312 ], [ -54.8850658, -35.0233959 ], [ -54.8849734, -35.0234543 ], [ -54.8849798, -35.0234772 ], [ -54.8849178, -35.0235133 ], [ -54.8849362, -35.0235824 ], [ -54.8847937, -35.0235788 ], [ -54.8847259, -35.0235049 ], [ -54.8847267, -35.023431 ], [ -54.8845892, -35.0233916 ], [ -54.884481, -35.0234069 ], [ -54.8843076, -35.0234432 ], [ -54.8842704, -35.0234261 ], [ -54.8842047, -35.0233946 ], [ -54.8838929, -35.023184 ], [ -54.8837718, -35.0231268 ], [ -54.8837158, -35.0231164 ], [ -54.8836789, -35.0230793 ], [ -54.8836214, -35.023048 ], [ -54.8836128, -35.02299 ], [ -54.883554, -35.0230017 ], [ -54.8835395, -35.0230431 ], [ -54.8834849, -35.0230426 ], [ -54.8834167, -35.0230198 ], [ -54.8833451, -35.0230051 ], [ -54.8832123, -35.0229147 ], [ -54.8831509, -35.0229323 ], [ -54.8831303, -35.0229805 ], [ -54.8831098, -35.0230002 ], [ -54.8831132, -35.0230262 ], [ -54.8830961, -35.0230355 ], [ -54.8830695, -35.0230557 ], [ -54.8830211, -35.0230481 ], [ -54.883002, -35.0230633 ], [ -54.8830386, -35.0230982 ], [ -54.882923, -35.0231518 ], [ -54.8828737, -35.0231466 ], [ -54.8828394, -35.0231135 ], [ -54.8827979, -35.0231275 ], [ -54.8828231, -35.0231837 ], [ -54.8827893, -35.023226 ], [ -54.8827855, -35.0232838 ], [ -54.8828396, -35.023295 ], [ -54.8828599, -35.0233147 ], [ -54.8828295, -35.0233845 ], [ -54.8827909, -35.0233972 ], [ -54.8827495, -35.0234873 ], [ -54.8827593, -35.0235259 ], [ -54.8827671, -35.023649 ], [ -54.8827493, -35.0236868 ], [ -54.8827464, -35.0237062 ], [ -54.8827671, -35.0237012 ], [ -54.8827764, -35.0237255 ], [ -54.8827541, -35.0237463 ], [ -54.8826324, -35.0237471 ], [ -54.8826074, -35.023771 ], [ -54.8826085, -35.0238468 ], [ -54.8826331, -35.0238624 ], [ -54.8826408, -35.0238988 ], [ -54.8826612, -35.0239152 ], [ -54.8826837, -35.0239818 ], [ -54.8826716, -35.0240435 ], [ -54.8826327, -35.0241118 ], [ -54.8826058, -35.0241681 ], [ -54.8825387, -35.0241896 ], [ -54.8824969, -35.024167 ], [ -54.8824506, -35.0241461 ], [ -54.8824043, -35.0241728 ], [ -54.8823722, -35.0242456 ], [ -54.8823486, -35.0243082 ], [ -54.88232, -35.024269 ], [ -54.8822736, -35.0242354 ], [ -54.8822143, -35.0242351 ], [ -54.8821684, -35.0242147 ], [ -54.882128, -35.0242343 ], [ -54.8821325, -35.024276 ], [ -54.8821728, -35.0243232 ], [ -54.8822287, -35.0243432 ], [ -54.8822651, -35.0243164 ], [ -54.8822768, -35.0243297 ], [ -54.8822841, -35.0243442 ], [ -54.8823118, -35.0243498 ], [ -54.8823206, -35.0243613 ], [ -54.8823057, -35.0243939 ], [ -54.8822511, -35.0244134 ], [ -54.8822655, -35.0244507 ], [ -54.8822712, -35.0244879 ], [ -54.8822922, -35.024515 ], [ -54.8822223, -35.0245949 ], [ -54.8821101, -35.0244965 ], [ -54.8820401, -35.0244677 ], [ -54.8820104, -35.0244745 ], [ -54.8820021, -35.0245048 ], [ -54.8820491, -35.0245121 ], [ -54.8820625, -35.0245254 ], [ -54.8820971, -35.0245966 ], [ -54.8822479, -35.0246874 ], [ -54.882266, -35.0247241 ], [ -54.8822651, -35.0247631 ], [ -54.8822268, -35.0247777 ], [ -54.8820932, -35.0248165 ], [ -54.8820868, -35.0249116 ], [ -54.8821815, -35.0249459 ], [ -54.882112, -35.0250373 ], [ -54.8820059, -35.0251215 ], [ -54.8818783, -35.0252478 ], [ -54.8818449, -35.0252908 ], [ -54.8817852, -35.0253122 ], [ -54.8817568, -35.025321 ], [ -54.8817405, -35.0253547 ], [ -54.8817074, -35.0253589 ], [ -54.8817036, -35.0253429 ], [ -54.8816249, -35.0253484 ], [ -54.8815369, -35.0253912 ], [ -54.8815202, -35.0254025 ], [ -54.8814932, -35.0253778 ], [ -54.8814524, -35.0253811 ], [ -54.8814386, -35.0254143 ], [ -54.8814654, -35.0254267 ], [ -54.8814892, -35.0254427 ], [ -54.8813866, -35.0255414 ], [ -54.8813221, -35.025658 ], [ -54.8812215, -35.0257285 ], [ -54.8812237, -35.0257749 ], [ -54.8812879, -35.0257295 ], [ -54.8813023, -35.0257391 ], [ -54.8812406, -35.0258081 ], [ -54.8811662, -35.0258673 ], [ -54.8811416, -35.0259726 ], [ -54.8810745, -35.0259941 ], [ -54.8810468, -35.0260318 ], [ -54.8810589, -35.0260498 ], [ -54.8810894, -35.0260635 ], [ -54.8811101, -35.0260115 ], [ -54.8811457, -35.0260282 ], [ -54.8811832, -35.0260738 ], [ -54.8812305, -35.0261393 ], [ -54.8812324, -35.0262108 ], [ -54.8812311, -35.0262387 ], [ -54.8812005, -35.0262701 ], [ -54.8812062, -35.0262877 ], [ -54.8812404, -35.0263006 ], [ -54.8812217, -35.0263454 ], [ -54.8812206, -35.0263902 ], [ -54.8811641, -35.0264682 ], [ -54.8810915, -35.0265306 ], [ -54.8809851, -35.0266034 ], [ -54.8809437, -35.0265872 ], [ -54.8809068, -35.0265946 ], [ -54.8808759, -35.026642 ], [ -54.8808605, -35.0266747 ], [ -54.880866, -35.0267048 ], [ -54.8808546, -35.0267372 ], [ -54.8807567, -35.0267184 ], [ -54.8807274, -35.0267269 ], [ -54.8807018, -35.0267131 ], [ -54.8806986, -35.0266859 ], [ -54.880688, -35.0266743 ], [ -54.8806646, -35.0267031 ], [ -54.8806653, -35.0267492 ], [ -54.8806858, -35.0268234 ], [ -54.8806743, -35.0268415 ], [ -54.8806217, -35.0268302 ], [ -54.8805663, -35.0268129 ], [ -54.8805463, -35.0268286 ], [ -54.8805304, -35.026834 ], [ -54.8804912, -35.0268227 ], [ -54.88043, -35.0268444 ], [ -54.8804567, -35.0268699 ], [ -54.8804313, -35.0269233 ], [ -54.8803986, -35.026966 ], [ -54.8804303, -35.0270295 ], [ -54.8804415, -35.0270183 ], [ -54.8804498, -35.0269544 ], [ -54.8805524, -35.026959 ], [ -54.8805702, -35.0269755 ], [ -54.8805139, -35.0270516 ], [ -54.8805236, -35.027124 ], [ -54.8803546, -35.0272004 ], [ -54.8803648, -35.0272346 ], [ -54.8803999, -35.0272461 ], [ -54.8804524, -35.0272374 ], [ -54.8804831, -35.0272372 ], [ -54.880391, -35.0272989 ], [ -54.8803835, -35.0273339 ], [ -54.8804908, -35.0273368 ], [ -54.8805528, -35.0273492 ], [ -54.8805089, -35.0274101 ], [ -54.8804738, -35.0274238 ], [ -54.8804628, -35.0274394 ], [ -54.8804577, -35.0274609 ], [ -54.8804752, -35.0274867 ], [ -54.8804927, -35.0275005 ], [ -54.8805274, -35.0275221 ], [ -54.880568, -35.0275365 ], [ -54.8805662, -35.0275652 ], [ -54.8805775, -35.0275712 ], [ -54.8806, -35.0275787 ], [ -54.8806195, -35.0276006 ], [ -54.880661, -35.0275884 ], [ -54.8806995, -35.0276264 ], [ -54.8807647, -35.0276698 ], [ -54.8807452, -35.0276977 ], [ -54.8807587, -35.0277343 ], [ -54.8807856, -35.0277813 ], [ -54.8807789, -35.0279037 ], [ -54.8807436, -35.0279211 ], [ -54.880784, -35.0279459 ], [ -54.8808464, -35.0280725 ], [ -54.8808652, -35.0281677 ], [ -54.8808315, -35.0282497 ], [ -54.8807379, -35.0283778 ], [ -54.8807555, -35.0284218 ], [ -54.8807358, -35.0284611 ], [ -54.8806956, -35.0284861 ], [ -54.880716, -35.028563 ], [ -54.8807131, -35.0286494 ], [ -54.8806692, -35.0287458 ], [ -54.8806045, -35.0287184 ], [ -54.880529, -35.0287884 ], [ -54.8805183, -35.0288441 ], [ -54.880453, -35.0288653 ], [ -54.8804401, -35.0288269 ], [ -54.8804257, -35.0287992 ], [ -54.8803679, -35.0288387 ], [ -54.8803676, -35.0288766 ], [ -54.8803599, -35.0289181 ], [ -54.8803365, -35.0289413 ], [ -54.8803, -35.0289417 ], [ -54.8802965, -35.0289793 ], [ -54.8803351, -35.0289946 ], [ -54.8803577, -35.0290159 ], [ -54.8804233, -35.0290322 ], [ -54.8803601, -35.0290779 ], [ -54.8803569, -35.0291204 ], [ -54.8803755, -35.0291641 ], [ -54.8804643, -35.0292131 ], [ -54.8804422, -35.0292302 ], [ -54.8803267, -35.0292265 ], [ -54.8802696, -35.0292395 ], [ -54.88016, -35.0292251 ], [ -54.880168, -35.0292767 ], [ -54.880054, -35.02926 ], [ -54.8800635, -35.0292907 ], [ -54.880091, -35.0293419 ], [ -54.8800585, -35.0293549 ], [ -54.8800981, -35.0293859 ], [ -54.8801179, -35.029375 ], [ -54.880152, -35.0294187 ], [ -54.8801114, -35.029442 ], [ -54.8801156, -35.0294596 ], [ -54.8801489, -35.0294736 ], [ -54.8801614, -35.0294714 ], [ -54.8801498, -35.0294525 ], [ -54.8801615, -35.0294418 ], [ -54.880174, -35.0294533 ], [ -54.8802152, -35.0294733 ], [ -54.8802507, -35.029479 ], [ -54.8802763, -35.029466 ], [ -54.8802745, -35.0294331 ], [ -54.8802575, -35.029373 ], [ -54.8802242, -35.0293352 ], [ -54.8802264, -35.0293059 ], [ -54.8802477, -35.0293091 ], [ -54.8802744, -35.0292699 ], [ -54.8803213, -35.0292952 ], [ -54.880328, -35.0293246 ], [ -54.8803504, -35.0293387 ], [ -54.8803639, -35.0293283 ], [ -54.8804381, -35.0293834 ], [ -54.8804445, -35.0294104 ], [ -54.8805055, -35.0294041 ], [ -54.8805454, -35.0294435 ], [ -54.8805507, -35.0294635 ], [ -54.8804931, -35.0294512 ], [ -54.8804603, -35.0294628 ], [ -54.8804195, -35.0294619 ], [ -54.8804313, -35.0294941 ], [ -54.8804555, -35.0295144 ], [ -54.8804347, -35.0295611 ], [ -54.8804477, -35.029588 ], [ -54.8805367, -35.0296077 ], [ -54.8805505, -35.0296001 ], [ -54.8805303, -35.0295633 ], [ -54.8805772, -35.0295731 ], [ -54.8806028, -35.0295636 ], [ -54.8806171, -35.0295679 ], [ -54.8806367, -35.029549 ], [ -54.8806548, -35.0295661 ], [ -54.88069, -35.029596 ], [ -54.8807208, -35.0296103 ], [ -54.880718, -35.0296342 ], [ -54.880748, -35.0296323 ], [ -54.8807404, -35.0296757 ], [ -54.8807649, -35.0296939 ], [ -54.8807864, -35.0296924 ], [ -54.8808196, -35.0297112 ], [ -54.8808712, -35.0297068 ], [ -54.8809214, -35.029718 ], [ -54.8809546, -35.0297482 ], [ -54.8810091, -35.0297821 ], [ -54.8810653, -35.029787 ], [ -54.8810708, -35.0297565 ], [ -54.8811215, -35.0297278 ], [ -54.8811324, -35.0297557 ], [ -54.8811652, -35.0297723 ], [ -54.8812617, -35.0297662 ], [ -54.8813348, -35.0297661 ], [ -54.8813473, -35.0297402 ], [ -54.8813751, -35.0297871 ], [ -54.8814584, -35.0298141 ], [ -54.8815362, -35.0298149 ], [ -54.8815525, -35.0298332 ], [ -54.8815657, -35.0298315 ], [ -54.8815679, -35.0298171 ], [ -54.8815642, -35.0298016 ], [ -54.8815771, -35.0297995 ], [ -54.8815905, -35.029804 ], [ -54.881592, -35.029825 ], [ -54.8816126, -35.0298384 ], [ -54.881587, -35.0298579 ], [ -54.8815928, -35.0298714 ], [ -54.881633, -35.0298734 ], [ -54.8816396, -35.0299089 ], [ -54.881758, -35.0299572 ], [ -54.8817653, -35.0299923 ], [ -54.8818173, -35.0300441 ], [ -54.8818221, -35.0300873 ], [ -54.8818386, -35.0301102 ], [ -54.881933, -35.0302146 ], [ -54.881977, -35.0303627 ], [ -54.8821421, -35.0303536 ], [ -54.8822312, -35.0303228 ], [ -54.8822776, -35.0302807 ], [ -54.882346, -35.030296 ], [ -54.8824037, -35.0303865 ], [ -54.8824366, -35.030439 ], [ -54.8824725, -35.0304545 ], [ -54.8825529, -35.0304406 ], [ -54.8825866, -35.0304019 ], [ -54.8825635, -35.0303516 ], [ -54.8826076, -35.0303725 ], [ -54.882694, -35.0304353 ], [ -54.8827693, -35.0304548 ], [ -54.8828553, -35.0304472 ], [ -54.8828939, -35.0304225 ], [ -54.8829399, -35.0304122 ], [ -54.8829764, -35.0303756 ], [ -54.883026, -35.0303522 ], [ -54.883182, -35.0306035 ], [ -54.8832561, -35.0306585 ], [ -54.8833039, -35.0306289 ], [ -54.8833365, -35.0305645 ], [ -54.8833648, -35.0305595 ], [ -54.8834004, -35.0305592 ], [ -54.883395, -35.0306367 ], [ -54.883606, -35.0307059 ], [ -54.8836386, -35.030712 ], [ -54.8836675, -35.0307025 ], [ -54.8836904, -35.0306993 ], [ -54.8837148, -35.0307068 ], [ -54.8836891, -35.0307398 ], [ -54.8836918, -35.0307698 ], [ -54.8837301, -35.0308206 ], [ -54.8837029, -35.0308604 ], [ -54.8837449, -35.0308695 ], [ -54.8837562, -35.0308935 ], [ -54.8837495, -35.0309332 ], [ -54.8837929, -35.0309624 ], [ -54.8838407, -35.0309761 ], [ -54.8838673, -35.0310105 ] ] ] ] } },
{ "type": "Feature", "properties": { "FID": 339285, "id": 926, "left": -55.0, "top": -35.0, "right": -50.0, "bottom": -40.0, "row_index": 25, "col_index": 25, "min_lon": -55.0, "min_lat": -40.0, "tile_id": "-55_-40" }, "geometry": { "type": "MultiPolygon", "coordinates": [ [ [ [ -54.8703937, -35.0279614 ], [ -54.8703454, -35.0280229 ], [ -54.8703012, -35.0280361 ], [ -54.8702328, -35.0280614 ], [ -54.8702529, -35.0281185 ], [ -54.8702382, -35.0281635 ], [ -54.8702247, -35.0282228 ], [ -54.8701966, -35.0282975 ], [ -54.8701188, -35.0283535 ], [ -54.8700732, -35.0283304 ], [ -54.8700343, -35.0282722 ], [ -54.8699676, -35.0282752 ], [ -54.8699565, -35.0282591 ], [ -54.8698814, -35.0282821 ], [ -54.8699002, -35.0283403 ], [ -54.8699217, -35.0283886 ], [ -54.8698895, -35.0284216 ], [ -54.8699418, -35.0284326 ], [ -54.8699726, -35.0284952 ], [ -54.8700169, -35.0285336 ], [ -54.8700826, -35.0285215 ], [ -54.8701027, -35.0285764 ], [ -54.870159, -35.0286127 ], [ -54.870214, -35.0285995 ], [ -54.8702878, -35.0286072 ], [ -54.8703548, -35.028594 ], [ -54.8703522, -35.0286324 ], [ -54.8703253, -35.0286775 ], [ -54.8703615, -35.0286917 ], [ -54.8703253, -35.0287719 ], [ -54.8703213, -35.0288048 ], [ -54.8703803, -35.0287807 ], [ -54.8704045, -35.0288059 ], [ -54.870446, -35.0288378 ], [ -54.870442, -35.0288949 ], [ -54.8704501, -35.0289289 ], [ -54.870497, -35.0289784 ], [ -54.8705131, -35.028986 ], [ -54.8706137, -35.0289981 ], [ -54.8706351, -35.0291036 ], [ -54.8707196, -35.029097 ], [ -54.8707786, -35.0290739 ], [ -54.8708712, -35.0290552 ], [ -54.8709476, -35.0290014 ], [ -54.8710187, -35.028952 ], [ -54.8710442, -35.0289081 ], [ -54.8711635, -35.0289202 ], [ -54.8711662, -35.0288773 ], [ -54.8711447, -35.0288235 ], [ -54.8711796, -35.0287873 ], [ -54.8712064, -35.0287477 ], [ -54.8711917, -35.0287137 ], [ -54.8711689, -35.0286819 ], [ -54.8711635, -35.0286105 ], [ -54.8711488, -35.0285358 ], [ -54.8711488, -35.0285061 ], [ -54.871134, -35.0284567 ], [ -54.8711273, -35.0284029 ], [ -54.8712039, -35.0283697 ], [ -54.8711903, -35.0283557 ], [ -54.8712131, -35.0282316 ], [ -54.8711984, -35.0281635 ], [ -54.8711435, -35.0281133 ], [ -54.8710991, -35.0280306 ], [ -54.871075, -35.0279647 ], [ -54.8709798, -35.0279021 ], [ -54.870843, -35.0278571 ], [ -54.8707491, -35.0278494 ], [ -54.8706566, -35.0278549 ], [ -54.8705024, -35.0278857 ], [ -54.8703937, -35.0279614 ] ] ] ] } }
]
}
