{
"type": "FeatureCollection",
"name": "-55_-90",
"crs": { "type": "name", "properties": { "name": "urn:ogc:def:crs:OGC:1.3:CRS84" } },
"xy_coordinate_resolution": 1e-15,
"features": [
{ "type": "Feature", "properties": { "FID": 307096, "id": 936, "left": -55.0, "top": -85.0, "right": -50.0, "bottom": -90.0, "row_index": 35, "col_index": 25, "min_lon": -55.0, "min_lat": -90.0, "tile_id": "-55_-90" }, "geometry": { "type": "MultiPolygon", "coordinates": [ [ [ [ -51.0, -90.0 ], [ -52.0, -90.0 ], [ -53.0, -90.0 ], [ -54.0, -90.0 ], [ -55.0, -90.0 ], [ -55.0, -85.0 ], [ -50.0, -85.0 ], [ -50.0, -90.0 ], [ -51.0, -90.0 ] ] ] ] } }
]
}
