{
"type": "FeatureCollection",
"name": "-55_-80",
"crs": { "type": "name", "properties": { "name": "urn:ogc:def:crs:OGC:1.3:CRS84" } },
"xy_coordinate_resolution": 1e-15,
"features": [
{ "type": "Feature", "properties": { "FID": 307096, "id": 934, "left": -55.0, "top": -75.0, "right": -50.0, "bottom": -80.0, "row_index": 33, "col_index": 25, "min_lon": -55.0, "min_lat": -80.0, "tile_id": "-55_-80" }, "geometry": { "type": "MultiPolygon", "coordinates": [ [ [ [ -54.9947102, -75.8522289 ], [ -54.9833891, -75.8551844 ], [ -54.9712145, -75.8584038 ], [ -54.9585442, -75.8617934 ], [ -54.9458096, -75.8652499 ], [ -54.93337, -75.8686798 ], [ -54.921546, -75.8719719 ], [ -54.9098109, -75.8752463 ], [ -54.8975032, -75.8786224 ], [ -54.8850038, -75.8819993 ], [ -54.8726942, -75.8852762 ], [ -54.8608836, -75.8883617 ], [ -54.8499762, -75.8911478 ], [ -54.8403733, -75.8935591 ], [ -54.8323978, -75.8954846 ], [ -54.8197718, -75.8984976 ], [ -54.8069797, -75.90166 ], [ -54.7936255, -75.9050925 ], [ -54.7792213, -75.9088999 ], [ -54.7634212, -75.9132007 ], [ -54.7457347, -75.9180996 ], [ -54.7257612, -75.9237168 ], [ -54.7031196, -75.930165 ], [ -54.694502, -75.932638 ], [ -54.6881447, -75.9345223 ], [ -54.6839452, -75.9358223 ], [ -54.6819314, -75.936576 ], [ -54.6820429, -75.9367731 ], [ -54.6842545, -75.9364536 ], [ -54.6885138, -75.9356197 ], [ -54.6948072, -75.9342912 ], [ -54.703065, -75.9325229 ], [ -54.7090576, -75.9312651 ], [ -54.7129297, -75.9305313 ], [ -54.7147644, -75.9303247 ], [ -54.7146015, -75.9306634 ], [ -54.7126791, -75.9315438 ], [ -54.708984, -75.9329861 ], [ -54.7036714, -75.9349835 ], [ -54.6942847, -75.9380806 ], [ -54.6816814, -75.9416358 ], [ -54.666974, -75.9454074 ], [ -54.6512376, -75.9491356 ], [ -54.6355893, -75.9525791 ], [ -54.6210564, -75.9554809 ], [ -54.6088335, -75.9575905 ], [ -54.5999598, -75.9586641 ], [ -54.5909547, -75.9597817 ], [ -54.576544, -75.9621482 ], [ -54.5581363, -75.9654835 ], [ -54.5371537, -75.9694879 ], [ -54.5150558, -75.9739126 ], [ -54.49324, -75.9784533 ], [ -54.4731247, -75.9828316 ], [ -54.4561924, -75.9867802 ], [ -54.4501354, -75.9881626 ], [ -54.4434938, -75.9894773 ], [ -54.4365419, -75.9906937 ], [ -54.4294715, -75.991778 ], [ -54.4224832, -75.9927092 ], [ -54.4158213, -75.9934515 ], [ -54.4096561, -75.9939786 ], [ -54.4042537, -75.9942473 ], [ -54.3991607, -75.994458 ], [ -54.3940408, -75.9947866 ], [ -54.3889899, -75.9952165 ], [ -54.3841646, -75.9957412 ], [ -54.3796827, -75.9963366 ], [ -54.3756924, -75.9969838 ], [ -54.3723725, -75.9976691 ], [ -54.3697971, -75.9983831 ], [ -54.3674352, -75.9990561 ], [ -54.364638, -75.9996424 ], [ -54.3615186, -76.0001505 ], [ -54.358134, -76.0005456 ], [ -54.3546717, -76.0008267 ], [ -54.3511535, -76.0009864 ], [ -54.347728, -76.0010059 ], [ -54.3444779, -76.0008883 ], [ -54.3405789, -76.0007249 ], [ -54.3369832, -76.0007705 ], [ -54.3336164, -76.0010345 ], [ -54.3304565, -76.0015242 ], [ -54.3274511, -76.0022418 ], [ -54.3245258, -76.0031967 ], [ -54.3216673, -76.0044089 ], [ -54.318823, -76.0058805 ], [ -54.3128446, -76.0084386 ], [ -54.3038293, -76.0113183 ], [ -54.2926801, -76.014308 ], [ -54.2804586, -76.0171898 ], [ -54.268123, -76.0197503 ], [ -54.2566247, -76.0217635 ], [ -54.2469769, -76.0230142 ], [ -54.2401718, -76.0232948 ], [ -54.2298509, -76.0247077 ], [ -54.2070107, -76.0287164 ], [ -54.1912788, -76.0316421 ], [ -54.1755402, -76.0345668 ], [ -54.1575112, -76.0380213 ], [ -54.139473, -76.0414744 ], [ -54.1210901, -76.0450691 ], [ -54.1026977, -76.0486624 ], [ -54.0859798, -76.0520108 ], [ -54.0692538, -76.0553579 ], [ -54.0431298, -76.0608119 ], [ -54.0283808, -76.0642421 ], [ -54.0261125, -76.0648096 ], [ -54.0232516, -76.0654193 ], [ -54.0199032, -76.0660671 ], [ -54.0161557, -76.0667236 ], [ -54.0121281, -76.0673647 ], [ -54.0080003, -76.0679771 ], [ -54.0038167, -76.068546 ], [ -53.9997489, -76.0690455 ], [ -53.9951908, -76.0696611 ], [ -53.9896326, -76.0705615 ], [ -53.983312, -76.0716986 ], [ -53.9764529, -76.0730444 ], [ -53.96921, -76.0745474 ], [ -53.9618436, -76.0761522 ], [ -53.9545557, -76.0778383 ], [ -53.9475765, -76.0795448 ], [ -53.940074, -76.0813618 ], [ -53.9312521, -76.0833518 ], [ -53.9214982, -76.085448 ], [ -53.9111032, -76.0876004 ], [ -53.9003861, -76.0897189 ], [ -53.8896384, -76.0917535 ], [ -53.8792271, -76.093645 ], [ -53.8694278, -76.0953182 ], [ -53.8534972, -76.0980387 ], [ -53.8340855, -76.1014854 ], [ -53.8115238, -76.1055929 ], [ -53.7861065, -76.1103232 ], [ -53.7581117, -76.1156131 ], [ -53.7429568, -76.1185102 ], [ -53.7277954, -76.1214064 ], [ -53.71165, -76.1245291 ], [ -53.6954973, -76.1276507 ], [ -53.6784746, -76.1309683 ], [ -53.6614438, -76.1342848 ], [ -53.6519313, -76.1373841 ], [ -53.6391972, -76.1431834 ], [ -53.6246391, -76.1508265 ], [ -53.6171894, -76.1551372 ], [ -53.6097351, -76.1594477 ], [ -53.6027935, -76.1638042 ], [ -53.5958476, -76.1681606 ], [ -53.5845296, -76.176111 ], [ -53.5771646, -76.1824254 ], [ -53.5752219, -76.1862336 ], [ -53.5750608, -76.1873558 ], [ -53.5732792, -76.188666 ], [ -53.5697637, -76.1902009 ], [ -53.5642797, -76.1920207 ], [ -53.5566988, -76.1941817 ], [ -53.5467999, -76.1967241 ], [ -53.5344306, -76.1997114 ], [ -53.5193993, -76.2031888 ], [ -53.4952407, -76.2088723 ], [ -53.4710619, -76.2145534 ], [ -53.446457, -76.2206292 ], [ -53.4218303, -76.2267027 ], [ -53.3978999, -76.2328555 ], [ -53.373948, -76.239006 ], [ -53.3519016, -76.2449182 ], [ -53.3298361, -76.2508285 ], [ -53.310769, -76.2561845 ], [ -53.2916869, -76.2615391 ], [ -53.2768041, -76.2660364 ], [ -53.2619114, -76.2705328 ], [ -53.242789, -76.2771581 ], [ -53.2367051, -76.2808046 ], [ -53.2366428, -76.2816434 ], [ -53.2356792, -76.2827077 ], [ -53.2338827, -76.2839758 ], [ -53.2313521, -76.2853857 ], [ -53.228171, -76.2868957 ], [ -53.2244229, -76.288464 ], [ -53.2201917, -76.2900488 ], [ -53.2155534, -76.2915955 ], [ -53.2106618, -76.2932221 ], [ -53.2056702, -76.2950011 ], [ -53.2006855, -76.2968836 ], [ -53.1958913, -76.2988112 ], [ -53.1914404, -76.3007206 ], [ -53.1874172, -76.3025698 ], [ -53.1839903, -76.3042755 ], [ -53.1813285, -76.3057993 ], [ -53.1779537, -76.3075031 ], [ -53.172601, -76.3096501 ], [ -53.1655296, -76.3121732 ], [ -53.1569832, -76.3149794 ], [ -53.1471982, -76.3180088 ], [ -53.1363728, -76.3211831 ], [ -53.124813, -76.3244204 ], [ -53.1127486, -76.3276481 ], [ -53.0934055, -76.3328284 ], [ -53.0740475, -76.3380072 ], [ -53.0546748, -76.3431845 ], [ -53.0352872, -76.3483603 ], [ -53.0161157, -76.353749 ], [ -52.996929, -76.3591362 ], [ -52.9777269, -76.3645219 ], [ -52.9585095, -76.3699062 ], [ -52.9400776, -76.3753292 ], [ -52.921631, -76.3807508 ], [ -52.9031695, -76.3861711 ], [ -52.8846931, -76.39159 ], [ -52.8618371, -76.3986294 ], [ -52.8389573, -76.4056666 ], [ -52.8160535, -76.4127018 ], [ -52.7956772, -76.419316 ], [ -52.7752809, -76.4259285 ], [ -52.7548646, -76.4325394 ], [ -52.737717, -76.4384996 ], [ -52.7205542, -76.4444586 ], [ -52.7033762, -76.4504165 ], [ -52.6836924, -76.4580275 ], [ -52.6639862, -76.4656371 ], [ -52.6514745, -76.4715639 ], [ -52.6389518, -76.4774902 ], [ -52.6339691, -76.4801537 ], [ -52.6275863, -76.4832302 ], [ -52.620023, -76.486622 ], [ -52.6115465, -76.490217 ], [ -52.6024171, -76.4938901 ], [ -52.592941, -76.4975477 ], [ -52.5833564, -76.5010721 ], [ -52.5739088, -76.5043586 ], [ -52.5646622, -76.507567 ], [ -52.5557018, -76.5108957 ], [ -52.5471644, -76.5142433 ], [ -52.5392725, -76.5175122 ], [ -52.5323586, -76.5206017 ], [ -52.5265132, -76.5234247 ], [ -52.5220693, -76.5258806 ], [ -52.519196, -76.5278734 ], [ -52.509608, -76.5354425 ], [ -52.4981544, -76.5431264 ], [ -52.4847653, -76.5510048 ], [ -52.469182, -76.5591691 ], [ -52.4602211, -76.5634386 ], [ -52.4512544, -76.5677078 ], [ -52.4410306, -76.5722057 ], [ -52.4307999, -76.5767032 ], [ -52.4191975, -76.581478 ], [ -52.4075867, -76.5862523 ], [ -52.3945404, -76.5913444 ], [ -52.381484, -76.5964358 ], [ -52.3762693, -76.5984511 ], [ -52.3692173, -76.601182 ], [ -52.3606537, -76.6045148 ], [ -52.3508734, -76.6083305 ], [ -52.3401955, -76.6125027 ], [ -52.3289709, -76.6169107 ], [ -52.3174412, -76.6214372 ], [ -52.3059276, -76.625956 ], [ -52.2884821, -76.6327219 ], [ -52.2732293, -76.6383659 ], [ -52.2587764, -76.6432469 ], [ -52.2438096, -76.6477728 ], [ -52.2269421, -76.6523273 ], [ -52.2067595, -76.6573009 ], [ -52.1819284, -76.6630875 ], [ -52.1665193, -76.6665779 ], [ -52.151102, -76.6700675 ], [ -52.1303486, -76.674655 ], [ -52.1096467, -76.6791031 ], [ -52.0895263, -76.6832993 ], [ -52.0705257, -76.6871443 ], [ -52.0532327, -76.6905248 ], [ -52.0381807, -76.6933287 ], [ -52.0259104, -76.6954572 ], [ -52.0170042, -76.6967842 ], [ -52.0099826, -76.6977467 ], [ -52.003132, -76.6988208 ], [ -51.9966604, -76.6999745 ], [ -51.9907137, -76.701165 ], [ -51.9854446, -76.7023621 ], [ -51.9810303, -76.7035286 ], [ -51.9776724, -76.7046198 ], [ -51.9754998, -76.705613 ], [ -51.9729619, -76.7067135 ], [ -51.9684453, -76.7081155 ], [ -51.9622302, -76.7097657 ], [ -51.9545728, -76.711618 ], [ -51.945709, -76.713588 ], [ -51.9358707, -76.7156366 ], [ -51.9253634, -76.7177034 ], [ -51.9143507, -76.7197255 ], [ -51.8933683, -76.7232537 ], [ -51.8733906, -76.7260855 ], [ -51.8537571, -76.7282977 ], [ -51.8338352, -76.7299144 ], [ -51.8129494, -76.7309865 ], [ -51.7903619, -76.7315533 ], [ -51.7654768, -76.7316565 ], [ -51.7375941, -76.7313534 ], [ -51.7276336, -76.7312158 ], [ -51.7175705, -76.7311518 ], [ -51.7077003, -76.7311339 ], [ -51.6982518, -76.7311689 ], [ -51.6895715, -76.7312735 ], [ -51.681844, -76.7314232 ], [ -51.6754648, -76.7316206 ], [ -51.6705762, -76.7318683 ], [ -51.6564027, -76.7323067 ], [ -51.6351844, -76.7322986 ], [ -51.6094223, -76.7319375 ], [ -51.5816229, -76.7312721 ], [ -51.5543046, -76.7303776 ], [ -51.5299292, -76.7293317 ], [ -51.5110371, -76.7282045 ], [ -51.5000809, -76.7270624 ], [ -51.484131, -76.7255524 ], [ -51.4581966, -76.7246764 ], [ -51.4250985, -76.7243905 ], [ -51.3875443, -76.7246544 ], [ -51.3482717, -76.7254349 ], [ -51.3100683, -76.7266862 ], [ -51.2756428, -76.7283724 ], [ -51.2477931, -76.7304637 ], [ -51.2320503, -76.7323389 ], [ -51.2155483, -76.7349364 ], [ -51.1988108, -76.7381201 ], [ -51.1823938, -76.7417599 ], [ -51.166879, -76.7457185 ], [ -51.1528003, -76.7498731 ], [ -51.1407174, -76.7540938 ], [ -51.1312166, -76.7582438 ], [ -51.1267408, -76.7604281 ], [ -51.1212667, -76.7629535 ], [ -51.1150114, -76.7657435 ], [ -51.1082302, -76.7686818 ], [ -51.1010602, -76.7717005 ], [ -51.0937942, -76.7747019 ], [ -51.086558, -76.7775925 ], [ -51.0796513, -76.7802873 ], [ -51.0717301, -76.7836011 ], [ -51.063443, -76.7875954 ], [ -51.0549132, -76.7922348 ], [ -51.0461966, -76.79746 ], [ -51.0374049, -76.8032098 ], [ -51.0285502, -76.8094519 ], [ -51.0197641, -76.8161053 ], [ -51.0111461, -76.823142 ], [ -51.0035904, -76.8294291 ], [ -50.9958933, -76.8356094 ], [ -50.9883015, -76.8415414 ], [ -50.9810199, -76.8470521 ], [ -50.9742407, -76.8520014 ], [ -50.9682261, -76.856215 ], [ -50.9631322, -76.8595343 ], [ -50.9592085, -76.8618178 ], [ -50.9557166, -76.8638067 ], [ -50.9518338, -76.8663087 ], [ -50.9477121, -76.8692233 ], [ -50.9435041, -76.87245 ], [ -50.9393062, -76.8758896 ], [ -50.9352403, -76.8794359 ], [ -50.9314596, -76.8829882 ], [ -50.9280613, -76.8864474 ], [ -50.9201982, -76.8934748 ], [ -50.910238, -76.8998597 ], [ -50.898039, -76.9056697 ], [ -50.8834167, -76.9109412 ], [ -50.8661985, -76.9157358 ], [ -50.8462568, -76.9200882 ], [ -50.8234189, -76.9240599 ], [ -50.7975066, -76.9276993 ], [ -50.7874863, -76.9290404 ], [ -50.7772949, -76.9305141 ], [ -50.7672544, -76.9320744 ], [ -50.7576046, -76.9336835 ], [ -50.7486368, -76.9352896 ], [ -50.7406114, -76.9368351 ], [ -50.7339078, -76.9382728 ], [ -50.7287103, -76.9395663 ], [ -50.7176049, -76.9422337 ], [ -50.7013605, -76.945572 ], [ -50.6803898, -76.9494932 ], [ -50.6552184, -76.9539069 ], [ -50.6263214, -76.9587365 ], [ -50.5942254, -76.9638914 ], [ -50.5768171, -76.9665875 ], [ -50.5594016, -76.9692824 ], [ -50.5408816, -76.972055 ], [ -50.5223536, -76.9748264 ], [ -50.4981236, -76.9785174 ], [ -50.4738796, -76.9822062 ], [ -50.4516136, -76.9858918 ], [ -50.4293348, -76.9895756 ], [ -50.4082454, -76.9934222 ], [ -50.3871434, -76.9972671 ], [ -50.3664677, -77.00144 ], [ -50.3457787, -77.0056112 ], [ -50.3246957, -77.0102827 ], [ -50.3035974, -77.0149524 ], [ -50.2813072, -77.0202872 ], [ -50.2589985, -77.02562 ], [ -50.2347401, -77.0317848 ], [ -50.2104584, -77.0379472 ], [ -50.1924085, -77.0427224 ], [ -50.1743451, -77.0474964 ], [ -50.1562684, -77.0522691 ], [ -50.1417292, -77.056187 ], [ -50.1271811, -77.060104 ], [ -50.1135637, -77.0638111 ], [ -50.0999384, -77.0675174 ], [ -50.075167, -77.0743296 ], [ -50.0534747, -77.0803811 ], [ -50.0354391, -77.0855065 ], [ -50.0217222, -77.0895324 ], [ -50.0128965, -77.0922806 ], [ -50.0095746, -77.0936042 ], [ -50.0082497, -77.0944239 ], [ -50.0050987, -77.0957441 ], [ -50.0002987, -77.097503 ], [ -50.0, -77.097605710555413 ], [ -50.0, -80.0 ], [ -55.0, -80.0 ], [ -55.0, -75.850885219142597 ], [ -54.9947102, -75.8522289 ] ] ] ] } }
]
}
