{
"type": "FeatureCollection",
"name": "-55_-10",
"crs": { "type": "name", "properties": { "name": "urn:ogc:def:crs:OGC:1.3:CRS84" } },
"xy_coordinate_resolution": 1e-15,
"features": [
{ "type": "Feature", "properties": { "FID": 537252, "id": 920, "left": -55.0, "top": -5.0, "right": -50.0, "bottom": -10.0, "row_index": 19, "col_index": 25, "min_lon": -55.0, "min_lat": -10.0, "tile_id": "-55_-10" }, "geometry": { "type": "MultiPolygon", "coordinates": [ [ [ [ -50.0, -5.0 ], [ -50.0, -10.0 ], [ -55.0, -10.0 ], [ -55.0, -5.0 ], [ -50.0, -5.0 ] ] ] ] } }
]
}
