{
"type": "FeatureCollection",
"name": "-5_15",
"crs": { "type": "name", "properties": { "name": "urn:ogc:def:crs:OGC:1.3:CRS84" } },
"xy_coordinate_resolution": 1e-15,
"features": [
{ "type": "Feature", "properties": { "FID": 660342, "id": 1275, "left": -5.0, "top": 20.0, "right": 0.0, "bottom": 15.0, "row_index": 14, "col_index": 35, "min_lon": -5.0, "min_lat": 15.0, "tile_id": "-5_15" }, "geometry": { "type": "MultiPolygon", "coordinates": [ [ [ [ 0.0, 20.0 ], [ 0.0, 15.0 ], [ -5.0, 15.0 ], [ -5.0, 20.0 ], [ 0.0, 20.0 ] ] ] ] } }
]
}
