{
"type": "FeatureCollection",
"name": "-60_-80",
"crs": { "type": "name", "properties": { "name": "urn:ogc:def:crs:OGC:1.3:CRS84" } },
"xy_coordinate_resolution": 1e-15,
"features": [
{ "type": "Feature", "properties": { "FID": 307096, "id": 898, "left": -60.0, "top": -75.0, "right": -55.0, "bottom": -80.0, "row_index": 33, "col_index": 24, "min_lon": -60.0, "min_lat": -80.0, "tile_id": "-60_-80" }, "geometry": { "type": "MultiPolygon", "coordinates": [ [ [ [ -59.9973742, -75.2782016 ], [ -59.9880894, -75.2798616 ], [ -59.9803228, -75.2813051 ], [ -59.9732118, -75.2826041 ], [ -59.9656757, -75.2838721 ], [ -59.9579985, -75.2850565 ], [ -59.9503881, -75.2861565 ], [ -59.9430801, -75.2871229 ], [ -59.9363054, -75.2879269 ], [ -59.930282, -75.2885273 ], [ -59.9252358, -75.2889155 ], [ -59.9152253, -75.2899445 ], [ -59.8994588, -75.2922304 ], [ -59.8776678, -75.2957962 ], [ -59.8496191, -75.3007017 ], [ -59.8323561, -75.3038343 ], [ -59.8150856, -75.3069655 ], [ -59.7944545, -75.3108005 ], [ -59.7738125, -75.3146336 ], [ -59.7497021, -75.319186 ], [ -59.7255766, -75.3237357 ], [ -59.6978641, -75.3290237 ], [ -59.6701314, -75.3343084 ], [ -59.6601772, -75.3362131 ], [ -59.649666, -75.3382136 ], [ -59.6389147, -75.3402625 ], [ -59.6282454, -75.342292 ], [ -59.6179448, -75.3442501 ], [ -59.6083849, -75.346066 ], [ -59.5998527, -75.3476879 ], [ -59.5926409, -75.3490435 ], [ -59.5855473, -75.3503117 ], [ -59.57716, -75.3516713 ], [ -59.5678579, -75.353084 ], [ -59.5579583, -75.3545024 ], [ -59.5477116, -75.35589 ], [ -59.5374539, -75.3571918 ], [ -59.5274978, -75.3583805 ], [ -59.5181488, -75.3593966 ], [ -59.5082242, -75.3605161 ], [ -59.4966619, -75.3619803 ], [ -59.4839443, -75.3637243 ], [ -59.4703756, -75.3656884 ], [ -59.4564516, -75.3678201 ], [ -59.4425629, -75.3700411 ], [ -59.4291261, -75.3722977 ], [ -59.4165455, -75.3745241 ], [ -59.403301, -75.3769249 ], [ -59.3879747, -75.3796778 ], [ -59.3710604, -75.3826775 ], [ -59.353096, -75.385836 ], [ -59.3346879, -75.3890542 ], [ -59.3163633, -75.3922321 ], [ -59.2986627, -75.3952818 ], [ -59.2821646, -75.3981005 ], [ -59.2667602, -75.400735 ], [ -59.2522362, -75.4032589 ], [ -59.2388822, -75.4056208 ], [ -59.2270561, -75.4077584 ], [ -59.2170851, -75.4096049 ], [ -59.2092965, -75.4110935 ], [ -59.2040243, -75.4121899 ], [ -59.2016323, -75.4128117 ], [ -59.2006249, -75.4131667 ], [ -59.1994012, -75.4134892 ], [ -59.1979796, -75.4137715 ], [ -59.1964587, -75.4140073 ], [ -59.1948386, -75.4141964 ], [ -59.1931745, -75.4143157 ], [ -59.1915591, -75.414379 ], [ -59.1899491, -75.4143692 ], [ -59.1833795, -75.414933 ], [ -59.1691217, -75.4166729 ], [ -59.1483836, -75.4194113 ], [ -59.1223536, -75.4229782 ], [ -59.0921833, -75.4272192 ], [ -59.0756597, -75.4295871 ], [ -59.0591307, -75.4319539 ], [ -59.0417377, -75.4344857 ], [ -59.0243387, -75.4370162 ], [ -59.0066645, -75.4396317 ], [ -58.988984, -75.4422457 ], [ -58.9833876, -75.4431443 ], [ -58.9765347, -75.4443393 ], [ -58.9687151, -75.4457793 ], [ -58.9601201, -75.4474192 ], [ -58.9511081, -75.4491971 ], [ -58.9418706, -75.4510677 ], [ -58.9327479, -75.4529768 ], [ -58.9239322, -75.4548795 ], [ -58.9031701, -75.4592479 ], [ -58.8771509, -75.4643755 ], [ -58.8618615, -75.4672605 ], [ -58.8465659, -75.4701445 ], [ -58.8292568, -75.4733 ], [ -58.81194, -75.4764542 ], [ -58.7929422, -75.479819 ], [ -58.7739354, -75.4831823 ], [ -58.7535373, -75.4867047 ], [ -58.7331291, -75.4902254 ], [ -58.7116636, -75.4938445 ], [ -58.6901873, -75.4974617 ], [ -58.6679294, -75.5011238 ], [ -58.6456602, -75.5047838 ], [ -58.6191326, -75.5090883 ], [ -58.592589, -75.5133898 ], [ -58.5715737, -75.5167569 ], [ -58.5505485, -75.520122 ], [ -58.5343369, -75.5226774 ], [ -58.5181196, -75.5252318 ], [ -58.4938238, -75.5289186 ], [ -58.4761606, -75.5314207 ], [ -58.4636303, -75.5329551 ], [ -58.4547603, -75.5337426 ], [ -58.4480756, -75.5340038 ], [ -58.4448261, -75.5342178 ], [ -58.4392799, -75.5347599 ], [ -58.4317858, -75.5356092 ], [ -58.4225875, -75.536718 ], [ -58.4120525, -75.5380575 ], [ -58.4004555, -75.5395848 ], [ -58.3880525, -75.5412647 ], [ -58.3751805, -75.5430638 ], [ -58.3610281, -75.545017 ], [ -58.3450067, -75.5471721 ], [ -58.3276552, -75.5494308 ], [ -58.3095414, -75.5517526 ], [ -58.2911863, -75.5540474 ], [ -58.2731355, -75.55625 ], [ -58.255985, -75.5582926 ], [ -58.2403007, -75.5601028 ], [ -58.2258117, -75.561756 ], [ -58.2121582, -75.563346 ], [ -58.1996792, -75.56484 ], [ -58.1886522, -75.5661956 ], [ -58.1794048, -75.5673678 ], [ -58.1722264, -75.5683265 ], [ -58.1674567, -75.5690392 ], [ -58.1653613, -75.5694511 ], [ -58.1626127, -75.5700392 ], [ -58.1559664, -75.5712296 ], [ -58.1458246, -75.5729458 ], [ -58.1326623, -75.5751332 ], [ -58.1168696, -75.5777027 ], [ -58.098929, -75.5805796 ], [ -58.0792661, -75.5837123 ], [ -58.0582911, -75.5870041 ], [ -58.0365312, -75.5904835 ], [ -58.0145679, -75.5941233 ], [ -57.9930259, -75.5978283 ], [ -57.9724461, -75.6014689 ], [ -57.9534866, -75.6049552 ], [ -57.9367139, -75.608183 ], [ -57.9227532, -75.6110252 ], [ -57.9122149, -75.6133951 ], [ -57.9033104, -75.615474 ], [ -57.8941252, -75.6175092 ], [ -57.8848259, -75.6194518 ], [ -57.8758115, -75.6212461 ], [ -57.8672492, -75.6228434 ], [ -57.8594573, -75.6241862 ], [ -57.8526845, -75.6252276 ], [ -57.8471795, -75.6259208 ], [ -57.8423681, -75.626476 ], [ -57.8375474, -75.6271367 ], [ -57.8328145, -75.6278647 ], [ -57.8283398, -75.6286437 ], [ -57.8241816, -75.6294508 ], [ -57.8205608, -75.6302668 ], [ -57.8175747, -75.6310534 ], [ -57.8153242, -75.6318051 ], [ -57.8129064, -75.6326055 ], [ -57.8094295, -75.6335512 ], [ -57.8050719, -75.6346057 ], [ -57.7999112, -75.6357382 ], [ -57.7942069, -75.6369143 ], [ -57.7880872, -75.6381005 ], [ -57.7816688, -75.6392507 ], [ -57.7752231, -75.640343 ], [ -57.7687146, -75.6414255 ], [ -57.7622346, -75.6425982 ], [ -57.7559699, -75.6438045 ], [ -57.750049, -75.6450111 ], [ -57.7446508, -75.6461815 ], [ -57.7399853, -75.6472844 ], [ -57.7362007, -75.6482786 ], [ -57.7334763, -75.649128 ], [ -57.7231824, -75.6526093 ], [ -57.7112978, -75.6562708 ], [ -57.6987022, -75.6598856 ], [ -57.6861676, -75.6632529 ], [ -57.674518, -75.6661692 ], [ -57.6645561, -75.6684059 ], [ -57.6571386, -75.6697646 ], [ -57.6530102, -75.6700401 ], [ -57.6422413, -75.6701326 ], [ -57.6235086, -75.6719802 ], [ -57.5993873, -75.6751818 ], [ -57.572361, -75.6793224 ], [ -57.5449878, -75.6839771 ], [ -57.5198236, -75.6887428 ], [ -57.4994306, -75.6932173 ], [ -57.4863847, -75.6969786 ], [ -57.4834836, -75.6979516 ], [ -57.4795658, -75.6990655 ], [ -57.4747802, -75.7002793 ], [ -57.4693265, -75.7015491 ], [ -57.463365, -75.7028465 ], [ -57.4570957, -75.7041276 ], [ -57.4506877, -75.7053439 ], [ -57.444251, -75.7064695 ], [ -57.4368175, -75.7078791 ], [ -57.4273645, -75.7099168 ], [ -57.416392, -75.7124896 ], [ -57.4041553, -75.7154979 ], [ -57.391135, -75.7188564 ], [ -57.3776776, -75.7224475 ], [ -57.3641129, -75.7261942 ], [ -57.3509014, -75.7299864 ], [ -57.3332424, -75.7350148 ], [ -57.3151368, -75.7398224 ], [ -57.2960942, -75.7445471 ], [ -57.2755389, -75.7492916 ], [ -57.2529469, -75.7541885 ], [ -57.2277505, -75.7593524 ], [ -57.1994022, -75.7649232 ], [ -57.183374, -75.7679594 ], [ -57.1673388, -75.7709946 ], [ -57.1412166, -75.7758935 ], [ -57.1132541, -75.7811479 ], [ -57.0843499, -75.7865983 ], [ -57.055343, -75.7920756 ], [ -57.0271571, -75.7974135 ], [ -57.0006166, -75.8024513 ], [ -56.976599, -75.8070261 ], [ -56.9559838, -75.8109754 ], [ -56.9353246, -75.8148852 ], [ -56.9167658, -75.8182645 ], [ -56.9003824, -75.8211036 ], [ -56.8862896, -75.8233775 ], [ -56.8745616, -75.8250763 ], [ -56.8653545, -75.8261926 ], [ -56.8586795, -75.8267064 ], [ -56.8547116, -75.8266025 ], [ -56.8525917, -75.82622 ], [ -56.8508401, -75.825799 ], [ -56.849365, -75.8253572 ], [ -56.8482797, -75.8249018 ], [ -56.8475746, -75.8244532 ], [ -56.8472914, -75.8240288 ], [ -56.8474503, -75.8236209 ], [ -56.8480835, -75.8232673 ], [ -56.8488416, -75.8221537 ], [ -56.847105, -75.8205001 ], [ -56.8433635, -75.8184712 ], [ -56.8380353, -75.8162421 ], [ -56.8314859, -75.8139577 ], [ -56.8242147, -75.8117956 ], [ -56.8166481, -75.8099105 ], [ -56.8091713, -75.8084728 ], [ -56.805938, -75.8078131 ], [ -56.8026447, -75.8068944 ], [ -56.799395, -75.8057442 ], [ -56.796283, -75.8044101 ], [ -56.7934134, -75.8029521 ], [ -56.7908277, -75.8013879 ], [ -56.7886817, -75.799775 ], [ -56.7870275, -75.7981435 ], [ -56.7854046, -75.7965169 ], [ -56.7832908, -75.794909 ], [ -56.7808005, -75.7933596 ], [ -56.7780274, -75.7919164 ], [ -56.7750441, -75.7906019 ], [ -56.7719549, -75.7894762 ], [ -56.7687916, -75.7885769 ], [ -56.7657192, -75.7879416 ], [ -56.762794, -75.7874166 ], [ -56.7600618, -75.7868358 ], [ -56.7576046, -75.7862017 ], [ -56.7554745, -75.7855443 ], [ -56.7537438, -75.7848861 ], [ -56.752403, -75.7842473 ], [ -56.7515956, -75.7836401 ], [ -56.7513738, -75.7830948 ], [ -56.7504167, -75.7822792 ], [ -56.7475498, -75.7809389 ], [ -56.7430112, -75.779134 ], [ -56.7369677, -75.7769344 ], [ -56.7296482, -75.77442 ], [ -56.7212396, -75.7716532 ], [ -56.7119599, -75.7687016 ], [ -56.7019859, -75.7656478 ], [ -56.6919344, -75.7625911 ], [ -56.6824001, -75.7596061 ], [ -56.6736201, -75.7567856 ], [ -56.6657587, -75.7541997 ], [ -56.6591129, -75.7519187 ], [ -56.6538267, -75.7500202 ], [ -56.6501459, -75.748577 ], [ -56.6483165, -75.7476617 ], [ -56.646785, -75.7468164 ], [ -56.6440192, -75.7455755 ], [ -56.6401539, -75.7440041 ], [ -56.6353747, -75.7421649 ], [ -56.6297956, -75.7400979 ], [ -56.6236434, -75.7378831 ], [ -56.6169807, -75.7355632 ], [ -56.6100543, -75.7332108 ], [ -56.5972711, -75.7291127 ], [ -56.5855819, -75.7258425 ], [ -56.5744729, -75.723328 ], [ -56.5634004, -75.721492 ], [ -56.5518317, -75.7202696 ], [ -56.5392548, -75.7195883 ], [ -56.5250964, -75.7193654 ], [ -56.5088446, -75.7195283 ], [ -56.5002849, -75.7195656 ], [ -56.4915682, -75.7192834 ], [ -56.4820522, -75.7186092 ], [ -56.4710442, -75.7174729 ], [ -56.4579742, -75.7157917 ], [ -56.4421511, -75.7134952 ], [ -56.4230177, -75.7105128 ], [ -56.3999063, -75.706766 ], [ -56.3810046, -75.7037826 ], [ -56.3621109, -75.7007976 ], [ -56.3441318, -75.6982109 ], [ -56.3261592, -75.6956228 ], [ -56.308839, -75.6934067 ], [ -56.2915243, -75.6911894 ], [ -56.2745649, -75.6893065 ], [ -56.2576101, -75.6874224 ], [ -56.2238625, -75.6842967 ], [ -56.1896779, -75.6817242 ], [ -56.1545244, -75.6796715 ], [ -56.1361917, -75.6788664 ], [ -56.1178612, -75.6780598 ], [ -56.1016232, -75.6774247 ], [ -56.0861288, -75.676759 ], [ -56.0718449, -75.6760859 ], [ -56.0590251, -75.6754261 ], [ -56.0481055, -75.674798 ], [ -56.0393902, -75.6742197 ], [ -56.0333154, -75.6737096 ], [ -56.0301342, -75.6732883 ], [ -56.0243954, -75.6727684 ], [ -56.0161599, -75.6731654 ], [ -56.005915, -75.6743969 ], [ -55.9942194, -75.6763702 ], [ -55.9814282, -75.6790028 ], [ -55.9680903, -75.6821896 ], [ -55.9546939, -75.6858483 ], [ -55.9417279, -75.6898967 ], [ -55.9350206, -75.692026 ], [ -55.9275877, -75.6942091 ], [ -55.9196439, -75.6963836 ], [ -55.9114859, -75.6984897 ], [ -55.9033087, -75.7004721 ], [ -55.8953898, -75.7022461 ], [ -55.8879952, -75.7037793 ], [ -55.8813216, -75.7049842 ], [ -55.8591405, -75.708752 ], [ -55.8375259, -75.7125818 ], [ -55.8159863, -75.7165556 ], [ -55.7940993, -75.7207782 ], [ -55.7713503, -75.7253389 ], [ -55.7472536, -75.7303317 ], [ -55.7213527, -75.7358558 ], [ -55.7072642, -75.7389206 ], [ -55.6931695, -75.7419847 ], [ -55.6762251, -75.7456236 ], [ -55.6595575, -75.7490459 ], [ -55.6435389, -75.7521821 ], [ -55.6285722, -75.7549683 ], [ -55.615, -75.7573301 ], [ -55.6032981, -75.7591938 ], [ -55.5937679, -75.7605003 ], [ -55.586906, -75.7611682 ], [ -55.5798965, -75.7617122 ], [ -55.5699106, -75.7626667 ], [ -55.5574098, -75.7639773 ], [ -55.5428555, -75.7655898 ], [ -55.5266883, -75.7674577 ], [ -55.509391, -75.7695192 ], [ -55.4914352, -75.7717332 ], [ -55.4732439, -75.7740279 ], [ -55.4545808, -75.7764075 ], [ -55.4352025, -75.7788309 ], [ -55.4156447, -75.7812343 ], [ -55.3964647, -75.7835471 ], [ -55.3783026, -75.7857014 ], [ -55.3616449, -75.7876365 ], [ -55.3471023, -75.7892799 ], [ -55.3352439, -75.7905739 ], [ -55.3245299, -75.7917313 ], [ -55.3132326, -75.792999 ], [ -55.3017533, -75.7943458 ], [ -55.2903723, -75.7957201 ], [ -55.2794611, -75.7970859 ], [ -55.2693612, -75.7984021 ], [ -55.2603837, -75.7996222 ], [ -55.2529221, -75.8007029 ], [ -55.2462991, -75.8016615 ], [ -55.2398883, -75.8025127 ], [ -55.233835, -75.803237 ], [ -55.2282939, -75.8038277 ], [ -55.2234312, -75.804258 ], [ -55.2193804, -75.8045284 ], [ -55.2163079, -75.8046121 ], [ -55.2143588, -75.8044898 ], [ -55.2083448, -75.804293 ], [ -55.1990436, -75.8050816 ], [ -55.1868907, -75.8067643 ], [ -55.1724027, -75.8092527 ], [ -55.1559933, -75.8124628 ], [ -55.1382305, -75.816304 ], [ -55.1194771, -75.8206949 ], [ -55.1002934, -75.8255326 ], [ -55.08944, -75.8283443 ], [ -55.0779308, -75.8313207 ], [ -55.065989, -75.8343672 ], [ -55.0540634, -75.8374057 ], [ -55.0424722, -75.8403246 ], [ -55.0315926, -75.8430557 ], [ -55.0217442, -75.8454876 ], [ -55.013326, -75.8475446 ], [ -55.0048384, -75.8496562 ], [ -55.0, -75.850885219142597 ], [ -55.0, -80.0 ], [ -60.0, -80.0 ], [ -60.0, -75.277744939130443 ], [ -59.9973742, -75.2782016 ] ] ] ] } }
]
}
