{
"type": "FeatureCollection",
"name": "-60_-15",
"crs": { "type": "name", "properties": { "name": "urn:ogc:def:crs:OGC:1.3:CRS84" } },
"xy_coordinate_resolution": 1e-15,
"features": [
{ "type": "Feature", "properties": { "FID": 537252, "id": 885, "left": -60.0, "top": -10.0, "right": -55.0, "bottom": -15.0, "row_index": 20, "col_index": 24, "min_lon": -60.0, "min_lat": -15.0, "tile_id": "-60_-15" }, "geometry": { "type": "MultiPolygon", "coordinates": [ [ [ [ -55.0, -10.0 ], [ -55.0, -15.0 ], [ -60.0, -15.0 ], [ -60.0, -10.0 ], [ -55.0, -10.0 ] ] ] ] } }
]
}
