{
"type": "FeatureCollection",
"name": "-60_-70",
"crs": { "type": "name", "properties": { "name": "urn:ogc:def:crs:OGC:1.3:CRS84" } },
"xy_coordinate_resolution": 1e-15,
"features": [
{ "type": "Feature", "properties": { "FID": 307096, "id": 896, "left": -60.0, "top": -65.0, "right": -55.0, "bottom": -70.0, "row_index": 31, "col_index": 24, "min_lon": -60.0, "min_lat": -70.0, "tile_id": "-60_-70" }, "geometry": { "type": "MultiPolygon", "coordinates": [ [ [ [ -59.9974164, -65.07305 ], [ -59.9910002, -65.0752769 ], [ -59.9866411, -65.0768204 ], [ -59.9818133, -65.0770653 ], [ -59.9746647, -65.0798243 ], [ -59.969021, -65.0827134 ], [ -59.9632641, -65.084864 ], [ -59.9556443, -65.0863232 ], [ -59.9473592, -65.087857 ], [ -59.9400476, -65.08868 ], [ -59.93309, -65.0900632 ], [ -59.9269295, -65.0904556 ], [ -59.9212128, -65.0892966 ], [ -59.9146555, -65.0883843 ], [ -59.9171494, -65.085214 ], [ -59.914967, -65.0846808 ], [ -59.907253, -65.0840097 ], [ -59.9013961, -65.085916 ], [ -59.8955789, -65.0875295 ], [ -59.8941044, -65.0880785 ], [ -59.8927132, -65.0880432 ], [ -59.8907019, -65.0884609 ], [ -59.889801, -65.0888402 ], [ -59.899805, -65.0917892 ], [ -59.9046618, -65.0916044 ], [ -59.9061847, -65.0936866 ], [ -59.9027687, -65.0961716 ], [ -59.8996631, -65.0980212 ], [ -59.8922796, -65.0992995 ], [ -59.8872697, -65.0992606 ], [ -59.8786896, -65.0997715 ], [ -59.8668918, -65.1013924 ], [ -59.8596413, -65.1017532 ], [ -59.8554453, -65.1035733 ], [ -59.8497787, -65.1034237 ], [ -59.8493477, -65.1063227 ], [ -59.8443894, -65.1076944 ], [ -59.841947, -65.1081307 ], [ -59.8354242, -65.1071532 ], [ -59.8284437, -65.1070213 ], [ -59.8241615, -65.1054549 ], [ -59.8200134, -65.1037917 ], [ -59.8129816, -65.1015505 ], [ -59.8020005, -65.0995039 ], [ -59.7950707, -65.0989676 ], [ -59.7836216, -65.1008141 ], [ -59.7790989, -65.1016441 ], [ -59.7714834, -65.1024907 ], [ -59.7634471, -65.1029749 ], [ -59.7552, -65.1025012 ], [ -59.7482323, -65.1022119 ], [ -59.7354995, -65.1023164 ], [ -59.7264509, -65.1024201 ], [ -59.7192346, -65.1029742 ], [ -59.7132399, -65.1033109 ], [ -59.7011135, -65.105633 ], [ -59.694734, -65.1069103 ], [ -59.687572, -65.107865 ], [ -59.6790527, -65.1091326 ], [ -59.6708737, -65.1112608 ], [ -59.6584544, -65.1131204 ], [ -59.6527967, -65.1143157 ], [ -59.647904, -65.1151814 ], [ -59.6394194, -65.1161971 ], [ -59.6342967, -65.1170058 ], [ -59.630027, -65.119191 ], [ -59.6274221, -65.1206212 ], [ -59.6204189, -65.1227795 ], [ -59.6172053, -65.1235411 ], [ -59.6154673, -65.1269997 ], [ -59.6123236, -65.1288153 ], [ -59.6099921, -65.1322572 ], [ -59.6075499, -65.1348943 ], [ -59.602129, -65.136796 ], [ -59.5985494, -65.1375969 ], [ -59.5898159, -65.1401062 ], [ -59.5850547, -65.1430782 ], [ -59.5782996, -65.1465951 ], [ -59.5769943, -65.1473097 ], [ -59.5708409, -65.1492898 ], [ -59.5689999, -65.1525951 ], [ -59.56837, -65.1550328 ], [ -59.5646547, -65.1581345 ], [ -59.5554278, -65.1640759 ], [ -59.5415178, -65.1704947 ], [ -59.5335485, -65.175529 ], [ -59.5309317, -65.1769576 ], [ -59.5207055, -65.1811748 ], [ -59.5079153, -65.1829411 ], [ -59.5089369, -65.1860486 ], [ -59.50869, -65.1897508 ], [ -59.5044903, -65.1920857 ], [ -59.4993186, -65.193791 ], [ -59.4996266, -65.1955543 ], [ -59.4949126, -65.197373 ], [ -59.4926434, -65.1981093 ], [ -59.4914477, -65.2024859 ], [ -59.4877273, -65.206238 ], [ -59.4815466, -65.2104201 ], [ -59.4774399, -65.2107019 ], [ -59.4713445, -65.2121791 ], [ -59.4594477, -65.2168315 ], [ -59.4532485, -65.221137 ], [ -59.4487992, -65.2235537 ], [ -59.4426536, -65.2264314 ], [ -59.4393534, -65.2280323 ], [ -59.4371288, -65.2292408 ], [ -59.4334552, -65.23185 ], [ -59.4327829, -65.2334432 ], [ -59.4318102, -65.2356234 ], [ -59.4329274, -65.2374376 ], [ -59.4342715, -65.2390909 ], [ -59.4367808, -65.2410327 ], [ -59.4392045, -65.2422917 ], [ -59.4410081, -65.2436193 ], [ -59.4419644, -65.2451764 ], [ -59.4421445, -65.2465387 ], [ -59.4444259, -65.2486433 ], [ -59.4462302, -65.2499708 ], [ -59.4482666, -65.2511335 ], [ -59.4527073, -65.2524516 ], [ -59.4566685, -65.2529921 ], [ -59.4602409, -65.2534363 ], [ -59.464364, -65.2542361 ], [ -59.467249, -65.2551688 ], [ -59.4733164, -65.2564487 ], [ -59.476962, -65.2564687 ], [ -59.4885839, -65.2560411 ], [ -59.491447, -65.25587 ], [ -59.4962592, -65.2561775 ], [ -59.5005201, -65.2561318 ], [ -59.5042349, -65.2557292 ], [ -59.5084984, -65.2556813 ], [ -59.5114329, -65.2550859 ], [ -59.5117054, -65.2549592 ], [ -59.5118563, -65.2549709 ], [ -59.5147191, -65.2547993 ], [ -59.5184335, -65.2543963 ], [ -59.5200603, -65.2543586 ], [ -59.525628, -65.2537542 ], [ -59.532571, -65.2521695 ], [ -59.5455418, -65.2496519 ], [ -59.5502356, -65.2481734 ], [ -59.5551601, -65.2465297 ], [ -59.5623276, -65.2447806 ], [ -59.5701817, -65.2425423 ], [ -59.5811668, -65.2384381 ], [ -59.5849205, -65.2365062 ], [ -59.5887389, -65.2341517 ], [ -59.593537, -65.2307227 ], [ -59.6000965, -65.2264069 ], [ -59.6023148, -65.2251963 ], [ -59.6071353, -65.2228697 ], [ -59.6137138, -65.2196603 ], [ -59.6199333, -65.2174563 ], [ -59.6249403, -65.2164935 ], [ -59.6287115, -65.215665 ], [ -59.6342405, -65.2139512 ], [ -59.6368447, -65.2128357 ], [ -59.640293, -65.2114894 ], [ -59.6442631, -65.2093923 ], [ -59.6521926, -65.2078303 ], [ -59.6575851, -65.2069619 ], [ -59.6616784, -65.2066505 ], [ -59.6662906, -65.2055902 ], [ -59.6730117, -65.2052669 ], [ -59.6783391, -65.2048201 ], [ -59.6831117, -65.2040179 ], [ -59.6978551, -65.2028104 ], [ -59.7040224, -65.202131 ], [ -59.7162642, -65.2000893 ], [ -59.7249639, -65.1987139 ], [ -59.7347346, -65.1969413 ], [ -59.7444066, -65.1944901 ], [ -59.7511558, -65.192636 ], [ -59.7534537, -65.1916769 ], [ -59.7757157, -65.1855566 ], [ -59.7760513, -65.1854326 ], [ -59.7803431, -65.1834068 ], [ -59.787787, -65.1810915 ], [ -59.7901049, -65.1800915 ], [ -59.7917537, -65.1792967 ], [ -59.793811, -65.1780498 ], [ -59.7957654, -65.176798 ], [ -59.797289, -65.1756979 ], [ -59.7989608, -65.1746086 ], [ -59.8014668, -65.1731942 ], [ -59.8026214, -65.1724388 ], [ -59.8042353, -65.1715898 ], [ -59.8055966, -65.171002 ], [ -59.8071629, -65.1701871 ], [ -59.8085699, -65.1691704 ], [ -59.8098047, -65.16816 ], [ -59.8109152, -65.1671192 ], [ -59.8120547, -65.1658999 ], [ -59.8128064, -65.1650002 ], [ -59.8136663, -65.1642212 ], [ -59.8146482, -65.163472 ], [ -59.8231048, -65.1619549 ], [ -59.833912, -65.1605881 ], [ -59.8420623, -65.1602525 ], [ -59.8473274, -65.1608924 ], [ -59.8569387, -65.1619471 ], [ -59.8640214, -65.1623836 ], [ -59.8810077, -65.1617462 ], [ -59.892741, -65.1621524 ], [ -59.9035781, -65.1629851 ], [ -59.9104319, -65.1633632 ], [ -59.9163771, -65.1651869 ], [ -59.9159874, -65.1653842 ], [ -59.9156172, -65.1656268 ], [ -59.9151771, -65.1659592 ], [ -59.9150191, -65.1663679 ], [ -59.9150134, -65.1664706 ], [ -59.9143655, -65.1670242 ], [ -59.9134803, -65.1688946 ], [ -59.9117158, -65.1706246 ], [ -59.9127111, -65.170867 ], [ -59.9130647, -65.1716697 ], [ -59.9144624, -65.173118 ], [ -59.9164214, -65.1747054 ], [ -59.9185479, -65.1761734 ], [ -59.9222917, -65.1775625 ], [ -59.9246238, -65.1786053 ], [ -59.9303184, -65.1796735 ], [ -59.9343624, -65.1800223 ], [ -59.9410379, -65.1803785 ], [ -59.9433547, -65.1795169 ], [ -59.9465049, -65.1774965 ], [ -59.9692513, -65.1745608 ], [ -59.9771516, -65.172077 ], [ -59.9826343, -65.1702653 ], [ -60.0, -65.1680701 ], [ -60.0, -65.0724705 ], [ -59.9974164, -65.07305 ] ] ] ] } },
{ "type": "Feature", "properties": { "FID": 312582, "id": 896, "left": -60.0, "top": -65.0, "right": -55.0, "bottom": -70.0, "row_index": 31, "col_index": 24, "min_lon": -60.0, "min_lat": -70.0, "tile_id": "-60_-70" }, "geometry": { "type": "MultiPolygon", "coordinates": [ [ [ [ -59.5207742, -65.0921805 ], [ -59.5187168, -65.0926773 ], [ -59.516392, -65.0923885 ], [ -59.5146784, -65.0923941 ], [ -59.5125335, -65.093443 ], [ -59.5094895, -65.0951334 ], [ -59.5081032, -65.0963706 ], [ -59.5076693, -65.0974133 ], [ -59.50901, -65.0988965 ], [ -59.5103036, -65.1006561 ], [ -59.5111843, -65.1017368 ], [ -59.5134197, -65.1025798 ], [ -59.5167138, -65.1033972 ], [ -59.519352, -65.1041945 ], [ -59.521588, -65.1050374 ], [ -59.5256561, -65.1067655 ], [ -59.5287132, -65.1082428 ], [ -59.5307407, -65.1087455 ], [ -59.5329164, -65.109142 ], [ -59.5366921, -65.1110826 ], [ -59.5387201, -65.1115852 ], [ -59.5409432, -65.1117052 ], [ -59.5442814, -65.1122467 ], [ -59.5475191, -65.1126153 ], [ -59.5512625, -65.1131116 ], [ -59.5531871, -65.1134455 ], [ -59.5542906, -65.1131425 ], [ -59.55702, -65.1133875 ], [ -59.5626145, -65.1130466 ], [ -59.5680116, -65.1130901 ], [ -59.5684987, -65.1127798 ], [ -59.569243, -65.1128188 ], [ -59.5728504, -65.1117002 ], [ -59.5763072, -65.1106872 ], [ -59.5800645, -65.1094604 ], [ -59.5829082, -65.1081529 ], [ -59.5853521, -65.1068892 ], [ -59.5890127, -65.1047887 ], [ -59.5908073, -65.1033784 ], [ -59.5937653, -65.1016293 ], [ -59.5939003, -65.1015495 ], [ -59.5933959, -65.1008646 ], [ -59.593256, -65.0993374 ], [ -59.5913825, -65.098038 ], [ -59.5889713, -65.0970234 ], [ -59.5865852, -65.0961942 ], [ -59.5853328, -65.0954663 ], [ -59.5847973, -65.0940202 ], [ -59.5839711, -65.0926812 ], [ -59.5819132, -65.091515 ], [ -59.5790113, -65.0891246 ], [ -59.5767185, -65.0877208 ], [ -59.575323, -65.086181 ], [ -59.5765826, -65.0844628 ], [ -59.5787143, -65.0824233 ], [ -59.579708, -65.0809976 ], [ -59.5802517, -65.0786078 ], [ -59.5763031, -65.0777748 ], [ -59.5714902, -65.0765822 ], [ -59.5671408, -65.0757923 ], [ -59.5590246, -65.0755034 ], [ -59.5531007, -65.0763338 ], [ -59.5497789, -65.076517 ], [ -59.542034, -65.0796286 ], [ -59.5389822, -65.0805951 ], [ -59.5325931, -65.0834669 ], [ -59.5304474, -65.0845155 ], [ -59.527199, -65.0858667 ], [ -59.5260209, -65.0874436 ], [ -59.5258632, -65.0878839 ], [ -59.5261405, -65.0883352 ], [ -59.5250066, -65.0896375 ], [ -59.5230671, -65.0910274 ], [ -59.523005, -65.0910718 ], [ -59.5224742, -65.0914522 ], [ -59.5216444, -65.0918077 ], [ -59.5209019, -65.0921258 ], [ -59.5207742, -65.0921805 ] ] ] ] } }
]
}
