{
"type": "FeatureCollection",
"name": "-60_-20",
"crs": { "type": "name", "properties": { "name": "urn:ogc:def:crs:OGC:1.3:CRS84" } },
"xy_coordinate_resolution": 1e-15,
"features": [
{ "type": "Feature", "properties": { "FID": 537252, "id": 886, "left": -60.0, "top": -15.0, "right": -55.0, "bottom": -20.0, "row_index": 21, "col_index": 24, "min_lon": -60.0, "min_lat": -20.0, "tile_id": "-60_-20" }, "geometry": { "type": "MultiPolygon", "coordinates": [ [ [ [ -55.0, -15.0 ], [ -55.0, -20.0 ], [ -60.0, -20.0 ], [ -60.0, -15.0 ], [ -55.0, -15.0 ] ] ] ] } }
]
}
