{
"type": "FeatureCollection",
"name": "-60_-90",
"crs": { "type": "name", "properties": { "name": "urn:ogc:def:crs:OGC:1.3:CRS84" } },
"xy_coordinate_resolution": 1e-15,
"features": [
{ "type": "Feature", "properties": { "FID": 307096, "id": 900, "left": -60.0, "top": -85.0, "right": -55.0, "bottom": -90.0, "row_index": 35, "col_index": 24, "min_lon": -60.0, "min_lat": -90.0, "tile_id": "-60_-90" }, "geometry": { "type": "MultiPolygon", "coordinates": [ [ [ [ -56.0, -90.0 ], [ -57.0, -90.0 ], [ -58.0, -90.0 ], [ -59.0, -90.0 ], [ -60.0, -90.0 ], [ -60.0, -85.0 ], [ -55.0, -85.0 ], [ -55.0, -90.0 ], [ -56.0, -90.0 ] ] ] ] } }
]
}
