{
"type": "FeatureCollection",
"name": "-60_40",
"crs": { "type": "name", "properties": { "name": "urn:ogc:def:crs:OGC:1.3:CRS84" } },
"xy_coordinate_resolution": 1e-15,
"features": [
{ "type": "Feature", "properties": { "FID": 696760, "id": 874, "left": -60.0, "top": 45.0, "right": -55.0, "bottom": 40.0, "row_index": 9, "col_index": 24, "min_lon": -60.0, "min_lat": 40.0, "tile_id": "-60_40" }, "geometry": { "type": "MultiPolygon", "coordinates": [ [ [ [ -59.9995909, 43.9350218 ], [ -59.9984852, 43.9350894 ], [ -59.9977597, 43.9351074 ], [ -59.9969333, 43.9351318 ], [ -59.9961014, 43.9351345 ], [ -59.9957412, 43.9351514 ], [ -59.995228, 43.9351448 ], [ -59.9946143, 43.9351684 ], [ -59.9936426, 43.9352494 ], [ -59.9928165, 43.9353159 ], [ -59.9916911, 43.9353943 ], [ -59.9902544, 43.935358 ], [ -59.9890395, 43.9354206 ], [ -59.9882985, 43.9355465 ], [ -59.9872799, 43.9357108 ], [ -59.9864396, 43.9357586 ], [ -59.9856505, 43.9357769 ], [ -59.9845379, 43.9357385 ], [ -59.9833868, 43.9356464 ], [ -59.9825113, 43.935554 ], [ -59.9816907, 43.9355036 ], [ -59.9809398, 43.9354709 ], [ -59.9801294, 43.9354286 ], [ -59.9792615, 43.9354005 ], [ -59.9782496, 43.935381 ], [ -59.9767866, 43.9354018 ], [ -59.9755721, 43.9354539 ], [ -59.9744585, 43.9356295 ], [ -59.9738011, 43.9356829 ], [ -59.9727454, 43.9356802 ], [ -59.971635, 43.9356573 ], [ -59.970515, 43.9356336 ], [ -59.9694317, 43.9356072 ], [ -59.9683257, 43.9356019 ], [ -59.9675667, 43.9356333 ], [ -59.9669652, 43.9356714 ], [ -59.9661668, 43.9357153 ], [ -59.9647814, 43.9359688 ], [ -59.9638825, 43.9361044 ], [ -59.9627673, 43.9361983 ], [ -59.961587, 43.9363614 ], [ -59.9609164, 43.9365047 ], [ -59.9600171, 43.9365788 ], [ -59.9593235, 43.9365628 ], [ -59.9587073, 43.9364561 ], [ -59.9577334, 43.9364712 ], [ -59.9572429, 43.9365246 ], [ -59.9567455, 43.9364773 ], [ -59.9558651, 43.9364233 ], [ -59.9549371, 43.9364424 ], [ -59.9541026, 43.9364346 ], [ -59.9525432, 43.9364733 ], [ -59.9518199, 43.93647 ], [ -59.9509462, 43.9364269 ], [ -59.9504896, 43.9364164 ], [ -59.9500136, 43.9364236 ], [ -59.949251, 43.9364603 ], [ -59.9483948, 43.9365787 ], [ -59.9475158, 43.9366776 ], [ -59.9467208, 43.9367664 ], [ -59.9457962, 43.9366668 ], [ -59.9449979, 43.9366129 ], [ -59.9445596, 43.9365422 ], [ -59.943712, 43.9364296 ], [ -59.9429602, 43.936442 ], [ -59.9419712, 43.9365521 ], [ -59.9411972, 43.9365773 ], [ -59.9407915, 43.9366459 ], [ -59.9400816, 43.9366534 ], [ -59.939465, 43.9366787 ], [ -59.9387489, 43.9367238 ], [ -59.9377921, 43.9367216 ], [ -59.9366022, 43.9368056 ], [ -59.9360138, 43.9369022 ], [ -59.9350983, 43.9368186 ], [ -59.9338252, 43.9367136 ], [ -59.9326732, 43.936606 ], [ -59.9318956, 43.9365441 ], [ -59.9305796, 43.9364492 ], [ -59.9293173, 43.9363811 ], [ -59.9285391, 43.9363313 ], [ -59.9279182, 43.9362959 ], [ -59.9274874, 43.9362836 ], [ -59.9263952, 43.9362562 ], [ -59.9255178, 43.9362366 ], [ -59.9242853, 43.9362137 ], [ -59.9236307, 43.9361969 ], [ -59.9226552, 43.9361674 ], [ -59.9222885, 43.9361528 ], [ -59.9219482, 43.9361606 ], [ -59.9212209, 43.9361674 ], [ -59.9204351, 43.9362065 ], [ -59.9188687, 43.9361556 ], [ -59.9174988, 43.9362455 ], [ -59.9158631, 43.9363692 ], [ -59.913498, 43.9365014 ], [ -59.9107578, 43.9364714 ], [ -59.90903, 43.9365013 ], [ -59.9063829, 43.9364282 ], [ -59.905641, 43.9365293 ], [ -59.9048829, 43.936418 ], [ -59.903812, 43.9365547 ], [ -59.902741, 43.9365137 ], [ -59.9011424, 43.9365081 ], [ -59.9003427, 43.9364481 ], [ -59.8993893, 43.9365902 ], [ -59.8988221, 43.9364928 ], [ -59.8970324, 43.9365258 ], [ -59.8961013, 43.9367133 ], [ -59.8949497, 43.9369531 ], [ -59.8940653, 43.9370894 ], [ -59.8929619, 43.9372465 ], [ -59.8922911, 43.9372537 ], [ -59.8912148, 43.937431 ], [ -59.8903196, 43.9375519 ], [ -59.8893257, 43.9378157 ], [ -59.8872542, 43.9381179 ], [ -59.8853651, 43.9386292 ], [ -59.884787, 43.938626 ], [ -59.8835441, 43.9389098 ], [ -59.8825045, 43.9390499 ], [ -59.8815086, 43.9391837 ], [ -59.8805598, 43.939215 ], [ -59.8798485, 43.9393034 ], [ -59.8791574, 43.939283 ], [ -59.8780914, 43.9394123 ], [ -59.8769578, 43.9394384 ], [ -59.8758644, 43.9395832 ], [ -59.8752427, 43.9396211 ], [ -59.8744953, 43.9396924 ], [ -59.8732537, 43.9397098 ], [ -59.8717357, 43.939759 ], [ -59.8709516, 43.9398712 ], [ -59.8701213, 43.9399797 ], [ -59.8694585, 43.9400595 ], [ -59.8688235, 43.9400962 ], [ -59.8670232, 43.9402316 ], [ -59.8658728, 43.9404439 ], [ -59.8650223, 43.9406811 ], [ -59.8646191, 43.9405585 ], [ -59.8638386, 43.9406387 ], [ -59.8618003, 43.9410794 ], [ -59.8602061, 43.9415338 ], [ -59.8589207, 43.9418241 ], [ -59.8582992, 43.9419149 ], [ -59.8573924, 43.9420233 ], [ -59.8562979, 43.9422059 ], [ -59.8551799, 43.9425035 ], [ -59.8544556, 43.942605 ], [ -59.8533052, 43.9427609 ], [ -59.8523365, 43.9430925 ], [ -59.8519218, 43.9432507 ], [ -59.8503819, 43.9432875 ], [ -59.8492668, 43.9435176 ], [ -59.8472703, 43.9439677 ], [ -59.8456072, 43.9441646 ], [ -59.8444843, 43.9443959 ], [ -59.8438366, 43.9446165 ], [ -59.84311, 43.9446959 ], [ -59.8420928, 43.9449265 ], [ -59.8412008, 43.945042 ], [ -59.8399281, 43.9453334 ], [ -59.838969, 43.9455423 ], [ -59.8372744, 43.9459951 ], [ -59.8356455, 43.9463957 ], [ -59.8340962, 43.9468238 ], [ -59.8328314, 43.9471936 ], [ -59.8312192, 43.9476441 ], [ -59.8294009, 43.9480114 ], [ -59.8276782, 43.9485228 ], [ -59.8269318, 43.948676 ], [ -59.8254978, 43.9490811 ], [ -59.8237065, 43.9495051 ], [ -59.8220693, 43.9500445 ], [ -59.8216294, 43.9501606 ], [ -59.820847, 43.9503592 ], [ -59.8201691, 43.9506022 ], [ -59.8191736, 43.9508605 ], [ -59.8181304, 43.9511526 ], [ -59.8170952, 43.9515633 ], [ -59.8160005, 43.9519422 ], [ -59.8152722, 43.9523102 ], [ -59.8141909, 43.9527883 ], [ -59.8125423, 43.9534694 ], [ -59.8122615, 43.9535144 ], [ -59.8113667, 43.953787 ], [ -59.8107102, 43.9540381 ], [ -59.8101606, 43.9542791 ], [ -59.8097947, 43.9543731 ], [ -59.8088749, 43.9546863 ], [ -59.8083644, 43.9548224 ], [ -59.8079093, 43.9549193 ], [ -59.8072394, 43.9552846 ], [ -59.8064434, 43.9555778 ], [ -59.8055392, 43.9557904 ], [ -59.8040718, 43.9561486 ], [ -59.8033157, 43.9564901 ], [ -59.8028414, 43.9566368 ], [ -59.8020085, 43.956881 ], [ -59.8012212, 43.9570558 ], [ -59.8001797, 43.9575113 ], [ -59.7994007, 43.9578361 ], [ -59.7975474, 43.9585776 ], [ -59.7963603, 43.9590517 ], [ -59.795165, 43.9596194 ], [ -59.7944902, 43.9598769 ], [ -59.7937909, 43.9601754 ], [ -59.7929209, 43.9605559 ], [ -59.7919347, 43.9608922 ], [ -59.7911277, 43.9612162 ], [ -59.7904913, 43.961392 ], [ -59.7898007, 43.9618521 ], [ -59.7891987, 43.9620611 ], [ -59.7887091, 43.9622384 ], [ -59.7879219, 43.9624322 ], [ -59.7872926, 43.9627173 ], [ -59.7867397, 43.9630442 ], [ -59.7853266, 43.9636895 ], [ -59.7844542, 43.9641421 ], [ -59.7837138, 43.9645187 ], [ -59.7829585, 43.9648847 ], [ -59.7820299, 43.965259 ], [ -59.7809443, 43.965671 ], [ -59.7801307, 43.9662119 ], [ -59.7788227, 43.9668696 ], [ -59.7777557, 43.9672971 ], [ -59.7768744, 43.9676022 ], [ -59.775643, 43.9682883 ], [ -59.7749272, 43.9687182 ], [ -59.7743447, 43.9690308 ], [ -59.7735944, 43.9694714 ], [ -59.7729697, 43.9699575 ], [ -59.772581, 43.9701771 ], [ -59.7718075, 43.9706402 ], [ -59.7708794, 43.9711127 ], [ -59.7703315, 43.9713756 ], [ -59.7699573, 43.971551 ], [ -59.76929, 43.9720115 ], [ -59.7685733, 43.9724645 ], [ -59.7681268, 43.9727515 ], [ -59.7677362, 43.9730737 ], [ -59.767071, 43.9735368 ], [ -59.7663429, 43.9738367 ], [ -59.7659233, 43.9739946 ], [ -59.7654642, 43.9742396 ], [ -59.7647956, 43.9745171 ], [ -59.7642909, 43.9747915 ], [ -59.7640047, 43.9751341 ], [ -59.7637361, 43.9754571 ], [ -59.7633848, 43.9757086 ], [ -59.7626029, 43.9761997 ], [ -59.7615991, 43.9767922 ], [ -59.7608967, 43.9771958 ], [ -59.7602466, 43.977592 ], [ -59.7595842, 43.9779639 ], [ -59.759117, 43.9782544 ], [ -59.7586972, 43.9784922 ], [ -59.7576538, 43.9792218 ], [ -59.757304, 43.9795592 ], [ -59.757097, 43.9797205 ], [ -59.7566894, 43.9800348 ], [ -59.7562592, 43.9802839 ], [ -59.7558027, 43.9804744 ], [ -59.7553525, 43.9806644 ], [ -59.7545354, 43.9812154 ], [ -59.7537007, 43.9817742 ], [ -59.7527322, 43.9824165 ], [ -59.752273, 43.9829916 ], [ -59.7517654, 43.9834185 ], [ -59.7512392, 43.9836326 ], [ -59.7501904, 43.9842285 ], [ -59.7496023, 43.984445 ], [ -59.7493224, 43.9845788 ], [ -59.7490188, 43.9847904 ], [ -59.7488852, 43.9850123 ], [ -59.7485612, 43.9853135 ], [ -59.7475907, 43.9859253 ], [ -59.7471659, 43.9862022 ], [ -59.7468191, 43.9865494 ], [ -59.7465324, 43.9866798 ], [ -59.7457785, 43.9870444 ], [ -59.7444064, 43.9880369 ], [ -59.7436472, 43.9886099 ], [ -59.7432096, 43.9890555 ], [ -59.7429561, 43.9893114 ], [ -59.7422024, 43.9897737 ], [ -59.7414782, 43.9903548 ], [ -59.7408005, 43.9906927 ], [ -59.7400814, 43.9909733 ], [ -59.7396467, 43.9911693 ], [ -59.7391818, 43.9915488 ], [ -59.7384854, 43.9922754 ], [ -59.7375928, 43.9929239 ], [ -59.7368451, 43.9932869 ], [ -59.7358438, 43.9940661 ], [ -59.7351106, 43.994587 ], [ -59.7348199, 43.9947948 ], [ -59.7342178, 43.9952573 ], [ -59.7337109, 43.9956476 ], [ -59.7330978, 43.9960278 ], [ -59.7320384, 43.9964645 ], [ -59.731629, 43.9966345 ], [ -59.7306816, 43.9974869 ], [ -59.7300515, 43.9977744 ], [ -59.7296443, 43.9981885 ], [ -59.7291958, 43.9988405 ], [ -59.7288885, 43.9990003 ], [ -59.7280582, 43.9991803 ], [ -59.7277132, 43.9994539 ], [ -59.7273495, 43.9999156 ], [ -59.7266963, 44.0001287 ], [ -59.7258142, 44.0007725 ], [ -59.7255683, 44.0010408 ], [ -59.7253067, 44.0014148 ], [ -59.7248979, 44.0016718 ], [ -59.724325, 44.001961 ], [ -59.7236129, 44.0022975 ], [ -59.7228082, 44.0029527 ], [ -59.7220088, 44.0032554 ], [ -59.7213681, 44.0039074 ], [ -59.720376, 44.0046002 ], [ -59.7193451, 44.0053036 ], [ -59.7185158, 44.0055293 ], [ -59.718097, 44.0056794 ], [ -59.7176876, 44.006031 ], [ -59.7169924, 44.0066144 ], [ -59.7161029, 44.0070452 ], [ -59.7156597, 44.0074844 ], [ -59.7153167, 44.0077885 ], [ -59.7149241, 44.0079143 ], [ -59.7145509, 44.0080028 ], [ -59.7142711, 44.0081718 ], [ -59.7138463, 44.0084568 ], [ -59.7135691, 44.0088172 ], [ -59.7130312, 44.0091547 ], [ -59.7123598, 44.0093857 ], [ -59.711603, 44.0098289 ], [ -59.7107386, 44.0104462 ], [ -59.7102712, 44.010973 ], [ -59.7100188, 44.0111289 ], [ -59.7090005, 44.0116207 ], [ -59.7083456, 44.0119817 ], [ -59.7075973, 44.0124637 ], [ -59.7070451, 44.0126031 ], [ -59.7062314, 44.0128634 ], [ -59.7054098, 44.0135654 ], [ -59.7046037, 44.0140937 ], [ -59.7040895, 44.0142934 ], [ -59.7036338, 44.0145173 ], [ -59.7032551, 44.0149016 ], [ -59.702608, 44.0152688 ], [ -59.7019728, 44.0153966 ], [ -59.7014943, 44.0156851 ], [ -59.7011868, 44.0160254 ], [ -59.7005193, 44.016303 ], [ -59.6997584, 44.0164866 ], [ -59.6991046, 44.0169929 ], [ -59.6983386, 44.0173783 ], [ -59.6979197, 44.0177214 ], [ -59.697336, 44.0180219 ], [ -59.6967524, 44.0182148 ], [ -59.6962098, 44.0187651 ], [ -59.6957994, 44.0189519 ], [ -59.695277, 44.0191186 ], [ -59.6946319, 44.0193516 ], [ -59.6940776, 44.0197868 ], [ -59.6930515, 44.0204681 ], [ -59.6923269, 44.0211283 ], [ -59.691269, 44.0216635 ], [ -59.6895545, 44.0226187 ], [ -59.6882008, 44.0233578 ], [ -59.6867295, 44.0240944 ], [ -59.6857453, 44.0246713 ], [ -59.6844431, 44.0255424 ], [ -59.6833077, 44.0262476 ], [ -59.6822332, 44.026672 ], [ -59.6812002, 44.0271644 ], [ -59.679962, 44.0278425 ], [ -59.6793252, 44.0281611 ], [ -59.6787952, 44.0284613 ], [ -59.6782757, 44.0287088 ], [ -59.6777294, 44.0290553 ], [ -59.6765886, 44.0299214 ], [ -59.675729, 44.0306021 ], [ -59.6743678, 44.0316233 ], [ -59.6732181, 44.0323244 ], [ -59.6723505, 44.032842 ], [ -59.6715837, 44.0331826 ], [ -59.6693549, 44.034371 ], [ -59.6678135, 44.0351108 ], [ -59.6669314, 44.0354515 ], [ -59.6667612, 44.0355607 ], [ -59.6635917, 44.0370959 ], [ -59.6622097, 44.0379174 ], [ -59.6615113, 44.0382782 ], [ -59.6605325, 44.0390316 ], [ -59.6590169, 44.0401249 ], [ -59.658249, 44.0405997 ], [ -59.6563517, 44.041719 ], [ -59.6527036, 44.0437537 ], [ -59.6513894, 44.0445124 ], [ -59.649961, 44.0455205 ], [ -59.6489118, 44.0462216 ], [ -59.6479241, 44.0467846 ], [ -59.6465734, 44.0474854 ], [ -59.6462733, 44.0475168 ], [ -59.6449618, 44.0483388 ], [ -59.6445862, 44.048437 ], [ -59.6435064, 44.0491276 ], [ -59.6408187, 44.0501623 ], [ -59.6405534, 44.0501366 ], [ -59.6403177, 44.0500932 ], [ -59.6402753, 44.0498254 ], [ -59.6402516, 44.0495961 ], [ -59.6406544, 44.049135 ], [ -59.6411228, 44.0487748 ], [ -59.6431261, 44.0474334 ], [ -59.6447295, 44.0464727 ], [ -59.6451482, 44.0461422 ], [ -59.6461519, 44.0455552 ], [ -59.6464863, 44.0453838 ], [ -59.6489988, 44.0437153 ], [ -59.6498221, 44.0430952 ], [ -59.6516013, 44.0418297 ], [ -59.6527308, 44.0411853 ], [ -59.654563, 44.0402753 ], [ -59.6565691, 44.0391465 ], [ -59.6588034, 44.0379359 ], [ -59.6597575, 44.0374616 ], [ -59.660708, 44.0370583 ], [ -59.6619506, 44.0362987 ], [ -59.6627952, 44.0359516 ], [ -59.6632997, 44.035649 ], [ -59.663924, 44.035224 ], [ -59.6642087, 44.0349266 ], [ -59.664824, 44.0345286 ], [ -59.6656346, 44.034104 ], [ -59.6666225, 44.0337071 ], [ -59.6681714, 44.033209 ], [ -59.6697062, 44.0324711 ], [ -59.6712289, 44.0316714 ], [ -59.6726423, 44.030899 ], [ -59.673587, 44.0302274 ], [ -59.6745184, 44.0295843 ], [ -59.6754561, 44.029028 ], [ -59.6760015, 44.0286643 ], [ -59.6764068, 44.0284534 ], [ -59.6771393, 44.0281202 ], [ -59.6779538, 44.0277442 ], [ -59.6787339, 44.0272922 ], [ -59.6792153, 44.0270116 ], [ -59.6799211, 44.0265433 ], [ -59.6814694, 44.025492 ], [ -59.6823459, 44.024882 ], [ -59.6834645, 44.0240549 ], [ -59.6840782, 44.0235793 ], [ -59.6846619, 44.0231959 ], [ -59.6853152, 44.0227919 ], [ -59.6868133, 44.0217409 ], [ -59.6882169, 44.0208792 ], [ -59.6899307, 44.0197533 ], [ -59.6917882, 44.0186733 ], [ -59.6946183, 44.0170503 ], [ -59.6979695, 44.0152427 ], [ -59.6995945, 44.0144142 ], [ -59.7009481, 44.0136664 ], [ -59.7023837, 44.0128383 ], [ -59.7040493, 44.0118708 ], [ -59.7047149, 44.0115053 ], [ -59.705557, 44.011112 ], [ -59.7064549, 44.010643 ], [ -59.7077081, 44.0099852 ], [ -59.7086497, 44.009448 ], [ -59.7099041, 44.0086959 ], [ -59.7109842, 44.0079388 ], [ -59.7118943, 44.0074178 ], [ -59.7130341, 44.0068064 ], [ -59.7141058, 44.0061938 ], [ -59.7149013, 44.0057797 ], [ -59.7155912, 44.0052954 ], [ -59.7170371, 44.0043794 ], [ -59.718064, 44.0036515 ], [ -59.7191408, 44.0030002 ], [ -59.7198448, 44.0024698 ], [ -59.7205838, 44.0020267 ], [ -59.7222701, 44.0009117 ], [ -59.7230172, 44.0003223 ], [ -59.7235384, 43.9999228 ], [ -59.7237832, 43.999742 ], [ -59.724152, 43.9994459 ], [ -59.724304, 43.9993407 ], [ -59.7249608, 43.998903 ], [ -59.725551, 43.9983862 ], [ -59.7262107, 43.9980069 ], [ -59.7268972, 43.9975361 ], [ -59.727684, 43.9970166 ], [ -59.7286749, 43.9963511 ], [ -59.7297244, 43.9956129 ], [ -59.7309561, 43.9948012 ], [ -59.732131, 43.9940648 ], [ -59.7327763, 43.9937187 ], [ -59.7333148, 43.9933967 ], [ -59.7345975, 43.9924839 ], [ -59.735168, 43.9919544 ], [ -59.7355642, 43.9916027 ], [ -59.7358974, 43.9913273 ], [ -59.7363226, 43.9909416 ], [ -59.7376479, 43.9899414 ], [ -59.7393488, 43.9887868 ], [ -59.740222, 43.9881003 ], [ -59.741021, 43.9876954 ], [ -59.741528, 43.9872287 ], [ -59.7422582, 43.9867572 ], [ -59.743462, 43.985907 ], [ -59.7456738, 43.984473 ], [ -59.7459634, 43.9841445 ], [ -59.7464776, 43.9838424 ], [ -59.7474425, 43.9832697 ], [ -59.7482459, 43.9825613 ], [ -59.7489861, 43.9820101 ], [ -59.7496612, 43.9815066 ], [ -59.7500822, 43.9811473 ], [ -59.7506759, 43.9805627 ], [ -59.7518428, 43.9795989 ], [ -59.7540441, 43.9778057 ], [ -59.755908, 43.9762244 ], [ -59.7561477, 43.9759996 ], [ -59.7562765, 43.9758612 ], [ -59.7576002, 43.9747346 ], [ -59.7584901, 43.9738798 ], [ -59.7607942, 43.9717423 ], [ -59.7613887, 43.9713662 ], [ -59.7616476, 43.9710472 ], [ -59.7623741, 43.9703162 ], [ -59.7629808, 43.9698421 ], [ -59.7631954, 43.9696585 ], [ -59.7638982, 43.9689802 ], [ -59.7648568, 43.9679354 ], [ -59.7665838, 43.9664715 ], [ -59.7686579, 43.9648398 ], [ -59.7702027, 43.9636225 ], [ -59.771276, 43.9629085 ], [ -59.7722344, 43.9617783 ], [ -59.7733114, 43.9609487 ], [ -59.7744085, 43.9602229 ], [ -59.7759351, 43.9593208 ], [ -59.7766181, 43.9589404 ], [ -59.7774555, 43.9584136 ], [ -59.7790655, 43.9573893 ], [ -59.7811145, 43.9562187 ], [ -59.7833911, 43.9552412 ], [ -59.7846275, 43.9547239 ], [ -59.7855969, 43.9541673 ], [ -59.7869213, 43.9536278 ], [ -59.7878347, 43.9532892 ], [ -59.7892909, 43.9527435 ], [ -59.7906539, 43.9521908 ], [ -59.792372, 43.9515389 ], [ -59.7942621, 43.9507976 ], [ -59.7959141, 43.9500313 ], [ -59.7977788, 43.9494397 ], [ -59.799594, 43.9487501 ], [ -59.8009109, 43.9481161 ], [ -59.8017117, 43.9478139 ], [ -59.8029279, 43.9472861 ], [ -59.8034388, 43.9470228 ], [ -59.8051832, 43.9463302 ], [ -59.8062501, 43.9459263 ], [ -59.8074325, 43.9453809 ], [ -59.8086572, 43.9448424 ], [ -59.8094335, 43.9446266 ], [ -59.8115217, 43.9437229 ], [ -59.8141696, 43.9427909 ], [ -59.8157356, 43.9422453 ], [ -59.8172, 43.9418652 ], [ -59.8180843, 43.9415896 ], [ -59.8202372, 43.9408702 ], [ -59.8214473, 43.940515 ], [ -59.8241163, 43.9399401 ], [ -59.8259531, 43.9393476 ], [ -59.8273771, 43.9389717 ], [ -59.8284176, 43.9386356 ], [ -59.8294297, 43.938471 ], [ -59.8302713, 43.9382672 ], [ -59.8313667, 43.9379731 ], [ -59.8321785, 43.9377938 ], [ -59.8329586, 43.937499 ], [ -59.8337345, 43.9373723 ], [ -59.8345765, 43.9372093 ], [ -59.8357187, 43.937063 ], [ -59.8370685, 43.9365674 ], [ -59.8378361, 43.936381 ], [ -59.8384275, 43.9361853 ], [ -59.8392807, 43.9360059 ], [ -59.8399031, 43.935883 ], [ -59.8408989, 43.9355681 ], [ -59.8416924, 43.9353908 ], [ -59.8420688, 43.9353158 ], [ -59.8433587, 43.934888 ], [ -59.8443745, 43.9346242 ], [ -59.8453803, 43.934376 ], [ -59.8462824, 43.9341205 ], [ -59.8469972, 43.9337854 ], [ -59.8476434, 43.9336633 ], [ -59.8484326, 43.9336342 ], [ -59.8489614, 43.9334632 ], [ -59.849297, 43.9332741 ], [ -59.8498875, 43.9330439 ], [ -59.8504301, 43.9328744 ], [ -59.8507543, 43.9327515 ], [ -59.8510704, 43.9326576 ], [ -59.8513755, 43.9325455 ], [ -59.851667, 43.9324771 ], [ -59.8520628, 43.9324157 ], [ -59.8526687, 43.9323709 ], [ -59.8532735, 43.9322759 ], [ -59.8539042, 43.9321023 ], [ -59.8544734, 43.9320192 ], [ -59.8549826, 43.9319126 ], [ -59.8555248, 43.9318288 ], [ -59.8562756, 43.9317757 ], [ -59.8570957, 43.9316469 ], [ -59.8578894, 43.9315134 ], [ -59.8586293, 43.9313892 ], [ -59.8591119, 43.9312206 ], [ -59.8595296, 43.9311472 ], [ -59.860136, 43.9309794 ], [ -59.860544, 43.9309006 ], [ -59.8612315, 43.9307787 ], [ -59.8618947, 43.9306403 ], [ -59.8624941, 43.9305508 ], [ -59.8627985, 43.9304896 ], [ -59.8632521, 43.9304336 ], [ -59.863582, 43.9303542 ], [ -59.8640818, 43.9302657 ], [ -59.8661365, 43.9300236 ], [ -59.8671478, 43.9297398 ], [ -59.868978, 43.9294387 ], [ -59.8697822, 43.9293423 ], [ -59.8709986, 43.9291562 ], [ -59.8721313, 43.9289792 ], [ -59.8731789, 43.9288772 ], [ -59.8742608, 43.9287174 ], [ -59.8755284, 43.9284723 ], [ -59.8763291, 43.9284117 ], [ -59.8770418, 43.9283562 ], [ -59.8782232, 43.9281276 ], [ -59.8795185, 43.9280167 ], [ -59.8814232, 43.9277362 ], [ -59.8852346, 43.9275254 ], [ -59.8880374, 43.927256 ], [ -59.8901996, 43.9269536 ], [ -59.8918201, 43.9268185 ], [ -59.8927309, 43.9267799 ], [ -59.8936478, 43.926635 ], [ -59.8942759, 43.9266084 ], [ -59.8949694, 43.9266097 ], [ -59.8957042, 43.9266262 ], [ -59.8968215, 43.9266229 ], [ -59.8977954, 43.9266325 ], [ -59.8992455, 43.926517 ], [ -59.9004208, 43.9264665 ], [ -59.9025623, 43.9262721 ], [ -59.9058657, 43.9261336 ], [ -59.9086142, 43.9260379 ], [ -59.9106777, 43.9260317 ], [ -59.9124991, 43.9260468 ], [ -59.9141408, 43.9260227 ], [ -59.9157613, 43.9259931 ], [ -59.9174049, 43.9259807 ], [ -59.9193832, 43.9260337 ], [ -59.9206115, 43.9259827 ], [ -59.9219547, 43.9259586 ], [ -59.9230634, 43.9259731 ], [ -59.9231387, 43.9259705 ], [ -59.9242449, 43.9259311 ], [ -59.9254235, 43.9259407 ], [ -59.9274572, 43.9258428 ], [ -59.9291599, 43.9257988 ], [ -59.9307906, 43.9258565 ], [ -59.9322272, 43.925841 ], [ -59.9337406, 43.9257671 ], [ -59.935909, 43.925788 ], [ -59.9378672, 43.9257059 ], [ -59.9400365, 43.9256927 ], [ -59.9416, 43.9257125 ], [ -59.9435176, 43.9257509 ], [ -59.9453853, 43.9258318 ], [ -59.9490758, 43.9257574 ], [ -59.9516071, 43.9257864 ], [ -59.9535357, 43.9257767 ], [ -59.9566027, 43.9257574 ], [ -59.958759, 43.925632 ], [ -59.9598037, 43.925632 ], [ -59.9618528, 43.9257574 ], [ -59.963042, 43.9258031 ], [ -59.9639185, 43.9257011 ], [ -59.9652474, 43.9258233 ], [ -59.9665571, 43.9258831 ], [ -59.967884, 43.9259098 ], [ -59.9691237, 43.9260702 ], [ -59.9699568, 43.926074 ], [ -59.970538, 43.9260465 ], [ -59.9712843, 43.9259747 ], [ -59.9732524, 43.9256453 ], [ -59.9761082, 43.9255336 ], [ -59.9778314, 43.9255665 ], [ -59.9791717, 43.9255827 ], [ -59.9801703, 43.9257703 ], [ -59.9814626, 43.925904 ], [ -59.9834905, 43.9258578 ], [ -59.9852656, 43.9261801 ], [ -59.9877822, 43.9260815 ], [ -59.9893789, 43.9262439 ], [ -59.991426, 43.9265655 ], [ -59.9940522, 43.9267121 ], [ -59.9951003, 43.9267357 ], [ -59.9964101, 43.9267631 ], [ -59.9977092, 43.926792 ], [ -59.998794, 43.9268113 ], [ -60.0, 43.926952406735126 ], [ -60.0, 43.935044416540599 ], [ -59.9995909, 43.9350218 ] ] ] ] } }
]
}
