{
"type": "FeatureCollection",
"name": "-65_-5",
"crs": { "type": "name", "properties": { "name": "urn:ogc:def:crs:OGC:1.3:CRS84" } },
"xy_coordinate_resolution": 1e-15,
"features": [
{ "type": "Feature", "properties": { "FID": 537252, "id": 847, "left": -65.0, "top": 0.0, "right": -60.0, "bottom": -5.0, "row_index": 18, "col_index": 23, "min_lon": -65.0, "min_lat": -5.0, "tile_id": "-65_-5" }, "geometry": { "type": "MultiPolygon", "coordinates": [ [ [ [ -60.0, 0.0 ], [ -60.0, -5.0 ], [ -65.0, -5.0 ], [ -65.0, 0.0 ], [ -60.0, 0.0 ] ] ] ] } }
]
}
