{
"type": "FeatureCollection",
"name": "-65_-80",
"crs": { "type": "name", "properties": { "name": "urn:ogc:def:crs:OGC:1.3:CRS84" } },
"xy_coordinate_resolution": 1e-15,
"features": [
{ "type": "Feature", "properties": { "FID": 307096, "id": 862, "left": -65.0, "top": -75.0, "right": -60.0, "bottom": -80.0, "row_index": 33, "col_index": 23, "min_lon": -65.0, "min_lat": -80.0, "tile_id": "-65_-80" }, "geometry": { "type": "MultiPolygon", "coordinates": [ [ [ [ -61.03922, -75.0021794 ], [ -61.021579, -75.0069637 ], [ -61.0039267, -75.0117468 ], [ -60.9862629, -75.0165285 ], [ -60.9653197, -75.0230332 ], [ -60.9443581, -75.0295361 ], [ -60.9348795, -75.0327323 ], [ -60.9257853, -75.0356732 ], [ -60.9173213, -75.0383008 ], [ -60.909686, -75.0405606 ], [ -60.9030952, -75.0423903 ], [ -60.897751, -75.0437153 ], [ -60.8939133, -75.0444901 ], [ -60.8917669, -75.0446479 ], [ -60.890282, -75.0446106 ], [ -60.8883465, -75.0448194 ], [ -60.8860251, -75.0452629 ], [ -60.8834302, -75.0459261 ], [ -60.8806163, -75.0467651 ], [ -60.8777092, -75.0477773 ], [ -60.874716, -75.0489223 ], [ -60.8718102, -75.0501938 ], [ -60.8676752, -75.0518483 ], [ -60.861283, -75.0541008 ], [ -60.8529633, -75.0568536 ], [ -60.8430318, -75.0599967 ], [ -60.8317841, -75.0634483 ], [ -60.8195846, -75.0670949 ], [ -60.8067026, -75.0708301 ], [ -60.7935137, -75.0745732 ], [ -60.7760122, -75.0795937 ], [ -60.758872, -75.084812 ], [ -60.7417046, -75.0903693 ], [ -60.7241378, -75.0963991 ], [ -60.7057845, -75.1030221 ], [ -60.6862694, -75.1103716 ], [ -60.6757541, -75.1144722 ], [ -60.665233, -75.1185724 ], [ -60.6537596, -75.1231692 ], [ -60.6422791, -75.1277654 ], [ -60.6240546, -75.1350457 ], [ -60.6055815, -75.1422081 ], [ -60.5874301, -75.1490855 ], [ -60.5700359, -75.1554809 ], [ -60.5539418, -75.1612228 ], [ -60.5396958, -75.1661199 ], [ -60.5277509, -75.1699877 ], [ -60.5186388, -75.1726429 ], [ -60.5111056, -75.1746737 ], [ -60.5037724, -75.176723 ], [ -60.4966958, -75.1787472 ], [ -60.4901734, -75.1806851 ], [ -60.4843759, -75.1824784 ], [ -60.4794257, -75.1840718 ], [ -60.4755863, -75.1854203 ], [ -60.4729843, -75.1864485 ], [ -60.4548335, -75.1919586 ], [ -60.4373753, -75.196112 ], [ -60.4199071, -75.2002641 ], [ -60.3959311, -75.20543 ], [ -60.3719381, -75.2105935 ], [ -60.3528328, -75.2144732 ], [ -60.3337174, -75.2183512 ], [ -60.3145918, -75.2222277 ], [ -60.2935865, -75.2262928 ], [ -60.2725696, -75.2303559 ], [ -60.2515409, -75.2344171 ], [ -60.2298822, -75.2384175 ], [ -60.2082115, -75.2424159 ], [ -60.1865291, -75.2464122 ], [ -60.1654659, -75.2501019 ], [ -60.1443921, -75.2537896 ], [ -60.1233076, -75.2574753 ], [ -60.0944711, -75.2621839 ], [ -60.0656159, -75.2668887 ], [ -60.0545077, -75.2686375 ], [ -60.0428074, -75.2705188 ], [ -60.0309262, -75.2724781 ], [ -60.0191344, -75.2744502 ], [ -60.0078438, -75.2763808 ], [ -60.0, -75.277744939130443 ], [ -60.0, -80.0 ], [ -65.0, -80.0 ], [ -65.0, -75.0 ], [ -61.048090513804539, -75.0 ], [ -61.03922, -75.0021794 ] ] ] ] } }
]
}
