{
"type": "FeatureCollection",
"name": "-65_-35",
"crs": { "type": "name", "properties": { "name": "urn:ogc:def:crs:OGC:1.3:CRS84" } },
"xy_coordinate_resolution": 1e-15,
"features": [
{ "type": "Feature", "properties": { "FID": 537252, "id": 853, "left": -65.0, "top": -30.0, "right": -60.0, "bottom": -35.0, "row_index": 24, "col_index": 23, "min_lon": -65.0, "min_lat": -35.0, "tile_id": "-65_-35" }, "geometry": { "type": "MultiPolygon", "coordinates": [ [ [ [ -60.0, -30.0 ], [ -60.0, -35.0 ], [ -65.0, -35.0 ], [ -65.0, -30.0 ], [ -60.0, -30.0 ] ] ] ] } }
]
}
