{
"type": "FeatureCollection",
"name": "-65_-25",
"crs": { "type": "name", "properties": { "name": "urn:ogc:def:crs:OGC:1.3:CRS84" } },
"xy_coordinate_resolution": 1e-15,
"features": [
{ "type": "Feature", "properties": { "FID": 537252, "id": 851, "left": -65.0, "top": -20.0, "right": -60.0, "bottom": -25.0, "row_index": 22, "col_index": 23, "min_lon": -65.0, "min_lat": -25.0, "tile_id": "-65_-25" }, "geometry": { "type": "MultiPolygon", "coordinates": [ [ [ [ -60.0, -20.0 ], [ -60.0, -25.0 ], [ -65.0, -25.0 ], [ -65.0, -20.0 ], [ -60.0, -20.0 ] ] ] ] } }
]
}
