{
"type": "FeatureCollection",
"name": "-70_0",
"crs": { "type": "name", "properties": { "name": "urn:ogc:def:crs:OGC:1.3:CRS84" } },
"xy_coordinate_resolution": 1e-15,
"features": [
{ "type": "Feature", "properties": { "FID": 537252, "id": 810, "left": -70.0, "top": 5.0, "right": -65.0, "bottom": 0.0, "row_index": 17, "col_index": 22, "min_lon": -70.0, "min_lat": 0.0, "tile_id": "-70_0" }, "geometry": { "type": "MultiPolygon", "coordinates": [ [ [ [ -65.0, 5.0 ], [ -65.0, 0.0 ], [ -70.0, 0.0 ], [ -70.0, 5.0 ], [ -65.0, 5.0 ] ] ] ] } }
]
}
