{
"type": "FeatureCollection",
"name": "-70_-75",
"crs": { "type": "name", "properties": { "name": "urn:ogc:def:crs:OGC:1.3:CRS84" } },
"xy_coordinate_resolution": 1e-15,
"features": [
{ "type": "Feature", "properties": { "FID": 307096, "id": 825, "left": -70.0, "top": -70.0, "right": -65.0, "bottom": -75.0, "row_index": 32, "col_index": 22, "min_lon": -70.0, "min_lat": -75.0, "tile_id": "-70_-75" }, "geometry": { "type": "MultiPolygon", "coordinates": [ [ [ [ -69.2137337, -70.0004737 ], [ -69.212836, -70.0012831 ], [ -69.2101786, -70.0027911 ], [ -69.2091761, -70.0032511 ], [ -69.2072247, -70.0043443 ], [ -69.2046865, -70.0048568 ], [ -69.2027712, -70.0050298 ], [ -69.2020659, -70.0054435 ], [ -69.1996909, -70.0058088 ], [ -69.1984001, -70.005641 ], [ -69.1967612, -70.0053431 ], [ -69.1958183, -70.0053053 ], [ -69.1930731, -70.0051169 ], [ -69.1916495, -70.0048469 ], [ -69.1903586, -70.004679 ], [ -69.1848395, -70.0045515 ], [ -69.1829342, -70.0040502 ], [ -69.1822373, -70.003791 ], [ -69.181837, -70.0034867 ], [ -69.1810589, -70.0033007 ], [ -69.1796047, -70.0032799 ], [ -69.1770258, -70.0047144 ], [ -69.1757992, -70.005818 ], [ -69.1745621, -70.0075956 ], [ -69.1734988, -70.008552 ], [ -69.1715127, -70.0098951 ], [ -69.1707971, -70.0109817 ], [ -69.1702154, -70.0121694 ], [ -69.168854, -70.013172 ], [ -69.1668778, -70.013841 ], [ -69.1645333, -70.0157269 ], [ -69.1636831, -70.0167123 ], [ -69.1638887, -70.0174132 ], [ -69.163664, -70.0180582 ], [ -69.162169, -70.0189585 ], [ -69.1608465, -70.0190398 ], [ -69.1596578, -70.0192221 ], [ -69.1586843, -70.0194325 ], [ -69.1567683, -70.0196038 ], [ -69.1551179, -70.0199795 ], [ -69.1536013, -70.0204562 ], [ -69.1520245, -70.0214296 ], [ -69.151246, -70.0230138 ], [ -69.150754, -70.0234554 ], [ -69.1497598, -70.0250116 ], [ -69.1496672, -70.0257586 ], [ -69.1495126, -70.0260732 ], [ -69.1526344, -70.0259501 ], [ -69.1579839, -70.0255849 ], [ -69.1613415, -70.0250799 ], [ -69.1633756, -70.0247433 ], [ -69.1661815, -70.0242405 ], [ -69.1688609, -70.0235874 ], [ -69.1716257, -70.0229454 ], [ -69.1742169, -70.0225474 ], [ -69.1756169, -70.0224294 ], [ -69.1771243, -70.0223912 ], [ -69.1784471, -70.0224306 ], [ -69.180187, -70.0226233 ], [ -69.1827952, -70.0232623 ], [ -69.1849606, -70.024212 ], [ -69.1862836, -70.0252182 ], [ -69.1870863, -70.0266909 ], [ -69.1877196, -70.0281417 ], [ -69.1883757, -70.0293959 ], [ -69.1882816, -70.0308859 ], [ -69.1870782, -70.032232 ], [ -69.1854751, -70.0330588 ], [ -69.1835739, -70.033713 ], [ -69.1821003, -70.0344227 ], [ -69.1812242, -70.0352101 ], [ -69.1806133, -70.0361992 ], [ -69.1808344, -70.0372297 ], [ -69.1817386, -70.0383488 ], [ -69.183114, -70.0393952 ], [ -69.1846522, -70.0402954 ], [ -69.185862, -70.0410537 ], [ -69.1866426, -70.0417563 ], [ -69.1872835, -70.0426738 ], [ -69.1874966, -70.0435357 ], [ -69.187359, -70.0441859 ], [ -69.1871616, -70.0446277 ], [ -69.1839593, -70.0474511 ], [ -69.1806768, -70.0503992 ], [ -69.179161, -70.0518686 ], [ -69.1782093, -70.0531616 ], [ -69.1762761, -70.0559922 ], [ -69.1746509, -70.058656 ], [ -69.1740524, -70.0594116 ], [ -69.1732413, -70.0601394 ], [ -69.1722429, -70.0609267 ], [ -69.1703599, -70.061849 ], [ -69.1682232, -70.0627789 ], [ -69.1654624, -70.0635035 ], [ -69.1626503, -70.0640552 ], [ -69.1607197, -70.0644716 ], [ -69.1590184, -70.0647922 ], [ -69.1568509, -70.0650941 ], [ -69.1537183, -70.0656029 ], [ -69.1506355, -70.0662867 ], [ -69.1479788, -70.0670246 ], [ -69.1462336, -70.0677137 ], [ -69.144994, -70.068386 ], [ -69.1439012, -70.0690366 ], [ -69.1426066, -70.069868 ], [ -69.141123, -70.0707584 ], [ -69.139573, -70.0715985 ], [ -69.1375565, -70.0724196 ], [ -69.1354639, -70.072981 ], [ -69.1332782, -70.073406 ], [ -69.1304793, -70.0738336 ], [ -69.1275069, -70.0741968 ], [ -69.125042, -70.0745435 ], [ -69.1227501, -70.0749533 ], [ -69.1196093, -70.0757956 ], [ -69.1165874, -70.0769499 ], [ -69.1149616, -70.0779487 ], [ -69.1140469, -70.0787661 ], [ -69.1133607, -70.079691 ], [ -69.1129593, -70.0804149 ], [ -69.1125718, -70.0814396 ], [ -69.1118961, -70.0821483 ], [ -69.1109263, -70.0828581 ], [ -69.1102042, -70.0832414 ], [ -69.1096554, -70.083628 ], [ -69.1090325, -70.0841844 ], [ -69.1085837, -70.0847419 ], [ -69.1085093, -70.0853303 ], [ -69.1087406, -70.0859572 ], [ -69.1090704, -70.0864977 ], [ -69.1094374, -70.0870034 ], [ -69.1096969, -70.0875551 ], [ -69.1097752, -70.088162 ], [ -69.1097074, -70.0888493 ], [ -69.1093001, -70.0894733 ], [ -69.1081133, -70.0905329 ], [ -69.1073423, -70.0911694 ], [ -69.1065559, -70.0919233 ], [ -69.1063146, -70.0926084 ], [ -69.1064575, -70.0935229 ], [ -69.1066777, -70.0945263 ], [ -69.1069616, -70.0954196 ], [ -69.1071457, -70.0962988 ], [ -69.1070726, -70.0971456 ], [ -69.1069064, -70.0979206 ], [ -69.1063551, -70.0987244 ], [ -69.1056851, -70.099374 ], [ -69.1051983, -70.0998084 ], [ -69.1025063, -70.1018468 ], [ -69.1015509, -70.102975 ], [ -69.0953058, -70.1194801 ], [ -69.0931825, -70.1241996 ], [ -69.0768279, -70.1267442 ], [ -69.0629403, -70.1302188 ], [ -69.0543169, -70.1309827 ], [ -69.0454043, -70.1339725 ], [ -69.0401143, -70.1317741 ], [ -69.028361, -70.1313743 ], [ -69.0130439, -70.1331504 ], [ -69.0006258, -70.1353041 ], [ -68.9922219, -70.136849 ], [ -68.9934912, -70.1396568 ], [ -68.9908902, -70.1419595 ], [ -68.9859814, -70.1443383 ], [ -68.9730306, -70.143024 ], [ -68.9585187, -70.1411269 ], [ -68.9312868, -70.1386954 ], [ -68.9112023, -70.1368185 ], [ -68.8857624, -70.1357463 ], [ -68.8605443, -70.1354546 ], [ -68.8390365, -70.1367811 ], [ -68.8207988, -70.1381581 ], [ -68.8066407, -70.1408273 ], [ -68.7910798, -70.1417988 ], [ -68.7720277, -70.1419302 ], [ -68.7488964, -70.140764 ], [ -68.7278619, -70.1387374 ], [ -68.7062918, -70.1381494 ], [ -68.6824155, -70.1376308 ], [ -68.6581636, -70.1374369 ], [ -68.6348769, -70.137368 ], [ -68.6137297, -70.1383374 ], [ -68.6012254, -70.1385641 ], [ -68.5886829, -70.1368923 ], [ -68.5921252, -70.1358373 ], [ -68.5998043, -70.1349686 ], [ -68.5983834, -70.1313732 ], [ -68.5933143, -70.128048 ], [ -68.5827075, -70.126633 ], [ -68.5696246, -70.1264006 ], [ -68.5590556, -70.1268816 ], [ -68.5530996, -70.1272214 ], [ -68.5299669, -70.1241278 ], [ -68.5143748, -70.1231764 ], [ -68.5012655, -70.1210412 ], [ -68.4923631, -70.1171966 ], [ -68.475992, -70.1149998 ], [ -68.4636523, -70.1122062 ], [ -68.4501761, -70.1103949 ], [ -68.4435932, -70.106479 ], [ -68.4418233, -70.1032102 ], [ -68.4402324, -70.098829 ], [ -68.4344613, -70.098052 ], [ -68.4305691, -70.0937395 ], [ -68.425364, -70.0901601 ], [ -68.4260205, -70.0901208 ], [ -68.4267824, -70.0900504 ], [ -68.4275029, -70.0898515 ], [ -68.4287804, -70.0900894 ], [ -68.4307013, -70.0903482 ], [ -68.43183, -70.090445 ], [ -68.4325676, -70.0904002 ], [ -68.4334124, -70.0902905 ], [ -68.4345895, -70.0900934 ], [ -68.4357313, -70.0898688 ], [ -68.4366185, -70.0896098 ], [ -68.4376012, -70.0892412 ], [ -68.4387001, -70.0886322 ], [ -68.4395093, -70.0880179 ], [ -68.4399009, -70.0873138 ], [ -68.4400512, -70.0866215 ], [ -68.4399424, -70.086095 ], [ -68.4390279, -70.0846035 ], [ -68.4389335, -70.0838109 ], [ -68.4390349, -70.0829344 ], [ -68.4394407, -70.0823318 ], [ -68.4406936, -70.0811093 ], [ -68.4408975, -70.080792 ], [ -68.4409879, -70.0803477 ], [ -68.4409478, -70.0798196 ], [ -68.4408136, -70.0791888 ], [ -68.4405894, -70.078636 ], [ -68.4399834, -70.0774971 ], [ -68.4396275, -70.076959 ], [ -68.4393786, -70.0764701 ], [ -68.4392709, -70.075999 ], [ -68.4393228, -70.0755604 ], [ -68.4396833, -70.0751079 ], [ -68.4402022, -70.0746889 ], [ -68.4408744, -70.0743337 ], [ -68.4420952, -70.0738423 ], [ -68.4425605, -70.0735819 ], [ -68.4433989, -70.0730269 ], [ -68.4439027, -70.0727608 ], [ -68.444655, -70.0725065 ], [ -68.4475542, -70.0718063 ], [ -68.4487997, -70.0714058 ], [ -68.4494795, -70.0712416 ], [ -68.4504127, -70.0710561 ], [ -68.4515542, -70.0708868 ], [ -68.4527645, -70.0707159 ], [ -68.4551147, -70.0704318 ], [ -68.4572118, -70.0701136 ], [ -68.460058, -70.0699286 ], [ -68.4600422, -70.0695133 ], [ -68.4609351, -70.068956 ], [ -68.4641157, -70.066421 ], [ -68.4655234, -70.0658478 ], [ -68.4673138, -70.065158 ], [ -68.4700248, -70.0628132 ], [ -68.4710866, -70.0621093 ], [ -68.4718549, -70.061874 ], [ -68.4721882, -70.0611563 ], [ -68.4723512, -70.060586 ], [ -68.4727752, -70.0602192 ], [ -68.4718527, -70.0586561 ], [ -68.4719314, -70.0581586 ], [ -68.4717504, -70.0574568 ], [ -68.4715626, -70.0563313 ], [ -68.471388, -70.0560532 ], [ -68.4721946, -70.0555697 ], [ -68.4734317, -70.055143 ], [ -68.4753117, -70.0548039 ], [ -68.4792416, -70.0539783 ], [ -68.481285, -70.053068 ], [ -68.4825672, -70.0528167 ], [ -68.4837573, -70.0522154 ], [ -68.4849545, -70.0520379 ], [ -68.4863203, -70.0517138 ], [ -68.487641, -70.0512142 ], [ -68.4883505, -70.0499551 ], [ -68.489067, -70.0491196 ], [ -68.4893599, -70.048651 ], [ -68.4876818, -70.0481718 ], [ -68.4866087, -70.0480273 ], [ -68.4838921, -70.0467297 ], [ -68.4832417, -70.0462194 ], [ -68.4829298, -70.0454159 ], [ -68.4824042, -70.0445825 ], [ -68.4816246, -70.0439696 ], [ -68.4812755, -70.0434145 ], [ -68.4801786, -70.0415734 ], [ -68.4798212, -70.0405946 ], [ -68.4763775, -70.0392839 ], [ -68.4753836, -70.038642 ], [ -68.4754568, -70.0377199 ], [ -68.4770246, -70.0365765 ], [ -68.477994, -70.0355217 ], [ -68.4800687, -70.0339387 ], [ -68.4811672, -70.0329867 ], [ -68.4836304, -70.0317105 ], [ -68.4852422, -70.0307425 ], [ -68.4875428, -70.0300365 ], [ -68.4899792, -70.0298567 ], [ -68.4922083, -70.0300717 ], [ -68.4949954, -70.0304471 ], [ -68.4952422, -70.0298031 ], [ -68.4934562, -70.0277001 ], [ -68.4917671, -70.0263726 ], [ -68.4894621, -70.023861 ], [ -68.4876705, -70.0213344 ], [ -68.4872746, -70.0206037 ], [ -68.4858529, -70.0199042 ], [ -68.4820292, -70.0187114 ], [ -68.480693, -70.017938 ], [ -68.4786554, -70.0160552 ], [ -68.4776588, -70.0149889 ], [ -68.4764403, -70.0134699 ], [ -68.4751032, -70.0126975 ], [ -68.4737224, -70.0117486 ], [ -68.4728991, -70.0109602 ], [ -68.4743292, -70.0092907 ], [ -68.4755116, -70.0082649 ], [ -68.4771208, -70.007298 ], [ -68.4788096, -70.0058327 ], [ -68.4799529, -70.0050551 ], [ -68.4807572, -70.0045717 ], [ -68.4804926, -70.0039428 ], [ -68.4796174, -70.0025554 ], [ -68.4793073, -70.001751 ], [ -68.4793404, -70.0010782 ], [ -68.480111485981752, -70.0 ], [ -65.0, -70.0 ], [ -65.0, -75.0 ], [ -70.0, -75.0 ], [ -70.0, -70.0 ], [ -69.214113469844634, -70.0 ], [ -69.2137337, -70.0004737 ] ] ] ] } }
]
}
