{
"type": "FeatureCollection",
"name": "-70_5",
"crs": { "type": "name", "properties": { "name": "urn:ogc:def:crs:OGC:1.3:CRS84" } },
"xy_coordinate_resolution": 1e-15,
"features": [
{ "type": "Feature", "properties": { "FID": 537252, "id": 809, "left": -70.0, "top": 10.0, "right": -65.0, "bottom": 5.0, "row_index": 16, "col_index": 22, "min_lon": -70.0, "min_lat": 5.0, "tile_id": "-70_5" }, "geometry": { "type": "MultiPolygon", "coordinates": [ [ [ [ -65.0, 10.0 ], [ -65.0, 5.0 ], [ -70.0, 5.0 ], [ -70.0, 10.0 ], [ -65.0, 10.0 ] ] ] ] } }
]
}
