{
"type": "FeatureCollection",
"name": "-70_-85",
"crs": { "type": "name", "properties": { "name": "urn:ogc:def:crs:OGC:1.3:CRS84" } },
"xy_coordinate_resolution": 1e-15,
"features": [
{ "type": "Feature", "properties": { "FID": 307096, "id": 827, "left": -70.0, "top": -80.0, "right": -65.0, "bottom": -85.0, "row_index": 34, "col_index": 22, "min_lon": -70.0, "min_lat": -85.0, "tile_id": "-70_-85" }, "geometry": { "type": "MultiPolygon", "coordinates": [ [ [ [ -65.0, -80.0 ], [ -65.0, -85.0 ], [ -70.0, -85.0 ], [ -70.0, -80.0 ], [ -65.0, -80.0 ] ] ] ] } }
]
}
