{
"type": "FeatureCollection",
"name": "-70_-40",
"crs": { "type": "name", "properties": { "name": "urn:ogc:def:crs:OGC:1.3:CRS84" } },
"xy_coordinate_resolution": 1e-15,
"features": [
{ "type": "Feature", "properties": { "FID": 537252, "id": 818, "left": -70.0, "top": -35.0, "right": -65.0, "bottom": -40.0, "row_index": 25, "col_index": 22, "min_lon": -70.0, "min_lat": -40.0, "tile_id": "-70_-40" }, "geometry": { "type": "MultiPolygon", "coordinates": [ [ [ [ -65.0, -35.0 ], [ -65.0, -40.0 ], [ -70.0, -40.0 ], [ -70.0, -35.0 ], [ -65.0, -35.0 ] ] ] ] } }
]
}
