{
"type": "FeatureCollection",
"name": "-70_-90",
"crs": { "type": "name", "properties": { "name": "urn:ogc:def:crs:OGC:1.3:CRS84" } },
"xy_coordinate_resolution": 1e-15,
"features": [
{ "type": "Feature", "properties": { "FID": 307096, "id": 828, "left": -70.0, "top": -85.0, "right": -65.0, "bottom": -90.0, "row_index": 35, "col_index": 22, "min_lon": -70.0, "min_lat": -90.0, "tile_id": "-70_-90" }, "geometry": { "type": "MultiPolygon", "coordinates": [ [ [ [ -66.0, -90.0 ], [ -67.0, -90.0 ], [ -68.0, -90.0 ], [ -69.0, -90.0 ], [ -70.0, -90.0 ], [ -70.0, -85.0 ], [ -65.0, -85.0 ], [ -65.0, -90.0 ], [ -66.0, -90.0 ] ] ] ] } }
]
}
