{
"type": "FeatureCollection",
"name": "-75_-80",
"crs": { "type": "name", "properties": { "name": "urn:ogc:def:crs:OGC:1.3:CRS84" } },
"xy_coordinate_resolution": 1e-15,
"features": [
{ "type": "Feature", "properties": { "FID": 307096, "id": 790, "left": -75.0, "top": -75.0, "right": -70.0, "bottom": -80.0, "row_index": 33, "col_index": 21, "min_lon": -75.0, "min_lat": -80.0, "tile_id": "-75_-80" }, "geometry": { "type": "MultiPolygon", "coordinates": [ [ [ [ -70.0, -75.0 ], [ -70.0, -80.0 ], [ -75.0, -80.0 ], [ -75.0, -75.0 ], [ -70.0, -75.0 ] ] ] ] } }
]
}
