{
"type": "FeatureCollection",
"name": "-80_-85",
"crs": { "type": "name", "properties": { "name": "urn:ogc:def:crs:OGC:1.3:CRS84" } },
"xy_coordinate_resolution": 1e-15,
"features": [
{ "type": "Feature", "properties": { "FID": 307096, "id": 755, "left": -80.0, "top": -80.0, "right": -75.0, "bottom": -85.0, "row_index": 34, "col_index": 20, "min_lon": -80.0, "min_lat": -85.0, "tile_id": "-80_-85" }, "geometry": { "type": "MultiPolygon", "coordinates": [ [ [ [ -75.0, -80.0 ], [ -75.0, -85.0 ], [ -80.0, -85.0 ], [ -80.0, -80.0 ], [ -75.0, -80.0 ] ] ] ] } }
]
}
