{
"type": "FeatureCollection",
"name": "-80_-70",
"crs": { "type": "name", "properties": { "name": "urn:ogc:def:crs:OGC:1.3:CRS84" } },
"xy_coordinate_resolution": 1e-15,
"features": [
{ "type": "Feature", "properties": { "FID": 316486, "id": 752, "left": -80.0, "top": -65.0, "right": -75.0, "bottom": -70.0, "row_index": 31, "col_index": 20, "min_lon": -80.0, "min_lat": -70.0, "tile_id": "-80_-70" }, "geometry": { "type": "MultiPolygon", "coordinates": [ [ [ [ -75.4015367, -69.7602867 ], [ -75.400585, -69.7602009 ], [ -75.3981695, -69.760336 ], [ -75.3973036, -69.7602579 ], [ -75.3971156, -69.7602599 ], [ -75.3970769, -69.7602603 ], [ -75.3957188, -69.7602741 ], [ -75.3927244, -69.7601955 ], [ -75.3925679, -69.7601767 ], [ -75.3925019, -69.7601689 ], [ -75.3916207, -69.7600636 ], [ -75.3908483, -69.7597378 ], [ -75.3905322, -69.7594209 ], [ -75.3903436, -69.75918 ], [ -75.3892855, -69.7589876 ], [ -75.3889394, -69.7589564 ], [ -75.3877751, -69.7586598 ], [ -75.3869871, -69.7581088 ], [ -75.3822543, -69.758129 ], [ -75.3814214, -69.7583745 ], [ -75.3806857, -69.7589818 ], [ -75.379991, -69.7590459 ], [ -75.3793425, -69.7589228 ], [ -75.3788899, -69.7587873 ], [ -75.3779671, -69.7584155 ], [ -75.3768713, -69.7580281 ], [ -75.3752561, -69.7575938 ], [ -75.3725189, -69.7576671 ], [ -75.3709328, -69.757683 ], [ -75.3696926, -69.7577324 ], [ -75.367518, -69.7579189 ], [ -75.3654752, -69.757928 ], [ -75.3644329, -69.7579607 ], [ -75.3635619, -69.7580111 ], [ -75.3619777, -69.757291 ], [ -75.3607323, -69.7561215 ], [ -75.3603561, -69.7556375 ], [ -75.3588066, -69.7545051 ], [ -75.3582496, -69.7542609 ], [ -75.3577517, -69.7541858 ], [ -75.3570861, -69.7539641 ], [ -75.3560932, -69.7538096 ], [ -75.3548346, -69.7537603 ], [ -75.354184, -69.753766 ], [ -75.3537009, -69.7539138 ], [ -75.3519985, -69.7542097 ], [ -75.3512795, -69.7543039 ], [ -75.349522, -69.754304 ], [ -75.348539, -69.7540834 ], [ -75.3473136, -69.7539725 ], [ -75.3466988, -69.7540299 ], [ -75.3458961, -69.7538995 ], [ -75.3446333, -69.7537298 ], [ -75.3435054, -69.7535999 ], [ -75.3423492, -69.7537213 ], [ -75.3412747, -69.7537371 ], [ -75.3401577, -69.7538066 ], [ -75.3385966, -69.7540321 ], [ -75.3352661, -69.7543257 ], [ -75.3335968, -69.7542598 ], [ -75.3323089, -69.7543415 ], [ -75.3310603, -69.7543691 ], [ -75.33016, -69.7542598 ], [ -75.3295881, -69.7541502 ], [ -75.3288226, -69.7540808 ], [ -75.3275935, -69.7540848 ], [ -75.3267872, -69.754067 ], [ -75.3260217, -69.7539976 ], [ -75.3250431, -69.7539943 ], [ -75.3240468, -69.7539039 ], [ -75.3234146, -69.7538742 ], [ -75.322919, -69.7537739 ], [ -75.3223101, -69.7536056 ], [ -75.322028, -69.7534369 ], [ -75.3211292, -69.7533277 ], [ -75.3180214, -69.7532165 ], [ -75.3167963, -69.7531053 ], [ -75.3160149, -69.752949 ], [ -75.3147132, -69.7528308 ], [ -75.3134916, -69.7526069 ], [ -75.3118204, -69.7526536 ], [ -75.3108614, -69.7526219 ], [ -75.3094796, -69.7526096 ], [ -75.3069629, -69.7526926 ], [ -75.3056773, -69.7526613 ], [ -75.3047751, -69.7526647 ], [ -75.3004598, -69.7525289 ], [ -75.2992754, -69.7523635 ], [ -75.2979899, -69.7523321 ], [ -75.2977023, -69.7522783 ], [ -75.2970953, -69.7521077 ], [ -75.2964828, -69.752052 ], [ -75.2939932, -69.7518834 ], [ -75.2921633, -69.7514909 ], [ -75.2910789, -69.7511938 ], [ -75.2902004, -69.7510562 ], [ -75.2895153, -69.7508808 ], [ -75.2889673, -69.7506325 ], [ -75.2876931, -69.7502627 ], [ -75.286268, -69.7498768 ], [ -75.2849337, -69.7495846 ], [ -75.283157, -69.7493399 ], [ -75.2828868, -69.7493707 ], [ -75.2816212, -69.7493132 ], [ -75.2796894, -69.7491651 ], [ -75.2794021, -69.7491113 ], [ -75.2771068, -69.7489024 ], [ -75.2749366, -69.7489587 ], [ -75.2741935, -69.7487503 ], [ -75.2735946, -69.7483541 ], [ -75.2723131, -69.7482097 ], [ -75.2701881, -69.7486395 ], [ -75.2676896, -69.7486958 ], [ -75.2666113, -69.7488238 ], [ -75.2657815, -69.7489468 ], [ -75.2650242, -69.7491894 ], [ -75.2633688, -69.7493225 ], [ -75.2627155, -69.7493207 ], [ -75.2619133, -69.7491899 ], [ -75.2609841, -69.7489067 ], [ -75.259824, -69.7486024 ], [ -75.2593077, -69.7485277 ], [ -75.2586757, -69.7484978 ], [ -75.2579459, -69.748489 ], [ -75.2574255, -69.7485269 ], [ -75.2557034, -69.7484254 ], [ -75.254978, -69.7483038 ], [ -75.2544868, -69.7480882 ], [ -75.2508704, -69.7472482 ], [ -75.2494078, -69.7468031 ], [ -75.2481307, -69.7465458 ], [ -75.2456232, -69.7458623 ], [ -75.2445162, -69.7457035 ], [ -75.2432353, -69.7455589 ], [ -75.2423176, -69.7454752 ], [ -75.2403129, -69.7452068 ], [ -75.2394374, -69.7449583 ], [ -75.2389507, -69.7446299 ], [ -75.2392217, -69.744059 ], [ -75.2392012, -69.7435469 ], [ -75.2385138, -69.7429462 ], [ -75.2381996, -69.7426059 ], [ -75.2370771, -69.7423603 ], [ -75.236698, -69.7422125 ], [ -75.23653, -69.7421117 ], [ -75.2365013, -69.7418275 ], [ -75.2355555, -69.7414571 ], [ -75.2335173, -69.7415549 ], [ -75.2325844, -69.7413843 ], [ -75.2315129, -69.7412864 ], [ -75.2311341, -69.7411387 ], [ -75.230467, -69.7410477 ], [ -75.2294845, -69.7406186 ], [ -75.2280047, -69.7401994 ], [ -75.2268003, -69.7400616 ], [ -75.2261122, -69.7399987 ], [ -75.2254083, -69.7398489 ], [ -75.2248007, -69.7396803 ], [ -75.2243143, -69.7393518 ], [ -75.2229377, -69.738688 ], [ -75.2223185, -69.7383197 ], [ -75.2212444, -69.7377967 ], [ -75.2203712, -69.737546 ], [ -75.2201834, -69.7374711 ], [ -75.2199967, -69.7372855 ], [ -75.2194839, -69.7372086 ], [ -75.2184396, -69.737397 ], [ -75.2162904, -69.7374267 ], [ -75.2156783, -69.7373707 ], [ -75.2145986, -69.7375006 ], [ -75.2136533, -69.7376681 ], [ -75.2127544, -69.7380961 ], [ -75.212487, -69.7385542 ], [ -75.2125138, -69.7393786 ], [ -75.2117519, -69.7397338 ], [ -75.2107132, -69.7398096 ], [ -75.2085156, -69.7395808 ], [ -75.2078515, -69.7393769 ], [ -75.2069317, -69.7388678 ], [ -75.206266, -69.738666 ], [ -75.2046711, -69.7382915 ], [ -75.2033609, -69.7384001 ], [ -75.2022218, -69.7386075 ], [ -75.2010415, -69.7388666 ], [ -75.1985526, -69.7392344 ], [ -75.1976098, -69.7392913 ], [ -75.1968256, -69.7392472 ], [ -75.1961373, -69.7391841 ], [ -75.1953362, -69.739053 ], [ -75.194883, -69.7388983 ], [ -75.1946612, -69.7386517 ], [ -75.1944352, -69.7385179 ], [ -75.1934616, -69.738401 ], [ -75.192464, -69.7384227 ], [ -75.1915887, -69.7377468 ], [ -75.1902609, -69.7373411 ], [ -75.1892486, -69.736738 ], [ -75.1887763, -69.7360712 ], [ -75.1882145, -69.7357357 ], [ -75.1878053, -69.7354142 ], [ -75.1865979, -69.7348509 ], [ -75.1860669, -69.734689 ], [ -75.1826727, -69.7342069 ], [ -75.1807461, -69.7339448 ], [ -75.1799057, -69.7338677 ], [ -75.1787022, -69.7337296 ], [ -75.1772869, -69.7336552 ], [ -75.176042, -69.733571 ], [ -75.1746574, -69.7336703 ], [ -75.1735335, -69.7339644 ], [ -75.1713133, -69.7348368 ], [ -75.1692451, -69.7351874 ], [ -75.1667254, -69.735381 ], [ -75.1655587, -69.7353016 ], [ -75.1639006, -69.7350085 ], [ -75.1605738, -69.7337954 ], [ -75.1594162, -69.7334904 ], [ -75.1585089, -69.7331807 ], [ -75.1574839, -69.7329157 ], [ -75.1564179, -69.7327046 ], [ -75.1553075, -69.7326603 ], [ -75.1545558, -69.7327875 ], [ -75.1535553, -69.7328111 ], [ -75.1522679, -69.7328914 ], [ -75.1513301, -69.7328329 ], [ -75.1502167, -69.7328991 ], [ -75.1492347, -69.7330075 ], [ -75.1482705, -69.7330898 ], [ -75.1476329, -69.7331743 ], [ -75.1470503, -69.7334026 ], [ -75.1466415, -69.7335082 ], [ -75.1456696, -69.7338161 ], [ -75.1444953, -69.7339621 ], [ -75.1431102, -69.7340611 ], [ -75.1416841, -69.7342141 ], [ -75.1408589, -69.7342236 ], [ -75.1391688, -69.7342945 ], [ -75.1382581, -69.7345226 ], [ -75.1374409, -69.7343065 ], [ -75.1370642, -69.7341587 ], [ -75.1339431, -69.7344951 ], [ -75.1328876, -69.7344835 ], [ -75.1317974, -69.7344108 ], [ -75.1300509, -69.7344487 ], [ -75.1293281, -69.7343245 ], [ -75.1285688, -69.7341414 ], [ -75.1275571, -69.7335378 ], [ -75.1271122, -69.7331573 ], [ -75.1265611, -69.7325961 ], [ -75.1260862, -69.7320419 ], [ -75.1256606, -69.7312081 ], [ -75.1254241, -69.7304495 ], [ -75.1245982, -69.7300316 ], [ -75.1238439, -69.7297358 ], [ -75.1222069, -69.7294164 ], [ -75.120603, -69.7292686 ], [ -75.1184952, -69.728818 ], [ -75.1170074, -69.7286232 ], [ -75.1154998, -69.7284565 ], [ -75.1143929, -69.7282991 ], [ -75.1132928, -69.7280267 ], [ -75.1122983, -69.72751 ], [ -75.1115957, -69.7273598 ], [ -75.1106116, -69.7270427 ], [ -75.1081069, -69.7268972 ], [ -75.1066063, -69.7270406 ], [ -75.1047827, -69.7270711 ], [ -75.1033466, -69.7270241 ], [ -75.1015741, -69.7267751 ], [ -75.097241, -69.7263476 ], [ -75.0955798, -69.7261665 ], [ -75.0938652, -69.7259505 ], [ -75.0909967, -69.7257434 ], [ -75.0893122, -69.7257011 ], [ -75.0873065, -69.7255436 ], [ -75.0851715, -69.7252332 ], [ -75.0838947, -69.7250875 ], [ -75.0826376, -69.7249136 ], [ -75.0815628, -69.7245024 ], [ -75.0796819, -69.7240745 ], [ -75.0783438, -69.7240062 ], [ -75.0764921, -69.7238628 ], [ -75.073965, -69.7237447 ], [ -75.0717872, -69.7240239 ], [ -75.0680094, -69.7240442 ], [ -75.0653214, -69.7241352 ], [ -75.0644256, -69.7240246 ], [ -75.0634026, -69.723759 ], [ -75.062548, -69.7235944 ], [ -75.0618082, -69.723385 ], [ -75.0606111, -69.7231333 ], [ -75.0596312, -69.7228139 ], [ -75.0588715, -69.7226304 ], [ -75.0581332, -69.7224211 ], [ -75.0574659, -69.7223316 ], [ -75.0569977, -69.7220896 ], [ -75.0565442, -69.7219344 ], [ -75.0551449, -69.7219458 ], [ -75.0542198, -69.7216614 ], [ -75.0534261, -69.7209918 ], [ -75.052867, -69.7206558 ], [ -75.0519861, -69.720632 ], [ -75.0510224, -69.7207138 ], [ -75.049439, -69.7209645 ], [ -75.0477395, -69.72126 ], [ -75.0458312, -69.7215083 ], [ -75.0439663, -69.721592 ], [ -75.0425766, -69.7218029 ], [ -75.0415182, -69.7219036 ], [ -75.0374819, -69.7221533 ], [ -75.0340361, -69.7220603 ], [ -75.0318414, -69.7222543 ], [ -75.0294219, -69.7223141 ], [ -75.0269225, -69.7224797 ], [ -75.0236597, -69.7225745 ], [ -75.0208808, -69.7225708 ], [ -75.017689, -69.7223601 ], [ -75.013663, -69.7219586 ], [ -75.0120353, -69.7215232 ], [ -75.0099455, -69.7211581 ], [ -75.0090446, -69.7207347 ], [ -75.0084501, -69.7203398 ], [ -75.0079319, -69.7199496 ], [ -75.0073174, -69.7195806 ], [ -75.0059347, -69.7192533 ], [ -75.0049055, -69.7191023 ], [ -75.0034918, -69.7190264 ], [ -75.0015671, -69.7191895 ], [ -75.0005957, -69.7190692 ], [ -75.0, -69.71891481106546 ], [ -75.0, -70.0 ], [ -75.810161908955024, -70.0 ], [ -75.8093516, -69.9994407 ], [ -75.8077063, -69.9988835 ], [ -75.8064133, -69.9984835 ], [ -75.8060426, -69.9980988 ], [ -75.8058086, -69.9972789 ], [ -75.8050698, -69.9962539 ], [ -75.8044391, -69.9955909 ], [ -75.8037826, -69.9949602 ], [ -75.8031763, -69.9940112 ], [ -75.8026325, -69.9933557 ], [ -75.8020054, -69.9920546 ], [ -75.8011695, -69.9923002 ], [ -75.8010178, -69.9918723 ], [ -75.8010894, -69.9912701 ], [ -75.8001434, -69.9887568 ], [ -75.7993823, -69.9880179 ], [ -75.7986447, -69.9867395 ], [ -75.7981932, -69.9857071 ], [ -75.7978284, -69.9846845 ], [ -75.7977027, -69.9838417 ], [ -75.7980845, -69.9828193 ], [ -75.7982686, -69.9818121 ], [ -75.7979456, -69.9811112 ], [ -75.7982377, -69.9802101 ], [ -75.799615, -69.9783453 ], [ -75.8000853, -69.9773307 ], [ -75.8005767, -69.9764123 ], [ -75.8013966, -69.9755547 ], [ -75.8014648, -69.9749546 ], [ -75.8019142, -69.9739681 ], [ -75.8021379, -69.9732846 ], [ -75.8022338, -69.9723965 ], [ -75.8025256, -69.9714954 ], [ -75.8028999, -69.9688387 ], [ -75.8042108, -69.9668093 ], [ -75.8040839, -69.9660955 ], [ -75.8037162, -69.9654552 ], [ -75.8031312, -69.9647316 ], [ -75.8026729, -69.9643416 ], [ -75.8035395, -69.9629121 ], [ -75.8039663, -69.9617025 ], [ -75.8050964, -69.9602958 ], [ -75.8053694, -69.9591673 ], [ -75.805396, -69.9586258 ], [ -75.8055549, -69.9579045 ], [ -75.8064666, -69.9562877 ], [ -75.8067588, -69.9555135 ], [ -75.8071133, -69.9550327 ], [ -75.8084123, -69.9541545 ], [ -75.8083986, -69.9532893 ], [ -75.8081379, -69.9528819 ], [ -75.8079713, -69.9519711 ], [ -75.8075361, -69.951295 ], [ -75.8072378, -69.9503083 ], [ -75.8066295, -69.949744 ], [ -75.8068531, -69.9490606 ], [ -75.8074971, -69.9480589 ], [ -75.8077221, -69.9473756 ], [ -75.8077905, -69.9469023 ], [ -75.8075804, -69.9459232 ], [ -75.8076947, -69.9452626 ], [ -75.8080296, -69.9444276 ], [ -75.808694, -69.9436535 ], [ -75.8091152, -69.9430818 ], [ -75.8098867, -69.9425404 ], [ -75.8106778, -69.9420976 ], [ -75.8113624, -69.9415487 ], [ -75.8117184, -69.9408123 ], [ -75.8111301, -69.9403465 ], [ -75.8109358, -69.9399771 ], [ -75.8112695, -69.9392711 ], [ -75.8113617, -69.9387653 ], [ -75.8111703, -69.9380137 ], [ -75.810976, -69.9376443 ], [ -75.8106931, -69.9372695 ], [ -75.8105445, -69.9367128 ], [ -75.8107671, -69.9362829 ], [ -75.8107068, -69.9357339 ], [ -75.8101196, -69.9351391 ], [ -75.8097711, -69.9347264 ], [ -75.8095347, -69.9342888 ], [ -75.8094545, -69.9332589 ], [ -75.8093254, -69.9328007 ], [ -75.8092444, -69.9322798 ], [ -75.8094004, -69.9316874 ], [ -75.8098261, -69.9307313 ], [ -75.8095455, -69.9300987 ], [ -75.809485, -69.9295497 ], [ -75.8089686, -69.9282261 ], [ -75.8086023, -69.9274593 ], [ -75.8079711, -69.9269252 ], [ -75.8065542, -69.9261939 ], [ -75.8049168, -69.9256346 ], [ -75.803301, -69.9251739 ], [ -75.8015515, -69.9246394 ], [ -75.8000911, -69.9240954 ], [ -75.7985909, -69.9228452 ], [ -75.7969965, -69.9221006 ], [ -75.7957967, -69.9217082 ], [ -75.7944652, -69.9212399 ], [ -75.7936601, -69.9208173 ], [ -75.7931377, -69.9205161 ], [ -75.7928132, -69.9199441 ], [ -75.7924667, -69.9195315 ], [ -75.7921237, -69.9187321 ], [ -75.7900963, -69.9178206 ], [ -75.7888954, -69.9174281 ], [ -75.7882402, -69.9171799 ], [ -75.7869777, -69.9166207 ], [ -75.7853672, -69.9155219 ], [ -75.7848919, -69.9149045 ], [ -75.7836057, -69.9142487 ], [ -75.7816219, -69.9136589 ], [ -75.7797465, -69.9127928 ], [ -75.7782842, -69.9122506 ], [ -75.7768922, -69.9116155 ], [ -75.77545, -69.9112986 ], [ -75.7744038, -69.9109517 ], [ -75.7736005, -69.9102733 ], [ -75.7727117, -69.9094608 ], [ -75.7719281, -69.9090077 ], [ -75.7713836, -69.90861 ], [ -75.7708199, -69.9082405 ], [ -75.7698423, -69.9076737 ], [ -75.7693646, -69.9070583 ], [ -75.7667001, -69.9067614 ], [ -75.7651706, -69.9065635 ], [ -75.76362, -69.9062692 ], [ -75.7616362, -69.9056791 ], [ -75.7602631, -69.9051445 ], [ -75.7581689, -69.9045769 ], [ -75.7568383, -69.9043639 ], [ -75.7555073, -69.9038975 ], [ -75.7548561, -69.9035203 ], [ -75.753763, -69.9034894 ], [ -75.7534344, -69.9034285 ], [ -75.7530907, -69.9030136 ], [ -75.7523232, -69.9030434 ], [ -75.751605, -69.9028839 ], [ -75.7505594, -69.90241 ], [ -75.7500382, -69.9021064 ], [ -75.7497346, -69.9017619 ], [ -75.7496287, -69.9015268 ], [ -75.7489551, -69.9011799 ], [ -75.7479307, -69.9008047 ], [ -75.7463642, -69.9001539 ], [ -75.744623, -69.8993634 ], [ -75.742603, -69.8981936 ], [ -75.7420371, -69.8979529 ], [ -75.7408353, -69.8978156 ], [ -75.7397024, -69.8974608 ], [ -75.7383723, -69.8971209 ], [ -75.7369168, -69.8963207 ], [ -75.7351541, -69.8956872 ], [ -75.7342409, -69.895287 ], [ -75.7331529, -69.8947448 ], [ -75.7320439, -69.8942306 ], [ -75.7305203, -69.8936502 ], [ -75.729543, -69.8930853 ], [ -75.728221, -69.8922322 ], [ -75.7269233, -69.8910953 ], [ -75.7263208, -69.8902752 ], [ -75.7256734, -69.8895156 ], [ -75.7253529, -69.8889436 ], [ -75.72525, -69.8883262 ], [ -75.7252146, -69.887747 ], [ -75.7249359, -69.8872432 ], [ -75.7243065, -69.8869622 ], [ -75.723698, -69.8866531 ], [ -75.7229836, -69.8861112 ], [ -75.722556, -69.8853063 ], [ -75.7225413, -69.8846966 ], [ -75.7219344, -69.8843876 ], [ -75.7218497, -69.8841244 ], [ -75.7195009, -69.8831512 ], [ -75.7186171, -69.8823363 ], [ -75.7183642, -69.8814199 ], [ -75.7178697, -69.8808327 ], [ -75.717636, -69.8802683 ], [ -75.7178809, -69.8799372 ], [ -75.7185464, -69.8791635 ], [ -75.7180262, -69.8788621 ], [ -75.7174821, -69.8785909 ], [ -75.7174662, -69.8782369 ], [ -75.7176022, -69.8778017 ], [ -75.7171894, -69.8776042 ], [ -75.7162114, -69.8772949 ], [ -75.7154929, -69.8771351 ], [ -75.7142719, -69.8769013 ], [ -75.7134238, -69.8765389 ], [ -75.7129693, -69.8762755 ], [ -75.7127965, -69.8760045 ], [ -75.7127359, -69.8757111 ], [ -75.7120399, -69.8753943 ], [ -75.7094286, -69.8747804 ], [ -75.7083839, -69.8745597 ], [ -75.7072942, -69.8742728 ], [ -75.7065806, -69.8738576 ], [ -75.7054689, -69.873601 ], [ -75.7047106, -69.8731196 ], [ -75.7036263, -69.872575 ], [ -75.7028423, -69.8723795 ], [ -75.7021258, -69.8720907 ], [ -75.7020653, -69.8717973 ], [ -75.7014128, -69.8715488 ], [ -75.7006065, -69.8713835 ], [ -75.6999107, -69.8711933 ], [ -75.6998934, -69.8708392 ], [ -75.6997466, -69.8704115 ], [ -75.6970089, -69.8694658 ], [ -75.6955691, -69.8692771 ], [ -75.6948289, -69.8691476 ], [ -75.6929576, -69.8686629 ], [ -75.6913005, -69.8685173 ], [ -75.6900112, -69.8686276 ], [ -75.6884836, -69.8685579 ], [ -75.6877208, -69.8684586 ], [ -75.6868525, -69.8681264 ], [ -75.6852633, -69.8677632 ], [ -75.6824481, -69.8676748 ], [ -75.6810274, -69.867838 ], [ -75.6799104, -69.8680924 ], [ -75.6781616, -69.8683212 ], [ -75.6765461, -69.8682437 ], [ -75.6750411, -69.8681436 ], [ -75.6736169, -69.8684355 ], [ -75.6724115, -69.8688089 ], [ -75.6711147, -69.8693034 ], [ -75.6693394, -69.8698179 ], [ -75.666297, -69.8702878 ], [ -75.6631927, -69.8705886 ], [ -75.6593072, -69.8704401 ], [ -75.6561858, -69.8705157 ], [ -75.6543244, -69.870769 ], [ -75.652448, -69.8706682 ], [ -75.6476543, -69.8699899 ], [ -75.6460195, -69.8699404 ], [ -75.6447753, -69.869863 ], [ -75.6436843, -69.8698314 ], [ -75.6425735, -69.8695744 ], [ -75.6418145, -69.8693461 ], [ -75.640992, -69.8689531 ], [ -75.6396845, -69.868711 ], [ -75.6378534, -69.8685495 ], [ -75.6369578, -69.8685028 ], [ -75.6363936, -69.8683885 ], [ -75.6357624, -69.868236 ], [ -75.6348503, -69.8679642 ], [ -75.6326934, -69.8677416 ], [ -75.6317753, -69.8677252 ], [ -75.6306641, -69.8675948 ], [ -75.6297926, -69.8675179 ], [ -75.6280521, -69.8672352 ], [ -75.6269618, -69.8670767 ], [ -75.6260702, -69.8669012 ], [ -75.6237013, -69.8662125 ], [ -75.6222689, -69.8657655 ], [ -75.6207522, -69.865182 ], [ -75.6188593, -69.8647289 ], [ -75.6168567, -69.8644229 ], [ -75.6154899, -69.8640139 ], [ -75.6131871, -69.8633632 ], [ -75.6118676, -69.8627647 ], [ -75.6110244, -69.8622751 ], [ -75.609527, -69.86179 ], [ -75.6088354, -69.8613461 ], [ -75.6072933, -69.8609216 ], [ -75.6049949, -69.8601419 ], [ -75.6027287, -69.8599414 ], [ -75.6011999, -69.8599976 ], [ -75.5980581, -69.8599755 ], [ -75.5967532, -69.8597332 ], [ -75.5946273, -69.8590955 ], [ -75.5922468, -69.8580523 ], [ -75.5908803, -69.8575163 ], [ -75.5893603, -69.857188 ], [ -75.5877937, -69.8569225 ], [ -75.5859917, -69.8564746 ], [ -75.5843647, -69.8559155 ], [ -75.5831483, -69.8556786 ], [ -75.5808368, -69.8556651 ], [ -75.5786778, -69.8555706 ], [ -75.5771768, -69.8553407 ], [ -75.5751292, -69.855097 ], [ -75.5713819, -69.8548915 ], [ -75.5686355, -69.8547125 ], [ -75.566581, -69.8549776 ], [ -75.5642028, -69.8549281 ], [ -75.5585241, -69.855192 ], [ -75.5563216, -69.8551556 ], [ -75.5536177, -69.8550447 ], [ -75.5510272, -69.8547824 ], [ -75.5485416, -69.854753 ], [ -75.5460798, -69.8545666 ], [ -75.5430932, -69.8544604 ], [ -75.5411782, -69.8542902 ], [ -75.5381447, -69.8542466 ], [ -75.5351117, -69.8543275 ], [ -75.5315176, -69.8540402 ], [ -75.5281871, -69.8536493 ], [ -75.5268482, -69.8530805 ], [ -75.5250207, -69.852791 ], [ -75.5234257, -69.8529374 ], [ -75.5219425, -69.8529322 ], [ -75.5205105, -69.8526133 ], [ -75.5184939, -69.8520809 ], [ -75.5173476, -69.8516259 ], [ -75.5160275, -69.8511578 ], [ -75.514134, -69.8509569 ], [ -75.5120181, -69.8509276 ], [ -75.5097906, -69.8510497 ], [ -75.507277, -69.8513055 ], [ -75.5050494, -69.8514277 ], [ -75.4993863, -69.851917 ], [ -75.4971614, -69.8519101 ], [ -75.494569, -69.8517758 ], [ -75.4930465, -69.8515754 ], [ -75.4921595, -69.8512725 ], [ -75.4908536, -69.851156 ], [ -75.4879389, -69.8508314 ], [ -75.4862606, -69.8507139 ], [ -75.4844248, -69.850933 ], [ -75.4832639, -69.8511177 ], [ -75.481867, -69.8511222 ], [ -75.479974, -69.8509209 ], [ -75.4790584, -69.8509038 ], [ -75.4775299, -69.8509588 ], [ -75.4767413, -69.8511444 ], [ -75.4752093, -69.8513283 ], [ -75.4735522, -69.8513071 ], [ -75.4729847, -69.851321 ], [ -75.4707209, -69.8511188 ], [ -75.4690458, -69.8508745 ], [ -75.4663415, -69.8508889 ], [ -75.4618499, -69.8508058 ], [ -75.4590351, -69.8508425 ], [ -75.4560038, -69.8507976 ], [ -75.454677, -69.8507089 ], [ -75.4522003, -69.8502958 ], [ -75.4511548, -69.8502023 ], [ -75.4481988, -69.8498109 ], [ -75.446784, -69.8497143 ], [ -75.4440589, -69.8496318 ], [ -75.4423157, -69.8496027 ], [ -75.4409223, -69.8494779 ], [ -75.4390526, -69.8492482 ], [ -75.4372302, -69.8488289 ], [ -75.4324597, -69.8486253 ], [ -75.4306712, -69.8486566 ], [ -75.4297101, -69.8486997 ], [ -75.4281885, -69.8484987 ], [ -75.4265985, -69.8483885 ], [ -75.424462, -69.8483885 ], [ -75.4225433, -69.8483456 ], [ -75.4198429, -69.8482304 ], [ -75.417515, -69.8479893 ], [ -75.4157754, -69.8478333 ], [ -75.4133916, -69.8472986 ], [ -75.4118545, -69.8468723 ], [ -75.4104616, -69.8467473 ], [ -75.409569, -69.8466995 ], [ -75.4084604, -69.8465676 ], [ -75.4065493, -69.8462692 ], [ -75.4055324, -69.8460163 ], [ -75.4035144, -69.8456113 ], [ -75.4022283, -69.8455927 ], [ -75.3999129, -69.8457055 ], [ -75.3986424, -69.8459122 ], [ -75.396952, -69.846305 ], [ -75.3954428, -69.8464578 ], [ -75.3932039, -69.8469605 ], [ -75.3896976, -69.8468047 ], [ -75.3883922, -69.8466873 ], [ -75.3874159, -69.8465049 ], [ -75.3841517, -69.8455376 ], [ -75.3834142, -69.8454066 ], [ -75.3824608, -69.8451939 ], [ -75.3804735, -69.8445029 ], [ -75.3796081, -69.8442958 ], [ -75.3772025, -69.8437909 ], [ -75.3744609, -69.844345 ], [ -75.3731027, -69.8445436 ], [ -75.3704318, -69.8441439 ], [ -75.367784, -69.843714 ], [ -75.3656619, -69.8432021 ], [ -75.3634997, -69.8426219 ], [ -75.3613793, -69.8421101 ], [ -75.359771, -69.8419029 ], [ -75.3563344, -69.8416556 ], [ -75.3534028, -69.8412321 ], [ -75.3509811, -69.8406283 ], [ -75.3479758, -69.8398126 ], [ -75.3450577, -69.8382683 ], [ -75.3423804, -69.8367757 ], [ -75.3397353, -69.8356091 ], [ -75.3382456, -69.8345121 ], [ -75.3368554, -69.8336503 ], [ -75.3352593, -69.832449 ], [ -75.3321596, -69.8291891 ], [ -75.3314702, -69.8282612 ], [ -75.3309591, -69.8272201 ], [ -75.3303561, -69.8263024 ], [ -75.3302863, -69.8257813 ], [ -75.330533, -69.8248434 ], [ -75.330641, -69.8242114 ], [ -75.3300317, -69.823547 ], [ -75.3299522, -69.8232836 ], [ -75.3299184, -69.822962 ], [ -75.3294811, -69.8223131 ], [ -75.3291731, -69.8217405 ], [ -75.3293904, -69.8210861 ], [ -75.3289146, -69.8196327 ], [ -75.3275274, -69.8180347 ], [ -75.325975, -69.8168994 ], [ -75.3245963, -69.8157822 ], [ -75.3229442, -69.8150234 ], [ -75.322651, -69.814676 ], [ -75.3225302, -69.8143443 ], [ -75.3224779, -69.813924 ], [ -75.3219425, -69.8136517 ], [ -75.3211247, -69.8133838 ], [ -75.3200942, -69.8129074 ], [ -75.3188771, -69.8121879 ], [ -75.3174158, -69.8109338 ], [ -75.3160339, -69.8099431 ], [ -75.315702, -69.8094006 ], [ -75.3159152, -69.8088752 ], [ -75.3158861, -69.8084247 ], [ -75.3163015, -69.807756 ], [ -75.3162223, -69.8074926 ], [ -75.3159508, -69.8071171 ], [ -75.3161197, -69.80665 ], [ -75.3168471, -69.805691 ], [ -75.3168659, -69.8044439 ], [ -75.316828, -69.8036372 ], [ -75.3169895, -69.8033009 ], [ -75.3180756, -69.8027252 ], [ -75.3193568, -69.8021372 ], [ -75.3203177, -69.8013586 ], [ -75.3210636, -69.8004959 ], [ -75.3217676, -69.7995671 ], [ -75.3219805, -69.7990417 ], [ -75.3219715, -69.7986877 ], [ -75.3248501, -69.7970902 ], [ -75.327828, -69.7958525 ], [ -75.3294524, -69.7954225 ], [ -75.3302902, -69.7950505 ], [ -75.3316683, -69.7948221 ], [ -75.332779, -69.7940893 ], [ -75.3337292, -69.7935683 ], [ -75.3348858, -69.7927751 ], [ -75.3366145, -69.7924514 ], [ -75.3379965, -69.7920941 ], [ -75.3394724, -69.7914913 ], [ -75.3421634, -69.7909985 ], [ -75.3459138, -69.7906959 ], [ -75.3494636, -69.7905368 ], [ -75.3513117, -69.7905423 ], [ -75.3557166, -69.7908456 ], [ -75.3579723, -69.7910494 ], [ -75.3612094, -69.7911802 ], [ -75.3640958, -69.7914085 ], [ -75.3658109, -69.7914688 ], [ -75.3672114, -69.7912098 ], [ -75.3692368, -69.7911042 ], [ -75.3704828, -69.7909282 ], [ -75.3721579, -69.7901816 ], [ -75.3737108, -69.7898418 ], [ -75.3757397, -69.7896095 ], [ -75.3767878, -69.7894479 ], [ -75.378207, -69.7892875 ], [ -75.3801653, -69.7892703 ], [ -75.3819944, -69.7891791 ], [ -75.3835131, -69.7892537 ], [ -75.3851915, -69.7891166 ], [ -75.3867171, -69.7890604 ], [ -75.3884146, -69.7890218 ], [ -75.3897462, -69.7888534 ], [ -75.3914018, -69.7887465 ], [ -75.3931029, -69.7885791 ], [ -75.3941733, -69.7883871 ], [ -75.3966745, -69.7883887 ], [ -75.3996013, -69.7886846 ], [ -75.4017242, -69.7889404 ], [ -75.4029662, -69.7888907 ], [ -75.4047319, -69.7887613 ], [ -75.4051983, -69.788388 ], [ -75.405752, -69.7880202 ], [ -75.4064528, -69.7878272 ], [ -75.407171, -69.7878596 ], [ -75.4078646, -69.787922 ], [ -75.4085845, -69.7878276 ], [ -75.408893, -69.7876639 ], [ -75.4096585, -69.787509 ], [ -75.4102242, -69.7874953 ], [ -75.4110317, -69.7874065 ], [ -75.4110809, -69.7872194 ], [ -75.4108236, -69.787067 ], [ -75.410913, -69.7869482 ], [ -75.4117467, -69.7867025 ], [ -75.4122669, -69.7867493 ], [ -75.4132862, -69.7868734 ], [ -75.4140673, -69.7869437 ], [ -75.4143318, -69.7868383 ], [ -75.4144895, -69.7866287 ], [ -75.414952, -69.7863819 ], [ -75.4155249, -69.7861127 ], [ -75.416094, -69.7859725 ], [ -75.4166406, -69.7858624 ], [ -75.4179322, -69.7859302 ], [ -75.4188386, -69.7857718 ], [ -75.4187126, -69.785569 ], [ -75.4188298, -69.7852911 ], [ -75.4188159, -69.7850638 ], [ -75.4186863, -69.7849898 ], [ -75.4190927, -69.7844496 ], [ -75.4194884, -69.7842914 ], [ -75.4197932, -69.7842565 ], [ -75.4203641, -69.7841141 ], [ -75.4217126, -69.7840439 ], [ -75.4222782, -69.7840302 ], [ -75.4224131, -69.7838508 ], [ -75.4229404, -69.7836422 ], [ -75.4232465, -69.7836051 ], [ -75.4245725, -69.7835652 ], [ -75.4253763, -69.7836052 ], [ -75.4264215, -69.78357 ], [ -75.4271589, -69.783574 ], [ -75.4273566, -69.7835595 ], [ -75.4282305, -69.7833819 ], [ -75.4295581, -69.7833398 ], [ -75.429957, -69.783055 ], [ -75.4294405, -69.7828817 ], [ -75.4287957, -69.7826299 ], [ -75.428036, -69.7825317 ], [ -75.4275839, -69.7823941 ], [ -75.4273912, -69.7822799 ], [ -75.4274858, -69.7820323 ], [ -75.4276609, -69.7819212 ], [ -75.4282721, -69.781847 ], [ -75.429131, -69.7818134 ], [ -75.4290599, -69.7816617 ], [ -75.4292857, -69.7813613 ], [ -75.4287724, -69.7810591 ], [ -75.4281119, -69.7797194 ], [ -75.4284497, -69.7792699 ], [ -75.4291359, -69.7788495 ], [ -75.4302977, -69.7776736 ], [ -75.4301491, -69.7775011 ], [ -75.4297021, -69.7772348 ], [ -75.4292699, -69.777069 ], [ -75.4284714, -69.7769003 ], [ -75.4276118, -69.776567 ], [ -75.4273543, -69.7764169 ], [ -75.4274506, -69.7760403 ], [ -75.4278916, -69.7758239 ], [ -75.4285849, -69.7758863 ], [ -75.4306417, -69.7762304 ], [ -75.4317988, -69.7760461 ], [ -75.4322608, -69.7757993 ], [ -75.4342264, -69.7754016 ], [ -75.4345993, -69.7752736 ], [ -75.4350158, -69.7752142 ], [ -75.4353708, -69.7748632 ], [ -75.4350051, -69.7747334 ], [ -75.4340107, -69.7745794 ], [ -75.4338392, -69.7744371 ], [ -75.434476, -69.774206 ], [ -75.4351308, -69.7740734 ], [ -75.4354141, -69.7740666 ], [ -75.4363943, -69.7739932 ], [ -75.4372676, -69.7738157 ], [ -75.4370818, -69.7734483 ], [ -75.437013, -69.7728009 ], [ -75.4368743, -69.772244 ], [ -75.436606, -69.77174 ], [ -75.4367508, -69.7711764 ], [ -75.4371773, -69.7707326 ], [ -75.4368234, -69.7700941 ], [ -75.435794, -69.7696163 ], [ -75.435736, -69.7693227 ], [ -75.4361189, -69.7688128 ], [ -75.4364689, -69.7687174 ], [ -75.4381225, -69.76861 ], [ -75.439993, -69.7685844 ], [ -75.4406878, -69.76852 ], [ -75.4409517, -69.7684145 ], [ -75.4412361, -69.7675428 ], [ -75.4407863, -69.7672786 ], [ -75.4392741, -69.7669512 ], [ -75.4388225, -69.7668137 ], [ -75.4371575, -69.7657044 ], [ -75.4366431, -69.7654021 ], [ -75.4357308, -69.7646464 ], [ -75.4354297, -69.7645548 ], [ -75.4346058, -69.7644184 ], [ -75.4329752, -69.7644955 ], [ -75.4323856, -69.7646662 ], [ -75.4315826, -69.7646262 ], [ -75.4305711, -69.7642469 ], [ -75.4302089, -69.7639905 ], [ -75.4298206, -69.763891 ], [ -75.4283475, -69.7637585 ], [ -75.4276615, -69.7634407 ], [ -75.4273411, -69.7632504 ], [ -75.4271068, -69.7630701 ], [ -75.4266992, -69.7628742 ], [ -75.4263527, -69.7628431 ], [ -75.4253064, -69.7630049 ], [ -75.4250233, -69.7630118 ], [ -75.424619, -69.762687 ], [ -75.4249059, -69.7625513 ], [ -75.4257, -69.7621107 ], [ -75.4241362, -69.7620991 ], [ -75.4225021, -69.7623027 ], [ -75.4211535, -69.762375 ], [ -75.4193533, -69.7623075 ], [ -75.4169638, -69.7622861 ], [ -75.4154909, -69.7621534 ], [ -75.4144639, -69.7624116 ], [ -75.4130435, -69.7627012 ], [ -75.4126672, -69.7629556 ], [ -75.4120285, -69.7633133 ], [ -75.4110049, -69.7634449 ], [ -75.410398, -69.7633902 ], [ -75.4094935, -69.7631172 ], [ -75.4091195, -69.7625068 ], [ -75.4075035, -69.7620728 ], [ -75.4058366, -69.7618279 ], [ -75.4053362, -69.7618774 ], [ -75.4045598, -69.7616805 ], [ -75.4041484, -69.7614659 ], [ -75.4040912, -69.7614361 ], [ -75.4025699, -69.760636 ], [ -75.4021369, -69.760492 ], [ -75.4020862, -69.7604751 ], [ -75.4015367, -69.7602867 ] ] ] ] } }
]
}
