{
"type": "FeatureCollection",
"name": "-85_-30",
"crs": { "type": "name", "properties": { "name": "urn:ogc:def:crs:OGC:1.3:CRS84" } },
"xy_coordinate_resolution": 1e-15,
"features": [
{ "type": "Feature", "properties": { "FID": 37607, "id": 708, "left": -85.0, "top": -25.0, "right": -80.0, "bottom": -30.0, "row_index": 23, "col_index": 19, "min_lon": -85.0, "min_lat": -30.0, "tile_id": "-85_-30" }, "geometry": { "type": "MultiPolygon", "coordinates": [ [ [ [ -80.107299, -26.2918988 ], [ -80.1072755, -26.2918381 ], [ -80.1072641, -26.2917774 ], [ -80.1072554, -26.2917353 ], [ -80.1072514, -26.2916908 ], [ -80.1072501, -26.2916355 ], [ -80.107238, -26.2915934 ], [ -80.1072125, -26.29157 ], [ -80.1071823, -26.2915682 ], [ -80.1070637, -26.2916211 ], [ -80.1070027, -26.2916562 ], [ -80.1069422, -26.2916738 ], [ -80.1068898, -26.2916724 ], [ -80.1068129, -26.2916386 ], [ -80.1067819, -26.2916034 ], [ -80.106736, -26.291555 ], [ -80.1067016, -26.2915213 ], [ -80.1066834, -26.291487 ], [ -80.1066804, -26.2914318 ], [ -80.1066781, -26.2913878 ], [ -80.1066772, -26.2913468 ], [ -80.1066781, -26.2913151 ], [ -80.1066627, -26.2912952 ], [ -80.1066232, -26.2912822 ], [ -80.1065916, -26.2912802 ], [ -80.1065567, -26.2912676 ], [ -80.1065054, -26.2912353 ], [ -80.1064874, -26.2911869 ], [ -80.1064825, -26.2911135 ], [ -80.1064709, -26.2910433 ], [ -80.1064694, -26.2909713 ], [ -80.1064792, -26.2909097 ], [ -80.1064743, -26.2908393 ], [ -80.106453, -26.2907865 ], [ -80.1064563, -26.290741 ], [ -80.1064548, -26.2907019 ], [ -80.1064447, -26.290667 ], [ -80.1064112, -26.2906087 ], [ -80.1063978, -26.2905612 ], [ -80.1064023, -26.2905063 ], [ -80.1064318, -26.2904506 ], [ -80.1064792, -26.2904242 ], [ -80.1065495, -26.2904066 ], [ -80.1066003, -26.2903787 ], [ -80.1066592, -26.2903391 ], [ -80.1066902, -26.2903039 ], [ -80.1067164, -26.2902438 ], [ -80.1067508, -26.290188 ], [ -80.1067988, -26.2901698 ], [ -80.1068457, -26.2901674 ], [ -80.1069127, -26.290191 ], [ -80.1069839, -26.2902203 ], [ -80.1070549, -26.2902281 ], [ -80.1070845, -26.2902247 ], [ -80.1071005, -26.2902029 ], [ -80.1070932, -26.2901806 ], [ -80.107071, -26.2901584 ], [ -80.1070382, -26.2901295 ], [ -80.1070087, -26.2900965 ], [ -80.1069814, -26.2900487 ], [ -80.1069536, -26.2900179 ], [ -80.1069029, -26.2899973 ], [ -80.1068544, -26.2899762 ], [ -80.1068178, -26.2899519 ], [ -80.1067921, -26.2899122 ], [ -80.1067505, -26.2898591 ], [ -80.1067103, -26.2898356 ], [ -80.1066801, -26.2898325 ], [ -80.1066433, -26.2898476 ], [ -80.1066177, -26.2898476 ], [ -80.1065909, -26.2898404 ], [ -80.1065594, -26.2898175 ], [ -80.1065507, -26.2897851 ], [ -80.1065513, -26.2897496 ], [ -80.1065728, -26.2897085 ], [ -80.1065904, -26.2896712 ], [ -80.1065904, -26.2896037 ], [ -80.1065712, -26.2895549 ], [ -80.1065136, -26.2895148 ], [ -80.1064688, -26.2895133 ], [ -80.1064176, -26.2895363 ], [ -80.1063648, -26.2895564 ], [ -80.1063024, -26.2895965 ], [ -80.1062368, -26.2896396 ], [ -80.1061311, -26.2897085 ], [ -80.1060527, -26.2897601 ], [ -80.1059887, -26.2898103 ], [ -80.1059391, -26.2898448 ], [ -80.1058783, -26.2898677 ], [ -80.1058225, -26.2898842 ], [ -80.1057883, -26.2898836 ], [ -80.1057688, -26.2898734 ], [ -80.1057521, -26.2898343 ], [ -80.1057427, -26.2897971 ], [ -80.1057225, -26.289737 ], [ -80.1057065, -26.2896997 ], [ -80.105689, -26.2896841 ], [ -80.1056501, -26.2896925 ], [ -80.1055902, -26.2897343 ], [ -80.105571, -26.2897664 ], [ -80.1055536, -26.2897887 ], [ -80.1055214, -26.2897977 ], [ -80.1054858, -26.2897959 ], [ -80.1054335, -26.289776 ], [ -80.1053901, -26.2897386 ], [ -80.1053725, -26.2896769 ], [ -80.1053805, -26.2896181 ], [ -80.1053926, -26.2895752 ], [ -80.1053859, -26.289541 ], [ -80.1053485, -26.2895047 ], [ -80.1053133, -26.2894617 ], [ -80.1053085, -26.2894186 ], [ -80.1053213, -26.2893483 ], [ -80.1053325, -26.2893053 ], [ -80.1053564, -26.2892548 ], [ -80.1053725, -26.2892235 ], [ -80.1053839, -26.2892079 ], [ -80.1053993, -26.2891959 ], [ -80.1054181, -26.2891917 ], [ -80.1054416, -26.2891875 ], [ -80.1054583, -26.2891706 ], [ -80.1054638, -26.2891374 ], [ -80.1054478, -26.2891087 ], [ -80.1054195, -26.2890919 ], [ -80.1053826, -26.289069 ], [ -80.1053645, -26.2890336 ], [ -80.1053604, -26.2889638 ], [ -80.1053551, -26.2889217 ], [ -80.1053453, -26.2888676 ], [ -80.1053357, -26.2888318 ], [ -80.1053357, -26.2887858 ], [ -80.1053293, -26.28875 ], [ -80.1053035, -26.2887173 ], [ -80.1052827, -26.2887005 ], [ -80.1052405, -26.2886732 ], [ -80.1052005, -26.2886732 ], [ -80.1051365, -26.2887062 ], [ -80.1050925, -26.2887385 ], [ -80.1050654, -26.2887612 ], [ -80.105046, -26.2887684 ], [ -80.1050265, -26.2887678 ], [ -80.1050124, -26.2887498 ], [ -80.1050057, -26.2887197 ], [ -80.1050144, -26.2886296 ], [ -80.1050165, -26.2885899 ], [ -80.1049957, -26.288564 ], [ -80.1049635, -26.2885538 ], [ -80.104944, -26.2885568 ], [ -80.1049199, -26.2885797 ], [ -80.1049124, -26.2886574 ], [ -80.1049031, -26.2886885 ], [ -80.1048804, -26.2887091 ], [ -80.104822, -26.288732 ], [ -80.104762, -26.288727 ], [ -80.1047415, -26.2887035 ], [ -80.1047382, -26.2886831 ], [ -80.10475, -26.2886646 ], [ -80.1047697, -26.2886518 ], [ -80.1047912, -26.2886302 ], [ -80.1048233, -26.2886085 ], [ -80.1048644, -26.2885885 ], [ -80.1048723, -26.2885778 ], [ -80.1048676, -26.2885622 ], [ -80.1048488, -26.288555 ], [ -80.1047717, -26.2885526 ], [ -80.1047362, -26.2885502 ], [ -80.1047028, -26.2885398 ], [ -80.1046778, -26.2885219 ], [ -80.1046517, -26.2885009 ], [ -80.1046262, -26.2884895 ], [ -80.1045891, -26.2884924 ], [ -80.1045459, -26.2885175 ], [ -80.1044979, -26.2885505 ], [ -80.1044539, -26.2886 ], [ -80.1044291, -26.2886283 ], [ -80.1044067, -26.2886567 ], [ -80.1043801, -26.2887053 ], [ -80.1043546, -26.2887245 ], [ -80.1043097, -26.2887432 ], [ -80.1042594, -26.288745 ], [ -80.1042058, -26.2887306 ], [ -80.1041538, -26.2887098 ], [ -80.1041172, -26.2886776 ], [ -80.1040802, -26.2886488 ], [ -80.1040474, -26.2886151 ], [ -80.1040082, -26.2885814 ], [ -80.1039744, -26.2885508 ], [ -80.1039258, -26.2885182 ], [ -80.1039054, -26.2884901 ], [ -80.1039013, -26.2884588 ], [ -80.1039154, -26.2884156 ], [ -80.1039161, -26.2884002 ], [ -80.1039087, -26.2883903 ], [ -80.1038929, -26.2883891 ], [ -80.1038591, -26.2883867 ], [ -80.1038363, -26.288377 ], [ -80.1038282, -26.2883608 ], [ -80.1038298, -26.288326 ], [ -80.1038651, -26.2882664 ], [ -80.1039098, -26.2882169 ], [ -80.1039469, -26.2881618 ], [ -80.1039738, -26.2880949 ], [ -80.1040006, -26.2880283 ], [ -80.1040502, -26.2879791 ], [ -80.1041112, -26.2879394 ], [ -80.104132, -26.2878967 ], [ -80.1041407, -26.2878456 ], [ -80.104128, -26.2877993 ], [ -80.1041072, -26.2877801 ], [ -80.1040851, -26.2877758 ], [ -80.1040743, -26.2877885 ], [ -80.1040777, -26.2878071 ], [ -80.1040978, -26.2878546 ], [ -80.1040965, -26.2878726 ], [ -80.1040857, -26.2878811 ], [ -80.1040602, -26.2878774 ], [ -80.1039986, -26.2878618 ], [ -80.1039597, -26.287857 ], [ -80.1039221, -26.2878612 ], [ -80.1038718, -26.2878817 ], [ -80.1038222, -26.2879105 ], [ -80.1037497, -26.2879199 ], [ -80.1036988, -26.2879334 ], [ -80.1036586, -26.2879574 ], [ -80.1036185, -26.2880017 ], [ -80.1035689, -26.2880404 ], [ -80.1034937, -26.2880749 ], [ -80.1034289, -26.2880813 ], [ -80.1033595, -26.2880764 ], [ -80.1033019, -26.2880602 ], [ -80.1032528, -26.2880469 ], [ -80.1031597, -26.2880121 ], [ -80.1031152, -26.2879952 ], [ -80.1030512, -26.2879694 ], [ -80.1029727, -26.287935 ], [ -80.1028831, -26.2879063 ], [ -80.1028271, -26.2878901 ], [ -80.1027471, -26.2878632 ], [ -80.1026287, -26.2878044 ], [ -80.1025566, -26.2877656 ], [ -80.102475, -26.2877082 ], [ -80.1024368, -26.2876736 ], [ -80.1023806, -26.2876207 ], [ -80.1023631, -26.2875859 ], [ -80.102349, -26.2875492 ], [ -80.1023598, -26.2875002 ], [ -80.1023774, -26.2874643 ], [ -80.1023774, -26.2874414 ], [ -80.102355, -26.2874198 ], [ -80.1023228, -26.2874157 ], [ -80.1022526, -26.2874241 ], [ -80.1022221, -26.2874227 ], [ -80.1021901, -26.2874112 ], [ -80.1021753, -26.2874061 ], [ -80.1021579, -26.2874037 ], [ -80.1021351, -26.2874007 ], [ -80.1021076, -26.2873929 ], [ -80.1020868, -26.2873893 ], [ -80.102064, -26.2873899 ], [ -80.1020385, -26.2873929 ], [ -80.1019923, -26.2874145 ], [ -80.1019581, -26.2874356 ], [ -80.1019133, -26.2874844 ], [ -80.1018573, -26.2875504 ], [ -80.1018052, -26.2875835 ], [ -80.1017448, -26.2875967 ], [ -80.1016844, -26.287592 ], [ -80.1015788, -26.2875719 ], [ -80.1014908, -26.2875504 ], [ -80.1014505, -26.287533 ], [ -80.1014149, -26.2875047 ], [ -80.1013787, -26.2874586 ], [ -80.101368, -26.2874271 ], [ -80.1013653, -26.2873959 ], [ -80.101378, -26.2873472 ], [ -80.1013908, -26.2872937 ], [ -80.1013827, -26.2872732 ], [ -80.1013619, -26.2872714 ], [ -80.1013485, -26.2872841 ], [ -80.1013204, -26.2873328 ], [ -80.1013083, -26.287371 ], [ -80.1012891, -26.2874155 ], [ -80.1012533, -26.2874722 ], [ -80.1012171, -26.2875045 ], [ -80.1011723, -26.2875074 ], [ -80.1011179, -26.2874887 ], [ -80.1010683, -26.2874614 ], [ -80.1010122, -26.2874256 ], [ -80.1009674, -26.2873883 ], [ -80.100913, -26.2873581 ], [ -80.1008714, -26.2873294 ], [ -80.100845, -26.2873057 ], [ -80.1008161, -26.2872835 ], [ -80.1007745, -26.2872576 ], [ -80.1007289, -26.2872251 ], [ -80.100697, -26.2871917 ], [ -80.1006639, -26.28718 ], [ -80.1006344, -26.2871849 ], [ -80.100621, -26.2872041 ], [ -80.1006096, -26.287245 ], [ -80.1005922, -26.2872774 ], [ -80.1005667, -26.2872895 ], [ -80.1005083, -26.2872949 ], [ -80.1004507, -26.2872865 ], [ -80.1003817, -26.2872821 ], [ -80.1003145, -26.2872849 ], [ -80.1002441, -26.287295 ], [ -80.100164, -26.2873065 ], [ -80.100076, -26.2873065 ], [ -80.0999992, -26.2872936 ], [ -80.099924, -26.2872864 ], [ -80.099868, -26.2872763 ], [ -80.0997882, -26.2872744 ], [ -80.0997238, -26.287272 ], [ -80.0996487, -26.2872534 ], [ -80.0995527, -26.2872419 ], [ -80.0994535, -26.2872276 ], [ -80.0993638, -26.2872304 ], [ -80.0993126, -26.2872433 ], [ -80.0992566, -26.287239 ], [ -80.0992086, -26.2872003 ], [ -80.0992054, -26.2871486 ], [ -80.099223, -26.2871142 ], [ -80.0992646, -26.287064 ], [ -80.0992893, -26.2870075 ], [ -80.0993014, -26.2869621 ], [ -80.0993034, -26.2869354 ], [ -80.0993074, -26.2869143 ], [ -80.0993188, -26.2868849 ], [ -80.0993494, -26.2868315 ], [ -80.0993926, -26.2867813 ], [ -80.0994006, -26.2867583 ], [ -80.0994059, -26.2867117 ], [ -80.0993952, -26.2866552 ], [ -80.0993885, -26.2866059 ], [ -80.0993702, -26.2865732 ], [ -80.0993174, -26.2865661 ], [ -80.0992726, -26.2865876 ], [ -80.0992214, -26.2866536 ], [ -80.099191, -26.2867167 ], [ -80.0991619, -26.2867839 ], [ -80.099151, -26.2868143 ], [ -80.0991414, -26.2868617 ], [ -80.0991431, -26.2869173 ], [ -80.0991324, -26.2869474 ], [ -80.0990902, -26.2869836 ], [ -80.0990479, -26.2869907 ], [ -80.0989541, -26.2869808 ], [ -80.0988549, -26.2869578 ], [ -80.0987789, -26.2869341 ], [ -80.0987401, -26.2869149 ], [ -80.0986898, -26.2868975 ], [ -80.0986482, -26.2868981 ], [ -80.0985964, -26.2869069 ], [ -80.0985388, -26.2869155 ], [ -80.0984716, -26.2869083 ], [ -80.0984491, -26.2869023 ], [ -80.098441, -26.2868794 ], [ -80.0984457, -26.2868632 ], [ -80.0985054, -26.2867995 ], [ -80.0985201, -26.2867718 ], [ -80.098518, -26.2867562 ], [ -80.0984924, -26.2867504 ], [ -80.0984739, -26.2867574 ], [ -80.0984108, -26.2868236 ], [ -80.0983713, -26.2868668 ], [ -80.0983424, -26.2868825 ], [ -80.0983004, -26.286881 ], [ -80.098238, -26.2868853 ], [ -80.0981976, -26.2869017 ], [ -80.0981466, -26.2869191 ], [ -80.0980395, -26.2869284 ], [ -80.0978491, -26.2869097 ], [ -80.0977066, -26.2868868 ], [ -80.0975626, -26.2868695 ], [ -80.0973881, -26.2868466 ], [ -80.0972217, -26.2868294 ], [ -80.0970761, -26.2868035 ], [ -80.0969736, -26.2867806 ], [ -80.0969068, -26.2867562 ], [ -80.0968696, -26.2867232 ], [ -80.0968264, -26.2866859 ], [ -80.0967955, -26.2866738 ], [ -80.096764, -26.2866586 ], [ -80.0967288, -26.2866457 ], [ -80.0966969, -26.2866426 ], [ -80.0966553, -26.2866348 ], [ -80.0966138, -26.2866269 ], [ -80.0965687, -26.2866242 ], [ -80.0965306, -26.2866215 ], [ -80.0964711, -26.2866213 ], [ -80.0963978, -26.2866396 ], [ -80.0963431, -26.28664 ], [ -80.0962823, -26.2866199 ], [ -80.0961846, -26.2866027 ], [ -80.0961142, -26.286607 ], [ -80.0960411, -26.2866167 ], [ -80.0959593, -26.2866215 ], [ -80.095899, -26.2866059 ], [ -80.0958614, -26.2865867 ], [ -80.0957957, -26.2865722 ], [ -80.0957394, -26.2865806 ], [ -80.0956965, -26.2866213 ], [ -80.0956613, -26.2866529 ], [ -80.0956133, -26.2866801 ], [ -80.0955556, -26.2866816 ], [ -80.0954917, -26.2866701 ], [ -80.0954485, -26.286617 ], [ -80.0954212, -26.2865266 ], [ -80.0953924, -26.2864678 ], [ -80.0953492, -26.2864276 ], [ -80.0952888, -26.2864243 ], [ -80.095218, -26.286452 ], [ -80.0951236, -26.2865496 ], [ -80.0950724, -26.2865926 ], [ -80.0949955, -26.2866342 ], [ -80.0948883, -26.2866529 ], [ -80.0947875, -26.2866514 ], [ -80.0946867, -26.2866371 ], [ -80.0945986, -26.2866027 ], [ -80.0944562, -26.2865783 ], [ -80.0943586, -26.2865596 ], [ -80.0942369, -26.286528 ], [ -80.0941537, -26.2865036 ], [ -80.0940497, -26.2864936 ], [ -80.0939585, -26.2865036 ], [ -80.0938967, -26.2865169 ], [ -80.093808, -26.2865266 ], [ -80.0937568, -26.2865352 ], [ -80.0937104, -26.286528 ], [ -80.0936768, -26.2865022 ], [ -80.0936714, -26.2864448 ], [ -80.0936736, -26.2863515 ], [ -80.093666, -26.2862993 ], [ -80.0936288, -26.2862683 ], [ -80.0935776, -26.2862611 ], [ -80.0934928, -26.2862956 ], [ -80.0934568, -26.2863071 ], [ -80.0934125, -26.2863101 ], [ -80.0933723, -26.2863011 ], [ -80.0933391, -26.2862884 ], [ -80.0933071, -26.2862755 ], [ -80.0932167, -26.2862398 ], [ -80.0931799, -26.2862313 ], [ -80.0931583, -26.2862267 ], [ -80.0931231, -26.2862281 ], [ -80.0930994, -26.2862368 ], [ -80.0930893, -26.2862446 ], [ -80.0930652, -26.28625 ], [ -80.0930337, -26.2862512 ], [ -80.0930015, -26.286247 ], [ -80.0929673, -26.286247 ], [ -80.0928714, -26.286268 ], [ -80.0927982, -26.2862927 ], [ -80.0927726, -26.2863085 ], [ -80.0927366, -26.2863642 ], [ -80.0927085, -26.2863865 ], [ -80.0926682, -26.2863895 ], [ -80.0926233, -26.2863792 ], [ -80.0925335, -26.2863341 ], [ -80.0924861, -26.2862956 ], [ -80.0924386, -26.2862746 ], [ -80.0924117, -26.2862662 ], [ -80.0923987, -26.2862614 ], [ -80.0923752, -26.2862608 ], [ -80.0923611, -26.286268 ], [ -80.092347, -26.2862776 ], [ -80.092334, -26.2862794 ], [ -80.0923149, -26.2862746 ], [ -80.0922887, -26.2862596 ], [ -80.0922592, -26.286247 ], [ -80.0922268, -26.2862411 ], [ -80.0922009, -26.286238 ], [ -80.0921747, -26.2862368 ], [ -80.0921318, -26.2862404 ], [ -80.0920976, -26.286247 ], [ -80.0920652, -26.2862597 ], [ -80.092046, -26.28628 ], [ -80.0920284, -26.2862941 ], [ -80.0920071, -26.2863173 ], [ -80.0919863, -26.2863486 ], [ -80.0919561, -26.2863756 ], [ -80.091902, -26.2863917 ], [ -80.091846, -26.2863946 ], [ -80.0917891, -26.2863901 ], [ -80.0917583, -26.2863955 ], [ -80.0917243, -26.2864089 ], [ -80.0916731, -26.2864315 ], [ -80.0916356, -26.2864502 ], [ -80.0915799, -26.286482 ], [ -80.0915498, -26.286482 ], [ -80.0915243, -26.2864682 ], [ -80.0914901, -26.2864201 ], [ -80.0914753, -26.2864105 ], [ -80.0914606, -26.2864123 ], [ -80.0914426, -26.2864405 ], [ -80.0914317, -26.2865001 ], [ -80.0914223, -26.2865422 ], [ -80.0914143, -26.2866083 ], [ -80.0913861, -26.286648 ], [ -80.0913352, -26.2866696 ], [ -80.0912659, -26.2866741 ], [ -80.0912038, -26.286672 ], [ -80.0911662, -26.286678 ], [ -80.0911327, -26.2867081 ], [ -80.0910844, -26.286749 ], [ -80.0910321, -26.2867766 ], [ -80.0909811, -26.2867875 ], [ -80.0908913, -26.2867851 ], [ -80.0908022, -26.2867742 ], [ -80.0907277, -26.286755 ], [ -80.0906901, -26.286767 ], [ -80.0906579, -26.2867935 ], [ -80.0906016, -26.2868572 ], [ -80.0905634, -26.2868981 ], [ -80.0905178, -26.2869203 ], [ -80.09047, -26.286952 ], [ -80.0904319, -26.2869949 ], [ -80.0903683, -26.2870521 ], [ -80.0903119, -26.2871037 ], [ -80.0902462, -26.287171 ], [ -80.090159, -26.2872492 ], [ -80.090104, -26.2872997 ], [ -80.0900933, -26.287331 ], [ -80.0901055, -26.2873833 ], [ -80.0901526, -26.2874522 ], [ -80.0901675, -26.2875145 ], [ -80.0901476, -26.2875745 ], [ -80.0900638, -26.2876027 ], [ -80.0900063, -26.2876123 ], [ -80.0899458, -26.287634 ], [ -80.0898972, -26.2876657 ], [ -80.0898559, -26.2876881 ], [ -80.089798, -26.2877012 ], [ -80.0897446, -26.2877097 ], [ -80.0897151, -26.2877265 ], [ -80.089684, -26.2877835 ], [ -80.0896914, -26.2878635 ], [ -80.0897236, -26.2878991 ], [ -80.0898036, -26.287943 ], [ -80.0898439, -26.2879742 ], [ -80.0898935, -26.2880344 ], [ -80.0898868, -26.2880764 ], [ -80.0898533, -26.2880981 ], [ -80.089803, -26.2881036 ], [ -80.089736, -26.2880703 ], [ -80.0896923, -26.2880548 ], [ -80.0896542, -26.2880569 ], [ -80.0896373, -26.2880861 ], [ -80.089644, -26.2881173 ], [ -80.089684, -26.2881859 ], [ -80.0897385, -26.2882503 ], [ -80.0897534, -26.2883193 ], [ -80.0897311, -26.2883659 ], [ -80.0896492, -26.288406 ], [ -80.0896078, -26.2884294 ], [ -80.0896005, -26.2884456 ], [ -80.0896052, -26.2884666 ], [ -80.089679, -26.288526 ], [ -80.0897435, -26.2885749 ], [ -80.0897782, -26.2886349 ], [ -80.0897707, -26.2887439 ], [ -80.089736, -26.2888839 ], [ -80.089684, -26.2890151 ], [ -80.0896642, -26.2890913 ], [ -80.0896567, -26.2891929 ], [ -80.0896319, -26.289313 ], [ -80.0895972, -26.289413 ], [ -80.0895368, -26.2895133 ], [ -80.0894952, -26.2895554 ], [ -80.0894186, -26.2895775 ], [ -80.0893705, -26.2895939 ], [ -80.0893393, -26.2896242 ], [ -80.0893244, -26.2896709 ], [ -80.0893182, -26.2897346 ], [ -80.0893383, -26.2898103 ], [ -80.0894174, -26.2898596 ], [ -80.0895054, -26.289891 ], [ -80.0895625, -26.2899577 ], [ -80.0895798, -26.2900466 ], [ -80.0895674, -26.2901733 ], [ -80.0895327, -26.2903045 ], [ -80.0894781, -26.2904067 ], [ -80.0894038, -26.2904845 ], [ -80.0893244, -26.2905312 ], [ -80.0892475, -26.2905824 ], [ -80.0891732, -26.2906757 ], [ -80.0891484, -26.2907491 ], [ -80.0891533, -26.2908002 ], [ -80.0891955, -26.2908469 ], [ -80.0892475, -26.2909203 ], [ -80.0892624, -26.2909736 ], [ -80.0892376, -26.2910625 ], [ -80.0891955, -26.2912382 ], [ -80.0891434, -26.2913738 ], [ -80.0891137, -26.2914627 ], [ -80.0890889, -26.2916027 ], [ -80.0890889, -26.2917539 ], [ -80.089074, -26.2919073 ], [ -80.0890293, -26.2920651 ], [ -80.0889698, -26.2921941 ], [ -80.0888955, -26.2922785 ], [ -80.088831, -26.2923208 ], [ -80.0887817, -26.2923329 ], [ -80.0887495, -26.2923581 ], [ -80.0887509, -26.292399 ], [ -80.088779, -26.2924724 ], [ -80.0887951, -26.2925421 ], [ -80.0888037, -26.2926076 ], [ -80.0887844, -26.29272 ], [ -80.0887683, -26.2927922 ], [ -80.0887616, -26.2928476 ], [ -80.0887442, -26.2929455 ], [ -80.0887334, -26.2930832 ], [ -80.0887415, -26.2931866 ], [ -80.0887368, -26.2932945 ], [ -80.0887169, -26.2933678 ], [ -80.0886326, -26.2935257 ], [ -80.0885756, -26.2936413 ], [ -80.0885012, -26.2937835 ], [ -80.0884442, -26.2939858 ], [ -80.088402, -26.2941081 ], [ -80.0883797, -26.2942437 ], [ -80.0883549, -26.2943548 ], [ -80.0882929, -26.2944927 ], [ -80.0882292, -26.2946222 ], [ -80.0881665, -26.2947439 ], [ -80.0881293, -26.294835 ], [ -80.0880978, -26.2949396 ], [ -80.0880598, -26.2950417 ], [ -80.0880202, -26.295144 ], [ -80.0879681, -26.2952507 ], [ -80.0879309, -26.2953507 ], [ -80.0878838, -26.2954641 ], [ -80.0878565, -26.2955864 ], [ -80.0878168, -26.295702 ], [ -80.0877549, -26.2958265 ], [ -80.0876681, -26.2959821 ], [ -80.0876061, -26.2960554 ], [ -80.0875763, -26.2961266 ], [ -80.0875586, -26.2962549 ], [ -80.0875317, -26.2963533 ], [ -80.087497, -26.2964422 ], [ -80.0874623, -26.2964956 ], [ -80.0874245, -26.296588 ], [ -80.0873843, -26.2966697 ], [ -80.0873606, -26.2967334 ], [ -80.0873209, -26.2968268 ], [ -80.0872937, -26.296889 ], [ -80.0872703, -26.2969655 ], [ -80.0872366, -26.2970646 ], [ -80.087192, -26.2971647 ], [ -80.0871399, -26.2972314 ], [ -80.0870879, -26.2973069 ], [ -80.0870432, -26.2974003 ], [ -80.0869763, -26.2974981 ], [ -80.0869242, -26.2975715 ], [ -80.0868945, -26.2976493 ], [ -80.0868399, -26.2978138 ], [ -80.0868052, -26.2979383 ], [ -80.0867581, -26.2980694 ], [ -80.0867358, -26.2981605 ], [ -80.0867134, -26.2982539 ], [ -80.0866713, -26.2983406 ], [ -80.0866465, -26.2984073 ], [ -80.0866093, -26.2985007 ], [ -80.0865721, -26.2985896 ], [ -80.0865367, -26.2986583 ], [ -80.0865027, -26.2987163 ], [ -80.0864705, -26.298783 ], [ -80.0864432, -26.298883 ], [ -80.0864258, -26.2989675 ], [ -80.0863936, -26.2990475 ], [ -80.0863837, -26.2991253 ], [ -80.0863688, -26.299212 ], [ -80.0863291, -26.2993165 ], [ -80.0862994, -26.2993987 ], [ -80.0862622, -26.2994987 ], [ -80.0862399, -26.2996121 ], [ -80.0862399, -26.2997232 ], [ -80.0862423, -26.2998322 ], [ -80.0862423, -26.2999922 ], [ -80.0862572, -26.3000856 ], [ -80.086282, -26.3001723 ], [ -80.0863341, -26.3002968 ], [ -80.0863961, -26.3003768 ], [ -80.0864357, -26.300419 ], [ -80.0865213, -26.3004693 ], [ -80.0866489, -26.300473 ], [ -80.086764, -26.3004545 ], [ -80.0868669, -26.3004287 ], [ -80.0869605, -26.3003908 ], [ -80.087089, -26.3003402 ], [ -80.087233, -26.3002959 ], [ -80.0873647, -26.3002369 ], [ -80.0874428, -26.3002259 ], [ -80.087521, -26.3002406 ], [ -80.0876156, -26.3002628 ], [ -80.0877102, -26.3002517 ], [ -80.0877843, -26.3002259 ], [ -80.0878522, -26.3001687 ], [ -80.0879385, -26.3001226 ], [ -80.088064, -26.3000728 ], [ -80.0881751, -26.3000101 ], [ -80.0882533, -26.2999714 ], [ -80.0883643, -26.2999013 ], [ -80.0884363, -26.2998589 ], [ -80.0885229, -26.2998161 ], [ -80.0885725, -26.2997945 ], [ -80.0886194, -26.2997704 ], [ -80.0886934, -26.2997262 ], [ -80.0888457, -26.2996579 ], [ -80.0889238, -26.2996247 ], [ -80.0890267, -26.2995565 ], [ -80.0891377, -26.2995086 ], [ -80.0892632, -26.2994459 ], [ -80.0893393, -26.2993869 ], [ -80.0893784, -26.2993463 ], [ -80.0894195, -26.2992983 ], [ -80.0894668, -26.2992449 ], [ -80.0895286, -26.2992024 ], [ -80.0896088, -26.29916 ], [ -80.0896849, -26.2991139 ], [ -80.0897569, -26.2990402 ], [ -80.0898104, -26.2990033 ], [ -80.0898844, -26.2989701 ], [ -80.0899458, -26.2989421 ], [ -80.0900202, -26.2989 ], [ -80.0900517, -26.2988687 ], [ -80.0900866, -26.2988483 ], [ -80.0901333, -26.2988336 ], [ -80.0901641, -26.2988097 ], [ -80.09021, -26.2987689 ], [ -80.0903143, -26.2987175 ], [ -80.0904089, -26.2986622 ], [ -80.0905015, -26.2986179 ], [ -80.0906126, -26.298546 ], [ -80.0906928, -26.2984907 ], [ -80.0907319, -26.2984501 ], [ -80.0907538, -26.2984119 ], [ -80.090782, -26.2983836 ], [ -80.0908189, -26.2983686 ], [ -80.0908611, -26.2983644 ], [ -80.090902, -26.2983554 ], [ -80.0909334, -26.2983376 ], [ -80.0909725, -26.2983007 ], [ -80.0910178, -26.2982196 ], [ -80.0910836, -26.2981532 ], [ -80.0911761, -26.2980997 ], [ -80.0912913, -26.2980665 ], [ -80.091353, -26.2980518 ], [ -80.0914353, -26.2980057 ], [ -80.0915053, -26.297978 ], [ -80.0916143, -26.2979301 ], [ -80.0917171, -26.2978692 ], [ -80.0917994, -26.2978121 ], [ -80.0919022, -26.2977586 ], [ -80.0920257, -26.2977069 ], [ -80.0921264, -26.2976682 ], [ -80.0922334, -26.2976276 ], [ -80.0923301, -26.2976129 ], [ -80.0924329, -26.2975908 ], [ -80.0925111, -26.2975613 ], [ -80.0925975, -26.2975262 ], [ -80.092725, -26.2975004 ], [ -80.0928567, -26.2974746 ], [ -80.0929677, -26.2974617 ], [ -80.0930932, -26.297434 ], [ -80.0931775, -26.2974027 ], [ -80.0932722, -26.2973427 ], [ -80.0933307, -26.2973214 ], [ -80.0933978, -26.2973094 ], [ -80.0934964, -26.2972985 ], [ -80.0935478, -26.2972856 ], [ -80.0936157, -26.2972284 ], [ -80.0936794, -26.2971768 ], [ -80.0937545, -26.2971398 ], [ -80.0938685, -26.2971044 ], [ -80.0939537, -26.2970917 ], [ -80.0940053, -26.2970923 ], [ -80.0940348, -26.2970893 ], [ -80.0940657, -26.2970797 ], [ -80.0940985, -26.2970605 ], [ -80.0941193, -26.2970424 ], [ -80.0941535, -26.2970232 ], [ -80.0942204, -26.2969979 ], [ -80.0943479, -26.2969444 ], [ -80.0944569, -26.2969186 ], [ -80.0945433, -26.2968965 ], [ -80.0946482, -26.2968909 ], [ -80.0947799, -26.2969039 ], [ -80.0948642, -26.2969131 ], [ -80.0949486, -26.2969039 ], [ -80.0950247, -26.2969057 ], [ -80.0951316, -26.2969186 ], [ -80.0951913, -26.296926 ], [ -80.0952612, -26.2969131 ], [ -80.0953785, -26.2968651 ], [ -80.0954607, -26.296819 ], [ -80.0955595, -26.2967692 ], [ -80.0956603, -26.296725 ], [ -80.0957302, -26.2966881 ], [ -80.0958248, -26.2966328 ], [ -80.0959269, -26.2965731 ], [ -80.0960235, -26.2965244 ], [ -80.096106, -26.2964685 ], [ -80.0961684, -26.296427 ], [ -80.0962348, -26.2963819 ], [ -80.0963153, -26.2963278 ], [ -80.0963857, -26.2962737 ], [ -80.0964682, -26.2962304 ], [ -80.0965447, -26.2961835 ], [ -80.096654, -26.2961118 ], [ -80.0967251, -26.2960926 ], [ -80.0967915, -26.2960992 ], [ -80.0968485, -26.2961185 ], [ -80.0968813, -26.2961233 ], [ -80.0969081, -26.2961185 ], [ -80.0969202, -26.2961022 ], [ -80.096927, -26.2960482 ], [ -80.096937, -26.2960067 ], [ -80.0969833, -26.2959526 ], [ -80.0970658, -26.2958966 ], [ -80.0971644, -26.2958371 ], [ -80.097261, -26.2958064 ], [ -80.0973415, -26.2957938 ], [ -80.0973889, -26.2957884 ], [ -80.0974401, -26.2957686 ], [ -80.0975002, -26.2957259 ], [ -80.0975568, -26.2957036 ], [ -80.0976373, -26.2957072 ], [ -80.0976796, -26.2957253 ], [ -80.0977117, -26.2957577 ], [ -80.09775, -26.2958137 ], [ -80.0977741, -26.2958461 ], [ -80.0978305, -26.2958624 ], [ -80.0978868, -26.295857 ], [ -80.0979512, -26.2958551 ], [ -80.0980277, -26.2958696 ], [ -80.0981263, -26.2959111 ], [ -80.0981786, -26.295958 ], [ -80.0982188, -26.2959977 ], [ -80.0982611, -26.2960157 ], [ -80.0983074, -26.2960193 ], [ -80.0983335, -26.2960049 ], [ -80.0983572, -26.2959604 ], [ -80.0983818, -26.2958858 ], [ -80.0983959, -26.2958245 ], [ -80.098416, -26.2957686 ], [ -80.0984623, -26.2957253 ], [ -80.0985327, -26.2957036 ], [ -80.0986072, -26.2956784 ], [ -80.0986796, -26.2956513 ], [ -80.0987601, -26.2955972 ], [ -80.0988104, -26.2955647 ], [ -80.0988326, -26.295516 ], [ -80.0988225, -26.2954601 ], [ -80.0987823, -26.2954222 ], [ -80.0987072, -26.2953688 ], [ -80.0986917, -26.2953374 ], [ -80.0986998, -26.2952833 ], [ -80.098736, -26.2952057 ], [ -80.0988044, -26.2951516 ], [ -80.0988929, -26.2951083 ], [ -80.0990076, -26.2950668 ], [ -80.0991203, -26.295047 ], [ -80.0992048, -26.2950289 ], [ -80.0992517, -26.2950207 ], [ -80.099292, -26.2950135 ], [ -80.0993181, -26.2950051 ], [ -80.0993497, -26.2949892 ], [ -80.0993912, -26.2949408 ], [ -80.0994382, -26.2949044 ], [ -80.0995046, -26.2948702 ], [ -80.099583, -26.2948254 ], [ -80.0997139, -26.2947782 ], [ -80.0998145, -26.2947475 ], [ -80.0999433, -26.2947313 ], [ -80.1000922, -26.2947367 ], [ -80.1001747, -26.2947403 ], [ -80.1002733, -26.2947294 ], [ -80.1003501, -26.2947159 ], [ -80.1004399, -26.2946847 ], [ -80.1005369, -26.2946501 ], [ -80.1005792, -26.294623 ], [ -80.1006022, -26.2945861 ], [ -80.1006275, -26.2945454 ], [ -80.1006532, -26.2944935 ], [ -80.1006719, -26.2944598 ], [ -80.1007028, -26.2944478 ], [ -80.1007296, -26.2944622 ], [ -80.1007522, -26.2944859 ], [ -80.1007925, -26.2945148 ], [ -80.100885, -26.2945184 ], [ -80.1009514, -26.2945057 ], [ -80.1010138, -26.2944643 ], [ -80.1010601, -26.2944029 ], [ -80.1010877, -26.2943444 ], [ -80.1011252, -26.2942927 ], [ -80.1011567, -26.2942532 ], [ -80.101203, -26.294211 ], [ -80.1012452, -26.2941792 ], [ -80.1012935, -26.2941449 ], [ -80.1013941, -26.2940656 ], [ -80.1015048, -26.2939988 ], [ -80.1015732, -26.2939772 ], [ -80.101696, -26.2939754 ], [ -80.1017785, -26.2939609 ], [ -80.1018791, -26.2939303 ], [ -80.1019535, -26.2938978 ], [ -80.102038, -26.2938725 ], [ -80.1021467, -26.2938599 ], [ -80.1022393, -26.2938455 ], [ -80.1023148, -26.2938322 ], [ -80.1024445, -26.2938437 ], [ -80.1025672, -26.2938707 ], [ -80.1026598, -26.2938689 ], [ -80.1027182, -26.2938437 ], [ -80.1027826, -26.293795 ], [ -80.1028445, -26.2937553 ], [ -80.1029194, -26.2937318 ], [ -80.1030562, -26.293703 ], [ -80.1031407, -26.2936975 ], [ -80.1032415, -26.2937084 ], [ -80.1033407, -26.2937228 ], [ -80.1034204, -26.2937408 ], [ -80.1034667, -26.2937787 ], [ -80.1035251, -26.2938707 ], [ -80.1035613, -26.2939375 ], [ -80.1035915, -26.29397 ], [ -80.1036498, -26.293988 ], [ -80.1037102, -26.293979 ], [ -80.1038028, -26.2939249 ], [ -80.1039067, -26.2938028 ], [ -80.1039697, -26.2937342 ], [ -80.104024, -26.2937078 ], [ -80.1040837, -26.2936939 ], [ -80.1041615, -26.2937054 ], [ -80.1042326, -26.2937378 ], [ -80.1042775, -26.2937769 ], [ -80.1043023, -26.2938058 ], [ -80.1043224, -26.2938142 ], [ -80.1043439, -26.293813 ], [ -80.1043808, -26.2937907 ], [ -80.1044136, -26.2937673 ], [ -80.1044693, -26.2937496 ], [ -80.1045674, -26.2937354 ], [ -80.1046631, -26.293724 ], [ -80.1047445, -26.2937102 ], [ -80.1048361, -26.2936964 ], [ -80.1049286, -26.2936855 ], [ -80.1049984, -26.2936843 ], [ -80.1050949, -26.2936795 ], [ -80.1051673, -26.2936735 ], [ -80.1052411, -26.2936759 ], [ -80.1053081, -26.2936879 ], [ -80.1053551, -26.2936952 ], [ -80.1054463, -26.2937132 ], [ -80.1055614, -26.2937517 ], [ -80.10566, -26.2938076 ], [ -80.1057467, -26.2938527 ], [ -80.1058673, -26.2939375 ], [ -80.1059277, -26.2939873 ], [ -80.1059398, -26.294015 ], [ -80.1059291, -26.2940426 ], [ -80.1059049, -26.2940643 ], [ -80.1058567, -26.2941052 ], [ -80.1058218, -26.2941352 ], [ -80.1057627, -26.2941918 ], [ -80.1057103, -26.2942388 ], [ -80.105693, -26.2942795 ], [ -80.1056862, -26.294329 ], [ -80.1057063, -26.2943921 ], [ -80.1057325, -26.2944354 ], [ -80.1057747, -26.2944625 ], [ -80.1058184, -26.2944851 ], [ -80.10585, -26.2945103 ], [ -80.1058681, -26.2945398 ], [ -80.1058748, -26.2945939 ], [ -80.1058728, -26.2946294 ], [ -80.1058781, -26.2946829 ], [ -80.1058848, -26.2946997 ], [ -80.1059063, -26.2947165 ], [ -80.1059479, -26.2947262 ], [ -80.1059961, -26.2947352 ], [ -80.1060424, -26.2947421 ], [ -80.1061034, -26.2947472 ], [ -80.106145, -26.2947628 ], [ -80.1061993, -26.2948269 ], [ -80.1062355, -26.2949098 ], [ -80.1062657, -26.2949784 ], [ -80.1063032, -26.2950297 ], [ -80.1063421, -26.295049 ], [ -80.1063865, -26.2950524 ], [ -80.1064951, -26.2950325 ], [ -80.1065755, -26.2950117 ], [ -80.1067002, -26.2950021 ], [ -80.1067968, -26.2950249 ], [ -80.1068638, -26.2950622 ], [ -80.1069443, -26.2951428 ], [ -80.1070095, -26.2952073 ], [ -80.1070623, -26.2952654 ], [ -80.1071025, -26.2953087 ], [ -80.1071267, -26.295346 ], [ -80.107178, -26.2953955 ], [ -80.1072172, -26.2954355 ], [ -80.1072823, -26.2955023 ], [ -80.1073312, -26.2955612 ], [ -80.1073694, -26.2956147 ], [ -80.1073822, -26.2956483 ], [ -80.1073802, -26.2956814 ], [ -80.1073634, -26.2957163 ], [ -80.107362, -26.295753 ], [ -80.1073694, -26.2957788 ], [ -80.1073909, -26.2958107 ], [ -80.107407, -26.2958335 ], [ -80.1074211, -26.2958497 ], [ -80.1074358, -26.2958684 ], [ -80.1074678, -26.2958885 ], [ -80.1075357, -26.2959093 ], [ -80.1075831, -26.2959229 ], [ -80.1076422, -26.2959388 ], [ -80.1077072, -26.2959547 ], [ -80.1077798, -26.2959796 ], [ -80.1078373, -26.296013 ], [ -80.1078876, -26.2960687 ], [ -80.1079408, -26.2961085 ], [ -80.1080029, -26.2961297 ], [ -80.1081093, -26.2961509 ], [ -80.1082116, -26.2961804 ], [ -80.1082808, -26.2962065 ], [ -80.1083606, -26.296241 ], [ -80.1084316, -26.2962862 ], [ -80.1084907, -26.2963258 ], [ -80.1085587, -26.2963841 ], [ -80.1086119, -26.2964318 ], [ -80.1086799, -26.2964848 ], [ -80.108739, -26.2965246 ], [ -80.1087893, -26.2965776 ], [ -80.1088336, -26.2966306 ], [ -80.1089075, -26.2966942 ], [ -80.1089489, -26.2967313 ], [ -80.1089808, -26.2967845 ], [ -80.1089881, -26.2968194 ], [ -80.1089911, -26.2968559 ], [ -80.1089895, -26.2969162 ], [ -80.1089896, -26.2969632 ], [ -80.1089689, -26.2970123 ], [ -80.1089349, -26.297056 ], [ -80.108861, -26.297109 ], [ -80.1087841, -26.2971567 ], [ -80.1087146, -26.2971991 ], [ -80.1086599, -26.2972349 ], [ -80.1085993, -26.297272 ], [ -80.1085358, -26.2973171 ], [ -80.1084722, -26.2973608 ], [ -80.1084116, -26.2974032 ], [ -80.108348, -26.2974271 ], [ -80.1082726, -26.2974562 ], [ -80.1082268, -26.2974814 ], [ -80.1081821, -26.2975113 ], [ -80.1081446, -26.297551 ], [ -80.108099, -26.2975799 ], [ -80.1080319, -26.2976039 ], [ -80.1079962, -26.2976245 ], [ -80.1079829, -26.297651 ], [ -80.107979, -26.2976953 ], [ -80.1079769, -26.2977266 ], [ -80.1079736, -26.297771 ], [ -80.1079729, -26.2978191 ], [ -80.1079743, -26.2978582 ], [ -80.1079756, -26.2978901 ], [ -80.1079783, -26.2979333 ], [ -80.1079829, -26.2979837 ], [ -80.1080011, -26.2980416 ], [ -80.1080228, -26.2981016 ], [ -80.108045, -26.2981573 ], [ -80.1080746, -26.2982036 ], [ -80.108097, -26.2982459 ], [ -80.1081278, -26.2982898 ], [ -80.10816, -26.2983385 ], [ -80.1081868, -26.2983698 ], [ -80.108213, -26.2984034 ], [ -80.1082257, -26.2984251 ], [ -80.1082331, -26.2984449 ], [ -80.1082385, -26.2984684 ], [ -80.1082546, -26.2985026 ], [ -80.1082706, -26.2985381 ], [ -80.1082841, -26.2985652 ], [ -80.1083037, -26.2985906 ], [ -80.108351, -26.2986343 ], [ -80.1084057, -26.2986767 ], [ -80.1084663, -26.2987205 ], [ -80.1085328, -26.2987549 ], [ -80.1085885, -26.298799 ], [ -80.1086395, -26.2988675 ], [ -80.1086659, -26.2988954 ], [ -80.1087043, -26.2989312 ], [ -80.1087678, -26.2989511 ], [ -80.1088299, -26.2989643 ], [ -80.1088741, -26.2989793 ], [ -80.1089231, -26.2989842 ], [ -80.1089828, -26.298995 ], [ -80.109019, -26.2990142 ], [ -80.1090565, -26.2990539 ], [ -80.1090874, -26.2990731 ], [ -80.109133, -26.2990915 ], [ -80.1091921, -26.2990995 ], [ -80.109266, -26.2991167 ], [ -80.1093251, -26.2991207 ], [ -80.1093945, -26.29912 ], [ -80.1094537, -26.2991167 ], [ -80.1095203, -26.2991035 ], [ -80.109569, -26.299077 ], [ -80.1096144, -26.2990491 ], [ -80.1096681, -26.2990371 ], [ -80.1097445, -26.2990328 ], [ -80.1097955, -26.2990316 ], [ -80.1098317, -26.2990232 ], [ -80.1098612, -26.299004 ], [ -80.1098867, -26.2989751 ], [ -80.1099095, -26.2989517 ], [ -80.1099282, -26.2989087 ], [ -80.1099815, -26.2988596 ], [ -80.1100495, -26.2988252 ], [ -80.1101027, -26.2988 ], [ -80.1101485, -26.2987708 ], [ -80.1101736, -26.2987351 ], [ -80.1101884, -26.2987006 ], [ -80.1102032, -26.2986555 ], [ -80.1101958, -26.2986193 ], [ -80.1101817, -26.2985886 ], [ -80.1101569, -26.2985561 ], [ -80.1101448, -26.2985351 ], [ -80.1101401, -26.298496 ], [ -80.1101395, -26.2984672 ], [ -80.1101352, -26.2984329 ], [ -80.1101415, -26.298392 ], [ -80.1101515, -26.298368 ], [ -80.1101869, -26.2983507 ], [ -80.1102298, -26.2983295 ], [ -80.1102521, -26.2983157 ], [ -80.1102722, -26.2983151 ], [ -80.1102984, -26.2983283 ], [ -80.1103232, -26.2983481 ], [ -80.1103587, -26.2983584 ], [ -80.1103839, -26.2983611 ], [ -80.110403, -26.298362 ], [ -80.1104188, -26.2983584 ], [ -80.1104353, -26.2983468 ], [ -80.1104427, -26.2983163 ], [ -80.1104419, -26.2982778 ], [ -80.1104452, -26.298249 ], [ -80.1104607, -26.2982219 ], [ -80.1104929, -26.2981983 ], [ -80.1105224, -26.2981822 ], [ -80.1105445, -26.2981582 ], [ -80.1105545, -26.2981413 ], [ -80.11057, -26.2981263 ], [ -80.110592, -26.2981042 ], [ -80.1106169, -26.2980716 ], [ -80.1106357, -26.2980434 ], [ -80.110639, -26.2980259 ], [ -80.1106319, -26.2979916 ], [ -80.1106169, -26.297967 ], [ -80.1106038, -26.2979346 ], [ -80.11058, -26.2979069 ], [ -80.110558, -26.2978949 ], [ -80.1105331, -26.2978792 ], [ -80.110517, -26.2978534 ], [ -80.1105092, -26.2978021 ], [ -80.110515, -26.2977602 ], [ -80.1105036, -26.2976977 ], [ -80.1104821, -26.2976496 ], [ -80.1104634, -26.2975967 ], [ -80.1104513, -26.2975498 ], [ -80.1104486, -26.2975065 ], [ -80.1104427, -26.2974589 ], [ -80.1104545, -26.2973767 ], [ -80.1104826, -26.2973157 ], [ -80.110521, -26.2972773 ], [ -80.1105586, -26.2972348 ], [ -80.1106127, -26.2972004 ], [ -80.1106807, -26.2971673 ], [ -80.1107486, -26.2971183 ], [ -80.1108196, -26.2970626 ], [ -80.1108595, -26.2970202 ], [ -80.1108743, -26.2969791 ], [ -80.1108871, -26.2969306 ], [ -80.1108938, -26.2968801 ], [ -80.1109009, -26.296832 ], [ -80.1109059, -26.2967978 ], [ -80.1109099, -26.2967623 ], [ -80.1109083, -26.296726 ], [ -80.1109113, -26.2966849 ], [ -80.1109166, -26.2966577 ], [ -80.1109166, -26.2966228 ], [ -80.1108935, -26.2965829 ], [ -80.1108724, -26.2965585 ], [ -80.1108322, -26.2965327 ], [ -80.110798, -26.2964966 ], [ -80.1107723, -26.296457 ], [ -80.1107708, -26.2964093 ], [ -80.1107915, -26.2963629 ], [ -80.1108255, -26.2963377 ], [ -80.1108832, -26.2963125 ], [ -80.1109438, -26.2963086 ], [ -80.1110325, -26.2963258 ], [ -80.1111404, -26.2963629 ], [ -80.1112128, -26.2963788 ], [ -80.1112645, -26.2963735 ], [ -80.1113203, -26.2963535 ], [ -80.1113787, -26.2963469 ], [ -80.111473, -26.2963536 ], [ -80.1115349, -26.2963565 ], [ -80.1115818, -26.2963463 ], [ -80.1116444, -26.2963192 ], [ -80.1116962, -26.2963099 ], [ -80.1117405, -26.2963059 ], [ -80.1118145, -26.2963247 ], [ -80.1118413, -26.2963493 ], [ -80.1118554, -26.2963902 ], [ -80.1118675, -26.2964154 ], [ -80.1118889, -26.2964299 ], [ -80.1119652, -26.2964477 ], [ -80.1120485, -26.2964659 ], [ -80.1120928, -26.2964882 ], [ -80.1121552, -26.2965272 ], [ -80.1121847, -26.2965411 ], [ -80.1122224, -26.2965604 ], [ -80.1122697, -26.2965763 ], [ -80.1123155, -26.2966081 ], [ -80.1123677, -26.2966379 ], [ -80.1123925, -26.2966595 ], [ -80.1124146, -26.2966836 ], [ -80.112453, -26.2967128 ], [ -80.1124841, -26.2967181 ], [ -80.1125343, -26.2967008 ], [ -80.1125742, -26.296677 ], [ -80.1126192, -26.2966733 ], [ -80.1126494, -26.2966866 ], [ -80.1126703, -26.2967061 ], [ -80.1126936, -26.296737 ], [ -80.1127285, -26.2967563 ], [ -80.1128034, -26.2967618 ], [ -80.1128802, -26.2967618 ], [ -80.1129363, -26.2967809 ], [ -80.1129896, -26.2968188 ], [ -80.1130309, -26.2968693 ], [ -80.1130842, -26.2969115 ], [ -80.1131241, -26.2969481 ], [ -80.1131556, -26.2969751 ], [ -80.1131831, -26.2969871 ], [ -80.1132146, -26.2969859 ], [ -80.1132468, -26.2969699 ], [ -80.1132703, -26.2969523 ], [ -80.1133207, -26.2969169 ], [ -80.1133601, -26.2968885 ], [ -80.1134212, -26.2968334 ], [ -80.1134804, -26.2968029 ], [ -80.1135794, -26.2967896 ], [ -80.1136607, -26.296791 ], [ -80.1137182, -26.296802 ], [ -80.1137834, -26.2968241 ], [ -80.113847, -26.2968344 ], [ -80.1139006, -26.296826 ], [ -80.1139596, -26.2968008 ], [ -80.1140258, -26.2967751 ], [ -80.1140977, -26.2967419 ], [ -80.1141366, -26.2967118 ], [ -80.1141749, -26.2966415 ], [ -80.1141809, -26.2966036 ], [ -80.1141782, -26.2965934 ], [ -80.1141621, -26.2965838 ], [ -80.1141299, -26.296588 ], [ -80.1140539, -26.2966107 ], [ -80.114017, -26.2966107 ], [ -80.1140019, -26.2965982 ], [ -80.1139952, -26.2965717 ], [ -80.1140065, -26.2965393 ], [ -80.1140233, -26.296514 ], [ -80.1141633, -26.2964027 ], [ -80.1142106, -26.2963722 ], [ -80.1142801, -26.2962966 ], [ -80.1143156, -26.2962529 ], [ -80.1143451, -26.2961813 ], [ -80.114364, -26.2961437 ], [ -80.1143914, -26.2961028 ], [ -80.1144236, -26.2960499 ], [ -80.1144484, -26.2960175 ], [ -80.1144811, -26.2959667 ], [ -80.1145166, -26.2959083 ], [ -80.1145524, -26.2958606 ], [ -80.1145935, -26.295805 ], [ -80.1146463, -26.2957716 ], [ -80.1146952, -26.2957169 ], [ -80.1147295, -26.2956592 ], [ -80.1147797, -26.2955982 ], [ -80.1148099, -26.2955672 ], [ -80.1148166, -26.2955347 ], [ -80.1148004, -26.2954949 ], [ -80.114779, -26.295471 ], [ -80.1146881, -26.2954074 ], [ -80.1146328, -26.2953628 ], [ -80.1145698, -26.2953093 ], [ -80.1145041, -26.2952365 ], [ -80.1144397, -26.2951632 ], [ -80.1143941, -26.2950959 ], [ -80.1143481, -26.2949542 ], [ -80.1142922, -26.2948121 ], [ -80.1142505, -26.294705 ], [ -80.1142225, -26.2946005 ], [ -80.1141903, -26.2944707 ], [ -80.1141618, -26.2943525 ], [ -80.1141293, -26.29422 ], [ -80.114085, -26.2940768 ], [ -80.1140615, -26.2939801 ], [ -80.1140347, -26.2938595 ], [ -80.1139972, -26.2937324 ], [ -80.1139697, -26.2936263 ], [ -80.1139105, -26.2934884 ], [ -80.1138455, -26.2933082 ], [ -80.113796, -26.2931733 ], [ -80.1137598, -26.2930696 ], [ -80.1137095, -26.2929583 ], [ -80.1136445, -26.2928682 ], [ -80.1135972, -26.2927993 ], [ -80.1135543, -26.2927237 ], [ -80.1135224, -26.2926587 ], [ -80.1135011, -26.2926045 ], [ -80.1134647, -26.2925577 ], [ -80.1134419, -26.2924952 ], [ -80.1134316, -26.2924521 ], [ -80.1134212, -26.2923977 ], [ -80.1134168, -26.2923394 ], [ -80.1133991, -26.2922679 ], [ -80.1133739, -26.2922387 ], [ -80.1133226, -26.2922006 ], [ -80.1132646, -26.2921685 ], [ -80.113198, -26.2921353 ], [ -80.1131147, -26.2921165 ], [ -80.1130785, -26.292102 ], [ -80.1130463, -26.2920768 ], [ -80.1130249, -26.2920371 ], [ -80.1130007, -26.2920034 ], [ -80.1129645, -26.2919938 ], [ -80.1129122, -26.2920034 ], [ -80.1127989, -26.292024 ], [ -80.1127057, -26.2920419 ], [ -80.1126252, -26.2920455 ], [ -80.1125447, -26.2920399 ], [ -80.1124604, -26.2920306 ], [ -80.1123717, -26.2920311 ], [ -80.1123181, -26.2920251 ], [ -80.1122342, -26.2920094 ], [ -80.112184, -26.2919986 ], [ -80.1121263, -26.2919882 ], [ -80.1120539, -26.291967 ], [ -80.1119209, -26.2919127 ], [ -80.1118617, -26.2918848 ], [ -80.1117923, -26.2918835 ], [ -80.1117468, -26.291894 ], [ -80.1116797, -26.2919036 ], [ -80.1116113, -26.2919181 ], [ -80.1115262, -26.291922 ], [ -80.1113961, -26.2919193 ], [ -80.1112867, -26.2919047 ], [ -80.1111862, -26.291853 ], [ -80.1111419, -26.2918292 ], [ -80.1111031, -26.2917846 ], [ -80.1110642, -26.2917485 ], [ -80.1110373, -26.2917197 ], [ -80.1109985, -26.2917028 ], [ -80.1109234, -26.2916908 ], [ -80.1108818, -26.2916836 ], [ -80.1108442, -26.2916644 ], [ -80.110793, -26.2916158 ], [ -80.1107691, -26.2915826 ], [ -80.1107369, -26.2915682 ], [ -80.1106954, -26.2915761 ], [ -80.110639, -26.2916067 ], [ -80.1105773, -26.2916343 ], [ -80.1105092, -26.2916489 ], [ -80.1104737, -26.2916569 ], [ -80.1104097, -26.2916896 ], [ -80.1103587, -26.2916944 ], [ -80.1103118, -26.2916884 ], [ -80.1102877, -26.2916908 ], [ -80.1102649, -26.2917089 ], [ -80.11023, -26.291775 ], [ -80.1102045, -26.2918123 ], [ -80.1101697, -26.2918243 ], [ -80.1100302, -26.2918438 ], [ -80.1099297, -26.2918491 ], [ -80.1098961, -26.2918652 ], [ -80.1098612, -26.2918952 ], [ -80.109829, -26.2919241 ], [ -80.1097937, -26.2919683 ], [ -80.1097566, -26.292001 ], [ -80.1097284, -26.2920479 ], [ -80.1097137, -26.2920948 ], [ -80.1096903, -26.2921724 ], [ -80.1096533, -26.2922114 ], [ -80.1096171, -26.2922102 ], [ -80.1095822, -26.2921718 ], [ -80.109538, -26.2921309 ], [ -80.1094736, -26.2921153 ], [ -80.1093811, -26.2921153 ], [ -80.1092231, -26.2921671 ], [ -80.1091167, -26.2922148 ], [ -80.1090458, -26.2922732 ], [ -80.1089541, -26.2923765 ], [ -80.1088536, -26.2924189 ], [ -80.1087767, -26.2924189 ], [ -80.1086969, -26.2923633 ], [ -80.1086289, -26.2922997 ], [ -80.1085442, -26.2921934 ], [ -80.1084604, -26.2921168 ], [ -80.1083599, -26.2920717 ], [ -80.1082465, -26.2920708 ], [ -80.1081529, -26.2921062 ], [ -80.108076, -26.2921751 ], [ -80.1079933, -26.2921936 ], [ -80.1078464, -26.2921761 ], [ -80.1077226, -26.2921352 ], [ -80.1075857, -26.2920631 ], [ -80.1075012, -26.2920306 ], [ -80.1074006, -26.2919837 ], [ -80.1073235, -26.2919269 ], [ -80.107299, -26.2918988 ] ] ] ] } },
{ "type": "Feature", "properties": { "FID": 126750, "id": 708, "left": -85.0, "top": -25.0, "right": -80.0, "bottom": -30.0, "row_index": 23, "col_index": 19, "min_lon": -85.0, "min_lat": -30.0, "tile_id": "-85_-30" }, "geometry": { "type": "MultiPolygon", "coordinates": [ [ [ [ -80.0857077, -26.3048748 ], [ -80.0856453, -26.3048768 ], [ -80.085574, -26.3048868 ], [ -80.0855116, -26.3049248 ], [ -80.0854469, -26.3049947 ], [ -80.0853845, -26.3050367 ], [ -80.0853221, -26.3051366 ], [ -80.0852753, -26.3052206 ], [ -80.085244, -26.3053345 ], [ -80.0852351, -26.3054324 ], [ -80.0852552, -26.3054843 ], [ -80.0852998, -26.3055263 ], [ -80.0852753, -26.3055583 ], [ -80.0851995, -26.3055503 ], [ -80.0851304, -26.3055723 ], [ -80.085088, -26.3056242 ], [ -80.0850791, -26.3056782 ], [ -80.0851148, -26.3057062 ], [ -80.0851794, -26.3057102 ], [ -80.0852753, -26.3056802 ], [ -80.085302, -26.3057161 ], [ -80.0852975, -26.3057561 ], [ -80.085253, -26.3058281 ], [ -80.0852329, -26.305894 ], [ -80.085224, -26.3059659 ], [ -80.0852151, -26.3060319 ], [ -80.0851816, -26.3061158 ], [ -80.0851816, -26.3061818 ], [ -80.0851816, -26.3062837 ], [ -80.0851638, -26.3063576 ], [ -80.0851304, -26.3064076 ], [ -80.0851281, -26.3064915 ], [ -80.0851125, -26.3065575 ], [ -80.0850724, -26.3066414 ], [ -80.0850345, -26.3067273 ], [ -80.0850055, -26.3068212 ], [ -80.0849542, -26.3068932 ], [ -80.0849097, -26.3069351 ], [ -80.0848584, -26.3070171 ], [ -80.0848361, -26.307099 ], [ -80.0847982, -26.307139 ], [ -80.0847358, -26.307141 ], [ -80.08466, -26.307111 ], [ -80.0845931, -26.3070471 ], [ -80.0845508, -26.3070271 ], [ -80.0845196, -26.307061 ], [ -80.0844549, -26.307095 ], [ -80.0844014, -26.307091 ], [ -80.0844125, -26.307051 ], [ -80.0844036, -26.3070011 ], [ -80.0843568, -26.3070011 ], [ -80.0843323, -26.3070431 ], [ -80.0843301, -26.307095 ], [ -80.084252, -26.307103 ], [ -80.0842164, -26.307125 ], [ -80.0842231, -26.307163 ], [ -80.0842075, -26.3072149 ], [ -80.0841673, -26.3072948 ], [ -80.0841339, -26.3073548 ], [ -80.0841116, -26.3073968 ], [ -80.0841183, -26.3074627 ], [ -80.0840804, -26.3075147 ], [ -80.0840559, -26.3075806 ], [ -80.0840737, -26.3076466 ], [ -80.0840068, -26.3076386 ], [ -80.0839622, -26.3076466 ], [ -80.08394, -26.3076825 ], [ -80.0839622, -26.3077265 ], [ -80.0840157, -26.3077305 ], [ -80.0840737, -26.3077385 ], [ -80.0840536, -26.3077864 ], [ -80.0840559, -26.3078364 ], [ -80.0840403, -26.3078923 ], [ -80.0840648, -26.3079283 ], [ -80.0841138, -26.3079503 ], [ -80.0840447, -26.3079863 ], [ -80.0840113, -26.3080142 ], [ -80.0839801, -26.3080782 ], [ -80.0839734, -26.3081481 ], [ -80.0839957, -26.3082081 ], [ -80.0840336, -26.308264 ], [ -80.0839645, -26.308288 ], [ -80.0838931, -26.308332 ], [ -80.0838218, -26.3083799 ], [ -80.0837728, -26.3084459 ], [ -80.0837215, -26.3084938 ], [ -80.0836524, -26.3085318 ], [ -80.0836123, -26.3085798 ], [ -80.0836056, -26.3086597 ], [ -80.0835989, -26.3087476 ], [ -80.0835677, -26.3087876 ], [ -80.0835209, -26.3088076 ], [ -80.0835119, -26.3088475 ], [ -80.0835498, -26.3088835 ], [ -80.083532, -26.3089255 ], [ -80.0834674, -26.3089375 ], [ -80.0833849, -26.3089555 ], [ -80.0833604, -26.3089874 ], [ -80.0833648, -26.3090274 ], [ -80.0834027, -26.3090714 ], [ -80.0833893, -26.3091353 ], [ -80.0833871, -26.3092012 ], [ -80.0834183, -26.3092472 ], [ -80.0834674, -26.3092712 ], [ -80.0834272, -26.3093291 ], [ -80.083396, -26.3094031 ], [ -80.0833849, -26.309473 ], [ -80.0833492, -26.309509 ], [ -80.0834072, -26.309519 ], [ -80.0834584, -26.309545 ], [ -80.0834183, -26.3095909 ], [ -80.0834072, -26.3096509 ], [ -80.0833425, -26.3097268 ], [ -80.0832935, -26.3097588 ], [ -80.0832935, -26.3097987 ], [ -80.0832712, -26.3098407 ], [ -80.0832623, -26.3098907 ], [ -80.0832667, -26.3099646 ], [ -80.0832645, -26.3100365 ], [ -80.0832467, -26.3101045 ], [ -80.08324, -26.3101804 ], [ -80.0832088, -26.3102184 ], [ -80.0831865, -26.3102583 ], [ -80.0832088, -26.3102843 ], [ -80.083211, -26.3103263 ], [ -80.0831798, -26.3103463 ], [ -80.0831263, -26.3103623 ], [ -80.0830973, -26.3104142 ], [ -80.0830349, -26.3104682 ], [ -80.0829992, -26.3105221 ], [ -80.082948, -26.3105761 ], [ -80.0829123, -26.310618 ], [ -80.08289, -26.310692 ], [ -80.0828543, -26.3107219 ], [ -80.0828231, -26.3107219 ], [ -80.0827852, -26.3107339 ], [ -80.0828097, -26.3107499 ], [ -80.0828387, -26.3108079 ], [ -80.0828253, -26.3108438 ], [ -80.0827874, -26.3108898 ], [ -80.0827273, -26.3109078 ], [ -80.0826916, -26.3109557 ], [ -80.0826113, -26.3109837 ], [ -80.082569, -26.3110157 ], [ -80.0825021, -26.3110397 ], [ -80.0824776, -26.3110736 ], [ -80.0824419, -26.3111356 ], [ -80.0823996, -26.3111915 ], [ -80.0823639, -26.3112655 ], [ -80.0823528, -26.3113434 ], [ -80.0823171, -26.3114233 ], [ -80.0822636, -26.3115033 ], [ -80.0822279, -26.3115712 ], [ -80.0822123, -26.3116252 ], [ -80.0821633, -26.3116651 ], [ -80.0821387, -26.3117351 ], [ -80.082141, -26.311765 ], [ -80.0821432, -26.311825 ], [ -80.0821811, -26.3118789 ], [ -80.0821677, -26.3119489 ], [ -80.0821477, -26.3119988 ], [ -80.0821387, -26.3120628 ], [ -80.0821477, -26.3121187 ], [ -80.0821789, -26.3121727 ], [ -80.0822034, -26.3122206 ], [ -80.0821655, -26.3122726 ], [ -80.0821165, -26.3123246 ], [ -80.0821209, -26.3123625 ], [ -80.0821722, -26.3123785 ], [ -80.0822346, -26.3123665 ], [ -80.0822881, -26.3123365 ], [ -80.0823617, -26.3123266 ], [ -80.0824241, -26.3122926 ], [ -80.0824486, -26.3123146 ], [ -80.082482, -26.3123365 ], [ -80.0825467, -26.3123126 ], [ -80.0826403, -26.3122546 ], [ -80.0827273, -26.3122107 ], [ -80.082812, -26.3121867 ], [ -80.0828699, -26.3121887 ], [ -80.0829167, -26.3121647 ], [ -80.0829881, -26.3121297 ], [ -80.0830015, -26.3121597 ], [ -80.0830483, -26.3121617 ], [ -80.0831241, -26.3121257 ], [ -80.083211, -26.3120778 ], [ -80.0832667, -26.3120158 ], [ -80.0833247, -26.3119599 ], [ -80.0833871, -26.3119239 ], [ -80.0834852, -26.3118919 ], [ -80.0835677, -26.3118919 ], [ -80.083639, -26.3119119 ], [ -80.0836568, -26.3119559 ], [ -80.0836301, -26.3120038 ], [ -80.0835877, -26.3120658 ], [ -80.0835454, -26.3121177 ], [ -80.0834852, -26.3121597 ], [ -80.0834406, -26.3121957 ], [ -80.0834607, -26.3122137 ], [ -80.0834473, -26.3122536 ], [ -80.0835008, -26.3122576 ], [ -80.0835877, -26.3122816 ], [ -80.0836635, -26.3122816 ], [ -80.0837237, -26.3122476 ], [ -80.0838151, -26.3122117 ], [ -80.0839177, -26.3122017 ], [ -80.0840135, -26.3121757 ], [ -80.0841138, -26.3121697 ], [ -80.0841985, -26.3121757 ], [ -80.0842855, -26.3122037 ], [ -80.0843813, -26.3122416 ], [ -80.0844081, -26.3122776 ], [ -80.0844059, -26.3123335 ], [ -80.0844215, -26.3123715 ], [ -80.0844973, -26.3124115 ], [ -80.0845708, -26.3124594 ], [ -80.0846243, -26.3124654 ], [ -80.0846823, -26.3124395 ], [ -80.0847536, -26.3123695 ], [ -80.0848272, -26.3122776 ], [ -80.084845, -26.3122356 ], [ -80.0848695, -26.3122037 ], [ -80.084981, -26.3122097 ], [ -80.0850323, -26.3122396 ], [ -80.0850657, -26.3122856 ], [ -80.0850769, -26.3123635 ], [ -80.0850657, -26.3124415 ], [ -80.0850613, -26.3125294 ], [ -80.0850769, -26.3126033 ], [ -80.0851192, -26.3126473 ], [ -80.0851972, -26.3126832 ], [ -80.0852418, -26.3127332 ], [ -80.0853132, -26.3127412 ], [ -80.0853689, -26.3127632 ], [ -80.0854157, -26.3127372 ], [ -80.0854826, -26.3126872 ], [ -80.0855205, -26.3126553 ], [ -80.0855628, -26.3126633 ], [ -80.0856096, -26.3126533 ], [ -80.0856408, -26.3126193 ], [ -80.0856899, -26.3125514 ], [ -80.0857456, -26.3124594 ], [ -80.0857991, -26.3124075 ], [ -80.0858147, -26.3123675 ], [ -80.0858259, -26.3122896 ], [ -80.0858593, -26.3122157 ], [ -80.0859418, -26.3121337 ], [ -80.0860109, -26.3120698 ], [ -80.0860533, -26.3119998 ], [ -80.086109, -26.3119379 ], [ -80.0861982, -26.3118879 ], [ -80.0862851, -26.3118879 ], [ -80.0863208, -26.3118739 ], [ -80.0863319, -26.311842 ], [ -80.0862739, -26.311762 ], [ -80.0862695, -26.3117221 ], [ -80.0863096, -26.3116761 ], [ -80.0864122, -26.3116581 ], [ -80.0864523, -26.3116721 ], [ -80.0864657, -26.3117081 ], [ -80.0864211, -26.3117481 ], [ -80.0864099, -26.311798 ], [ -80.0864345, -26.31182 ], [ -80.0865258, -26.311816 ], [ -80.0865883, -26.311816 ], [ -80.0866373, -26.311808 ], [ -80.0867109, -26.3117341 ], [ -80.0867711, -26.3117061 ], [ -80.0868156, -26.3116701 ], [ -80.086829, -26.3116202 ], [ -80.0868446, -26.3115662 ], [ -80.0868937, -26.3115362 ], [ -80.0869004, -26.3115103 ], [ -80.0869383, -26.3114663 ], [ -80.0870051, -26.3114363 ], [ -80.0870475, -26.3113744 ], [ -80.0871277, -26.3113084 ], [ -80.0872058, -26.3112505 ], [ -80.0872637, -26.3112045 ], [ -80.0873328, -26.3111406 ], [ -80.087393, -26.3111366 ], [ -80.0874287, -26.3111186 ], [ -80.0874443, -26.3110726 ], [ -80.0875089, -26.3110067 ], [ -80.0875268, -26.3109707 ], [ -80.0875089, -26.3109268 ], [ -80.0875179, -26.3108508 ], [ -80.0875446, -26.3108069 ], [ -80.0875892, -26.3108129 ], [ -80.0876226, -26.3108149 ], [ -80.0876471, -26.3107769 ], [ -80.0876427, -26.3107369 ], [ -80.0876672, -26.310663 ], [ -80.0877185, -26.3105851 ], [ -80.087743, -26.3104832 ], [ -80.0877519, -26.3104252 ], [ -80.0877229, -26.3103673 ], [ -80.0877274, -26.3103053 ], [ -80.0877118, -26.3102294 ], [ -80.0876717, -26.3101754 ], [ -80.0876717, -26.3101315 ], [ -80.087714, -26.3100875 ], [ -80.0877475, -26.3100495 ], [ -80.0877452, -26.3099796 ], [ -80.0877564, -26.3099076 ], [ -80.0877631, -26.3098197 ], [ -80.087801, -26.3097897 ], [ -80.0878166, -26.3097458 ], [ -80.0878077, -26.3096639 ], [ -80.0878121, -26.3095699 ], [ -80.0878389, -26.309502 ], [ -80.0878857, -26.309434 ], [ -80.0879191, -26.3093801 ], [ -80.087908, -26.3093541 ], [ -80.0878567, -26.3093381 ], [ -80.08785, -26.3092902 ], [ -80.08785, -26.3092402 ], [ -80.087801, -26.3092142 ], [ -80.0877987, -26.3091663 ], [ -80.0877809, -26.3091003 ], [ -80.0877541, -26.3090324 ], [ -80.0877675, -26.3089924 ], [ -80.0877519, -26.3089604 ], [ -80.0877118, -26.3089385 ], [ -80.087792, -26.3089065 ], [ -80.0878121, -26.3088825 ], [ -80.0878121, -26.3088306 ], [ -80.0878411, -26.3087646 ], [ -80.0878433, -26.3087187 ], [ -80.0877987, -26.3086707 ], [ -80.0877586, -26.3086547 ], [ -80.0877163, -26.3086427 ], [ -80.0876628, -26.3086008 ], [ -80.087636, -26.3085548 ], [ -80.0876204, -26.3085208 ], [ -80.087578, -26.3085028 ], [ -80.0875268, -26.3085168 ], [ -80.0875, -26.3085408 ], [ -80.0874777, -26.3085208 ], [ -80.0874599, -26.3084649 ], [ -80.0874086, -26.3084189 ], [ -80.0873573, -26.3083869 ], [ -80.0873239, -26.308349 ], [ -80.0873217, -26.308293 ], [ -80.0872905, -26.3082051 ], [ -80.0872726, -26.3081891 ], [ -80.0872347, -26.3081891 ], [ -80.0871991, -26.3082071 ], [ -80.0871857, -26.3081771 ], [ -80.0872347, -26.3081451 ], [ -80.087237, -26.3081072 ], [ -80.0872169, -26.3080912 ], [ -80.0871768, -26.3080872 ], [ -80.0871656, -26.3081192 ], [ -80.0871322, -26.3081232 ], [ -80.0870898, -26.3081092 ], [ -80.0870185, -26.3080972 ], [ -80.0869605, -26.3080992 ], [ -80.0869561, -26.3080752 ], [ -80.0869828, -26.3080112 ], [ -80.0870453, -26.3079073 ], [ -80.0870988, -26.3077994 ], [ -80.0871456, -26.3077515 ], [ -80.0872147, -26.3077155 ], [ -80.087286, -26.3077235 ], [ -80.0873395, -26.3077315 ], [ -80.0873997, -26.3077095 ], [ -80.0875223, -26.3076815 ], [ -80.0876115, -26.3076456 ], [ -80.0876538, -26.3076096 ], [ -80.0876605, -26.3074857 ], [ -80.0876828, -26.3074337 ], [ -80.0876806, -26.3073958 ], [ -80.0876427, -26.3073738 ], [ -80.0875602, -26.3073718 ], [ -80.087587, -26.3073278 ], [ -80.0875936, -26.3072998 ], [ -80.087558, -26.3072659 ], [ -80.0874956, -26.3072359 ], [ -80.0875022, -26.3071859 ], [ -80.0875491, -26.30716 ], [ -80.0875981, -26.307166 ], [ -80.0876182, -26.3071919 ], [ -80.0876895, -26.3072219 ], [ -80.0877252, -26.3072619 ], [ -80.0877943, -26.3072918 ], [ -80.0877943, -26.3072539 ], [ -80.0877809, -26.3072199 ], [ -80.0877252, -26.3071999 ], [ -80.0876739, -26.307156 ], [ -80.0876159, -26.307132 ], [ -80.0876003, -26.307102 ], [ -80.0875669, -26.30705 ], [ -80.0876092, -26.307062 ], [ -80.0876494, -26.3070381 ], [ -80.0876628, -26.3070001 ], [ -80.0876315, -26.3069102 ], [ -80.0875959, -26.3068402 ], [ -80.087558, -26.3067963 ], [ -80.0874978, -26.3067583 ], [ -80.0874398, -26.3067163 ], [ -80.087364, -26.3066664 ], [ -80.0873038, -26.3066344 ], [ -80.0872325, -26.3066104 ], [ -80.0872035, -26.3065824 ], [ -80.0871679, -26.3065405 ], [ -80.0871121, -26.3065085 ], [ -80.0870631, -26.3064825 ], [ -80.0870363, -26.3064575 ], [ -80.0870319, -26.3064296 ], [ -80.0870408, -26.3064076 ], [ -80.0870765, -26.3064106 ], [ -80.087091, -26.3063856 ], [ -80.0870898, -26.3063456 ], [ -80.0870765, -26.3063007 ], [ -80.0870988, -26.3062617 ], [ -80.0871021, -26.3062347 ], [ -80.087082, -26.3061918 ], [ -80.0870597, -26.3061558 ], [ -80.0870464, -26.3061248 ], [ -80.0869929, -26.3060609 ], [ -80.0869539, -26.3060359 ], [ -80.0869416, -26.3060119 ], [ -80.0869494, -26.305957 ], [ -80.0869561, -26.305884 ], [ -80.0869427, -26.3058191 ], [ -80.0868992, -26.3057241 ], [ -80.0868435, -26.3056322 ], [ -80.0867844, -26.3055353 ], [ -80.0867488, -26.3054713 ], [ -80.0867343, -26.3054224 ], [ -80.086751, -26.3053904 ], [ -80.0867878, -26.3053844 ], [ -80.0868223, -26.3053994 ], [ -80.0868446, -26.3053874 ], [ -80.0868469, -26.3053594 ], [ -80.0868324, -26.3053195 ], [ -80.0868012, -26.3053085 ], [ -80.0867677, -26.3052585 ], [ -80.0867432, -26.3052006 ], [ -80.0867298, -26.3051546 ], [ -80.0867075, -26.3051146 ], [ -80.0866852, -26.3050547 ], [ -80.0866852, -26.3050007 ], [ -80.0866585, -26.3050507 ], [ -80.086654, -26.3050847 ], [ -80.0866808, -26.3051386 ], [ -80.0866808, -26.3052086 ], [ -80.0866919, -26.3052625 ], [ -80.0866875, -26.3053125 ], [ -80.0866696, -26.3053464 ], [ -80.0866384, -26.3054364 ], [ -80.0866184, -26.3054703 ], [ -80.0865582, -26.3054703 ], [ -80.0864802, -26.3054464 ], [ -80.0864155, -26.3054104 ], [ -80.0863531, -26.3053445 ], [ -80.0862751, -26.3052725 ], [ -80.086206, -26.3052046 ], [ -80.086119, -26.3051086 ], [ -80.0860232, -26.3050087 ], [ -80.0859318, -26.3049408 ], [ -80.0858486, -26.3049046 ], [ -80.0857716, -26.304881 ], [ -80.0857077, -26.3048748 ] ] ] ] } },
{ "type": "Feature", "properties": { "FID": 268332, "id": 708, "left": -85.0, "top": -25.0, "right": -80.0, "bottom": -30.0, "row_index": 23, "col_index": 19, "min_lon": -85.0, "min_lat": -30.0, "tile_id": "-85_-30" }, "geometry": { "type": "MultiPolygon", "coordinates": [ [ [ [ -80.1206843, -26.2733618 ], [ -80.1206373, -26.2733889 ], [ -80.120607, -26.273413 ], [ -80.1205623, -26.273433 ], [ -80.1205265, -26.273434 ], [ -80.1204963, -26.2734501 ], [ -80.1204773, -26.2734722 ], [ -80.1204571, -26.2735043 ], [ -80.1204526, -26.2735354 ], [ -80.1204526, -26.2735625 ], [ -80.120437, -26.2735725 ], [ -80.120428, -26.2735905 ], [ -80.1204325, -26.2736156 ], [ -80.120456, -26.2736357 ], [ -80.1204817, -26.2736347 ], [ -80.1204851, -26.2736668 ], [ -80.1204929, -26.2736849 ], [ -80.1205097, -26.2736939 ], [ -80.1205466, -26.2736939 ], [ -80.1205802, -26.2736808 ], [ -80.1206249, -26.2736889 ], [ -80.1206608, -26.2736929 ], [ -80.1206742, -26.2737079 ], [ -80.1207033, -26.273735 ], [ -80.1207368, -26.2737551 ], [ -80.1207693, -26.2737531 ], [ -80.1207917, -26.273737 ], [ -80.1208275, -26.2737461 ], [ -80.1208868, -26.2737501 ], [ -80.1209327, -26.2737471 ], [ -80.1209494, -26.273734 ], [ -80.1209841, -26.273737 ], [ -80.1210132, -26.2737581 ], [ -80.1210479, -26.2737772 ], [ -80.12103, -26.2738263 ], [ -80.1210199, -26.2738705 ], [ -80.1210233, -26.2739116 ], [ -80.1210401, -26.2739307 ], [ -80.1210983, -26.2739588 ], [ -80.1211464, -26.2739698 ], [ -80.1211833, -26.2739588 ], [ -80.1212202, -26.2739568 ], [ -80.1212549, -26.2739658 ], [ -80.1212762, -26.2739859 ], [ -80.1213064, -26.2739909 ], [ -80.1213377, -26.2739818 ], [ -80.1213746, -26.2739678 ], [ -80.1213869, -26.2739487 ], [ -80.1213757, -26.2739337 ], [ -80.1213467, -26.2739317 ], [ -80.1213623, -26.2739006 ], [ -80.1213746, -26.2738775 ], [ -80.1214149, -26.2738554 ], [ -80.1214373, -26.2738424 ], [ -80.1214306, -26.2738283 ], [ -80.1213892, -26.2738153 ], [ -80.1213724, -26.2738053 ], [ -80.1213791, -26.2737671 ], [ -80.1213903, -26.2737501 ], [ -80.1214261, -26.273736 ], [ -80.1214552, -26.273736 ], [ -80.1214865, -26.273731 ], [ -80.1215078, -26.273719 ], [ -80.1215134, -26.2736939 ], [ -80.1215022, -26.2736738 ], [ -80.1214675, -26.2736598 ], [ -80.1214664, -26.2736327 ], [ -80.1214518, -26.2736196 ], [ -80.1214138, -26.2736206 ], [ -80.1213802, -26.2736267 ], [ -80.1213578, -26.2736477 ], [ -80.1213332, -26.2736538 ], [ -80.1213355, -26.2736247 ], [ -80.1213187, -26.2736026 ], [ -80.1212616, -26.2735695 ], [ -80.1212269, -26.2735574 ], [ -80.1212046, -26.2735625 ], [ -80.1211799, -26.2735926 ], [ -80.121152, -26.2736016 ], [ -80.121124, -26.2735986 ], [ -80.1211038, -26.2735865 ], [ -80.1211251, -26.2735484 ], [ -80.1211318, -26.2735303 ], [ -80.1211128, -26.2735163 ], [ -80.1210692, -26.2735193 ], [ -80.1210233, -26.2735324 ], [ -80.1209741, -26.2735334 ], [ -80.1209539, -26.2735153 ], [ -80.1209259, -26.2734982 ], [ -80.1209349, -26.2734641 ], [ -80.1209886, -26.2733979 ], [ -80.1210043, -26.2733738 ], [ -80.1209897, -26.2733548 ], [ -80.1209584, -26.2733437 ], [ -80.120908, -26.2733528 ], [ -80.1208823, -26.2733387 ], [ -80.1208499, -26.2733307 ], [ -80.1208252, -26.2733367 ], [ -80.1207702, -26.2733322 ], [ -80.1207267, -26.2733442 ], [ -80.1206843, -26.2733618 ] ] ] ] } },
{ "type": "Feature", "properties": { "FID": 268333, "id": 708, "left": -85.0, "top": -25.0, "right": -80.0, "bottom": -30.0, "row_index": 23, "col_index": 19, "min_lon": -85.0, "min_lat": -30.0, "tile_id": "-85_-30" }, "geometry": { "type": "MultiPolygon", "coordinates": [ [ [ [ -80.1199004, -26.2733578 ], [ -80.1199049, -26.2733889 ], [ -80.1199184, -26.2734059 ], [ -80.1199407, -26.273413 ], [ -80.1199418, -26.2734451 ], [ -80.1199508, -26.2734701 ], [ -80.119943, -26.2734952 ], [ -80.1199575, -26.2735063 ], [ -80.1199777, -26.2734982 ], [ -80.1200056, -26.2734661 ], [ -80.120037, -26.273424 ], [ -80.120056, -26.2733768 ], [ -80.1200862, -26.2733146 ], [ -80.1201186, -26.2732615 ], [ -80.1201444, -26.2732203 ], [ -80.1201421, -26.2731942 ], [ -80.1201265, -26.2732023 ], [ -80.1201097, -26.2732304 ], [ -80.1200895, -26.2732564 ], [ -80.1200526, -26.2732705 ], [ -80.1200224, -26.2732745 ], [ -80.1199967, -26.2732665 ], [ -80.1199777, -26.2732735 ], [ -80.1199788, -26.2732976 ], [ -80.1199555, -26.273323 ], [ -80.1199148, -26.2733406 ], [ -80.1199004, -26.2733578 ] ] ] ] } },
{ "type": "Feature", "properties": { "FID": 448022, "id": 708, "left": -85.0, "top": -25.0, "right": -80.0, "bottom": -30.0, "row_index": 23, "col_index": 19, "min_lon": -85.0, "min_lat": -30.0, "tile_id": "-85_-30" }, "geometry": { "type": "MultiPolygon", "coordinates": [ [ [ [ -80.1022416, -26.2870454 ], [ -80.1022193, -26.2870564 ], [ -80.102198, -26.2870925 ], [ -80.1021779, -26.2871296 ], [ -80.1021835, -26.2871587 ], [ -80.1022014, -26.2871617 ], [ -80.1022439, -26.2871357 ], [ -80.1022819, -26.2870995 ], [ -80.1023021, -26.2870704 ], [ -80.1022987, -26.2870534 ], [ -80.1022674, -26.2870424 ], [ -80.1022416, -26.2870454 ] ] ] ] } },
{ "type": "Feature", "properties": { "FID": 448026, "id": 708, "left": -85.0, "top": -25.0, "right": -80.0, "bottom": -30.0, "row_index": 23, "col_index": 19, "min_lon": -85.0, "min_lat": -30.0, "tile_id": "-85_-30" }, "geometry": { "type": "MultiPolygon", "coordinates": [ [ [ [ -80.0984709, -26.298351 ], [ -80.0984597, -26.2983751 ], [ -80.0984496, -26.2984132 ], [ -80.0984284, -26.2984503 ], [ -80.0984362, -26.2984643 ], [ -80.0984642, -26.2984533 ], [ -80.0985112, -26.2984202 ], [ -80.0985593, -26.2983801 ], [ -80.098594, -26.298344 ], [ -80.0986063, -26.2983038 ], [ -80.0985984, -26.2982818 ], [ -80.0985761, -26.2982737 ], [ -80.0985313, -26.2982928 ], [ -80.098491, -26.2983289 ], [ -80.0984709, -26.298351 ] ] ] ] } },
{ "type": "Feature", "properties": { "FID": 448027, "id": 708, "left": -85.0, "top": -25.0, "right": -80.0, "bottom": -30.0, "row_index": 23, "col_index": 19, "min_lon": -85.0, "min_lat": -30.0, "tile_id": "-85_-30" }, "geometry": { "type": "MultiPolygon", "coordinates": [ [ [ [ -80.1020447, -26.2869571 ], [ -80.1020134, -26.2869822 ], [ -80.1019865, -26.2869731 ], [ -80.1019586, -26.2869792 ], [ -80.1019485, -26.2869972 ], [ -80.1019597, -26.2870424 ], [ -80.1019843, -26.2870875 ], [ -80.1020033, -26.2871046 ], [ -80.1020313, -26.2870995 ], [ -80.1020693, -26.2870654 ], [ -80.1021219, -26.2870313 ], [ -80.1021488, -26.2869922 ], [ -80.102151, -26.2869651 ], [ -80.1021354, -26.286947 ], [ -80.1020895, -26.286945 ], [ -80.1020447, -26.2869571 ] ] ] ] } },
{ "type": "Feature", "properties": { "FID": 448028, "id": 708, "left": -85.0, "top": -25.0, "right": -80.0, "bottom": -30.0, "row_index": 23, "col_index": 19, "min_lon": -85.0, "min_lat": -30.0, "tile_id": "-85_-30" }, "geometry": { "type": "MultiPolygon", "coordinates": [ [ [ [ -80.0880112, -26.30782 ], [ -80.0879967, -26.307821 ], [ -80.0879866, -26.307836 ], [ -80.0879866, -26.3078651 ], [ -80.0879743, -26.3078691 ], [ -80.0879597, -26.3078781 ], [ -80.0879609, -26.3078962 ], [ -80.0879732, -26.3079213 ], [ -80.0879944, -26.3079443 ], [ -80.0880235, -26.3079534 ], [ -80.0880515, -26.3079433 ], [ -80.0880683, -26.3079193 ], [ -80.088075, -26.3078882 ], [ -80.0880716, -26.3078551 ], [ -80.0880616, -26.307845 ], [ -80.0880336, -26.307841 ], [ -80.0880112, -26.30782 ] ] ] ] } },
{ "type": "Feature", "properties": { "FID": 448029, "id": 708, "left": -85.0, "top": -25.0, "right": -80.0, "bottom": -30.0, "row_index": 23, "col_index": 19, "min_lon": -85.0, "min_lat": -30.0, "tile_id": "-85_-30" }, "geometry": { "type": "MultiPolygon", "coordinates": [ [ [ [ -80.0868364, -26.3046794 ], [ -80.0868095, -26.3046804 ], [ -80.0867849, -26.3046925 ], [ -80.0867614, -26.3047196 ], [ -80.0867446, -26.3047547 ], [ -80.0867301, -26.3047988 ], [ -80.0867256, -26.304851 ], [ -80.0867278, -26.3048911 ], [ -80.0867099, -26.3049172 ], [ -80.0866998, -26.3049402 ], [ -80.0867177, -26.3049452 ], [ -80.0867457, -26.3049342 ], [ -80.0867838, -26.3049342 ], [ -80.0868173, -26.3049352 ], [ -80.0868375, -26.3049563 ], [ -80.086852, -26.3049593 ], [ -80.0868677, -26.3049493 ], [ -80.0868677, -26.3049162 ], [ -80.0868677, -26.304878 ], [ -80.0868755, -26.3048028 ], [ -80.0868766, -26.3047496 ], [ -80.0868722, -26.3047055 ], [ -80.0868632, -26.3046875 ], [ -80.0868364, -26.3046794 ] ] ] ] } },
{ "type": "Feature", "properties": { "FID": 448030, "id": 708, "left": -85.0, "top": -25.0, "right": -80.0, "bottom": -30.0, "row_index": 23, "col_index": 19, "min_lon": -85.0, "min_lat": -30.0, "tile_id": "-85_-30" }, "geometry": { "type": "MultiPolygon", "coordinates": [ [ [ [ -80.1148575, -26.2957108 ], [ -80.1148429, -26.2957288 ], [ -80.1148161, -26.2957378 ], [ -80.1148026, -26.2957529 ], [ -80.1147971, -26.295773 ], [ -80.1147758, -26.295777 ], [ -80.1147557, -26.295793 ], [ -80.1147467, -26.2958131 ], [ -80.114759, -26.2958331 ], [ -80.114778, -26.2958341 ], [ -80.1147971, -26.2958532 ], [ -80.1147982, -26.2958903 ], [ -80.1148049, -26.2959114 ], [ -80.1148295, -26.2959164 ], [ -80.1148653, -26.2959094 ], [ -80.1149011, -26.2958873 ], [ -80.1149168, -26.2958703 ], [ -80.1149157, -26.2958522 ], [ -80.1148944, -26.2958462 ], [ -80.1148989, -26.2958211 ], [ -80.1148989, -26.295796 ], [ -80.114919, -26.295791 ], [ -80.114938, -26.295776 ], [ -80.1149414, -26.2957549 ], [ -80.1149392, -26.2957298 ], [ -80.1149157, -26.2957077 ], [ -80.1148799, -26.2957037 ], [ -80.1148575, -26.2957108 ] ] ] ] } },
{ "type": "Feature", "properties": { "FID": 448031, "id": 708, "left": -85.0, "top": -25.0, "right": -80.0, "bottom": -30.0, "row_index": 23, "col_index": 19, "min_lon": -85.0, "min_lat": -30.0, "tile_id": "-85_-30" }, "geometry": { "type": "MultiPolygon", "coordinates": [ [ [ [ -80.0976597, -26.2989147 ], [ -80.0976955, -26.2989278 ], [ -80.0977212, -26.2989268 ], [ -80.0977369, -26.2989117 ], [ -80.0977268, -26.2988917 ], [ -80.0976977, -26.2988786 ], [ -80.0976697, -26.2988826 ], [ -80.0976563, -26.2988997 ], [ -80.0976597, -26.2989147 ] ] ] ] } },
{ "type": "Feature", "properties": { "FID": 448032, "id": 708, "left": -85.0, "top": -25.0, "right": -80.0, "bottom": -30.0, "row_index": 23, "col_index": 19, "min_lon": -85.0, "min_lat": -30.0, "tile_id": "-85_-30" }, "geometry": { "type": "MultiPolygon", "coordinates": [ [ [ [ -80.120084, -26.2735043 ], [ -80.1200929, -26.2735183 ], [ -80.120113, -26.2735243 ], [ -80.1201298, -26.2735103 ], [ -80.1201466, -26.2734862 ], [ -80.1201656, -26.2734792 ], [ -80.1201802, -26.2734611 ], [ -80.1201824, -26.273437 ], [ -80.1201746, -26.273419 ], [ -80.1201556, -26.273414 ], [ -80.1201332, -26.273432 ], [ -80.1201097, -26.2734621 ], [ -80.1200884, -26.2734892 ], [ -80.120084, -26.2735043 ] ] ] ] } },
{ "type": "Feature", "properties": { "FID": 448033, "id": 708, "left": -85.0, "top": -25.0, "right": -80.0, "bottom": -30.0, "row_index": 23, "col_index": 19, "min_lon": -85.0, "min_lat": -30.0, "tile_id": "-85_-30" }, "geometry": { "type": "MultiPolygon", "coordinates": [ [ [ [ -80.1202557, -26.273719 ], [ -80.1202289, -26.273724 ], [ -80.1202087, -26.2737481 ], [ -80.1201986, -26.2737782 ], [ -80.1202065, -26.2738133 ], [ -80.1202087, -26.2738564 ], [ -80.1202143, -26.2738695 ], [ -80.1202311, -26.2738604 ], [ -80.1202378, -26.2738334 ], [ -80.1202445, -26.2738063 ], [ -80.1202703, -26.2737832 ], [ -80.1202837, -26.2737551 ], [ -80.1202781, -26.273729 ], [ -80.1202557, -26.273719 ] ] ] ] } },
{ "type": "Feature", "properties": { "FID": 448034, "id": 708, "left": -85.0, "top": -25.0, "right": -80.0, "bottom": -30.0, "row_index": 23, "col_index": 19, "min_lon": -85.0, "min_lat": -30.0, "tile_id": "-85_-30" }, "geometry": { "type": "MultiPolygon", "coordinates": [ [ [ [ -80.1198725, -26.2730357 ], [ -80.1198501, -26.2730417 ], [ -80.1198344, -26.2730638 ], [ -80.1198053, -26.2730989 ], [ -80.1197919, -26.273125 ], [ -80.1197942, -26.2731461 ], [ -80.1198199, -26.2731581 ], [ -80.1198423, -26.2731501 ], [ -80.1198602, -26.273133 ], [ -80.1198904, -26.2731089 ], [ -80.119906, -26.2730768 ], [ -80.1199049, -26.2730528 ], [ -80.1198926, -26.2730417 ], [ -80.1198725, -26.2730357 ] ] ] ] } },
{ "type": "Feature", "properties": { "FID": 448035, "id": 708, "left": -85.0, "top": -25.0, "right": -80.0, "bottom": -30.0, "row_index": 23, "col_index": 19, "min_lon": -85.0, "min_lat": -30.0, "tile_id": "-85_-30" }, "geometry": { "type": "MultiPolygon", "coordinates": [ [ [ [ -80.1204068, -26.2736578 ], [ -80.120381, -26.2736558 ], [ -80.1203586, -26.2736668 ], [ -80.1203463, -26.2736919 ], [ -80.1203452, -26.273716 ], [ -80.1203228, -26.273742 ], [ -80.1203016, -26.2737711 ], [ -80.1202915, -26.2738143 ], [ -80.1202904, -26.2738484 ], [ -80.1202736, -26.2738905 ], [ -80.1202691, -26.2739156 ], [ -80.1202915, -26.2739327 ], [ -80.1203206, -26.2739247 ], [ -80.1203508, -26.2738996 ], [ -80.1203877, -26.2738815 ], [ -80.1204426, -26.2738594 ], [ -80.1204761, -26.2738354 ], [ -80.1204896, -26.2738043 ], [ -80.1204761, -26.2737501 ], [ -80.1204582, -26.2737039 ], [ -80.1204336, -26.2736688 ], [ -80.1204068, -26.2736578 ] ] ] ] } },
{ "type": "Feature", "properties": { "FID": 448036, "id": 708, "left": -85.0, "top": -25.0, "right": -80.0, "bottom": -30.0, "row_index": 23, "col_index": 19, "min_lon": -85.0, "min_lat": -30.0, "tile_id": "-85_-30" }, "geometry": { "type": "MultiPolygon", "coordinates": [ [ [ [ -80.1212974, -26.2745598 ], [ -80.1213114, -26.2745663 ], [ -80.1213276, -26.2745623 ], [ -80.1213371, -26.2745527 ], [ -80.121336, -26.2745392 ], [ -80.1213187, -26.2745357 ], [ -80.1213019, -26.2745482 ], [ -80.1212974, -26.2745598 ] ] ] ] } },
{ "type": "Feature", "properties": { "FID": 448037, "id": 708, "left": -85.0, "top": -25.0, "right": -80.0, "bottom": -30.0, "row_index": 23, "col_index": 19, "min_lon": -85.0, "min_lat": -30.0, "tile_id": "-85_-30" }, "geometry": { "type": "MultiPolygon", "coordinates": [ [ [ [ -80.1209265, -26.2742658 ], [ -80.1209265, -26.2742838 ], [ -80.120941, -26.2742969 ], [ -80.1209746, -26.2743049 ], [ -80.1209914, -26.2742909 ], [ -80.1209903, -26.2742698 ], [ -80.1209769, -26.2742557 ], [ -80.12095, -26.2742497 ], [ -80.1209265, -26.2742658 ] ] ] ] } },
{ "type": "Feature", "properties": { "FID": 448038, "id": 708, "left": -85.0, "top": -25.0, "right": -80.0, "bottom": -30.0, "row_index": 23, "col_index": 19, "min_lon": -85.0, "min_lat": -30.0, "tile_id": "-85_-30" }, "geometry": { "type": "MultiPolygon", "coordinates": [ [ [ [ -80.1205953, -26.2739267 ], [ -80.1205718, -26.2739477 ], [ -80.1205617, -26.2739618 ], [ -80.1205785, -26.2739909 ], [ -80.1206098, -26.2740059 ], [ -80.1206356, -26.2739989 ], [ -80.1206602, -26.2739698 ], [ -80.1206602, -26.2739457 ], [ -80.12063, -26.2739206 ], [ -80.1205953, -26.2739267 ] ] ] ] } },
{ "type": "Feature", "properties": { "FID": 448049, "id": 708, "left": -85.0, "top": -25.0, "right": -80.0, "bottom": -30.0, "row_index": 23, "col_index": 19, "min_lon": -85.0, "min_lat": -30.0, "tile_id": "-85_-30" }, "geometry": { "type": "MultiPolygon", "coordinates": [ [ [ [ -80.102203, -26.2938956 ], [ -80.1021829, -26.2939036 ], [ -80.1021717, -26.2939287 ], [ -80.1021717, -26.2939748 ], [ -80.1021717, -26.294018 ], [ -80.1021818, -26.2940601 ], [ -80.1021997, -26.2940771 ], [ -80.10224, -26.2940781 ], [ -80.1022724, -26.2940661 ], [ -80.102287, -26.294047 ], [ -80.1022858, -26.294024 ], [ -80.1022668, -26.2939879 ], [ -80.1022556, -26.2939528 ], [ -80.1022277, -26.2939126 ], [ -80.102203, -26.2938956 ] ] ] ] } },
{ "type": "Feature", "properties": { "FID": 449806, "id": 708, "left": -85.0, "top": -25.0, "right": -80.0, "bottom": -30.0, "row_index": 23, "col_index": 19, "min_lon": -85.0, "min_lat": -30.0, "tile_id": "-85_-30" }, "geometry": { "type": "MultiPolygon", "coordinates": [ [ [ [ -80.0869605, -26.3051846 ], [ -80.0869494, -26.3051966 ], [ -80.0869394, -26.3052325 ], [ -80.0869193, -26.3052655 ], [ -80.0869182, -26.3053015 ], [ -80.0869215, -26.3053275 ], [ -80.0869405, -26.3053514 ], [ -80.0869505, -26.3054004 ], [ -80.0869572, -26.3054424 ], [ -80.0869561, -26.3054853 ], [ -80.086965, -26.3055243 ], [ -80.0869817, -26.3055253 ], [ -80.0870029, -26.3055023 ], [ -80.0870285, -26.3055053 ], [ -80.0870464, -26.3054913 ], [ -80.0870486, -26.3054654 ], [ -80.0870352, -26.3054514 ], [ -80.0870007, -26.3054614 ], [ -80.0870029, -26.3054264 ], [ -80.0870029, -26.3053704 ], [ -80.0869951, -26.3053085 ], [ -80.0869918, -26.3052495 ], [ -80.0869851, -26.3052056 ], [ -80.0869739, -26.3051876 ], [ -80.0869605, -26.3051846 ] ] ] ] } },
{ "type": "Feature", "properties": { "FID": 449872, "id": 708, "left": -85.0, "top": -25.0, "right": -80.0, "bottom": -30.0, "row_index": 23, "col_index": 19, "min_lon": -85.0, "min_lat": -30.0, "tile_id": "-85_-30" }, "geometry": { "type": "MultiPolygon", "coordinates": [ [ [ [ -80.1143481, -26.2964729 ], [ -80.114368, -26.2964716 ], [ -80.1143843, -26.296455 ], [ -80.1143983, -26.2964298 ], [ -80.1144161, -26.2964 ], [ -80.1144176, -26.2963781 ], [ -80.1143895, -26.2963874 ], [ -80.1143673, -26.2964013 ], [ -80.1143488, -26.2964192 ], [ -80.1143377, -26.296459 ], [ -80.1143481, -26.2964729 ] ] ] ] } },
{ "type": "Feature", "properties": { "FID": 449873, "id": 708, "left": -85.0, "top": -25.0, "right": -80.0, "bottom": -30.0, "row_index": 23, "col_index": 19, "min_lon": -85.0, "min_lat": -30.0, "tile_id": "-85_-30" }, "geometry": { "type": "MultiPolygon", "coordinates": [ [ [ [ -80.1055132, -26.2886721 ], [ -80.1054845, -26.2886729 ], [ -80.1054616, -26.2886993 ], [ -80.1054395, -26.2887257 ], [ -80.105397, -26.2887403 ], [ -80.1053716, -26.2887631 ], [ -80.1053561, -26.2888159 ], [ -80.1053537, -26.2888613 ], [ -80.1053725, -26.2889046 ], [ -80.1053978, -26.2889369 ], [ -80.1054207, -26.2889391 ], [ -80.1054829, -26.2889171 ], [ -80.1055181, -26.2888929 ], [ -80.1055295, -26.2888628 ], [ -80.1055352, -26.2888298 ], [ -80.1055238, -26.2888071 ], [ -80.1055344, -26.2887829 ], [ -80.1055573, -26.2887491 ], [ -80.1055622, -26.288711 ], [ -80.1055516, -26.2886919 ], [ -80.1055132, -26.2886721 ] ] ] ] } },
{ "type": "Feature", "properties": { "FID": 449874, "id": 708, "left": -85.0, "top": -25.0, "right": -80.0, "bottom": -30.0, "row_index": 23, "col_index": 19, "min_lon": -85.0, "min_lat": -30.0, "tile_id": "-85_-30" }, "geometry": { "type": "MultiPolygon", "coordinates": [ [ [ [ -80.1011699, -26.2868774 ], [ -80.1011467, -26.2868394 ], [ -80.1011147, -26.2868122 ], [ -80.1010867, -26.2868007 ], [ -80.1010571, -26.2868064 ], [ -80.1010299, -26.2868351 ], [ -80.1010066, -26.2868566 ], [ -80.1009906, -26.2868581 ], [ -80.1009506, -26.2868444 ], [ -80.100925, -26.2868466 ], [ -80.1008874, -26.2868566 ], [ -80.1008634, -26.2868925 ], [ -80.1008522, -26.2869248 ], [ -80.1008498, -26.2869729 ], [ -80.100865, -26.2870188 ], [ -80.1008866, -26.287046 ], [ -80.1008938, -26.287079 ], [ -80.100877, -26.2871235 ], [ -80.1008522, -26.2871479 ], [ -80.1008434, -26.287191 ], [ -80.1008498, -26.2872168 ], [ -80.1008442, -26.2872405 ], [ -80.1008634, -26.2872469 ], [ -80.1009042, -26.2872311 ], [ -80.1009898, -26.2872139 ], [ -80.1010635, -26.2871852 ], [ -80.1011131, -26.2871522 ], [ -80.1011595, -26.2871077 ], [ -80.1011859, -26.2870597 ], [ -80.1012011, -26.287013 ], [ -80.1012099, -26.2869564 ], [ -80.1012067, -26.2869212 ], [ -80.1011915, -26.2868982 ], [ -80.1011699, -26.2868774 ] ] ] ] } },
{ "type": "Feature", "properties": { "FID": 449875, "id": 708, "left": -85.0, "top": -25.0, "right": -80.0, "bottom": -30.0, "row_index": 23, "col_index": 19, "min_lon": -85.0, "min_lat": -30.0, "tile_id": "-85_-30" }, "geometry": { "type": "MultiPolygon", "coordinates": [ [ [ [ -80.1082054, -26.2971534 ], [ -80.1081987, -26.2971713 ], [ -80.1082172, -26.2971839 ], [ -80.1082401, -26.2971706 ], [ -80.1082372, -26.2971534 ], [ -80.1082246, -26.2971415 ], [ -80.1082054, -26.2971534 ] ] ] ] } },
{ "type": "Feature", "properties": { "FID": 449876, "id": 708, "left": -85.0, "top": -25.0, "right": -80.0, "bottom": -30.0, "row_index": 23, "col_index": 19, "min_lon": -85.0, "min_lat": -30.0, "tile_id": "-85_-30" }, "geometry": { "type": "MultiPolygon", "coordinates": [ [ [ [ -80.096736, -26.2864348 ], [ -80.0967176, -26.2864606 ], [ -80.09672, -26.2864879 ], [ -80.096752, -26.2864793 ], [ -80.096768, -26.2864592 ], [ -80.0967568, -26.2864333 ], [ -80.096736, -26.2864348 ] ] ] ] } },
{ "type": "Feature", "properties": { "FID": 449877, "id": 708, "left": -85.0, "top": -25.0, "right": -80.0, "bottom": -30.0, "row_index": 23, "col_index": 19, "min_lon": -85.0, "min_lat": -30.0, "tile_id": "-85_-30" }, "geometry": { "type": "MultiPolygon", "coordinates": [ [ [ [ -80.0945341, -26.297304 ], [ -80.0945187, -26.2973252 ], [ -80.0945228, -26.2973455 ], [ -80.0945413, -26.2973483 ], [ -80.0945567, -26.2973234 ], [ -80.0945547, -26.2973031 ], [ -80.0945341, -26.297304 ] ] ] ] } },
{ "type": "Feature", "properties": { "FID": 449878, "id": 708, "left": -85.0, "top": -25.0, "right": -80.0, "bottom": -30.0, "row_index": 23, "col_index": 19, "min_lon": -85.0, "min_lat": -30.0, "tile_id": "-85_-30" }, "geometry": { "type": "MultiPolygon", "coordinates": [ [ [ [ -80.105622, -26.2886927 ], [ -80.1056138, -26.2887191 ], [ -80.1056293, -26.2887396 ], [ -80.1056571, -26.2887352 ], [ -80.1056743, -26.288711 ], [ -80.1056694, -26.2886861 ], [ -80.1056432, -26.2886773 ], [ -80.105622, -26.2886927 ] ] ] ] } },
{ "type": "Feature", "properties": { "FID": 449879, "id": 708, "left": -85.0, "top": -25.0, "right": -80.0, "bottom": -30.0, "row_index": 23, "col_index": 19, "min_lon": -85.0, "min_lat": -30.0, "tile_id": "-85_-30" }, "geometry": { "type": "MultiPolygon", "coordinates": [ [ [ [ -80.1038299, -26.2941125 ], [ -80.1038189, -26.294144 ], [ -80.1038178, -26.2941738 ], [ -80.1038571, -26.2941882 ], [ -80.1038893, -26.2941756 ], [ -80.1038903, -26.294144 ], [ -80.1038551, -26.2941053 ], [ -80.1038299, -26.2941125 ] ] ] ] } },
{ "type": "Feature", "properties": { "FID": 449880, "id": 708, "left": -85.0, "top": -25.0, "right": -80.0, "bottom": -30.0, "row_index": 23, "col_index": 19, "min_lon": -85.0, "min_lat": -30.0, "tile_id": "-85_-30" }, "geometry": { "type": "MultiPolygon", "coordinates": [ [ [ [ -80.1044874, -26.2875442 ], [ -80.104458, -26.2875794 ], [ -80.1044531, -26.2876087 ], [ -80.1045119, -26.2876058 ], [ -80.1045512, -26.2875911 ], [ -80.1045561, -26.2875501 ], [ -80.1045316, -26.2875295 ], [ -80.1044874, -26.2875442 ] ] ] ] } },
{ "type": "Feature", "properties": { "FID": 449881, "id": 708, "left": -85.0, "top": -25.0, "right": -80.0, "bottom": -30.0, "row_index": 23, "col_index": 19, "min_lon": -85.0, "min_lat": -30.0, "tile_id": "-85_-30" }, "geometry": { "type": "MultiPolygon", "coordinates": [ [ [ [ -80.0952098, -26.2971602 ], [ -80.0952005, -26.2971768 ], [ -80.0952067, -26.2972007 ], [ -80.0952376, -26.2972118 ], [ -80.0952591, -26.2972007 ], [ -80.0952571, -26.2971768 ], [ -80.0952345, -26.2971583 ], [ -80.0952098, -26.2971602 ] ] ] ] } },
{ "type": "Feature", "properties": { "FID": 449882, "id": 708, "left": -85.0, "top": -25.0, "right": -80.0, "bottom": -30.0, "row_index": 23, "col_index": 19, "min_lon": -85.0, "min_lat": -30.0, "tile_id": "-85_-30" }, "geometry": { "type": "MultiPolygon", "coordinates": [ [ [ [ -80.104368, -26.2875999 ], [ -80.1043402, -26.2876131 ], [ -80.1043091, -26.2876601 ], [ -80.1042666, -26.287707 ], [ -80.104278, -26.2877261 ], [ -80.1043173, -26.2877246 ], [ -80.1043467, -26.2876997 ], [ -80.1043876, -26.2876439 ], [ -80.1043893, -26.2876102 ], [ -80.104368, -26.2875999 ] ] ] ] } },
{ "type": "Feature", "properties": { "FID": 708634, "id": 708, "left": -85.0, "top": -25.0, "right": -80.0, "bottom": -30.0, "row_index": 23, "col_index": 19, "min_lon": -85.0, "min_lat": -30.0, "tile_id": "-85_-30" }, "geometry": { "type": "MultiPolygon", "coordinates": [ [ [ [ -80.0962771, -26.29972 ], [ -80.0962946, -26.2996971 ], [ -80.0963227, -26.2996851 ], [ -80.0963348, -26.2996647 ], [ -80.0963134, -26.299649 ], [ -80.0962892, -26.2996502 ], [ -80.0962624, -26.2996779 ], [ -80.0962181, -26.2997043 ], [ -80.0962114, -26.2997212 ], [ -80.0962316, -26.2997428 ], [ -80.096249, -26.2997488 ], [ -80.0962771, -26.29972 ] ] ] ] } },
{ "type": "Feature", "properties": { "FID": 746411, "id": 708, "left": -85.0, "top": -25.0, "right": -80.0, "bottom": -30.0, "row_index": 23, "col_index": 19, "min_lon": -85.0, "min_lat": -30.0, "tile_id": "-85_-30" }, "geometry": { "type": "MultiPolygon", "coordinates": [ [ [ [ -80.0969584, -26.2992667 ], [ -80.0969839, -26.2992775 ], [ -80.0970054, -26.2992691 ], [ -80.0970201, -26.2992426 ], [ -80.0970054, -26.2992258 ], [ -80.0969785, -26.2992234 ], [ -80.0969611, -26.2992439 ], [ -80.0969584, -26.2992667 ] ] ] ] } }
]
}
