{
"type": "FeatureCollection",
"name": "-85_0",
"crs": { "type": "name", "properties": { "name": "urn:ogc:def:crs:OGC:1.3:CRS84" } },
"xy_coordinate_resolution": 1e-15,
"features": [
{ "type": "Feature", "properties": { "FID": 37695, "id": 702, "left": -85.0, "top": 5.0, "right": -80.0, "bottom": 0.0, "row_index": 17, "col_index": 19, "min_lon": -85.0, "min_lat": 0.0, "tile_id": "-85_0" }, "geometry": { "type": "MultiPolygon", "coordinates": [ [ [ [ -80.050249, 0.4182203 ], [ -80.0500165, 0.4181417 ], [ -80.0497764, 0.4180746 ], [ -80.0496232, 0.418128 ], [ -80.0494571, 0.4181688 ], [ -80.0492966, 0.4183103 ], [ -80.0491546, 0.4184926 ], [ -80.0488519, 0.4188835 ], [ -80.0487988, 0.41909 ], [ -80.0489744, 0.4193777 ], [ -80.0490724, 0.4196651 ], [ -80.0490556, 0.4198687 ], [ -80.0489659, 0.4199921 ], [ -80.048786, 0.4200226 ], [ -80.0485734, 0.4200552 ], [ -80.0483736, 0.420053 ], [ -80.0478696, 0.4199541 ], [ -80.0475458, 0.4198047 ], [ -80.0473313, 0.4198385 ], [ -80.0470423, 0.4196956 ], [ -80.0468994, 0.4198415 ], [ -80.0466365, 0.4198779 ], [ -80.0464493, 0.4199571 ], [ -80.0463216, 0.4201183 ], [ -80.0460811, 0.4200573 ], [ -80.0459082, 0.4201575 ], [ -80.045835, 0.4200605 ], [ -80.0457559, 0.4200727 ], [ -80.0456484, 0.4201603 ], [ -80.0455877, 0.4201693 ], [ -80.0454724, 0.420139 ], [ -80.0454436, 0.4200464 ], [ -80.0454649, 0.419855 ], [ -80.0455345, 0.419644 ], [ -80.045743, 0.4194723 ], [ -80.0462097, 0.418952 ], [ -80.046773, 0.418614 ], [ -80.0477225, 0.418158 ], [ -80.0484628, 0.4176377 ], [ -80.0497511, 0.4169461 ], [ -80.0503725, 0.4166721 ], [ -80.0515801, 0.4163912 ], [ -80.0547637, 0.4163408 ], [ -80.0565395, 0.4167685 ], [ -80.0582038, 0.417962 ], [ -80.0589363, 0.418855 ], [ -80.0595207, 0.4196135 ], [ -80.0606879, 0.4213389 ], [ -80.0610191, 0.4223118 ], [ -80.0611883, 0.4230956 ], [ -80.0612996, 0.4258508 ], [ -80.0617185, 0.4324032 ], [ -80.0615537, 0.4351598 ], [ -80.0613034, 0.4378368 ], [ -80.0602341, 0.4450155 ], [ -80.0589745, 0.4479768 ], [ -80.0574102, 0.4505237 ], [ -80.0565647, 0.4515308 ], [ -80.0553253, 0.4523749 ], [ -80.0543328, 0.4528681 ], [ -80.0531009, 0.4531753 ], [ -80.0520787, 0.4530736 ], [ -80.0521144, 0.4525999 ], [ -80.0528542, 0.4512025 ], [ -80.0543959, 0.4502091 ], [ -80.0552017, 0.4492971 ], [ -80.0554848, 0.4491612 ], [ -80.0559623, 0.4492263 ], [ -80.0564233, 0.449348 ], [ -80.0568516, 0.4492615 ], [ -80.0568926, 0.4489516 ], [ -80.0566913, 0.448716 ], [ -80.0566827, 0.4483036 ], [ -80.0569966, 0.4478495 ], [ -80.0574166, 0.4475256 ], [ -80.0577583, 0.4472243 ], [ -80.0579633, 0.4468553 ], [ -80.0579952, 0.4465051 ], [ -80.058264, 0.4460808 ], [ -80.0581273, 0.4459897 ], [ -80.0579405, 0.4458484 ], [ -80.0577173, 0.4456935 ], [ -80.0573892, 0.4448233 ], [ -80.0572753, 0.4442812 ], [ -80.0572525, 0.4452744 ], [ -80.0572981, 0.4466002 ], [ -80.0573209, 0.4469009 ], [ -80.0574667, 0.4469145 ], [ -80.0575396, 0.4471378 ], [ -80.0574072, 0.4472988 ], [ -80.0572029, 0.4470986 ], [ -80.0570749, 0.445931 ], [ -80.0570322, 0.4447905 ], [ -80.0563585, 0.4430676 ], [ -80.0558931, 0.4421259 ], [ -80.0542778, 0.4393284 ], [ -80.0535101, 0.4378073 ], [ -80.0534895, 0.4365241 ], [ -80.054034, 0.436207 ], [ -80.0542741, 0.4358919 ], [ -80.0543678, 0.435568 ], [ -80.0544959, 0.4349637 ], [ -80.0545831, 0.4347246 ], [ -80.0547023, 0.4343975 ], [ -80.0545615, 0.4341599 ], [ -80.054494, 0.4343982 ], [ -80.0543895, 0.4346135 ], [ -80.0541761, 0.4346703 ], [ -80.0542018, 0.4347743 ], [ -80.0542111, 0.4349422 ], [ -80.0541151, 0.4350181 ], [ -80.0539939, 0.4350051 ], [ -80.0537934, 0.4348821 ], [ -80.0536033, 0.4347116 ], [ -80.0531759, 0.4338824 ], [ -80.0530394, 0.4326474 ], [ -80.0530713, 0.4324242 ], [ -80.0530166, 0.4322169 ], [ -80.0530189, 0.4320392 ], [ -80.0530189, 0.4318228 ], [ -80.0530143, 0.4316929 ], [ -80.0529847, 0.4315335 ], [ -80.0529278, 0.4313079 ], [ -80.0529016, 0.4308005 ], [ -80.0528553, 0.4305993 ], [ -80.0527683, 0.4304013 ], [ -80.05252, 0.4290419 ], [ -80.0524881, 0.4287982 ], [ -80.0524334, 0.4285681 ], [ -80.0524198, 0.4283858 ], [ -80.0524192, 0.4280475 ], [ -80.0526915, 0.4273215 ], [ -80.0530108, 0.4268927 ], [ -80.053172, 0.4268349 ], [ -80.0531568, 0.4267923 ], [ -80.0530836, 0.4266436 ], [ -80.0532974, 0.425285 ], [ -80.0532552, 0.4244335 ], [ -80.0530943, 0.4238622 ], [ -80.0528959, 0.4234859 ], [ -80.0528184, 0.4234266 ], [ -80.0526704, 0.4234221 ], [ -80.0524335, 0.42352 ], [ -80.0524312, 0.423479 ], [ -80.052438, 0.4230143 ], [ -80.0524995, 0.4227729 ], [ -80.0525656, 0.42252 ], [ -80.0524517, 0.4223332 ], [ -80.052323, 0.4224209 ], [ -80.0521837, 0.4226737 ], [ -80.0519955, 0.422848 ], [ -80.0518474, 0.4228981 ], [ -80.0517381, 0.4228571 ], [ -80.0516105, 0.4227546 ], [ -80.051547, 0.4225923 ], [ -80.0508788, 0.4220187 ], [ -80.0506475, 0.4217159 ], [ -80.0505746, 0.4214676 ], [ -80.0505063, 0.4213855 ], [ -80.0503266, 0.4211588 ], [ -80.0502807, 0.4209391 ], [ -80.0503217, 0.4205609 ], [ -80.0504197, 0.4202944 ], [ -80.0504142, 0.4201126 ], [ -80.0499493, 0.4195837 ], [ -80.049872, 0.4194669 ], [ -80.0497818, 0.4191987 ], [ -80.049816, 0.418964 ], [ -80.04984, 0.4188961 ], [ -80.0499146, 0.418825 ], [ -80.0500757, 0.4190483 ], [ -80.0500596, 0.4191612 ], [ -80.0503673, 0.4192123 ], [ -80.0508179, 0.4191768 ], [ -80.050914, 0.4190688 ], [ -80.0508707, 0.4189276 ], [ -80.0506133, 0.4186747 ], [ -80.0504493, 0.4183376 ], [ -80.050249, 0.4182203 ] ] ] ] } },
{ "type": "Feature", "properties": { "FID": 37701, "id": 702, "left": -85.0, "top": 5.0, "right": -80.0, "bottom": 0.0, "row_index": 17, "col_index": 19, "min_lon": -85.0, "min_lat": 0.0, "tile_id": "-85_0" }, "geometry": { "type": "MultiPolygon", "coordinates": [ [ [ [ -80.0351201, 0.4018745 ], [ -80.0341988, 0.401518 ], [ -80.0336473, 0.4012962 ], [ -80.0326158, 0.4010288 ], [ -80.0314698, 0.4008931 ], [ -80.0296699, 0.4002501 ], [ -80.0281721, 0.3996691 ], [ -80.0253797, 0.3983585 ], [ -80.0238133, 0.3975431 ], [ -80.0225794, 0.397232 ], [ -80.0213993, 0.3971462 ], [ -80.020659, 0.397114 ], [ -80.0177944, 0.3962235 ], [ -80.0133098, 0.3949737 ], [ -80.0120437, 0.3949522 ], [ -80.0110191, 0.3946196 ], [ -80.0095347, 0.3946033 ], [ -80.0083423, 0.3943443 ], [ -80.0080443, 0.3940442 ], [ -80.0081121, 0.3939262 ], [ -80.0098573, 0.3933498 ], [ -80.0097584, 0.3931869 ], [ -80.0096645, 0.393056 ], [ -80.0093766, 0.3930947 ], [ -80.0092059, 0.39308 ], [ -80.0085783, 0.392667 ], [ -80.0084479, 0.3926715 ], [ -80.008353, 0.3926884 ], [ -80.0075537, 0.3929566 ], [ -80.0071284, 0.3932533 ], [ -80.0068977, 0.3934815 ], [ -80.0045266, 0.3927038 ], [ -80.0019801, 0.3920286 ], [ -80.0015509, 0.3919321 ], [ -80.0005424, 0.3914278 ], [ -80.0, 0.391213415978694 ], [ -80.0, 0.36433842062397 ], [ -80.0001894, 0.3641066 ], [ -80.001166, 0.363166 ], [ -80.0015587, 0.3626825 ], [ -80.002261, 0.3623022 ], [ -80.0038866, 0.3625451 ], [ -80.007052, 0.36359 ], [ -80.0072788, 0.3642779 ], [ -80.0071856, 0.3649395 ], [ -80.0076023, 0.3651085 ], [ -80.0079947, 0.3652677 ], [ -80.0081241, 0.3653202 ], [ -80.0097156, 0.365368 ], [ -80.0113249, 0.3661512 ], [ -80.0141172, 0.3681183 ], [ -80.015308, 0.369107 ], [ -80.0156888, 0.3695093 ], [ -80.0157934, 0.3696193 ], [ -80.0162816, 0.3698982 ], [ -80.0165257, 0.3699626 ], [ -80.0165686, 0.3698714 ], [ -80.0167161, 0.3694744 ], [ -80.0167773, 0.3693344 ], [ -80.0174043, 0.3694127 ], [ -80.0177622, 0.3700135 ], [ -80.018127, 0.3705339 ], [ -80.0184381, 0.3709684 ], [ -80.0187496, 0.3711781 ], [ -80.019055, 0.3712178 ], [ -80.0191462, 0.3711186 ], [ -80.0193071, 0.3709764 ], [ -80.0194708, 0.3709308 ], [ -80.0195915, 0.3710475 ], [ -80.0195606, 0.3712098 ], [ -80.0195619, 0.3712567 ], [ -80.0201704, 0.3722197 ], [ -80.0206761, 0.373459 ], [ -80.0207515, 0.3736116 ], [ -80.0215824, 0.3748938 ], [ -80.0222683, 0.3751472 ], [ -80.0227601, 0.3751101 ], [ -80.0235826, 0.3756782 ], [ -80.0238401, 0.3761557 ], [ -80.0246799, 0.3767901 ], [ -80.02506, 0.3774401 ], [ -80.0262642, 0.3795193 ], [ -80.0295178, 0.3851375 ], [ -80.0315245, 0.3874658 ], [ -80.0325036, 0.3887939 ], [ -80.0333126, 0.3905181 ], [ -80.0355613, 0.3928869 ], [ -80.0364044, 0.3939932 ], [ -80.0370687, 0.3946732 ], [ -80.0376588, 0.3950755 ], [ -80.0386406, 0.3957705 ], [ -80.0399606, 0.39653 ], [ -80.0405744, 0.3969031 ], [ -80.0413007, 0.3975111 ], [ -80.0415154, 0.3979256 ], [ -80.041239, 0.3982369 ], [ -80.0412247, 0.398253 ], [ -80.0407903, 0.3987275 ], [ -80.040129, 0.3985124 ], [ -80.0393689, 0.3979719 ], [ -80.0390601, 0.3974027 ], [ -80.0386213, 0.3974083 ], [ -80.0383105, 0.3977047 ], [ -80.0382371, 0.3989276 ], [ -80.038628, 0.4010176 ], [ -80.038968, 0.4013655 ], [ -80.0389109, 0.4015459 ], [ -80.0387604, 0.4016813 ], [ -80.0382757, 0.4018031 ], [ -80.0375448, 0.4017396 ], [ -80.0367508, 0.4017564 ], [ -80.0367947, 0.4020001 ], [ -80.0367947, 0.402263 ], [ -80.0363944, 0.4022957 ], [ -80.0359569, 0.4021694 ], [ -80.0351201, 0.4018745 ] ] ] ] } },
{ "type": "Feature", "properties": { "FID": 53155, "id": 702, "left": -85.0, "top": 5.0, "right": -80.0, "bottom": 0.0, "row_index": 17, "col_index": 19, "min_lon": -85.0, "min_lat": 0.0, "tile_id": "-85_0" }, "geometry": { "type": "MultiPolygon", "coordinates": [ [ [ [ -81.6071742, 4.0134869 ], [ -81.6072605, 4.0135172 ], [ -81.6072925, 4.0135982 ], [ -81.6071993, 4.0140408 ], [ -81.6071229, 4.0141401 ], [ -81.6070091, 4.0141558 ], [ -81.6069134, 4.014089 ], [ -81.606837, 4.013942 ], [ -81.6068367, 4.0137843 ], [ -81.6069518, 4.0136331 ], [ -81.6070456, 4.0135668 ], [ -81.6071742, 4.0134869 ] ] ] ] } },
{ "type": "Feature", "properties": { "FID": 53156, "id": 702, "left": -85.0, "top": 5.0, "right": -80.0, "bottom": 0.0, "row_index": 17, "col_index": 19, "min_lon": -85.0, "min_lat": 0.0, "tile_id": "-85_0" }, "geometry": { "type": "MultiPolygon", "coordinates": [ [ [ [ -81.6088364, 3.9988164 ], [ -81.6089726, 3.9987821 ], [ -81.6091573, 3.9988332 ], [ -81.6092085, 3.9988126 ], [ -81.609361, 3.9985416 ], [ -81.6097343, 3.9984233 ], [ -81.6103923, 3.9983659 ], [ -81.6111598, 3.9982164 ], [ -81.6113026, 3.9982262 ], [ -81.6114146, 3.9983045 ], [ -81.6114275, 3.99858 ], [ -81.611441, 3.9985859 ], [ -81.6122827, 3.9983851 ], [ -81.6125618, 3.9984362 ], [ -81.6127088, 3.9983938 ], [ -81.6133891, 3.997829 ], [ -81.6135024, 3.9978068 ], [ -81.6136136, 3.9978279 ], [ -81.6141346, 3.9981469 ], [ -81.6141511, 3.9981711 ], [ -81.6141813, 3.9982979 ], [ -81.6142197, 3.9983256 ], [ -81.6142728, 3.9983344 ], [ -81.6144169, 3.9983273 ], [ -81.614434, 3.9983374 ], [ -81.6145008, 3.998451 ], [ -81.6146404, 3.9985155 ], [ -81.6145599, 3.998759 ], [ -81.6143857, 3.9988118 ], [ -81.61437, 3.9988418 ], [ -81.6145794, 3.9991461 ], [ -81.6146979, 3.9992679 ], [ -81.6147045, 3.9993859 ], [ -81.6146469, 3.999473 ], [ -81.6144452, 3.9995458 ], [ -81.6141122, 3.9997726 ], [ -81.6132318, 3.9998495 ], [ -81.6119841, 4.0003046 ], [ -81.6119433, 4.0004173 ], [ -81.611669, 4.0005666 ], [ -81.6114246, 4.0009028 ], [ -81.6113695, 4.0009264 ], [ -81.6112155, 4.0008829 ], [ -81.6109692, 4.0009762 ], [ -81.6109555, 4.0010423 ], [ -81.6109992, 4.0010832 ], [ -81.6113104, 4.0010887 ], [ -81.6113692, 4.0012403 ], [ -81.6113194, 4.0013895 ], [ -81.611225, 4.0014362 ], [ -81.6110878, 4.0017336 ], [ -81.6105082, 4.0021021 ], [ -81.610299, 4.0021302 ], [ -81.6100354, 4.0024097 ], [ -81.6098649, 4.0027205 ], [ -81.6099035, 4.002759 ], [ -81.6102433, 4.0026442 ], [ -81.6110273, 4.002618 ], [ -81.611489, 4.0028381 ], [ -81.6120022, 4.0028656 ], [ -81.6120731, 4.0029341 ], [ -81.6120689, 4.0030415 ], [ -81.6116998, 4.0035994 ], [ -81.611671, 4.0036286 ], [ -81.6114148, 4.0037332 ], [ -81.6110562, 4.0036098 ], [ -81.6109637, 4.0034585 ], [ -81.6108886, 4.0034238 ], [ -81.6108127, 4.0034568 ], [ -81.610175, 4.0040276 ], [ -81.6100004, 4.0040596 ], [ -81.6098669, 4.0039879 ], [ -81.6094089, 4.0042657 ], [ -81.6094538, 4.0044509 ], [ -81.6082532, 4.006267 ], [ -81.608071, 4.0064162 ], [ -81.6077376, 4.0070181 ], [ -81.6075753, 4.0071537 ], [ -81.6073648, 4.0071613 ], [ -81.6071773, 4.0070705 ], [ -81.6071125, 4.0069179 ], [ -81.6070775, 4.0069135 ], [ -81.6066392, 4.0075703 ], [ -81.6063727, 4.007709 ], [ -81.6061895, 4.0080088 ], [ -81.605777, 4.0082342 ], [ -81.6055961, 4.0082931 ], [ -81.6053952, 4.0082934 ], [ -81.6052125, 4.0081493 ], [ -81.6050392, 4.0081685 ], [ -81.6049288, 4.0082705 ], [ -81.6041708, 4.0083585 ], [ -81.6037582, 4.0083496 ], [ -81.6036724, 4.0083861 ], [ -81.6035126, 4.0081881 ], [ -81.6034675, 4.0078091 ], [ -81.6035534, 4.0076386 ], [ -81.6036281, 4.0071933 ], [ -81.6039727, 4.0068097 ], [ -81.6040034, 4.0065901 ], [ -81.6039075, 4.0064992 ], [ -81.6040285, 4.0062894 ], [ -81.6040128, 4.0062483 ], [ -81.6038958, 4.006246 ], [ -81.6037206, 4.0059185 ], [ -81.60372, 4.0058677 ], [ -81.6039089, 4.0055854 ], [ -81.6040919, 4.0055674 ], [ -81.6042839, 4.0050102 ], [ -81.6045623, 4.0047882 ], [ -81.604849, 4.0046319 ], [ -81.6049245, 4.0045308 ], [ -81.6049116, 4.004395 ], [ -81.6046288, 4.0041899 ], [ -81.6046695, 4.0039976 ], [ -81.6048106, 4.0038847 ], [ -81.6047781, 4.0038332 ], [ -81.6046555, 4.0038322 ], [ -81.604408, 4.0034395 ], [ -81.6042083, 4.0026614 ], [ -81.6042385, 4.0023934 ], [ -81.6041423, 4.0023773 ], [ -81.6041449, 4.0023618 ], [ -81.6041474, 4.0023471 ], [ -81.6042454, 4.0023633 ], [ -81.6042721, 4.0022392 ], [ -81.604536, 4.0015062 ], [ -81.6046026, 4.0014166 ], [ -81.6049509, 4.0011784 ], [ -81.6049492, 4.0011499 ], [ -81.6047849, 4.0010832 ], [ -81.604914, 4.0008673 ], [ -81.6051471, 4.000712 ], [ -81.6052258, 4.0007476 ], [ -81.6053344, 4.0006195 ], [ -81.605557, 4.0005972 ], [ -81.6056542, 4.000715 ], [ -81.6055832, 4.0008854 ], [ -81.6056307, 4.000968 ], [ -81.6057433, 4.0009868 ], [ -81.6058614, 4.0013266 ], [ -81.6060783, 4.0011198 ], [ -81.6061912, 4.0011183 ], [ -81.6063191, 4.0009502 ], [ -81.6063561, 4.0008204 ], [ -81.6067937, 4.0004678 ], [ -81.6075459, 4.0001216 ], [ -81.6081221, 4.0000775 ], [ -81.6081518, 4.0000559 ], [ -81.6082102, 3.9998152 ], [ -81.6082961, 3.9997311 ], [ -81.6083021, 3.99968 ], [ -81.6082411, 3.9996437 ], [ -81.6082061, 3.9995789 ], [ -81.6082557, 3.9993232 ], [ -81.6083116, 3.9992761 ], [ -81.6083589, 3.9991179 ], [ -81.6084869, 3.9990246 ], [ -81.6086325, 3.9990278 ], [ -81.6088364, 3.9988164 ] ] ] ] } },
{ "type": "Feature", "properties": { "FID": 53157, "id": 702, "left": -85.0, "top": 5.0, "right": -80.0, "bottom": 0.0, "row_index": 17, "col_index": 19, "min_lon": -85.0, "min_lat": 0.0, "tile_id": "-85_0" }, "geometry": { "type": "MultiPolygon", "coordinates": [ [ [ [ -81.6054131, 4.013564 ], [ -81.6055631, 4.0132866 ], [ -81.6054911, 4.0131984 ], [ -81.60554, 4.0130888 ], [ -81.6056577, 4.0130592 ], [ -81.60569, 4.0129466 ], [ -81.6058145, 4.0129949 ], [ -81.6059193, 4.0129148 ], [ -81.6060485, 4.0129779 ], [ -81.6060498, 4.0130853 ], [ -81.6058958, 4.0133532 ], [ -81.6058276, 4.0135586 ], [ -81.6057837, 4.0136103 ], [ -81.6055268, 4.0136889 ], [ -81.6054442, 4.0136772 ], [ -81.6054131, 4.013564 ] ] ] ] } },
{ "type": "Feature", "properties": { "FID": 53163, "id": 702, "left": -85.0, "top": 5.0, "right": -80.0, "bottom": 0.0, "row_index": 17, "col_index": 19, "min_lon": -85.0, "min_lat": 0.0, "tile_id": "-85_0" }, "geometry": { "type": "MultiPolygon", "coordinates": [ [ [ [ -81.616104, 3.9932675 ], [ -81.6162369, 3.9932339 ], [ -81.616327, 3.9932685 ], [ -81.6165208, 3.9935778 ], [ -81.6164826, 3.9936495 ], [ -81.6165521, 3.9938068 ], [ -81.6164754, 3.9939974 ], [ -81.6161379, 3.9939813 ], [ -81.6160351, 3.9940797 ], [ -81.6157137, 3.9941728 ], [ -81.6156486, 3.9941 ], [ -81.6158273, 3.9938266 ], [ -81.6159021, 3.9937962 ], [ -81.6158629, 3.9936013 ], [ -81.6159291, 3.9934419 ], [ -81.6159998, 3.9934308 ], [ -81.616104, 3.9932675 ] ] ] ] } },
{ "type": "Feature", "properties": { "FID": 348091, "id": 702, "left": -85.0, "top": 5.0, "right": -80.0, "bottom": 0.0, "row_index": 17, "col_index": 19, "min_lon": -85.0, "min_lat": 0.0, "tile_id": "-85_0" }, "geometry": { "type": "MultiPolygon", "coordinates": [ [ [ [ -80.046493, 0.3808644 ], [ -80.0470494, 0.3813766 ], [ -80.0475684, 0.3818818 ], [ -80.0477734, 0.3825811 ], [ -80.0476644, 0.3839443 ], [ -80.0476655, 0.3868245 ], [ -80.048002, 0.3906958 ], [ -80.0485921, 0.3930597 ], [ -80.047679, 0.3955926 ], [ -80.0471549, 0.3975007 ], [ -80.0455511, 0.4005611 ], [ -80.045288, 0.4000062 ], [ -80.0453107, 0.3995289 ], [ -80.0453682, 0.3985514 ], [ -80.0457987, 0.3973354 ], [ -80.0465283, 0.3963098 ], [ -80.0467819, 0.3956073 ], [ -80.046538, 0.3947828 ], [ -80.0465072, 0.3935948 ], [ -80.0462834, 0.3923841 ], [ -80.0465264, 0.3917676 ], [ -80.0466379, 0.3902458 ], [ -80.0470537, 0.3893391 ], [ -80.0467466, 0.3879389 ], [ -80.0468311, 0.3871314 ], [ -80.0464798, 0.3866446 ], [ -80.0458618, 0.3862931 ], [ -80.0448964, 0.3857099 ], [ -80.0434684, 0.3850663 ], [ -80.0433477, 0.3843423 ], [ -80.0451176, 0.3837188 ], [ -80.0453791, 0.3831959 ], [ -80.0451377, 0.3828942 ], [ -80.0445545, 0.3830149 ], [ -80.0434081, 0.3838395 ], [ -80.0417991, 0.3842015 ], [ -80.0408739, 0.3840406 ], [ -80.0408337, 0.3838194 ], [ -80.0419801, 0.3836786 ], [ -80.0432472, 0.3834775 ], [ -80.0440919, 0.3828138 ], [ -80.044655, 0.3816875 ], [ -80.0444539, 0.3812049 ], [ -80.0435086, 0.3813657 ], [ -80.041236, 0.3827333 ], [ -80.0407533, 0.3833769 ], [ -80.0401097, 0.3837188 ], [ -80.0370928, 0.3838998 ], [ -80.0357856, 0.3849859 ], [ -80.0354839, 0.3846641 ], [ -80.0356448, 0.3842618 ], [ -80.0380783, 0.3825322 ], [ -80.0404315, 0.3820697 ], [ -80.0415376, 0.3812451 ], [ -80.043688, 0.3807075 ], [ -80.0451669, 0.3804059 ], [ -80.046493, 0.3808644 ] ] ] ] } },
{ "type": "Feature", "properties": { "FID": 510766, "id": 702, "left": -85.0, "top": 5.0, "right": -80.0, "bottom": 0.0, "row_index": 17, "col_index": 19, "min_lon": -85.0, "min_lat": 0.0, "tile_id": "-85_0" }, "geometry": { "type": "MultiPolygon", "coordinates": [ [ [ [ -81.6134968, 3.9936528 ], [ -81.6134641, 3.9935686 ], [ -81.6135049, 3.9934099 ], [ -81.6134715, 3.993375 ], [ -81.6135939, 3.9929883 ], [ -81.6137868, 3.9929349 ], [ -81.6138697, 3.9930181 ], [ -81.6138498, 3.993173 ], [ -81.6135706, 3.9936106 ], [ -81.6134968, 3.9936528 ] ] ] ] } },
{ "type": "Feature", "properties": { "FID": 510767, "id": 702, "left": -85.0, "top": 5.0, "right": -80.0, "bottom": 0.0, "row_index": 17, "col_index": 19, "min_lon": -85.0, "min_lat": 0.0, "tile_id": "-85_0" }, "geometry": { "type": "MultiPolygon", "coordinates": [ [ [ [ -81.6061659, 4.0138416 ], [ -81.6061318, 4.0136966 ], [ -81.6061745, 4.0135295 ], [ -81.6060458, 4.0134928 ], [ -81.6060175, 4.0133293 ], [ -81.6061549, 4.0132132 ], [ -81.6062544, 4.0130953 ], [ -81.6063212, 4.0130612 ], [ -81.6063966, 4.0130612 ], [ -81.6064707, 4.0131245 ], [ -81.6065675, 4.0131089 ], [ -81.6066421, 4.0131938 ], [ -81.6066335, 4.0134502 ], [ -81.6065386, 4.0135999 ], [ -81.6064792, 4.0137779 ], [ -81.6062554, 4.013858 ], [ -81.6061659, 4.0138416 ] ] ] ] } },
{ "type": "Feature", "properties": { "FID": 529427, "id": 702, "left": -85.0, "top": 5.0, "right": -80.0, "bottom": 0.0, "row_index": 17, "col_index": 19, "min_lon": -85.0, "min_lat": 0.0, "tile_id": "-85_0" }, "geometry": { "type": "MultiPolygon", "coordinates": [ [ [ [ -81.6072193, 4.0126641 ], [ -81.6071753, 4.0126792 ], [ -81.6071383, 4.0126704 ], [ -81.6071233, 4.012642 ], [ -81.6071459, 4.0125528 ], [ -81.6071796, 4.0125508 ], [ -81.6071881, 4.0125374 ], [ -81.6071768, 4.0124791 ], [ -81.6071928, 4.0124474 ], [ -81.6072742, 4.012429 ], [ -81.6072956, 4.0124411 ], [ -81.6072934, 4.0125582 ], [ -81.6072193, 4.0126641 ] ] ] ] } },
{ "type": "Feature", "properties": { "FID": 537252, "id": 702, "left": -85.0, "top": 5.0, "right": -80.0, "bottom": 0.0, "row_index": 17, "col_index": 19, "min_lon": -85.0, "min_lat": 0.0, "tile_id": "-85_0" }, "geometry": { "type": "MultiPolygon", "coordinates": [ [ [ [ -80.1094401, 0.0000429 ], [ -80.1090914, 0.0004399 ], [ -80.1082431, 0.0011601 ], [ -80.10782, 0.0020546 ], [ -80.1075994, 0.0024046 ], [ -80.107246, 0.0024033 ], [ -80.1069933, 0.0022365 ], [ -80.1063549, 0.0025387 ], [ -80.1057487, 0.0031637 ], [ -80.1050896, 0.0040823 ], [ -80.1048743, 0.0048079 ], [ -80.1042259, 0.0053376 ], [ -80.1039469, 0.005756 ], [ -80.1038986, 0.0061852 ], [ -80.103904, 0.0063193 ], [ -80.1038014, 0.0066586 ], [ -80.103501, 0.0072004 ], [ -80.103104, 0.0077583 ], [ -80.1029699, 0.0082357 ], [ -80.1030397, 0.0087078 ], [ -80.102691, 0.0092174 ], [ -80.1023584, 0.0091584 ], [ -80.1020151, 0.0088795 ], [ -80.1017146, 0.0087346 ], [ -80.1011893, 0.0090193 ], [ -80.1004859, 0.0100621 ], [ -80.0997245, 0.0119747 ], [ -80.0987821, 0.0146792 ], [ -80.0986663, 0.0149201 ], [ -80.0986116, 0.0150178 ], [ -80.097059, 0.0171125 ], [ -80.0962329, 0.0180352 ], [ -80.0958681, 0.0186038 ], [ -80.0950849, 0.0204814 ], [ -80.0949776, 0.0210071 ], [ -80.094806, 0.0221443 ], [ -80.0946879, 0.0238502 ], [ -80.0947738, 0.0243974 ], [ -80.0942195, 0.0269446 ], [ -80.093952, 0.0282624 ], [ -80.0935884, 0.0296181 ], [ -80.0927568, 0.0325835 ], [ -80.0925529, 0.0330341 ], [ -80.0923676, 0.03426 ], [ -80.092196, 0.0347857 ], [ -80.0919331, 0.0352605 ], [ -80.0917212, 0.0358238 ], [ -80.0915442, 0.036328 ], [ -80.0913296, 0.0369851 ], [ -80.0912331, 0.0377496 ], [ -80.0910936, 0.0382753 ], [ -80.0909461, 0.0388198 ], [ -80.0907368, 0.0391068 ], [ -80.090533, 0.0397478 ], [ -80.0903211, 0.0405713 ], [ -80.090128, 0.0412848 ], [ -80.0893429, 0.0440747 ], [ -80.0885705, 0.0469018 ], [ -80.0882218, 0.0486345 ], [ -80.0881198, 0.0491978 ], [ -80.0880716, 0.049466 ], [ -80.087739, 0.0493694 ], [ -80.0868431, 0.0495304 ], [ -80.0865481, 0.049305 ], [ -80.08627, 0.0488689 ], [ -80.0860571, 0.048589 ], [ -80.0859343, 0.0485302 ], [ -80.0858169, 0.0485514 ], [ -80.0857037, 0.0484629 ], [ -80.0854448, 0.048112 ], [ -80.0852045, 0.0479555 ], [ -80.0850592, 0.0479093 ], [ -80.0849198, 0.0479823 ], [ -80.0848092, 0.0479646 ], [ -80.0846705, 0.0479478 ], [ -80.0846089, 0.0478942 ], [ -80.08459, 0.0478055 ], [ -80.0845189, 0.0477674 ], [ -80.084443, 0.0477906 ], [ -80.0843412, 0.047836 ], [ -80.0842538, 0.0478581 ], [ -80.0840995, 0.04774 ], [ -80.0840738, 0.0475122 ], [ -80.0840111, 0.047402 ], [ -80.0839102, 0.0473575 ], [ -80.0835945, 0.0473489 ], [ -80.0833769, 0.0472518 ], [ -80.0831802, 0.0471952 ], [ -80.0830425, 0.0471967 ], [ -80.082928, 0.0471372 ], [ -80.0827111, 0.04719 ], [ -80.0825533, 0.0471625 ], [ -80.0824644, 0.0471042 ], [ -80.082418, 0.0470339 ], [ -80.0824878, 0.0469252 ], [ -80.0825115, 0.0468138 ], [ -80.0824646, 0.0467802 ], [ -80.0823828, 0.0467389 ], [ -80.082273, 0.0467397 ], [ -80.0821667, 0.0467637 ], [ -80.0819429, 0.0467319 ], [ -80.0807223, 0.0465585 ], [ -80.080491, 0.0465725 ], [ -80.0800142, 0.0466014 ], [ -80.0786463, 0.0469715 ], [ -80.0772462, 0.0469179 ], [ -80.0760434, 0.0468813 ], [ -80.0755179, 0.0466203 ], [ -80.0748854, 0.0463062 ], [ -80.074452, 0.0463518 ], [ -80.073599, 0.0464413 ], [ -80.0727447, 0.0467974 ], [ -80.0717599, 0.0472824 ], [ -80.0700051, 0.048829 ], [ -80.0683647, 0.0505199 ], [ -80.0670954, 0.0523324 ], [ -80.0659748, 0.0542213 ], [ -80.0655767, 0.0549748 ], [ -80.065287, 0.0556724 ], [ -80.0649378, 0.0564611 ], [ -80.0645612, 0.0572671 ], [ -80.0644368, 0.0574692 ], [ -80.0643239, 0.0574908 ], [ -80.0642946, 0.0576784 ], [ -80.0638735, 0.0585475 ], [ -80.0631755, 0.059805 ], [ -80.0621278, 0.0619258 ], [ -80.0615592, 0.0633988 ], [ -80.0612768, 0.0640947 ], [ -80.061034, 0.0646581 ], [ -80.0607911, 0.065131 ], [ -80.0604649, 0.065515 ], [ -80.0601989, 0.0656553 ], [ -80.0601399, 0.0658015 ], [ -80.0600809, 0.0659477 ], [ -80.0602356, 0.0661459 ], [ -80.0602668, 0.0663497 ], [ -80.060215, 0.0666357 ], [ -80.0601104, 0.0669454 ], [ -80.0596113, 0.0686713 ], [ -80.059319, 0.0696825 ], [ -80.0587271, 0.0714006 ], [ -80.05788, 0.0734381 ], [ -80.057369, 0.074684 ], [ -80.0571105, 0.0753274 ], [ -80.0567329, 0.0763742 ], [ -80.0564942, 0.0769133 ], [ -80.0562147, 0.0771895 ], [ -80.055617, 0.0787944 ], [ -80.054888, 0.0813305 ], [ -80.054267, 0.0831136 ], [ -80.053958, 0.0843167 ], [ -80.0534844, 0.0857688 ], [ -80.0530938, 0.087226 ], [ -80.05291, 0.0878865 ], [ -80.0513986, 0.0918394 ], [ -80.0497249, 0.0958949 ], [ -80.0495103, 0.0965172 ], [ -80.0492099, 0.0975686 ], [ -80.0488424, 0.0988748 ], [ -80.0464082, 0.1059687 ], [ -80.0455116, 0.1092934 ], [ -80.0443804, 0.1129424 ], [ -80.0440049, 0.1135754 ], [ -80.0435114, 0.1156461 ], [ -80.0430822, 0.1167726 ], [ -80.0427818, 0.1181459 ], [ -80.041666, 0.121386 ], [ -80.0413013, 0.1226734 ], [ -80.0408919, 0.1241439 ], [ -80.0407321, 0.1251349 ], [ -80.0402382, 0.1268773 ], [ -80.0394023, 0.1293253 ], [ -80.0388551, 0.1326727 ], [ -80.0383401, 0.1352047 ], [ -80.0381148, 0.1361274 ], [ -80.0378541, 0.1383418 ], [ -80.037195, 0.1421634 ], [ -80.0366986, 0.1456116 ], [ -80.0362802, 0.1477574 ], [ -80.0359958, 0.1493774 ], [ -80.0358188, 0.1510672 ], [ -80.035733, 0.1518236 ], [ -80.0355156, 0.1529141 ], [ -80.0353584, 0.1541236 ], [ -80.0341966, 0.1603019 ], [ -80.0341182, 0.161407 ], [ -80.0339682, 0.1622599 ], [ -80.0337321, 0.1635394 ], [ -80.0334156, 0.1662163 ], [ -80.0333458, 0.1666186 ], [ -80.0331688, 0.1676807 ], [ -80.0329551, 0.1685216 ], [ -80.03238, 0.17286 ], [ -80.032289, 0.1740697 ], [ -80.0319403, 0.1750675 ], [ -80.0316238, 0.1775029 ], [ -80.0314093, 0.1792786 ], [ -80.0313503, 0.1802066 ], [ -80.0313181, 0.1807591 ], [ -80.0312805, 0.1812741 ], [ -80.0312322, 0.1827708 ], [ -80.0311518, 0.1845357 ], [ -80.0310499, 0.1873627 ], [ -80.0309157, 0.1893851 ], [ -80.0309479, 0.1917293 ], [ -80.03117, 0.1948302 ], [ -80.0309447, 0.2005593 ], [ -80.0308406, 0.2027478 ], [ -80.0308192, 0.2078922 ], [ -80.0308138, 0.2132083 ], [ -80.0309962, 0.2163894 ], [ -80.031059, 0.2186745 ], [ -80.0311026, 0.219184 ], [ -80.0320691, 0.2304065 ], [ -80.0323695, 0.2361625 ], [ -80.0326699, 0.2398102 ], [ -80.0335469, 0.2477329 ], [ -80.0344402, 0.2593634 ], [ -80.0344509, 0.2631345 ], [ -80.0345927, 0.2700479 ], [ -80.0345957, 0.2728628 ], [ -80.0344428, 0.2731873 ], [ -80.0341955, 0.2732642 ], [ -80.0341691, 0.2731908 ], [ -80.0341691, 0.2730289 ], [ -80.0341578, 0.272946 ], [ -80.0339733, 0.2728274 ], [ -80.0337399, 0.2726994 ], [ -80.0335573, 0.2726825 ], [ -80.0334161, 0.2727371 ], [ -80.0333577, 0.2727596 ], [ -80.0332956, 0.2728161 ], [ -80.0332805, 0.2729197 ], [ -80.0331694, 0.2730195 ], [ -80.0330226, 0.2730703 ], [ -80.0328531, 0.2730458 ], [ -80.0326216, 0.2730006 ], [ -80.0323505, 0.2730665 ], [ -80.0323166, 0.27301 ], [ -80.0323561, 0.272963 ], [ -80.0324502, 0.2729498 ], [ -80.0324954, 0.272899 ], [ -80.0325293, 0.2726938 ], [ -80.0324973, 0.272562 ], [ -80.0324164, 0.2724998 ], [ -80.0323618, 0.2725168 ], [ -80.0323392, 0.2725789 ], [ -80.0322714, 0.2726316 ], [ -80.0321377, 0.2726392 ], [ -80.0321057, 0.2726128 ], [ -80.0320756, 0.2725751 ], [ -80.0320718, 0.2726373 ], [ -80.0321132, 0.2726843 ], [ -80.0322243, 0.2727051 ], [ -80.0323335, 0.2726712 ], [ -80.0324051, 0.2725657 ], [ -80.032454, 0.2726166 ], [ -80.032471, 0.2727898 ], [ -80.0324088, 0.2728858 ], [ -80.0322526, 0.2729479 ], [ -80.0322318, 0.2730345 ], [ -80.0322431, 0.2731136 ], [ -80.0323185, 0.2731268 ], [ -80.0322921, 0.2731701 ], [ -80.0321773, 0.2732699 ], [ -80.0321302, 0.2733621 ], [ -80.0321471, 0.2734374 ], [ -80.0322168, 0.2735184 ], [ -80.0321791, 0.2733565 ], [ -80.0322977, 0.2732096 ], [ -80.0324408, 0.2731079 ], [ -80.0326366, 0.2731117 ], [ -80.0328814, 0.273155 ], [ -80.0331751, 0.2731814 ], [ -80.0333558, 0.2731287 ], [ -80.0334292, 0.2729969 ], [ -80.0334782, 0.2731061 ], [ -80.0334838, 0.2732491 ], [ -80.0334838, 0.2733847 ], [ -80.033497, 0.273573 ], [ -80.0335328, 0.273669 ], [ -80.0336024, 0.273541 ], [ -80.0336119, 0.2733452 ], [ -80.0335723, 0.2731927 ], [ -80.0335158, 0.2730138 ], [ -80.0335102, 0.272931 ], [ -80.0336006, 0.2728764 ], [ -80.0336815, 0.2728707 ], [ -80.0338905, 0.2729554 ], [ -80.0339828, 0.2729931 ], [ -80.0340374, 0.2730966 ], [ -80.0340166, 0.2733019 ], [ -80.0340618, 0.2733772 ], [ -80.0342143, 0.2734619 ], [ -80.0343999, 0.2733322 ], [ -80.0344804, 0.2733643 ], [ -80.0346118, 0.2735548 ], [ -80.0345904, 0.2755852 ], [ -80.034585, 0.2827949 ], [ -80.0345421, 0.2830524 ], [ -80.0344831, 0.2832884 ], [ -80.0346816, 0.2857399 ], [ -80.0347084, 0.2900528 ], [ -80.0346762, 0.290879 ], [ -80.034703, 0.2936684 ], [ -80.0346494, 0.2939205 ], [ -80.0346065, 0.2942049 ], [ -80.0347567, 0.2962621 ], [ -80.0346547, 0.2964418 ], [ -80.0345635, 0.296659 ], [ -80.0347835, 0.2968468 ], [ -80.0350356, 0.3027878 ], [ -80.035454, 0.3088281 ], [ -80.035733, 0.3146323 ], [ -80.0361782, 0.318398 ], [ -80.03613, 0.3186931 ], [ -80.0359583, 0.3189667 ], [ -80.0358242, 0.3192939 ], [ -80.0358617, 0.3193422 ], [ -80.0362158, 0.3193958 ], [ -80.0364089, 0.3207959 ], [ -80.0368112, 0.3243846 ], [ -80.0373155, 0.3280967 ], [ -80.0379109, 0.3328442 ], [ -80.0383884, 0.3357248 ], [ -80.0390428, 0.3385733 ], [ -80.0390697, 0.3388415 ], [ -80.0389463, 0.3393833 ], [ -80.0387156, 0.3397856 ], [ -80.0386512, 0.3400324 ], [ -80.0386941, 0.3401611 ], [ -80.039016, 0.3401075 ], [ -80.0391662, 0.3402738 ], [ -80.0393701, 0.3404991 ], [ -80.0401264, 0.3433529 ], [ -80.0407863, 0.3458795 ], [ -80.0415748, 0.3493556 ], [ -80.0420415, 0.3512814 ], [ -80.0421703, 0.3533252 ], [ -80.0420901, 0.3556501 ], [ -80.0422577, 0.357239 ], [ -80.0422816, 0.3587807 ], [ -80.0422318, 0.3632372 ], [ -80.0420695, 0.3645366 ], [ -80.0410348, 0.3660063 ], [ -80.0395317, 0.3670692 ], [ -80.0381281, 0.3680052 ], [ -80.0365756, 0.3687868 ], [ -80.0357319, 0.369061 ], [ -80.0353402, 0.369349 ], [ -80.0343171, 0.3693685 ], [ -80.0335086, 0.3691274 ], [ -80.033384, 0.3688381 ], [ -80.0328651, 0.3679497 ], [ -80.0323799, 0.3668645 ], [ -80.0318463, 0.3661165 ], [ -80.0314338, 0.3655353 ], [ -80.0310021, 0.3649013 ], [ -80.0311295, 0.3647005 ], [ -80.0320257, 0.3643783 ], [ -80.0318513, 0.3640177 ], [ -80.0313764, 0.3638094 ], [ -80.0310541, 0.3637417 ], [ -80.0306123, 0.3626346 ], [ -80.0300887, 0.362129 ], [ -80.0290057, 0.3619126 ], [ -80.0271443, 0.3612017 ], [ -80.0269353, 0.3608835 ], [ -80.0264096, 0.3605294 ], [ -80.0255674, 0.3598911 ], [ -80.0248754, 0.3594941 ], [ -80.0239474, 0.3590167 ], [ -80.0229496, 0.3584427 ], [ -80.0220162, 0.3582335 ], [ -80.0202084, 0.3571767 ], [ -80.0184327, 0.3557927 ], [ -80.0182611, 0.3547843 ], [ -80.0177783, 0.3542156 ], [ -80.0161046, 0.3534646 ], [ -80.014565, 0.3526653 ], [ -80.0137872, 0.3521236 ], [ -80.012961, 0.3511848 ], [ -80.0127626, 0.3506269 ], [ -80.0114375, 0.3488674 ], [ -80.0105811, 0.3484691 ], [ -80.009952, 0.3477152 ], [ -80.0090094, 0.3464452 ], [ -80.0084598, 0.3459508 ], [ -80.0084066, 0.3450051 ], [ -80.007323, 0.3439322 ], [ -80.0064969, 0.3432295 ], [ -80.0064004, 0.341985 ], [ -80.0058854, 0.3412072 ], [ -80.0055045, 0.3410838 ], [ -80.0052738, 0.3410248 ], [ -80.0047696, 0.3406493 ], [ -80.00382, 0.3396601 ], [ -80.0036484, 0.338128 ], [ -80.0033051, 0.3372537 ], [ -80.0031012, 0.3365938 ], [ -80.0022698, 0.3349416 ], [ -80.0016958, 0.3336327 ], [ -80.0013524, 0.3320664 ], [ -80.0012344, 0.3315085 ], [ -80.000934, 0.3309452 ], [ -80.0006497, 0.329926 ], [ -80.0005156, 0.3292554 ], [ -80.0004351, 0.3285956 ], [ -80.0001293, 0.327791 ], [ -80.0, 0.32735076018642 ], [ -80.0, 0.24465655511312 ], [ -80.0002124, 0.2445122 ], [ -80.0005021, 0.2444532 ], [ -80.0006523, 0.2440509 ], [ -80.0005504, 0.2439221 ], [ -80.0006166, 0.2433402 ], [ -80.0008347, 0.2429833 ], [ -80.0006317, 0.2429584 ], [ -80.0005879, 0.2426615 ], [ -80.000148, 0.2427688 ], [ -80.0, 0.242767457821815 ], [ -80.0, 0.0 ], [ -80.109495518979799, 0.0 ], [ -80.1094401, 0.0000429 ] ] ], [ [ [ -80.0006899, 0.4044443 ], [ -80.0009474, 0.4044174 ], [ -80.0011432, 0.4044282 ], [ -80.0019532, 0.4047473 ], [ -80.0020766, 0.4048975 ], [ -80.0022751, 0.4049512 ], [ -80.0024897, 0.4049056 ], [ -80.0025943, 0.4050531 ], [ -80.0028491, 0.4051175 ], [ -80.0031495, 0.4051818 ], [ -80.003171, 0.4051738 ], [ -80.0035733, 0.4051953 ], [ -80.0036247, 0.4051149 ], [ -80.0041956, 0.4053669 ], [ -80.0043531, 0.4053138 ], [ -80.0043818, 0.4052279 ], [ -80.0045166, 0.4052215 ], [ -80.0046378, 0.4052737 ], [ -80.0046851, 0.4054021 ], [ -80.0049868, 0.4055922 ], [ -80.0053436, 0.4057102 ], [ -80.0056681, 0.406016 ], [ -80.0057539, 0.4060804 ], [ -80.0059471, 0.4060294 ], [ -80.006159, 0.4059758 ], [ -80.006631, 0.4059597 ], [ -80.007036, 0.4058631 ], [ -80.0075644, 0.4059597 ], [ -80.0080633, 0.4061447 ], [ -80.0084469, 0.4061233 ], [ -80.0093856, 0.4056298 ], [ -80.0098255, 0.4054474 ], [ -80.0101742, 0.4053106 ], [ -80.0104049, 0.4052248 ], [ -80.0104786, 0.405214 ], [ -80.0106101, 0.4052462 ], [ -80.0107965, 0.4051282 ], [ -80.010881, 0.4050652 ], [ -80.0110124, 0.4049981 ], [ -80.0112055, 0.4049834 ], [ -80.0131609, 0.405324 ], [ -80.0141828, 0.4056713 ], [ -80.0153911, 0.4060442 ], [ -80.0162883, 0.4071304 ], [ -80.0162964, 0.4072538 ], [ -80.0162977, 0.4073074 ], [ -80.0163232, 0.407353 ], [ -80.0169092, 0.408218 ], [ -80.0171828, 0.4088094 ], [ -80.0177421, 0.4099131 ], [ -80.0178641, 0.4100043 ], [ -80.0179459, 0.410007 ], [ -80.0180262, 0.4100106 ], [ -80.0180791, 0.4101251 ], [ -80.0180773, 0.4102364 ], [ -80.0181614, 0.4104768 ], [ -80.0183336, 0.4105796 ], [ -80.0184006, 0.4108586 ], [ -80.0183268, 0.4109283 ], [ -80.0183938, 0.4111 ], [ -80.018485, 0.4111375 ], [ -80.0186466, 0.4112504 ], [ -80.0186299, 0.4113923 ], [ -80.0186647, 0.4114929 ], [ -80.0187828, 0.4115077 ], [ -80.0188632, 0.411454 ], [ -80.0189707, 0.4113944 ], [ -80.0194404, 0.4113777 ], [ -80.0194372, 0.4112854 ], [ -80.0195387, 0.4112478 ], [ -80.0197077, 0.4112858 ], [ -80.0198866, 0.4113972 ], [ -80.0207528, 0.4113698 ], [ -80.0209087, 0.4114444 ], [ -80.0210074, 0.4116142 ], [ -80.0208853, 0.4117752 ], [ -80.0208891, 0.4119428 ], [ -80.0209989, 0.4120838 ], [ -80.0214302, 0.4122535 ], [ -80.021721, 0.4126034 ], [ -80.0216808, 0.4127672 ], [ -80.0215787, 0.4129135 ], [ -80.0220149, 0.4134854 ], [ -80.0221822, 0.413451 ], [ -80.0223495, 0.4135758 ], [ -80.0225339, 0.4137251 ], [ -80.0226388, 0.413954 ], [ -80.0227111, 0.4140242 ], [ -80.0227392, 0.4141475 ], [ -80.0227955, 0.4143322 ], [ -80.0228885, 0.4146576 ], [ -80.0229285, 0.4149831 ], [ -80.022942, 0.4153439 ], [ -80.0228406, 0.415634 ], [ -80.0229142, 0.4158706 ], [ -80.0231512, 0.4160366 ], [ -80.0235766, 0.4163013 ], [ -80.0237495, 0.416469 ], [ -80.024002, 0.4166191 ], [ -80.0243386, 0.4174426 ], [ -80.0244248, 0.4176833 ], [ -80.024604, 0.4177258 ], [ -80.0249223, 0.4177745 ], [ -80.025216, 0.4178791 ], [ -80.0264767, 0.4194186 ], [ -80.0277936, 0.4208402 ], [ -80.0297019, 0.4231628 ], [ -80.0313984, 0.4251871 ], [ -80.0323319, 0.4260221 ], [ -80.0327826, 0.4265665 ], [ -80.03337, 0.4272263 ], [ -80.0337777, 0.4275616 ], [ -80.0352046, 0.4285191 ], [ -80.0361702, 0.4289885 ], [ -80.0376, 0.4300301 ], [ -80.0386539, 0.430858 ], [ -80.0392503, 0.4316007 ], [ -80.0396283, 0.4322179 ], [ -80.039708, 0.4324082 ], [ -80.0396677, 0.4325328 ], [ -80.0395889, 0.4327838 ], [ -80.0394118, 0.4330003 ], [ -80.0391411, 0.4330938 ], [ -80.0385217, 0.4343658 ], [ -80.0389401, 0.4345078 ], [ -80.040906, 0.4359791 ], [ -80.042255, 0.4369691 ], [ -80.0424877, 0.4372758 ], [ -80.0426618, 0.4378493 ], [ -80.0430056, 0.4383727 ], [ -80.0435785, 0.4390012 ], [ -80.0436345, 0.4392326 ], [ -80.0439928, 0.4399493 ], [ -80.0440078, 0.4402591 ], [ -80.0441907, 0.4407459 ], [ -80.0441085, 0.4409923 ], [ -80.0441683, 0.4415671 ], [ -80.0444797, 0.4422651 ], [ -80.044595, 0.4425467 ], [ -80.0446594, 0.4427988 ], [ -80.0451717, 0.4444483 ], [ -80.0455123, 0.4454031 ], [ -80.0456652, 0.4457679 ], [ -80.0457361, 0.4460314 ], [ -80.0460571, 0.4466756 ], [ -80.0466021, 0.44742 ], [ -80.0470251, 0.4484983 ], [ -80.0471321, 0.4488891 ], [ -80.0471136, 0.4523016 ], [ -80.0471172, 0.4549958 ], [ -80.047458, 0.4576967 ], [ -80.0480001, 0.4594807 ], [ -80.0498741, 0.4628993 ], [ -80.0513075, 0.4647818 ], [ -80.0528437, 0.4664626 ], [ -80.0535398, 0.4675871 ], [ -80.0536798, 0.4677957 ], [ -80.0540856, 0.4682303 ], [ -80.0542679, 0.4687012 ], [ -80.0542805, 0.4692835 ], [ -80.0539423, 0.4700356 ], [ -80.0527705, 0.4718003 ], [ -80.0524225, 0.4728766 ], [ -80.0522311, 0.4734365 ], [ -80.0522385, 0.4742042 ], [ -80.0518311, 0.4752897 ], [ -80.0512483, 0.4762811 ], [ -80.0508652, 0.4768863 ], [ -80.0499103, 0.4795899 ], [ -80.049508, 0.4808961 ], [ -80.0490574, 0.4821379 ], [ -80.0487244, 0.4834182 ], [ -80.0481879, 0.4846547 ], [ -80.0474964, 0.4870032 ], [ -80.0468955, 0.4876684 ], [ -80.0463484, 0.4879152 ], [ -80.0457049, 0.4893907 ], [ -80.0460649, 0.4895736 ], [ -80.0464485, 0.4896906 ], [ -80.0467627, 0.4897865 ], [ -80.0468716, 0.4897622 ], [ -80.0471704, 0.489698 ], [ -80.0477183, 0.4895804 ], [ -80.0479138, 0.4895384 ], [ -80.0480067, 0.489615 ], [ -80.0479835, 0.4899346 ], [ -80.047859, 0.4904785 ], [ -80.0477635, 0.4908956 ], [ -80.0476024, 0.4914844 ], [ -80.0475108, 0.4918195 ], [ -80.0473791, 0.4921364 ], [ -80.0473724, 0.4922684 ], [ -80.0473732, 0.4925374 ], [ -80.047374, 0.4928234 ], [ -80.047519, 0.4930768 ], [ -80.0478426, 0.49351 ], [ -80.0480403, 0.4935704 ], [ -80.0482627, 0.493671 ], [ -80.0485864, 0.4936034 ], [ -80.0484172, 0.4938399 ], [ -80.0481661, 0.493975 ], [ -80.0480793, 0.4941239 ], [ -80.0481225, 0.4943467 ], [ -80.0477842, 0.4944551 ], [ -80.0474539, 0.4944042 ], [ -80.0473034, 0.4941429 ], [ -80.0469003, 0.4940592 ], [ -80.0465912, 0.4942281 ], [ -80.0463647, 0.4942928 ], [ -80.0461742, 0.4944366 ], [ -80.0460033, 0.4941353 ], [ -80.0457242, 0.4940769 ], [ -80.0455003, 0.4937765 ], [ -80.0455236, 0.493405 ], [ -80.0453876, 0.4932586 ], [ -80.0451597, 0.4931624 ], [ -80.0449276, 0.4930644 ], [ -80.0440022, 0.4932709 ], [ -80.0433695, 0.4937234 ], [ -80.0432022, 0.4938623 ], [ -80.0426772, 0.4942982 ], [ -80.0419363, 0.4950508 ], [ -80.0418179, 0.4951759 ], [ -80.0411932, 0.496069 ], [ -80.0410212, 0.4962905 ], [ -80.0408761, 0.4965257 ], [ -80.0404783, 0.4975185 ], [ -80.039951, 0.4985665 ], [ -80.0396318, 0.4995 ], [ -80.0394403, 0.50006 ], [ -80.0390165, 0.501437 ], [ -80.0390782, 0.5017283 ], [ -80.039304, 0.5020176 ], [ -80.0391171, 0.502196 ], [ -80.0388288, 0.5021404 ], [ -80.0388909, 0.5024216 ], [ -80.039075, 0.5025993 ], [ -80.0390429, 0.5028587 ], [ -80.0386432, 0.5029131 ], [ -80.0385654, 0.5029667 ], [ -80.0385091, 0.5029131 ], [ -80.0384769, 0.5028005 ], [ -80.038332, 0.5026663 ], [ -80.0382221, 0.5025215 ], [ -80.0380424, 0.5024115 ], [ -80.0378761, 0.5023123 ], [ -80.0377098, 0.5022211 ], [ -80.0374604, 0.5021453 ], [ -80.0372779, 0.5022131 ], [ -80.0371599, 0.5023445 ], [ -80.0371116, 0.5026878 ], [ -80.0370607, 0.5028139 ], [ -80.0366101, 0.5031759 ], [ -80.0361729, 0.5034549 ], [ -80.0360522, 0.5036265 ], [ -80.0358026, 0.5038912 ], [ -80.0356472, 0.5040745 ], [ -80.0356874, 0.5041737 ], [ -80.0355586, 0.5043132 ], [ -80.0353387, 0.5042649 ], [ -80.0352475, 0.5043373 ], [ -80.0351724, 0.5044714 ], [ -80.0349149, 0.5044902 ], [ -80.0347137, 0.5046189 ], [ -80.0344938, 0.5047074 ], [ -80.0340647, 0.5048335 ], [ -80.0336784, 0.5052841 ], [ -80.03311, 0.50647 ], [ -80.0327258, 0.5071665 ], [ -80.0325831, 0.5074251 ], [ -80.0322135, 0.5079255 ], [ -80.0320467, 0.5084894 ], [ -80.0321518, 0.5088401 ], [ -80.0324265, 0.5091715 ], [ -80.0321743, 0.5094273 ], [ -80.0319802, 0.509398 ], [ -80.0318023, 0.5093091 ], [ -80.0315714, 0.5091288 ], [ -80.0312889, 0.509285 ], [ -80.0310736, 0.5093043 ], [ -80.0307946, 0.5091566 ], [ -80.0306042, 0.5089474 ], [ -80.0304111, 0.5085317 ], [ -80.0304165, 0.5083868 ], [ -80.0306149, 0.5081776 ], [ -80.030623, 0.5080489 ], [ -80.0303145, 0.507609 ], [ -80.0300409, 0.5073355 ], [ -80.0297432, 0.507196 ], [ -80.0295796, 0.5071021 ], [ -80.0295368, 0.5070281 ], [ -80.0298076, 0.5064557 ], [ -80.0298505, 0.5062546 ], [ -80.0296467, 0.5060159 ], [ -80.0291731, 0.5057672 ], [ -80.0285228, 0.5056323 ], [ -80.0275923, 0.5055402 ], [ -80.027002, 0.5055358 ], [ -80.0260203, 0.5057342 ], [ -80.0252786, 0.5060555 ], [ -80.0240301, 0.5068339 ], [ -80.0229899, 0.5077601 ], [ -80.0224687, 0.5082586 ], [ -80.0219701, 0.5087899 ], [ -80.0206434, 0.5103171 ], [ -80.0202139, 0.5108286 ], [ -80.01915, 0.5124 ], [ -80.0180385, 0.5140529 ], [ -80.017223, 0.5157179 ], [ -80.0164263, 0.5174204 ], [ -80.0156027, 0.5191615 ], [ -80.0147146, 0.5214014 ], [ -80.0129798, 0.5265935 ], [ -80.0114437, 0.5322021 ], [ -80.0105312, 0.5365173 ], [ -80.0100186, 0.540932 ], [ -80.0094282, 0.5484119 ], [ -80.009109, 0.5493695 ], [ -80.0084891, 0.5499156 ], [ -80.0076141, 0.5503567 ], [ -80.0068, 0.5506195 ], [ -80.0060138, 0.5506483 ], [ -80.0068634, 0.5520409 ], [ -80.0070502, 0.5521785 ], [ -80.0073616, 0.5527452 ], [ -80.0078762, 0.5533674 ], [ -80.0088423, 0.5545089 ], [ -80.0092473, 0.5552488 ], [ -80.0095492, 0.5566622 ], [ -80.009647, 0.5582786 ], [ -80.0094171, 0.5596927 ], [ -80.0087484, 0.5614073 ], [ -80.0083713, 0.5620118 ], [ -80.0048447, 0.5674871 ], [ -80.0052041, 0.567809 ], [ -80.0055742, 0.5682971 ], [ -80.0058049, 0.5687316 ], [ -80.0063574, 0.5704321 ], [ -80.0067169, 0.5719179 ], [ -80.0070494, 0.573039 ], [ -80.0074786, 0.5742299 ], [ -80.0082457, 0.5752705 ], [ -80.0099838, 0.5765043 ], [ -80.0109816, 0.5770407 ], [ -80.0122368, 0.5775074 ], [ -80.0138998, 0.5780492 ], [ -80.0147152, 0.5784193 ], [ -80.0154126, 0.578886 ], [ -80.0160456, 0.5797013 ], [ -80.0165176, 0.5807098 ], [ -80.0174081, 0.5827803 ], [ -80.0192428, 0.5883698 ], [ -80.0215066, 0.5936803 ], [ -80.0247681, 0.5999456 ], [ -80.0261521, 0.602574 ], [ -80.0295867, 0.608017 ], [ -80.0316446, 0.6109259 ], [ -80.0340712, 0.6145226 ], [ -80.0372511, 0.6191276 ], [ -80.0376588, 0.6204365 ], [ -80.0377125, 0.6211553 ], [ -80.0376535, 0.6222227 ], [ -80.0421775, 0.6284404 ], [ -80.0425975, 0.6290275 ], [ -80.0446928, 0.6319561 ], [ -80.044933, 0.631921 ], [ -80.0451744, 0.6318835 ], [ -80.0452977, 0.6320283 ], [ -80.045423, 0.6323295 ], [ -80.0457054, 0.633262 ], [ -80.0459147, 0.6336053 ], [ -80.046378, 0.6340781 ], [ -80.0472523, 0.634636 ], [ -80.0477232, 0.6351488 ], [ -80.0485069, 0.6358112 ], [ -80.0484815, 0.6360969 ], [ -80.0483283, 0.6363391 ], [ -80.0478747, 0.6364179 ], [ -80.0461381, 0.6367615 ], [ -80.0455078, 0.6370371 ], [ -80.0443747, 0.6384978 ], [ -80.0440045, 0.6388465 ], [ -80.0436488, 0.6390061 ], [ -80.043887, 0.6391788 ], [ -80.0440962, 0.6393426 ], [ -80.0454235, 0.6380318 ], [ -80.0462708, 0.6375575 ], [ -80.0473847, 0.6371183 ], [ -80.047942, 0.6370588 ], [ -80.0478991, 0.6371967 ], [ -80.0476716, 0.6374857 ], [ -80.0472423, 0.6380449 ], [ -80.047121, 0.6402495 ], [ -80.0472747, 0.6397248 ], [ -80.0473461, 0.6383223 ], [ -80.047496, 0.6382537 ], [ -80.0477021, 0.6379355 ], [ -80.0483677, 0.6374577 ], [ -80.0488222, 0.6368774 ], [ -80.0491642, 0.6361444 ], [ -80.0494755, 0.6358279 ], [ -80.0502898, 0.6358325 ], [ -80.0508898, 0.6359277 ], [ -80.0516369, 0.6365235 ], [ -80.0523573, 0.6370383 ], [ -80.0548035, 0.638964 ], [ -80.0569375, 0.6407506 ], [ -80.058049, 0.6415227 ], [ -80.0584406, 0.6419358 ], [ -80.0587303, 0.6424507 ], [ -80.0590038, 0.6428745 ], [ -80.0592721, 0.6430568 ], [ -80.0596798, 0.6430783 ], [ -80.0603349, 0.6439466 ], [ -80.0608116, 0.644312 ], [ -80.0608546, 0.6445105 ], [ -80.0609136, 0.6448484 ], [ -80.0611299, 0.64544 ], [ -80.0616753, 0.6460178 ], [ -80.0618202, 0.646286 ], [ -80.0618577, 0.6468063 ], [ -80.0623888, 0.6476753 ], [ -80.0641117, 0.6494864 ], [ -80.064626, 0.6499349 ], [ -80.065524, 0.6506632 ], [ -80.065875, 0.6510156 ], [ -80.0661749, 0.65135 ], [ -80.0669206, 0.6519396 ], [ -80.067425, 0.6523485 ], [ -80.0689933, 0.653122 ], [ -80.0698882, 0.6533827 ], [ -80.0701189, 0.6537689 ], [ -80.0699204, 0.6540049 ], [ -80.0699151, 0.6540371 ], [ -80.0699043, 0.6543214 ], [ -80.0701457, 0.6547398 ], [ -80.0705481, 0.6547291 ], [ -80.0706607, 0.6545038 ], [ -80.0709182, 0.6543107 ], [ -80.0713856, 0.6542709 ], [ -80.0719911, 0.6542517 ], [ -80.0729191, 0.654198 ], [ -80.073579, 0.6539459 ], [ -80.0736755, 0.6538011 ], [ -80.0738043, 0.6533881 ], [ -80.0742012, 0.6528248 ], [ -80.0748181, 0.6531198 ], [ -80.0751936, 0.653313 ], [ -80.0758696, 0.6532969 ], [ -80.0767279, 0.6531735 ], [ -80.0772844, 0.6528682 ], [ -80.0775493, 0.6526049 ], [ -80.0774172, 0.6522254 ], [ -80.0778294, 0.6518848 ], [ -80.078305, 0.6520417 ], [ -80.0785464, 0.652106 ], [ -80.079228, 0.6520252 ], [ -80.0793186, 0.6516673 ], [ -80.0797266, 0.6517574 ], [ -80.0799197, 0.6517306 ], [ -80.0802416, 0.6515106 ], [ -80.0805098, 0.6514784 ], [ -80.0809336, 0.6514731 ], [ -80.0816678, 0.6512467 ], [ -80.0821137, 0.6509045 ], [ -80.0823113, 0.6504626 ], [ -80.0823209, 0.6495639 ], [ -80.0821191, 0.6491183 ], [ -80.0822908, 0.6488608 ], [ -80.08228, 0.6484531 ], [ -80.0824785, 0.6480454 ], [ -80.0833368, 0.6479113 ], [ -80.0840718, 0.6480401 ], [ -80.0852497, 0.6489366 ], [ -80.0855066, 0.6491021 ], [ -80.0857489, 0.6491458 ], [ -80.0858996, 0.6490782 ], [ -80.0862987, 0.6485516 ], [ -80.0868872, 0.6483668 ], [ -80.087712, 0.6483397 ], [ -80.0877786, 0.6485336 ], [ -80.0872475, 0.6488715 ], [ -80.0870973, 0.6488822 ], [ -80.0869739, 0.6490807 ], [ -80.0870276, 0.6494025 ], [ -80.0873119, 0.6503895 ], [ -80.0874263, 0.6509053 ], [ -80.0877013, 0.6516842 ], [ -80.087859, 0.652224 ], [ -80.088079, 0.6526639 ], [ -80.088535, 0.6537528 ], [ -80.0895649, 0.654772 ], [ -80.0904071, 0.6559574 ], [ -80.090552, 0.6560647 ], [ -80.0909543, 0.6565368 ], [ -80.0912601, 0.6571322 ], [ -80.0915229, 0.6574057 ], [ -80.0919306, 0.6577276 ], [ -80.0920755, 0.658264 ], [ -80.0921935, 0.6584464 ], [ -80.0923705, 0.6591544 ], [ -80.0925761, 0.659895 ], [ -80.0924081, 0.6602058 ], [ -80.0924295, 0.6605866 ], [ -80.0924939, 0.6612571 ], [ -80.0924939, 0.661874 ], [ -80.092628, 0.6622066 ], [ -80.0927782, 0.6625606 ], [ -80.0930196, 0.6629307 ], [ -80.0933039, 0.6633438 ], [ -80.0935131, 0.6635744 ], [ -80.0938082, 0.6639231 ], [ -80.0937599, 0.6641591 ], [ -80.0937599, 0.6646204 ], [ -80.0938028, 0.664835 ], [ -80.0938211, 0.664902 ], [ -80.0939155, 0.665248 ], [ -80.093894, 0.665661 ], [ -80.0940174, 0.6661438 ], [ -80.0941086, 0.6666105 ], [ -80.0941461, 0.6666158 ], [ -80.0942352, 0.666629 ], [ -80.0946182, 0.6666856 ], [ -80.0948274, 0.6668733 ], [ -80.094924, 0.6672971 ], [ -80.0950688, 0.6678603 ], [ -80.0953531, 0.6683806 ], [ -80.0957823, 0.6690565 ], [ -80.0962222, 0.6700917 ], [ -80.0963885, 0.6709393 ], [ -80.0965172, 0.67154 ], [ -80.0969571, 0.672468 ], [ -80.0971931, 0.6738466 ], [ -80.0976598, 0.675268 ], [ -80.0979763, 0.6757669 ], [ -80.0980211, 0.6758219 ], [ -80.0987542, 0.6767217 ], [ -80.0988722, 0.6769202 ], [ -80.0990868, 0.6771133 ], [ -80.0993711, 0.6774244 ], [ -80.0996769, 0.6781968 ], [ -80.0997627, 0.6788298 ], [ -80.1000899, 0.6793072 ], [ -80.1001006, 0.6796397 ], [ -80.1000416, 0.6802459 ], [ -80.100047, 0.6810398 ], [ -80.0999719, 0.6812329 ], [ -80.0996876, 0.6816942 ], [ -80.0996554, 0.6824559 ], [ -80.0999504, 0.6833838 ], [ -80.1000255, 0.6841026 ], [ -80.100342, 0.6847678 ], [ -80.1003528, 0.6849501 ], [ -80.1004386, 0.6853793 ], [ -80.1004869, 0.6857655 ], [ -80.1006317, 0.686157 ], [ -80.1010287, 0.6874498 ], [ -80.1011199, 0.6878682 ], [ -80.1012433, 0.6884368 ], [ -80.1013345, 0.689295 ], [ -80.1015329, 0.6904697 ], [ -80.101651, 0.6913333 ], [ -80.1017743, 0.6920146 ], [ -80.1020587, 0.6925295 ], [ -80.1022142, 0.6930284 ], [ -80.1024395, 0.6936399 ], [ -80.1025039, 0.6938115 ], [ -80.1024664, 0.6945893 ], [ -80.1024073, 0.6949916 ], [ -80.1023859, 0.6951042 ], [ -80.1022893, 0.6956299 ], [ -80.1022625, 0.696059 ], [ -80.1022089, 0.6964774 ], [ -80.1020318, 0.6972177 ], [ -80.1021391, 0.6976361 ], [ -80.1019836, 0.697738 ], [ -80.1014203, 0.6982422 ], [ -80.1006424, 0.6984997 ], [ -80.1003581, 0.698682 ], [ -80.1001489, 0.698843 ], [ -80.0996232, 0.6993043 ], [ -80.0994247, 0.6995671 ], [ -80.0990439, 0.7005058 ], [ -80.0988507, 0.7007633 ], [ -80.0982599, 0.70169 ], [ -80.098207, 0.702292 ], [ -80.09803, 0.7030323 ], [ -80.0979602, 0.7033917 ], [ -80.098, 0.70394 ], [ -80.0976384, 0.7041533 ], [ -80.09774, 0.7045301 ], [ -80.09774, 0.70474 ], [ -80.097709, 0.7050882 ], [ -80.0978144, 0.7054454 ], [ -80.0980952, 0.7055015 ], [ -80.09815, 0.7055985 ], [ -80.0978851, 0.7059717 ], [ -80.0977564, 0.7063526 ], [ -80.0970912, 0.7064438 ], [ -80.0960881, 0.7070285 ], [ -80.0955248, 0.7075166 ], [ -80.0953853, 0.7078706 ], [ -80.0952566, 0.7084016 ], [ -80.0951225, 0.7096515 ], [ -80.0950795, 0.7100216 ], [ -80.0951332, 0.7104078 ], [ -80.0951815, 0.7106277 ], [ -80.0953639, 0.7109281 ], [ -80.0950581, 0.7113143 ], [ -80.0950098, 0.7114698 ], [ -80.0949615, 0.7116308 ], [ -80.0949508, 0.7118936 ], [ -80.0949508, 0.7122691 ], [ -80.095042, 0.7128672 ], [ -80.0949964, 0.7134465 ], [ -80.0949588, 0.713704 ], [ -80.0948301, 0.7143423 ], [ -80.0947496, 0.7153748 ], [ -80.0948408, 0.7164771 ], [ -80.0950018, 0.7173622 ], [ -80.0949508, 0.7183411 ], [ -80.0948355, 0.7185316 ], [ -80.0945002, 0.7189821 ], [ -80.0943929, 0.7194863 ], [ -80.0943875, 0.719607 ], [ -80.0942534, 0.7197143 ], [ -80.09424, 0.7198511 ], [ -80.0942776, 0.7199932 ], [ -80.0943956, 0.7200764 ], [ -80.0945941, 0.7201863 ], [ -80.0946611, 0.720189 ], [ -80.0948435, 0.720535 ], [ -80.0950527, 0.7215327 ], [ -80.0955141, 0.7231473 ], [ -80.0957447, 0.7238821 ], [ -80.0959486, 0.7247028 ], [ -80.0962544, 0.7259741 ], [ -80.096646, 0.7276262 ], [ -80.097279, 0.7293051 ], [ -80.0975472, 0.7303028 ], [ -80.0979817, 0.7315955 ], [ -80.0982231, 0.7326737 ], [ -80.0983143, 0.7332316 ], [ -80.0984055, 0.7335427 ], [ -80.098443, 0.7341113 ], [ -80.0985718, 0.7350339 ], [ -80.0986469, 0.7357848 ], [ -80.0987917, 0.736568 ], [ -80.0990117, 0.7369595 ], [ -80.0991029, 0.7373457 ], [ -80.0994735, 0.7378671 ], [ -80.099752, 0.7382254 ], [ -80.0997305, 0.7384239 ], [ -80.0997973, 0.7387379 ], [ -80.0998324, 0.7390837 ], [ -80.0998163, 0.7391802 ], [ -80.0996876, 0.7394323 ], [ -80.0994, 0.74006 ], [ -80.0994354, 0.7404494 ], [ -80.0993083, 0.7408228 ], [ -80.0989398, 0.7409389 ], [ -80.0988132, 0.7410415 ], [ -80.098722, 0.74124 ], [ -80.0985986, 0.7417817 ], [ -80.0985986, 0.7419373 ], [ -80.0986898, 0.7423289 ], [ -80.0986952, 0.7426132 ], [ -80.0987327, 0.7429725 ], [ -80.0987166, 0.7435518 ], [ -80.0987542, 0.7443403 ], [ -80.0987327, 0.744866 ], [ -80.0987756, 0.7452951 ], [ -80.0988346, 0.7460139 ], [ -80.0988555, 0.746772 ], [ -80.0989714, 0.7471618 ], [ -80.0989902, 0.7472878 ], [ -80.0991002, 0.7475265 ], [ -80.0991994, 0.7479771 ], [ -80.0992799, 0.7486744 ], [ -80.0993094, 0.7489265 ], [ -80.0992504, 0.7491921 ], [ -80.0992718, 0.7496775 ], [ -80.099245, 0.7498813 ], [ -80.0993174, 0.750053 ], [ -80.0993952, 0.7502246 ], [ -80.0995059, 0.7504466 ], [ -80.0993791, 0.7504419 ], [ -80.0991726, 0.7503775 ], [ -80.0989595, 0.750127 ], [ -80.0987849, 0.750049 ], [ -80.0986288, 0.7500081 ], [ -80.0990116, 0.7503797 ], [ -80.0991937, 0.7505358 ], [ -80.0998087, 0.751741 ], [ -80.0997679, 0.7521665 ], [ -80.0994022, 0.7525588 ], [ -80.0992756, 0.7528109 ], [ -80.0989553, 0.7535664 ], [ -80.0989392, 0.7537836 ], [ -80.0988078, 0.7541913 ], [ -80.098671, 0.7545748 ], [ -80.0984779, 0.7552989 ], [ -80.0984699, 0.7555457 ], [ -80.0984511, 0.7559882 ], [ -80.0984967, 0.7564951 ], [ -80.0985718, 0.7570985 ], [ -80.0986013, 0.7572702 ], [ -80.0985262, 0.757415 ], [ -80.0984564, 0.7575598 ], [ -80.0984001, 0.7577744 ], [ -80.098325, 0.7579916 ], [ -80.0980461, 0.758284 ], [ -80.0978583, 0.7585146 ], [ -80.0976679, 0.758646 ], [ -80.097566, 0.7588284 ], [ -80.0974667, 0.759051 ], [ -80.0974292, 0.7591851 ], [ -80.0974023, 0.7592521 ], [ -80.0973111, 0.7593326 ], [ -80.0973299, 0.7594828 ], [ -80.0972548, 0.7596383 ], [ -80.09722, 0.7599101 ], [ -80.0971395, 0.7601104 ], [ -80.0970107, 0.7604698 ], [ -80.0969759, 0.7607996 ], [ -80.096941, 0.7610035 ], [ -80.0968257, 0.7611108 ], [ -80.0967184, 0.7614835 ], [ -80.0966674, 0.7616471 ], [ -80.0965896, 0.7618563 ], [ -80.0965843, 0.7620494 ], [ -80.096603, 0.762315 ], [ -80.0966379, 0.7626314 ], [ -80.0966942, 0.7628674 ], [ -80.0967103, 0.7631893 ], [ -80.0967157, 0.7636184 ], [ -80.0967693, 0.7637686 ], [ -80.0967667, 0.7638061 ], [ -80.0968123, 0.7640019 ], [ -80.0967801, 0.7641038 ], [ -80.0968283, 0.764254 ], [ -80.0967827, 0.764423 ], [ -80.0967693, 0.7645598 ], [ -80.0968632, 0.764659 ], [ -80.0969839, 0.76471 ], [ -80.0970858, 0.7648146 ], [ -80.0971743, 0.7649299 ], [ -80.0971883, 0.765025 ], [ -80.096933, 0.7650372 ], [ -80.096992, 0.7650908 ], [ -80.097059, 0.7651927 ], [ -80.0969383, 0.7653054 ], [ -80.0968444, 0.7652812 ], [ -80.0966594, 0.7653751 ], [ -80.0964689, 0.7655682 ], [ -80.0963536, 0.7656326 ], [ -80.0963107, 0.7657023 ], [ -80.0961497, 0.7657184 ], [ -80.0959942, 0.7657613 ], [ -80.0959459, 0.7659088 ], [ -80.0959057, 0.7660107 ], [ -80.0958788, 0.7661073 ], [ -80.0957072, 0.766126 ], [ -80.095506, 0.7661153 ], [ -80.0953907, 0.7662253 ], [ -80.0954363, 0.7663433 ], [ -80.0953676, 0.7665344 ], [ -80.0952351, 0.7667134 ], [ -80.095093, 0.7667885 ], [ -80.0950205, 0.7668475 ], [ -80.0948167, 0.7669414 ], [ -80.0947952, 0.7670755 ], [ -80.0946772, 0.7671693 ], [ -80.0946987, 0.7673061 ], [ -80.0946397, 0.7673839 ], [ -80.0945592, 0.7675716 ], [ -80.094586, 0.7678345 ], [ -80.0945807, 0.7678774 ], [ -80.0944304, 0.767931 ], [ -80.0943822, 0.7680329 ], [ -80.0943258, 0.7681053 ], [ -80.0942427, 0.7681617 ], [ -80.0941515, 0.7683279 ], [ -80.0940523, 0.7684191 ], [ -80.0940898, 0.7685452 ], [ -80.0940469, 0.7686015 ], [ -80.0939396, 0.7685854 ], [ -80.0938109, 0.7687088 ], [ -80.0937545, 0.7687785 ], [ -80.0936982, 0.7688563 ], [ -80.0936553, 0.7690628 ], [ -80.0936177, 0.7691674 ], [ -80.0934675, 0.7692291 ], [ -80.093379, 0.7693632 ], [ -80.0932691, 0.7697252 ], [ -80.0932315, 0.769854 ], [ -80.093253, 0.7701114 ], [ -80.0931725, 0.7703045 ], [ -80.0932074, 0.7707149 ], [ -80.0933012, 0.770975 ], [ -80.0933147, 0.771262 ], [ -80.093261, 0.7714632 ], [ -80.0931537, 0.7716965 ], [ -80.0931296, 0.7721605 ], [ -80.0931296, 0.7728149 ], [ -80.0931135, 0.7730241 ], [ -80.0931698, 0.7730804 ], [ -80.0931725, 0.7731555 ], [ -80.0930706, 0.7731823 ], [ -80.0929418, 0.7731742 ], [ -80.0927943, 0.7732949 ], [ -80.0927085, 0.7734934 ], [ -80.0925314, 0.773885 ], [ -80.0924805, 0.7740352 ], [ -80.0924268, 0.7742712 ], [ -80.0924, 0.7744991 ], [ -80.0923705, 0.7746869 ], [ -80.0922766, 0.7748451 ], [ -80.0922418, 0.774998 ], [ -80.0922364, 0.7752581 ], [ -80.092223, 0.7754298 ], [ -80.0922015, 0.7755263 ], [ -80.0922874, 0.7756443 ], [ -80.0922149, 0.7757248 ], [ -80.0920326, 0.7756926 ], [ -80.0918073, 0.7755961 ], [ -80.0916463, 0.7756336 ], [ -80.0914854, 0.7756443 ], [ -80.0914371, 0.7755478 ], [ -80.0914049, 0.7754512 ], [ -80.0913982, 0.7752693 ], [ -80.0913471, 0.775187 ], [ -80.0911608, 0.775183 ], [ -80.090788, 0.7752447 ], [ -80.0906646, 0.7753654 ], [ -80.0903052, 0.7757892 ], [ -80.0901014, 0.7761003 ], [ -80.0900745, 0.7761217 ], [ -80.0897151, 0.7765079 ], [ -80.0893396, 0.7769317 ], [ -80.0887227, 0.7776558 ], [ -80.0882775, 0.7784068 ], [ -80.0879771, 0.7791792 ], [ -80.0876874, 0.780327 ], [ -80.0874567, 0.7812496 ], [ -80.0871295, 0.7817968 ], [ -80.0870651, 0.7822044 ], [ -80.0867111, 0.7826228 ], [ -80.0866145, 0.7827623 ], [ -80.0863785, 0.7834864 ], [ -80.0860351, 0.7838029 ], [ -80.0853944, 0.7841499 ], [ -80.084914, 0.7842373 ], [ -80.0839907, 0.7844218 ], [ -80.0835997, 0.7846074 ], [ -80.0832886, 0.7848756 ], [ -80.0826812, 0.7856388 ], [ -80.0821996, 0.7859592 ], [ -80.0820118, 0.7862756 ], [ -80.0818563, 0.7868603 ], [ -80.0816256, 0.787504 ], [ -80.0813305, 0.788094 ], [ -80.0812554, 0.7889039 ], [ -80.081014, 0.789435 ], [ -80.0809765, 0.7899338 ], [ -80.0805259, 0.7915054 ], [ -80.0805849, 0.79231 ], [ -80.080424, 0.7927767 ], [ -80.0801343, 0.7930127 ], [ -80.0792883, 0.7933018 ], [ -80.0787932, 0.7937261 ], [ -80.0786054, 0.7941552 ], [ -80.0784391, 0.7945307 ], [ -80.0775, 0.7947101 ], [ -80.0763781, 0.7951003 ], [ -80.07519, 0.796 ], [ -80.0746626, 0.7962257 ], [ -80.0741673, 0.7965911 ], [ -80.0737345, 0.7969713 ], [ -80.07262, 0.79832 ], [ -80.0715834, 0.7998302 ], [ -80.070371, 0.8015091 ], [ -80.0690399, 0.8029599 ], [ -80.0683326, 0.8036815 ], [ -80.0680161, 0.8040248 ], [ -80.0677103, 0.8044432 ], [ -80.0666396, 0.8058786 ], [ -80.0662201, 0.80631 ], [ -80.0655903, 0.8073477 ], [ -80.0648832, 0.8083052 ], [ -80.0638694, 0.8097212 ], [ -80.063805, 0.8103917 ], [ -80.06365, 0.81121 ], [ -80.0625174, 0.8119918 ], [ -80.0623968, 0.8122251 ], [ -80.0623478, 0.8124458 ], [ -80.0624401, 0.8127401 ], [ -80.0623503, 0.8129946 ], [ -80.0620409, 0.8131143 ], [ -80.0616892, 0.8134286 ], [ -80.0614721, 0.8138252 ], [ -80.0612626, 0.8137479 ], [ -80.060934, 0.8141386 ], [ -80.0608659, 0.8145087 ], [ -80.0610006, 0.8146185 ], [ -80.0609358, 0.8148205 ], [ -80.0607287, 0.8148081 ], [ -80.0606339, 0.8148879 ], [ -80.0607754, 0.8150376 ], [ -80.0605902, 0.8153212 ], [ -80.0603143, 0.8155484 ], [ -80.060134, 0.8157232 ], [ -80.0600581, 0.815823 ], [ -80.0598808, 0.8158135 ], [ -80.0597363, 0.8157317 ], [ -80.0594439, 0.8155913 ], [ -80.0592751, 0.8154851 ], [ -80.0588112, 0.815563 ], [ -80.0585009, 0.8159569 ], [ -80.0579171, 0.816629 ], [ -80.057508, 0.8170631 ], [ -80.056792, 0.817325 ], [ -80.0564951, 0.8175844 ], [ -80.0561958, 0.8177416 ], [ -80.0557168, 0.8178264 ], [ -80.0553276, 0.8182005 ], [ -80.0552603, 0.8185323 ], [ -80.0550532, 0.8187568 ], [ -80.0542823, 0.8200864 ], [ -80.0537709, 0.820942 ], [ -80.0529152, 0.8227255 ], [ -80.0528329, 0.8231072 ], [ -80.052924, 0.8232781 ], [ -80.0529105, 0.8234057 ], [ -80.0528029, 0.8236834 ], [ -80.0527302, 0.8236668 ], [ -80.0526743, 0.8234617 ], [ -80.0525854, 0.8234925 ], [ -80.0525784, 0.8236404 ], [ -80.052513, 0.8237198 ], [ -80.0523663, 0.823664 ], [ -80.0523336, 0.8237214 ], [ -80.0522879, 0.8237169 ], [ -80.0521379, 0.8239265 ], [ -80.0519348, 0.8244218 ], [ -80.0517651, 0.8248832 ], [ -80.0517053, 0.8251876 ], [ -80.0514308, 0.825215 ], [ -80.0512936, 0.8253996 ], [ -80.0511839, 0.8254121 ], [ -80.0508171, 0.8255218 ], [ -80.0504335, 0.8259486 ], [ -80.0499926, 0.8257486 ], [ -80.0499478, 0.8252503 ], [ -80.0498407, 0.8249303 ], [ -80.0493609, 0.8245846 ], [ -80.0490328, 0.8244541 ], [ -80.0491418, 0.8241042 ], [ -80.048994, 0.8236039 ], [ -80.0491351, 0.8230767 ], [ -80.0493655, 0.8220602 ], [ -80.0496572, 0.8216233 ], [ -80.0499184, 0.8208523 ], [ -80.0498478, 0.8201185 ], [ -80.0496432, 0.8198645 ], [ -80.0493022, 0.8195408 ], [ -80.0491609, 0.8190599 ], [ -80.0488893, 0.8184427 ], [ -80.0483801, 0.8183335 ], [ -80.0471806, 0.8181571 ], [ -80.0456811, 0.8180971 ], [ -80.0450322, 0.8180868 ], [ -80.0448344, 0.8180936 ], [ -80.0441782, 0.8180125 ], [ -80.0435043, 0.8179349 ], [ -80.0423259, 0.8179137 ], [ -80.0406007, 0.8179525 ], [ -80.0391401, 0.8182312 ], [ -80.0380146, 0.8181501 ], [ -80.0374043, 0.8177691 ], [ -80.0362118, 0.8179701 ], [ -80.0355485, 0.8179384 ], [ -80.0350863, 0.8176209 ], [ -80.0344477, 0.8176597 ], [ -80.0336292, 0.8181465 ], [ -80.0333964, 0.8182277 ], [ -80.0331565, 0.8181007 ], [ -80.0321862, 0.8178784 ], [ -80.0313042, 0.8180442 ], [ -80.0308844, 0.818464 ], [ -80.0303763, 0.8184041 ], [ -80.0303446, 0.8181747 ], [ -80.0301047, 0.8180372 ], [ -80.0292862, 0.8183123 ], [ -80.0277056, 0.8191837 ], [ -80.0272222, 0.8194906 ], [ -80.025871, 0.8194835 ], [ -80.0252712, 0.819346 ], [ -80.0246503, 0.8194165 ], [ -80.0237753, 0.8189791 ], [ -80.0235036, 0.8185875 ], [ -80.0229674, 0.8182312 ], [ -80.0230309, 0.817762 ], [ -80.0229744, 0.8175891 ], [ -80.0223641, 0.8175256 ], [ -80.0217184, 0.8177655 ], [ -80.021281, 0.8178678 ], [ -80.020526, 0.8180407 ], [ -80.020152, 0.8180795 ], [ -80.0196863, 0.8180548 ], [ -80.0190512, 0.8179631 ], [ -80.0182468, 0.8182912 ], [ -80.0172237, 0.8186792 ], [ -80.0167615, 0.8192013 ], [ -80.0164863, 0.8192719 ], [ -80.0163275, 0.8190461 ], [ -80.0160347, 0.8190532 ], [ -80.0157913, 0.8191202 ], [ -80.0153044, 0.8193636 ], [ -80.0148563, 0.8197622 ], [ -80.014433, 0.8201291 ], [ -80.0140484, 0.8203655 ], [ -80.0137873, 0.8203725 ], [ -80.013364, 0.8205348 ], [ -80.0130217, 0.820623 ], [ -80.012676, 0.8203408 ], [ -80.0123583, 0.8201393 ], [ -80.0118998, 0.8200409 ], [ -80.01148, 0.8202596 ], [ -80.0112259, 0.820182 ], [ -80.0110919, 0.8200127 ], [ -80.011233, 0.8197128 ], [ -80.0113212, 0.8192719 ], [ -80.0111377, 0.8189015 ], [ -80.0108167, 0.8187004 ], [ -80.0104674, 0.8185981 ], [ -80.0101852, 0.8185945 ], [ -80.0099064, 0.8184605 ], [ -80.0089593, 0.8184605 ], [ -80.0086525, 0.8185777 ], [ -80.0083431, 0.8185004 ], [ -80.008136, 0.8183707 ], [ -80.0080013, 0.8180564 ], [ -80.0077718, 0.8177919 ], [ -80.0072729, 0.8178593 ], [ -80.0069635, 0.8175949 ], [ -80.0064421, 0.8176547 ], [ -80.0057261, 0.8177919 ], [ -80.0052921, 0.817984 ], [ -80.0049403, 0.8178668 ], [ -80.0044888, 0.8179391 ], [ -80.0043466, 0.8183308 ], [ -80.0039474, 0.8183906 ], [ -80.0029685, 0.818627 ], [ -80.0026383, 0.8184733 ], [ -80.0023583, 0.8181953 ], [ -80.0021164, 0.8180386 ], [ -80.0018133, 0.8178643 ], [ -80.001529, 0.8177087 ], [ -80.0012503, 0.8176393 ], [ -80.0006841, 0.8174781 ], [ -80.0001262, 0.817462 ], [ -80.0, 0.817432676564581 ], [ -80.0, 0.404268175041989 ], [ -80.0006899, 0.4044443 ] ] ] ] } },
{ "type": "Feature", "properties": { "FID": 543874, "id": 702, "left": -85.0, "top": 5.0, "right": -80.0, "bottom": 0.0, "row_index": 17, "col_index": 19, "min_lon": -85.0, "min_lat": 0.0, "tile_id": "-85_0" }, "geometry": { "type": "MultiPolygon", "coordinates": [ [ [ [ -81.6042068, 3.9992042 ], [ -81.6042585, 3.9992492 ], [ -81.6042581, 3.999275 ], [ -81.6042208, 3.9993247 ], [ -81.6041468, 3.9993393 ], [ -81.604075, 3.99933 ], [ -81.6040205, 3.9992751 ], [ -81.6040228, 3.9992493 ], [ -81.6041048, 3.9991924 ], [ -81.6041922, 3.9992011 ], [ -81.6042068, 3.9992042 ] ] ] ] } },
{ "type": "Feature", "properties": { "FID": 588765, "id": 702, "left": -85.0, "top": 5.0, "right": -80.0, "bottom": 0.0, "row_index": 17, "col_index": 19, "min_lon": -85.0, "min_lat": 0.0, "tile_id": "-85_0" }, "geometry": { "type": "MultiPolygon", "coordinates": [ [ [ [ -81.6136364, 3.9978143 ], [ -81.6135707, 3.9977469 ], [ -81.613581, 3.9976416 ], [ -81.6138847, 3.9974867 ], [ -81.6140447, 3.997515 ], [ -81.6140708, 3.997633 ], [ -81.6140128, 3.9977235 ], [ -81.6137164, 3.9978349 ], [ -81.6136364, 3.9978143 ] ] ] ] } },
{ "type": "Feature", "properties": { "FID": 588766, "id": 702, "left": -85.0, "top": 5.0, "right": -80.0, "bottom": 0.0, "row_index": 17, "col_index": 19, "min_lon": -85.0, "min_lat": 0.0, "tile_id": "-85_0" }, "geometry": { "type": "MultiPolygon", "coordinates": [ [ [ [ -81.6141984, 3.9972743 ], [ -81.6140893, 3.9971417 ], [ -81.614172, 3.9970487 ], [ -81.6143532, 3.9970975 ], [ -81.6143897, 3.9971755 ], [ -81.6143181, 3.9972937 ], [ -81.6141984, 3.9972743 ] ] ] ] } },
{ "type": "Feature", "properties": { "FID": 588767, "id": 702, "left": -85.0, "top": 5.0, "right": -80.0, "bottom": 0.0, "row_index": 17, "col_index": 19, "min_lon": -85.0, "min_lat": 0.0, "tile_id": "-85_0" }, "geometry": { "type": "MultiPolygon", "coordinates": [ [ [ [ -81.6145704, 3.9964553 ], [ -81.6144739, 3.996443 ], [ -81.6144393, 3.9963772 ], [ -81.6144583, 3.996306 ], [ -81.6145738, 3.9962527 ], [ -81.6147693, 3.9962701 ], [ -81.614795, 3.9963052 ], [ -81.6147133, 3.9964162 ], [ -81.6145704, 3.9964553 ] ] ] ] } },
{ "type": "Feature", "properties": { "FID": 588769, "id": 702, "left": -85.0, "top": 5.0, "right": -80.0, "bottom": 0.0, "row_index": 17, "col_index": 19, "min_lon": -85.0, "min_lat": 0.0, "tile_id": "-85_0" }, "geometry": { "type": "MultiPolygon", "coordinates": [ [ [ [ -81.6050295, 4.0002352 ], [ -81.605002, 4.0002244 ], [ -81.6049925, 4.0001334 ], [ -81.6050215, 4.0001047 ], [ -81.6051692, 4.0000863 ], [ -81.6051873, 4.000108 ], [ -81.6051876, 4.0001534 ], [ -81.6051653, 4.0001965 ], [ -81.6051482, 4.0002062 ], [ -81.6050295, 4.0002352 ] ] ] ] } },
{ "type": "Feature", "properties": { "FID": 588770, "id": 702, "left": -85.0, "top": 5.0, "right": -80.0, "bottom": 0.0, "row_index": 17, "col_index": 19, "min_lon": -85.0, "min_lat": 0.0, "tile_id": "-85_0" }, "geometry": { "type": "MultiPolygon", "coordinates": [ [ [ [ -81.6116484, 4.003743 ], [ -81.6116641, 4.0036974 ], [ -81.6119637, 4.0035906 ], [ -81.61198, 4.0036151 ], [ -81.6119145, 4.0036806 ], [ -81.6116973, 4.0037641 ], [ -81.6116484, 4.003743 ] ] ] ] } }
]
}
