{
"type": "FeatureCollection",
"name": "-90_0",
"crs": { "type": "name", "properties": { "name": "urn:ogc:def:crs:OGC:1.3:CRS84" } },
"xy_coordinate_resolution": 1e-15,
"features": [
{ "type": "Feature", "properties": { "FID": 28071, "id": 666, "left": -90.0, "top": 5.0, "right": -85.0, "bottom": 0.0, "row_index": 17, "col_index": 18, "min_lon": -90.0, "min_lat": 0.0, "tile_id": "-90_0" }, "geometry": { "type": "MultiPolygon", "coordinates": [ [ [ [ -89.9742749, 0.3108598 ], [ -89.9743366, 0.3108652 ], [ -89.9743521, 0.310983 ], [ -89.9744451, 0.3110508 ], [ -89.9745133, 0.3112742 ], [ -89.9745554, 0.3114354 ], [ -89.9746038, 0.3115366 ], [ -89.9745561, 0.311747 ], [ -89.9744668, 0.3118279 ], [ -89.974397, 0.3118924 ], [ -89.9743742, 0.3119796 ], [ -89.9744131, 0.3120842 ], [ -89.9743552, 0.3121796 ], [ -89.9743366, 0.3122945 ], [ -89.9744545, 0.3124621 ], [ -89.9744882, 0.3124999 ], [ -89.9745418, 0.3124731 ], [ -89.9745913, 0.3125518 ], [ -89.9745579, 0.3125804 ], [ -89.9745756, 0.3126813 ], [ -89.97493, 0.31286 ], [ -89.9748738, 0.3130506 ], [ -89.9749348, 0.3134495 ], [ -89.9753151, 0.3136635 ], [ -89.9756083, 0.313574 ], [ -89.9756839, 0.313743 ], [ -89.9760553, 0.3135719 ], [ -89.976186, 0.3136375 ], [ -89.9762087, 0.3138004 ], [ -89.9765601, 0.3139049 ], [ -89.9766645, 0.3139786 ], [ -89.9767567, 0.3140512 ], [ -89.9768388, 0.3141354 ], [ -89.9771127, 0.3142889 ], [ -89.9771878, 0.314305 ], [ -89.9772455, 0.3143681 ], [ -89.9771597, 0.3143882 ], [ -89.9771291, 0.3144639 ], [ -89.977019, 0.3145367 ], [ -89.9770974, 0.3150281 ], [ -89.9771838, 0.3154107 ], [ -89.9772379, 0.3158554 ], [ -89.9772958, 0.3158684 ], [ -89.9773978, 0.3160072 ], [ -89.9774291, 0.3160926 ], [ -89.9774938, 0.3161993 ], [ -89.9776064, 0.3163821 ], [ -89.977672, 0.3164291 ], [ -89.9776761, 0.3165528 ], [ -89.9776605, 0.3166222 ], [ -89.9777153, 0.316694 ], [ -89.977695, 0.3167564 ], [ -89.9777401, 0.3168895 ], [ -89.9777952, 0.3169424 ], [ -89.9778267, 0.3170722 ], [ -89.9778575, 0.3171225 ], [ -89.9779499, 0.3171211 ], [ -89.9779982, 0.3171584 ], [ -89.9779807, 0.3172062 ], [ -89.9781043, 0.3173284 ], [ -89.9780037, 0.3175287 ], [ -89.9779901, 0.3176192 ], [ -89.9779487, 0.3177326 ], [ -89.9778135, 0.3178532 ], [ -89.9777087, 0.3180438 ], [ -89.9776139, 0.3182427 ], [ -89.9775462, 0.3185671 ], [ -89.977542, 0.3187892 ], [ -89.9775725, 0.3189848 ], [ -89.977728, 0.3192017 ], [ -89.9778723, 0.3194598 ], [ -89.9778561, 0.3197228 ], [ -89.9778658, 0.319899 ], [ -89.9779198, 0.320068 ], [ -89.9778273, 0.3202967 ], [ -89.9777868, 0.3204743 ], [ -89.9778143, 0.3205223 ], [ -89.9777853, 0.3206487 ], [ -89.9776136, 0.3209239 ], [ -89.9776395, 0.3209781 ], [ -89.9775476, 0.3210448 ], [ -89.9775942, 0.32123 ], [ -89.9775966, 0.3213773 ], [ -89.9775944, 0.3215618 ], [ -89.9776374, 0.3216409 ], [ -89.9776228, 0.3217078 ], [ -89.9776517, 0.3217573 ], [ -89.9776628, 0.32183 ], [ -89.9775738, 0.3220782 ], [ -89.9775397, 0.3222799 ], [ -89.9775719, 0.3225662 ], [ -89.9775584, 0.3228464 ], [ -89.9775395, 0.3230112 ], [ -89.9775261, 0.3232047 ], [ -89.9775004, 0.3232303 ], [ -89.9774801, 0.3231742 ], [ -89.9774515, 0.3232418 ], [ -89.9774631, 0.3232988 ], [ -89.9774879, 0.323365 ], [ -89.9775821, 0.323419 ], [ -89.9776113, 0.323545 ], [ -89.9775949, 0.3237249 ], [ -89.9776285, 0.3238 ], [ -89.9776307, 0.3240065 ], [ -89.9776003, 0.3241241 ], [ -89.9775785, 0.3242717 ], [ -89.9776544, 0.3246277 ], [ -89.9775367, 0.3246565 ], [ -89.9773479, 0.324839 ], [ -89.9772626, 0.324998 ], [ -89.9770898, 0.3250937 ], [ -89.976858, 0.3253316 ], [ -89.976799, 0.3254553 ], [ -89.9767852, 0.325573 ], [ -89.9768002, 0.3256426 ], [ -89.9768526, 0.3257766 ], [ -89.976885, 0.3259492 ], [ -89.9768889, 0.3260171 ], [ -89.9769552, 0.3261903 ], [ -89.9769599, 0.326564 ], [ -89.9768943, 0.3266618 ], [ -89.9768432, 0.3269636 ], [ -89.976726, 0.3272452 ], [ -89.9767265, 0.3273363 ], [ -89.9766972, 0.3274571 ], [ -89.9767127, 0.3276568 ], [ -89.9764848, 0.3281292 ], [ -89.9764153, 0.3288182 ], [ -89.9762423, 0.329218 ], [ -89.9762323, 0.3294407 ], [ -89.9759165, 0.329677 ], [ -89.9756111, 0.3301431 ], [ -89.9755901, 0.3305088 ], [ -89.9753681, 0.3313486 ], [ -89.9751306, 0.3316831 ], [ -89.9749631, 0.332112 ], [ -89.974613, 0.3324366 ], [ -89.9741943, 0.3326537 ], [ -89.9739751, 0.3329223 ], [ -89.9737982, 0.3331471 ], [ -89.9735836, 0.3336462 ], [ -89.973542, 0.3339559 ], [ -89.9734759, 0.3342047 ], [ -89.9734824, 0.3344579 ], [ -89.973566, 0.3346666 ], [ -89.9736505, 0.3347135 ], [ -89.9740024, 0.3347109 ], [ -89.9740674, 0.3347491 ], [ -89.9740627, 0.3348486 ], [ -89.974137, 0.3349543 ], [ -89.9740988, 0.3351081 ], [ -89.9739673, 0.3351365 ], [ -89.9739127, 0.3351011 ], [ -89.973829, 0.3350211 ], [ -89.9737656, 0.334997 ], [ -89.9736857, 0.3350177 ], [ -89.973611, 0.3351451 ], [ -89.9735379, 0.3352398 ], [ -89.9735287, 0.3353186 ], [ -89.9734812, 0.3353668 ], [ -89.9734042, 0.3354874 ], [ -89.9733185, 0.3354217 ], [ -89.9729797, 0.335585 ], [ -89.9729775, 0.3356477 ], [ -89.972809, 0.3357147 ], [ -89.9727398, 0.3356376 ], [ -89.9725624, 0.3356619 ], [ -89.9724149, 0.3357837 ], [ -89.9722634, 0.3360364 ], [ -89.9721556, 0.3361301 ], [ -89.9720545, 0.3363104 ], [ -89.9718983, 0.3368043 ], [ -89.9719018, 0.3369918 ], [ -89.9718848, 0.3372253 ], [ -89.9717938, 0.3375247 ], [ -89.9716919, 0.3377445 ], [ -89.9716476, 0.3379485 ], [ -89.9715996, 0.3382111 ], [ -89.9716375, 0.3384039 ], [ -89.9717429, 0.3384204 ], [ -89.9716745, 0.3385652 ], [ -89.9715471, 0.3386564 ], [ -89.9713783, 0.3388416 ], [ -89.9712125, 0.3389915 ], [ -89.9709818, 0.3391058 ], [ -89.9708044, 0.3391788 ], [ -89.9706055, 0.3392544 ], [ -89.9704628, 0.3393541 ], [ -89.9703514, 0.3393896 ], [ -89.9702629, 0.3394673 ], [ -89.9701476, 0.3395541 ], [ -89.9700278, 0.3395626 ], [ -89.9699843, 0.3396103 ], [ -89.969879, 0.3395892 ], [ -89.9696518, 0.3396875 ], [ -89.969469, 0.3398862 ], [ -89.9691513, 0.3399197 ], [ -89.9690201, 0.3398802 ], [ -89.9689291, 0.3399204 ], [ -89.9689291, 0.3399821 ], [ -89.9688512, 0.3399751 ], [ -89.9687113, 0.339901 ], [ -89.9685952, 0.3398593 ], [ -89.9684656, 0.3397615 ], [ -89.9684348, 0.3398456 ], [ -89.9682482, 0.3396713 ], [ -89.9681038, 0.3397224 ], [ -89.9678795, 0.3396162 ], [ -89.9678165, 0.3396695 ], [ -89.9674032, 0.3396495 ], [ -89.9672307, 0.3397174 ], [ -89.967018, 0.3397089 ], [ -89.9668201, 0.3396128 ], [ -89.9666691, 0.339647 ], [ -89.9663272, 0.3394961 ], [ -89.966095, 0.3395221 ], [ -89.9656327, 0.3396333 ], [ -89.965415, 0.3396008 ], [ -89.9652738, 0.3396359 ], [ -89.9652215, 0.3395912 ], [ -89.9652856, 0.3395148 ], [ -89.9650594, 0.3395271 ], [ -89.964685, 0.3396709 ], [ -89.9646349, 0.3397484 ], [ -89.9644262, 0.3398818 ], [ -89.9643279, 0.3398617 ], [ -89.9641932, 0.3399391 ], [ -89.9639446, 0.3399404 ], [ -89.9637683, 0.3400171 ], [ -89.9636917, 0.3401118 ], [ -89.9636129, 0.3401429 ], [ -89.963475, 0.3403206 ], [ -89.9628771, 0.3406751 ], [ -89.9628203, 0.3406534 ], [ -89.9625678, 0.3408245 ], [ -89.9618301, 0.3413326 ], [ -89.9616577, 0.3414076 ], [ -89.9607625, 0.3420618 ], [ -89.9602235, 0.342339 ], [ -89.9600792, 0.3425496 ], [ -89.959877, 0.342789 ], [ -89.9596291, 0.3430586 ], [ -89.9595643, 0.3434015 ], [ -89.9595232, 0.3435363 ], [ -89.9595392, 0.3436569 ], [ -89.9595677, 0.3437739 ], [ -89.9596307, 0.3439061 ], [ -89.959453, 0.3440257 ], [ -89.9592592, 0.3441273 ], [ -89.9591341, 0.3441618 ], [ -89.9589983, 0.3442021 ], [ -89.9583844, 0.3442396 ], [ -89.9583068, 0.3441966 ], [ -89.9582009, 0.3440603 ], [ -89.9577928, 0.3441146 ], [ -89.9573769, 0.3442533 ], [ -89.95677, 0.3443921 ], [ -89.9566112, 0.3444566 ], [ -89.956485, 0.3445535 ], [ -89.9558252, 0.3450771 ], [ -89.9558012, 0.3451419 ], [ -89.9557529, 0.3451057 ], [ -89.9556761, 0.3452123 ], [ -89.9555071, 0.3454188 ], [ -89.9555027, 0.3456157 ], [ -89.9554945, 0.3456865 ], [ -89.9555683, 0.3458159 ], [ -89.9554312, 0.3457581 ], [ -89.9553604, 0.3457778 ], [ -89.9553415, 0.345844 ], [ -89.9552642, 0.3458708 ], [ -89.9551883, 0.3458594 ], [ -89.9550824, 0.3460225 ], [ -89.9550405, 0.3461858 ], [ -89.9551542, 0.3465058 ], [ -89.9551828, 0.3465892 ], [ -89.9551127, 0.3465709 ], [ -89.954962, 0.3462976 ], [ -89.9549255, 0.346259 ], [ -89.954845, 0.3462972 ], [ -89.9547143, 0.3463682 ], [ -89.9546427, 0.3463563 ], [ -89.954538, 0.3463623 ], [ -89.954476, 0.3464176 ], [ -89.9544799, 0.3465096 ], [ -89.954445, 0.3465997 ], [ -89.954343, 0.3465216 ], [ -89.9543051, 0.34635 ], [ -89.9542404, 0.3462855 ], [ -89.95414, 0.3462633 ], [ -89.9540057, 0.3460275 ], [ -89.9539223, 0.3459445 ], [ -89.9538164, 0.3458921 ], [ -89.9536937, 0.3459234 ], [ -89.9536622, 0.3460202 ], [ -89.9534711, 0.3460081 ], [ -89.9534182, 0.345874 ], [ -89.9533183, 0.3458026 ], [ -89.9527375, 0.3457208 ], [ -89.9525555, 0.3456736 ], [ -89.9525211, 0.3455478 ], [ -89.9523601, 0.3455556 ], [ -89.9522604, 0.345663 ], [ -89.9522366, 0.3456133 ], [ -89.9521642, 0.3455489 ], [ -89.952034, 0.3455178 ], [ -89.9518717, 0.3457176 ], [ -89.951778, 0.3457214 ], [ -89.9513055, 0.345918 ], [ -89.9512332, 0.3460024 ], [ -89.9511333, 0.3461054 ], [ -89.9510726, 0.3461118 ], [ -89.9509788, 0.3461287 ], [ -89.9509529, 0.3459686 ], [ -89.950982, 0.3458764 ], [ -89.9509754, 0.3458248 ], [ -89.9508962, 0.3459283 ], [ -89.9508838, 0.3461366 ], [ -89.9508514, 0.346185 ], [ -89.950816, 0.3461843 ], [ -89.9508, 0.346137 ], [ -89.9507707, 0.346232 ], [ -89.950719, 0.3462204 ], [ -89.9506805, 0.3460882 ], [ -89.9506424, 0.346016 ], [ -89.9505965, 0.3459665 ], [ -89.950528, 0.345909 ], [ -89.9504474, 0.3458986 ], [ -89.9504294, 0.3460526 ], [ -89.9503426, 0.3460963 ], [ -89.9503055, 0.3463293 ], [ -89.950247, 0.3462717 ], [ -89.9501472, 0.3462409 ], [ -89.95013, 0.3461635 ], [ -89.9500636, 0.3462225 ], [ -89.9500541, 0.3460654 ], [ -89.9499295, 0.3460213 ], [ -89.9499742, 0.3459739 ], [ -89.9499352, 0.3459298 ], [ -89.9499012, 0.3459424 ], [ -89.9498536, 0.3458959 ], [ -89.9498546, 0.3459711 ], [ -89.9497928, 0.3459957 ], [ -89.9497205, 0.3460348 ], [ -89.9497183, 0.3459793 ], [ -89.9497569, 0.3459551 ], [ -89.9496766, 0.3457587 ], [ -89.9496417, 0.3457284 ], [ -89.9496181, 0.3456798 ], [ -89.9494303, 0.3455621 ], [ -89.9494339, 0.3455052 ], [ -89.9493285, 0.34547 ], [ -89.9491656, 0.3454221 ], [ -89.9491454, 0.3453992 ], [ -89.9492141, 0.3452041 ], [ -89.9492084, 0.3451199 ], [ -89.9492679, 0.3450154 ], [ -89.949313, 0.3448782 ], [ -89.9492761, 0.3448081 ], [ -89.9489022, 0.3446931 ], [ -89.9488537, 0.3447025 ], [ -89.948769, 0.3448366 ], [ -89.9486925, 0.3448739 ], [ -89.9486464, 0.3448182 ], [ -89.9486576, 0.3446834 ], [ -89.948632, 0.3445972 ], [ -89.9485758, 0.3443821 ], [ -89.948571, 0.3442788 ], [ -89.9485951, 0.3442147 ], [ -89.9485592, 0.3441408 ], [ -89.9484233, 0.3440784 ], [ -89.9482266, 0.3439973 ], [ -89.948008, 0.3438935 ], [ -89.9478042, 0.3438579 ], [ -89.9477215, 0.3438853 ], [ -89.9476358, 0.3437592 ], [ -89.947567, 0.3436045 ], [ -89.9474321, 0.343628 ], [ -89.9473476, 0.3436136 ], [ -89.9473066, 0.3435936 ], [ -89.9474662, 0.3433242 ], [ -89.9475531, 0.343251 ], [ -89.9475765, 0.3431592 ], [ -89.9475491, 0.3430467 ], [ -89.9474337, 0.3429368 ], [ -89.9472945, 0.3429172 ], [ -89.9469875, 0.3427889 ], [ -89.9468603, 0.3427761 ], [ -89.9467189, 0.3427881 ], [ -89.9465642, 0.3427956 ], [ -89.9465105, 0.3427777 ], [ -89.9464415, 0.3426989 ], [ -89.9463126, 0.3426695 ], [ -89.9461884, 0.3427128 ], [ -89.9461333, 0.3427904 ], [ -89.94605, 0.3427084 ], [ -89.9458597, 0.3428728 ], [ -89.945816, 0.3430001 ], [ -89.9457001, 0.3429031 ], [ -89.9456344, 0.3428214 ], [ -89.9455992, 0.3428806 ], [ -89.9456262, 0.34298 ], [ -89.9455134, 0.3430893 ], [ -89.9454143, 0.3429284 ], [ -89.945287, 0.3429662 ], [ -89.9450929, 0.3428066 ], [ -89.9449767, 0.3426073 ], [ -89.9448633, 0.3426141 ], [ -89.9448471, 0.3425323 ], [ -89.944768, 0.3420742 ], [ -89.9448703, 0.3417492 ], [ -89.9447818, 0.3416245 ], [ -89.9446843, 0.3415823 ], [ -89.9445258, 0.3415217 ], [ -89.9445337, 0.3414357 ], [ -89.9444677, 0.3413181 ], [ -89.9443743, 0.3412401 ], [ -89.9442504, 0.3412349 ], [ -89.9441632, 0.3411118 ], [ -89.9440739, 0.3410656 ], [ -89.9440175, 0.3406096 ], [ -89.9438989, 0.3405853 ], [ -89.9438078, 0.3405073 ], [ -89.9438345, 0.3404159 ], [ -89.9436653, 0.3401141 ], [ -89.9435766, 0.3398401 ], [ -89.9433831, 0.3396869 ], [ -89.943222, 0.33951 ], [ -89.9428178, 0.3391904 ], [ -89.9427107, 0.339048 ], [ -89.9425168, 0.3390878 ], [ -89.9423384, 0.3390334 ], [ -89.9421892, 0.3389268 ], [ -89.9419875, 0.3387052 ], [ -89.9418873, 0.3386793 ], [ -89.941909, 0.3385885 ], [ -89.94183, 0.3385146 ], [ -89.9418412, 0.3384288 ], [ -89.9417283, 0.3384079 ], [ -89.9417058, 0.338348 ], [ -89.941906, 0.3379835 ], [ -89.9419317, 0.337834 ], [ -89.9418528, 0.3376339 ], [ -89.9418928, 0.3372359 ], [ -89.9417326, 0.3371077 ], [ -89.9418134, 0.337025 ], [ -89.9417769, 0.3369026 ], [ -89.9418199, 0.3368546 ], [ -89.9417649, 0.3366736 ], [ -89.9417983, 0.3365755 ], [ -89.9416418, 0.3362286 ], [ -89.9415435, 0.3361528 ], [ -89.9414142, 0.3358661 ], [ -89.9410519, 0.3357001 ], [ -89.9407459, 0.3356535 ], [ -89.9404424, 0.3356796 ], [ -89.9400892, 0.3355458 ], [ -89.9397995, 0.3354824 ], [ -89.9395953, 0.3353278 ], [ -89.9394101, 0.3353783 ], [ -89.939195, 0.3354886 ], [ -89.9391508, 0.3354239 ], [ -89.9391502, 0.3353318 ], [ -89.9393017, 0.3352624 ], [ -89.9394349, 0.3352054 ], [ -89.9395362, 0.3350629 ], [ -89.9395789, 0.3348977 ], [ -89.9392232, 0.3338964 ], [ -89.9390863, 0.3338008 ], [ -89.939131, 0.3336987 ], [ -89.939033, 0.3334187 ], [ -89.9389352, 0.3333302 ], [ -89.9389175, 0.3330909 ], [ -89.9388062, 0.3330102 ], [ -89.9389099, 0.3328563 ], [ -89.9388749, 0.3326127 ], [ -89.9387456, 0.3322484 ], [ -89.9386898, 0.3318839 ], [ -89.9387813, 0.3314924 ], [ -89.9385293, 0.3310638 ], [ -89.9383945, 0.3309793 ], [ -89.9383369, 0.3308124 ], [ -89.9383693, 0.3306438 ], [ -89.9382985, 0.3305572 ], [ -89.9379717, 0.3303793 ], [ -89.9380045, 0.3297045 ], [ -89.9381285, 0.329643 ], [ -89.9382784, 0.3294297 ], [ -89.9382237, 0.3291206 ], [ -89.9381166, 0.3290346 ], [ -89.9379899, 0.3289944 ], [ -89.9380414, 0.3288865 ], [ -89.9378962, 0.3286126 ], [ -89.9375926, 0.3283989 ], [ -89.9374102, 0.3283218 ], [ -89.9373526, 0.3281776 ], [ -89.9374646, 0.3281127 ], [ -89.9375211, 0.3279018 ], [ -89.9372058, 0.3275297 ], [ -89.9371443, 0.327563 ], [ -89.9369769, 0.3274161 ], [ -89.9368125, 0.3269631 ], [ -89.9368919, 0.3268076 ], [ -89.9368202, 0.3267005 ], [ -89.936892, 0.3264585 ], [ -89.9364664, 0.3248129 ], [ -89.9361026, 0.3242198 ], [ -89.9360173, 0.3237726 ], [ -89.9358318, 0.3236225 ], [ -89.9359431, 0.3235181 ], [ -89.935854, 0.3232177 ], [ -89.9359417, 0.3228625 ], [ -89.9360148, 0.3222912 ], [ -89.9362463, 0.3221621 ], [ -89.9364109, 0.3222199 ], [ -89.9365621, 0.3221809 ], [ -89.9367759, 0.3218947 ], [ -89.9368203, 0.3214061 ], [ -89.9367116, 0.3212727 ], [ -89.9370506, 0.3207655 ], [ -89.9370097, 0.32066 ], [ -89.9373321, 0.3203169 ], [ -89.9375017, 0.3199672 ], [ -89.937543, 0.3196434 ], [ -89.9377085, 0.3191581 ], [ -89.9378269, 0.3189023 ], [ -89.9379721, 0.318936 ], [ -89.938183, 0.3186642 ], [ -89.9383321, 0.3183424 ], [ -89.9381632, 0.3179962 ], [ -89.9380689, 0.3177265 ], [ -89.9378903, 0.3176092 ], [ -89.9377288, 0.3173778 ], [ -89.9374148, 0.3173026 ], [ -89.9373178, 0.3171355 ], [ -89.9372083, 0.3168661 ], [ -89.9373976, 0.3166503 ], [ -89.9378116, 0.3164378 ], [ -89.9377949, 0.3162678 ], [ -89.938268, 0.3161101 ], [ -89.9382399, 0.3159499 ], [ -89.9383328, 0.3159387 ], [ -89.9383959, 0.3160015 ], [ -89.9385139, 0.3159106 ], [ -89.9385945, 0.3159006 ], [ -89.9385734, 0.3158338 ], [ -89.9385686, 0.3157673 ], [ -89.9387078, 0.3157221 ], [ -89.9388121, 0.3155675 ], [ -89.9391726, 0.315126 ], [ -89.9392072, 0.3149889 ], [ -89.9393307, 0.3149454 ], [ -89.9394044, 0.3149684 ], [ -89.9394793, 0.3149739 ], [ -89.9394746, 0.3149159 ], [ -89.9396259, 0.3148634 ], [ -89.939759, 0.3147467 ], [ -89.9400324, 0.3146665 ], [ -89.9401231, 0.3145375 ], [ -89.9399613, 0.314394 ], [ -89.9398913, 0.3142515 ], [ -89.9400871, 0.313896 ], [ -89.9400758, 0.3136884 ], [ -89.940172, 0.3135986 ], [ -89.940292, 0.313418 ], [ -89.9404017, 0.3133748 ], [ -89.9405572, 0.3132122 ], [ -89.9406485, 0.3131457 ], [ -89.9407438, 0.3127732 ], [ -89.9408668, 0.3126492 ], [ -89.9409265, 0.3124497 ], [ -89.9410267, 0.3123774 ], [ -89.9410282, 0.3122418 ], [ -89.9411736, 0.3120566 ], [ -89.9411195, 0.3117657 ], [ -89.9412185, 0.3118014 ], [ -89.9414292, 0.3114936 ], [ -89.9414752, 0.3112228 ], [ -89.9419382, 0.311006 ], [ -89.9422316, 0.3102245 ], [ -89.9421722, 0.3100172 ], [ -89.9422424, 0.3099795 ], [ -89.942538, 0.3101238 ], [ -89.9427847, 0.3099139 ], [ -89.9432385, 0.3092538 ], [ -89.9432285, 0.3090877 ], [ -89.9431831, 0.3088024 ], [ -89.9429784, 0.3086518 ], [ -89.9428965, 0.3084189 ], [ -89.9427506, 0.3083422 ], [ -89.9427682, 0.3082657 ], [ -89.9427099, 0.3081601 ], [ -89.9426596, 0.3080804 ], [ -89.9427876, 0.3080609 ], [ -89.9428916, 0.3078802 ], [ -89.9428114, 0.3077792 ], [ -89.9426954, 0.3076247 ], [ -89.9425386, 0.3072338 ], [ -89.9425211, 0.3069501 ], [ -89.9424151, 0.3068191 ], [ -89.9423678, 0.3067674 ], [ -89.9424483, 0.3066865 ], [ -89.9423176, 0.306559 ], [ -89.942454, 0.3063799 ], [ -89.9426924, 0.306333 ], [ -89.9428554, 0.3062666 ], [ -89.9429665, 0.3059624 ], [ -89.9429911, 0.3056388 ], [ -89.9432956, 0.3056133 ], [ -89.9434507, 0.3055226 ], [ -89.9436205, 0.3054296 ], [ -89.9437732, 0.3052249 ], [ -89.943969, 0.3049693 ], [ -89.9439609, 0.3047244 ], [ -89.9440183, 0.304633 ], [ -89.9441154, 0.3046149 ], [ -89.9441848, 0.3046462 ], [ -89.944244, 0.304634 ], [ -89.9443116, 0.3045882 ], [ -89.9443501, 0.3045244 ], [ -89.9443356, 0.3044512 ], [ -89.9443672, 0.3043736 ], [ -89.9443597, 0.3042803 ], [ -89.9443167, 0.3041642 ], [ -89.9443351, 0.304124 ], [ -89.9443402, 0.3040164 ], [ -89.944319, 0.3039798 ], [ -89.9442841, 0.3039362 ], [ -89.944332, 0.3039119 ], [ -89.9443776, 0.3039136 ], [ -89.9444794, 0.3038111 ], [ -89.9446532, 0.3035879 ], [ -89.9446404, 0.3035399 ], [ -89.9446023, 0.3034787 ], [ -89.9446558, 0.3034339 ], [ -89.9447099, 0.3034316 ], [ -89.9447614, 0.3033361 ], [ -89.9447412, 0.3031196 ], [ -89.9447566, 0.3030469 ], [ -89.9447555, 0.3030149 ], [ -89.9447827, 0.3028935 ], [ -89.9448422, 0.3027403 ], [ -89.9448316, 0.302658 ], [ -89.944864, 0.3025921 ], [ -89.944878, 0.302476 ], [ -89.9448348, 0.3023868 ], [ -89.9448945, 0.3023621 ], [ -89.9449129, 0.3022834 ], [ -89.944979, 0.3021822 ], [ -89.9449507, 0.3020715 ], [ -89.9449003, 0.302009 ], [ -89.94479, 0.3018127 ], [ -89.944726, 0.3017915 ], [ -89.9447106, 0.301735 ], [ -89.9446778, 0.3016825 ], [ -89.9446992, 0.3015812 ], [ -89.9447181, 0.3015699 ], [ -89.9447164, 0.3014771 ], [ -89.9447649, 0.301447 ], [ -89.9447619, 0.301411 ], [ -89.9445849, 0.3013967 ], [ -89.9445061, 0.3011044 ], [ -89.9445561, 0.3010811 ], [ -89.9446335, 0.3010728 ], [ -89.9446581, 0.300985 ], [ -89.9446603, 0.3008949 ], [ -89.9447188, 0.3008086 ], [ -89.9448499, 0.3007895 ], [ -89.9449992, 0.3007041 ], [ -89.9451059, 0.3006172 ], [ -89.9451759, 0.3005992 ], [ -89.9452269, 0.3005324 ], [ -89.9452931, 0.3005027 ], [ -89.9453967, 0.3005437 ], [ -89.9454939, 0.3006101 ], [ -89.945583, 0.300607 ], [ -89.9456302, 0.3006219 ], [ -89.9457516, 0.3006106 ], [ -89.9457768, 0.3006475 ], [ -89.9459252, 0.3006677 ], [ -89.9460148, 0.3006354 ], [ -89.9461553, 0.3006007 ], [ -89.9462928, 0.3006672 ], [ -89.9463823, 0.3007024 ], [ -89.9464559, 0.3006945 ], [ -89.9465153, 0.3006617 ], [ -89.9466089, 0.3006248 ], [ -89.946682, 0.3006477 ], [ -89.946785, 0.3007447 ], [ -89.9468389, 0.3007389 ], [ -89.9468642, 0.3007631 ], [ -89.946969, 0.3007574 ], [ -89.9470405, 0.3007486 ], [ -89.947151, 0.3007135 ], [ -89.9472257, 0.300716 ], [ -89.9473356, 0.3007471 ], [ -89.9474304, 0.3007421 ], [ -89.9475356, 0.3007888 ], [ -89.9476054, 0.3007834 ], [ -89.9477144, 0.3007295 ], [ -89.9477765, 0.3006032 ], [ -89.947845, 0.300581 ], [ -89.947905, 0.3006074 ], [ -89.9479913, 0.3005718 ], [ -89.9480815, 0.3004779 ], [ -89.9483027, 0.3003292 ], [ -89.9484413, 0.3001501 ], [ -89.948521, 0.299992 ], [ -89.9486014, 0.2999097 ], [ -89.9487056, 0.2998929 ], [ -89.9487799, 0.2998076 ], [ -89.9488243, 0.2996553 ], [ -89.948961, 0.299632 ], [ -89.9490869, 0.2996966 ], [ -89.9492244, 0.2996715 ], [ -89.9493653, 0.2997268 ], [ -89.949382, 0.2998131 ], [ -89.9495458, 0.2997732 ], [ -89.9496616, 0.2997776 ], [ -89.9497745, 0.2997398 ], [ -89.9499368, 0.2998401 ], [ -89.950122, 0.2998632 ], [ -89.9501825, 0.2999349 ], [ -89.9502522, 0.299955 ], [ -89.9503268, 0.2999485 ], [ -89.9504592, 0.2998418 ], [ -89.9506103, 0.2998709 ], [ -89.9507453, 0.2999375 ], [ -89.9507355, 0.2999756 ], [ -89.9509282, 0.2999637 ], [ -89.9509952, 0.2999345 ], [ -89.9510983, 0.2999884 ], [ -89.9512279, 0.2999782 ], [ -89.9513429, 0.2999247 ], [ -89.9516021, 0.2999766 ], [ -89.951682, 0.3000695 ], [ -89.9517152, 0.300131 ], [ -89.9518027, 0.3001439 ], [ -89.951883, 0.3001439 ], [ -89.9519572, 0.300189 ], [ -89.9520045, 0.3003057 ], [ -89.9520719, 0.3003769 ], [ -89.952102, 0.3004271 ], [ -89.952168, 0.3004456 ], [ -89.9522243, 0.3005304 ], [ -89.9522706, 0.3005717 ], [ -89.9523105, 0.3006196 ], [ -89.9523107, 0.3006488 ], [ -89.9524013, 0.3007188 ], [ -89.9525156, 0.3007444 ], [ -89.9526676, 0.3007038 ], [ -89.9528251, 0.3007629 ], [ -89.9528481, 0.3008112 ], [ -89.9529106, 0.3008651 ], [ -89.9531179, 0.3008884 ], [ -89.9532482, 0.3008138 ], [ -89.9532231, 0.3007452 ], [ -89.9532562, 0.300752 ], [ -89.9532944, 0.3007401 ], [ -89.9533129, 0.3006946 ], [ -89.9534308, 0.3006764 ], [ -89.953467, 0.3007342 ], [ -89.9535289, 0.3007817 ], [ -89.9534598, 0.3007983 ], [ -89.9534646, 0.3008277 ], [ -89.9535651, 0.300822 ], [ -89.9536067, 0.3009183 ], [ -89.9535607, 0.3009812 ], [ -89.9536005, 0.3010839 ], [ -89.9537033, 0.3011691 ], [ -89.9537042, 0.3012231 ], [ -89.9536823, 0.301226 ], [ -89.9536927, 0.3012561 ], [ -89.9536753, 0.301295 ], [ -89.95371, 0.3013168 ], [ -89.9537629, 0.3013837 ], [ -89.9537356, 0.3015189 ], [ -89.9535884, 0.3015379 ], [ -89.9535666, 0.3015114 ], [ -89.9535481, 0.3015207 ], [ -89.9535665, 0.3016067 ], [ -89.9536906, 0.3017278 ], [ -89.9537054, 0.3017844 ], [ -89.9535966, 0.3019275 ], [ -89.9535335, 0.3020326 ], [ -89.9535951, 0.3022027 ], [ -89.953681, 0.3022566 ], [ -89.953719, 0.3022665 ], [ -89.9537349, 0.3023233 ], [ -89.9537, 0.3023609 ], [ -89.9536844, 0.302397 ], [ -89.9537024, 0.3024283 ], [ -89.9537445, 0.3024503 ], [ -89.9538084, 0.3024709 ], [ -89.9538342, 0.3024929 ], [ -89.9538729, 0.3025094 ], [ -89.9538891, 0.3025551 ], [ -89.9539823, 0.3025621 ], [ -89.9539919, 0.3026081 ], [ -89.9540813, 0.3026234 ], [ -89.9540919, 0.3026444 ], [ -89.9540664, 0.3027374 ], [ -89.9541182, 0.3027959 ], [ -89.95421, 0.3028035 ], [ -89.9542352, 0.3028321 ], [ -89.9541992, 0.3028592 ], [ -89.9542878, 0.3029191 ], [ -89.9543628, 0.3029269 ], [ -89.9544942, 0.3029997 ], [ -89.954574, 0.3030971 ], [ -89.9545768, 0.3031206 ], [ -89.9546377, 0.3031336 ], [ -89.9546396, 0.3031831 ], [ -89.9546638, 0.3032102 ], [ -89.9547627, 0.3032677 ], [ -89.9547471, 0.3032917 ], [ -89.9546399, 0.3032995 ], [ -89.9545703, 0.3032659 ], [ -89.9545173, 0.3032536 ], [ -89.954308, 0.3032548 ], [ -89.9541403, 0.3032362 ], [ -89.9540529, 0.3032125 ], [ -89.953935, 0.3032255 ], [ -89.9537497, 0.3032477 ], [ -89.9535405, 0.303253 ], [ -89.9534934, 0.303282 ], [ -89.9533643, 0.3032781 ], [ -89.9531718, 0.3032338 ], [ -89.9531457, 0.3032608 ], [ -89.9531012, 0.3033306 ], [ -89.9530523, 0.3033384 ], [ -89.9530442, 0.3033798 ], [ -89.9530038, 0.3034311 ], [ -89.9525421, 0.3034641 ], [ -89.952448, 0.3035165 ], [ -89.9524104, 0.3035902 ], [ -89.9523115, 0.3036495 ], [ -89.9522689, 0.3036224 ], [ -89.9520886, 0.3036405 ], [ -89.9520727, 0.3036179 ], [ -89.9521144, 0.303553 ], [ -89.9519421, 0.3035496 ], [ -89.951868, 0.3035209 ], [ -89.9517982, 0.3035188 ], [ -89.9517978, 0.303538 ], [ -89.9517969, 0.3035755 ], [ -89.9517653, 0.303573 ], [ -89.9517665, 0.3035362 ], [ -89.951767, 0.3035194 ], [ -89.9517432, 0.3035128 ], [ -89.9517217, 0.3035343 ], [ -89.9516613, 0.3035083 ], [ -89.9515961, 0.3034916 ], [ -89.9514764, 0.3035451 ], [ -89.9513348, 0.3035859 ], [ -89.9510068, 0.3036341 ], [ -89.9508836, 0.303799 ], [ -89.9507989, 0.3037934 ], [ -89.9507721, 0.3037727 ], [ -89.9506957, 0.3037899 ], [ -89.9505658, 0.3038653 ], [ -89.9502484, 0.3040212 ], [ -89.9500673, 0.3040396 ], [ -89.9500791, 0.3040731 ], [ -89.9499712, 0.3041507 ], [ -89.949927, 0.3041267 ], [ -89.9497039, 0.3042103 ], [ -89.9494431, 0.3045645 ], [ -89.9493008, 0.3045887 ], [ -89.9488111, 0.3047114 ], [ -89.9480334, 0.3050321 ], [ -89.9478156, 0.3051792 ], [ -89.9474469, 0.3053192 ], [ -89.9472055, 0.3054432 ], [ -89.9469136, 0.3054858 ], [ -89.9467648, 0.3054761 ], [ -89.9467397, 0.3055368 ], [ -89.9465557, 0.3055989 ], [ -89.9465356, 0.3056582 ], [ -89.9461411, 0.3059353 ], [ -89.9461291, 0.3060089 ], [ -89.94599, 0.3060657 ], [ -89.9459485, 0.3061307 ], [ -89.9456578, 0.3063086 ], [ -89.9456665, 0.3063668 ], [ -89.9454399, 0.3064957 ], [ -89.9452492, 0.306771 ], [ -89.9452573, 0.3069206 ], [ -89.9451308, 0.3072167 ], [ -89.9450385, 0.3073678 ], [ -89.9450525, 0.3074643 ], [ -89.9451363, 0.3075499 ], [ -89.9451461, 0.3079818 ], [ -89.9451004, 0.3081777 ], [ -89.9451585, 0.3084272 ], [ -89.9451613, 0.308556 ], [ -89.9451468, 0.3086177 ], [ -89.9452618, 0.3089527 ], [ -89.9453271, 0.3093718 ], [ -89.9453347, 0.309821 ], [ -89.9452587, 0.310045 ], [ -89.9452667, 0.3101803 ], [ -89.9451759, 0.3106308 ], [ -89.9452033, 0.3110026 ], [ -89.9453458, 0.3114317 ], [ -89.9453066, 0.3114551 ], [ -89.9453395, 0.311755 ], [ -89.9452768, 0.3117686 ], [ -89.945212, 0.3119653 ], [ -89.9452209, 0.3120913 ], [ -89.9451973, 0.3122068 ], [ -89.9452099, 0.312365 ], [ -89.9451116, 0.312596 ], [ -89.9451862, 0.3132228 ], [ -89.9452387, 0.3133249 ], [ -89.9452515, 0.3134512 ], [ -89.9454241, 0.3136955 ], [ -89.9455312, 0.3141455 ], [ -89.945521, 0.3143571 ], [ -89.9457263, 0.3146034 ], [ -89.9458786, 0.3148018 ], [ -89.9462803, 0.3155734 ], [ -89.9465364, 0.316201 ], [ -89.946849, 0.3165527 ], [ -89.9474293, 0.316973 ], [ -89.9474673, 0.3171538 ], [ -89.9475382, 0.3171723 ], [ -89.9476427, 0.3173982 ], [ -89.947746, 0.3174142 ], [ -89.9479898, 0.3176844 ], [ -89.9480831, 0.3179456 ], [ -89.9482868, 0.3183317 ], [ -89.9484299, 0.3183613 ], [ -89.948517, 0.318444 ], [ -89.9485818, 0.3184283 ], [ -89.9487486, 0.3185414 ], [ -89.9489176, 0.3184958 ], [ -89.9491295, 0.3183617 ], [ -89.9491992, 0.3182893 ], [ -89.9492422, 0.3182249 ], [ -89.9492797, 0.3181605 ], [ -89.9493655, 0.3181122 ], [ -89.9494675, 0.3181283 ], [ -89.9493665, 0.3177507 ], [ -89.9491708, 0.3175414 ], [ -89.9489204, 0.3173626 ], [ -89.9494765, 0.31752 ], [ -89.9497689, 0.3175573 ], [ -89.9500397, 0.3176839 ], [ -89.9502694, 0.3176534 ], [ -89.9506066, 0.3177264 ], [ -89.9511788, 0.3177488 ], [ -89.9516598, 0.3178549 ], [ -89.951751, 0.3177711 ], [ -89.9519881, 0.3177804 ], [ -89.9521108, 0.3178997 ], [ -89.952164, 0.317882 ], [ -89.9522579, 0.3178346 ], [ -89.9523836, 0.3178429 ], [ -89.9525524, 0.3179169 ], [ -89.9528681, 0.317979 ], [ -89.9529568, 0.3180287 ], [ -89.9529719, 0.3180801 ], [ -89.9531333, 0.3180984 ], [ -89.9532667, 0.3180486 ], [ -89.9533467, 0.3180739 ], [ -89.9534703, 0.3180547 ], [ -89.953559, 0.3180983 ], [ -89.9536957, 0.318057 ], [ -89.9538213, 0.3180545 ], [ -89.9539399, 0.3179604 ], [ -89.9542456, 0.31788 ], [ -89.9546046, 0.3178945 ], [ -89.9546417, 0.3178066 ], [ -89.9542503, 0.3176046 ], [ -89.9543094, 0.3175046 ], [ -89.9546844, 0.3173552 ], [ -89.9548281, 0.3174222 ], [ -89.9549253, 0.3173083 ], [ -89.9551936, 0.3173511 ], [ -89.9555955, 0.317235 ], [ -89.95582, 0.3172665 ], [ -89.9560978, 0.3174123 ], [ -89.9556345, 0.3175928 ], [ -89.955272, 0.3176186 ], [ -89.955205, 0.3175879 ], [ -89.9549831, 0.3176141 ], [ -89.9549817, 0.3177022 ], [ -89.9548309, 0.3178214 ], [ -89.9548516, 0.3178976 ], [ -89.9553036, 0.3177971 ], [ -89.9555465, 0.3177431 ], [ -89.955654, 0.317829 ], [ -89.9561248, 0.3177611 ], [ -89.9566013, 0.3178421 ], [ -89.9569357, 0.3178374 ], [ -89.9577863, 0.3176907 ], [ -89.9585842, 0.3169993 ], [ -89.9607614, 0.315789 ], [ -89.9607408, 0.3156764 ], [ -89.9609123, 0.3155489 ], [ -89.9612665, 0.3149933 ], [ -89.9619515, 0.3144912 ], [ -89.9622131, 0.3140711 ], [ -89.9627769, 0.3136334 ], [ -89.9631906, 0.3136978 ], [ -89.9633381, 0.3135214 ], [ -89.9634966, 0.3134421 ], [ -89.9636703, 0.3129199 ], [ -89.9637049, 0.3123448 ], [ -89.9635691, 0.3117097 ], [ -89.9633813, 0.3101922 ], [ -89.9632836, 0.3101472 ], [ -89.9632543, 0.3099304 ], [ -89.9633649, 0.3098871 ], [ -89.9633991, 0.3096258 ], [ -89.9633515, 0.30944 ], [ -89.9634384, 0.3092824 ], [ -89.963598, 0.3091644 ], [ -89.9637387, 0.3092443 ], [ -89.9636573, 0.3087331 ], [ -89.9631528, 0.3080101 ], [ -89.962855, 0.3074697 ], [ -89.9627439, 0.3074637 ], [ -89.9626339, 0.3072763 ], [ -89.9628209, 0.3071343 ], [ -89.9633915, 0.3072147 ], [ -89.9634522, 0.3073316 ], [ -89.963634, 0.307288 ], [ -89.9639153, 0.3075463 ], [ -89.9644336, 0.3073719 ], [ -89.9645571, 0.3075013 ], [ -89.9649587, 0.3073402 ], [ -89.9651396, 0.3071111 ], [ -89.9655391, 0.3068804 ], [ -89.9657202, 0.3071637 ], [ -89.9659421, 0.3071935 ], [ -89.9665229, 0.3070008 ], [ -89.9666421, 0.3067802 ], [ -89.9669022, 0.3064936 ], [ -89.9671792, 0.3072359 ], [ -89.9676983, 0.307495 ], [ -89.9677889, 0.3076255 ], [ -89.9678887, 0.3076648 ], [ -89.9680924, 0.3076362 ], [ -89.9689263, 0.3083781 ], [ -89.9691648, 0.3085211 ], [ -89.9694936, 0.3085331 ], [ -89.9696167, 0.3085927 ], [ -89.9697364, 0.3087563 ], [ -89.9704267, 0.3090926 ], [ -89.9706532, 0.3090954 ], [ -89.9710313, 0.3088017 ], [ -89.9710031, 0.3086316 ], [ -89.9711806, 0.3085838 ], [ -89.9714934, 0.3088399 ], [ -89.9715274, 0.3090188 ], [ -89.9716489, 0.3090808 ], [ -89.9715268, 0.3093762 ], [ -89.9716179, 0.309491 ], [ -89.9719852, 0.3095735 ], [ -89.9720498, 0.3097016 ], [ -89.9722071, 0.3099418 ], [ -89.9721118, 0.3102347 ], [ -89.9721536, 0.3104699 ], [ -89.9722525, 0.3106134 ], [ -89.9723102, 0.3104964 ], [ -89.9724018, 0.3105864 ], [ -89.972502, 0.3104776 ], [ -89.9725892, 0.3104897 ], [ -89.9726549, 0.310428 ], [ -89.9727018, 0.310326 ], [ -89.9728845, 0.3104353 ], [ -89.9729794, 0.3105507 ], [ -89.9730884, 0.3105914 ], [ -89.9733139, 0.3105698 ], [ -89.9733281, 0.3104789 ], [ -89.9733343, 0.3103925 ], [ -89.9734984, 0.3103864 ], [ -89.9735762, 0.3103864 ], [ -89.9736097, 0.310314 ], [ -89.973726, 0.3101983 ], [ -89.9737506, 0.3102791 ], [ -89.9738055, 0.310318 ], [ -89.9738655, 0.3103185 ], [ -89.9738924, 0.3104363 ], [ -89.9738557, 0.3105348 ], [ -89.9739625, 0.3106318 ], [ -89.9739761, 0.3107081 ], [ -89.9740027, 0.3107404 ], [ -89.9740948, 0.3107409 ], [ -89.9741808, 0.3107642 ], [ -89.9742712, 0.3107772 ], [ -89.9742749, 0.3108598 ] ] ] ] } }
]
}
