{
"type": "FeatureCollection",
"name": "-90_-75",
"crs": { "type": "name", "properties": { "name": "urn:ogc:def:crs:OGC:1.3:CRS84" } },
"xy_coordinate_resolution": 1e-15,
"features": [
{ "type": "Feature", "properties": { "FID": 307096, "id": 681, "left": -90.0, "top": -70.0, "right": -85.0, "bottom": -75.0, "row_index": 32, "col_index": 18, "min_lon": -90.0, "min_lat": -75.0, "tile_id": "-90_-75" }, "geometry": { "type": "MultiPolygon", "coordinates": [ [ [ [ -89.9978131, -72.4555646 ], [ -89.986667, -72.4560445 ], [ -89.9731311, -72.4567634 ], [ -89.960393, -72.456521 ], [ -89.9492466, -72.4565184 ], [ -89.9420873, -72.4545953 ], [ -89.9309469, -72.4533909 ], [ -89.9182164, -72.4521851 ], [ -89.9118582, -72.4502612 ], [ -89.9023268, -72.4468947 ], [ -89.8943798, -72.4452095 ], [ -89.885626, -72.4454446 ], [ -89.8768685, -72.4461595 ], [ -89.8649184, -72.4480725 ], [ -89.8577462, -72.4492679 ], [ -89.84181, -72.4514165 ], [ -89.8322493, -72.4523688 ], [ -89.8274494, -72.4547659 ], [ -89.8202447, -72.4586013 ], [ -89.8130654, -72.4597951 ], [ -89.8138281, -72.4629177 ], [ -89.8225474, -72.4670085 ], [ -89.8297077, -72.4679756 ], [ -89.8376499, -72.4706242 ], [ -89.844007, -72.4725506 ], [ -89.8551294, -72.476642 ], [ -89.8614772, -72.480249 ], [ -89.8718044, -72.4852994 ], [ -89.878152, -72.4898665 ], [ -89.8880601, -72.4947411 ], [ -89.8900718, -72.4970786 ], [ -89.8892444, -72.5016412 ], [ -89.894803, -72.5064477 ], [ -89.9035752, -72.5083737 ], [ -89.8947619, -72.5131724 ], [ -89.8899461, -72.5167723 ], [ -89.8835042, -72.524214 ], [ -89.8746996, -72.5258896 ], [ -89.8674886, -72.5280464 ], [ -89.8634664, -72.531166 ], [ -89.8650334, -72.5352502 ], [ -89.8682164, -72.5374141 ], [ -89.868174, -72.5429385 ], [ -89.8585343, -72.5474952 ], [ -89.8553086, -72.5503751 ], [ -89.8552762, -72.5542182 ], [ -89.8544368, -72.5587814 ], [ -89.8503967, -72.5628617 ], [ -89.8431211, -72.570062 ], [ -89.8189514, -72.5820513 ], [ -89.816507, -72.5856522 ], [ -89.8067944, -72.5933297 ], [ -89.8027293, -72.5978898 ], [ -89.8002597, -72.6031722 ], [ -89.7913976, -72.605565 ], [ -89.7744981, -72.6081884 ], [ -89.7568034, -72.6098485 ], [ -89.7318528, -72.6129382 ], [ -89.7157442, -72.6153173 ], [ -89.6980068, -72.6186536 ], [ -89.6706072, -72.6224523 ], [ -89.6464614, -72.6238508 ], [ -89.6255117, -72.6259732 ], [ -89.606154, -72.6285771 ], [ -89.5892436, -72.6295027 ], [ -89.5730997, -72.6318699 ], [ -89.5549307, -72.6332067 ], [ -89.5019441, -72.6350939 ], [ -89.4246499, -72.6456904 ], [ -89.4246302, -72.6453693 ], [ -89.4244574, -72.6445603 ], [ -89.4243778, -72.6442918 ], [ -89.424236, -72.644024 ], [ -89.4239247, -72.6436305 ], [ -89.4236611, -72.6433722 ], [ -89.4230987, -72.6430032 ], [ -89.4228199, -72.642898 ], [ -89.4221593, -72.6427141 ], [ -89.4191946, -72.6420948 ], [ -89.4172282, -72.6417611 ], [ -89.4164005, -72.6416524 ], [ -89.4155296, -72.6415795 ], [ -89.4146373, -72.6415363 ], [ -89.4137338, -72.6415335 ], [ -89.41286, -72.641602 ], [ -89.410767, -72.6418575 ], [ -89.4085737, -72.642021 ], [ -89.4067989, -72.6421271 ], [ -89.4050107, -72.6422071 ], [ -89.4036616, -72.6421687 ], [ -89.3992439, -72.6418785 ], [ -89.3940945, -72.6413672 ], [ -89.3927881, -72.6412577 ], [ -89.3918893, -72.6412279 ], [ -89.3882734, -72.6411894 ], [ -89.3873723, -72.6411658 ], [ -89.3851247, -72.6410911 ], [ -89.3837914, -72.6410175 ], [ -89.3825571, -72.6408497 ], [ -89.3770748, -72.6399038 ], [ -89.3762613, -72.6397859 ], [ -89.3758341, -72.6397422 ], [ -89.374938, -72.6397078 ], [ -89.3731293, -72.6397091 ], [ -89.367711, -72.6397984 ], [ -89.36681, -72.6397739 ], [ -89.3650254, -72.639686 ], [ -89.3641432, -72.6396273 ], [ -89.3633171, -72.6395174 ], [ -89.3605662, -72.63905 ], [ -89.3597507, -72.638933 ], [ -89.3584784, -72.6387919 ], [ -89.3558877, -72.6385519 ], [ -89.3550005, -72.6385003 ], [ -89.3514014, -72.6383927 ], [ -89.3496225, -72.6382957 ], [ -89.3421043, -72.6378155 ], [ -89.3355438, -72.6373004 ], [ -89.3346472, -72.6372676 ], [ -89.3314822, -72.6372638 ], [ -89.3305803, -72.6372445 ], [ -89.3292398, -72.6371831 ], [ -89.3199553, -72.6365886 ], [ -89.3186522, -72.6364759 ], [ -89.316076, -72.6362219 ], [ -89.3147565, -72.636129 ], [ -89.3134061, -72.6360917 ], [ -89.3111464, -72.63608 ], [ -89.3098037, -72.6361373 ], [ -89.3053595, -72.6363851 ], [ -89.3040069, -72.6364162 ], [ -89.3021986, -72.636424 ], [ -89.3008486, -72.6363849 ], [ -89.3004079, -72.6363545 ], [ -89.2978482, -72.6360858 ], [ -89.2969797, -72.6360106 ], [ -89.293471, -72.6357493 ], [ -89.28825, -72.6353077 ], [ -89.2864962, -72.6351752 ], [ -89.2851648, -72.6350982 ], [ -89.2847143, -72.6350875 ], [ -89.283812, -72.6351013 ], [ -89.2784548, -72.6353567 ], [ -89.2780063, -72.6353748 ], [ -89.2766517, -72.6353931 ], [ -89.2748481, -72.6353548 ], [ -89.2591006, -72.6348859 ], [ -89.255485, -72.6348548 ], [ -89.250964, -72.6348408 ], [ -89.2487071, -72.6348779 ], [ -89.2437513, -72.6350025 ], [ -89.2424011, -72.6350421 ], [ -89.2410621, -72.6351071 ], [ -89.2388787, -72.6352803 ], [ -89.2337024, -72.6357665 ], [ -89.2308161, -72.6361547 ], [ -89.2291266, -72.6363469 ], [ -89.2282341, -72.6363892 ], [ -89.225077, -72.636453 ], [ -89.2233182, -72.6365774 ], [ -89.2194205, -72.636928 ], [ -89.2176749, -72.6370694 ], [ -89.2154576, -72.6372017 ], [ -89.2136658, -72.6372745 ], [ -89.2132141, -72.6372816 ], [ -89.2123164, -72.63725 ], [ -89.2092491, -72.6370169 ], [ -89.2083621, -72.6369646 ], [ -89.2070075, -72.6369446 ], [ -89.2033902, -72.6369548 ], [ -89.1988697, -72.636918 ], [ -89.1957091, -72.6369678 ], [ -89.1943528, -72.6369711 ], [ -89.1934545, -72.6369403 ], [ -89.1912336, -72.6368139 ], [ -89.1903353, -72.6367849 ], [ -89.1885333, -72.6368277 ], [ -89.1831702, -72.6370742 ], [ -89.1768579, -72.6372182 ], [ -89.1746119, -72.6372941 ], [ -89.1728766, -72.637446 ], [ -89.1694821, -72.6378194 ], [ -89.1673918, -72.6380759 ], [ -89.1640887, -72.638518 ], [ -89.1628239, -72.6386637 ], [ -89.1593927, -72.6390071 ], [ -89.1581252, -72.639151 ], [ -89.154872, -72.6396237 ], [ -89.1531927, -72.6398234 ], [ -89.1506261, -72.6400867 ], [ -89.1437418, -72.6407529 ], [ -89.1407117, -72.6410266 ], [ -89.1389315, -72.6411221 ], [ -89.1353481, -72.6412726 ], [ -89.1322025, -72.6413799 ], [ -89.1299489, -72.6414363 ], [ -89.1272362, -72.6414582 ], [ -89.1258793, -72.6414548 ], [ -89.1209144, -72.6413574 ], [ -89.1191061, -72.6413401 ], [ -89.1182043, -72.6413575 ], [ -89.1177643, -72.6413879 ], [ -89.1164959, -72.6415324 ], [ -89.1148625, -72.6417644 ], [ -89.1141396, -72.6419267 ], [ -89.1110947, -72.6427337 ], [ -89.1096558, -72.6430611 ], [ -89.1085449, -72.6432936 ], [ -89.1069801, -72.6435646 ], [ -89.1037943, -72.6440773 ], [ -89.1001638, -72.6446275 ], [ -89.0985273, -72.6448576 ], [ -89.0968257, -72.6450404 ], [ -89.0933787, -72.6453708 ], [ -89.0808269, -72.6465113 ], [ -89.0799528, -72.6465809 ], [ -89.0786203, -72.6466583 ], [ -89.0745933, -72.6468388 ], [ -89.0723384, -72.64689 ], [ -89.0673618, -72.6468785 ], [ -89.0614929, -72.6467608 ], [ -89.0587907, -72.6466836 ], [ -89.0525054, -72.6464492 ], [ -89.0498332, -72.6463063 ], [ -89.0471736, -72.6461437 ], [ -89.0458773, -72.6460247 ], [ -89.0424612, -72.6456674 ], [ -89.0390675, -72.6452912 ], [ -89.0377582, -72.6451856 ], [ -89.037312, -72.6452076 ], [ -89.0364572, -72.6452961 ], [ -89.0344015, -72.6455766 ], [ -89.0339706, -72.6456167 ], [ -89.0326181, -72.6456495 ], [ -89.031714, -72.6456405 ], [ -89.0299139, -72.6455864 ], [ -89.0290349, -72.6455225 ], [ -89.0238667, -72.6450254 ], [ -89.0216876, -72.6448459 ], [ -89.0207923, -72.6448072 ], [ -89.0194396, -72.6447732 ], [ -89.0167314, -72.6447189 ], [ -89.0153749, -72.6447074 ], [ -89.0149239, -72.6447186 ], [ -89.013607, -72.6448154 ], [ -89.0089285, -72.6453225 ], [ -89.0046063, -72.6457206 ], [ -89.0037229, -72.6457791 ], [ -89.0005871, -72.6459113 ], [ -88.999699, -72.6459625 ], [ -88.9988471, -72.6460535 ], [ -88.9947441, -72.6466218 ], [ -88.9930633, -72.6468219 ], [ -88.988304, -72.647257 ], [ -88.9856765, -72.6474601 ], [ -88.9816752, -72.6476847 ], [ -88.9807777, -72.6477187 ], [ -88.9803253, -72.6477208 ], [ -88.9789713, -72.6476937 ], [ -88.9722237, -72.647475 ], [ -88.9713203, -72.6474611 ], [ -88.9704187, -72.6474788 ], [ -88.9690883, -72.6475608 ], [ -88.9603052, -72.6482112 ], [ -88.9549823, -72.6485317 ], [ -88.9531876, -72.6486002 ], [ -88.9504781, -72.6486485 ], [ -88.9491234, -72.648624 ], [ -88.9392252, -72.6483057 ], [ -88.9347634, -72.6480811 ], [ -88.9334115, -72.6480511 ], [ -88.9320791, -72.6481274 ], [ -88.9285961, -72.6484205 ], [ -88.9272697, -72.6485067 ], [ -88.9263701, -72.6485332 ], [ -88.9241124, -72.6484926 ], [ -88.9236603, -72.6484982 ], [ -88.9223525, -72.6486052 ], [ -88.9202233, -72.6488327 ], [ -88.9193529, -72.6489071 ], [ -88.9184515, -72.6489281 ], [ -88.9161894, -72.6489136 ], [ -88.9152872, -72.6489328 ], [ -88.9144141, -72.6490026 ], [ -88.9122915, -72.6492373 ], [ -88.9118511, -72.6492672 ], [ -88.911399, -72.6492736 ], [ -88.9109475, -72.6492657 ], [ -88.9100548, -72.649221 ], [ -88.9078555, -72.6490626 ], [ -88.9065597, -72.6489427 ], [ -88.9035792, -72.6486214 ], [ -88.9022775, -72.6485086 ], [ -88.8991686, -72.6483278 ], [ -88.8982707, -72.6482938 ], [ -88.8978183, -72.6482957 ], [ -88.8973782, -72.6483274 ], [ -88.8961195, -72.6484787 ], [ -88.8945183, -72.6487306 ], [ -88.8930178, -72.6490317 ], [ -88.8898194, -72.6497839 ], [ -88.886272, -72.6503811 ], [ -88.8851626, -72.6506133 ], [ -88.8820844, -72.6514093 ], [ -88.8794439, -72.6521485 ], [ -88.878664, -72.6524798 ], [ -88.8774564, -72.6530508 ], [ -88.8765534, -72.6533535 ], [ -88.8755935, -72.6536396 ], [ -88.8745833, -72.6539101 ], [ -88.8738529, -72.6540697 ], [ -88.8723337, -72.6543642 ], [ -88.8703976, -72.654713 ], [ -88.8650689, -72.6554569 ], [ -88.8590802, -72.6564119 ], [ -88.855921, -72.6569415 ], [ -88.8546908, -72.6571124 ], [ -88.8542648, -72.6571576 ], [ -88.8533743, -72.6572063 ], [ -88.8520182, -72.6572288 ], [ -88.8438711, -72.6572772 ], [ -88.8434219, -72.6572943 ], [ -88.8421182, -72.6574071 ], [ -88.8391826, -72.6577631 ], [ -88.8351, -72.6583471 ], [ -88.8339431, -72.6585588 ], [ -88.8299005, -72.6594257 ], [ -88.8291121, -72.6595587 ], [ -88.8282895, -72.6596707 ], [ -88.8274416, -72.6597646 ], [ -88.8269971, -72.6597916 ], [ -88.8260951, -72.6598149 ], [ -88.8224728, -72.6598134 ], [ -88.8161458, -72.6596971 ], [ -88.8098106, -72.659757 ], [ -88.808464, -72.6597045 ], [ -88.8048973, -72.6595167 ], [ -88.8039953, -72.6594931 ], [ -88.8030901, -72.6594883 ], [ -88.8003768, -72.6595245 ], [ -88.7981638, -72.6596665 ], [ -88.7964238, -72.6598159 ], [ -88.7955946, -72.6599232 ], [ -88.7948281, -72.660067 ], [ -88.7915724, -72.6607984 ], [ -88.7906019, -72.6610805 ], [ -88.7882694, -72.6619077 ], [ -88.787354, -72.6622072 ], [ -88.7866539, -72.6623784 ], [ -88.785547, -72.6626127 ], [ -88.7833009, -72.6630695 ], [ -88.7825242, -72.6632077 ], [ -88.7809175, -72.6634578 ], [ -88.7776589, -72.6639296 ], [ -88.7751071, -72.6642078 ], [ -88.7656715, -72.6651623 ], [ -88.763621, -72.665449 ], [ -88.757543, -72.6663535 ], [ -88.7567039, -72.6664561 ], [ -88.7558189, -72.6665134 ], [ -88.7544742, -72.6665705 ], [ -88.7526669, -72.6666083 ], [ -88.7522139, -72.6666071 ], [ -88.7513261, -72.6665536 ], [ -88.7457635, -72.665978 ], [ -88.7392198, -72.6654327 ], [ -88.7354054, -72.6650051 ], [ -88.7345413, -72.6649238 ], [ -88.7340964, -72.6648983 ], [ -88.7336436, -72.6648954 ], [ -88.7327415, -72.6649191 ], [ -88.7318465, -72.66496 ], [ -88.7305351, -72.6650648 ], [ -88.7301179, -72.6651188 ], [ -88.7293201, -72.6652459 ], [ -88.7285543, -72.6653894 ], [ -88.7270684, -72.6656993 ], [ -88.7260227, -72.665958 ], [ -88.7222849, -72.6669399 ], [ -88.7193973, -72.6675934 ], [ -88.7178846, -72.6678895 ], [ -88.713932, -72.6685502 ], [ -88.7123162, -72.6687933 ], [ -88.7106071, -72.6689736 ], [ -88.7058435, -72.6694099 ], [ -88.7054188, -72.6694566 ], [ -88.704198, -72.6696347 ], [ -88.6975207, -72.6707783 ], [ -88.6902256, -72.6721417 ], [ -88.6851011, -72.6730072 ], [ -88.6835503, -72.6732857 ], [ -88.678354, -72.6743712 ], [ -88.6775815, -72.6745126 ], [ -88.6771617, -72.6745629 ], [ -88.6767763, -72.6746341 ], [ -88.6760596, -72.6747994 ], [ -88.6721561, -72.6759269 ], [ -88.6683787, -72.6772741 ], [ -88.6680528, -72.6773682 ], [ -88.6665574, -72.677674 ], [ -88.6649834, -72.6779413 ], [ -88.6633717, -72.6781886 ], [ -88.6525322, -72.6795682 ], [ -88.6472007, -72.6803161 ], [ -88.6452051, -72.6806352 ], [ -88.6441346, -72.6808853 ], [ -88.6424639, -72.6813418 ], [ -88.6418315, -72.6815345 ], [ -88.6412964, -72.6817532 ], [ -88.6398801, -72.6824447 ], [ -88.6392223, -72.6827994 ], [ -88.6388783, -72.6830491 ], [ -88.6379655, -72.6838127 ], [ -88.6377713, -72.6839347 ], [ -88.637513, -72.6840454 ], [ -88.6362865, -72.6844429 ], [ -88.6340279, -72.6851068 ], [ -88.6327032, -72.6854756 ], [ -88.6299956, -72.6861948 ], [ -88.6264633, -72.6870423 ], [ -88.6194347, -72.6885266 ], [ -88.6180085, -72.6888604 ], [ -88.6152289, -72.6895546 ], [ -88.6145019, -72.689716 ], [ -88.6133073, -72.68991 ], [ -88.6120809, -72.6900858 ], [ -88.6104149, -72.6902989 ], [ -88.609554, -72.6903836 ], [ -88.6082293, -72.6904767 ], [ -88.6055568, -72.6906303 ], [ -88.6033122, -72.6907257 ], [ -88.6024053, -72.690729 ], [ -88.5992345, -72.6906789 ], [ -88.5969674, -72.6906975 ], [ -88.593345, -72.6907621 ], [ -88.5928948, -72.6907768 ], [ -88.5911164, -72.6908853 ], [ -88.5889282, -72.691062 ], [ -88.5880723, -72.6911512 ], [ -88.5807028, -72.6921985 ], [ -88.5790244, -72.692404 ], [ -88.5764691, -72.6926823 ], [ -88.5747514, -72.692857 ], [ -88.5730018, -72.6930007 ], [ -88.5699169, -72.6932255 ], [ -88.5676963, -72.693363 ], [ -88.5658949, -72.693427 ], [ -88.5591185, -72.6936142 ], [ -88.5528147, -72.6938469 ], [ -88.551025, -72.6939353 ], [ -88.5457188, -72.6942987 ], [ -88.5443696, -72.6943489 ], [ -88.5393808, -72.6943948 ], [ -88.5375662, -72.6943981 ], [ -88.532128, -72.6943189 ], [ -88.5294131, -72.6942604 ], [ -88.5244579, -72.6940828 ], [ -88.5172893, -72.6937422 ], [ -88.5100781, -72.6934947 ], [ -88.5087564, -72.693398 ], [ -88.5048285, -72.6930658 ], [ -88.5035, -72.6929789 ], [ -88.5025953, -72.6929656 ], [ -88.5016918, -72.6929901 ], [ -88.4989984, -72.6931087 ], [ -88.4971931, -72.6931621 ], [ -88.4962874, -72.6931533 ], [ -88.4958559, -72.693113 ], [ -88.4950569, -72.6929851 ], [ -88.4917299, -72.69228 ], [ -88.487866, -72.6915733 ], [ -88.4867542, -72.6913403 ], [ -88.483017, -72.6903562 ], [ -88.4816888, -72.6899881 ], [ -88.4810966, -72.6897826 ], [ -88.4780101, -72.6886162 ], [ -88.4777126, -72.688513 ], [ -88.4767212, -72.6882367 ], [ -88.4704961, -72.6866634 ], [ -88.4690806, -72.6863261 ], [ -88.4683425, -72.686169 ], [ -88.4671924, -72.6859526 ], [ -88.4632835, -72.6852685 ], [ -88.4619771, -72.6851563 ], [ -88.4610917, -72.6850979 ], [ -88.4588607, -72.6849764 ], [ -88.4579571, -72.6849557 ], [ -88.4561566, -72.6850178 ], [ -88.4494831, -72.6854099 ], [ -88.44723, -72.6854854 ], [ -88.4436149, -72.685576 ], [ -88.4422566, -72.6855992 ], [ -88.4413502, -72.6855919 ], [ -88.4408977, -72.6855828 ], [ -88.4400132, -72.6855243 ], [ -88.4348871, -72.684981 ], [ -88.4340024, -72.6849224 ], [ -88.4330963, -72.684916 ], [ -88.4276823, -72.685078 ], [ -88.4245323, -72.6851937 ], [ -88.4223169, -72.6853376 ], [ -88.4139451, -72.6859443 ], [ -88.4086612, -72.686333 ], [ -88.4069101, -72.6864743 ], [ -88.4060579, -72.6865663 ], [ -88.40484, -72.6867462 ], [ -88.3972585, -72.6879667 ], [ -88.3952312, -72.6882686 ], [ -88.3922396, -72.688585 ], [ -88.3866402, -72.6891353 ], [ -88.3844713, -72.6893324 ], [ -88.3835834, -72.6893871 ], [ -88.3822301, -72.6894288 ], [ -88.3740853, -72.6895971 ], [ -88.3736353, -72.6896149 ], [ -88.3723093, -72.6897036 ], [ -88.3710304, -72.6898414 ], [ -88.3651576, -72.6905617 ], [ -88.3631036, -72.6908487 ], [ -88.3619984, -72.6910843 ], [ -88.357466, -72.6922075 ], [ -88.3563418, -72.6924348 ], [ -88.3559282, -72.6924907 ], [ -88.3546427, -72.6926239 ], [ -88.3498393, -72.6930268 ], [ -88.3480792, -72.6931576 ], [ -88.3462891, -72.6932467 ], [ -88.3395421, -72.693512 ], [ -88.3377311, -72.693545 ], [ -88.3309259, -72.6935572 ], [ -88.3295688, -72.6935878 ], [ -88.3287303, -72.6936895 ], [ -88.3279201, -72.6938113 ], [ -88.3229094, -72.6947377 ], [ -88.3221186, -72.6948705 ], [ -88.321697, -72.6949199 ], [ -88.3208016, -72.6949626 ], [ -88.3198971, -72.6949835 ], [ -88.3121838, -72.6949574 ], [ -88.3108234, -72.694968 ], [ -88.3099198, -72.6949916 ], [ -88.30774, -72.6951769 ], [ -88.2974589, -72.6962464 ], [ -88.2922888, -72.6967555 ], [ -88.290543, -72.696903 ], [ -88.288735, -72.6969473 ], [ -88.2846513, -72.6969659 ], [ -88.2769438, -72.69687 ], [ -88.2751293, -72.6968546 ], [ -88.2742219, -72.6968609 ], [ -88.2724232, -72.6969322 ], [ -88.2635016, -72.6974284 ], [ -88.2617312, -72.6975475 ], [ -88.2582448, -72.6978475 ], [ -88.2564772, -72.6979702 ], [ -88.2546753, -72.6980358 ], [ -88.2501529, -72.6981461 ], [ -88.2456167, -72.6981102 ], [ -88.2451636, -72.6981187 ], [ -88.2447189, -72.6981452 ], [ -88.2443115, -72.6982046 ], [ -88.243938, -72.6982804 ], [ -88.2432651, -72.6984626 ], [ -88.2417249, -72.6989583 ], [ -88.2409545, -72.6992927 ], [ -88.2329059, -72.7032104 ], [ -88.2320705, -72.7036891 ], [ -88.229158, -72.7055207 ], [ -88.2277605, -72.7062159 ], [ -88.2272438, -72.7064372 ], [ -88.2269372, -72.706538 ], [ -88.2265709, -72.7066175 ], [ -88.2253742, -72.706811 ], [ -88.2199925, -72.7075324 ], [ -88.2147275, -72.7083259 ], [ -88.2127369, -72.7086498 ], [ -88.2111618, -72.7089189 ], [ -88.2104037, -72.7090686 ], [ -88.2098116, -72.709273 ], [ -88.2093041, -72.7094962 ], [ -88.2040879, -72.7120312 ], [ -88.2034472, -72.7123873 ], [ -88.203327, -72.7125186 ], [ -88.2030944, -72.7129173 ], [ -88.2025598, -72.7142591 ], [ -88.2022705, -72.7147924 ], [ -88.2005406, -72.7167518 ], [ -88.200155, -72.71714 ], [ -88.1998442, -72.7173939 ], [ -88.199212, -72.7177528 ], [ -88.1982664, -72.7182142 ], [ -88.1965932, -72.7190183 ], [ -88.1955759, -72.7194655 ], [ -88.1943887, -72.7198742 ], [ -88.1900851, -72.7212662 ], [ -88.189517, -72.7214771 ], [ -88.1892706, -72.721591 ], [ -88.1886153, -72.7219461 ], [ -88.1855504, -72.723755 ], [ -88.184605, -72.7243695 ], [ -88.1842717, -72.7247627 ], [ -88.1832082, -72.7264896 ], [ -88.1829224, -72.726886 ], [ -88.182252, -72.7273877 ], [ -88.1801721, -72.7287384 ], [ -88.17969, -72.7289671 ], [ -88.1791086, -72.7291742 ], [ -88.1695532, -72.7322522 ], [ -88.1689978, -72.7324667 ], [ -88.1685667, -72.7327041 ], [ -88.1634171, -72.7364551 ], [ -88.1619365, -72.7375897 ], [ -88.1616807, -72.7378485 ], [ -88.161526, -72.7381146 ], [ -88.1610017, -72.7397276 ], [ -88.1607207, -72.7401231 ], [ -88.1581168, -72.7425713 ], [ -88.156548, -72.7438393 ], [ -88.1562092, -72.7440892 ], [ -88.1558113, -72.7443322 ], [ -88.1555579, -72.7444433 ], [ -88.154894, -72.7446289 ], [ -88.1502968, -72.7455029 ], [ -88.1488706, -72.7458379 ], [ -88.1480347, -72.7461578 ], [ -88.1449216, -72.7476514 ], [ -88.1439206, -72.7481022 ], [ -88.1428038, -72.7485284 ], [ -88.1404841, -72.7493619 ], [ -88.139877, -72.7495633 ], [ -88.139221, -72.7497507 ], [ -88.1349218, -72.7507498 ], [ -88.1332013, -72.7511918 ], [ -88.1319049, -72.7515711 ], [ -88.1313814, -72.7517913 ], [ -88.1312179, -72.7519168 ], [ -88.1310319, -72.7521807 ], [ -88.1309452, -72.7524502 ], [ -88.1308606, -72.7529899 ], [ -88.1308983, -72.7532597 ], [ -88.131097, -72.7535238 ], [ -88.1322668, -72.7545469 ], [ -88.1326309, -72.7549369 ], [ -88.132804, -72.7552026 ], [ -88.1329878, -72.7556035 ], [ -88.1333154, -72.7565446 ], [ -88.1332673, -72.7568135 ], [ -88.1331121, -72.7572165 ], [ -88.1324363, -72.7586885 ], [ -88.1321232, -72.7592206 ], [ -88.1317189, -72.7596068 ], [ -88.1309194, -72.7602406 ], [ -88.1305638, -72.7604876 ], [ -88.1299039, -72.7608434 ], [ -88.126536, -72.7624488 ], [ -88.1225876, -72.7639331 ], [ -88.1217809, -72.7642613 ], [ -88.1203597, -72.7649521 ], [ -88.1199775, -72.7651979 ], [ -88.1198654, -72.7653293 ], [ -88.1198486, -72.7654643 ], [ -88.1200295, -72.7658652 ], [ -88.1207174, -72.7667891 ], [ -88.1217905, -72.7683781 ], [ -88.1221804, -72.7687666 ], [ -88.1233856, -72.7696415 ], [ -88.1238136, -72.7700267 ], [ -88.1237517, -72.7701604 ], [ -88.123421, -72.7704103 ], [ -88.120578, -72.7717964 ], [ -88.1199021, -72.7721484 ], [ -88.1193973, -72.7725246 ], [ -88.1188142, -72.773037 ], [ -88.1182817, -72.7735536 ], [ -88.1180624, -72.7738154 ], [ -88.118259, -72.7742165 ], [ -88.1186155, -72.7746074 ], [ -88.1212694, -72.7770506 ], [ -88.1214454, -72.7773154 ], [ -88.1215385, -72.7775839 ], [ -88.1215379, -72.7787985 ], [ -88.1213702, -72.7793375 ], [ -88.1209455, -72.7797208 ], [ -88.119328, -72.7808395 ], [ -88.1190375, -72.7810943 ], [ -88.1188917, -72.7813614 ], [ -88.1188973, -72.7816318 ], [ -88.1194187, -72.7836516 ], [ -88.1195699, -72.7862174 ], [ -88.1202561, -72.7878261 ], [ -88.1203401, -72.7882297 ], [ -88.1201739, -72.788356 ], [ -88.1196581, -72.7885781 ], [ -88.116824, -72.789457 ], [ -88.1162332, -72.789663 ], [ -88.1157059, -72.7898831 ], [ -88.1123695, -72.7914968 ], [ -88.1117198, -72.7918536 ], [ -88.1111407, -72.792221 ], [ -88.1085345, -72.7939472 ], [ -88.1080035, -72.7943213 ], [ -88.1076984, -72.7945761 ], [ -88.1074037, -72.7949715 ], [ -88.1068114, -72.7960379 ], [ -88.1065433, -72.7964345 ], [ -88.1048245, -72.7983955 ], [ -88.1039393, -72.799305 ], [ -88.1033665, -72.7996725 ], [ -88.1017369, -72.8004855 ], [ -88.1011187, -72.8008462 ], [ -88.1011985, -72.8012515 ], [ -88.1013864, -72.8015156 ], [ -88.1029286, -72.8032113 ], [ -88.1033633, -72.8037363 ], [ -88.1036261, -72.8042706 ], [ -88.1040724, -72.8056149 ], [ -88.104127, -72.80602 ], [ -88.1040785, -72.8062898 ], [ -88.1031375, -72.8085694 ], [ -88.1029612, -72.8092426 ], [ -88.1031148, -72.8097812 ], [ -88.1037099, -72.8111206 ], [ -88.1040355, -72.8117888 ], [ -88.1043532, -72.8121821 ], [ -88.1074156, -72.8150136 ], [ -88.107766, -72.8154054 ], [ -88.1079791, -72.8157379 ], [ -88.0979146, -72.8193854 ], [ -88.0968128, -72.8235176 ], [ -88.1014206, -72.8278942 ], [ -88.0997032, -72.8318323 ], [ -88.0971083, -72.8331521 ], [ -88.0942897, -72.8346041 ], [ -88.0871547, -72.8356638 ], [ -88.0749433, -72.8364847 ], [ -88.0693166, -72.8354871 ], [ -88.0633678, -72.8373111 ], [ -88.055268, -72.8411851 ], [ -88.0465922, -72.8444881 ], [ -88.0365287, -72.8487183 ], [ -88.019291, -72.8541935 ], [ -88.0042896, -72.8568652 ], [ -87.9899887, -72.8589779 ], [ -87.9697838, -72.8623465 ], [ -87.9613984, -72.8630121 ], [ -87.9531493, -72.8625487 ], [ -87.9416647, -72.8624273 ], [ -87.941183, -72.8663777 ], [ -87.9313106, -72.8687216 ], [ -87.9236515, -72.8686399 ], [ -87.8920996, -72.8756466 ], [ -87.9053371, -72.8720223 ], [ -87.9147623, -72.868168 ], [ -87.9182318, -72.8659448 ], [ -87.9145656, -72.864587 ], [ -87.9067219, -72.8660095 ], [ -87.8941982, -72.8690764 ], [ -87.8804879, -72.8713761 ], [ -87.8668449, -72.8731106 ], [ -87.8427193, -72.8768003 ], [ -87.8249455, -72.8807466 ], [ -87.8099631, -72.882839 ], [ -87.801684, -72.8825572 ], [ -87.8091254, -72.8794387 ], [ -87.7876623, -72.8724138 ], [ -87.7797053, -72.8745837 ], [ -87.7681143, -72.8752044 ], [ -87.7496889, -72.8695288 ], [ -87.7339169, -72.8727365 ], [ -87.7159695, -72.8778013 ], [ -87.7019457, -72.8821577 ], [ -87.6907536, -72.8844743 ], [ -87.6668077, -72.8864493 ], [ -87.6474859, -72.887347 ], [ -87.6365726, -72.8875915 ], [ -87.6343923, -72.8894491 ], [ -87.6272054, -72.8904921 ], [ -87.619458, -72.8909626 ], [ -87.6121896, -72.8925693 ], [ -87.5976756, -72.8955937 ], [ -87.5843537, -72.8991972 ], [ -87.5681699, -72.9048369 ], [ -87.5581687, -72.9075382 ], [ -87.5440248, -72.9122595 ], [ -87.5293708, -72.9160314 ], [ -87.5176034, -72.9175778 ], [ -87.5053054, -72.9183629 ], [ -87.4905586, -72.918362 ], [ -87.4712472, -72.918866 ], [ -87.4513803, -72.9187956 ], [ -87.4341021, -72.9185688 ], [ -87.4144669, -72.91699 ], [ -87.4030947, -72.9158965 ], [ -87.3898045, -72.9147765 ], [ -87.3793633, -72.9159555 ], [ -87.3676999, -72.9167406 ], [ -87.3641179, -72.9191422 ], [ -87.366302, -72.9224169 ], [ -87.3422669, -72.9282665 ], [ -87.309615, -72.9278185 ], [ -87.2981818, -72.9270949 ], [ -87.2714776, -72.925592 ], [ -87.2561765, -72.9250002 ], [ -87.243529, -72.9238792 ], [ -87.2322464, -72.9261696 ], [ -87.2304706, -72.9291603 ], [ -87.2248836, -72.9319082 ], [ -87.2140291, -72.9315648 ], [ -87.2089693, -72.9311155 ], [ -87.2035045, -72.9253824 ], [ -87.1926235, -72.9252259 ], [ -87.1796333, -72.9261693 ], [ -87.1626741, -72.9278081 ], [ -87.1412944, -72.9290037 ], [ -87.1243608, -72.9304511 ], [ -87.1098882, -72.9324992 ], [ -87.088108, -72.9359454 ], [ -87.0735935, -72.9381789 ], [ -87.055331, -72.9397891 ], [ -87.0398257, -72.9403085 ], [ -87.0184549, -72.9413027 ], [ -86.9892252, -72.9395339 ], [ -86.9530865, -72.9404809 ], [ -86.9152983, -72.9398868 ], [ -86.8829278, -72.9412575 ], [ -86.8602303, -72.9424019 ], [ -86.8393805, -72.9439507 ], [ -86.825858, -72.9441082 ], [ -86.8142936, -72.940714 ], [ -86.80942, -72.9393144 ], [ -86.7882523, -72.9391553 ], [ -86.765696, -72.9395368 ], [ -86.7425712, -72.9395289 ], [ -86.7291974, -72.9389279 ], [ -86.7105923, -72.9388035 ], [ -86.6894263, -72.9386338 ], [ -86.6747749, -72.9380073 ], [ -86.6550775, -72.9369159 ], [ -86.6406167, -72.9353471 ], [ -86.6251805, -72.9322514 ], [ -86.6165613, -72.9304045 ], [ -86.6040235, -72.9320725 ], [ -86.5940891, -72.9303902 ], [ -86.5704521, -72.929787 ], [ -86.5547108, -72.9313955 ], [ -86.5444554, -72.9344203 ], [ -86.5387753, -72.9401666 ], [ -86.5287451, -72.9420631 ], [ -86.5206335, -72.9439934 ], [ -86.5114343, -72.9449607 ], [ -86.5010314, -72.9455289 ], [ -86.4984834, -72.9485012 ], [ -86.4853585, -72.9497743 ], [ -86.4619427, -72.9510487 ], [ -86.4488529, -72.9521313 ], [ -86.4382045, -72.9538236 ], [ -86.4340411, -72.9552568 ], [ -86.4249111, -72.9588626 ], [ -86.41125, -72.9625736 ], [ -86.4038769, -72.9639472 ], [ -86.3932162, -72.9656371 ], [ -86.3824321, -72.9678902 ], [ -86.3734873, -72.9705543 ], [ -86.3582776, -72.9753653 ], [ -86.3486018, -72.9783922 ], [ -86.3378853, -72.980267 ], [ -86.3191364, -72.9834997 ], [ -86.3101319, -72.9863488 ], [ -86.3054936, -72.9898463 ], [ -86.3034216, -72.9933922 ], [ -86.2888794, -72.9950038 ], [ -86.2796389, -72.9959603 ], [ -86.2543963, -72.9992525 ], [ -86.2493001, -72.9989662 ], [ -86.2397086, -72.9985932 ], [ -86.2302517, -73.000487 ], [ -86.2219503, -73.0029688 ], [ -86.2064511, -73.005877 ], [ -86.1957869, -73.0073684 ], [ -86.1789939, -73.0102496 ], [ -86.1636963, -73.012215 ], [ -86.1412377, -73.0144158 ], [ -86.1203096, -73.0183431 ], [ -86.1021628, -73.0213801 ], [ -86.086538, -73.0246548 ], [ -86.0618366, -73.0307662 ], [ -86.051165, -73.0348931 ], [ -86.0398002, -73.0391942 ], [ -86.0280089, -73.0425423 ], [ -86.019685, -73.0421847 ], [ -86.0128728, -73.0409136 ], [ -86.0077087, -73.0381655 ], [ -86.0027258, -73.0346659 ], [ -85.9954679, -73.0352728 ], [ -85.9885821, -73.0370198 ], [ -85.9827561, -73.0394049 ], [ -85.977595, -73.0397901 ], [ -85.9586725, -73.0410724 ], [ -85.9406113, -73.0417438 ], [ -85.9268228, -73.0425025 ], [ -85.9074358, -73.0427255 ], [ -85.8966477, -73.0429179 ], [ -85.8856548, -73.0439412 ], [ -85.8772534, -73.0460633 ], [ -85.8658967, -73.0485408 ], [ -85.8570359, -73.0496075 ], [ -85.8409567, -73.0480133 ], [ -85.8289992, -73.0471323 ], [ -85.8135678, -73.0486842 ], [ -85.8187473, -73.0508846 ], [ -85.8232674, -73.0528618 ], [ -85.8271798, -73.0544079 ], [ -85.8284495, -73.0550619 ], [ -85.8297193, -73.0557159 ], [ -85.8275655, -73.0585958 ], [ -85.817567, -73.0613087 ], [ -85.8075126, -73.0642291 ], [ -85.8025007, -73.0670478 ], [ -85.7982002, -73.0698818 ], [ -85.7979892, -73.0703877 ], [ -85.7963856, -73.0742319 ], [ -85.7941714, -73.0773196 ], [ -85.7906333, -73.0799608 ], [ -85.7895822, -73.0841185 ], [ -85.7870608, -73.0869906 ], [ -85.7809261, -73.0885311 ], [ -85.775612, -73.0904466 ], [ -85.773812, -73.0910954 ], [ -85.7660342, -73.0934362 ], [ -85.7651349, -73.0969702 ], [ -85.7767837, -73.1020283 ], [ -85.7827953, -73.1038295 ], [ -85.7862418, -73.1072477 ], [ -85.7916813, -73.1088764 ], [ -85.7922563, -73.1090486 ], [ -85.7961264, -73.1108034 ], [ -85.8005879, -73.1159153 ], [ -85.8074085, -73.1202412 ], [ -85.810654, -73.1244907 ], [ -85.8140057, -73.1283244 ], [ -85.8155775, -73.1306571 ], [ -85.8107564, -73.1326449 ], [ -85.8072095, -73.1352869 ], [ -85.8009011, -73.1374519 ], [ -85.7887538, -73.1399101 ], [ -85.7909343, -73.1426742 ], [ -85.7990392, -73.147655 ], [ -85.8051028, -73.1521739 ], [ -85.8108733, -73.155014 ], [ -85.8193927, -73.1612569 ], [ -85.820549, -73.1652532 ], [ -85.8139683, -73.1684585 ], [ -85.8092071, -73.1673123 ], [ -85.8017674, -73.1681994 ], [ -85.7940629, -73.1701259 ], [ -85.7856391, -73.1720368 ], [ -85.7801494, -73.1723377 ], [ -85.773689, -73.1721995 ], [ -85.7665639, -73.1718378 ], [ -85.7582698, -73.1704055 ], [ -85.7507484, -73.1687803 ], [ -85.7450069, -73.1686566 ], [ -85.7274624, -73.169532 ], [ -85.7234249, -73.1683992 ], [ -85.7127683, -73.16775 ], [ -85.7055387, -73.1678019 ], [ -85.6789896, -73.1672225 ], [ -85.6702168, -73.1676574 ], [ -85.6659221, -73.1702813 ], [ -85.6616807, -73.1726972 ], [ -85.6554482, -73.174442 ], [ -85.6481609, -73.1746997 ], [ -85.6428082, -73.1758363 ], [ -85.6407157, -73.1782992 ], [ -85.6332125, -73.1821064 ], [ -85.6296264, -73.1847454 ], [ -85.6273661, -73.187832 ], [ -85.6212893, -73.1889521 ], [ -85.6193574, -73.1907913 ], [ -85.6126156, -73.1916873 ], [ -85.6026118, -73.1939744 ], [ -85.5969731, -73.1961492 ], [ -85.5912772, -73.1985317 ], [ -85.5825934, -73.2012657 ], [ -85.5689293, -73.2036786 ], [ -85.5576417, -73.2053076 ], [ -85.5470154, -73.20716 ], [ -85.5384879, -73.2092685 ], [ -85.5308462, -73.2107691 ], [ -85.5199448, -73.2109409 ], [ -85.5094233, -73.2123756 ], [ -85.5015109, -73.2121958 ], [ -85.4936948, -73.2143187 ], [ -85.4867662, -73.2158341 ], [ -85.4804418, -73.2177814 ], [ -85.4754985, -73.2199693 ], [ -85.4712737, -73.2221736 ], [ -85.4567418, -73.2249782 ], [ -85.4456581, -73.2257694 ], [ -85.4370779, -73.2253626 ], [ -85.4228549, -73.2244069 ], [ -85.4118277, -73.2249883 ], [ -85.4054656, -73.2244225 ], [ -85.3958196, -73.2252443 ], [ -85.3872635, -73.2273463 ], [ -85.37816, -73.2288076 ], [ -85.3734121, -73.2276507 ], [ -85.3641712, -73.2270162 ], [ -85.351098, -73.227128 ], [ -85.3435484, -73.2282059 ], [ -85.3471057, -73.2310092 ], [ -85.3510741, -73.2323577 ], [ -85.3589546, -73.2352622 ], [ -85.3626913, -73.2374418 ], [ -85.369719, -73.2382338 ], [ -85.3722505, -73.2395482 ], [ -85.379767, -73.241188 ], [ -85.3878309, -73.2434679 ], [ -85.385146, -73.2452883 ], [ -85.3912831, -73.2466864 ], [ -85.398374, -73.2472695 ], [ -85.4051176, -73.2490996 ], [ -85.4051433, -73.2516105 ], [ -85.4031801, -73.2534479 ], [ -85.4054265, -73.2558012 ], [ -85.4101268, -73.2571653 ], [ -85.4117695, -73.2590862 ], [ -85.4116805, -73.262013 ], [ -85.415488, -73.2639838 ], [ -85.419239, -73.2661625 ], [ -85.4230768, -73.2706445 ], [ -85.4228163, -73.274195 ], [ -85.4209099, -73.2758247 ], [ -85.4193781, -73.2787184 ], [ -85.4206191, -73.2820945 ], [ -85.4242589, -73.2846889 ], [ -85.4296915, -73.2860693 ], [ -85.4377846, -73.2883474 ], [ -85.4442617, -73.2912157 ], [ -85.4486877, -73.2936184 ], [ -85.4516118, -73.296196 ], [ -85.4510942, -73.298067 ], [ -85.4528605, -73.2995719 ], [ -85.4492203, -73.3022084 ], [ -85.4478637, -73.3044788 ], [ -85.4455592, -73.3127949 ], [ -85.4426698, -73.3179594 ], [ -85.4435724, -73.3225831 ], [ -85.4427644, -73.3254938 ], [ -85.442796, -73.3280054 ], [ -85.4375253, -73.3312324 ], [ -85.4382806, -73.3337606 ], [ -85.4436151, -73.3355565 ], [ -85.44382, -73.3374443 ], [ -85.4404009, -73.3392493 ], [ -85.4460841, -73.3397977 ], [ -85.4590395, -73.3377917 ], [ -85.4615356, -73.3393132 ], [ -85.4685508, -73.339589 ], [ -85.4838018, -73.3511767 ], [ -85.4897166, -73.3632137 ], [ -85.486638, -73.3743863 ], [ -85.482257, -73.382051 ], [ -85.4822063, -73.3823203 ], [ -85.4823363, -73.3828607 ], [ -85.4825204, -73.3833986 ], [ -85.483255, -73.3850084 ], [ -85.4834019, -73.3855473 ], [ -85.4833793, -73.3858182 ], [ -85.4831646, -73.3866276 ], [ -85.4831611, -73.3868981 ], [ -85.48387, -73.3891885 ], [ -85.4838453, -73.3898656 ], [ -85.4836171, -73.3913514 ], [ -85.4831672, -73.3917366 ], [ -85.4799407, -73.3938423 ], [ -85.4762995, -73.3970605 ], [ -85.4755058, -73.3976985 ], [ -85.4699604, -73.401287 ], [ -85.4693295, -73.40165 ], [ -85.4680391, -73.4023057 ], [ -85.4338552, -73.4062558 ], [ -85.4210655, -73.4105935 ], [ -85.4133398, -73.4051251 ], [ -85.3888582, -73.409854 ], [ -85.3592002, -73.4164448 ], [ -85.348123, -73.4228029 ], [ -85.3260871, -73.4269206 ], [ -85.3113276, -73.4298835 ], [ -85.3063774, -73.4390297 ], [ -85.2916033, -73.4419912 ], [ -85.257428, -73.4478021 ], [ -85.281646, -73.452343 ], [ -85.2527951, -73.4578828 ], [ -85.2518763, -73.4578149 ], [ -85.2509417, -73.4577674 ], [ -85.2499921, -73.4577703 ], [ -85.2386773, -73.4581647 ], [ -85.236308, -73.4582063 ], [ -85.2344087, -73.4582001 ], [ -85.2335711, -73.4580743 ], [ -85.2327889, -73.4579208 ], [ -85.227096, -73.4564865 ], [ -85.2259722, -73.4562371 ], [ -85.2247504, -73.4560288 ], [ -85.2230195, -73.4558066 ], [ -85.2212577, -73.4556044 ], [ -85.2193662, -73.4555584 ], [ -85.2165171, -73.4555675 ], [ -85.2155739, -73.4555966 ], [ -85.2146814, -73.4556884 ], [ -85.2138126, -73.4557981 ], [ -85.2112984, -73.4561789 ], [ -85.2096434, -73.4564454 ], [ -85.2014808, -73.45783 ], [ -85.2006476, -73.4579594 ], [ -85.1993538, -73.4581294 ], [ -85.1910102, -73.4591101 ], [ -85.1883523, -73.459403 ], [ -85.1810476, -73.459999 ], [ -85.1769914, -73.460385 ], [ -85.175234, -73.4605881 ], [ -85.1744184, -73.4607287 ], [ -85.1736443, -73.4608848 ], [ -85.1664549, -73.46244 ], [ -85.1605749, -73.463811 ], [ -85.1595189, -73.4640843 ], [ -85.1588709, -73.4642814 ], [ -85.1580057, -73.4646046 ], [ -85.1550014, -73.4658222 ], [ -85.1520842, -73.4672175 ], [ -85.1509143, -73.4678057 ], [ -85.1505273, -73.4680535 ], [ -85.1502135, -73.4683094 ], [ -85.1487951, -73.4696005 ], [ -85.1484496, -73.4698529 ], [ -85.1482266, -73.4699724 ], [ -85.1479405, -73.4700787 ], [ -85.1472788, -73.4702745 ], [ -85.1433222, -73.4712472 ], [ -85.1419292, -73.4716155 ], [ -85.1412916, -73.4718164 ], [ -85.1404422, -73.4721417 ], [ -85.1380119, -73.473143 ], [ -85.1370203, -73.4736061 ], [ -85.1340872, -73.4754553 ], [ -85.1337323, -73.4757057 ], [ -85.1334552, -73.4759651 ], [ -85.1333392, -73.4763698 ], [ -85.1334447, -73.477858 ], [ -85.1335853, -73.4785332 ], [ -85.1337521, -73.478798 ], [ -85.1339134, -73.4789268 ], [ -85.1343377, -73.4791689 ], [ -85.1375174, -73.4806773 ], [ -85.1381896, -73.4810349 ], [ -85.1383581, -73.4811621 ], [ -85.1388994, -73.4816795 ], [ -85.1398318, -73.4827296 ], [ -85.1420091, -73.4856423 ], [ -85.142447, -73.486169 ], [ -85.1430571, -73.4866808 ], [ -85.1457476, -73.4885611 ], [ -85.1461382, -73.4889517 ], [ -85.14622, -73.4890849 ], [ -85.1462218, -73.4892199 ], [ -85.146084, -73.4894872 ], [ -85.1454533, -73.4901402 ], [ -85.1448542, -73.4906536 ], [ -85.1444216, -73.4908939 ], [ -85.143882, -73.4911163 ], [ -85.1391993, -73.4928229 ], [ -85.138695, -73.4930534 ], [ -85.1380698, -73.4934185 ], [ -85.1339832, -73.4960106 ], [ -85.1332825, -73.4965142 ], [ -85.1305797, -73.4988255 ], [ -85.1290235, -73.5006684 ], [ -85.1287534, -73.5009271 ], [ -85.1284123, -73.5011806 ], [ -85.124522, -73.5036514 ], [ -85.1233038, -73.5043852 ], [ -85.1223227, -73.5048494 ], [ -85.1193982, -73.5060832 ], [ -85.1188945, -73.5063137 ], [ -85.1184557, -73.5065539 ], [ -85.1179142, -73.5069301 ], [ -85.1159216, -73.5084518 ], [ -85.1137059, -73.5103819 ], [ -85.1132178, -73.510763 ], [ -85.1123847, -73.5112498 ], [ -85.110351, -73.5123223 ], [ -85.1098239, -73.5125467 ], [ -85.1095104, -73.5126496 ], [ -85.1091455, -73.5127367 ], [ -85.1079223, -73.512946 ], [ -85.1049721, -73.5133886 ], [ -85.1037517, -73.5135989 ], [ -85.0995003, -73.5144707 ], [ -85.0980036, -73.5148064 ], [ -85.0969551, -73.5150815 ], [ -85.0915568, -73.5166115 ], [ -85.0892742, -73.517302 ], [ -85.0864494, -73.5182192 ], [ -85.0858544, -73.5184302 ], [ -85.0853315, -73.5186556 ], [ -85.0851368, -73.5187803 ], [ -85.0848394, -73.5190375 ], [ -85.0838119, -73.5202194 ], [ -85.0832565, -73.5207374 ], [ -85.0825767, -73.5210939 ], [ -85.080724, -73.5218818 ], [ -85.0800996, -73.5220865 ], [ -85.0797256, -73.5221698 ], [ -85.0792986, -73.52223 ], [ -85.0783823, -73.5223045 ], [ -85.0774423, -73.5223494 ], [ -85.0722511, -73.5225639 ], [ -85.0613164, -73.522804 ], [ -85.0603682, -73.5228306 ], [ -85.0589576, -73.5229001 ], [ -85.0571393, -73.5230638 ], [ -85.0522366, -73.5235927 ], [ -85.0504723, -73.5237984 ], [ -85.0448514, -73.5245413 ], [ -85.0435061, -73.5246785 ], [ -85.0430397, -73.524705 ], [ -85.0416156, -73.5247451 ], [ -85.0349446, -73.5248289 ], [ -85.0325751, -73.5249 ], [ -85.0320973, -73.5249 ], [ -85.0306794, -73.5248487 ], [ -85.0278831, -73.5246774 ], [ -85.0269712, -73.5245987 ], [ -85.0265348, -73.5245427 ], [ -85.0257487, -73.524391 ], [ -85.025035, -73.5242113 ], [ -85.0223027, -73.5234555 ], [ -85.0213623, -73.5231506 ], [ -85.0208101, -73.5229296 ], [ -85.0180312, -73.5216672 ], [ -85.0174234, -73.5214593 ], [ -85.0170336, -73.5213808 ], [ -85.0166135, -73.521317 ], [ -85.0157308, -73.5212146 ], [ -85.0103038, -73.5206998 ], [ -85.0089316, -73.5205861 ], [ -85.008463, -73.5205609 ], [ -85.007511, -73.5205509 ], [ -85.0041796, -73.5206086 ], [ -85.0037029, -73.5206086 ], [ -85.0032298, -73.5205905 ], [ -85.0022968, -73.5205347 ], [ -85.0004571, -73.5203921 ], [ -85.0, -73.520354797927112 ], [ -85.0, -75.0 ], [ -90.0, -75.0 ], [ -90.0, -72.4557405 ], [ -89.9978131, -72.4555646 ] ] ] ] } }
]
}
