{
"type": "FeatureCollection",
"name": "-95_10",
"crs": { "type": "name", "properties": { "name": "urn:ogc:def:crs:OGC:1.3:CRS84" } },
"xy_coordinate_resolution": 1e-15,
"features": [
{ "type": "Feature", "properties": { "FID": 537252, "id": 628, "left": -95.0, "top": 15.0, "right": -90.0, "bottom": 10.0, "row_index": 15, "col_index": 17, "min_lon": -95.0, "min_lat": 10.0, "tile_id": "-95_10" }, "geometry": { "type": "MultiPolygon", "coordinates": [ [ [ [ -90.0004035, 13.687152 ], [ -90.0020595, 13.6880161 ], [ -90.0028112, 13.6884612 ], [ -90.00437, 13.68894 ], [ -90.00593, 13.6896 ], [ -90.0075486, 13.6906404 ], [ -90.0108638, 13.6921008 ], [ -90.0120558, 13.6927408 ], [ -90.0141028, 13.6934309 ], [ -90.0178933, 13.6950997 ], [ -90.0208105, 13.696189 ], [ -90.0239999, 13.6976701 ], [ -90.02557, 13.6984601 ], [ -90.0274001, 13.6991201 ], [ -90.0295749, 13.7001219 ], [ -90.03081, 13.7005799 ], [ -90.03238, 13.7013699 ], [ -90.03395, 13.70216 ], [ -90.0348449, 13.7025432 ], [ -90.0361642, 13.7031154 ], [ -90.0372364, 13.7036497 ], [ -90.0385991, 13.7041138 ], [ -90.0404475, 13.7049467 ], [ -90.0417996, 13.705741 ], [ -90.0430065, 13.7064758 ], [ -90.0442292, 13.7075266 ], [ -90.0477733, 13.7092671 ], [ -90.0489287, 13.7096718 ], [ -90.0500484, 13.7102195 ], [ -90.0502282, 13.7102753 ], [ -90.0504725, 13.710357 ], [ -90.05095, 13.7105999 ], [ -90.0519999, 13.71087 ], [ -90.05671, 13.71299 ], [ -90.06326, 13.7159001 ], [ -90.06562, 13.71696 ], [ -90.067487, 13.717665 ], [ -90.0695501, 13.71855 ], [ -90.07531, 13.7209299 ], [ -90.07662, 13.7214601 ], [ -90.0791268, 13.7225013 ], [ -90.0808099, 13.72331 ], [ -90.0842174, 13.7247471 ], [ -90.0851972, 13.725208 ], [ -90.0856532, 13.7253921 ], [ -90.0859197, 13.7255582 ], [ -90.0865498, 13.7258814 ], [ -90.0872322, 13.7261688 ], [ -90.0875696, 13.7263528 ], [ -90.0912752, 13.7280174 ], [ -90.0939558, 13.728902 ], [ -90.0999299, 13.7311301 ], [ -90.1012401, 13.73153 ], [ -90.1033401, 13.7324601 ], [ -90.1054486, 13.7331056 ], [ -90.1070674, 13.7337276 ], [ -90.109783, 13.7348323 ], [ -90.1118434, 13.7357499 ], [ -90.1124276, 13.7360114 ], [ -90.1341292, 13.7455795 ], [ -90.1356128, 13.7462335 ], [ -90.1367588, 13.7468078 ], [ -90.1369869, 13.7468947 ], [ -90.1381296, 13.7473717 ], [ -90.1398837, 13.7481039 ], [ -90.1399069, 13.7481136 ], [ -90.1414075, 13.7487911 ], [ -90.1440131, 13.7499673 ], [ -90.1448993, 13.7503674 ], [ -90.1460405, 13.7508888 ], [ -90.1482164, 13.7518829 ], [ -90.1500754, 13.7527322 ], [ -90.1528406, 13.7539667 ], [ -90.154465, 13.7546919 ], [ -90.1556566, 13.7552326 ], [ -90.1576803, 13.7561508 ], [ -90.1590071, 13.7567528 ], [ -90.1599551, 13.7571304 ], [ -90.1616865, 13.75782 ], [ -90.1628192, 13.7582712 ], [ -90.162874, 13.7582955 ], [ -90.1645922, 13.7590565 ], [ -90.1672662, 13.7602408 ], [ -90.1677017, 13.7604337 ], [ -90.1697586, 13.7613693 ], [ -90.1713062, 13.7620732 ], [ -90.1717137, 13.7622586 ], [ -90.1734049, 13.7629686 ], [ -90.1757029, 13.7639335 ], [ -90.1782072, 13.7649849 ], [ -90.180725, 13.7659901 ], [ -90.1833354, 13.7670323 ], [ -90.1838344, 13.7672315 ], [ -90.1873996, 13.7686871 ], [ -90.1887426, 13.7692354 ], [ -90.1908621, 13.7701891 ], [ -90.1923111, 13.7708411 ], [ -90.1972389, 13.7731755 ], [ -90.198977, 13.7746083 ], [ -90.1993847, 13.7747125 ], [ -90.2011248, 13.7748714 ], [ -90.205123, 13.7759654 ], [ -90.2095111, 13.7776743 ], [ -90.2142961, 13.7798729 ], [ -90.2159181, 13.7805964 ], [ -90.217902, 13.7813962 ], [ -90.2186027, 13.7816852 ], [ -90.2318011, 13.7871977 ], [ -90.2348856, 13.7883735 ], [ -90.237661, 13.7894845 ], [ -90.2396974, 13.7903296 ], [ -90.2419933, 13.7914601 ], [ -90.2437147, 13.7920689 ], [ -90.2449909, 13.7926756 ], [ -90.2456326, 13.793322 ], [ -90.2462278, 13.793538 ], [ -90.2470104, 13.7937361 ], [ -90.2494439, 13.7957161 ], [ -90.2518041, 13.795392 ], [ -90.2526408, 13.7954223 ], [ -90.2628057, 13.7997112 ], [ -90.28021, 13.80771 ], [ -90.2817901, 13.8085 ], [ -90.2979499, 13.8155282 ], [ -90.3070538, 13.8197918 ], [ -90.3169773, 13.8240349 ], [ -90.3218469, 13.8261141 ], [ -90.3252531, 13.8275685 ], [ -90.32924, 13.8288501 ], [ -90.33291, 13.83018 ], [ -90.3352683, 13.8309208 ], [ -90.3403418, 13.8327971 ], [ -90.3404469, 13.8328328 ], [ -90.3406813, 13.8329193 ], [ -90.3408341, 13.8329757 ], [ -90.3409695, 13.8330257 ], [ -90.3414784, 13.8332136 ], [ -90.3446134, 13.8344996 ], [ -90.3462899, 13.8352101 ], [ -90.3477297, 13.8359211 ], [ -90.3507155, 13.8375097 ], [ -90.3549301, 13.8396799 ], [ -90.3560069, 13.8401482 ], [ -90.3588712, 13.8417164 ], [ -90.36043, 13.8425699 ], [ -90.36778, 13.8459999 ], [ -90.3685093, 13.8463147 ], [ -90.3696101, 13.8467899 ], [ -90.37144, 13.84759 ], [ -90.3759849, 13.8491636 ], [ -90.3843001, 13.85261 ], [ -90.38613, 13.85341 ], [ -90.3879701, 13.8542001 ], [ -90.3901187, 13.855336 ], [ -90.39348, 13.8565699 ], [ -90.3954332, 13.857472 ], [ -90.3974101, 13.85816 ], [ -90.3992988, 13.8589659 ], [ -90.4010801, 13.85974 ], [ -90.4043059, 13.8610269 ], [ -90.4084299, 13.8626501 ], [ -90.4112508, 13.8638283 ], [ -90.4157799, 13.8655601 ], [ -90.4167254, 13.8661227 ], [ -90.41761, 13.8663599 ], [ -90.4200607, 13.8674686 ], [ -90.4243629, 13.8686718 ], [ -90.4273993, 13.8700376 ], [ -90.4403159, 13.8748624 ], [ -90.4434092, 13.8760259 ], [ -90.4455086, 13.8766469 ], [ -90.4476705, 13.877282 ], [ -90.4485799, 13.87762 ], [ -90.4527899, 13.87883 ], [ -90.454864, 13.879599 ], [ -90.4564599, 13.8801499 ], [ -90.45868, 13.8810457 ], [ -90.473035, 13.8857539 ], [ -90.4836681, 13.8891391 ], [ -90.4868887, 13.8903042 ], [ -90.4919201, 13.8915899 ], [ -90.4953365, 13.8926688 ], [ -90.4992699, 13.89398 ], [ -90.5025582, 13.8951452 ], [ -90.5087299, 13.8969199 ], [ -90.5126152, 13.8983081 ], [ -90.52923, 13.9027901 ], [ -90.52922, 13.9033 ], [ -90.5365901, 13.90466 ], [ -90.53658, 13.90518 ], [ -90.5424395, 13.90635 ], [ -90.5460739, 13.9071915 ], [ -90.548389, 13.9076454 ], [ -90.5517019, 13.9083274 ], [ -90.5534902, 13.9088312 ], [ -90.5562153, 13.9094973 ], [ -90.5639243, 13.9111397 ], [ -90.5679186, 13.9119548 ], [ -90.58367, 13.9149376 ], [ -90.5926458, 13.9166729 ], [ -90.6041901, 13.9185999 ], [ -90.6236374, 13.9218981 ], [ -90.6342088, 13.9234907 ], [ -90.6535237, 13.9257745 ], [ -90.6708538, 13.9273284 ], [ -90.6842994, 13.9279676 ], [ -90.7007062, 13.9283004 ], [ -90.7095744, 13.9282545 ], [ -90.7173272, 13.9273591 ], [ -90.7190147, 13.9268159 ], [ -90.7202205, 13.92667 ], [ -90.7206045, 13.9265492 ], [ -90.7207766, 13.9261322 ], [ -90.7212816, 13.9257909 ], [ -90.7216086, 13.9255915 ], [ -90.7223084, 13.9252787 ], [ -90.72245, 13.9252865 ], [ -90.7224259, 13.9258046 ], [ -90.7239708, 13.9259764 ], [ -90.7258806, 13.9261534 ], [ -90.7271358, 13.9261847 ], [ -90.7296035, 13.9262263 ], [ -90.7314166, 13.9262368 ], [ -90.7375857, 13.9263206 ], [ -90.7390178, 13.9262514 ], [ -90.7418987, 13.9261123 ], [ -90.7444419, 13.9260947 ], [ -90.7463194, 13.926067 ], [ -90.7501525, 13.9258852 ], [ -90.7515003, 13.9258136 ], [ -90.7540728, 13.9257429 ], [ -90.7550534, 13.9257071 ], [ -90.7555455, 13.9256706 ], [ -90.7572909, 13.9255558 ], [ -90.7587108, 13.9254297 ], [ -90.7598237, 13.9253173 ], [ -90.7615376, 13.92518 ], [ -90.7621646, 13.9251158 ], [ -90.7627618, 13.9250277 ], [ -90.7629855, 13.9249584 ], [ -90.7633436, 13.9250397 ], [ -90.7647778, 13.924846 ], [ -90.7653234, 13.92477 ], [ -90.7655411, 13.9247397 ], [ -90.7658133, 13.9248523 ], [ -90.7662665, 13.9248236 ], [ -90.7669218, 13.924698 ], [ -90.7676241, 13.9245402 ], [ -90.7680555, 13.9246004 ], [ -90.7691855, 13.9244559 ], [ -90.770285, 13.9243039 ], [ -90.7711113, 13.9240107 ], [ -90.7715774, 13.9238649 ], [ -90.7718512, 13.9237539 ], [ -90.7720417, 13.9236018 ], [ -90.77209, 13.9235523 ], [ -90.772115, 13.9234871 ], [ -90.7720777, 13.9230097 ], [ -90.7720363, 13.9228025 ], [ -90.7719518, 13.9224537 ], [ -90.7719532, 13.9224032 ], [ -90.77198, 13.9223795 ], [ -90.7720846, 13.9223495 ], [ -90.7721252, 13.9223463 ], [ -90.7726987, 13.9220816 ], [ -90.772731, 13.9220605 ], [ -90.7728683, 13.9220596 ], [ -90.7729005, 13.9220867 ], [ -90.7729095, 13.9221423 ], [ -90.7728879, 13.9225174 ], [ -90.7728396, 13.9225903 ], [ -90.7728345, 13.9227913 ], [ -90.773069, 13.9229027 ], [ -90.7734572, 13.9230083 ], [ -90.7739139, 13.9230394 ], [ -90.775333, 13.9229538 ], [ -90.7763901, 13.922781 ], [ -90.7766188, 13.9227628 ], [ -90.7769823, 13.9227739 ], [ -90.7773299, 13.9227134 ], [ -90.7777655, 13.9227114 ], [ -90.7781823, 13.9226452 ], [ -90.7786292, 13.9226593 ], [ -90.7790798, 13.9225708 ], [ -90.7795411, 13.9225344 ], [ -90.7800147, 13.9224319 ], [ -90.7804531, 13.9223677 ], [ -90.7809294, 13.9222274 ], [ -90.7810861, 13.9221647 ], [ -90.7813654, 13.9219239 ], [ -90.7820887, 13.9217935 ], [ -90.7833559, 13.9214706 ], [ -90.7839321, 13.9211282 ], [ -90.7843806, 13.9207979 ], [ -90.7840711, 13.9183918 ], [ -90.7841746, 13.918229 ], [ -90.7842598, 13.9182264 ], [ -90.7843432, 13.9182577 ], [ -90.7844093, 13.9183803 ], [ -90.7844723, 13.9186414 ], [ -90.7844623, 13.9190912 ], [ -90.7846257, 13.9206035 ], [ -90.7878069, 13.9203088 ], [ -90.7878908, 13.9203333 ], [ -90.7879404, 13.920416 ], [ -90.7879056, 13.920508 ], [ -90.787795, 13.9205417 ], [ -90.7850484, 13.9208254 ], [ -90.7851301, 13.9214699 ], [ -90.7866332, 13.9212981 ], [ -90.786672, 13.9215636 ], [ -90.7852442, 13.921703 ], [ -90.7853102, 13.9222347 ], [ -90.7878568, 13.9288973 ], [ -90.7881747, 13.9287856 ], [ -90.7883161, 13.9293346 ], [ -90.7915031, 13.9290415 ], [ -90.791678, 13.9289134 ], [ -90.791751, 13.9287787 ], [ -90.7917203, 13.9285885 ], [ -90.7913465, 13.928709 ], [ -90.7904599, 13.9256488 ], [ -90.7908466, 13.9254961 ], [ -90.7904235, 13.9250211 ], [ -90.7900988, 13.925054 ], [ -90.7901296, 13.924832 ], [ -90.7905791, 13.9245938 ], [ -90.7909251, 13.9245388 ], [ -90.7914473, 13.9244792 ], [ -90.791888, 13.9244466 ], [ -90.7923098, 13.9245064 ], [ -90.7924801, 13.9245064 ], [ -90.7926665, 13.9245012 ], [ -90.7927913, 13.9245077 ], [ -90.7932901, 13.924509 ], [ -90.7935584, 13.9245077 ], [ -90.7936898, 13.9245169 ], [ -90.7938078, 13.9245351 ], [ -90.7938923, 13.9245442 ], [ -90.7939701, 13.9245624 ], [ -90.7940465, 13.9245767 ], [ -90.7941055, 13.9245793 ], [ -90.7941141, 13.9245773 ], [ -90.7941387, 13.9245715 ], [ -90.7941552, 13.9245676 ], [ -90.7941981, 13.9245507 ], [ -90.7942624, 13.9245377 ], [ -90.7943282, 13.9245338 ], [ -90.794422, 13.9245442 ], [ -90.794532, 13.9245663 ], [ -90.794587, 13.9245845 ], [ -90.7946125, 13.9245976 ], [ -90.7946286, 13.9246145 ], [ -90.7946508, 13.9251155 ], [ -90.7953123, 13.9251859 ], [ -90.7953203, 13.9256529 ], [ -90.7957733, 13.9256846 ], [ -90.7958885, 13.9256926 ], [ -90.7962415, 13.9258207 ], [ -90.7963509, 13.9259093 ], [ -90.7963771, 13.92589 ], [ -90.7964106, 13.9258654 ], [ -90.7963551, 13.9256939 ], [ -90.7964078, 13.9249056 ], [ -90.7965695, 13.9248573 ], [ -90.7968727, 13.9247666 ], [ -90.7969053, 13.9247569 ], [ -90.7970004, 13.9246002 ], [ -90.7971278, 13.9245852 ], [ -90.7972115, 13.9246701 ], [ -90.7974779, 13.9246705 ], [ -90.7975947, 13.9246611 ], [ -90.7977378, 13.9246501 ], [ -90.7980002, 13.9246508 ], [ -90.7983437, 13.924674 ], [ -90.7987246, 13.9246761 ], [ -90.7987159, 13.9245633 ], [ -90.798873, 13.9245389 ], [ -90.7988971, 13.9246494 ], [ -90.7991336, 13.9246742 ], [ -90.7994008, 13.9246937 ], [ -90.7997624, 13.9246664 ], [ -90.799999, 13.9246756 ], [ -90.8001756, 13.9246817 ], [ -90.800293, 13.9246198 ], [ -90.8004074, 13.9245937 ], [ -90.8004765, 13.924607 ], [ -90.8005696, 13.92456 ], [ -90.8006651, 13.9244328 ], [ -90.8007041, 13.9243287 ], [ -90.8007471, 13.9245817 ], [ -90.8007932, 13.9245765 ], [ -90.8008014, 13.9245226 ], [ -90.8008505, 13.9244159 ], [ -90.8008934, 13.9241391 ], [ -90.8009701, 13.9240991 ], [ -90.8011457, 13.9242044 ], [ -90.8012892, 13.9244275 ], [ -90.8015533, 13.9243623 ], [ -90.80159, 13.9239299 ], [ -90.8016, 13.92368 ], [ -90.8018601, 13.92368 ], [ -90.8018701, 13.9231599 ], [ -90.8018667, 13.9228804 ], [ -90.8014957, 13.9226982 ], [ -90.8014933, 13.9222095 ], [ -90.8009802, 13.9222135 ], [ -90.8009915, 13.921491 ], [ -90.7982293, 13.9214763 ], [ -90.798227, 13.9211887 ], [ -90.795967, 13.9211415 ], [ -90.7958302, 13.9211454 ], [ -90.7957229, 13.9211493 ], [ -90.7956196, 13.9211572 ], [ -90.7954507, 13.9211637 ], [ -90.7953058, 13.9211702 ], [ -90.7951543, 13.9211884 ], [ -90.7950939, 13.9211923 ], [ -90.7949571, 13.9211962 ], [ -90.7947694, 13.9211838 ], [ -90.7947157, 13.9211806 ], [ -90.7946849, 13.921177 ], [ -90.7946713, 13.9211769 ], [ -90.7945897, 13.9211689 ], [ -90.79454, 13.9211658 ], [ -90.7944636, 13.9211611 ], [ -90.7943463, 13.9211585 ], [ -90.7942484, 13.9211572 ], [ -90.7940961, 13.9211591 ], [ -90.7939553, 13.9211598 ], [ -90.7936925, 13.9211506 ], [ -90.7934846, 13.9211363 ], [ -90.7932808, 13.9211285 ], [ -90.792708, 13.9211067 ], [ -90.7916682, 13.9212036 ], [ -90.791266, 13.9205331 ], [ -90.7915551, 13.9192373 ], [ -90.7902568, 13.9165815 ], [ -90.7901386, 13.9163935 ], [ -90.7900137, 13.9162619 ], [ -90.7898672, 13.9161725 ], [ -90.7897582, 13.916116 ], [ -90.7895825, 13.9160722 ], [ -90.7849101, 13.9151497 ], [ -90.7848849, 13.9152475 ], [ -90.7846342, 13.9152052 ], [ -90.7844972, 13.9151582 ], [ -90.7844643, 13.9150718 ], [ -90.7844455, 13.915004 ], [ -90.7844548, 13.9149083 ], [ -90.7845155, 13.9148421 ], [ -90.7845909, 13.9148104 ], [ -90.7846899, 13.9148095 ], [ -90.7896364, 13.9158651 ], [ -90.7899131, 13.9159493 ], [ -90.7901216, 13.9160521 ], [ -90.7902661, 13.9161696 ], [ -90.7903748, 13.9162983 ], [ -90.7904933, 13.9164579 ], [ -90.7907622, 13.9169546 ], [ -90.7979357, 13.9172442 ], [ -90.79929, 13.91722 ], [ -90.8013073, 13.9171609 ], [ -90.804475, 13.9168953 ], [ -90.8056471, 13.9168458 ], [ -90.8059582, 13.916825 ], [ -90.8063257, 13.9167495 ], [ -90.8067163, 13.9166327 ], [ -90.8068262, 13.9166159 ], [ -90.8068889, 13.9166063 ], [ -90.8071154, 13.9165447 ], [ -90.8073697, 13.9163761 ], [ -90.8072871, 13.915948 ], [ -90.8069895, 13.9155105 ], [ -90.806892, 13.9153388 ], [ -90.8070551, 13.915242 ], [ -90.8076285, 13.9158968 ], [ -90.807643, 13.9164006 ], [ -90.8154115, 13.9160976 ], [ -90.8184645, 13.9160138 ], [ -90.8280093, 13.9157249 ], [ -90.8316351, 13.9156069 ], [ -90.8367659, 13.9154648 ], [ -90.8493429, 13.9151042 ], [ -90.8527747, 13.9149732 ], [ -90.8534365, 13.9149479 ], [ -90.85439, 13.9149115 ], [ -90.8596466, 13.9146066 ], [ -90.8613894, 13.9145438 ], [ -90.8641112, 13.9144272 ], [ -90.8653809, 13.91435 ], [ -90.8669627, 13.9141932 ], [ -90.8677956, 13.9140529 ], [ -90.870236, 13.9138548 ], [ -90.8779136, 13.913417 ], [ -90.8810017, 13.9130586 ], [ -90.8821402, 13.9129895 ], [ -90.8838264, 13.9128538 ], [ -90.8866758, 13.9125896 ], [ -90.8899435, 13.9122428 ], [ -90.8970027, 13.9114741 ], [ -90.9097463, 13.9100689 ], [ -90.9130686, 13.9096646 ], [ -90.9132693, 13.9096432 ], [ -90.9140405, 13.9097877 ], [ -90.9148774, 13.9099101 ], [ -90.9242249, 13.9117196 ], [ -90.9351833, 13.9124562 ], [ -90.9520486, 13.9133786 ], [ -90.9529662, 13.9134656 ], [ -90.9529689, 13.9130595 ], [ -90.9530171, 13.9128095 ], [ -90.9532727, 13.9116502 ], [ -90.9534551, 13.9108327 ], [ -90.9535274, 13.9107599 ], [ -90.9535992, 13.9107351 ], [ -90.9536682, 13.9107449 ], [ -90.9538674, 13.9108425 ], [ -90.9540484, 13.9109467 ], [ -90.9541343, 13.9110046 ], [ -90.9541926, 13.9110638 ], [ -90.9544058, 13.9114277 ], [ -90.9546037, 13.9117056 ], [ -90.9547921, 13.9119757 ], [ -90.9550355, 13.9123357 ], [ -90.9551964, 13.9125348 ], [ -90.9553319, 13.912734 ], [ -90.9553372, 13.9128251 ], [ -90.9553238, 13.9134604 ], [ -91.0087235, 13.9142119 ], [ -91.041247, 13.9141035 ], [ -91.0491449, 13.9143703 ], [ -91.0554745, 13.9145115 ], [ -91.0649568, 13.9148489 ], [ -91.0725394, 13.9152491 ], [ -91.0783355, 13.9154923 ], [ -91.0838002, 13.915814 ], [ -91.0882463, 13.9161044 ], [ -91.0929268, 13.9164731 ], [ -91.0974699, 13.9170145 ], [ -91.0998385, 13.917195 ], [ -91.1019968, 13.9174226 ], [ -91.1035893, 13.9174696 ], [ -91.1038884, 13.9178934 ], [ -91.1038576, 13.9183407 ], [ -91.104264, 13.9184208 ], [ -91.1045084, 13.9185844 ], [ -91.1050597, 13.9183817 ], [ -91.1059486, 13.9181986 ], [ -91.1065173, 13.9179572 ], [ -91.1074976, 13.917924 ], [ -91.107832, 13.9179711 ], [ -91.1081178, 13.9179184 ], [ -91.1084808, 13.9179156 ], [ -91.1087609, 13.9181015 ], [ -91.1090981, 13.9182596 ], [ -91.1099641, 13.9182901 ], [ -91.1104414, 13.9181625 ], [ -91.1108273, 13.9181903 ], [ -91.1116761, 13.9184011 ], [ -91.1126193, 13.9183734 ], [ -91.1133138, 13.9184289 ], [ -91.1142657, 13.9185564 ], [ -91.1149811, 13.9185328 ], [ -91.1154136, 13.9185917 ], [ -91.1156925, 13.9187251 ], [ -91.1161452, 13.9187329 ], [ -91.1165857, 13.9187251 ], [ -91.1170748, 13.9189173 ], [ -91.1174992, 13.9189683 ], [ -91.1181702, 13.9189291 ], [ -91.1195889, 13.9189919 ], [ -91.1203811, 13.9191763 ], [ -91.1210318, 13.9192508 ], [ -91.1217068, 13.9192155 ], [ -91.1228749, 13.9193136 ], [ -91.1237642, 13.9195058 ], [ -91.1242169, 13.919498 ], [ -91.1245766, 13.9195882 ], [ -91.1249363, 13.9196627 ], [ -91.1254618, 13.919647 ], [ -91.1273938, 13.9198471 ], [ -91.128089, 13.9199452 ], [ -91.1288246, 13.9199138 ], [ -91.137198, 13.9206767 ], [ -91.1644489, 13.9237423 ], [ -91.1646366, 13.9237111 ], [ -91.1649692, 13.9237319 ], [ -91.1650604, 13.9237267 ], [ -91.1651892, 13.923758 ], [ -91.1653769, 13.9238048 ], [ -91.1656827, 13.923784 ], [ -91.1658436, 13.9237736 ], [ -91.1660045, 13.9238048 ], [ -91.1662406, 13.9238881 ], [ -91.1679733, 13.9242682 ], [ -91.1693359, 13.9244036 ], [ -91.1720717, 13.9247577 ], [ -91.173563, 13.924893 ], [ -91.1756444, 13.9251065 ], [ -91.1831199, 13.9259201 ], [ -91.1874715, 13.9264215 ], [ -91.1928701, 13.9272799 ], [ -91.1981399, 13.92821 ], [ -91.20393, 13.9290401 ], [ -91.2152599, 13.93066 ], [ -91.2358001, 13.93442 ], [ -91.2368062, 13.9346307 ], [ -91.24344, 13.93602 ], [ -91.2658201, 13.9408201 ], [ -91.2716099, 13.9421501 ], [ -91.2753211, 13.9430988 ], [ -91.27898, 13.944 ], [ -91.2866199, 13.94586 ], [ -91.2921501, 13.9471899 ], [ -91.2979401, 13.9485099 ], [ -91.299205, 13.9481163 ], [ -91.2998977, 13.9482598 ], [ -91.3001043, 13.9482859 ], [ -91.3003457, 13.9482676 ], [ -91.3011825, 13.9481896 ], [ -91.3019189, 13.9486987 ], [ -91.3029395, 13.9496953 ], [ -91.3051382, 13.9508243 ], [ -91.3061701, 13.9509429 ], [ -91.30787, 13.9514783 ], [ -91.3085337, 13.9516931 ], [ -91.3092389, 13.952199 ], [ -91.310302, 13.9523567 ], [ -91.3110728, 13.9527458 ], [ -91.3115796, 13.9529094 ], [ -91.3118822, 13.9531044 ], [ -91.3125424, 13.9531977 ], [ -91.312695, 13.9532566 ], [ -91.3129786, 13.9535379 ], [ -91.3133387, 13.9537169 ], [ -91.3139505, 13.953866 ], [ -91.3144768, 13.9539505 ], [ -91.3150179, 13.9542001 ], [ -91.3180282, 13.9552689 ], [ -91.3182929, 13.9554096 ], [ -91.3202999, 13.95589 ], [ -91.3258301, 13.95798 ], [ -91.33635, 13.9618107 ], [ -91.3439799, 13.9650501 ], [ -91.34792, 13.9666299 ], [ -91.3595149, 13.971443 ], [ -91.3626501, 13.97266 ], [ -91.3642874, 13.9734131 ], [ -91.3647988, 13.9736483 ], [ -91.3652372, 13.97385 ], [ -91.3686935, 13.9754397 ], [ -91.3696842, 13.9758954 ], [ -91.3701616, 13.9761186 ], [ -91.3708894, 13.9763694 ], [ -91.37948, 13.9799799 ], [ -91.38317, 13.98155 ], [ -91.38685, 13.98312 ], [ -91.39053, 13.98469 ], [ -91.39605, 13.98705 ], [ -91.4015799, 13.9894001 ], [ -91.4071001, 13.9917599 ], [ -91.4356809, 14.0028324 ], [ -91.4367261, 14.0032435 ], [ -91.46787, 14.0175301 ], [ -91.46945, 14.0184399 ], [ -91.4705196, 14.0188467 ], [ -91.4739201, 14.02014 ], [ -91.4768826, 14.0215097 ], [ -91.4818535, 14.0236516 ], [ -91.484239, 14.0245405 ], [ -91.4897996, 14.0266557 ], [ -91.49366, 14.0281199 ], [ -91.4995805, 14.0306069 ], [ -91.5044009, 14.0322532 ], [ -91.5072531, 14.0332767 ], [ -91.51077, 14.0346699 ], [ -91.5144364, 14.036 ], [ -91.5180803, 14.0373789 ], [ -91.5204404, 14.0375938 ], [ -91.5332179, 14.042161 ], [ -91.5357511, 14.0427735 ], [ -91.536849, 14.0431101 ], [ -91.5395801, 14.0441454 ], [ -91.5397113, 14.044186 ], [ -91.5400796, 14.0443371 ], [ -91.5403105, 14.0444318 ], [ -91.5420382, 14.0449054 ], [ -91.5438973, 14.0457302 ], [ -91.5454989, 14.0466217 ], [ -91.5493353, 14.0488989 ], [ -91.5689645, 14.060092 ], [ -91.5773499, 14.0653401 ], [ -91.57892, 14.0662499 ], [ -91.583732, 14.0691825 ], [ -91.5866126, 14.0708781 ], [ -91.5942974, 14.07562 ], [ -91.596663, 14.0771284 ], [ -91.5985031, 14.0781682 ], [ -91.6012302, 14.0796946 ], [ -91.6067467, 14.083233 ], [ -91.6136867, 14.0876511 ], [ -91.6146469, 14.0886345 ], [ -91.6244916, 14.0949322 ], [ -91.6290147, 14.09798 ], [ -91.6325064, 14.1003728 ], [ -91.6359986, 14.10263 ], [ -91.6471602, 14.1096427 ], [ -91.657809, 14.1163079 ], [ -91.6636992, 14.119908 ], [ -91.6677654, 14.1222282 ], [ -91.6688919, 14.123071 ], [ -91.6692391, 14.1234972 ], [ -91.6702882, 14.1241555 ], [ -91.6712195, 14.124782 ], [ -91.6717726, 14.1250348 ], [ -91.6746372, 14.1268998 ], [ -91.6785425, 14.1297194 ], [ -91.6822118, 14.1321383 ], [ -91.6853982, 14.1341827 ], [ -91.6884399, 14.1361023 ], [ -91.6923773, 14.13862 ], [ -91.6947162, 14.140113 ], [ -91.6979724, 14.1422613 ], [ -91.7007673, 14.1439779 ], [ -91.7037231, 14.1457413 ], [ -91.7067057, 14.1476296 ], [ -91.7104554, 14.1499859 ], [ -91.7138404, 14.1520718 ], [ -91.7202919, 14.1563978 ], [ -91.7211938, 14.1571725 ], [ -91.7216429, 14.1578819 ], [ -91.7223263, 14.1585463 ], [ -91.7226863, 14.1583916 ], [ -91.7228821, 14.1583734 ], [ -91.7233461, 14.1584619 ], [ -91.7240971, 14.1586881 ], [ -91.7247087, 14.158969 ], [ -91.7252505, 14.1592187 ], [ -91.7256743, 14.1596712 ], [ -91.7259049, 14.1599729 ], [ -91.7262214, 14.1601601 ], [ -91.7265326, 14.1602278 ], [ -91.727128, 14.1604358 ], [ -91.7273426, 14.160545 ], [ -91.7294455, 14.1617102 ], [ -91.7300731, 14.1621315 ], [ -91.7305505, 14.1625996 ], [ -91.731602, 14.1631249 ], [ -91.7325407, 14.1634682 ], [ -91.7333025, 14.1638063 ], [ -91.7338711, 14.1642328 ], [ -91.7341662, 14.1643993 ], [ -91.7354375, 14.1650546 ], [ -91.736033, 14.1654395 ], [ -91.7364246, 14.1657984 ], [ -91.7368215, 14.1661365 ], [ -91.7375886, 14.1663966 ], [ -91.7390746, 14.1670727 ], [ -91.7397827, 14.1675772 ], [ -91.7401904, 14.1679153 ], [ -91.7415047, 14.1685707 ], [ -91.7418104, 14.1689816 ], [ -91.7421591, 14.1693145 ], [ -91.7425776, 14.1695537 ], [ -91.7431623, 14.1697566 ], [ -91.7435861, 14.1699178 ], [ -91.7443693, 14.1703703 ], [ -91.7447072, 14.1706252 ], [ -91.7457855, 14.1715302 ], [ -91.7479634, 14.1725132 ], [ -91.7540901, 14.1759401 ], [ -91.7608045, 14.1792935 ], [ -91.7691481, 14.1831606 ], [ -91.7764768, 14.1860782 ], [ -91.7817552, 14.1886432 ], [ -91.7853246, 14.1902457 ], [ -91.7887827, 14.1920571 ], [ -91.7901651, 14.1927558 ], [ -91.7925697, 14.1945787 ], [ -91.7938631, 14.195554 ], [ -91.7980883, 14.1987401 ], [ -91.799309, 14.1997539 ], [ -91.8030434, 14.2037388 ], [ -91.8145349, 14.2126259 ], [ -91.8283, 14.22707 ], [ -91.84355, 14.2397701 ], [ -91.8582693, 14.2505455 ], [ -91.8586642, 14.2508034 ], [ -91.8590797, 14.2510603 ], [ -91.8733848, 14.2614048 ], [ -91.8761171, 14.2633497 ], [ -91.88171, 14.26777 ], [ -91.8853485, 14.2702352 ], [ -91.8837798, 14.2713627 ], [ -91.8835786, 14.2713341 ], [ -91.8833292, 14.2713081 ], [ -91.8831629, 14.2713289 ], [ -91.8829671, 14.2714433 ], [ -91.8828034, 14.2715992 ], [ -91.8826103, 14.2717162 ], [ -91.8823528, 14.2718176 ], [ -91.8821222, 14.2718748 ], [ -91.8818727, 14.271919 ], [ -91.8815321, 14.271919 ], [ -91.87932, 14.2718901 ], [ -91.87746, 14.27265 ], [ -91.8777201, 14.2730399 ], [ -91.881685, 14.2723349 ], [ -91.8818969, 14.2722803 ], [ -91.8821839, 14.2721607 ], [ -91.8825808, 14.2719501 ], [ -91.8829107, 14.2717786 ], [ -91.8832219, 14.2716512 ], [ -91.8834445, 14.2715888 ], [ -91.8835893, 14.2716278 ], [ -91.8837369, 14.2717604 ], [ -91.8838951, 14.2719553 ], [ -91.8840802, 14.2722439 ], [ -91.884217, 14.2724154 ], [ -91.8842599, 14.2725402 ], [ -91.8842626, 14.2726936 ], [ -91.8842304, 14.2728703 ], [ -91.8841848, 14.2730315 ], [ -91.8841338, 14.2732811 ], [ -91.8840748, 14.2734916 ], [ -91.8839729, 14.2736476 ], [ -91.8838334, 14.2737697 ], [ -91.8836966, 14.2738711 ], [ -91.8836162, 14.2739803 ], [ -91.8835625, 14.2741648 ], [ -91.8835625, 14.2744248 ], [ -91.8835276, 14.2745912 ], [ -91.8834847, 14.2747549 ], [ -91.8834499, 14.2749369 ], [ -91.8834633, 14.2750928 ], [ -91.883533, 14.2752592 ], [ -91.8836296, 14.275423 ], [ -91.8836993, 14.2755867 ], [ -91.8837422, 14.2758415 ], [ -91.8837503, 14.276 ], [ -91.8837637, 14.2760988 ], [ -91.8838066, 14.2761222 ], [ -91.8838629, 14.2761014 ], [ -91.8839058, 14.2759844 ], [ -91.8839166, 14.2758623 ], [ -91.8839487, 14.2757063 ], [ -91.8839836, 14.2756023 ], [ -91.8839729, 14.2755113 ], [ -91.8838602, 14.275397 ], [ -91.8837905, 14.2752696 ], [ -91.8837529, 14.2750824 ], [ -91.8837369, 14.2748381 ], [ -91.8837127, 14.2746821 ], [ -91.8836805, 14.2745236 ], [ -91.8836752, 14.2743572 ], [ -91.8837208, 14.2742402 ], [ -91.883989, 14.2739855 ], [ -91.8842197, 14.2736996 ], [ -91.8843752, 14.2734084 ], [ -91.8845147, 14.2731147 ], [ -91.8845549, 14.2729145 ], [ -91.8845281, 14.2727664 ], [ -91.8844611, 14.272561 ], [ -91.8842787, 14.2723115 ], [ -91.8841392, 14.2720931 ], [ -91.8841097, 14.2719891 ], [ -91.8841499, 14.2719008 ], [ -91.8842787, 14.2717864 ], [ -91.8846, 14.27166 ], [ -91.8860423, 14.2707297 ], [ -91.8976291, 14.2789922 ], [ -91.8988484, 14.2798584 ], [ -91.8992917, 14.2801509 ], [ -91.9121564, 14.2886407 ], [ -91.9164432, 14.2914696 ], [ -91.9165717, 14.2915544 ], [ -91.9185737, 14.2928756 ], [ -91.9189358, 14.2929189 ], [ -91.9186596, 14.2932915 ], [ -91.9187124, 14.2934019 ], [ -91.9187744, 14.2935007 ], [ -91.9188149, 14.2935394 ], [ -91.9205329, 14.294341 ], [ -91.9205499, 14.2943631 ], [ -91.9205551, 14.2943999 ], [ -91.9205382, 14.2944638 ], [ -91.9204892, 14.2945085 ], [ -91.9204337, 14.2945204 ], [ -91.9200047, 14.2943135 ], [ -91.9194111, 14.2940271 ], [ -91.9183382, 14.2936824 ], [ -91.9176462, 14.2938852 ], [ -91.9171754, 14.294473 ], [ -91.916973, 14.2947257 ], [ -91.9168942, 14.2947351 ], [ -91.9168449, 14.2947173 ], [ -91.9166379, 14.2945697 ], [ -91.9156424, 14.2958168 ], [ -91.9154582, 14.2956684 ], [ -91.9147268, 14.2966035 ], [ -91.914762, 14.2968871 ], [ -91.916266, 14.2980149 ], [ -91.9165511, 14.2979637 ], [ -91.9171956, 14.2971587 ], [ -91.9169729, 14.2967056 ], [ -91.9168516, 14.2962972 ], [ -91.917968, 14.2949644 ], [ -91.9187638, 14.2942192 ], [ -91.9197968, 14.294625 ], [ -91.919821, 14.2956463 ], [ -91.9220103, 14.2979211 ], [ -91.9222301, 14.2983422 ], [ -91.9232965, 14.2995096 ], [ -91.9313672, 14.3058541 ], [ -91.94727, 14.31677 ], [ -91.9585183, 14.3254793 ], [ -91.9596955, 14.3265169 ], [ -91.9625401, 14.3288201 ], [ -91.9676771, 14.3335553 ], [ -91.9684053, 14.3341981 ], [ -91.9714799, 14.33698 ], [ -91.9744653, 14.3395537 ], [ -91.9766331, 14.3414107 ], [ -91.9910467, 14.3540277 ], [ -91.991728, 14.3546201 ], [ -91.99307, 14.35536 ], [ -91.9952061, 14.3573085 ], [ -91.9994462, 14.3607847 ], [ -91.9988631, 14.3613957 ], [ -91.9978799, 14.3620891 ], [ -91.9971868, 14.3628139 ], [ -91.9967589, 14.3632354 ], [ -91.996597, 14.3631992 ], [ -91.9962669, 14.3625959 ], [ -91.9957251, 14.36335 ], [ -91.9956566, 14.3638809 ], [ -91.9954137, 14.3643937 ], [ -91.9961361, 14.3642912 ], [ -91.9966094, 14.3635913 ], [ -91.9968959, 14.3635612 ], [ -91.9971585, 14.3632892 ], [ -91.9977603, 14.3632159 ], [ -91.9983968, 14.3630061 ], [ -91.9981539, 14.362795 ], [ -91.9982687, 14.3625232 ], [ -91.9994466, 14.3616952 ], [ -92.0000342, 14.3612822 ], [ -92.00518, 14.3657201 ], [ -92.0070399, 14.36727 ], [ -92.0102616, 14.3700145 ], [ -92.0170301, 14.3754299 ], [ -92.02388, 14.3807401 ], [ -92.0354701, 14.38981 ], [ -92.0432639, 14.3957241 ], [ -92.0479417, 14.3989508 ], [ -92.0484696, 14.3994318 ], [ -92.0490642, 14.4001208 ], [ -92.0497966, 14.4005662 ], [ -92.0502944, 14.4008406 ], [ -92.0515139, 14.4017081 ], [ -92.0550146, 14.4049382 ], [ -92.0604408, 14.4089995 ], [ -92.0658213, 14.4129949 ], [ -92.076741, 14.4209655 ], [ -92.0829284, 14.4256146 ], [ -92.0854336, 14.4276616 ], [ -92.0859593, 14.42802 ], [ -92.0869839, 14.4287629 ], [ -92.087751, 14.4292565 ], [ -92.0891082, 14.4305969 ], [ -92.0892209, 14.43088 ], [ -92.0892397, 14.431254 ], [ -92.089178, 14.4315632 ], [ -92.0892102, 14.4321866 ], [ -92.0894006, 14.4327684 ], [ -92.0895749, 14.4327269 ], [ -92.0899773, 14.4327736 ], [ -92.0904011, 14.4328879 ], [ -92.0907819, 14.4330594 ], [ -92.0911843, 14.4332931 ], [ -92.0919728, 14.4336256 ], [ -92.0926273, 14.4339373 ], [ -92.0933139, 14.4342438 ], [ -92.094081, 14.4346179 ], [ -92.0988131, 14.4383441 ], [ -92.1022322, 14.440797 ], [ -92.1096379, 14.4464831 ], [ -92.1126688, 14.4487948 ], [ -92.1170837, 14.4522129 ], [ -92.1198463, 14.4543791 ], [ -92.1228485, 14.4564408 ], [ -92.1287486, 14.4606946 ], [ -92.1295345, 14.4612813 ], [ -92.1372729, 14.4670583 ], [ -92.1542736, 14.4791358 ], [ -92.1629897, 14.4848917 ], [ -92.1690209, 14.4888684 ], [ -92.1702406, 14.4893752 ], [ -92.171479, 14.4904412 ], [ -92.1726144, 14.4909337 ], [ -92.174048, 14.4923221 ], [ -92.1748174, 14.4931478 ], [ -92.1752544, 14.4935672 ], [ -92.1754302, 14.4939131 ], [ -92.1763299, 14.4944638 ], [ -92.1772598, 14.495033 ], [ -92.1776762, 14.4950013 ], [ -92.1780839, 14.4950373 ], [ -92.1787287, 14.495321 ], [ -92.1791722, 14.4956233 ], [ -92.1797789, 14.4958981 ], [ -92.1802153, 14.4962107 ], [ -92.1809344, 14.4965843 ], [ -92.1815414, 14.4970302 ], [ -92.182754, 14.4978007 ], [ -92.1838026, 14.4982404 ], [ -92.1841865, 14.4983311 ], [ -92.1849262, 14.4987979 ], [ -92.1858111, 14.4993191 ], [ -92.1875373, 14.5005856 ], [ -92.1879235, 14.5009647 ], [ -92.1884117, 14.5013231 ], [ -92.1885699, 14.5014711 ], [ -92.1888448, 14.5017984 ], [ -92.1890742, 14.5020138 ], [ -92.1893773, 14.5022241 ], [ -92.1895999, 14.5023072 ], [ -92.1898064, 14.5023488 ], [ -92.1901014, 14.5023592 ], [ -92.1903858, 14.5023384 ], [ -92.1905682, 14.5023644 ], [ -92.1906848, 14.5024163 ], [ -92.1907613, 14.5024734 ], [ -92.190827, 14.5025578 ], [ -92.1908873, 14.5027331 ], [ -92.1909584, 14.5029434 ], [ -92.1910375, 14.5030733 ], [ -92.1911985, 14.5032654 ], [ -92.1914828, 14.5034251 ], [ -92.1918462, 14.5036316 ], [ -92.1922942, 14.5038692 ], [ -92.1925496, 14.5039627 ], [ -92.1928373, 14.5040211 ], [ -92.1930733, 14.5041068 ], [ -92.1933496, 14.504273 ], [ -92.193599, 14.504434 ], [ -92.1951968, 14.5054774 ], [ -92.1958256, 14.5057995 ], [ -92.197573, 14.5071659 ], [ -92.1998138, 14.5092161 ], [ -92.2041329, 14.512774 ], [ -92.2082001, 14.5159058 ], [ -92.2135511, 14.5199275 ], [ -92.2187408, 14.5238676 ], [ -92.223719, 14.5275087 ], [ -92.2242324, 14.5279101 ], [ -92.2274183, 14.5304014 ], [ -92.2283178, 14.5310748 ], [ -92.2288661, 14.5314853 ], [ -92.2306641, 14.5334392 ], [ -92.2328594, 14.5356933 ], [ -92.2340338, 14.5370026 ], [ -92.2350048, 14.5383787 ], [ -92.2365475, 14.5400058 ], [ -92.2378777, 14.5413745 ], [ -92.2383646, 14.5418402 ], [ -92.2390781, 14.5425568 ], [ -92.2402744, 14.5437303 ], [ -92.2408846, 14.5442954 ], [ -92.2420461, 14.5453711 ], [ -92.2430412, 14.546385 ], [ -92.2437337, 14.5470172 ], [ -92.2445227, 14.5478189 ], [ -92.2450426, 14.5482836 ], [ -92.2456236, 14.5488366 ], [ -92.2465005, 14.5497114 ], [ -92.2512838, 14.5543455 ], [ -92.2529372, 14.5560151 ], [ -92.2563052, 14.5591353 ], [ -92.2651115, 14.5677799 ], [ -92.2690558, 14.5713325 ], [ -92.2813299, 14.5832432 ], [ -92.2858626, 14.587394 ], [ -92.2914443, 14.5925778 ], [ -92.2964271, 14.5971439 ], [ -92.3039577, 14.6039891 ], [ -92.3122626, 14.6115022 ], [ -92.3176537, 14.6161145 ], [ -92.3199961, 14.618128 ], [ -92.3208318, 14.6189538 ], [ -92.3219827, 14.6199911 ], [ -92.3223145, 14.620601 ], [ -92.3224151, 14.6210596 ], [ -92.322609, 14.6213374 ], [ -92.322973, 14.6216519 ], [ -92.3235192, 14.6218723 ], [ -92.3240467, 14.6221651 ], [ -92.3247921, 14.6228102 ], [ -92.3259177, 14.6240177 ], [ -92.3276584, 14.6256561 ], [ -92.3313224, 14.6288806 ], [ -92.3342164, 14.6315913 ], [ -92.349234, 14.6448962 ], [ -92.3600667, 14.6542174 ], [ -92.3709751, 14.6633556 ], [ -92.3868534, 14.6760699 ], [ -92.3960223, 14.6829919 ], [ -92.4092334, 14.6923254 ], [ -92.4119617, 14.6944781 ], [ -92.4155052, 14.6928222 ], [ -92.4156097, 14.6929726 ], [ -92.4106221, 14.6955432 ], [ -92.4098945, 14.6962002 ], [ -92.4077344, 14.6985006 ], [ -92.406312, 14.6999737 ], [ -92.4058074, 14.7004305 ], [ -92.4055231, 14.700472 ], [ -92.405169, 14.700555 ], [ -92.4049813, 14.7009442 ], [ -92.4049062, 14.7015409 ], [ -92.404874, 14.7019819 ], [ -92.4044931, 14.7025164 ], [ -92.4039352, 14.7030612 ], [ -92.4036831, 14.7031287 ], [ -92.4033397, 14.7031339 ], [ -92.4030501, 14.7031339 ], [ -92.4026585, 14.7033414 ], [ -92.4022025, 14.7035645 ], [ -92.4019289, 14.7035334 ], [ -92.4013871, 14.7033985 ], [ -92.4008721, 14.7034763 ], [ -92.3991487, 14.7032533 ], [ -92.3986732, 14.7027121 ], [ -92.398874, 14.7014783 ], [ -92.3990698, 14.7002748 ], [ -92.3979444, 14.7001138 ], [ -92.3973187, 14.7000243 ], [ -92.3967454, 14.7005171 ], [ -92.3967303, 14.7011558 ], [ -92.3968469, 14.7011823 ], [ -92.3971173, 14.7012439 ], [ -92.3971097, 14.7019413 ], [ -92.3967758, 14.7026533 ], [ -92.3963204, 14.7026093 ], [ -92.3958499, 14.7015449 ], [ -92.395604, 14.700974 ], [ -92.3954462, 14.7006074 ], [ -92.3948954, 14.6999379 ], [ -92.3943171, 14.6995202 ], [ -92.3934638, 14.6990537 ], [ -92.3929454, 14.6990801 ], [ -92.3929142, 14.6985867 ], [ -92.3923625, 14.698644 ], [ -92.3913657, 14.6981123 ], [ -92.3906517, 14.6994081 ], [ -92.3909235, 14.6995715 ], [ -92.3932267, 14.6993621 ], [ -92.3939355, 14.6996928 ], [ -92.394429, 14.7001753 ], [ -92.3948129, 14.7009611 ], [ -92.3952396, 14.7019586 ], [ -92.3954173, 14.7023377 ], [ -92.3942181, 14.7023083 ], [ -92.3940321, 14.7040185 ], [ -92.3943147, 14.7040591 ], [ -92.3960837, 14.704313 ], [ -92.3970827, 14.7044564 ], [ -92.3981074, 14.7046035 ], [ -92.3986719, 14.7046845 ], [ -92.3987371, 14.7046438 ], [ -92.3988551, 14.7046931 ], [ -92.3989695, 14.7046222 ], [ -92.3989433, 14.7045321 ], [ -92.3994884, 14.7040741 ], [ -92.3996249, 14.7042416 ], [ -92.3997617, 14.7042131 ], [ -92.4000675, 14.7044129 ], [ -92.4003571, 14.7043714 ], [ -92.4013898, 14.7045218 ], [ -92.4015775, 14.7046619 ], [ -92.4017975, 14.7053209 ], [ -92.4019074, 14.705627 ], [ -92.4020442, 14.7057101 ], [ -92.4019825, 14.7059487 ], [ -92.4019526, 14.7063628 ], [ -92.4018377, 14.7066803 ], [ -92.4019933, 14.7067037 ], [ -92.4018558, 14.7080316 ], [ -92.4017708, 14.7080234 ], [ -92.4017007, 14.7086999 ], [ -92.4017857, 14.7087081 ], [ -92.4014096, 14.7123479 ], [ -92.4012959, 14.7123411 ], [ -92.4012074, 14.7126239 ], [ -92.4013522, 14.7130623 ], [ -92.4015453, 14.7130467 ], [ -92.4016848, 14.7131375 ], [ -92.4019262, 14.7131142 ], [ -92.4020693, 14.7132916 ], [ -92.402916, 14.7135319 ], [ -92.4030796, 14.7134696 ], [ -92.403836, 14.71355 ], [ -92.4043, 14.7138276 ], [ -92.4042946, 14.7135345 ], [ -92.4042088, 14.7131868 ], [ -92.4044636, 14.7127562 ], [ -92.4047479, 14.7120817 ], [ -92.4046648, 14.71183 ], [ -92.4047291, 14.7116121 ], [ -92.4047399, 14.7114305 ], [ -92.4045789, 14.7113319 ], [ -92.4046755, 14.7110414 ], [ -92.4046701, 14.7105588 ], [ -92.4048153, 14.7101016 ], [ -92.4048042, 14.7098531 ], [ -92.4045444, 14.709593 ], [ -92.4048767, 14.7079023 ], [ -92.4051261, 14.7076792 ], [ -92.4052656, 14.7075287 ], [ -92.4054721, 14.7073289 ], [ -92.4055982, 14.7072667 ], [ -92.4057779, 14.7072122 ], [ -92.4060836, 14.7069865 ], [ -92.4062178, 14.706849 ], [ -92.4062982, 14.706644 ], [ -92.4063492, 14.706465 ], [ -92.4065799, 14.7061485 ], [ -92.406714, 14.7059254 ], [ -92.4067408, 14.7057593 ], [ -92.4067354, 14.7056037 ], [ -92.4066576, 14.7055051 ], [ -92.4066255, 14.7053209 ], [ -92.4068937, 14.7051056 ], [ -92.407245, 14.7048046 ], [ -92.4073926, 14.7045945 ], [ -92.4073859, 14.7044544 ], [ -92.4073621, 14.7043175 ], [ -92.4074227, 14.7040107 ], [ -92.4072558, 14.7034919 ], [ -92.4072289, 14.7034114 ], [ -92.4081033, 14.7024386 ], [ -92.4084716, 14.7020541 ], [ -92.410913, 14.6995055 ], [ -92.4109566, 14.6993126 ], [ -92.4110934, 14.6991518 ], [ -92.4113193, 14.6991801 ], [ -92.411359, 14.6993879 ], [ -92.4112437, 14.6995411 ], [ -92.4110555, 14.6996085 ], [ -92.4099271, 14.700715 ], [ -92.4086068, 14.7021472 ], [ -92.4086076, 14.7022985 ], [ -92.4087417, 14.7026202 ], [ -92.408849, 14.70289 ], [ -92.4090421, 14.7031494 ], [ -92.4094176, 14.7033985 ], [ -92.409482, 14.7036112 ], [ -92.4099165, 14.7040626 ], [ -92.41074, 14.7047916 ], [ -92.4109975, 14.7051043 ], [ -92.4112134, 14.7052483 ], [ -92.411385, 14.7053196 ], [ -92.4114856, 14.705448 ], [ -92.4115259, 14.7056037 ], [ -92.4116063, 14.7057619 ], [ -92.4117565, 14.7058009 ], [ -92.4118799, 14.7058787 ], [ -92.4119335, 14.7060136 ], [ -92.4120462, 14.7060655 ], [ -92.4121749, 14.7060914 ], [ -92.4123359, 14.7062471 ], [ -92.4123466, 14.7063872 ], [ -92.4125236, 14.7066362 ], [ -92.4128259, 14.7068105 ], [ -92.4132613, 14.7063184 ], [ -92.4132612, 14.7062586 ], [ -92.4133228, 14.7061388 ], [ -92.4134509, 14.7061138 ], [ -92.4135309, 14.7061374 ], [ -92.4136028, 14.7062293 ], [ -92.4135749, 14.7063475 ], [ -92.4134945, 14.7064301 ], [ -92.4133826, 14.7064407 ], [ -92.4129822, 14.7068836 ], [ -92.4132747, 14.707181 ], [ -92.41409, 14.7079075 ], [ -92.4145138, 14.7080579 ], [ -92.4154526, 14.7088673 ], [ -92.4156296, 14.7090749 ], [ -92.4156404, 14.7092254 ], [ -92.4157949, 14.7094463 ], [ -92.4161473, 14.7098506 ], [ -92.4168822, 14.7102683 ], [ -92.4171504, 14.7105355 ], [ -92.4178865, 14.711234 ], [ -92.4185834, 14.711973 ], [ -92.4192397, 14.7124377 ], [ -92.4197779, 14.7130026 ], [ -92.4222528, 14.7151072 ], [ -92.4232256, 14.7159627 ], [ -92.4237621, 14.7165308 ], [ -92.4240612, 14.7166929 ], [ -92.4241188, 14.7167747 ], [ -92.4241376, 14.7168525 ], [ -92.4243897, 14.7171586 ], [ -92.4244702, 14.7173194 ], [ -92.4248779, 14.7173973 ], [ -92.4249557, 14.7176437 ], [ -92.4251729, 14.7179239 ], [ -92.4256074, 14.7183571 ], [ -92.4256933, 14.7183493 ], [ -92.4257979, 14.7183908 ], [ -92.4258086, 14.7185751 ], [ -92.4267152, 14.7194895 ], [ -92.4267541, 14.7194921 ], [ -92.4268051, 14.7194713 ], [ -92.4268641, 14.7195038 ], [ -92.4268627, 14.7195777 ], [ -92.4268694, 14.7196542 ], [ -92.4276929, 14.7205168 ], [ -92.4282548, 14.7210577 ], [ -92.4283271, 14.7211231 ], [ -92.4285449, 14.7211283 ], [ -92.4286547, 14.7210163 ], [ -92.4287502, 14.7209986 ], [ -92.4288173, 14.7210576 ], [ -92.4288437, 14.72115 ], [ -92.428738, 14.7212719 ], [ -92.4287746, 14.721378 ], [ -92.4292645, 14.7219088 ], [ -92.4293377, 14.7219482 ], [ -92.4294129, 14.7219364 ], [ -92.4295755, 14.7217614 ], [ -92.4297808, 14.7214704 ], [ -92.4300268, 14.7213702 ], [ -92.4301121, 14.7214134 ], [ -92.4300573, 14.7216847 ], [ -92.4299007, 14.7217869 ], [ -92.4292889, 14.7223158 ], [ -92.429234, 14.7224043 ], [ -92.4293017, 14.7225791 ], [ -92.4299883, 14.7238788 ], [ -92.4300554, 14.7240422 ], [ -92.4301063, 14.7244054 ], [ -92.4300178, 14.7245039 ], [ -92.4299374, 14.7244546 ], [ -92.4299499, 14.7243522 ], [ -92.42994, 14.724229 ], [ -92.429848, 14.7241784 ], [ -92.4297032, 14.724181 ], [ -92.429561, 14.7242822 ], [ -92.4294511, 14.7244301 ], [ -92.4293974, 14.724609 ], [ -92.4293974, 14.7249126 ], [ -92.4294645, 14.7251382 ], [ -92.4296361, 14.7254729 ], [ -92.4298346, 14.7257401 ], [ -92.4299419, 14.7259165 ], [ -92.4302128, 14.7260981 ], [ -92.4304596, 14.7261759 ], [ -92.4308082, 14.7262018 ], [ -92.4311221, 14.7261707 ], [ -92.4312964, 14.726111 ], [ -92.4313849, 14.7259839 ], [ -92.431114, 14.7257245 ], [ -92.4311087, 14.7256519 ], [ -92.431173, 14.7256052 ], [ -92.4312589, 14.7256233 ], [ -92.4321654, 14.7265365 ], [ -92.432659, 14.7271539 ], [ -92.4326482, 14.7272291 ], [ -92.4326107, 14.7272602 ], [ -92.4325436, 14.7272395 ], [ -92.4324846, 14.7271072 ], [ -92.4322647, 14.7269256 ], [ -92.4320769, 14.7269827 ], [ -92.4319053, 14.7271539 ], [ -92.4318329, 14.7273329 ], [ -92.4318731, 14.7277427 ], [ -92.432026, 14.728067 ], [ -92.432321, 14.7284172 ], [ -92.4326992, 14.7286662 ], [ -92.433072, 14.7287881 ], [ -92.4335307, 14.7287959 ], [ -92.4338794, 14.7287648 ], [ -92.4339813, 14.7287207 ], [ -92.4340779, 14.7285962 ], [ -92.4341369, 14.7284665 ], [ -92.4341422, 14.7284094 ], [ -92.4338123, 14.7281993 ], [ -92.4337775, 14.7280851 ], [ -92.4338338, 14.7280359 ], [ -92.4339303, 14.7280618 ], [ -92.4344829, 14.7284872 ], [ -92.4346653, 14.7285962 ], [ -92.4347565, 14.7287518 ], [ -92.4351695, 14.7291539 ], [ -92.4351642, 14.729198 ], [ -92.4350676, 14.7292603 ], [ -92.4349469, 14.7292525 ], [ -92.4347296, 14.7294263 ], [ -92.4346358, 14.7296442 ], [ -92.4346358, 14.7299684 ], [ -92.4347162, 14.7303549 ], [ -92.4348772, 14.7306974 ], [ -92.4349362, 14.7308582 ], [ -92.4352419, 14.7312862 ], [ -92.435883, 14.7319192 ], [ -92.4363416, 14.7323757 ], [ -92.436516, 14.7324898 ], [ -92.4367225, 14.7325313 ], [ -92.4371088, 14.7329386 ], [ -92.4371865, 14.7331332 ], [ -92.4373099, 14.7333018 ], [ -92.4377498, 14.7337531 ], [ -92.4379805, 14.7339088 ], [ -92.4382675, 14.7341397 ], [ -92.4386966, 14.7343939 ], [ -92.4390668, 14.7348452 ], [ -92.4394074, 14.7350527 ], [ -92.4396541, 14.7352759 ], [ -92.4401021, 14.7355819 ], [ -92.4410047, 14.7363697 ], [ -92.4447155, 14.7394833 ], [ -92.4500156, 14.7439655 ], [ -92.4529553, 14.7463104 ], [ -92.4543071, 14.7479082 ], [ -92.4555302, 14.7495579 ], [ -92.4596501, 14.7531373 ], [ -92.4656229, 14.7583655 ], [ -92.4678357, 14.7602423 ], [ -92.4734031, 14.7651183 ], [ -92.4811675, 14.7721339 ], [ -92.4898693, 14.7802331 ], [ -92.4947703, 14.7848656 ], [ -92.5030737, 14.7928871 ], [ -92.5064707, 14.7961898 ], [ -92.5097998, 14.7993484 ], [ -92.5128383, 14.8023124 ], [ -92.5147104, 14.8042807 ], [ -92.5162222, 14.8056617 ], [ -92.5268832, 14.81687 ], [ -92.54897, 14.8397526 ], [ -92.5815175, 14.8730678 ], [ -92.5822914, 14.8738599 ], [ -92.61519, 14.9081421 ], [ -92.6164117, 14.909403 ], [ -92.6174712, 14.9105227 ], [ -92.6186916, 14.9117565 ], [ -92.6208562, 14.9140477 ], [ -92.6230046, 14.9163181 ], [ -92.6239783, 14.9173963 ], [ -92.6255742, 14.9190447 ], [ -92.6265961, 14.9201436 ], [ -92.6278085, 14.9213877 ], [ -92.6286775, 14.9223285 ], [ -92.629804, 14.9235414 ], [ -92.6308018, 14.9249098 ], [ -92.630893, 14.9253997 ], [ -92.6307321, 14.9259699 ], [ -92.6310781, 14.9265867 ], [ -92.6313865, 14.9270688 ], [ -92.6334706, 14.9275897 ], [ -92.634573, 14.9290358 ], [ -92.6369119, 14.9310729 ], [ -92.6393205, 14.9336231 ], [ -92.6461279, 14.9407992 ], [ -92.6483917, 14.9438571 ], [ -92.6526779, 14.9486099 ], [ -92.6584017, 14.9550158 ], [ -92.6644345, 14.9612484 ], [ -92.6702868, 14.9672509 ], [ -92.676144, 14.9730723 ], [ -92.6793636, 14.9763646 ], [ -92.6826239, 14.9797187 ], [ -92.6864264, 14.9836932 ], [ -92.6902806, 14.987653 ], [ -92.6941269, 14.991693 ], [ -92.697907, 14.995633 ], [ -92.702226750629379, 15.0 ], [ -90.0, 15.0 ], [ -90.0, 13.686999843052044 ], [ -90.0004035, 13.687152 ] ] ] ] } }
]
}
