{
"type": "FeatureCollection",
"name": "-95_45",
"crs": { "type": "name", "properties": { "name": "urn:ogc:def:crs:OGC:1.3:CRS84" } },
"xy_coordinate_resolution": 1e-15,
"features": [
{ "type": "Feature", "properties": { "FID": 537252, "id": 621, "left": -95.0, "top": 50.0, "right": -90.0, "bottom": 45.0, "row_index": 8, "col_index": 17, "min_lon": -95.0, "min_lat": 45.0, "tile_id": "-95_45" }, "geometry": { "type": "MultiPolygon", "coordinates": [ [ [ [ -90.0, 50.0 ], [ -90.0, 45.0 ], [ -95.0, 45.0 ], [ -95.0, 50.0 ], [ -90.0, 50.0 ] ] ] ] } }
]
}
