{
"type": "FeatureCollection",
"name": "-95_35",
"crs": { "type": "name", "properties": { "name": "urn:ogc:def:crs:OGC:1.3:CRS84" } },
"xy_coordinate_resolution": 1e-15,
"features": [
{ "type": "Feature", "properties": { "FID": 537252, "id": 623, "left": -95.0, "top": 40.0, "right": -90.0, "bottom": 35.0, "row_index": 10, "col_index": 17, "min_lon": -95.0, "min_lat": 35.0, "tile_id": "-95_35" }, "geometry": { "type": "MultiPolygon", "coordinates": [ [ [ [ -90.0, 40.0 ], [ -90.0, 35.0 ], [ -95.0, 35.0 ], [ -95.0, 40.0 ], [ -90.0, 40.0 ] ] ] ] } }
]
}
