{
"type": "FeatureCollection",
"name": "0_-85",
"crs": { "type": "name", "properties": { "name": "urn:ogc:def:crs:OGC:1.3:CRS84" } },
"xy_coordinate_resolution": 1e-15,
"features": [
{ "type": "Feature", "properties": { "FID": 307096, "id": 1331, "left": 0.0, "top": -80.0, "right": 5.0, "bottom": -85.0, "row_index": 34, "col_index": 36, "min_lon": 0.0, "min_lat": -85.0, "tile_id": "0_-85" }, "geometry": { "type": "MultiPolygon", "coordinates": [ [ [ [ 5.0, -80.0 ], [ 5.0, -85.0 ], [ 0.0, -85.0 ], [ 0.0, -80.0 ], [ 5.0, -80.0 ] ] ] ] } }
]
}
