{
"type": "FeatureCollection",
"name": "0_15",
"crs": { "type": "name", "properties": { "name": "urn:ogc:def:crs:OGC:1.3:CRS84" } },
"xy_coordinate_resolution": 1e-15,
"features": [
{ "type": "Feature", "properties": { "FID": 660342, "id": 1311, "left": 0.0, "top": 20.0, "right": 5.0, "bottom": 15.0, "row_index": 14, "col_index": 36, "min_lon": 0.0, "min_lat": 15.0, "tile_id": "0_15" }, "geometry": { "type": "MultiPolygon", "coordinates": [ [ [ [ 5.0, 20.0 ], [ 5.0, 15.0 ], [ 0.0, 15.0 ], [ 0.0, 20.0 ], [ 5.0, 20.0 ] ] ] ] } }
]
}
