{
"type": "FeatureCollection",
"name": "100_55",
"crs": { "type": "name", "properties": { "name": "urn:ogc:def:crs:OGC:1.3:CRS84" } },
"xy_coordinate_resolution": 1e-15,
"features": [
{ "type": "Feature", "properties": { "FID": 123912, "id": 2023, "left": 100.0, "top": 60.0, "right": 105.0, "bottom": 55.0, "row_index": 6, "col_index": 56, "min_lon": 100.0, "min_lat": 55.0, "tile_id": "100_55" }, "geometry": { "type": "MultiPolygon", "coordinates": [ [ [ [ 105.0, 60.0 ], [ 105.0, 55.0 ], [ 100.0, 55.0 ], [ 100.0, 60.0 ], [ 105.0, 60.0 ] ] ] ] } }
]
}
