{
"type": "FeatureCollection",
"name": "105_65",
"crs": { "type": "name", "properties": { "name": "urn:ogc:def:crs:OGC:1.3:CRS84" } },
"xy_coordinate_resolution": 1e-15,
"features": [
{ "type": "Feature", "properties": { "FID": 123912, "id": 2057, "left": 105.0, "top": 70.0, "right": 110.0, "bottom": 65.0, "row_index": 4, "col_index": 57, "min_lon": 105.0, "min_lat": 65.0, "tile_id": "105_65" }, "geometry": { "type": "MultiPolygon", "coordinates": [ [ [ [ 110.0, 70.0 ], [ 110.0, 65.0 ], [ 105.0, 65.0 ], [ 105.0, 70.0 ], [ 110.0, 70.0 ] ] ] ] } }
]
}
