{
"type": "FeatureCollection",
"name": "105_50",
"crs": { "type": "name", "properties": { "name": "urn:ogc:def:crs:OGC:1.3:CRS84" } },
"xy_coordinate_resolution": 1e-15,
"features": [
{ "type": "Feature", "properties": { "FID": 123912, "id": 2060, "left": 105.0, "top": 55.0, "right": 110.0, "bottom": 50.0, "row_index": 7, "col_index": 57, "min_lon": 105.0, "min_lat": 50.0, "tile_id": "105_50" }, "geometry": { "type": "MultiPolygon", "coordinates": [ [ [ [ 110.0, 55.0 ], [ 110.0, 50.0 ], [ 105.0, 50.0 ], [ 105.0, 55.0 ], [ 110.0, 55.0 ] ] ] ] } }
]
}
