{
"type": "FeatureCollection",
"name": "105_-75",
"crs": { "type": "name", "properties": { "name": "urn:ogc:def:crs:OGC:1.3:CRS84" } },
"xy_coordinate_resolution": 1e-15,
"features": [
{ "type": "Feature", "properties": { "FID": 307096, "id": 2085, "left": 105.0, "top": -70.0, "right": 110.0, "bottom": -75.0, "row_index": 32, "col_index": 57, "min_lon": 105.0, "min_lat": -75.0, "tile_id": "105_-75" }, "geometry": { "type": "MultiPolygon", "coordinates": [ [ [ [ 110.0, -70.0 ], [ 110.0, -75.0 ], [ 105.0, -75.0 ], [ 105.0, -70.0 ], [ 110.0, -70.0 ] ] ] ] } }
]
}
