{
"type": "FeatureCollection",
"name": "110_10",
"crs": { "type": "name", "properties": { "name": "urn:ogc:def:crs:OGC:1.3:CRS84" } },
"xy_coordinate_resolution": 1e-15,
"features": [
{ "type": "Feature", "properties": { "FID": 266580, "id": 2104, "left": 110.0, "top": 15.0, "right": 115.0, "bottom": 10.0, "row_index": 15, "col_index": 58, "min_lon": 110.0, "min_lat": 10.0, "tile_id": "110_10" }, "geometry": { "type": "MultiPolygon", "coordinates": [ [ [ [ 114.5877436, 10.410473 ], [ 114.5876604, 10.4104256 ], [ 114.5875343, 10.4103864 ], [ 114.5874606, 10.4104 ], [ 114.5874004, 10.4104957 ], [ 114.5874409, 10.4105299 ], [ 114.587411, 10.4106059 ], [ 114.587419, 10.4107197 ], [ 114.5874835, 10.4107781 ], [ 114.5875509, 10.4108081 ], [ 114.5876637, 10.4107894 ], [ 114.5876976, 10.4107639 ], [ 114.5877557, 10.4106917 ], [ 114.5877964, 10.4106298 ], [ 114.587769, 10.4105021 ], [ 114.5877436, 10.410473 ] ] ] ] } },
{ "type": "Feature", "properties": { "FID": 327822, "id": 2104, "left": 110.0, "top": 15.0, "right": 115.0, "bottom": 10.0, "row_index": 15, "col_index": 58, "min_lon": 110.0, "min_lat": 10.0, "tile_id": "110_10" }, "geometry": { "type": "MultiPolygon", "coordinates": [ [ [ [ 114.3295067, 11.4272449 ], [ 114.3294463, 11.4272858 ], [ 114.3293859, 11.4273594 ], [ 114.3292947, 11.4275014 ], [ 114.3292209, 11.4276433 ], [ 114.3291378, 11.4278458 ], [ 114.329096, 11.4279962 ], [ 114.3290868, 11.4281244 ], [ 114.329111, 11.428248 ], [ 114.3291786, 11.4283475 ], [ 114.3286786, 11.430018 ], [ 114.3288186, 11.4302641 ], [ 114.328838, 11.4302878 ], [ 114.3289309, 11.430235 ], [ 114.3289424, 11.430203 ], [ 114.3288514, 11.4298361 ], [ 114.3290373, 11.4296605 ], [ 114.3291286, 11.4297568 ], [ 114.3293217, 11.4295704 ], [ 114.3292165, 11.4294623 ], [ 114.3299797, 11.4287447 ], [ 114.3304243, 11.4294554 ], [ 114.3308877, 11.4300329 ], [ 114.3311285, 11.4302891 ], [ 114.3313636, 11.430492 ], [ 114.3317546, 11.4308087 ], [ 114.3318279, 11.4308299 ], [ 114.3318156, 11.4308934 ], [ 114.3318092, 11.4309459 ], [ 114.3317564, 11.4309529 ], [ 114.3307762, 11.4315837 ], [ 114.3306246, 11.4315551 ], [ 114.3297464, 11.43079 ], [ 114.3293255, 11.430673 ], [ 114.3292722, 11.4308772 ], [ 114.3292788, 11.4309149 ], [ 114.3300836, 11.4317135 ], [ 114.3306111, 11.4317738 ], [ 114.3330781, 11.4310283 ], [ 114.333354, 11.4309234 ], [ 114.3334684, 11.4308739 ], [ 114.3335993, 11.4308147 ], [ 114.3337015, 11.4307442 ], [ 114.3337629, 11.4306731 ], [ 114.3337967, 11.4306003 ], [ 114.3338236, 11.4305142 ], [ 114.3338325, 11.4304347 ], [ 114.3338529, 11.4302199 ], [ 114.333866, 11.4300365 ], [ 114.3338652, 11.4299556 ], [ 114.3338531, 11.4298846 ], [ 114.3338249, 11.429808 ], [ 114.3335631, 11.4293995 ], [ 114.3333572, 11.4290967 ], [ 114.3326838, 11.428188 ], [ 114.3325005, 11.427996 ], [ 114.3318876, 11.4275161 ], [ 114.331768, 11.4271954 ], [ 114.3316953, 11.4269913 ], [ 114.3315517, 11.4264681 ], [ 114.3313857, 11.426081 ], [ 114.3311169, 11.4259113 ], [ 114.3307482, 11.4259253 ], [ 114.3303796, 11.4260064 ], [ 114.3301118, 11.4261111 ], [ 114.3297925, 11.4263173 ], [ 114.3297394, 11.4264234 ], [ 114.3296949, 11.4265001 ], [ 114.32963, 11.4266049 ], [ 114.3295831, 11.4267 ], [ 114.3295602, 11.4267771 ], [ 114.3295437, 11.4268697 ], [ 114.3295332, 11.4269882 ], [ 114.3295193, 11.4270706 ], [ 114.3295188, 11.4271944 ], [ 114.3295067, 11.4272449 ] ] ] ] } },
{ "type": "Feature", "properties": { "FID": 355431, "id": 2104, "left": 110.0, "top": 15.0, "right": 115.0, "bottom": 10.0, "row_index": 15, "col_index": 58, "min_lon": 110.0, "min_lat": 10.0, "tile_id": "110_10" }, "geometry": { "type": "MultiPolygon", "coordinates": [ [ [ [ 114.2240918, 10.208946 ], [ 114.2246872, 10.2094528 ], [ 114.225238, 10.2098839 ], [ 114.2252371, 10.2099781 ], [ 114.225174, 10.2101603 ], [ 114.2251754, 10.2103695 ], [ 114.2250842, 10.2104216 ], [ 114.2250004, 10.2103827 ], [ 114.224934, 10.2103886 ], [ 114.2248964, 10.2104467 ], [ 114.2249018, 10.2105067 ], [ 114.2249581, 10.2105562 ], [ 114.225052, 10.2105826 ], [ 114.2251687, 10.2105496 ], [ 114.2253081, 10.2104599 ], [ 114.2253564, 10.2103345 ], [ 114.225339, 10.2101735 ], [ 114.2253658, 10.2100811 ], [ 114.2254363, 10.2100392 ], [ 114.2259332, 10.2104281 ], [ 114.2259485, 10.2104642 ], [ 114.2259536, 10.2105109 ], [ 114.2259454, 10.2105798 ], [ 114.2259504, 10.2106414 ], [ 114.225977, 10.2106996 ], [ 114.2260301, 10.2107324 ], [ 114.2264476, 10.2107966 ], [ 114.2265151, 10.2107885 ], [ 114.2265728, 10.210741 ], [ 114.2266265, 10.2105087 ], [ 114.2266154, 10.2104434 ], [ 114.2265895, 10.2103945 ], [ 114.2265544, 10.2103602 ], [ 114.2264929, 10.2103424 ], [ 114.2261237, 10.2102837 ], [ 114.2260772, 10.2102487 ], [ 114.2259774, 10.2101516 ], [ 114.2259697, 10.2101441 ], [ 114.2259116, 10.2099785 ], [ 114.2259201, 10.209914 ], [ 114.2259466, 10.209856 ], [ 114.2259598, 10.2097968 ], [ 114.2259395, 10.2097408 ], [ 114.2257143, 10.2095439 ], [ 114.2256518, 10.2095156 ], [ 114.2256028, 10.2095124 ], [ 114.2255592, 10.2095215 ], [ 114.2255211, 10.209546 ], [ 114.2254392, 10.2096554 ], [ 114.2254095, 10.2096768 ], [ 114.2253854, 10.2096807 ], [ 114.2253559, 10.2096704 ], [ 114.2242594, 10.2087592 ], [ 114.2242269, 10.2087031 ], [ 114.2242261, 10.2086075 ], [ 114.2242379, 10.2084431 ], [ 114.2243908, 10.208327 ], [ 114.2245303, 10.2080788 ], [ 114.2245743, 10.2076464 ], [ 114.2245504, 10.2071562 ], [ 114.2245477, 10.2068316 ], [ 114.2246041, 10.2065227 ], [ 114.2247033, 10.2063247 ], [ 114.224769, 10.2062014 ], [ 114.2249259, 10.2058575 ], [ 114.2250736, 10.2057901 ], [ 114.2252036, 10.2057584 ], [ 114.2253044, 10.2057555 ], [ 114.2254216, 10.2057724 ], [ 114.2255146, 10.205766 ], [ 114.2256268, 10.2057053 ], [ 114.2259461, 10.2053817 ], [ 114.226057, 10.2053498 ], [ 114.2264377, 10.2050471 ], [ 114.2267686, 10.2044954 ], [ 114.226774, 10.2043475 ], [ 114.2267364, 10.2040096 ], [ 114.227128, 10.2036295 ], [ 114.2270529, 10.203545 ], [ 114.2267219, 10.2038536 ], [ 114.2266651, 10.2038685 ], [ 114.2264757, 10.2038412 ], [ 114.226418, 10.2037842 ], [ 114.2263778, 10.2037204 ], [ 114.2263323, 10.2037677 ], [ 114.2263323, 10.2038088 ], [ 114.22631, 10.2038187 ], [ 114.2261832, 10.2036691 ], [ 114.226076, 10.2037747 ], [ 114.2255078, 10.204336 ], [ 114.2254113, 10.2042367 ], [ 114.2251045, 10.2045367 ], [ 114.2250694, 10.204571 ], [ 114.2244216, 10.2052119 ], [ 114.2243694, 10.2051626 ], [ 114.2235372, 10.2060007 ], [ 114.2234579, 10.206073 ], [ 114.2233515, 10.2060845 ], [ 114.2222594, 10.2059049 ], [ 114.2221548, 10.2059219 ], [ 114.2220745, 10.2059457 ], [ 114.2219996, 10.2060032 ], [ 114.2219575, 10.2061036 ], [ 114.2216461, 10.2078915 ], [ 114.2216658, 10.2079847 ], [ 114.2217069, 10.20807 ], [ 114.2217843, 10.2081192 ], [ 114.2218943, 10.2081511 ], [ 114.2234266, 10.2083864 ], [ 114.2240918, 10.208946 ] ] ] ] } },
{ "type": "Feature", "properties": { "FID": 370271, "id": 2104, "left": 110.0, "top": 15.0, "right": 115.0, "bottom": 10.0, "row_index": 15, "col_index": 58, "min_lon": 110.0, "min_lat": 10.0, "tile_id": "110_10" }, "geometry": { "type": "MultiPolygon", "coordinates": [ [ [ [ 114.3515892, 11.4502889 ], [ 114.3515155, 11.4503415 ], [ 114.3514162, 11.4504519 ], [ 114.3514001, 11.4505544 ], [ 114.3514014, 11.4506543 ], [ 114.3514283, 11.4508265 ], [ 114.3514819, 11.4510382 ], [ 114.351545, 11.4512143 ], [ 114.3516201, 11.4514141 ], [ 114.3517461, 11.4516349 ], [ 114.352001, 11.4520121 ], [ 114.3523858, 11.4524906 ], [ 114.3528177, 11.4528875 ], [ 114.3533239, 11.453271 ], [ 114.3541279, 11.4538773 ], [ 114.3545303, 11.4541585 ], [ 114.35471, 11.4542611 ], [ 114.354938, 11.4543899 ], [ 114.3552947, 11.4545345 ], [ 114.3556568, 11.4546133 ], [ 114.3558472, 11.4546133 ], [ 114.3560323, 11.4546317 ], [ 114.3561932, 11.4546659 ], [ 114.3563837, 11.4547211 ], [ 114.3565902, 11.4547789 ], [ 114.3567941, 11.4548263 ], [ 114.3571588, 11.454913 ], [ 114.3573627, 11.4549445 ], [ 114.3574539, 11.454934 ], [ 114.357537, 11.4548867 ], [ 114.3575853, 11.4548131 ], [ 114.3576041, 11.4546922 ], [ 114.3575826, 11.4545713 ], [ 114.3575183, 11.4543846 ], [ 114.3573144, 11.4540849 ], [ 114.3572096, 11.4538815 ], [ 114.3568879, 11.4533752 ], [ 114.3566906, 11.4531143 ], [ 114.3564212, 11.4527521 ], [ 114.3560028, 11.4522921 ], [ 114.3553832, 11.4517506 ], [ 114.3545169, 11.4511906 ], [ 114.3541574, 11.4509843 ], [ 114.3539469, 11.4508567 ], [ 114.3537014, 11.4507162 ], [ 114.3535331, 11.4505985 ], [ 114.3533676, 11.4504934 ], [ 114.3531436, 11.4503941 ], [ 114.3529907, 11.4503533 ], [ 114.3528847, 11.4503218 ], [ 114.3526876, 11.450285 ], [ 114.3525092, 11.4502416 ], [ 114.3523094, 11.4502009 ], [ 114.3520546, 11.4502048 ], [ 114.3519634, 11.4502048 ], [ 114.3518253, 11.450214 ], [ 114.3516764, 11.45026 ], [ 114.3515892, 11.4502889 ] ] ] ] } },
{ "type": "Feature", "properties": { "FID": 495546, "id": 2104, "left": 110.0, "top": 15.0, "right": 115.0, "bottom": 10.0, "row_index": 15, "col_index": 58, "min_lon": 110.0, "min_lat": 10.0, "tile_id": "110_10" }, "geometry": { "type": "MultiPolygon", "coordinates": [ [ [ [ 114.3559351, 10.7286208 ], [ 114.3558647, 10.7286267 ], [ 114.3558258, 10.7286425 ], [ 114.3557936, 10.7286649 ], [ 114.3557627, 10.7286992 ], [ 114.355748, 10.7287321 ], [ 114.355752, 10.7287572 ], [ 114.3557708, 10.7287644 ], [ 114.3557902, 10.7287618 ], [ 114.355801, 10.728746 ], [ 114.355803, 10.7287301 ], [ 114.3558077, 10.7287071 ], [ 114.3558231, 10.7286814 ], [ 114.3558405, 10.7286629 ], [ 114.355862, 10.7286583 ], [ 114.3559069, 10.728659 ], [ 114.3560055, 10.7286715 ], [ 114.3560632, 10.7286873 ], [ 114.3561436, 10.7287413 ], [ 114.3562221, 10.7288171 ], [ 114.356271, 10.7288494 ], [ 114.3563206, 10.7288731 ], [ 114.3563649, 10.728879 ], [ 114.3564139, 10.7288718 ], [ 114.356442, 10.7288481 ], [ 114.3564621, 10.7288138 ], [ 114.3564668, 10.7287749 ], [ 114.3564641, 10.7287229 ], [ 114.3564313, 10.7286465 ], [ 114.3564065, 10.7286063 ], [ 114.3563622, 10.728576 ], [ 114.3563186, 10.7285608 ], [ 114.3562536, 10.7285608 ], [ 114.356208, 10.72857 ], [ 114.3561671, 10.7285911 ], [ 114.3561383, 10.7286168 ], [ 114.3561128, 10.72863 ], [ 114.3560638, 10.72863 ], [ 114.3559351, 10.7286208 ] ] ] ] } },
{ "type": "Feature", "properties": { "FID": 495547, "id": 2104, "left": 110.0, "top": 15.0, "right": 115.0, "bottom": 10.0, "row_index": 15, "col_index": 58, "min_lon": 110.0, "min_lat": 10.0, "tile_id": "110_10" }, "geometry": { "type": "MultiPolygon", "coordinates": [ [ [ [ 114.3317825, 10.711693 ], [ 114.3317664, 10.7117378 ], [ 114.3317677, 10.7117944 ], [ 114.3317932, 10.711834 ], [ 114.3318509, 10.7118616 ], [ 114.3318938, 10.7118629 ], [ 114.3319514, 10.7118524 ], [ 114.3319863, 10.71183 ], [ 114.3320118, 10.7118063 ], [ 114.3320225, 10.7117826 ], [ 114.3320252, 10.7117457 ], [ 114.3320145, 10.7117206 ], [ 114.331985, 10.7116916 ], [ 114.3319434, 10.7116692 ], [ 114.3318857, 10.7116547 ], [ 114.3318442, 10.7116531 ], [ 114.3318083, 10.7116617 ], [ 114.3317825, 10.711693 ] ] ] ] } },
{ "type": "Feature", "properties": { "FID": 495548, "id": 2104, "left": 110.0, "top": 15.0, "right": 115.0, "bottom": 10.0, "row_index": 15, "col_index": 58, "min_lon": 110.0, "min_lat": 10.0, "tile_id": "110_10" }, "geometry": { "type": "MultiPolygon", "coordinates": [ [ [ [ 114.4227791, 10.6672319 ], [ 114.4226879, 10.6674296 ], [ 114.4226477, 10.66763 ], [ 114.4226128, 10.6679014 ], [ 114.4225726, 10.668107 ], [ 114.4225109, 10.6682705 ], [ 114.4223928, 10.6684154 ], [ 114.422256, 10.6685815 ], [ 114.422189, 10.6687159 ], [ 114.4221729, 10.6688503 ], [ 114.4222426, 10.6689821 ], [ 114.4223633, 10.6691218 ], [ 114.4224463, 10.6691742 ], [ 114.4225323, 10.6692167 ], [ 114.4227523, 10.6692668 ], [ 114.4230366, 10.6692694 ], [ 114.4233477, 10.6692431 ], [ 114.4235221, 10.6692062 ], [ 114.4237125, 10.6691456 ], [ 114.4239432, 10.6690507 ], [ 114.4240934, 10.6689426 ], [ 114.4242758, 10.6687133 ], [ 114.4244179, 10.6684629 ], [ 114.4245627, 10.6680754 ], [ 114.4246834, 10.6677222 ], [ 114.4247103, 10.6675272 ], [ 114.424713, 10.6673374 ], [ 114.4247532, 10.666689 ], [ 114.424729, 10.6662804 ], [ 114.4246808, 10.6658059 ], [ 114.424611, 10.6655028 ], [ 114.4245306, 10.6653947 ], [ 114.4244367, 10.6653236 ], [ 114.4243133, 10.665284 ], [ 114.4241872, 10.6652524 ], [ 114.4240397, 10.6652814 ], [ 114.4239163, 10.6653578 ], [ 114.4238868, 10.6654395 ], [ 114.4238895, 10.6655213 ], [ 114.4239485, 10.6656293 ], [ 114.4240129, 10.6657058 ], [ 114.4240826, 10.6658007 ], [ 114.4240853, 10.6658534 ], [ 114.4240558, 10.6658982 ], [ 114.4239619, 10.6659509 ], [ 114.4238064, 10.6660036 ], [ 114.4236186, 10.6660985 ], [ 114.4234255, 10.6662224 ], [ 114.4233558, 10.6662962 ], [ 114.4233289, 10.6663858 ], [ 114.4233128, 10.6664886 ], [ 114.4232726, 10.6665967 ], [ 114.4232082, 10.6666837 ], [ 114.4231278, 10.6667548 ], [ 114.4227791, 10.6672319 ] ] ] ] } },
{ "type": "Feature", "properties": { "FID": 497660, "id": 2104, "left": 110.0, "top": 15.0, "right": 115.0, "bottom": 10.0, "row_index": 15, "col_index": 58, "min_lon": 110.0, "min_lat": 10.0, "tile_id": "110_10" }, "geometry": { "type": "MultiPolygon", "coordinates": [ [ [ [ 114.0688889, 10.9160046 ], [ 114.0694048, 10.9151685 ], [ 114.0714754, 10.9123241 ], [ 114.0720548, 10.9114286 ], [ 114.0725805, 10.9107333 ], [ 114.0733262, 10.9102382 ], [ 114.07399, 10.9099047 ], [ 114.0747799, 10.9097642 ], [ 114.0754223, 10.9097467 ], [ 114.079113, 10.9102119 ], [ 114.0799499, 10.9100275 ], [ 114.0814626, 10.9096957 ], [ 114.0840505, 10.9099953 ], [ 114.0840288, 10.9101722 ], [ 114.0840216, 10.9102304 ], [ 114.0859288, 10.9104569 ], [ 114.0859576, 10.9102232 ], [ 114.0867788, 10.910333 ], [ 114.0870098, 10.9102684 ], [ 114.0872026, 10.9101223 ], [ 114.0873324, 10.9099431 ], [ 114.0873474, 10.9097325 ], [ 114.0872133, 10.9094007 ], [ 114.0867224, 10.9081902 ], [ 114.0865803, 10.9078741 ], [ 114.0864169, 10.9077005 ], [ 114.0862399, 10.9075915 ], [ 114.0859526, 10.9075202 ], [ 114.0807277, 10.906897 ], [ 114.0804058, 10.9067969 ], [ 114.0783298, 10.9065562 ], [ 114.0764602, 10.906286 ], [ 114.0754625, 10.9062649 ], [ 114.074623, 10.9062455 ], [ 114.0731156, 10.9063297 ], [ 114.0720266, 10.906444 ], [ 114.0659434, 10.907508 ], [ 114.0657717, 10.9074517 ], [ 114.063801, 10.9077932 ], [ 114.0614024, 10.9081717 ], [ 114.060646, 10.908472 ], [ 114.0601122, 10.908817 ], [ 114.0595785, 10.9093638 ], [ 114.059034, 10.9101681 ], [ 114.0586759, 10.9111355 ], [ 114.0586102, 10.9115482 ], [ 114.0585911, 10.9123723 ], [ 114.0587497, 10.9131021 ], [ 114.058913, 10.9135774 ], [ 114.0591842, 10.9141239 ], [ 114.0595865, 10.9145769 ], [ 114.0598871, 10.9149249 ], [ 114.0604073, 10.9153249 ], [ 114.0606292, 10.9154029 ], [ 114.0608089, 10.915395 ], [ 114.0609705, 10.9154408 ], [ 114.062421, 10.9163089 ], [ 114.0636688, 10.9170526 ], [ 114.0647652, 10.9176889 ], [ 114.0661365, 10.9184958 ], [ 114.0665086, 10.9188109 ], [ 114.0670672, 10.9198258 ], [ 114.0676808, 10.9208098 ], [ 114.0687489, 10.9225885 ], [ 114.0697702, 10.924323 ], [ 114.0710288, 10.926481 ], [ 114.0717852, 10.9278136 ], [ 114.0724738, 10.9289239 ], [ 114.0730666, 10.9300143 ], [ 114.0739518, 10.9321868 ], [ 114.0748423, 10.9342595 ], [ 114.0747672, 10.9345202 ], [ 114.0748221, 10.934802 ], [ 114.0762746, 10.93718 ], [ 114.0770792, 10.9379832 ], [ 114.0779965, 10.9387417 ], [ 114.0814324, 10.9407089 ], [ 114.0854638, 10.942942 ], [ 114.085614, 10.9429368 ], [ 114.0857776, 10.9429262 ], [ 114.0878295, 10.9440086 ], [ 114.0880039, 10.9442693 ], [ 114.089121, 10.9448723 ], [ 114.0894636, 10.9449734 ], [ 114.089815, 10.9449181 ], [ 114.0903622, 10.9450182 ], [ 114.0905231, 10.9450814 ], [ 114.0909979, 10.9451488 ], [ 114.0912748, 10.9451146 ], [ 114.0915001, 10.9450066 ], [ 114.0926367, 10.9447644 ], [ 114.0934172, 10.9444642 ], [ 114.0939912, 10.9441455 ], [ 114.0948683, 10.9434003 ], [ 114.0951151, 10.9433318 ], [ 114.0959653, 10.9417781 ], [ 114.0968665, 10.940327 ], [ 114.0973923, 10.9393079 ], [ 114.0990163, 10.9374381 ], [ 114.1023476, 10.9350943 ], [ 114.1030343, 10.9346545 ], [ 114.1032301, 10.9342911 ], [ 114.1035064, 10.9330665 ], [ 114.1034554, 10.9327399 ], [ 114.1034018, 10.9325556 ], [ 114.1023476, 10.9312862 ], [ 114.1021036, 10.9311229 ], [ 114.1017361, 10.9310466 ], [ 114.1014732, 10.9311493 ], [ 114.0991773, 10.9327057 ], [ 114.0972908, 10.9340035 ], [ 114.0971254, 10.9341173 ], [ 114.0965836, 10.9347361 ], [ 114.0959091, 10.9353152 ], [ 114.0938115, 10.9367692 ], [ 114.0929559, 10.9371589 ], [ 114.0924269, 10.9375111 ], [ 114.0922226, 10.937224 ], [ 114.0923002, 10.9371694 ], [ 114.0922568, 10.9371 ], [ 114.0891632, 10.9391946 ], [ 114.0890597, 10.9394639 ], [ 114.0879653, 10.9390161 ], [ 114.082113, 10.9366217 ], [ 114.0820849, 10.9366968 ], [ 114.0821855, 10.9367402 ], [ 114.0821148, 10.9368901 ], [ 114.0808538, 10.9363794 ], [ 114.0805587, 10.9361372 ], [ 114.0801457, 10.9353524 ], [ 114.0794644, 10.9343095 ], [ 114.0790004, 10.934004 ], [ 114.0788461, 10.933846 ], [ 114.0786316, 10.9334668 ], [ 114.0778323, 10.9322554 ], [ 114.0766896, 10.9307858 ], [ 114.0756415, 10.9292452 ], [ 114.074855, 10.9280891 ], [ 114.0738679, 10.9263351 ], [ 114.0725751, 10.9241492 ], [ 114.0712877, 10.9220739 ], [ 114.0702845, 10.9203147 ], [ 114.0693297, 10.9186239 ], [ 114.0689062, 10.9179021 ], [ 114.0687989, 10.9176675 ], [ 114.0686739, 10.917351 ], [ 114.0686415, 10.9170737 ], [ 114.0686348, 10.9167623 ], [ 114.0686695, 10.9165176 ], [ 114.0687445, 10.9162949 ], [ 114.0688889, 10.9160046 ] ] ] ] } },
{ "type": "Feature", "properties": { "FID": 515881, "id": 2104, "left": 110.0, "top": 15.0, "right": 115.0, "bottom": 10.0, "row_index": 15, "col_index": 58, "min_lon": 110.0, "min_lat": 10.0, "tile_id": "110_10" }, "geometry": { "type": "MultiPolygon", "coordinates": [ [ [ [ 114.0920637, 10.9121993 ], [ 114.0920231, 10.912231 ], [ 114.0920068, 10.9122943 ], [ 114.0920396, 10.9123412 ], [ 114.0920785, 10.9123268 ], [ 114.0921402, 10.9122306 ], [ 114.0920637, 10.9121993 ] ] ] ] } },
{ "type": "Feature", "properties": { "FID": 515882, "id": 2104, "left": 110.0, "top": 15.0, "right": 115.0, "bottom": 10.0, "row_index": 15, "col_index": 58, "min_lon": 110.0, "min_lat": 10.0, "tile_id": "110_10" }, "geometry": { "type": "MultiPolygon", "coordinates": [ [ [ [ 114.0919903, 10.9148337 ], [ 114.0919594, 10.9148719 ], [ 114.0919608, 10.9149391 ], [ 114.091993, 10.914972 ], [ 114.0920721, 10.9149707 ], [ 114.0921016, 10.9149391 ], [ 114.0921016, 10.9148666 ], [ 114.0920627, 10.9148324 ], [ 114.0919903, 10.9148337 ] ] ] ] } },
{ "type": "Feature", "properties": { "FID": 515883, "id": 2104, "left": 110.0, "top": 15.0, "right": 115.0, "bottom": 10.0, "row_index": 15, "col_index": 58, "min_lon": 110.0, "min_lat": 10.0, "tile_id": "110_10" }, "geometry": { "type": "MultiPolygon", "coordinates": [ [ [ [ 114.0958433, 10.917341 ], [ 114.0958124, 10.9173792 ], [ 114.0958138, 10.9174463 ], [ 114.095846, 10.9174792 ], [ 114.0959251, 10.9174779 ], [ 114.0959546, 10.9174463 ], [ 114.0959546, 10.9173739 ], [ 114.0959157, 10.9173397 ], [ 114.0958433, 10.917341 ] ] ] ] } },
{ "type": "Feature", "properties": { "FID": 529679, "id": 2104, "left": 110.0, "top": 15.0, "right": 115.0, "bottom": 10.0, "row_index": 15, "col_index": 58, "min_lon": 110.0, "min_lat": 10.0, "tile_id": "110_10" }, "geometry": { "type": "MultiPolygon", "coordinates": [ [ [ [ 113.85977, 10.099567 ], [ 113.8598479, 10.0994834 ], [ 113.8598266, 10.0993231 ], [ 113.8598773, 10.0992115 ], [ 113.859998, 10.0991217 ], [ 113.8601938, 10.0989659 ], [ 113.8602447, 10.0987493 ], [ 113.8603145, 10.0984457 ], [ 113.8603681, 10.0981473 ], [ 113.8604003, 10.0979598 ], [ 113.8603118, 10.0977089 ], [ 113.8602877, 10.097466 ], [ 113.8603413, 10.097231 ], [ 113.8603172, 10.0970488 ], [ 113.8601509, 10.0968586 ], [ 113.8599551, 10.0967556 ], [ 113.8597378, 10.0966395 ], [ 113.8595474, 10.0965101 ], [ 113.8593167, 10.0964705 ], [ 113.8591397, 10.0965497 ], [ 113.8590109, 10.0966843 ], [ 113.8588661, 10.0967477 ], [ 113.8586569, 10.0968296 ], [ 113.8584986, 10.0969431 ], [ 113.858394, 10.0971121 ], [ 113.8582975, 10.0972917 ], [ 113.8582519, 10.0974633 ], [ 113.858158, 10.0976007 ], [ 113.8580453, 10.0976984 ], [ 113.8579515, 10.0978278 ], [ 113.8579112, 10.0979994 ], [ 113.8579139, 10.0981737 ], [ 113.8579863, 10.0983955 ], [ 113.8580856, 10.0985698 ], [ 113.858217, 10.0987388 ], [ 113.8583404, 10.0988365 ], [ 113.8584262, 10.0989659 ], [ 113.8585094, 10.0990583 ], [ 113.8586135, 10.0991622 ], [ 113.8584939, 10.099211 ], [ 113.8584915, 10.099303 ], [ 113.8585239, 10.0993739 ], [ 113.8585398, 10.0993989 ], [ 113.8586083, 10.099419 ], [ 113.8586593, 10.0993948 ], [ 113.8586927, 10.0993846 ], [ 113.8587124, 10.0993737 ], [ 113.8588044, 10.0993937 ], [ 113.8589023, 10.0994584 ], [ 113.859023, 10.0995376 ], [ 113.8591585, 10.0995917 ], [ 113.8593905, 10.0996155 ], [ 113.8595688, 10.0996023 ], [ 113.8596497, 10.0995705 ], [ 113.85977, 10.099567 ] ] ] ] } },
{ "type": "Feature", "properties": { "FID": 581531, "id": 2104, "left": 110.0, "top": 15.0, "right": 115.0, "bottom": 10.0, "row_index": 15, "col_index": 58, "min_lon": 110.0, "min_lat": 10.0, "tile_id": "110_10" }, "geometry": { "type": "MultiPolygon", "coordinates": [ [ [ [ 114.3619565, 10.3728974 ], [ 114.361846, 10.3729714 ], [ 114.3617567, 10.3729763 ], [ 114.3616545, 10.3729876 ], [ 114.3615383, 10.3730021 ], [ 114.3615622, 10.373138 ], [ 114.3616733, 10.3731355 ], [ 114.3617452, 10.3731527 ], [ 114.3618519, 10.3732076 ], [ 114.3619272, 10.3732388 ], [ 114.3621259, 10.373341 ], [ 114.3622975, 10.3735118 ], [ 114.3624359, 10.3741444 ], [ 114.3623974, 10.3743212 ], [ 114.3622557, 10.3746057 ], [ 114.3620849, 10.3748232 ], [ 114.3618535, 10.3748349 ], [ 114.36181, 10.3745495 ], [ 114.3615967, 10.3745584 ], [ 114.3613547, 10.3743404 ], [ 114.3611806, 10.3736049 ], [ 114.3610956, 10.3732434 ], [ 114.3613095, 10.3731961 ], [ 114.3612863, 10.3730909 ], [ 114.3609791, 10.3731619 ], [ 114.3610787, 10.373585 ], [ 114.3607953, 10.3736519 ], [ 114.3607607, 10.3734966 ], [ 114.3606928, 10.373513 ], [ 114.3607976, 10.373951 ], [ 114.3607381, 10.3739678 ], [ 114.3606282, 10.3735278 ], [ 114.3603268, 10.3735928 ], [ 114.3601407, 10.3727811 ], [ 114.3600177, 10.3722739 ], [ 114.36172, 10.3715819 ], [ 114.3616411, 10.3714009 ], [ 114.359736, 10.3721787 ], [ 114.3598072, 10.3723525 ], [ 114.359839, 10.3723422 ], [ 114.3600415, 10.3731806 ], [ 114.3600334, 10.3732216 ], [ 114.3600491, 10.3733845 ], [ 114.3600674, 10.3735166 ], [ 114.3599459, 10.3736172 ], [ 114.3598084, 10.3738277 ], [ 114.359737, 10.3739128 ], [ 114.3596018, 10.3740014 ], [ 114.3593456, 10.3740893 ], [ 114.359194, 10.3741222 ], [ 114.3591176, 10.3741383 ], [ 114.3589839, 10.3742259 ], [ 114.3589314, 10.3743809 ], [ 114.3588949, 10.3745888 ], [ 114.3588674, 10.3747832 ], [ 114.3589251, 10.3749938 ], [ 114.3589823, 10.3751517 ], [ 114.3591475, 10.3754394 ], [ 114.3592759, 10.3756717 ], [ 114.3595113, 10.3759679 ], [ 114.3597804, 10.3762312 ], [ 114.3600232, 10.3764165 ], [ 114.3601974, 10.3766199 ], [ 114.3604687, 10.3768182 ], [ 114.3607476, 10.3769575 ], [ 114.3609284, 10.3770517 ], [ 114.3611069, 10.377172 ], [ 114.3613808, 10.3773566 ], [ 114.3615139, 10.3774503 ], [ 114.3617247, 10.3775455 ], [ 114.3621585, 10.3775639 ], [ 114.3623548, 10.3775994 ], [ 114.3625944, 10.3776495 ], [ 114.3628498, 10.3777292 ], [ 114.3632433, 10.3778733 ], [ 114.3636067, 10.3779914 ], [ 114.3641685, 10.3782204 ], [ 114.3648373, 10.3785167 ], [ 114.3653459, 10.3787398 ], [ 114.3657119, 10.3788971 ], [ 114.3668669, 10.3793466 ], [ 114.3671916, 10.3794543 ], [ 114.3676149, 10.3795947 ], [ 114.368557, 10.3798388 ], [ 114.3689447, 10.3799208 ], [ 114.3693202, 10.3800635 ], [ 114.3696209, 10.3800749 ], [ 114.3698971, 10.3800063 ], [ 114.370233, 10.37994 ], [ 114.3705803, 10.3798742 ], [ 114.3708551, 10.3798071 ], [ 114.3709987, 10.3797197 ], [ 114.3711737, 10.3796242 ], [ 114.371314, 10.3795149 ], [ 114.3714097, 10.3793994 ], [ 114.3714298, 10.3791883 ], [ 114.3714863, 10.3789872 ], [ 114.3714922, 10.3787135 ], [ 114.3714019, 10.3783121 ], [ 114.3712681, 10.3781608 ], [ 114.3708869, 10.3777894 ], [ 114.3707141, 10.3776194 ], [ 114.3702973, 10.3772516 ], [ 114.3698189, 10.376967 ], [ 114.3691748, 10.3766097 ], [ 114.3684593, 10.3761101 ], [ 114.3677084, 10.3757223 ], [ 114.36709, 10.3753709 ], [ 114.3667974, 10.3752039 ], [ 114.3660042, 10.374941 ], [ 114.3654386, 10.3747578 ], [ 114.3650027, 10.3745955 ], [ 114.3648317, 10.3745516 ], [ 114.3643879, 10.3745144 ], [ 114.3640401, 10.3744886 ], [ 114.3637125, 10.3743927 ], [ 114.3633939, 10.3741437 ], [ 114.363194, 10.3738895 ], [ 114.3629765, 10.3737122 ], [ 114.362913, 10.3736234 ], [ 114.3628324, 10.3735105 ], [ 114.3626729, 10.3733816 ], [ 114.3625188, 10.3732238 ], [ 114.3623888, 10.3731098 ], [ 114.362289, 10.3730057 ], [ 114.36221, 10.3729374 ], [ 114.3621289, 10.3729022 ], [ 114.3620575, 10.3728778 ], [ 114.3619565, 10.3728974 ] ] ] ] } },
{ "type": "Feature", "properties": { "FID": 654938, "id": 2104, "left": 110.0, "top": 15.0, "right": 115.0, "bottom": 10.0, "row_index": 15, "col_index": 58, "min_lon": 110.0, "min_lat": 10.0, "tile_id": "110_10" }, "geometry": { "type": "MultiPolygon", "coordinates": [ [ [ [ 114.2578527, 11.0760096 ], [ 114.2579198, 11.0760491 ], [ 114.2580003, 11.076057 ], [ 114.2580539, 11.0760438 ], [ 114.2581075, 11.0760307 ], [ 114.2581558, 11.076007 ], [ 114.2582068, 11.0759833 ], [ 114.2582551, 11.0759543 ], [ 114.2582872, 11.0759096 ], [ 114.2583033, 11.0758543 ], [ 114.2583087, 11.0758017 ], [ 114.2583168, 11.0757464 ], [ 114.2583248, 11.0756937 ], [ 114.2583275, 11.0756358 ], [ 114.2583141, 11.0755832 ], [ 114.2582926, 11.0755305 ], [ 114.2582792, 11.0754779 ], [ 114.2582712, 11.0754252 ], [ 114.2582712, 11.07537 ], [ 114.2582712, 11.0753147 ], [ 114.2583087, 11.0752726 ], [ 114.2583543, 11.0752436 ], [ 114.2584053, 11.0752252 ], [ 114.2584562, 11.0752041 ], [ 114.2585099, 11.0751989 ], [ 114.2585662, 11.0752015 ], [ 114.2586225, 11.0752068 ], [ 114.2586762, 11.0752173 ], [ 114.2587298, 11.0752252 ], [ 114.2587835, 11.0752226 ], [ 114.2588317, 11.0751989 ], [ 114.25888, 11.0751752 ], [ 114.2589283, 11.0751515 ], [ 114.2589766, 11.0751225 ], [ 114.2590195, 11.0750857 ], [ 114.2590409, 11.0750357 ], [ 114.2590624, 11.0749857 ], [ 114.2590302, 11.0749409 ], [ 114.2589846, 11.0749172 ], [ 114.2589363, 11.0748935 ], [ 114.2588854, 11.0748751 ], [ 114.2588371, 11.0748567 ], [ 114.2587888, 11.0748356 ], [ 114.2587432, 11.0748119 ], [ 114.2586923, 11.0748067 ], [ 114.2586413, 11.0748014 ], [ 114.2585903, 11.0747988 ], [ 114.2585367, 11.0748067 ], [ 114.258483, 11.0748093 ], [ 114.2584321, 11.0748198 ], [ 114.2583811, 11.0748304 ], [ 114.2583302, 11.0748514 ], [ 114.2582765, 11.0748619 ], [ 114.2582282, 11.0748856 ], [ 114.2581907, 11.0749277 ], [ 114.2581585, 11.0749699 ], [ 114.258121, 11.075012 ], [ 114.2580914, 11.0750567 ], [ 114.2580512, 11.0750962 ], [ 114.258011, 11.0751331 ], [ 114.2579761, 11.0751725 ], [ 114.2579439, 11.075212 ], [ 114.2579144, 11.0752594 ], [ 114.2578849, 11.0753042 ], [ 114.2578554, 11.0753515 ], [ 114.2578313, 11.0753989 ], [ 114.2578071, 11.0754463 ], [ 114.257783, 11.0754937 ], [ 114.2577696, 11.075549 ], [ 114.2577669, 11.0756016 ], [ 114.2577669, 11.0756543 ], [ 114.2577669, 11.0757069 ], [ 114.2577669, 11.0757595 ], [ 114.2577723, 11.0758122 ], [ 114.2577803, 11.0758648 ], [ 114.2578018, 11.0759175 ], [ 114.2578286, 11.0759622 ], [ 114.2578527, 11.0760096 ] ] ] ] } },
{ "type": "Feature", "properties": { "FID": 654940, "id": 2104, "left": 110.0, "top": 15.0, "right": 115.0, "bottom": 10.0, "row_index": 15, "col_index": 58, "min_lon": 110.0, "min_lat": 10.0, "tile_id": "110_10" }, "geometry": { "type": "MultiPolygon", "coordinates": [ [ [ [ 114.5328378, 10.71439 ], [ 114.5328966, 10.7143718 ], [ 114.5329354, 10.7143481 ], [ 114.5329611, 10.7143192 ], [ 114.532979, 10.7142823 ], [ 114.5329889, 10.7142353 ], [ 114.5329864, 10.7141927 ], [ 114.5329765, 10.7141604 ], [ 114.5329441, 10.7141261 ], [ 114.5329027, 10.7141081 ], [ 114.5328623, 10.714107 ], [ 114.5328289, 10.7141197 ], [ 114.5328107, 10.7141406 ], [ 114.5327896, 10.7141696 ], [ 114.5327617, 10.7141837 ], [ 114.5327166, 10.7141894 ], [ 114.5326881, 10.7142021 ], [ 114.5326723, 10.7142271 ], [ 114.5326652, 10.7142731 ], [ 114.5326735, 10.7143199 ], [ 114.5327027, 10.7143541 ], [ 114.5327521, 10.7143809 ], [ 114.5327924, 10.7143893 ], [ 114.5328378, 10.71439 ] ] ] ] } },
{ "type": "Feature", "properties": { "FID": 654941, "id": 2104, "left": 110.0, "top": 15.0, "right": 115.0, "bottom": 10.0, "row_index": 15, "col_index": 58, "min_lon": 110.0, "min_lat": 10.0, "tile_id": "110_10" }, "geometry": { "type": "MultiPolygon", "coordinates": [ [ [ [ 114.3499558, 10.7268261 ], [ 114.3499122, 10.7268017 ], [ 114.3498921, 10.7268011 ], [ 114.3498753, 10.7268096 ], [ 114.3498619, 10.7268281 ], [ 114.3498652, 10.7268525 ], [ 114.3498787, 10.7268716 ], [ 114.3499135, 10.726892 ], [ 114.3499491, 10.7269091 ], [ 114.3499745, 10.7269236 ], [ 114.3499953, 10.726944 ], [ 114.3500128, 10.7269651 ], [ 114.3500295, 10.7269763 ], [ 114.3500543, 10.7269776 ], [ 114.3500664, 10.7269684 ], [ 114.3500738, 10.7269526 ], [ 114.3500738, 10.7269388 ], [ 114.3500664, 10.726917 ], [ 114.350049, 10.726896 ], [ 114.3500074, 10.7268571 ], [ 114.3499558, 10.7268261 ] ] ] ] } },
{ "type": "Feature", "properties": { "FID": 654942, "id": 2104, "left": 110.0, "top": 15.0, "right": 115.0, "bottom": 10.0, "row_index": 15, "col_index": 58, "min_lon": 110.0, "min_lat": 10.0, "tile_id": "110_10" }, "geometry": { "type": "MultiPolygon", "coordinates": [ [ [ [ 114.2195293, 11.0599182 ], [ 114.2195159, 11.059805 ], [ 114.2196071, 11.0598472 ], [ 114.2196634, 11.0598472 ], [ 114.2197064, 11.0598129 ], [ 114.2197332, 11.0597656 ], [ 114.2197332, 11.0597129 ], [ 114.2197278, 11.0596576 ], [ 114.2196822, 11.059626 ], [ 114.2196366, 11.0595971 ], [ 114.219591, 11.0595681 ], [ 114.2195535, 11.0595655 ], [ 114.2194971, 11.0595655 ], [ 114.2193899, 11.0595813 ], [ 114.2193469, 11.0596102 ], [ 114.2193013, 11.0596392 ], [ 114.2192772, 11.0596839 ], [ 114.2192611, 11.059734 ], [ 114.2192611, 11.0597866 ], [ 114.2192665, 11.0598393 ], [ 114.2192772, 11.0598919 ], [ 114.2193013, 11.0599393 ], [ 114.2193335, 11.0599814 ], [ 114.2193684, 11.0600235 ], [ 114.219422, 11.0600393 ], [ 114.2194757, 11.0600235 ], [ 114.2195106, 11.0599867 ], [ 114.2195293, 11.0599182 ] ] ] ] } },
{ "type": "Feature", "properties": { "FID": 658412, "id": 2104, "left": 110.0, "top": 15.0, "right": 115.0, "bottom": 10.0, "row_index": 15, "col_index": 58, "min_lon": 110.0, "min_lat": 10.0, "tile_id": "110_10" }, "geometry": { "type": "MultiPolygon", "coordinates": [ [ [ [ 114.2808945, 11.0556913 ], [ 114.2808013, 11.0554491 ], [ 114.2808405, 11.0554013 ], [ 114.2807833, 11.0552639 ], [ 114.2806441, 11.0553007 ], [ 114.2808546, 11.0558145 ], [ 114.2821847, 11.0558421 ], [ 114.2823727, 11.0556535 ], [ 114.2839546, 11.0558212 ], [ 114.284342, 11.0559333 ], [ 114.2845898, 11.0559616 ], [ 114.2847739, 11.055936 ], [ 114.2849545, 11.0558945 ], [ 114.2855915, 11.0556361 ], [ 114.2860184, 11.055428 ], [ 114.2865924, 11.0550489 ], [ 114.2876974, 11.0543039 ], [ 114.2879806, 11.0541007 ], [ 114.2881845, 11.0539111 ], [ 114.2883574, 11.0537031 ], [ 114.2884243, 11.0535378 ], [ 114.28845, 11.0534056 ], [ 114.2884632, 11.0531917 ], [ 114.2884672, 11.0530087 ], [ 114.2884837, 11.0528654 ], [ 114.2885292, 11.052687 ], [ 114.2886, 11.0525204 ], [ 114.2886931, 11.0523203 ], [ 114.2896758, 11.052402 ], [ 114.2897402, 11.0514991 ], [ 114.2886222, 11.0514069 ], [ 114.2886176, 11.0515229 ], [ 114.2882733, 11.051464 ], [ 114.2881319, 11.0514121 ], [ 114.2879973, 11.0512943 ], [ 114.287802, 11.0511699 ], [ 114.287534, 11.0510421 ], [ 114.2872763, 11.0509804 ], [ 114.2870015, 11.0508994 ], [ 114.2866833, 11.0508667 ], [ 114.2864686, 11.0508562 ], [ 114.2862195, 11.0508514 ], [ 114.2860345, 11.0508461 ], [ 114.2857544, 11.0508116 ], [ 114.2854658, 11.0507645 ], [ 114.2851207, 11.050717 ], [ 114.2848597, 11.0507066 ], [ 114.2845861, 11.0507014 ], [ 114.2842871, 11.0506834 ], [ 114.2839906, 11.050675 ], [ 114.2836396, 11.0506437 ], [ 114.2834464, 11.0506263 ], [ 114.2832423, 11.0506342 ], [ 114.2829929, 11.0506474 ], [ 114.2826916, 11.0506916 ], [ 114.2823668, 11.0508264 ], [ 114.282164, 11.0509594 ], [ 114.277873, 11.0506197 ], [ 114.2778282, 11.051518 ], [ 114.2778271, 11.0515405 ], [ 114.2775482, 11.0515945 ], [ 114.2775965, 11.051813 ], [ 114.2778526, 11.0517735 ], [ 114.2780095, 11.0517788 ], [ 114.2780193, 11.0515609 ], [ 114.2816988, 11.0518333 ], [ 114.2816922, 11.0519038 ], [ 114.2816707, 11.051988 ], [ 114.2816051, 11.0521043 ], [ 114.2813839, 11.0523385 ], [ 114.281105, 11.0526589 ], [ 114.2809172, 11.0528904 ], [ 114.2807143, 11.0532253 ], [ 114.280485, 11.0537524 ], [ 114.2802626, 11.0539124 ], [ 114.2801781, 11.0539795 ], [ 114.2800722, 11.0540335 ], [ 114.2799783, 11.054065 ], [ 114.2798455, 11.0540861 ], [ 114.2796269, 11.0540716 ], [ 114.2796081, 11.0542151 ], [ 114.2798428, 11.0542283 ], [ 114.2799796, 11.0542085 ], [ 114.2801462, 11.0542211 ], [ 114.280288, 11.0542192 ], [ 114.2804791, 11.0541157 ], [ 114.2806583, 11.0540898 ], [ 114.2808734, 11.0539773 ], [ 114.281131, 11.0538298 ], [ 114.2813549, 11.053868 ], [ 114.2816402, 11.0539674 ], [ 114.2818585, 11.0539703 ], [ 114.2821361, 11.0540291 ], [ 114.2820554, 11.055716 ], [ 114.2808945, 11.0556913 ] ] ] ] } },
{ "type": "Feature", "properties": { "FID": 674815, "id": 2104, "left": 110.0, "top": 15.0, "right": 115.0, "bottom": 10.0, "row_index": 15, "col_index": 58, "min_lon": 110.0, "min_lat": 10.0, "tile_id": "110_10" }, "geometry": { "type": "MultiPolygon", "coordinates": [ [ [ [ 114.3009699, 11.3925184 ], [ 114.3023312, 11.3928689 ], [ 114.3030901, 11.3943037 ], [ 114.3032843, 11.3945216 ], [ 114.30359, 11.3945884 ], [ 114.3043925, 11.394191 ], [ 114.3044887, 11.3939503 ], [ 114.3044432, 11.3937222 ], [ 114.3008673, 11.3860963 ], [ 114.3009853, 11.3844871 ], [ 114.3021441, 11.3838349 ], [ 114.2989825, 11.3773496 ], [ 114.2986572, 11.3773875 ], [ 114.2976487, 11.3775768 ], [ 114.2972517, 11.3778503 ], [ 114.2967152, 11.37825 ], [ 114.2961573, 11.3787653 ], [ 114.2959857, 11.3791966 ], [ 114.2961402, 11.3800717 ], [ 114.2987065, 11.3849667 ], [ 114.2990631, 11.3863119 ], [ 114.2987819, 11.3866011 ], [ 114.2987471, 11.3866037 ], [ 114.2986958, 11.386685 ], [ 114.2987055, 11.3867155 ], [ 114.2987301, 11.386813 ], [ 114.2987703, 11.3868455 ], [ 114.2985043, 11.3874057 ], [ 114.2983738, 11.3874111 ], [ 114.2982947, 11.387515 ], [ 114.2983037, 11.3875993 ], [ 114.2983969, 11.3876408 ], [ 114.2985493, 11.3876207 ], [ 114.3009699, 11.3925184 ] ] ] ] } },
{ "type": "Feature", "properties": { "FID": 674824, "id": 2104, "left": 110.0, "top": 15.0, "right": 115.0, "bottom": 10.0, "row_index": 15, "col_index": 58, "min_lon": 110.0, "min_lat": 10.0, "tile_id": "110_10" }, "geometry": { "type": "MultiPolygon", "coordinates": [ [ [ [ 114.3516389, 10.7282578 ], [ 114.3515949, 10.7282729 ], [ 114.3515755, 10.7282871 ], [ 114.3515664, 10.7283052 ], [ 114.3515715, 10.72832 ], [ 114.3515852, 10.7283289 ], [ 114.3516093, 10.7283345 ], [ 114.3516449, 10.7283312 ], [ 114.3516821, 10.7283263 ], [ 114.3517824, 10.7283197 ], [ 114.3518729, 10.7283151 ], [ 114.3519077, 10.7283236 ], [ 114.3519386, 10.7283474 ], [ 114.3519533, 10.7283737 ], [ 114.3519574, 10.7284053 ], [ 114.3519614, 10.7284297 ], [ 114.3519795, 10.7284613 ], [ 114.3520023, 10.7284778 ], [ 114.3520452, 10.728487 ], [ 114.3520875, 10.7284831 ], [ 114.3521404, 10.7284831 ], [ 114.3522055, 10.7284923 ], [ 114.3522423, 10.7285023 ], [ 114.352404, 10.7285733 ], [ 114.3525937, 10.7285782 ], [ 114.3528101, 10.7286897 ], [ 114.3530792, 10.7287014 ], [ 114.3536435, 10.7285996 ], [ 114.3540255, 10.7287035 ], [ 114.3541789, 10.7286718 ], [ 114.3541312, 10.7285189 ], [ 114.3539618, 10.728351 ], [ 114.3536576, 10.7282838 ], [ 114.3530604, 10.7282018 ], [ 114.3526296, 10.728153 ], [ 114.3523582, 10.7281494 ], [ 114.352181, 10.7281683 ], [ 114.352005, 10.7281919 ], [ 114.3519651, 10.7281954 ], [ 114.3518548, 10.7282051 ], [ 114.3516389, 10.7282578 ] ] ] ] } },
{ "type": "Feature", "properties": { "FID": 674825, "id": 2104, "left": 110.0, "top": 15.0, "right": 115.0, "bottom": 10.0, "row_index": 15, "col_index": 58, "min_lon": 110.0, "min_lat": 10.0, "tile_id": "110_10" }, "geometry": { "type": "MultiPolygon", "coordinates": [ [ [ [ 114.5931664, 10.7689379 ], [ 114.5930377, 10.7690775 ], [ 114.5929787, 10.7691935 ], [ 114.5929411, 10.769312 ], [ 114.5929357, 10.769399 ], [ 114.5929599, 10.7694517 ], [ 114.5930055, 10.7694754 ], [ 114.5930618, 10.7694754 ], [ 114.5931262, 10.7694412 ], [ 114.5931905, 10.76937 ], [ 114.5932603, 10.7692699 ], [ 114.5932898, 10.7691882 ], [ 114.5933032, 10.769125 ], [ 114.59333, 10.7690512 ], [ 114.5933837, 10.7690038 ], [ 114.5934427, 10.7689669 ], [ 114.5934749, 10.7689273 ], [ 114.5934856, 10.7688641 ], [ 114.5934615, 10.7688219 ], [ 114.5934212, 10.7688009 ], [ 114.5933542, 10.7688009 ], [ 114.5932938, 10.7688193 ], [ 114.5931664, 10.7689379 ] ] ] ] } },
{ "type": "Feature", "properties": { "FID": 674826, "id": 2104, "left": 110.0, "top": 15.0, "right": 115.0, "bottom": 10.0, "row_index": 15, "col_index": 58, "min_lon": 110.0, "min_lat": 10.0, "tile_id": "110_10" }, "geometry": { "type": "MultiPolygon", "coordinates": [ [ [ [ 114.4576693, 10.6768125 ], [ 114.4576612, 10.6768461 ], [ 114.4576579, 10.6768744 ], [ 114.4576612, 10.6769166 ], [ 114.45767, 10.676962 ], [ 114.4576847, 10.6769983 ], [ 114.4577068, 10.677027 ], [ 114.4577309, 10.6770484 ], [ 114.4577625, 10.6770629 ], [ 114.457791, 10.6770665 ], [ 114.4578221, 10.6770642 ], [ 114.4578496, 10.677055 ], [ 114.4578711, 10.6770444 ], [ 114.4578999, 10.677021 ], [ 114.4579137, 10.6769983 ], [ 114.4579204, 10.6769742 ], [ 114.4579217, 10.6769469 ], [ 114.4579174, 10.6769106 ], [ 114.4579066, 10.6768658 ], [ 114.4578872, 10.6768362 ], [ 114.4578409, 10.6767973 ], [ 114.4577987, 10.6767703 ], [ 114.4577578, 10.6767604 ], [ 114.4577175, 10.6767637 ], [ 114.4576914, 10.6767762 ], [ 114.4576693, 10.6768125 ] ] ] ] } },
{ "type": "Feature", "properties": { "FID": 679563, "id": 2104, "left": 110.0, "top": 15.0, "right": 115.0, "bottom": 10.0, "row_index": 15, "col_index": 58, "min_lon": 110.0, "min_lat": 10.0, "tile_id": "110_10" }, "geometry": { "type": "MultiPolygon", "coordinates": [ [ [ [ 114.2066467, 11.0556511 ], [ 114.2066842, 11.055609 ], [ 114.206652, 11.0555669 ], [ 114.2066225, 11.0555221 ], [ 114.2065769, 11.0554905 ], [ 114.2065233, 11.0554984 ], [ 114.2064697, 11.055501 ], [ 114.2064187, 11.0554826 ], [ 114.2063704, 11.0554616 ], [ 114.2063248, 11.0554273 ], [ 114.2062899, 11.0553852 ], [ 114.2062765, 11.0553326 ], [ 114.2062417, 11.0552904 ], [ 114.206188, 11.0552747 ], [ 114.2061344, 11.0552747 ], [ 114.2060807, 11.0552773 ], [ 114.2060298, 11.0552747 ], [ 114.2059815, 11.055251 ], [ 114.2059359, 11.0552273 ], [ 114.2058876, 11.0551957 ], [ 114.205842, 11.0551641 ], [ 114.2057964, 11.0551904 ], [ 114.2058098, 11.0552431 ], [ 114.205842, 11.0552852 ], [ 114.2058715, 11.0553326 ], [ 114.2059198, 11.0553563 ], [ 114.2059761, 11.0553721 ], [ 114.2060298, 11.0553931 ], [ 114.2060834, 11.055401 ], [ 114.2061371, 11.0554063 ], [ 114.2061907, 11.0554168 ], [ 114.206239, 11.0554484 ], [ 114.2062792, 11.0554879 ], [ 114.2063302, 11.0555195 ], [ 114.2063731, 11.0555563 ], [ 114.2064214, 11.0555853 ], [ 114.2064723, 11.0556063 ], [ 114.2065287, 11.0556327 ], [ 114.2065743, 11.0556616 ], [ 114.2066467, 11.0556511 ] ] ] ] } },
{ "type": "Feature", "properties": { "FID": 679603, "id": 2104, "left": 110.0, "top": 15.0, "right": 115.0, "bottom": 10.0, "row_index": 15, "col_index": 58, "min_lon": 110.0, "min_lat": 10.0, "tile_id": "110_10" }, "geometry": { "type": "MultiPolygon", "coordinates": [ [ [ [ 114.5867323, 10.4102884 ], [ 114.5868512, 10.4102694 ], [ 114.5869165, 10.4101651 ], [ 114.5869071, 10.4100529 ], [ 114.5868123, 10.4099785 ], [ 114.5867595, 10.4099818 ], [ 114.5866859, 10.4100052 ], [ 114.5866171, 10.4101108 ], [ 114.5866403, 10.4102354 ], [ 114.5867323, 10.4102884 ] ] ] ] } },
{ "type": "Feature", "properties": { "FID": 715124, "id": 2104, "left": 110.0, "top": 15.0, "right": 115.0, "bottom": 10.0, "row_index": 15, "col_index": 58, "min_lon": 110.0, "min_lat": 10.0, "tile_id": "110_10" }, "geometry": { "type": "MultiPolygon", "coordinates": [ [ [ [ 114.4782768, 10.3758136 ], [ 114.4780853, 10.3751957 ], [ 114.4777001, 10.374817 ], [ 114.4774068, 10.3745585 ], [ 114.4774184, 10.3742947 ], [ 114.4772484, 10.3742908 ], [ 114.4772395, 10.3745836 ], [ 114.4769764, 10.3745507 ], [ 114.4769245, 10.3744029 ], [ 114.476808, 10.3744353 ], [ 114.4764999, 10.3746799 ], [ 114.4764421, 10.3748602 ], [ 114.4765165, 10.3751408 ], [ 114.4764756, 10.375156 ], [ 114.4763859, 10.3748798 ], [ 114.4762471, 10.3749263 ], [ 114.4765679, 10.3759792 ], [ 114.4766125, 10.3761515 ], [ 114.4768836, 10.3771269 ], [ 114.4770098, 10.3775638 ], [ 114.4770565, 10.3777772 ], [ 114.477114, 10.3779724 ], [ 114.4771921, 10.3783993 ], [ 114.4772472, 10.3785763 ], [ 114.4773172, 10.3787577 ], [ 114.4773827, 10.3789614 ], [ 114.4775044, 10.3792254 ], [ 114.4777267, 10.3795995 ], [ 114.4779926, 10.3798391 ], [ 114.4786091, 10.3801318 ], [ 114.479342, 10.3801792 ], [ 114.4800422, 10.3799614 ], [ 114.4806001, 10.3794996 ], [ 114.4810502, 10.3789255 ], [ 114.4833568, 10.3750859 ], [ 114.4834027, 10.3748378 ], [ 114.4835075, 10.3745321 ], [ 114.4835133, 10.3740998 ], [ 114.4834216, 10.3732219 ], [ 114.4830301, 10.3723585 ], [ 114.4821422, 10.3716165 ], [ 114.4818962, 10.3712675 ], [ 114.4809814, 10.3708416 ], [ 114.4798608, 10.3709445 ], [ 114.4787629, 10.371265 ], [ 114.4782675, 10.3714896 ], [ 114.47847, 10.3716938 ], [ 114.4787914, 10.3722875 ], [ 114.4789922, 10.3729144 ], [ 114.4793376, 10.3729496 ], [ 114.4802507, 10.3726327 ], [ 114.4806732, 10.3728127 ], [ 114.4809434, 10.372979 ], [ 114.4809543, 10.3730679 ], [ 114.4808962, 10.3731639 ], [ 114.4806316, 10.3732183 ], [ 114.4802304, 10.3734013 ], [ 114.4798686, 10.373682 ], [ 114.479464, 10.374038 ], [ 114.4790416, 10.3746752 ], [ 114.4788104, 10.3750439 ], [ 114.4786582, 10.3751218 ], [ 114.4786207, 10.3751857 ], [ 114.4786187, 10.3753902 ], [ 114.4785381, 10.3757731 ], [ 114.4782768, 10.3758136 ] ] ] ] } },
{ "type": "Feature", "properties": { "FID": 715125, "id": 2104, "left": 110.0, "top": 15.0, "right": 115.0, "bottom": 10.0, "row_index": 15, "col_index": 58, "min_lon": 110.0, "min_lat": 10.0, "tile_id": "110_10" }, "geometry": { "type": "MultiPolygon", "coordinates": [ [ [ [ 113.852756, 10.0283471 ], [ 113.852402, 10.0284369 ], [ 113.8517636, 10.0285954 ], [ 113.8510126, 10.0286165 ], [ 113.8506746, 10.0286693 ], [ 113.8501865, 10.0286958 ], [ 113.8497466, 10.0287116 ], [ 113.8493657, 10.0287222 ], [ 113.8489097, 10.0286218 ], [ 113.8486308, 10.0283313 ], [ 113.8485128, 10.0280196 ], [ 113.8484752, 10.02756 ], [ 113.8484645, 10.0270159 ], [ 113.8484269, 10.026625 ], [ 113.8482714, 10.0261866 ], [ 113.8481533, 10.0257851 ], [ 113.8480353, 10.0251671 ], [ 113.8479227, 10.0246758 ], [ 113.8478905, 10.0241739 ], [ 113.8479119, 10.0237461 ], [ 113.8478744, 10.0233182 ], [ 113.847751, 10.0228903 ], [ 113.8475418, 10.022362 ], [ 113.8474292, 10.0219764 ], [ 113.847295, 10.0214217 ], [ 113.8471878, 10.020941 ], [ 113.8470858, 10.0205554 ], [ 113.8470054, 10.0200694 ], [ 113.8470161, 10.0195517 ], [ 113.8470161, 10.0192031 ], [ 113.8469678, 10.0188914 ], [ 113.8468713, 10.0184952 ], [ 113.8468337, 10.0182258 ], [ 113.8468337, 10.0178137 ], [ 113.8468659, 10.0174862 ], [ 113.8471405, 10.0176964 ], [ 113.8470715, 10.0181145 ], [ 113.8474932, 10.0178627 ], [ 113.8468713, 10.0171957 ], [ 113.8468015, 10.0169738 ], [ 113.8466299, 10.0167836 ], [ 113.8463509, 10.0167308 ], [ 113.8460612, 10.0167308 ], [ 113.8458037, 10.0167413 ], [ 113.8457072, 10.0168364 ], [ 113.8457447, 10.0169051 ], [ 113.8459003, 10.0169421 ], [ 113.8461739, 10.0170002 ], [ 113.8463697, 10.0170636 ], [ 113.8464837, 10.0171375 ], [ 113.8465051, 10.0172551 ], [ 113.846485, 10.0173436 ], [ 113.8464475, 10.0174756 ], [ 113.8463851, 10.0176988 ], [ 113.8465816, 10.0178454 ], [ 113.8466245, 10.018062 ], [ 113.846603, 10.0182627 ], [ 113.8465601, 10.0184899 ], [ 113.8465869, 10.0187699 ], [ 113.8466942, 10.0192136 ], [ 113.8466942, 10.0195623 ], [ 113.8467586, 10.0200694 ], [ 113.8468498, 10.0205343 ], [ 113.8469142, 10.0209093 ], [ 113.8470161, 10.0214217 ], [ 113.8472146, 10.0220081 ], [ 113.8473701, 10.0224254 ], [ 113.8475525, 10.0229378 ], [ 113.8476705, 10.023334 ], [ 113.8477242, 10.0237461 ], [ 113.8477081, 10.0241792 ], [ 113.8476974, 10.0247497 ], [ 113.8477564, 10.025278 ], [ 113.8479495, 10.0258115 ], [ 113.8480353, 10.0262605 ], [ 113.8481909, 10.0266567 ], [ 113.8482338, 10.0270265 ], [ 113.8482284, 10.0275389 ], [ 113.8482606, 10.0280407 ], [ 113.8483196, 10.0282996 ], [ 113.8484538, 10.0284739 ], [ 113.8486147, 10.0286377 ], [ 113.8488454, 10.0287803 ], [ 113.8493496, 10.0289018 ], [ 113.8497359, 10.0288912 ], [ 113.8502026, 10.0288648 ], [ 113.8506585, 10.028849 ], [ 113.8510394, 10.0288305 ], [ 113.8514122, 10.0288199 ], [ 113.8518548, 10.0287565 ], [ 113.8523215, 10.028672 ], [ 113.8526621, 10.0286535 ], [ 113.852866, 10.0287037 ], [ 113.8529763, 10.0287829 ], [ 113.8529706, 10.0290127 ], [ 113.8530779, 10.029879 ], [ 113.8530671, 10.0314109 ], [ 113.8531208, 10.0326576 ], [ 113.8531423, 10.0337458 ], [ 113.8531208, 10.0346596 ], [ 113.8531047, 10.0357319 ], [ 113.8530886, 10.0366669 ], [ 113.8530886, 10.037623 ], [ 113.8530671, 10.0385844 ], [ 113.8532603, 10.0391337 ], [ 113.8536465, 10.0395246 ], [ 113.8541615, 10.0396091 ], [ 113.8547623, 10.0393873 ], [ 113.8551485, 10.0390809 ], [ 113.8553631, 10.0383625 ], [ 113.8557601, 10.0376336 ], [ 113.856318, 10.0366616 ], [ 113.856672, 10.035827 ], [ 113.8571012, 10.0348022 ], [ 113.8575196, 10.033957 ], [ 113.8577235, 10.0332386 ], [ 113.8577235, 10.0324991 ], [ 113.8576805, 10.0314532 ], [ 113.8575625, 10.0304284 ], [ 113.8573265, 10.0295515 ], [ 113.8569617, 10.0284422 ], [ 113.8566613, 10.0275759 ], [ 113.8565004, 10.026868 ], [ 113.8562506, 10.0260967 ], [ 113.8562279, 10.0250895 ], [ 113.8562107, 10.0238676 ], [ 113.8560869, 10.0233301 ], [ 113.8559959, 10.0229023 ], [ 113.8556287, 10.0225859 ], [ 113.8553641, 10.0224591 ], [ 113.8552194, 10.0219918 ], [ 113.8553727, 10.0218538 ], [ 113.8556223, 10.0215333 ], [ 113.855781, 10.0215483 ], [ 113.8560669, 10.0216106 ], [ 113.8557651, 10.0212372 ], [ 113.8553991, 10.0214318 ], [ 113.8552344, 10.0217387 ], [ 113.854934, 10.0216859 ], [ 113.854818, 10.0217557 ], [ 113.8547521, 10.0220694 ], [ 113.8541864, 10.0222346 ], [ 113.8537716, 10.0222975 ], [ 113.8535714, 10.0226948 ], [ 113.8533783, 10.0233604 ], [ 113.8531131, 10.023931 ], [ 113.8533418, 10.0241443 ], [ 113.8533228, 10.0245375 ], [ 113.8534856, 10.0248818 ], [ 113.8534319, 10.0254629 ], [ 113.8534357, 10.0264604 ], [ 113.8531423, 10.0265933 ], [ 113.8531959, 10.0273329 ], [ 113.8530993, 10.028083 ], [ 113.852756, 10.0283471 ] ] ] ] } },
{ "type": "Feature", "properties": { "FID": 715386, "id": 2104, "left": 110.0, "top": 15.0, "right": 115.0, "bottom": 10.0, "row_index": 15, "col_index": 58, "min_lon": 110.0, "min_lat": 10.0, "tile_id": "110_10" }, "geometry": { "type": "MultiPolygon", "coordinates": [ [ [ [ 114.368733, 10.178303 ], [ 114.3686185, 10.1782693 ], [ 114.3685023, 10.1782422 ], [ 114.3683846, 10.178222 ], [ 114.3682659, 10.1782086 ], [ 114.3681706, 10.1782029 ], [ 114.3680753, 10.1782065 ], [ 114.3679807, 10.1782193 ], [ 114.367888, 10.1782412 ], [ 114.3677978, 10.178272 ], [ 114.367721, 10.1783064 ], [ 114.3676476, 10.1783473 ], [ 114.3675865, 10.1783794 ], [ 114.3675218, 10.1784037 ], [ 114.3674545, 10.1784198 ], [ 114.3674313, 10.1784234 ], [ 114.3674089, 10.1784304 ], [ 114.3673849, 10.1784425 ], [ 114.3673635, 10.1784585 ], [ 114.3673452, 10.178478 ], [ 114.3672772, 10.1785193 ], [ 114.3672102, 10.178552 ], [ 114.3671405, 10.1785786 ], [ 114.3670686, 10.178599 ], [ 114.3668748, 10.1786399 ], [ 114.3666792, 10.1786713 ], [ 114.3664822, 10.1786931 ], [ 114.3663491, 10.1787023 ], [ 114.3663033, 10.1787074 ], [ 114.3662582, 10.1787172 ], [ 114.3661992, 10.178738 ], [ 114.3661354, 10.1787553 ], [ 114.3660705, 10.1787683 ], [ 114.3660033, 10.1787773 ], [ 114.3659357, 10.1787817 ], [ 114.3658679, 10.1787815 ], [ 114.3657674, 10.1788092 ], [ 114.3656514, 10.178849 ], [ 114.3655337, 10.1788838 ], [ 114.3654147, 10.1789135 ], [ 114.3652869, 10.1789396 ], [ 114.3651581, 10.1789598 ], [ 114.3650284, 10.1789742 ], [ 114.3648667, 10.1789969 ], [ 114.3647066, 10.1790284 ], [ 114.364553, 10.1790672 ], [ 114.3644018, 10.1791142 ], [ 114.3643618, 10.1791323 ], [ 114.36432, 10.1791458 ], [ 114.364271, 10.1791556 ], [ 114.3642211, 10.179159 ], [ 114.3640789, 10.1791636 ], [ 114.3639368, 10.1791709 ], [ 114.3637576, 10.179184 ], [ 114.3635787, 10.1792013 ], [ 114.3635306, 10.1792038 ], [ 114.3634826, 10.1791995 ], [ 114.3634357, 10.1791885 ], [ 114.363391, 10.1791709 ], [ 114.3633513, 10.1791486 ], [ 114.3632609, 10.1790891 ], [ 114.3631868, 10.1790223 ], [ 114.3630763, 10.1790252 ], [ 114.3630107, 10.1790811 ], [ 114.3597032, 10.179088 ], [ 114.3596935, 10.1791873 ], [ 114.359716, 10.1792652 ], [ 114.3601478, 10.1797297 ], [ 114.3626086, 10.1797185 ], [ 114.362644, 10.1834472 ], [ 114.3609456, 10.1834514 ], [ 114.357317, 10.1827334 ], [ 114.3532638, 10.1827006 ], [ 114.3533077, 10.1797586 ], [ 114.3582623, 10.1797586 ], [ 114.3584977, 10.1792866 ], [ 114.3584512, 10.1791842 ], [ 114.3563005, 10.1792222 ], [ 114.3533023, 10.1792244 ], [ 114.3509216, 10.1793932 ], [ 114.3494314, 10.1796857 ], [ 114.3486696, 10.1800342 ], [ 114.3483263, 10.1802771 ], [ 114.3480227, 10.1807016 ], [ 114.3480184, 10.1815063 ], [ 114.3482202, 10.1819963 ], [ 114.3486879, 10.1824767 ], [ 114.34919, 10.1827471 ], [ 114.3502468, 10.1830354 ], [ 114.3516501, 10.1832645 ], [ 114.3531747, 10.1833036 ], [ 114.355405, 10.1833179 ], [ 114.3573042, 10.18333 ], [ 114.358169, 10.1834831 ], [ 114.3598394, 10.1837745 ], [ 114.3608308, 10.1839593 ], [ 114.3625892, 10.1839625 ], [ 114.3630828, 10.1838485 ], [ 114.3641242, 10.1836185 ], [ 114.365573, 10.1833062 ], [ 114.3669904, 10.1829709 ], [ 114.3687591, 10.182493 ], [ 114.3697582, 10.1822209 ], [ 114.3699182, 10.181872 ], [ 114.370167, 10.18135 ], [ 114.3701504, 10.1803464 ], [ 114.3699821, 10.1799059 ], [ 114.3697947, 10.1794524 ], [ 114.3695951, 10.1792063 ], [ 114.3692166, 10.1787476 ], [ 114.3690794, 10.1785399 ], [ 114.3689227, 10.1784 ], [ 114.368733, 10.178303 ] ] ] ] } },
{ "type": "Feature", "properties": { "FID": 720862, "id": 2104, "left": 110.0, "top": 15.0, "right": 115.0, "bottom": 10.0, "row_index": 15, "col_index": 58, "min_lon": 110.0, "min_lat": 10.0, "tile_id": "110_10" }, "geometry": { "type": "MultiPolygon", "coordinates": [ [ [ [ 113.8458359, 10.0122669 ], [ 113.8458681, 10.0120662 ], [ 113.8458091, 10.0118073 ], [ 113.845734, 10.0115907 ], [ 113.8457447, 10.0112949 ], [ 113.8456535, 10.0110519 ], [ 113.845396, 10.0108828 ], [ 113.8450795, 10.0108723 ], [ 113.8446397, 10.0109357 ], [ 113.8444465, 10.0111523 ], [ 113.8443339, 10.0116488 ], [ 113.8443017, 10.0119447 ], [ 113.8442963, 10.0121507 ], [ 113.8443795, 10.0123567 ], [ 113.8445377, 10.0126129 ], [ 113.8446638, 10.0128005 ], [ 113.8448086, 10.0130276 ], [ 113.8449535, 10.0132442 ], [ 113.8451359, 10.0134159 ], [ 113.8453075, 10.0135031 ], [ 113.8454953, 10.013511 ], [ 113.8456133, 10.0134502 ], [ 113.8457367, 10.0133499 ], [ 113.8458064, 10.0131861 ], [ 113.8457823, 10.0129642 ], [ 113.8457206, 10.0127529 ], [ 113.8457206, 10.0126209 ], [ 113.8457823, 10.0124624 ], [ 113.8458359, 10.0122669 ] ] ] ] } },
{ "type": "Feature", "properties": { "FID": 760725, "id": 2104, "left": 110.0, "top": 15.0, "right": 115.0, "bottom": 10.0, "row_index": 15, "col_index": 58, "min_lon": 110.0, "min_lat": 10.0, "tile_id": "110_10" }, "geometry": { "type": "MultiPolygon", "coordinates": [ [ [ [ 113.8456576, 10.0148317 ], [ 113.8454416, 10.0148924 ], [ 113.8451989, 10.0149215 ], [ 113.8449267, 10.0149135 ], [ 113.8448837, 10.0149611 ], [ 113.8448998, 10.0150007 ], [ 113.8450286, 10.0150139 ], [ 113.8452673, 10.0150245 ], [ 113.845498, 10.0150218 ], [ 113.8456777, 10.0150218 ], [ 113.8458091, 10.0149901 ], [ 113.8458359, 10.01494 ], [ 113.8458239, 10.0148686 ], [ 113.8457702, 10.0148356 ], [ 113.8456576, 10.0148317 ] ] ] ] } },
{ "type": "Feature", "properties": { "FID": 760726, "id": 2104, "left": 110.0, "top": 15.0, "right": 115.0, "bottom": 10.0, "row_index": 15, "col_index": 58, "min_lon": 110.0, "min_lat": 10.0, "tile_id": "110_10" }, "geometry": { "type": "MultiPolygon", "coordinates": [ [ [ [ 113.8551056, 10.0188491 ], [ 113.8548213, 10.0186431 ], [ 113.8546121, 10.0185163 ], [ 113.8543171, 10.018379 ], [ 113.8540703, 10.0182839 ], [ 113.8539952, 10.0183314 ], [ 113.854022, 10.0184371 ], [ 113.8542044, 10.018548 ], [ 113.8544619, 10.0187435 ], [ 113.8547945, 10.0190287 ], [ 113.8550466, 10.0193351 ], [ 113.8552666, 10.0196151 ], [ 113.8554919, 10.0197419 ], [ 113.855744, 10.0200324 ], [ 113.8560283, 10.0203864 ], [ 113.8563502, 10.0206769 ], [ 113.8566452, 10.0210203 ], [ 113.8569939, 10.0213953 ], [ 113.8572138, 10.0215115 ], [ 113.8573989, 10.0215195 ], [ 113.8574794, 10.0214244 ], [ 113.8574552, 10.0212712 ], [ 113.8572246, 10.0210784 ], [ 113.8569617, 10.0208407 ], [ 113.8568813, 10.0207086 ], [ 113.8569349, 10.0205607 ], [ 113.8571066, 10.020455 ], [ 113.8574284, 10.0205131 ], [ 113.8577503, 10.020418 ], [ 113.8580453, 10.0202067 ], [ 113.8581043, 10.0199637 ], [ 113.8581204, 10.0197207 ], [ 113.8580131, 10.0195728 ], [ 113.8579917, 10.0194144 ], [ 113.8579541, 10.0192031 ], [ 113.8577771, 10.0190763 ], [ 113.8574713, 10.0190234 ], [ 113.8572085, 10.0190868 ], [ 113.8571441, 10.0192981 ], [ 113.8572192, 10.0194725 ], [ 113.8572138, 10.0196045 ], [ 113.8571441, 10.0197524 ], [ 113.8569188, 10.0198264 ], [ 113.8567203, 10.0199796 ], [ 113.8564628, 10.020043 ], [ 113.8562536, 10.0200747 ], [ 113.8560927, 10.0199849 ], [ 113.8559103, 10.019726 ], [ 113.8558245, 10.01952 ], [ 113.855626, 10.019351 ], [ 113.8553792, 10.0190393 ], [ 113.8551056, 10.0188491 ] ] ] ] } },
{ "type": "Feature", "properties": { "FID": 791311, "id": 2104, "left": 110.0, "top": 15.0, "right": 115.0, "bottom": 10.0, "row_index": 15, "col_index": 58, "min_lon": 110.0, "min_lat": 10.0, "tile_id": "110_10" }, "geometry": { "type": "MultiPolygon", "coordinates": [ [ [ [ 114.0957262, 10.9150872 ], [ 114.0957653, 10.9150814 ], [ 114.0958062, 10.9150201 ], [ 114.0957898, 10.914976 ], [ 114.0957344, 10.9149416 ], [ 114.0956556, 10.914945 ], [ 114.0956246, 10.9149702 ], [ 114.0956299, 10.9150488 ], [ 114.0956421, 10.9150757 ], [ 114.0957262, 10.9150872 ] ] ] ] } }
]
}
