{
"type": "FeatureCollection",
"name": "110_5",
"crs": { "type": "name", "properties": { "name": "urn:ogc:def:crs:OGC:1.3:CRS84" } },
"xy_coordinate_resolution": 1e-15,
"features": [
{ "type": "Feature", "properties": { "FID": 266581, "id": 2105, "left": 110.0, "top": 10.0, "right": 115.0, "bottom": 5.0, "row_index": 16, "col_index": 58, "min_lon": 110.0, "min_lat": 5.0, "tile_id": "110_5" }, "geometry": { "type": "MultiPolygon", "coordinates": [ [ [ [ 114.3703121, 9.779303 ], [ 114.3702574, 9.7793592 ], [ 114.3702231, 9.7794113 ], [ 114.3702286, 9.7794418 ], [ 114.3702438, 9.7795175 ], [ 114.3702858, 9.7795854 ], [ 114.3703615, 9.7795957 ], [ 114.3704511, 9.7795794 ], [ 114.3704952, 9.7795241 ], [ 114.3705223, 9.7794575 ], [ 114.3705087, 9.779341 ], [ 114.3704061, 9.7792808 ], [ 114.3703121, 9.779303 ] ] ] ] } },
{ "type": "Feature", "properties": { "FID": 332644, "id": 2105, "left": 110.0, "top": 10.0, "right": 115.0, "bottom": 5.0, "row_index": 16, "col_index": 58, "min_lon": 110.0, "min_lat": 5.0, "tile_id": "110_5" }, "geometry": { "type": "MultiPolygon", "coordinates": [ [ [ [ 112.3513949, 8.9287573 ], [ 112.3508263, 8.9281002 ], [ 112.3503113, 8.927761 ], [ 112.349689, 8.9273901 ], [ 112.3491418, 8.9270191 ], [ 112.3489863, 8.9267595 ], [ 112.34882, 8.9266694 ], [ 112.3487341, 8.9267966 ], [ 112.3487771, 8.9270562 ], [ 112.3506761, 8.9281479 ], [ 112.3507136, 8.9283175 ], [ 112.3505044, 8.928609 ], [ 112.350204, 8.9291495 ], [ 112.3507619, 8.9297271 ], [ 112.350617, 8.9297165 ], [ 112.3501235, 8.9295681 ], [ 112.3498446, 8.9293986 ], [ 112.3496085, 8.9293138 ], [ 112.3493671, 8.9293138 ], [ 112.3488414, 8.9289004 ], [ 112.3485571, 8.9287096 ], [ 112.3484927, 8.9288262 ], [ 112.3486215, 8.9289958 ], [ 112.3491365, 8.9293456 ], [ 112.3496675, 8.9295734 ], [ 112.3497695, 8.9296741 ], [ 112.3496836, 8.9299709 ], [ 112.3494744, 8.9302995 ], [ 112.349512, 8.9305538 ], [ 112.3493081, 8.9307658 ], [ 112.3489165, 8.9314865 ], [ 112.3487502, 8.9315183 ], [ 112.3483962, 8.9313752 ], [ 112.3478275, 8.9310944 ], [ 112.3475701, 8.9309513 ], [ 112.3472375, 8.9307181 ], [ 112.3470926, 8.9305432 ], [ 112.3469907, 8.9303472 ], [ 112.3467654, 8.9302624 ], [ 112.3465186, 8.9300504 ], [ 112.346229, 8.9298172 ], [ 112.3461109, 8.9296158 ], [ 112.346068, 8.9294145 ], [ 112.3461324, 8.9291707 ], [ 112.3461056, 8.9289375 ], [ 112.346245, 8.9287732 ], [ 112.3463148, 8.9286196 ], [ 112.3464757, 8.9284129 ], [ 112.3465669, 8.9282221 ], [ 112.3466742, 8.9281055 ], [ 112.3468512, 8.9279571 ], [ 112.3470014, 8.9277504 ], [ 112.3471087, 8.9274908 ], [ 112.3473448, 8.9273371 ], [ 112.3475486, 8.9270668 ], [ 112.3476183, 8.9268654 ], [ 112.347613, 8.9265051 ], [ 112.3475593, 8.9261023 ], [ 112.3474145, 8.9260705 ], [ 112.3472911, 8.9261182 ], [ 112.3471731, 8.9262189 ], [ 112.3471731, 8.9264309 ], [ 112.347216, 8.9266535 ], [ 112.3471945, 8.9269608 ], [ 112.3470819, 8.9271834 ], [ 112.3466796, 8.9277346 ], [ 112.3464167, 8.9280525 ], [ 112.3461378, 8.9283705 ], [ 112.3459554, 8.9286513 ], [ 112.3459393, 8.9288421 ], [ 112.3458427, 8.9291071 ], [ 112.3457783, 8.9293721 ], [ 112.3458427, 8.9296423 ], [ 112.3459178, 8.9298861 ], [ 112.3461109, 8.930061 ], [ 112.3462182, 8.930326 ], [ 112.3462397, 8.9306439 ], [ 112.3463041, 8.9308082 ], [ 112.3466849, 8.9310891 ], [ 112.3471624, 8.9313646 ], [ 112.347334, 8.9314229 ], [ 112.3474467, 8.9314865 ], [ 112.3475915, 8.9316455 ], [ 112.3480797, 8.9320112 ], [ 112.3485571, 8.9322443 ], [ 112.3487288, 8.9324616 ], [ 112.348879, 8.9325517 ], [ 112.3498768, 8.9331346 ], [ 112.3507351, 8.9335056 ], [ 112.3514593, 8.9335798 ], [ 112.3520601, 8.9335215 ], [ 112.3528057, 8.9334314 ], [ 112.3530096, 8.9333095 ], [ 112.3535192, 8.9328644 ], [ 112.3538169, 8.9325543 ], [ 112.3538786, 8.9323954 ], [ 112.3539779, 8.9322337 ], [ 112.3540691, 8.9320986 ], [ 112.3542273, 8.9319052 ], [ 112.3544311, 8.931884 ], [ 112.3545384, 8.9318045 ], [ 112.3546028, 8.931672 ], [ 112.3545867, 8.9315024 ], [ 112.3544848, 8.9314017 ], [ 112.3542407, 8.9312825 ], [ 112.3540957, 8.9311779 ], [ 112.3539175, 8.9310374 ], [ 112.3537096, 8.9307976 ], [ 112.353487, 8.9305035 ], [ 112.3532268, 8.9302836 ], [ 112.3530096, 8.9301113 ], [ 112.3528433, 8.929902 ], [ 112.3527145, 8.92969 ], [ 112.3524463, 8.929441 ], [ 112.3521137, 8.9292025 ], [ 112.3516148, 8.9289375 ], [ 112.3513949, 8.9287573 ] ] ] ] } },
{ "type": "Feature", "properties": { "FID": 339279, "id": 2105, "left": 110.0, "top": 10.0, "right": 115.0, "bottom": 5.0, "row_index": 16, "col_index": 58, "min_lon": 110.0, "min_lat": 5.0, "tile_id": "110_5" }, "geometry": { "type": "MultiPolygon", "coordinates": [ [ [ [ 112.2572251, 8.8694098 ], [ 112.2573302, 8.8694407 ], [ 112.2573787, 8.8695646 ], [ 112.2574371, 8.8696323 ], [ 112.2575524, 8.8697039 ], [ 112.2576778, 8.8697943 ], [ 112.2577875, 8.8698165 ], [ 112.2579289, 8.8698086 ], [ 112.2581088, 8.8697738 ], [ 112.2582418, 8.8697188 ], [ 112.2583383, 8.8696773 ], [ 112.2584, 8.8696429 ], [ 112.2584376, 8.8696045 ], [ 112.2584751, 8.8695011 ], [ 112.2584644, 8.8694004 ], [ 112.2584693, 8.8693077 ], [ 112.2584697, 8.8692215 ], [ 112.2584624, 8.8691075 ], [ 112.258349, 8.8686861 ], [ 112.2581963, 8.8685118 ], [ 112.2580237, 8.8682086 ], [ 112.258026, 8.867843 ], [ 112.2580316, 8.8676057 ], [ 112.2580609, 8.8676049 ], [ 112.2580583, 8.8675755 ], [ 112.2580252, 8.8675754 ], [ 112.2580152, 8.8675005 ], [ 112.2576864, 8.8661992 ], [ 112.2575884, 8.865855 ], [ 112.2576195, 8.8658403 ], [ 112.2576026, 8.865809 ], [ 112.2575748, 8.8658221 ], [ 112.2575454, 8.8657688 ], [ 112.2573917, 8.8654832 ], [ 112.2572483, 8.8652775 ], [ 112.2570423, 8.8650142 ], [ 112.2570593, 8.8649922 ], [ 112.2570355, 8.8649741 ], [ 112.2570183, 8.8649916 ], [ 112.2568326, 8.864903 ], [ 112.2567619, 8.8648475 ], [ 112.2564927, 8.8645877 ], [ 112.2563034, 8.8644114 ], [ 112.2562759, 8.8643839 ], [ 112.2562067, 8.8643783 ], [ 112.2561873, 8.864352 ], [ 112.2561715, 8.864301 ], [ 112.2561278, 8.8642623 ], [ 112.2560719, 8.864254 ], [ 112.2560525, 8.8642494 ], [ 112.2560264, 8.8642521 ], [ 112.2559958, 8.8642614 ], [ 112.2559919, 8.864263 ], [ 112.2559804, 8.8642664 ], [ 112.2559774, 8.8642742 ], [ 112.2559821, 8.8643013 ], [ 112.255953, 8.8643253 ], [ 112.2559403, 8.8643472 ], [ 112.2559473, 8.8643879 ], [ 112.2559823, 8.8644737 ], [ 112.2559945, 8.8644889 ], [ 112.2559998, 8.8645632 ], [ 112.2560027, 8.8646031 ], [ 112.2559953, 8.8646816 ], [ 112.2559686, 8.8649415 ], [ 112.2559672, 8.8651777 ], [ 112.2558816, 8.8653368 ], [ 112.2558695, 8.8653368 ], [ 112.2558479, 8.8654158 ], [ 112.2558532, 8.8654159 ], [ 112.2558633, 8.8656008 ], [ 112.2558922, 8.8656103 ], [ 112.2559082, 8.8657863 ], [ 112.2558606, 8.8657962 ], [ 112.2558726, 8.8658427 ], [ 112.2559237, 8.8658324 ], [ 112.2559461, 8.865888 ], [ 112.2559559, 8.8659187 ], [ 112.255969, 8.865962 ], [ 112.2559777, 8.8660282 ], [ 112.2560754, 8.8663608 ], [ 112.2558418, 8.8664838 ], [ 112.256252, 8.8672963 ], [ 112.2562824, 8.8673424 ], [ 112.2564374, 8.8677965 ], [ 112.2564852, 8.8677746 ], [ 112.2565052, 8.8677955 ], [ 112.2565418, 8.8677854 ], [ 112.2565373, 8.8677592 ], [ 112.2566295, 8.8677695 ], [ 112.2567524, 8.8677533 ], [ 112.2567632, 8.8678369 ], [ 112.256697, 8.8678698 ], [ 112.2566016, 8.8679097 ], [ 112.2565591, 8.8679289 ], [ 112.2565643, 8.8679772 ], [ 112.2564975, 8.8680043 ], [ 112.2565092, 8.868076 ], [ 112.2565881, 8.8683317 ], [ 112.2567218, 8.868765 ], [ 112.2568889, 8.8693063 ], [ 112.255809, 8.8693461 ], [ 112.255809, 8.8692633 ], [ 112.2553716, 8.8692779 ], [ 112.2548984, 8.8692938 ], [ 112.2548971, 8.8693587 ], [ 112.2541125, 8.8693779 ], [ 112.2533038, 8.8673307 ], [ 112.253269, 8.8672445 ], [ 112.2532353, 8.8672555 ], [ 112.2532006, 8.8672684 ], [ 112.2540642, 8.8694534 ], [ 112.2569137, 8.8693869 ], [ 112.2572251, 8.8694098 ] ] ] ] } },
{ "type": "Feature", "properties": { "FID": 355430, "id": 2105, "left": 110.0, "top": 10.0, "right": 115.0, "bottom": 5.0, "row_index": 16, "col_index": 58, "min_lon": 110.0, "min_lat": 5.0, "tile_id": "110_5" }, "geometry": { "type": "MultiPolygon", "coordinates": [ [ [ [ 114.2856914, 9.7136731 ], [ 114.2855868, 9.7137841 ], [ 114.2855841, 9.713911 ], [ 114.286023, 9.716055 ], [ 114.285925, 9.716406 ], [ 114.285829, 9.716568 ], [ 114.2856753, 9.7166526 ], [ 114.285627, 9.7165601 ], [ 114.2855385, 9.7166367 ], [ 114.2856594, 9.7168439 ], [ 114.2859086, 9.7172712 ], [ 114.2859837, 9.7172316 ], [ 114.2861661, 9.7172236 ], [ 114.2861849, 9.7170492 ], [ 114.2863378, 9.7170201 ], [ 114.2873892, 9.7164755 ], [ 114.2881376, 9.7161926 ], [ 114.2884755, 9.715997 ], [ 114.2886311, 9.7158304 ], [ 114.288792, 9.7156295 ], [ 114.2888725, 9.7154576 ], [ 114.2888886, 9.7151219 ], [ 114.288827, 9.714865 ], [ 114.288748, 9.714613 ], [ 114.288598, 9.714372 ], [ 114.2883468, 9.7141093 ], [ 114.2880759, 9.7138159 ], [ 114.2877097, 9.7135132 ], [ 114.2875394, 9.7134167 ], [ 114.2874053, 9.7133796 ], [ 114.2871854, 9.7133876 ], [ 114.2858872, 9.7136202 ], [ 114.2856914, 9.7136731 ] ] ] ] } },
{ "type": "Feature", "properties": { "FID": 360534, "id": 2105, "left": 110.0, "top": 10.0, "right": 115.0, "bottom": 5.0, "row_index": 16, "col_index": 58, "min_lon": 110.0, "min_lat": 5.0, "tile_id": "110_5" }, "geometry": { "type": "MultiPolygon", "coordinates": [ [ [ [ 112.8977757, 9.5583329 ], [ 112.8932333, 9.5538731 ], [ 112.8960985, 9.5510423 ], [ 112.8959052, 9.550847 ], [ 112.8959777, 9.5507388 ], [ 112.8960631, 9.5506233 ], [ 112.8961285, 9.5505453 ], [ 112.8962671, 9.5504116 ], [ 112.8962811, 9.5503398 ], [ 112.8962744, 9.5503134 ], [ 112.8963518, 9.5503109 ], [ 112.8967465, 9.5503046 ], [ 112.8968094, 9.5503862 ], [ 112.897136, 9.5503786 ], [ 112.8972993, 9.5503411 ], [ 112.8975688, 9.5503261 ], [ 112.8977481, 9.5503701 ], [ 112.8978052, 9.5504392 ], [ 112.8978492, 9.5505267 ], [ 112.8982392, 9.5507301 ], [ 112.8984472, 9.5509035 ], [ 112.8985095, 9.5510947 ], [ 112.8992509, 9.5515777 ], [ 112.9002667, 9.5526234 ], [ 112.9007499, 9.5531802 ], [ 112.900952, 9.5536655 ], [ 112.9013134, 9.5539936 ], [ 112.9024524, 9.5548715 ], [ 112.9031969, 9.5555774 ], [ 112.9036784, 9.5558047 ], [ 112.903757, 9.5558418 ], [ 112.9046205, 9.5567346 ], [ 112.9050528, 9.5571771 ], [ 112.9052439, 9.5572848 ], [ 112.9053895, 9.5573154 ], [ 112.9055466, 9.5573227 ], [ 112.9056608, 9.557357 ], [ 112.9057706, 9.5573944 ], [ 112.9058415, 9.5574617 ], [ 112.9058635, 9.5575978 ], [ 112.9059132, 9.5576253 ], [ 112.9059554, 9.5576642 ], [ 112.9059526, 9.5577593 ], [ 112.9060022, 9.5578079 ], [ 112.906098, 9.5578247 ], [ 112.9061923, 9.5577581 ], [ 112.9061914, 9.5576051 ], [ 112.9061567, 9.5574907 ], [ 112.9060868, 9.5574188 ], [ 112.9061382, 9.5571344 ], [ 112.906231, 9.5569688 ], [ 112.9063222, 9.5567704 ], [ 112.9063705, 9.5566118 ], [ 112.9063893, 9.5564716 ], [ 112.906392, 9.5562812 ], [ 112.906341, 9.5560855 ], [ 112.9062471, 9.5559109 ], [ 112.9061211, 9.5557945 ], [ 112.9057348, 9.5555935 ], [ 112.9029775, 9.5545565 ], [ 112.9025591, 9.5543767 ], [ 112.8981364, 9.5501542 ], [ 112.8975034, 9.5492125 ], [ 112.896806, 9.5486782 ], [ 112.8948104, 9.5470701 ], [ 112.888695, 9.5427427 ], [ 112.8868724, 9.541518 ], [ 112.8832953, 9.5397704 ], [ 112.8824444, 9.5393463 ], [ 112.8823063, 9.5393315 ], [ 112.8821618, 9.539335 ], [ 112.8820124, 9.5394019 ], [ 112.8818787, 9.5394992 ], [ 112.8817806, 9.5396152 ], [ 112.881545, 9.539965 ], [ 112.8813106, 9.5403131 ], [ 112.8810765, 9.5403459 ], [ 112.8808722, 9.5402501 ], [ 112.8806407, 9.5401042 ], [ 112.8804509, 9.5399685 ], [ 112.8803815, 9.5398641 ], [ 112.8803555, 9.5397458 ], [ 112.8803514, 9.5396626 ], [ 112.8803548, 9.5396323 ], [ 112.8803613, 9.539589 ], [ 112.8805225, 9.5396102 ], [ 112.8805253, 9.5395886 ], [ 112.8805394, 9.539481 ], [ 112.8805892, 9.5394872 ], [ 112.8807301, 9.5385624 ], [ 112.880639, 9.5385138 ], [ 112.8805783, 9.5384553 ], [ 112.8804819, 9.5383734 ], [ 112.8804219, 9.5383053 ], [ 112.8803983, 9.538289 ], [ 112.8804868, 9.5380093 ], [ 112.8805263, 9.5378955 ], [ 112.8805551, 9.5377907 ], [ 112.8805465, 9.5377585 ], [ 112.880513, 9.5377507 ], [ 112.8804852, 9.5377673 ], [ 112.880474, 9.5378439 ], [ 112.8804284, 9.5379789 ], [ 112.8803237, 9.5382667 ], [ 112.8802598, 9.5382493 ], [ 112.8800191, 9.5382163 ], [ 112.879849, 9.5382002 ], [ 112.8794627, 9.5381652 ], [ 112.8792791, 9.5381363 ], [ 112.8789759, 9.538059 ], [ 112.8780867, 9.537762 ], [ 112.8776457, 9.53766 ], [ 112.8773925, 9.5376494 ], [ 112.8771044, 9.5377588 ], [ 112.8769874, 9.5378267 ], [ 112.8761544, 9.53862 ], [ 112.8760272, 9.5387949 ], [ 112.8757823, 9.5388401 ], [ 112.8756152, 9.5388689 ], [ 112.8754905, 9.538928 ], [ 112.875224, 9.5391531 ], [ 112.8751269, 9.5393321 ], [ 112.8756727, 9.5398512 ], [ 112.8768945, 9.5431368 ], [ 112.8815013, 9.5477234 ], [ 112.8816561, 9.5478421 ], [ 112.8820352, 9.5479862 ], [ 112.8829884, 9.5486479 ], [ 112.8840556, 9.5495613 ], [ 112.8846332, 9.5501466 ], [ 112.884954, 9.550278 ], [ 112.8862673, 9.551729 ], [ 112.8863532, 9.552258 ], [ 112.8867179, 9.5527024 ], [ 112.8879225, 9.5534181 ], [ 112.8885823, 9.5540212 ], [ 112.897836, 9.5631622 ], [ 112.8978199, 9.5634003 ], [ 112.8983265, 9.5636499 ], [ 112.8988629, 9.5637769 ], [ 112.8993377, 9.5636321 ], [ 112.8996267, 9.5635137 ], [ 112.9000438, 9.5639082 ], [ 112.9001564, 9.5638006 ], [ 112.8997233, 9.5633713 ], [ 112.9000113, 9.5630756 ], [ 112.9001296, 9.5629109 ], [ 112.9003605, 9.562688 ], [ 112.9004608, 9.5624198 ], [ 112.9004711, 9.5620522 ], [ 112.9005015, 9.5619364 ], [ 112.9005792, 9.5618271 ], [ 112.9007332, 9.561605 ], [ 112.9010283, 9.5612902 ], [ 112.9014181, 9.5608279 ], [ 112.9021888, 9.5599264 ], [ 112.9023114, 9.5598789 ], [ 112.902648, 9.5597429 ], [ 112.9029309, 9.5597033 ], [ 112.903046, 9.5595703 ], [ 112.9029094, 9.5594373 ], [ 112.9029226, 9.5591945 ], [ 112.9029231, 9.5590726 ], [ 112.9029096, 9.5589369 ], [ 112.902875, 9.5586875 ], [ 112.9027604, 9.5584802 ], [ 112.9026122, 9.5582819 ], [ 112.9026427, 9.5582079 ], [ 112.902529, 9.5581173 ], [ 112.9024564, 9.558191 ], [ 112.9023922, 9.5582123 ], [ 112.9022071, 9.5580726 ], [ 112.9019738, 9.5579501 ], [ 112.9017807, 9.5579059 ], [ 112.9015947, 9.5578656 ], [ 112.9015228, 9.5578176 ], [ 112.9014346, 9.5577804 ], [ 112.9013024, 9.5577731 ], [ 112.9011778, 9.5577922 ], [ 112.9010236, 9.5578465 ], [ 112.9008132, 9.5579301 ], [ 112.9005712, 9.5577162 ], [ 112.9006255, 9.5576779 ], [ 112.9005805, 9.5575952 ], [ 112.9004616, 9.5576089 ], [ 112.8977757, 9.5583329 ] ] ] ] } },
{ "type": "Feature", "properties": { "FID": 365578, "id": 2105, "left": 110.0, "top": 10.0, "right": 115.0, "bottom": 5.0, "row_index": 16, "col_index": 58, "min_lon": 110.0, "min_lat": 5.0, "tile_id": "110_5" }, "geometry": { "type": "MultiPolygon", "coordinates": [ [ [ [ 114.9327756, 5.0000918 ], [ 114.93284, 5.0001692 ], [ 114.9329326, 5.0002093 ], [ 114.9331015, 5.0002521 ], [ 114.9332826, 5.0002614 ], [ 114.9334462, 5.0002748 ], [ 114.9335964, 5.0002922 ], [ 114.9338271, 5.0003376 ], [ 114.9340792, 5.0004284 ], [ 114.9342307, 5.000554 ], [ 114.9343032, 5.0006315 ], [ 114.9344198, 5.0008052 ], [ 114.9345513, 5.0008987 ], [ 114.934735, 5.0009521 ], [ 114.9348825, 5.0009588 ], [ 114.9352097, 5.0009989 ], [ 114.9354914, 5.001055 ], [ 114.935663, 5.0011044 ], [ 114.9358535, 5.001206 ], [ 114.9359353, 5.0012902 ], [ 114.9359836, 5.0013823 ], [ 114.9360439, 5.0015159 ], [ 114.9361163, 5.0015841 ], [ 114.9362129, 5.0016255 ], [ 114.9363349, 5.0016722 ], [ 114.9365053, 5.001691 ], [ 114.9366836, 5.001695 ], [ 114.9369398, 5.001727 ], [ 114.9372455, 5.0017925 ], [ 114.9374266, 5.0018606 ], [ 114.9375339, 5.0019274 ], [ 114.9376144, 5.0020637 ], [ 114.9377055, 5.0022427 ], [ 114.9377954, 5.0023162 ], [ 114.9379161, 5.002367 ], [ 114.938136, 5.002395 ], [ 114.938305, 5.0023857 ], [ 114.9386792, 5.0024257 ], [ 114.938926, 5.0024872 ], [ 114.9391137, 5.002558 ], [ 114.9392304, 5.0026382 ], [ 114.9393068, 5.0027317 ], [ 114.9393739, 5.0028626 ], [ 114.9394892, 5.0029695 ], [ 114.9396501, 5.0030296 ], [ 114.9399157, 5.0030617 ], [ 114.9401356, 5.0030644 ], [ 114.9404347, 5.0031071 ], [ 114.9406318, 5.0031592 ], [ 114.9408263, 5.003242 ], [ 114.9409242, 5.0033275 ], [ 114.9409953, 5.0034678 ], [ 114.9410596, 5.003552 ], [ 114.9411844, 5.0036322 ], [ 114.9413829, 5.0037003 ], [ 114.9416162, 5.0037217 ], [ 114.9419501, 5.0037243 ], [ 114.942215, 5.0037397 ], [ 114.942378, 5.0037818 ], [ 114.9425208, 5.0038539 ], [ 114.9426395, 5.0039969 ], [ 114.942736, 5.0041465 ], [ 114.9428353, 5.0042467 ], [ 114.9429359, 5.0042975 ], [ 114.9430512, 5.0043189 ], [ 114.9431907, 5.0043082 ], [ 114.9434347, 5.0043015 ], [ 114.9437231, 5.0043416 ], [ 114.9439672, 5.0043883 ], [ 114.9441724, 5.0044538 ], [ 114.9442716, 5.0045366 ], [ 114.9443628, 5.0046742 ], [ 114.9444607, 5.0048452 ], [ 114.9445452, 5.0049281 ], [ 114.9446645, 5.0049762 ], [ 114.9447919, 5.0049855 ], [ 114.9449515, 5.0049722 ], [ 114.9452104, 5.0049802 ], [ 114.9453713, 5.0050002 ], [ 114.9456207, 5.0050577 ], [ 114.9458125, 5.0051245 ], [ 114.9459855, 5.0052607 ], [ 114.9460807, 5.005417 ], [ 114.9461974, 5.005556 ], [ 114.9463262, 5.0056281 ], [ 114.9464402, 5.0056482 ], [ 114.9465568, 5.0056415 ], [ 114.9467392, 5.0055854 ], [ 114.9468707, 5.0055747 ], [ 114.9471281, 5.0056188 ], [ 114.947328, 5.0056735 ], [ 114.9475814, 5.0057711 ], [ 114.9476874, 5.0058686 ], [ 114.9477343, 5.0059728 ], [ 114.9477652, 5.0061037 ], [ 114.9478161, 5.0061892 ], [ 114.9478979, 5.006232 ], [ 114.9480662, 5.0062641 ], [ 114.9481849, 5.006256 ], [ 114.9482869, 5.0062093 ], [ 114.948421, 5.0061719 ], [ 114.9486221, 5.0061745 ], [ 114.94883, 5.0062266 ], [ 114.9492015, 5.0063215 ], [ 114.949341, 5.0064017 ], [ 114.9494134, 5.0064925 ], [ 114.9494724, 5.0066168 ], [ 114.9495327, 5.0067023 ], [ 114.9496052, 5.0067637 ], [ 114.9497728, 5.0068145 ], [ 114.9510589, 5.0071966 ], [ 114.9522673, 5.0076575 ], [ 114.9528292, 5.0079367 ], [ 114.9530008, 5.0079875 ], [ 114.9531189, 5.0080008 ], [ 114.9532369, 5.0079848 ], [ 114.9534541, 5.0079527 ], [ 114.9536473, 5.0079581 ], [ 114.9538779, 5.0080008 ], [ 114.9541435, 5.0080703 ], [ 114.9544063, 5.0082093 ], [ 114.9545458, 5.0083642 ], [ 114.9546316, 5.008578 ], [ 114.9547067, 5.0086501 ], [ 114.9548382, 5.0086795 ], [ 114.9549776, 5.0086394 ], [ 114.9552754, 5.008586 ], [ 114.9554524, 5.0085887 ], [ 114.9558493, 5.0087169 ], [ 114.9561015, 5.0088318 ], [ 114.9562195, 5.0089948 ], [ 114.9563093, 5.0092193 ], [ 114.956371, 5.0092767 ], [ 114.9564488, 5.0093088 ], [ 114.9565454, 5.0093195 ], [ 114.9566513, 5.009278 ], [ 114.9568579, 5.0091992 ], [ 114.9570657, 5.0091965 ], [ 114.9572736, 5.0092513 ], [ 114.9575955, 5.009425 ], [ 114.957802, 5.0096361 ], [ 114.9578959, 5.0098926 ], [ 114.9579254, 5.0101491 ], [ 114.9579844, 5.0102293 ], [ 114.9581024, 5.010272 ], [ 114.9581882, 5.010264 ], [ 114.9583036, 5.0101838 ], [ 114.9585476, 5.0100796 ], [ 114.9587515, 5.0100609 ], [ 114.9590184, 5.0101023 ], [ 114.9591699, 5.0101625 ], [ 114.9593282, 5.0102586 ], [ 114.9594274, 5.0103802 ], [ 114.9595065, 5.0105967 ], [ 114.9595454, 5.010781 ], [ 114.9596004, 5.0108438 ], [ 114.9596608, 5.0108638 ], [ 114.9597251, 5.0108665 ], [ 114.9598002, 5.0108398 ], [ 114.9599893, 5.0106755 ], [ 114.9601302, 5.0106087 ], [ 114.9602911, 5.010582 ], [ 114.9604735, 5.0105953 ], [ 114.9607819, 5.0106755 ], [ 114.9610287, 5.0108331 ], [ 114.9611843, 5.0110709 ], [ 114.9612567, 5.0113515 ], [ 114.9613211, 5.011445 ], [ 114.961431, 5.0114878 ], [ 114.9615437, 5.011453 ], [ 114.9616234, 5.0113096 ], [ 114.9616747, 5.0112066 ], [ 114.9618045, 5.0111541 ], [ 114.9620074, 5.0111219 ], [ 114.9622494, 5.0111568 ], [ 114.9625271, 5.011283 ], [ 114.9626702, 5.011441 ], [ 114.9627466, 5.0115572 ], [ 114.9627949, 5.0117483 ], [ 114.9628365, 5.0119714 ], [ 114.96287, 5.0120302 ], [ 114.9629143, 5.0120555 ], [ 114.9629746, 5.0120569 ], [ 114.9630404, 5.0120315 ], [ 114.9633113, 5.0117456 ], [ 114.963444, 5.0117002 ], [ 114.9635983, 5.0116801 ], [ 114.9638236, 5.0117042 ], [ 114.9640663, 5.011767 ], [ 114.9643922, 5.0120141 ], [ 114.9645075, 5.0122493 ], [ 114.9645397, 5.0125699 ], [ 114.9645638, 5.0127062 ], [ 114.9645907, 5.0127569 ], [ 114.9646524, 5.0127649 ], [ 114.964714, 5.0127275 ], [ 114.9648482, 5.0125378 ], [ 114.9650118, 5.0123829 ], [ 114.9652827, 5.0123348 ], [ 114.9654838, 5.0123401 ], [ 114.9657494, 5.0123935 ], [ 114.965921, 5.0125111 ], [ 114.9661276, 5.0127275 ], [ 114.9662107, 5.0128798 ], [ 114.9662375, 5.0130228 ], [ 114.9662362, 5.0131631 ], [ 114.9662107, 5.013318 ], [ 114.9662013, 5.0133741 ], [ 114.9662241, 5.0134142 ], [ 114.9662845, 5.0134236 ], [ 114.9663314, 5.0133902 ], [ 114.9664333, 5.0132112 ], [ 114.9665903, 5.0130255 ], [ 114.9667928, 5.0129159 ], [ 114.9669671, 5.0128985 ], [ 114.9672326, 5.0129132 ], [ 114.9674405, 5.0129734 ], [ 114.9677744, 5.0132673 ], [ 114.9679035, 5.0134124 ], [ 114.9679588, 5.0135013 ], [ 114.9680352, 5.0135215 ], [ 114.9681279, 5.0134607 ], [ 114.9684436, 5.0134308 ], [ 114.9687749, 5.0134035 ], [ 114.9692792, 5.0134944 ], [ 114.9699926, 5.0136921 ], [ 114.9707141, 5.0138979 ], [ 114.9716744, 5.0142666 ], [ 114.9729511, 5.0147983 ], [ 114.9746731, 5.0155678 ], [ 114.9757272, 5.0161102 ], [ 114.977181, 5.0167916 ], [ 114.9779883, 5.0171656 ], [ 114.9785462, 5.0173794 ], [ 114.9792007, 5.0175771 ], [ 114.98, 5.017863 ], [ 114.9810326, 5.0183092 ], [ 114.9823925, 5.0189238 ], [ 114.9837175, 5.0195196 ], [ 114.9851713, 5.0201849 ], [ 114.985882, 5.0205109 ], [ 114.9872151, 5.0210934 ], [ 114.9878696, 5.0213739 ], [ 114.9885643, 5.0216358 ], [ 114.9891168, 5.0217987 ], [ 114.9897632, 5.0219858 ], [ 114.9899992, 5.0220072 ], [ 114.9900979, 5.0220047 ], [ 114.9902173, 5.0219526 ], [ 114.9903029, 5.0219222 ], [ 114.9903442, 5.0219695 ], [ 114.9904192, 5.0220423 ], [ 114.9905196, 5.0220756 ], [ 114.9907754, 5.0221229 ], [ 114.9909643, 5.0221702 ], [ 114.9911481, 5.0223064 ], [ 114.9911714, 5.0225629 ], [ 114.9913913, 5.0227553 ], [ 114.9919331, 5.0229958 ], [ 114.9929255, 5.0234126 ], [ 114.9946314, 5.0240699 ], [ 114.9974531, 5.0251547 ], [ 115.0, 5.026110315026926 ], [ 115.0, 5.0 ], [ 114.932755447184604, 5.0 ], [ 114.9327756, 5.0000918 ] ] ] ] } },
{ "type": "Feature", "properties": { "FID": 366717, "id": 2105, "left": 110.0, "top": 10.0, "right": 115.0, "bottom": 5.0, "row_index": 16, "col_index": 58, "min_lon": 110.0, "min_lat": 5.0, "tile_id": "110_5" }, "geometry": { "type": "MultiPolygon", "coordinates": [ [ [ [ 114.4962523, 9.9079381 ], [ 114.4962226, 9.9079152 ], [ 114.4961965, 9.9078958 ], [ 114.496161, 9.9078833 ], [ 114.4961187, 9.907874 ], [ 114.4960905, 9.9078578 ], [ 114.4960691, 9.9078401 ], [ 114.496057, 9.9078301 ], [ 114.4960532, 9.9078234 ], [ 114.4960271, 9.9077972 ], [ 114.496008, 9.907762 ], [ 114.4960031, 9.9077308 ], [ 114.4959901, 9.9077066 ], [ 114.4959701, 9.9076893 ], [ 114.495953, 9.9076803 ], [ 114.4959338, 9.9076777 ], [ 114.4959183, 9.9076512 ], [ 114.4959121, 9.9076293 ], [ 114.4958928, 9.9075822 ], [ 114.4958775, 9.9075633 ], [ 114.4958692, 9.9075444 ], [ 114.4958616, 9.9075264 ], [ 114.4958673, 9.9075014 ], [ 114.4958974, 9.9074707 ], [ 114.4959105, 9.9074574 ], [ 114.495932, 9.9074222 ], [ 114.4959323, 9.9074164 ], [ 114.4959309, 9.9074123 ], [ 114.4958941, 9.9073739 ], [ 114.4958887, 9.9073729 ], [ 114.4958829, 9.9073727 ], [ 114.495877, 9.9073736 ], [ 114.495871, 9.9073765 ], [ 114.4958347, 9.9074171 ], [ 114.4957868, 9.9074706 ], [ 114.4957563, 9.9074767 ], [ 114.4957258, 9.9074742 ], [ 114.4956918, 9.9074585 ], [ 114.4956684, 9.9074325 ], [ 114.4954051, 9.9070905 ], [ 114.4949349, 9.906499 ], [ 114.4948923, 9.9064454 ], [ 114.4948332, 9.9065002 ], [ 114.4948748, 9.9065515 ], [ 114.4954459, 9.9072711 ], [ 114.4954458, 9.9072862 ], [ 114.4954406, 9.9073012 ], [ 114.4953999, 9.907341 ], [ 114.4953308, 9.9073906 ], [ 114.4953039, 9.9074378 ], [ 114.4952913, 9.9074949 ], [ 114.4952844, 9.9076093 ], [ 114.4952946, 9.9077769 ], [ 114.495321, 9.9078467 ], [ 114.4953784, 9.9079179 ], [ 114.4954462, 9.9079637 ], [ 114.4954841, 9.9079892 ], [ 114.4955607, 9.9080784 ], [ 114.4956468, 9.9082232 ], [ 114.495614, 9.9082347 ], [ 114.4955946, 9.9082511 ], [ 114.4955814, 9.9082428 ], [ 114.4955585, 9.9082657 ], [ 114.4955643, 9.908274 ], [ 114.4955234, 9.9083319 ], [ 114.4954998, 9.9083986 ], [ 114.4954166, 9.9088755 ], [ 114.4953484, 9.9092584 ], [ 114.495297, 9.9095778 ], [ 114.4952653, 9.9097419 ], [ 114.4952665, 9.909833 ], [ 114.4952812, 9.9098786 ], [ 114.4953099, 9.9099241 ], [ 114.4953483, 9.9099641 ], [ 114.4953868, 9.909995 ], [ 114.4954425, 9.9100202 ], [ 114.4955018, 9.9100373 ], [ 114.4966319, 9.910236 ], [ 114.4966546, 9.9102345 ], [ 114.4966773, 9.9102224 ], [ 114.4966916, 9.9101989 ], [ 114.496695, 9.9101784 ], [ 114.4969606, 9.9102186 ], [ 114.4969933, 9.9102099 ], [ 114.4970244, 9.9101922 ], [ 114.4970794, 9.9101479 ], [ 114.4971216, 9.9100576 ], [ 114.4971501, 9.9099299 ], [ 114.4973321, 9.9089052 ], [ 114.4973517, 9.9088678 ], [ 114.4973816, 9.9088325 ], [ 114.4974225, 9.9088021 ], [ 114.4974737, 9.9087817 ], [ 114.4976542, 9.9087679 ], [ 114.4998041, 9.9086062 ], [ 114.4998852, 9.9086118 ], [ 114.4999354, 9.9086206 ], [ 114.4999759, 9.9086408 ], [ 114.5000092, 9.9086756 ], [ 114.5000294, 9.9087062 ], [ 114.5000421, 9.9087371 ], [ 114.5000521, 9.9087726 ], [ 114.5000537, 9.908876 ], [ 114.5000555, 9.9089896 ], [ 114.5000583, 9.9091778 ], [ 114.5000576, 9.909272 ], [ 114.5004578, 9.9092791 ], [ 114.500794, 9.9092724 ], [ 114.5007929, 9.909013 ], [ 114.5007896, 9.9087578 ], [ 114.5007849, 9.9087139 ], [ 114.5007673, 9.9086712 ], [ 114.5007425, 9.9086344 ], [ 114.4998426, 9.9080061 ], [ 114.4998114, 9.9079945 ], [ 114.4997784, 9.9079863 ], [ 114.4997104, 9.9079804 ], [ 114.499168, 9.9080174 ], [ 114.4984745, 9.9080657 ], [ 114.4981251, 9.9080907 ], [ 114.497939, 9.9081041 ], [ 114.4977669, 9.9081157 ], [ 114.4977617, 9.9080828 ], [ 114.4977488, 9.9080653 ], [ 114.4977243, 9.9080513 ], [ 114.4963589, 9.9081481 ], [ 114.4963396, 9.9081027 ], [ 114.4963204, 9.908039 ], [ 114.496289, 9.9079782 ], [ 114.4962523, 9.9079381 ] ] ] ] } },
{ "type": "Feature", "properties": { "FID": 450062, "id": 2105, "left": 110.0, "top": 10.0, "right": 115.0, "bottom": 5.0, "row_index": 16, "col_index": 58, "min_lon": 110.0, "min_lat": 5.0, "tile_id": "110_5" }, "geometry": { "type": "MultiPolygon", "coordinates": [ [ [ [ 113.9300841, 7.6064095 ], [ 113.929655, 7.6064467 ], [ 113.929612, 7.6065903 ], [ 113.9296013, 7.6067392 ], [ 113.9296442, 7.60692 ], [ 113.9296871, 7.607037 ], [ 113.9296818, 7.6070901 ], [ 113.929655, 7.6071539 ], [ 113.929671, 7.6071805 ], [ 113.9297247, 7.607122 ], [ 113.9297408, 7.6069944 ], [ 113.9296925, 7.6068721 ], [ 113.9296657, 7.6066807 ], [ 113.9296818, 7.606569 ], [ 113.9297354, 7.6065159 ], [ 113.9300841, 7.6064867 ], [ 113.9302128, 7.6065159 ], [ 113.9302158, 7.6066906 ], [ 113.9302172, 7.606777 ], [ 113.9302236, 7.6071539 ], [ 113.9302933, 7.6071486 ], [ 113.9306321, 7.6069828 ], [ 113.9305755, 7.6061803 ], [ 113.9301072, 7.6061594 ], [ 113.9300841, 7.6064095 ] ] ] ] } },
{ "type": "Feature", "properties": { "FID": 454399, "id": 2105, "left": 110.0, "top": 10.0, "right": 115.0, "bottom": 5.0, "row_index": 16, "col_index": 58, "min_lon": 110.0, "min_lat": 5.0, "tile_id": "110_5" }, "geometry": { "type": "MultiPolygon", "coordinates": [ [ [ [ 112.1965194, 8.8454483 ], [ 112.1966241, 8.845427 ], [ 112.1966765, 8.845357 ], [ 112.1967042, 8.8452778 ], [ 112.196658, 8.8452017 ], [ 112.1965748, 8.845156 ], [ 112.1964547, 8.8451743 ], [ 112.1963869, 8.8452687 ], [ 112.1963776, 8.8453752 ], [ 112.1964485, 8.8454392 ], [ 112.1965194, 8.8454483 ] ] ] ] } },
{ "type": "Feature", "properties": { "FID": 454400, "id": 2105, "left": 110.0, "top": 10.0, "right": 115.0, "bottom": 5.0, "row_index": 16, "col_index": 58, "min_lon": 110.0, "min_lat": 5.0, "tile_id": "110_5" }, "geometry": { "type": "MultiPolygon", "coordinates": [ [ [ [ 112.1961034, 8.8453691 ], [ 112.1960818, 8.8452991 ], [ 112.1959155, 8.8452717 ], [ 112.1958354, 8.8453265 ], [ 112.1957614, 8.8454605 ], [ 112.1958261, 8.8455609 ], [ 112.195937, 8.8455944 ], [ 112.1960264, 8.845567 ], [ 112.1960849, 8.8454605 ], [ 112.1961034, 8.8453691 ] ] ] ] } },
{ "type": "Feature", "properties": { "FID": 454401, "id": 2105, "left": 110.0, "top": 10.0, "right": 115.0, "bottom": 5.0, "row_index": 16, "col_index": 58, "min_lon": 110.0, "min_lat": 5.0, "tile_id": "110_5" }, "geometry": { "type": "MultiPolygon", "coordinates": [ [ [ [ 112.1961989, 8.8449064 ], [ 112.1961958, 8.8447937 ], [ 112.1961373, 8.8447024 ], [ 112.1960264, 8.844675 ], [ 112.1959463, 8.8447207 ], [ 112.195934, 8.8448059 ], [ 112.1959524, 8.8449033 ], [ 112.1960202, 8.8449764 ], [ 112.1960942, 8.8449764 ], [ 112.1961989, 8.8449064 ] ] ] ] } },
{ "type": "Feature", "properties": { "FID": 454402, "id": 2105, "left": 110.0, "top": 10.0, "right": 115.0, "bottom": 5.0, "row_index": 16, "col_index": 58, "min_lon": 110.0, "min_lat": 5.0, "tile_id": "110_5" }, "geometry": { "type": "MultiPolygon", "coordinates": [ [ [ [ 112.195327, 8.845156 ], [ 112.1953609, 8.8450403 ], [ 112.1953116, 8.8449764 ], [ 112.195213, 8.8449673 ], [ 112.1951113, 8.8450403 ], [ 112.1950743, 8.8451499 ], [ 112.1950928, 8.8452413 ], [ 112.1951822, 8.8452626 ], [ 112.1952654, 8.8451956 ], [ 112.195327, 8.845156 ] ] ] ] } },
{ "type": "Feature", "properties": { "FID": 454403, "id": 2105, "left": 110.0, "top": 10.0, "right": 115.0, "bottom": 5.0, "row_index": 16, "col_index": 58, "min_lon": 110.0, "min_lat": 5.0, "tile_id": "110_5" }, "geometry": { "type": "MultiPolygon", "coordinates": [ [ [ [ 112.2303745, 8.8755085 ], [ 112.2303299, 8.8754436 ], [ 112.2302464, 8.8754478 ], [ 112.2301645, 8.8754933 ], [ 112.2300812, 8.8755739 ], [ 112.2301062, 8.8756071 ], [ 112.2300517, 8.8756474 ], [ 112.2301072, 8.875707 ], [ 112.2302174, 8.8757286 ], [ 112.2303438, 8.8756451 ], [ 112.2303745, 8.8755085 ] ] ] ] } },
{ "type": "Feature", "properties": { "FID": 454404, "id": 2105, "left": 110.0, "top": 10.0, "right": 115.0, "bottom": 5.0, "row_index": 16, "col_index": 58, "min_lon": 110.0, "min_lat": 5.0, "tile_id": "110_5" }, "geometry": { "type": "MultiPolygon", "coordinates": [ [ [ [ 112.2309533, 8.8758425 ], [ 112.2309687, 8.875721 ], [ 112.2308816, 8.8756704 ], [ 112.2307535, 8.8756198 ], [ 112.2306921, 8.8756856 ], [ 112.2306665, 8.8758324 ], [ 112.2307279, 8.8759134 ], [ 112.230815, 8.8759387 ], [ 112.2309533, 8.8758425 ] ] ] ] } },
{ "type": "Feature", "properties": { "FID": 454405, "id": 2105, "left": 110.0, "top": 10.0, "right": 115.0, "bottom": 5.0, "row_index": 16, "col_index": 58, "min_lon": 110.0, "min_lat": 5.0, "tile_id": "110_5" }, "geometry": { "type": "MultiPolygon", "coordinates": [ [ [ [ 112.2564125, 8.8638944 ], [ 112.2564299, 8.8638709 ], [ 112.2564386, 8.8638399 ], [ 112.2564616, 8.8638213 ], [ 112.2564625, 8.8637847 ], [ 112.2564895, 8.8637553 ], [ 112.2564452, 8.8636973 ], [ 112.2564162, 8.8637196 ], [ 112.2563933, 8.8636973 ], [ 112.256363, 8.8636911 ], [ 112.2563228, 8.8636912 ], [ 112.2562425, 8.8637532 ], [ 112.2562249, 8.8637862 ], [ 112.2562262, 8.8638093 ], [ 112.2562289, 8.8638374 ], [ 112.2562081, 8.8638592 ], [ 112.2562345, 8.8638924 ], [ 112.2562583, 8.8638782 ], [ 112.2563007, 8.8639181 ], [ 112.2563838, 8.8639162 ], [ 112.2564125, 8.8638944 ] ] ] ] } },
{ "type": "Feature", "properties": { "FID": 454406, "id": 2105, "left": 110.0, "top": 10.0, "right": 115.0, "bottom": 5.0, "row_index": 16, "col_index": 58, "min_lon": 110.0, "min_lat": 5.0, "tile_id": "110_5" }, "geometry": { "type": "MultiPolygon", "coordinates": [ [ [ [ 112.8322144, 8.8676155 ], [ 112.8322881, 8.8675453 ], [ 112.832323, 8.8674512 ], [ 112.831517, 8.8649759 ], [ 112.8316297, 8.8647891 ], [ 112.8322023, 8.8646036 ], [ 112.8323525, 8.8643002 ], [ 112.8321594, 8.8637331 ], [ 112.8319408, 8.8636245 ], [ 112.8314956, 8.8637662 ], [ 112.8312917, 8.8636708 ], [ 112.8308049, 8.8621192 ], [ 112.8305219, 8.8619733 ], [ 112.8281012, 8.8627379 ], [ 112.8279456, 8.8630506 ], [ 112.828179, 8.8637119 ], [ 112.8280717, 8.8639345 ], [ 112.8271034, 8.864234 ], [ 112.8267628, 8.864067 ], [ 112.8265107, 8.8641412 ], [ 112.8262854, 8.8640723 ], [ 112.8260761, 8.8645652 ], [ 112.8262263, 8.8647825 ], [ 112.8263873, 8.8648461 ], [ 112.8255987, 8.8657101 ], [ 112.8256738, 8.8657896 ], [ 112.8265321, 8.8648567 ], [ 112.8282152, 8.8642975 ], [ 112.8283829, 8.8644022 ], [ 112.8285545, 8.8649574 ], [ 112.8284365, 8.8652066 ], [ 112.828596, 8.8654384 ], [ 112.8284392, 8.8655272 ], [ 112.8288187, 8.8661738 ], [ 112.8289783, 8.8660917 ], [ 112.8291553, 8.8664309 ], [ 112.8293069, 8.866362 ], [ 112.8293708, 8.8663554 ], [ 112.8295815, 8.8667066 ], [ 112.8297213, 8.8667808 ], [ 112.8301987, 8.8682078 ], [ 112.8293753, 8.8684821 ], [ 112.8293692, 8.8684686 ], [ 112.8292562, 8.8685047 ], [ 112.8292894, 8.8685829 ], [ 112.8322144, 8.8676155 ] ] ] ] } },
{ "type": "Feature", "properties": { "FID": 478193, "id": 2105, "left": 110.0, "top": 10.0, "right": 115.0, "bottom": 5.0, "row_index": 16, "col_index": 58, "min_lon": 110.0, "min_lat": 5.0, "tile_id": "110_5" }, "geometry": { "type": "MultiPolygon", "coordinates": [ [ [ [ 113.8501063, 7.3787887 ], [ 113.8499616, 7.3782323 ], [ 113.8498503, 7.3781462 ], [ 113.8495382, 7.3781453 ], [ 113.8494855, 7.3782724 ], [ 113.8494712, 7.3785681 ], [ 113.8496024, 7.378877 ], [ 113.8501063, 7.3787887 ] ] ] ] } },
{ "type": "Feature", "properties": { "FID": 478194, "id": 2105, "left": 110.0, "top": 10.0, "right": 115.0, "bottom": 5.0, "row_index": 16, "col_index": 58, "min_lon": 110.0, "min_lat": 5.0, "tile_id": "110_5" }, "geometry": { "type": "MultiPolygon", "coordinates": [ [ [ [ 113.8486024, 7.3749911 ], [ 113.8495017, 7.3746973 ], [ 113.8501837, 7.3750525 ], [ 113.8502254, 7.3750383 ], [ 113.8506103, 7.3743307 ], [ 113.8505952, 7.3742669 ], [ 113.8384779, 7.3682553 ], [ 113.8380416, 7.3687532 ], [ 113.8377517, 7.3691064 ], [ 113.8377675, 7.3691748 ], [ 113.8378456, 7.3692687 ], [ 113.8378429, 7.3693751 ], [ 113.8378242, 7.3695746 ], [ 113.8380206, 7.3698812 ], [ 113.8383579, 7.3701172 ], [ 113.8386396, 7.3701892 ], [ 113.8395259, 7.3710969 ], [ 113.8395877, 7.3710961 ], [ 113.8396696, 7.3709563 ], [ 113.8423537, 7.3718246 ], [ 113.8431867, 7.3723792 ], [ 113.844031, 7.3729682 ], [ 113.8440594, 7.372988 ], [ 113.8443096, 7.373179 ], [ 113.8444729, 7.3733036 ], [ 113.8445888, 7.373546 ], [ 113.8445544, 7.3736245 ], [ 113.8444139, 7.3735598 ], [ 113.8443387, 7.3736858 ], [ 113.8446456, 7.3738422 ], [ 113.8447183, 7.3736901 ], [ 113.844958, 7.3737424 ], [ 113.8451456, 7.3740527 ], [ 113.8452593, 7.3739566 ], [ 113.8453515, 7.3740527 ], [ 113.8454037, 7.3742052 ], [ 113.845416, 7.3742414 ], [ 113.8452758, 7.3745312 ], [ 113.8458219, 7.3747801 ], [ 113.845838, 7.374925 ], [ 113.8458755, 7.3750086 ], [ 113.845987, 7.3750311 ], [ 113.8461729, 7.3750211 ], [ 113.8464093, 7.3749338 ], [ 113.8482038, 7.3758087 ], [ 113.8486024, 7.3749911 ] ] ] ] } },
{ "type": "Feature", "properties": { "FID": 494415, "id": 2105, "left": 110.0, "top": 10.0, "right": 115.0, "bottom": 5.0, "row_index": 16, "col_index": 58, "min_lon": 110.0, "min_lat": 5.0, "tile_id": "110_5" }, "geometry": { "type": "MultiPolygon", "coordinates": [ [ [ [ 114.2552158, 9.773923 ], [ 114.2552841, 9.7739105 ], [ 114.2553446, 9.7738474 ], [ 114.2553676, 9.7737183 ], [ 114.2553435, 9.7736862 ], [ 114.255315, 9.7736486 ], [ 114.2552735, 9.7736234 ], [ 114.2552062, 9.7736152 ], [ 114.2551782, 9.7735786 ], [ 114.2551234, 9.7736128 ], [ 114.2550943, 9.7736504 ], [ 114.2550545, 9.7736807 ], [ 114.2550525, 9.7738269 ], [ 114.2550845, 9.7738831 ], [ 114.2551246, 9.7739117 ], [ 114.2552158, 9.773923 ] ] ] ] } },
{ "type": "Feature", "properties": { "FID": 495455, "id": 2105, "left": 110.0, "top": 10.0, "right": 115.0, "bottom": 5.0, "row_index": 16, "col_index": 58, "min_lon": 110.0, "min_lat": 5.0, "tile_id": "110_5" }, "geometry": { "type": "MultiPolygon", "coordinates": [ [ [ [ 114.138243, 8.1014511 ], [ 114.1380717, 8.1018159 ], [ 114.1380901, 8.1019371 ], [ 114.1382511, 8.1021521 ], [ 114.1382471, 8.1021848 ], [ 114.138106, 8.1023201 ], [ 114.1380697, 8.1022649 ], [ 114.1380186, 8.1021875 ], [ 114.1379691, 8.1021162 ], [ 114.1377663, 8.1022461 ], [ 114.1378098, 8.1023094 ], [ 114.1379104, 8.1024556 ], [ 114.1379439, 8.1025043 ], [ 114.1377459, 8.1026317 ], [ 114.1376849, 8.1026106 ], [ 114.1376225, 8.1024899 ], [ 114.1375686, 8.1024984 ], [ 114.1376015, 8.102574 ], [ 114.137674, 8.1026566 ], [ 114.1377683, 8.1027602 ], [ 114.137875, 8.1028484 ], [ 114.1379324, 8.1028674 ], [ 114.1383362, 8.1025966 ], [ 114.1381986, 8.1023477 ], [ 114.1383691, 8.102192 ], [ 114.1381929, 8.1018395 ], [ 114.1382512, 8.1016693 ], [ 114.1382913, 8.101475 ], [ 114.138243, 8.1014511 ] ] ] ] } },
{ "type": "Feature", "properties": { "FID": 515884, "id": 2105, "left": 110.0, "top": 10.0, "right": 115.0, "bottom": 5.0, "row_index": 16, "col_index": 58, "min_lon": 110.0, "min_lat": 5.0, "tile_id": "110_5" }, "geometry": { "type": "MultiPolygon", "coordinates": [ [ [ [ 112.9036897, 9.5599724 ], [ 112.9036401, 9.5599752 ], [ 112.90359, 9.560021 ], [ 112.9035863, 9.5600667 ], [ 112.90364, 9.5601241 ], [ 112.9036836, 9.5601247 ], [ 112.9037387, 9.5600763 ], [ 112.9037389, 9.5600248 ], [ 112.9036897, 9.5599724 ] ] ] ] } },
{ "type": "Feature", "properties": { "FID": 517446, "id": 2105, "left": 110.0, "top": 10.0, "right": 115.0, "bottom": 5.0, "row_index": 16, "col_index": 58, "min_lon": 110.0, "min_lat": 5.0, "tile_id": "110_5" }, "geometry": { "type": "MultiPolygon", "coordinates": [ [ [ [ 113.705009, 8.9706058 ], [ 113.7050214, 8.9709212 ], [ 113.7052251, 8.9714417 ], [ 113.7070662, 8.9729932 ], [ 113.7068284, 8.9733048 ], [ 113.7073549, 8.9736607 ], [ 113.7072981, 8.9737528 ], [ 113.7069987, 8.9735665 ], [ 113.7068351, 8.9737932 ], [ 113.7066118, 8.9736298 ], [ 113.7049782, 8.9760802 ], [ 113.7008536, 8.9733588 ], [ 113.7028854, 8.9703955 ], [ 113.7033374, 8.9705129 ], [ 113.7038098, 8.9704297 ], [ 113.7039952, 8.9701193 ], [ 113.703993, 8.9697847 ], [ 113.7025742, 8.9694257 ], [ 113.7021037, 8.9691429 ], [ 113.7012383, 8.9686453 ], [ 113.6985268, 8.9670348 ], [ 113.6976727, 8.9670879 ], [ 113.6967811, 8.9674764 ], [ 113.6961702, 8.9680877 ], [ 113.6958295, 8.9686842 ], [ 113.6955765, 8.9692085 ], [ 113.6955264, 8.9701666 ], [ 113.6958017, 8.9710449 ], [ 113.697679, 8.972274 ], [ 113.6992595, 8.9733384 ], [ 113.7002637, 8.9739982 ], [ 113.7012497, 8.9746335 ], [ 113.7022929, 8.9753158 ], [ 113.7039085, 8.9763988 ], [ 113.7040824, 8.9765098 ], [ 113.704975, 8.9769341 ], [ 113.7058598, 8.9771417 ], [ 113.7067558, 8.9771641 ], [ 113.7076688, 8.9770164 ], [ 113.7084736, 8.9767186 ], [ 113.7092366, 8.9762061 ], [ 113.7096071, 8.9760694 ], [ 113.7097289, 8.9760292 ], [ 113.7099606, 8.976085 ], [ 113.7100867, 8.9760194 ], [ 113.7101251, 8.9758539 ], [ 113.7100398, 8.9757147 ], [ 113.7096562, 8.9755662 ], [ 113.7094247, 8.9752954 ], [ 113.7089775, 8.9750568 ], [ 113.7087912, 8.9747742 ], [ 113.7082228, 8.9737955 ], [ 113.7078093, 8.9730833 ], [ 113.7076073, 8.9728232 ], [ 113.7073139, 8.9724997 ], [ 113.7067649, 8.9719304 ], [ 113.7060251, 8.9712788 ], [ 113.7054277, 8.9707289 ], [ 113.7052362, 8.9705933 ], [ 113.705009, 8.9706058 ] ] ] ] } },
{ "type": "Feature", "properties": { "FID": 531557, "id": 2105, "left": 110.0, "top": 10.0, "right": 115.0, "bottom": 5.0, "row_index": 16, "col_index": 58, "min_lon": 110.0, "min_lat": 5.0, "tile_id": "110_5" }, "geometry": { "type": "MultiPolygon", "coordinates": [ [ [ [ 111.9214662, 8.6434926 ], [ 111.9215064, 8.6434883 ], [ 111.921662, 8.6436577 ], [ 111.921742, 8.6435911 ], [ 111.9214491, 8.643284 ], [ 111.9213857, 8.6433473 ], [ 111.9214509, 8.6434157 ], [ 111.9214382, 8.6434656 ], [ 111.9211313, 8.6437375 ], [ 111.9210668, 8.6437937 ], [ 111.9209755, 8.6436503 ], [ 111.9209008, 8.6436281 ], [ 111.9207754, 8.6435576 ], [ 111.9206406, 8.6434314 ], [ 111.9205337, 8.6433597 ], [ 111.9202965, 8.6432199 ], [ 111.9201784, 8.6430718 ], [ 111.9202054, 8.6429128 ], [ 111.9202083, 8.6428174 ], [ 111.9198826, 8.6425788 ], [ 111.9195673, 8.6424355 ], [ 111.9194278, 8.6423719 ], [ 111.9192803, 8.642226 ], [ 111.9192393, 8.6420343 ], [ 111.9190653, 8.6419413 ], [ 111.9189776, 8.6420001 ], [ 111.9180235, 8.640959 ], [ 111.9181044, 8.6408766 ], [ 111.9177074, 8.6404707 ], [ 111.9176417, 8.6405227 ], [ 111.917568, 8.6404726 ], [ 111.9173331, 8.6403892 ], [ 111.9170319, 8.6403437 ], [ 111.9169112, 8.6403929 ], [ 111.9164136, 8.6408344 ], [ 111.9163835, 8.6411309 ], [ 111.9164318, 8.6413655 ], [ 111.9164492, 8.641632 ], [ 111.9172862, 8.6425387 ], [ 111.9174919, 8.6424578 ], [ 111.9176952, 8.6426843 ], [ 111.9175719, 8.6428324 ], [ 111.9182313, 8.6434733 ], [ 111.9183391, 8.6439268 ], [ 111.9182595, 8.643943 ], [ 111.9181743, 8.6439604 ], [ 111.9181587, 8.6438859 ], [ 111.918141, 8.6438569 ], [ 111.9180786, 8.6438665 ], [ 111.9180583, 8.643883 ], [ 111.9181688, 8.6443949 ], [ 111.9182482, 8.6443811 ], [ 111.9182265, 8.6442598 ], [ 111.9183957, 8.6442303 ], [ 111.9185054, 8.6447366 ], [ 111.9186426, 8.6453701 ], [ 111.9187123, 8.6460019 ], [ 111.9184565, 8.64604 ], [ 111.9184659, 8.6463174 ], [ 111.9184206, 8.6463254 ], [ 111.9183599, 8.6463316 ], [ 111.9182908, 8.6460795 ], [ 111.91708, 8.6463023 ], [ 111.916648, 8.6452912 ], [ 111.9167634, 8.645243 ], [ 111.916803, 8.6453468 ], [ 111.9168824, 8.6453117 ], [ 111.9166732, 8.6448512 ], [ 111.9165995, 8.6448798 ], [ 111.9166586, 8.6450055 ], [ 111.9165306, 8.6450554 ], [ 111.9161562, 8.644189 ], [ 111.9161574, 8.6436812 ], [ 111.9162857, 8.6436811 ], [ 111.9162885, 8.6437984 ], [ 111.9163587, 8.6437985 ], [ 111.9163563, 8.6433066 ], [ 111.9163419, 8.6432904 ], [ 111.916288, 8.6432947 ], [ 111.916279, 8.6433059 ], [ 111.916277, 8.643427 ], [ 111.9161506, 8.6434253 ], [ 111.9161528, 8.6429931 ], [ 111.9161797, 8.642934 ], [ 111.9161845, 8.6428077 ], [ 111.91578, 8.6427113 ], [ 111.9155681, 8.6426556 ], [ 111.9153643, 8.6426477 ], [ 111.9152382, 8.6427193 ], [ 111.9152221, 8.6428333 ], [ 111.9153079, 8.6429526 ], [ 111.9154286, 8.6429791 ], [ 111.9155547, 8.6429791 ], [ 111.9157103, 8.6430534 ], [ 111.9157746, 8.6431701 ], [ 111.915772, 8.6439788 ], [ 111.9158202, 8.6442758 ], [ 111.9161555, 8.6451589 ], [ 111.916715, 8.6463491 ], [ 111.9167843, 8.6464996 ], [ 111.9168153, 8.6465669 ], [ 111.9168928, 8.6466454 ], [ 111.9172955, 8.6470761 ], [ 111.9173759, 8.6470151 ], [ 111.917958, 8.6472219 ], [ 111.9189665, 8.6475931 ], [ 111.9195217, 8.6478795 ], [ 111.9225472, 8.649163 ], [ 111.9228208, 8.6492558 ], [ 111.9229683, 8.649216 ], [ 111.9231668, 8.6492743 ], [ 111.9237033, 8.6494759 ], [ 111.9238239, 8.6495395 ], [ 111.9239073, 8.6496011 ], [ 111.9240895, 8.6497357 ], [ 111.9244301, 8.6498604 ], [ 111.9246903, 8.6497172 ], [ 111.92498, 8.6495262 ], [ 111.9251838, 8.6492372 ], [ 111.9252081, 8.6490424 ], [ 111.9252241, 8.6489137 ], [ 111.9251436, 8.6485398 ], [ 111.9249746, 8.6482958 ], [ 111.9245723, 8.6478318 ], [ 111.9241807, 8.647503 ], [ 111.9238293, 8.6471821 ], [ 111.9237745, 8.6472332 ], [ 111.9225325, 8.6459173 ], [ 111.9224734, 8.6457679 ], [ 111.9218426, 8.6447701 ], [ 111.9216387, 8.6445513 ], [ 111.9214321, 8.6442884 ], [ 111.9212491, 8.6440363 ], [ 111.921109, 8.6438064 ], [ 111.9214662, 8.6434926 ] ] ] ] } },
{ "type": "Feature", "properties": { "FID": 559245, "id": 2105, "left": 110.0, "top": 10.0, "right": 115.0, "bottom": 5.0, "row_index": 16, "col_index": 58, "min_lon": 110.0, "min_lat": 5.0, "tile_id": "110_5" }, "geometry": { "type": "MultiPolygon", "coordinates": [ [ [ [ 112.2557406, 8.8636966 ], [ 112.2557017, 8.8636933 ], [ 112.2556189, 8.863716 ], [ 112.2556101, 8.8638142 ], [ 112.2555757, 8.8638199 ], [ 112.253914, 8.8645758 ], [ 112.2538959, 8.8645854 ], [ 112.2538904, 8.8645976 ], [ 112.2532874, 8.8659383 ], [ 112.2532582, 8.8659723 ], [ 112.2532418, 8.8659913 ], [ 112.2528415, 8.8663001 ], [ 112.2528623, 8.8663276 ], [ 112.2528851, 8.8663577 ], [ 112.2529618, 8.8662958 ], [ 112.2533327, 8.8660096 ], [ 112.2539549, 8.8646275 ], [ 112.2553664, 8.8639879 ], [ 112.255601, 8.8638816 ], [ 112.2556477, 8.8638604 ], [ 112.2556897, 8.8638994 ], [ 112.2557373, 8.8639153 ], [ 112.2557721, 8.8639017 ], [ 112.2557736, 8.863903 ], [ 112.2558173, 8.8639382 ], [ 112.2558437, 8.8639062 ], [ 112.255863, 8.8638828 ], [ 112.2558597, 8.8638801 ], [ 112.2558502, 8.8638672 ], [ 112.2558251, 8.8638424 ], [ 112.2558214, 8.8638334 ], [ 112.2558216, 8.8638184 ], [ 112.2558221, 8.863802 ], [ 112.2558177, 8.8637761 ], [ 112.2558144, 8.8637576 ], [ 112.2557993, 8.8637407 ], [ 112.2557627, 8.8637046 ], [ 112.2557406, 8.8636966 ] ] ] ] } },
{ "type": "Feature", "properties": { "FID": 559654, "id": 2105, "left": 110.0, "top": 10.0, "right": 115.0, "bottom": 5.0, "row_index": 16, "col_index": 58, "min_lon": 110.0, "min_lat": 5.0, "tile_id": "110_5" }, "geometry": { "type": "MultiPolygon", "coordinates": [ [ [ [ 114.3307728, 9.8841073 ], [ 114.330618, 9.8841694 ], [ 114.3304627, 9.8842678 ], [ 114.3290934, 9.8848902 ], [ 114.3290412, 9.8848598 ], [ 114.3290636, 9.8848982 ], [ 114.3283731, 9.8851677 ], [ 114.3283127, 9.8850167 ], [ 114.3282084, 9.8850461 ], [ 114.3281897, 9.8850042 ], [ 114.3281695, 9.8849589 ], [ 114.3282715, 9.8849203 ], [ 114.3280538, 9.8844106 ], [ 114.3282702, 9.8843063 ], [ 114.3283315, 9.884444 ], [ 114.3284003, 9.8844094 ], [ 114.3282987, 9.8841728 ], [ 114.3282017, 9.8839469 ], [ 114.328116, 9.8839871 ], [ 114.3281757, 9.8841327 ], [ 114.3280436, 9.8841924 ], [ 114.3279795, 9.8842199 ], [ 114.3277464, 9.8836907 ], [ 114.3276982, 9.8835843 ], [ 114.3276566, 9.8834886 ], [ 114.3276311, 9.8834327 ], [ 114.3279992, 9.8832743 ], [ 114.3280113, 9.8832585 ], [ 114.3280139, 9.8832055 ], [ 114.3277679, 9.8826465 ], [ 114.3277188, 9.8826607 ], [ 114.3276725, 9.8827171 ], [ 114.3270178, 9.8836114 ], [ 114.326921, 9.8836628 ], [ 114.3269498, 9.8837473 ], [ 114.3273602, 9.8850949 ], [ 114.3273665, 9.8851039 ], [ 114.3273632, 9.8851138 ], [ 114.3273669, 9.8851243 ], [ 114.3273716, 9.8851339 ], [ 114.3273816, 9.8851408 ], [ 114.3273883, 9.8851382 ], [ 114.3273967, 9.8851329 ], [ 114.3274111, 9.8851379 ], [ 114.3280696, 9.8856254 ], [ 114.3286996, 9.8863821 ], [ 114.3293975, 9.8867278 ], [ 114.3293978, 9.8867332 ], [ 114.3293995, 9.8867398 ], [ 114.3294023, 9.8867448 ], [ 114.329404, 9.8867486 ], [ 114.329407, 9.8867534 ], [ 114.3294097, 9.8867562 ], [ 114.3294157, 9.8867588 ], [ 114.3294235, 9.886758 ], [ 114.329428, 9.8867545 ], [ 114.3294298, 9.8867477 ], [ 114.3294315, 9.8867367 ], [ 114.3296052, 9.8867015 ], [ 114.3304859, 9.8865023 ], [ 114.3308926, 9.8862358 ], [ 114.3310615, 9.8861024 ], [ 114.331191, 9.8860092 ], [ 114.3313345, 9.8859259 ], [ 114.3314636, 9.88585 ], [ 114.3314465, 9.8858196 ], [ 114.3316389, 9.8850799 ], [ 114.3316243, 9.8849385 ], [ 114.3316921, 9.884907 ], [ 114.3318549, 9.8847546 ], [ 114.3319377, 9.8845693 ], [ 114.3319418, 9.8844417 ], [ 114.331913, 9.8842338 ], [ 114.3317573, 9.8840275 ], [ 114.3315158, 9.8838514 ], [ 114.331544, 9.8833509 ], [ 114.3307416, 9.8819296 ], [ 114.3288461, 9.882179 ], [ 114.3290964, 9.8827344 ], [ 114.3301034, 9.8822966 ], [ 114.3309135, 9.8840678 ], [ 114.3307728, 9.8841073 ] ] ] ] } },
{ "type": "Feature", "properties": { "FID": 644458, "id": 2105, "left": 110.0, "top": 10.0, "right": 115.0, "bottom": 5.0, "row_index": 16, "col_index": 58, "min_lon": 110.0, "min_lat": 5.0, "tile_id": "110_5" }, "geometry": { "type": "MultiPolygon", "coordinates": [ [ [ [ 113.923707, 8.8329843 ], [ 113.92372, 8.8330168 ], [ 113.9236981, 8.8330515 ], [ 113.9236728, 8.8331113 ], [ 113.9236745, 8.8331518 ], [ 113.9237563, 8.8332909 ], [ 113.9238503, 8.8333192 ], [ 113.9239693, 8.8332688 ], [ 113.9240065, 8.8331796 ], [ 113.9239515, 8.8330306 ], [ 113.9238691, 8.8329882 ], [ 113.9238121, 8.8329804 ], [ 113.9237917, 8.8329466 ], [ 113.923707, 8.8329843 ] ] ] ] } },
{ "type": "Feature", "properties": { "FID": 644459, "id": 2105, "left": 110.0, "top": 10.0, "right": 115.0, "bottom": 5.0, "row_index": 16, "col_index": 58, "min_lon": 110.0, "min_lat": 5.0, "tile_id": "110_5" }, "geometry": { "type": "MultiPolygon", "coordinates": [ [ [ [ 113.9927127, 8.8257197 ], [ 113.9927878, 8.8256921 ], [ 113.9928476, 8.8256139 ], [ 113.9928517, 8.8254827 ], [ 113.9927808, 8.825462 ], [ 113.9927137, 8.825434 ], [ 113.9926759, 8.8254623 ], [ 113.9925331, 8.8255088 ], [ 113.9925104, 8.8255929 ], [ 113.9925417, 8.825666 ], [ 113.9926183, 8.8257103 ], [ 113.9927127, 8.8257197 ] ] ] ] } },
{ "type": "Feature", "properties": { "FID": 653274, "id": 2105, "left": 110.0, "top": 10.0, "right": 115.0, "bottom": 5.0, "row_index": 16, "col_index": 58, "min_lon": 110.0, "min_lat": 5.0, "tile_id": "110_5" }, "geometry": { "type": "MultiPolygon", "coordinates": [ [ [ [ 113.0185429, 9.6618576 ], [ 113.0186411, 9.6618356 ], [ 113.018696, 9.6617909 ], [ 113.0187319, 9.6617187 ], [ 113.0187434, 9.6616319 ], [ 113.0187183, 9.6615431 ], [ 113.0186269, 9.6614663 ], [ 113.0184846, 9.6613735 ], [ 113.01832, 9.6613247 ], [ 113.0182259, 9.6613121 ], [ 113.0181622, 9.6613241 ], [ 113.018127, 9.6613762 ], [ 113.0181344, 9.6614389 ], [ 113.0181459, 9.6614937 ], [ 113.018152, 9.6615638 ], [ 113.0181859, 9.6616666 ], [ 113.0182747, 9.6617601 ], [ 113.0184108, 9.6618276 ], [ 113.0185429, 9.6618576 ] ] ] ] } },
{ "type": "Feature", "properties": { "FID": 653395, "id": 2105, "left": 110.0, "top": 10.0, "right": 115.0, "bottom": 5.0, "row_index": 16, "col_index": 58, "min_lon": 110.0, "min_lat": 5.0, "tile_id": "110_5" }, "geometry": { "type": "MultiPolygon", "coordinates": [ [ [ [ 113.3547991, 8.2698444 ], [ 113.354791, 8.2699586 ], [ 113.3548535, 8.2700429 ], [ 113.354964, 8.2700395 ], [ 113.3550179, 8.2700101 ], [ 113.3550826, 8.2699478 ], [ 113.3550743, 8.2698285 ], [ 113.3550558, 8.2698185 ], [ 113.3549754, 8.2697751 ], [ 113.3549621, 8.2697679 ], [ 113.3549083, 8.2697782 ], [ 113.3548454, 8.2697989 ], [ 113.3547991, 8.2698444 ] ] ] ] } },
{ "type": "Feature", "properties": { "FID": 653396, "id": 2105, "left": 110.0, "top": 10.0, "right": 115.0, "bottom": 5.0, "row_index": 16, "col_index": 58, "min_lon": 110.0, "min_lat": 5.0, "tile_id": "110_5" }, "geometry": { "type": "MultiPolygon", "coordinates": [ [ [ [ 113.3548302, 8.2696487 ], [ 113.3548728, 8.2695675 ], [ 113.354848, 8.2694464 ], [ 113.3547665, 8.2694358 ], [ 113.3546596, 8.269469 ], [ 113.3546516, 8.2695582 ], [ 113.3547033, 8.2696551 ], [ 113.3547572, 8.2696666 ], [ 113.3548302, 8.2696487 ] ] ] ] } },
{ "type": "Feature", "properties": { "FID": 653397, "id": 2105, "left": 110.0, "top": 10.0, "right": 115.0, "bottom": 5.0, "row_index": 16, "col_index": 58, "min_lon": 110.0, "min_lat": 5.0, "tile_id": "110_5" }, "geometry": { "type": "MultiPolygon", "coordinates": [ [ [ [ 113.2830215, 8.1537633 ], [ 113.2830453, 8.1537739 ], [ 113.283097, 8.1537936 ], [ 113.2831228, 8.1537949 ], [ 113.2831518, 8.1538051 ], [ 113.2832033, 8.1537854 ], [ 113.2832063, 8.1537559 ], [ 113.2832598, 8.153668 ], [ 113.2832105, 8.1535865 ], [ 113.2831692, 8.1535708 ], [ 113.2831201, 8.1535522 ], [ 113.2830454, 8.1535814 ], [ 113.2830109, 8.1536013 ], [ 113.2829769, 8.1536944 ], [ 113.2830215, 8.1537633 ] ] ] ] } },
{ "type": "Feature", "properties": { "FID": 653398, "id": 2105, "left": 110.0, "top": 10.0, "right": 115.0, "bottom": 5.0, "row_index": 16, "col_index": 58, "min_lon": 110.0, "min_lat": 5.0, "tile_id": "110_5" }, "geometry": { "type": "MultiPolygon", "coordinates": [ [ [ [ 113.282798, 8.1533807 ], [ 113.2828555, 8.1532765 ], [ 113.2828052, 8.1531901 ], [ 113.2826959, 8.1531493 ], [ 113.2825799, 8.153181 ], [ 113.282525, 8.1532869 ], [ 113.2825625, 8.1533899 ], [ 113.2826764, 8.1534445 ], [ 113.2827754, 8.1534215 ], [ 113.282798, 8.1533807 ] ] ] ] } },
{ "type": "Feature", "properties": { "FID": 653399, "id": 2105, "left": 110.0, "top": 10.0, "right": 115.0, "bottom": 5.0, "row_index": 16, "col_index": 58, "min_lon": 110.0, "min_lat": 5.0, "tile_id": "110_5" }, "geometry": { "type": "MultiPolygon", "coordinates": [ [ [ [ 113.226935, 8.0764994 ], [ 113.2270154, 8.0765552 ], [ 113.2271039, 8.0765472 ], [ 113.2272032, 8.0764383 ], [ 113.2271951, 8.0763294 ], [ 113.2271361, 8.0762843 ], [ 113.2270154, 8.0762896 ], [ 113.2269189, 8.0763958 ], [ 113.226935, 8.0764994 ] ] ] ] } },
{ "type": "Feature", "properties": { "FID": 653400, "id": 2105, "left": 110.0, "top": 10.0, "right": 115.0, "bottom": 5.0, "row_index": 16, "col_index": 58, "min_lon": 110.0, "min_lat": 5.0, "tile_id": "110_5" }, "geometry": { "type": "MultiPolygon", "coordinates": [ [ [ [ 113.2269055, 8.0760081 ], [ 113.2269806, 8.0759205 ], [ 113.226994, 8.0758196 ], [ 113.2268947, 8.0757372 ], [ 113.2267848, 8.0757452 ], [ 113.226715, 8.0758169 ], [ 113.2267177, 8.0759178 ], [ 113.2268089, 8.0760081 ], [ 113.2269055, 8.0760081 ] ] ] ] } },
{ "type": "Feature", "properties": { "FID": 654937, "id": 2105, "left": 110.0, "top": 10.0, "right": 115.0, "bottom": 5.0, "row_index": 16, "col_index": 58, "min_lon": 110.0, "min_lat": 5.0, "tile_id": "110_5" }, "geometry": { "type": "MultiPolygon", "coordinates": [ [ [ [ 112.9774466, 9.6494991 ], [ 112.9774439, 9.6495506 ], [ 112.9774506, 9.6495916 ], [ 112.9774801, 9.6496194 ], [ 112.9775137, 9.6496352 ], [ 112.9775633, 9.6496313 ], [ 112.9776183, 9.6495943 ], [ 112.9776961, 9.6495731 ], [ 112.977806, 9.649433 ], [ 112.9778557, 9.6493999 ], [ 112.9779039, 9.6493867 ], [ 112.9779639, 9.6494005 ], [ 112.9781179, 9.6495056 ], [ 112.9781464, 9.6495166 ], [ 112.978191, 9.6495684 ], [ 112.9782303, 9.6495776 ], [ 112.9782586, 9.6495526 ], [ 112.9782591, 9.6494911 ], [ 112.9782202, 9.6494107 ], [ 112.9781924, 9.6493548 ], [ 112.9781329, 9.6492863 ], [ 112.9780657, 9.6492427 ], [ 112.9779099, 9.6492183 ], [ 112.9777719, 9.64922 ], [ 112.9776356, 9.6492514 ], [ 112.9775915, 9.6492809 ], [ 112.9775499, 9.6493245 ], [ 112.9775029, 9.6493774 ], [ 112.9774667, 9.6494435 ], [ 112.9774466, 9.6494991 ] ] ] ] } },
{ "type": "Feature", "properties": { "FID": 654939, "id": 2105, "left": 110.0, "top": 10.0, "right": 115.0, "bottom": 5.0, "row_index": 16, "col_index": 58, "min_lon": 110.0, "min_lat": 5.0, "tile_id": "110_5" }, "geometry": { "type": "MultiPolygon", "coordinates": [ [ [ [ 114.6159263, 9.9965491 ], [ 114.6159826, 9.9964857 ], [ 114.6160671, 9.9964897 ], [ 114.6161221, 9.9964844 ], [ 114.6161476, 9.9964738 ], [ 114.6161999, 9.9964395 ], [ 114.6163407, 9.9964342 ], [ 114.6163675, 9.9964276 ], [ 114.6164668, 9.9963735 ], [ 114.6164896, 9.996355 ], [ 114.6165177, 9.996351 ], [ 114.6166505, 9.9964038 ], [ 114.6166787, 9.9964012 ], [ 114.6167015, 9.996384 ], [ 114.6167122, 9.9963589 ], [ 114.6167135, 9.9963035 ], [ 114.6167015, 9.9962797 ], [ 114.6166612, 9.996244 ], [ 114.6166036, 9.996211 ], [ 114.6165526, 9.9961991 ], [ 114.6165003, 9.9961965 ], [ 114.6162415, 9.9962744 ], [ 114.616216, 9.9962784 ], [ 114.6161899, 9.9962728 ], [ 114.6161127, 9.9962942 ], [ 114.6160899, 9.9963074 ], [ 114.6159625, 9.9963523 ], [ 114.6158914, 9.9963867 ], [ 114.6158445, 9.9964144 ], [ 114.6158043, 9.9964527 ], [ 114.6156527, 9.9965689 ], [ 114.6155441, 9.9965887 ], [ 114.615469, 9.9966085 ], [ 114.6154448, 9.9966191 ], [ 114.6154301, 9.9966416 ], [ 114.6154354, 9.9966944 ], [ 114.6154529, 9.9967155 ], [ 114.6154743, 9.9967327 ], [ 114.6155012, 9.9967419 ], [ 114.6155588, 9.9967485 ], [ 114.6156138, 9.996738 ], [ 114.6157359, 9.996668 ], [ 114.6158445, 9.996631 ], [ 114.6158727, 9.9966257 ], [ 114.6159263, 9.9965491 ] ] ] ] } },
{ "type": "Feature", "properties": { "FID": 675016, "id": 2105, "left": 110.0, "top": 10.0, "right": 115.0, "bottom": 5.0, "row_index": 16, "col_index": 58, "min_lon": 110.0, "min_lat": 5.0, "tile_id": "110_5" }, "geometry": { "type": "MultiPolygon", "coordinates": [ [ [ [ 111.9215266, 8.6438091 ], [ 111.9215387, 8.6438489 ], [ 111.9219343, 8.6442029 ], [ 111.9222026, 8.6444681 ], [ 111.9226894, 8.6449838 ], [ 111.9231279, 8.6455115 ], [ 111.9232459, 8.6456441 ], [ 111.9233532, 8.6458099 ], [ 111.9234873, 8.646079 ], [ 111.9236737, 8.6463813 ], [ 111.9238991, 8.6468003 ], [ 111.9239447, 8.6468997 ], [ 111.9240426, 8.6471145 ], [ 111.9241954, 8.6473903 ], [ 111.9243255, 8.6475905 ], [ 111.9244355, 8.6476979 ], [ 111.9244637, 8.6476886 ], [ 111.9244435, 8.6476197 ], [ 111.9243591, 8.6475056 ], [ 111.9242571, 8.6473359 ], [ 111.9240935, 8.6470456 ], [ 111.9239084, 8.646677 ], [ 111.9237556, 8.6463946 ], [ 111.923541, 8.6460498 ], [ 111.9234873, 8.6459703 ], [ 111.9234578, 8.6459186 ], [ 111.9234391, 8.6458708 ], [ 111.9234216, 8.6458072 ], [ 111.92338, 8.645721 ], [ 111.923191, 8.645481 ], [ 111.92292, 8.6451509 ], [ 111.9226331, 8.6448247 ], [ 111.9223984, 8.6445755 ], [ 111.922157, 8.6443289 ], [ 111.9219504, 8.6441194 ], [ 111.9216017, 8.6438012 ], [ 111.9215494, 8.6437879 ], [ 111.9215266, 8.6438091 ] ] ] ] } },
{ "type": "Feature", "properties": { "FID": 682750, "id": 2105, "left": 110.0, "top": 10.0, "right": 115.0, "bottom": 5.0, "row_index": 16, "col_index": 58, "min_lon": 110.0, "min_lat": 5.0, "tile_id": "110_5" }, "geometry": { "type": "MultiPolygon", "coordinates": [ [ [ [ 112.6594684, 8.8222251 ], [ 112.6595914, 8.8222608 ], [ 112.659696, 8.8222183 ], [ 112.6597229, 8.8221176 ], [ 112.6596746, 8.8219984 ], [ 112.6595324, 8.8219559 ], [ 112.6594225, 8.822009 ], [ 112.6593876, 8.8221097 ], [ 112.6594359, 8.8222157 ], [ 112.6594684, 8.8222251 ] ] ] ] } },
{ "type": "Feature", "properties": { "FID": 682751, "id": 2105, "left": 110.0, "top": 10.0, "right": 115.0, "bottom": 5.0, "row_index": 16, "col_index": 58, "min_lon": 110.0, "min_lat": 5.0, "tile_id": "110_5" }, "geometry": { "type": "MultiPolygon", "coordinates": [ [ [ [ 112.6591516, 8.8226345 ], [ 112.6591615, 8.8226464 ], [ 112.659177, 8.8226477 ], [ 112.6591805, 8.8227234 ], [ 112.6591978, 8.8227279 ], [ 112.6592401, 8.8227935 ], [ 112.6593715, 8.8227325 ], [ 112.6594095, 8.8226754 ], [ 112.6594385, 8.8226318 ], [ 112.6593849, 8.8225364 ], [ 112.6592803, 8.8224807 ], [ 112.6591194, 8.8224913 ], [ 112.659063, 8.8226027 ], [ 112.6591516, 8.8226345 ] ] ] ] } },
{ "type": "Feature", "properties": { "FID": 682752, "id": 2105, "left": 110.0, "top": 10.0, "right": 115.0, "bottom": 5.0, "row_index": 16, "col_index": 58, "min_lon": 110.0, "min_lat": 5.0, "tile_id": "110_5" }, "geometry": { "type": "MultiPolygon", "coordinates": [ [ [ [ 112.5504164, 8.8275455 ], [ 112.550388, 8.82751 ], [ 112.5502861, 8.827502 ], [ 112.5502195, 8.827553 ], [ 112.5502029, 8.8275656 ], [ 112.5501975, 8.8276452 ], [ 112.5502646, 8.827722 ], [ 112.5503772, 8.8277326 ], [ 112.5504237, 8.8276922 ], [ 112.5504443, 8.8276743 ], [ 112.5504497, 8.8275868 ], [ 112.5504164, 8.8275455 ] ] ] ] } },
{ "type": "Feature", "properties": { "FID": 682753, "id": 2105, "left": 110.0, "top": 10.0, "right": 115.0, "bottom": 5.0, "row_index": 16, "col_index": 58, "min_lon": 110.0, "min_lat": 5.0, "tile_id": "110_5" }, "geometry": { "type": "MultiPolygon", "coordinates": [ [ [ [ 112.54994, 8.8278135 ], [ 112.5498381, 8.8278055 ], [ 112.549761, 8.8278639 ], [ 112.54976, 8.8279427 ], [ 112.549759, 8.8279572 ], [ 112.5498167, 8.8280255 ], [ 112.5499293, 8.8280361 ], [ 112.5499964, 8.8279778 ], [ 112.5500017, 8.8278903 ], [ 112.54994, 8.8278135 ] ] ] ] } },
{ "type": "Feature", "properties": { "FID": 682755, "id": 2105, "left": 110.0, "top": 10.0, "right": 115.0, "bottom": 5.0, "row_index": 16, "col_index": 58, "min_lon": 110.0, "min_lat": 5.0, "tile_id": "110_5" }, "geometry": { "type": "MultiPolygon", "coordinates": [ [ [ [ 114.36961, 9.7794507 ], [ 114.3696142, 9.7794107 ], [ 114.3695807, 9.7793308 ], [ 114.3695023, 9.7792883 ], [ 114.3694584, 9.779285 ], [ 114.369392, 9.7793057 ], [ 114.3693594, 9.7793378 ], [ 114.3693049, 9.7794455 ], [ 114.3693398, 9.7795328 ], [ 114.3693987, 9.7795616 ], [ 114.3694317, 9.7795778 ], [ 114.3694479, 9.7795949 ], [ 114.3695625, 9.7795693 ], [ 114.36961, 9.7794507 ] ] ] ] } },
{ "type": "Feature", "properties": { "FID": 688328, "id": 2105, "left": 110.0, "top": 10.0, "right": 115.0, "bottom": 5.0, "row_index": 16, "col_index": 58, "min_lon": 110.0, "min_lat": 5.0, "tile_id": "110_5" }, "geometry": { "type": "MultiPolygon", "coordinates": [ [ [ [ 113.9245139, 8.8329515 ], [ 113.9245922, 8.832991 ], [ 113.9246888, 8.8329752 ], [ 113.9247912, 8.8328764 ], [ 113.9247855, 8.8327029 ], [ 113.9247473, 8.8326556 ], [ 113.9246983, 8.8326166 ], [ 113.9246338, 8.832605 ], [ 113.9245513, 8.832608 ], [ 113.9244693, 8.8326963 ], [ 113.9244643, 8.8327809 ], [ 113.9244589, 8.8328377 ], [ 113.9245139, 8.8329515 ] ] ] ] } },
{ "type": "Feature", "properties": { "FID": 688329, "id": 2105, "left": 110.0, "top": 10.0, "right": 115.0, "bottom": 5.0, "row_index": 16, "col_index": 58, "min_lon": 110.0, "min_lat": 5.0, "tile_id": "110_5" }, "geometry": { "type": "MultiPolygon", "coordinates": [ [ [ [ 113.9932723, 8.8251688 ], [ 113.9933581, 8.8251039 ], [ 113.9933702, 8.8249674 ], [ 113.9933099, 8.8248839 ], [ 113.993165, 8.8248627 ], [ 113.9930739, 8.8249462 ], [ 113.9930714, 8.8250629 ], [ 113.9931222, 8.825141 ], [ 113.9932723, 8.8251688 ] ] ] ] } },
{ "type": "Feature", "properties": { "FID": 699683, "id": 2105, "left": 110.0, "top": 10.0, "right": 115.0, "bottom": 5.0, "row_index": 16, "col_index": 58, "min_lon": 110.0, "min_lat": 5.0, "tile_id": "110_5" }, "geometry": { "type": "MultiPolygon", "coordinates": [ [ [ [ 112.9212591, 7.8912862 ], [ 112.9212524, 7.8912458 ], [ 112.921251, 7.8912298 ], [ 112.9212505, 7.8912151 ], [ 112.9212503, 7.8912049 ], [ 112.9212521, 7.8911715 ], [ 112.9212563, 7.8911451 ], [ 112.9212632, 7.8911186 ], [ 112.9212655, 7.891098 ], [ 112.9212637, 7.8910773 ], [ 112.9212604, 7.8910617 ], [ 112.9212546, 7.8910497 ], [ 112.9212409, 7.8910309 ], [ 112.9212315, 7.8910096 ], [ 112.9212268, 7.8909859 ], [ 112.9212275, 7.8909618 ], [ 112.9212278, 7.8909349 ], [ 112.9212189, 7.8908999 ], [ 112.9211916, 7.8908638 ], [ 112.9211534, 7.8908577 ], [ 112.9211205, 7.890858 ], [ 112.9210784, 7.8908586 ], [ 112.921043, 7.890859 ], [ 112.9209991, 7.8908581 ], [ 112.9209574, 7.8908625 ], [ 112.920909, 7.8908751 ], [ 112.9208766, 7.8909254 ], [ 112.9208674, 7.890987 ], [ 112.920854, 7.8910231 ], [ 112.9208419, 7.8910582 ], [ 112.9208263, 7.8910854 ], [ 112.9208257, 7.8911222 ], [ 112.9208352, 7.8911745 ], [ 112.920823, 7.8912176 ], [ 112.9208173, 7.8912585 ], [ 112.9208275, 7.8912777 ], [ 112.9208376, 7.8912974 ], [ 112.9208501, 7.8913204 ], [ 112.9208564, 7.8913443 ], [ 112.9208604, 7.8913593 ], [ 112.9208614, 7.8913756 ], [ 112.9208662, 7.8914694 ], [ 112.9208681, 7.8914944 ], [ 112.9208708, 7.8915197 ], [ 112.920903, 7.8917586 ], [ 112.920907, 7.8917885 ], [ 112.9209278, 7.8919427 ], [ 112.9207876, 7.8920829 ], [ 112.9207663, 7.8921089 ], [ 112.9207512, 7.8921376 ], [ 112.9207447, 7.8921693 ], [ 112.9207464, 7.8921966 ], [ 112.9207546, 7.8922228 ], [ 112.9207689, 7.8922463 ], [ 112.9208037, 7.8922782 ], [ 112.9209418, 7.8923702 ], [ 112.9210109, 7.8924057 ], [ 112.9210913, 7.8924533 ], [ 112.9211538, 7.8924801 ], [ 112.9212326, 7.8925073 ], [ 112.9213133, 7.8925279 ], [ 112.9213466, 7.8925306 ], [ 112.9213798, 7.8925289 ], [ 112.9214126, 7.8925226 ], [ 112.9214493, 7.8925099 ], [ 112.9214836, 7.8924916 ], [ 112.9215065, 7.8924702 ], [ 112.9215293, 7.8924443 ], [ 112.9215637, 7.8923877 ], [ 112.9216084, 7.8923048 ], [ 112.9216452, 7.8922272 ], [ 112.921667, 7.8921856 ], [ 112.9216862, 7.8921427 ], [ 112.9217018, 7.8921051 ], [ 112.9217143, 7.8920723 ], [ 112.9217291, 7.8920285 ], [ 112.9217465, 7.8919713 ], [ 112.9217554, 7.8919434 ], [ 112.9217586, 7.8919142 ], [ 112.9217559, 7.891885 ], [ 112.921746, 7.8918532 ], [ 112.9217291, 7.8918244 ], [ 112.9217063, 7.8918 ], [ 112.9216616, 7.8917643 ], [ 112.9216151, 7.8917309 ], [ 112.9215339, 7.8916803 ], [ 112.9214823, 7.8916472 ], [ 112.921447, 7.8916203 ], [ 112.9214109, 7.8915831 ], [ 112.9213724, 7.8915365 ], [ 112.9213361, 7.8914785 ], [ 112.9212991, 7.8914038 ], [ 112.9212704, 7.8913255 ], [ 112.9212591, 7.8912862 ] ] ] ] } },
{ "type": "Feature", "properties": { "FID": 706507, "id": 2105, "left": 110.0, "top": 10.0, "right": 115.0, "bottom": 5.0, "row_index": 16, "col_index": 58, "min_lon": 110.0, "min_lat": 5.0, "tile_id": "110_5" }, "geometry": { "type": "MultiPolygon", "coordinates": [ [ [ [ 114.6603322, 8.8508423 ], [ 114.6601059, 8.852446 ], [ 114.6601767, 8.8530974 ], [ 114.6605723, 8.8536123 ], [ 114.6616292, 8.8545637 ], [ 114.6640352, 8.8566947 ], [ 114.6646744, 8.8568329 ], [ 114.6653136, 8.8568694 ], [ 114.6668102, 8.8562528 ], [ 114.6678898, 8.8557239 ], [ 114.6680326, 8.8556401 ], [ 114.6681076, 8.8554539 ], [ 114.6681076, 8.8552678 ], [ 114.668047, 8.8551316 ], [ 114.6648092, 8.8526832 ], [ 114.6637455, 8.8516039 ], [ 114.6636421, 8.8515908 ], [ 114.6635893, 8.8515778 ], [ 114.6635123, 8.851543 ], [ 114.6629073, 8.8509192 ], [ 114.6628611, 8.8508018 ], [ 114.6628445, 8.8506754 ], [ 114.6622072, 8.8499544 ], [ 114.6620993, 8.849929 ], [ 114.6523566, 8.8414143 ], [ 114.6523936, 8.8413223 ], [ 114.6524049, 8.8412291 ], [ 114.6523905, 8.8411306 ], [ 114.6523464, 8.8410334 ], [ 114.6522996, 8.8409745 ], [ 114.6522417, 8.8409262 ], [ 114.6521243, 8.8408732 ], [ 114.6520479, 8.8408616 ], [ 114.6519707, 8.8408657 ], [ 114.6518852, 8.8408895 ], [ 114.6518077, 8.8409326 ], [ 114.6517545, 8.8409793 ], [ 114.6517111, 8.8410352 ], [ 114.6516795, 8.8410972 ], [ 114.6516602, 8.8411639 ], [ 114.6516588, 8.8412927 ], [ 114.6517008, 8.841412 ], [ 114.651771, 8.8415015 ], [ 114.6514627, 8.8419579 ], [ 114.6515293, 8.8423198 ], [ 114.6600915, 8.8500752 ], [ 114.6603235, 8.8504853 ], [ 114.6603322, 8.8508423 ] ] ] ] } },
{ "type": "Feature", "properties": { "FID": 714620, "id": 2105, "left": 110.0, "top": 10.0, "right": 115.0, "bottom": 5.0, "row_index": 16, "col_index": 58, "min_lon": 110.0, "min_lat": 5.0, "tile_id": "110_5" }, "geometry": { "type": "MultiPolygon", "coordinates": [ [ [ [ 114.5642821, 9.9029946 ], [ 114.5643866, 9.9028669 ], [ 114.5644876, 9.90268 ], [ 114.5645783, 9.9024191 ], [ 114.5645985, 9.9023608 ], [ 114.5646808, 9.9021228 ], [ 114.5647508, 9.9018386 ], [ 114.5648197, 9.9014183 ], [ 114.56483, 9.9007632 ], [ 114.5648363, 9.9006564 ], [ 114.5648542, 9.9005496 ], [ 114.5648888, 9.9004665 ], [ 114.5649047, 9.9003764 ], [ 114.564888, 9.900333 ], [ 114.5648457, 9.9003011 ], [ 114.5647774, 9.9002749 ], [ 114.564709, 9.9002718 ], [ 114.5646384, 9.9002941 ], [ 114.5645725, 9.9003302 ], [ 114.5645294, 9.9003898 ], [ 114.5645096, 9.9004517 ], [ 114.5645116, 9.9005353 ], [ 114.5645392, 9.9006282 ], [ 114.5645533, 9.9008201 ], [ 114.5645412, 9.9012169 ], [ 114.5645267, 9.9013586 ], [ 114.5644956, 9.9015452 ], [ 114.5644431, 9.9016736 ], [ 114.5643416, 9.9017524 ], [ 114.5642497, 9.9017291 ], [ 114.5641762, 9.9017226 ], [ 114.5641107, 9.9017306 ], [ 114.5640514, 9.9017396 ], [ 114.5639988, 9.9017604 ], [ 114.5638742, 9.9018315 ], [ 114.5638667, 9.9018187 ], [ 114.5638598, 9.9018093 ], [ 114.5638486, 9.9018078 ], [ 114.5638394, 9.9018109 ], [ 114.563833, 9.901819 ], [ 114.5638327, 9.9018277 ], [ 114.5638387, 9.9018375 ], [ 114.5638501, 9.9018486 ], [ 114.5637473, 9.9019487 ], [ 114.56364, 9.9020766 ], [ 114.5635991, 9.9021529 ], [ 114.563589, 9.9021755 ], [ 114.5635792, 9.9021973 ], [ 114.5634895, 9.9023972 ], [ 114.5633571, 9.9028135 ], [ 114.5633486, 9.9028112 ], [ 114.5633407, 9.9028123 ], [ 114.5633322, 9.9028163 ], [ 114.5633301, 9.9028249 ], [ 114.5633301, 9.9028355 ], [ 114.5633348, 9.9028415 ], [ 114.5633421, 9.9028441 ], [ 114.56335, 9.9028439 ], [ 114.5633517, 9.9029955 ], [ 114.5633628, 9.9031601 ], [ 114.5633819, 9.903256 ], [ 114.5634103, 9.903352 ], [ 114.5634345, 9.9033987 ], [ 114.5634762, 9.9034454 ], [ 114.5635204, 9.9034654 ], [ 114.56357, 9.9034761 ], [ 114.5636336, 9.903483 ], [ 114.5637408, 9.9034626 ], [ 114.5638592, 9.9033949 ], [ 114.5642821, 9.9029946 ] ] ] ] } },
{ "type": "Feature", "properties": { "FID": 715121, "id": 2105, "left": 110.0, "top": 10.0, "right": 115.0, "bottom": 5.0, "row_index": 16, "col_index": 58, "min_lon": 110.0, "min_lat": 5.0, "tile_id": "110_5" }, "geometry": { "type": "MultiPolygon", "coordinates": [ [ [ [ 111.6868266, 8.6764772 ], [ 111.6865021, 8.6763473 ], [ 111.686477, 8.6762198 ], [ 111.686545, 8.6759946 ], [ 111.6866037, 8.6757654 ], [ 111.6865646, 8.6756468 ], [ 111.6863162, 8.6754944 ], [ 111.6861215, 8.6753605 ], [ 111.6859913, 8.6752723 ], [ 111.6857682, 8.6751378 ], [ 111.6854484, 8.6749536 ], [ 111.6851401, 8.6747594 ], [ 111.6848059, 8.6745473 ], [ 111.6844771, 8.6743295 ], [ 111.6840505, 8.6740652 ], [ 111.6836371, 8.6737964 ], [ 111.6831677, 8.6734999 ], [ 111.6827022, 8.6732168 ], [ 111.6823516, 8.6729754 ], [ 111.6820616, 8.6727662 ], [ 111.6815957, 8.6724942 ], [ 111.68126, 8.6722815 ], [ 111.6809242, 8.6720689 ], [ 111.6805919, 8.6718653 ], [ 111.6802596, 8.6716617 ], [ 111.6798019, 8.6714075 ], [ 111.6790134, 8.670962 ], [ 111.6787773, 8.6707499 ], [ 111.6787612, 8.6705537 ], [ 111.6788578, 8.6703468 ], [ 111.6790456, 8.6702302 ], [ 111.679244, 8.6702408 ], [ 111.6794318, 8.6704211 ], [ 111.6795284, 8.6705961 ], [ 111.6796625, 8.6706809 ], [ 111.679759, 8.6706332 ], [ 111.6797322, 8.6704847 ], [ 111.6796678, 8.6702885 ], [ 111.6795766, 8.6700287 ], [ 111.6793728, 8.6698643 ], [ 111.6791314, 8.6696999 ], [ 111.67889, 8.6697317 ], [ 111.6787612, 8.6698324 ], [ 111.6787183, 8.6700393 ], [ 111.6786057, 8.6703044 ], [ 111.6784555, 8.6705961 ], [ 111.6779583, 8.6703058 ], [ 111.677362, 8.6699316 ], [ 111.676873, 8.6696415 ], [ 111.6768193, 8.6693923 ], [ 111.6769051, 8.669143 ], [ 111.6769427, 8.6687506 ], [ 111.6770186, 8.6684594 ], [ 111.6771304, 8.6683077 ], [ 111.6774089, 8.6677293 ], [ 111.6775804, 8.6674161 ], [ 111.6778061, 8.6670903 ], [ 111.677941, 8.6668736 ], [ 111.6780148, 8.6666209 ], [ 111.678081, 8.666287 ], [ 111.6781281, 8.6660819 ], [ 111.6782165, 8.665841 ], [ 111.6783535, 8.6655899 ], [ 111.6784716, 8.6653407 ], [ 111.678611, 8.6651391 ], [ 111.6787934, 8.664821 ], [ 111.6789971, 8.6646466 ], [ 111.6793519, 8.6644047 ], [ 111.6798739, 8.6640598 ], [ 111.6801721, 8.6640573 ], [ 111.6803062, 8.6641793 ], [ 111.6803598, 8.6643861 ], [ 111.680392, 8.664646 ], [ 111.6804618, 8.6648263 ], [ 111.680553, 8.6648793 ], [ 111.680612, 8.6647891 ], [ 111.680569, 8.6646406 ], [ 111.6805369, 8.6644179 ], [ 111.6804886, 8.6642005 ], [ 111.6805154, 8.6640096 ], [ 111.6806699, 8.6639848 ], [ 111.6807384, 8.6641401 ], [ 111.6807899, 8.6642567 ], [ 111.6808136, 8.6644867 ], [ 111.6808563, 8.6644834 ], [ 111.6808835, 8.6642132 ], [ 111.6809037, 8.6639569 ], [ 111.6809234, 8.6639184 ], [ 111.6810905, 8.6639577 ], [ 111.6810319, 8.6640281 ], [ 111.6809649, 8.6644133 ], [ 111.6810271, 8.6644204 ], [ 111.6811429, 8.6642123 ], [ 111.6816055, 8.6642409 ], [ 111.6816441, 8.6644291 ], [ 111.6815488, 8.664483 ], [ 111.6815615, 8.6645349 ], [ 111.6816605, 8.664527 ], [ 111.6816962, 8.6646654 ], [ 111.6817424, 8.6648649 ], [ 111.6817098, 8.6650483 ], [ 111.6817201, 8.6652208 ], [ 111.6818145, 8.6652618 ], [ 111.6819052, 8.6651534 ], [ 111.6819062, 8.6648461 ], [ 111.6817996, 8.6645577 ], [ 111.6818334, 8.6642501 ], [ 111.6818765, 8.6638564 ], [ 111.6816618, 8.6635347 ], [ 111.6815213, 8.6632609 ], [ 111.6815485, 8.6631261 ], [ 111.6815769, 8.6629803 ], [ 111.6815566, 8.6628255 ], [ 111.681688, 8.6626346 ], [ 111.6818737, 8.6621783 ], [ 111.681972, 8.6619773 ], [ 111.6820055, 8.6618593 ], [ 111.6819736, 8.6614853 ], [ 111.6819198, 8.6614977 ], [ 111.6818653, 8.6615102 ], [ 111.6818228, 8.6614693 ], [ 111.6817172, 8.6614614 ], [ 111.68168, 8.6614925 ], [ 111.6816657, 8.6616617 ], [ 111.6814267, 8.6618035 ], [ 111.6813329, 8.6617505 ], [ 111.6812369, 8.6617583 ], [ 111.6812074, 8.661578 ], [ 111.6811484, 8.6613633 ], [ 111.6810894, 8.6612625 ], [ 111.6809955, 8.6612227 ], [ 111.6809311, 8.6612572 ], [ 111.6809177, 8.6614057 ], [ 111.6809687, 8.6616178 ], [ 111.6810063, 8.6619174 ], [ 111.6811082, 8.662164 ], [ 111.6812262, 8.6623444 ], [ 111.6812557, 8.6625035 ], [ 111.6812181, 8.6627262 ], [ 111.6810974, 8.6628906 ], [ 111.6808587, 8.662933 ], [ 111.6806817, 8.662941 ], [ 111.6804537, 8.662986 ], [ 111.6803196, 8.6630762 ], [ 111.6801265, 8.6632936 ], [ 111.6799012, 8.6634289 ], [ 111.6796088, 8.6634845 ], [ 111.6793567, 8.6635561 ], [ 111.6790402, 8.6635561 ], [ 111.6787854, 8.6634819 ], [ 111.6787076, 8.6633467 ], [ 111.6787398, 8.6631637 ], [ 111.6788202, 8.6629463 ], [ 111.6788095, 8.6627819 ], [ 111.6786996, 8.6626785 ], [ 111.6785198, 8.6626917 ], [ 111.6784872, 8.6627409 ], [ 111.6784179, 8.6628455 ], [ 111.6783261, 8.6629245 ], [ 111.6781899, 8.6630417 ], [ 111.6779727, 8.6632247 ], [ 111.6778225, 8.6634368 ], [ 111.677522, 8.6634726 ], [ 111.6767104, 8.66344 ], [ 111.6757377, 8.6634685 ], [ 111.6751985, 8.6637403 ], [ 111.674901, 8.6643279 ], [ 111.6746369, 8.6648426 ], [ 111.6744643, 8.6650066 ], [ 111.6740996, 8.6651604 ], [ 111.6738367, 8.665452 ], [ 111.6735953, 8.6658869 ], [ 111.673429, 8.6661839 ], [ 111.6732305, 8.6663907 ], [ 111.6729355, 8.6666877 ], [ 111.6725868, 8.666921 ], [ 111.6722435, 8.6669422 ], [ 111.6717982, 8.6667672 ], [ 111.6713262, 8.6664755 ], [ 111.6707951, 8.6661733 ], [ 111.6702908, 8.6658816 ], [ 111.6698509, 8.6656323 ], [ 111.6692609, 8.6652823 ], [ 111.6689229, 8.665102 ], [ 111.668703, 8.664996 ], [ 111.6685152, 8.6650013 ], [ 111.6683435, 8.6650702 ], [ 111.6682067, 8.6651948 ], [ 111.6677505, 8.6660001 ], [ 111.6676939, 8.6660041 ], [ 111.6676389, 8.6660178 ], [ 111.6675872, 8.6660407 ], [ 111.6675402, 8.6660721 ], [ 111.6674995, 8.6661111 ], [ 111.6674662, 8.6661566 ], [ 111.6674414, 8.666207 ], [ 111.6674259, 8.6662609 ], [ 111.6674201, 8.6663167 ], [ 111.6674241, 8.6663726 ], [ 111.6674379, 8.666427 ], [ 111.6674611, 8.6664782 ], [ 111.6674929, 8.6665246 ], [ 111.6675324, 8.6665649 ], [ 111.6675783, 8.6665978 ], [ 111.6676293, 8.6666223 ], [ 111.6676839, 8.6666376 ], [ 111.6677403, 8.6666434 ], [ 111.6677969, 8.6666394 ], [ 111.6678519, 8.6666257 ], [ 111.6679037, 8.6666028 ], [ 111.6679506, 8.6665714 ], [ 111.6679914, 8.6665324 ], [ 111.6680246, 8.6664869 ], [ 111.6680494, 8.6664365 ], [ 111.6683312, 8.6665508 ], [ 111.6686064, 8.6667248 ], [ 111.669108, 8.6670324 ], [ 111.6703337, 8.6677589 ], [ 111.6710472, 8.6681673 ], [ 111.6718572, 8.6686498 ], [ 111.6727477, 8.6691695 ], [ 111.6728511, 8.6694158 ], [ 111.6729197, 8.6695491 ], [ 111.6730733, 8.6696111 ], [ 111.6730868, 8.6697407 ], [ 111.673193, 8.6697688 ], [ 111.6732828, 8.6696673 ], [ 111.6738945, 8.6698953 ], [ 111.6738932, 8.6699406 ], [ 111.6739318, 8.6699829 ], [ 111.6739987, 8.6700262 ], [ 111.6741097, 8.6699623 ], [ 111.6742662, 8.6700283 ], [ 111.6745931, 8.6701771 ], [ 111.6751349, 8.6704794 ], [ 111.6756874, 8.6707711 ], [ 111.676417, 8.6711794 ], [ 111.6772217, 8.6716832 ], [ 111.6781551, 8.6722135 ], [ 111.6791528, 8.6727651 ], [ 111.6800326, 8.6732848 ], [ 111.6807461, 8.6736878 ], [ 111.6815025, 8.6741439 ], [ 111.6822427, 8.6745787 ], [ 111.6834497, 8.6752469 ], [ 111.6843831, 8.6757825 ], [ 111.6855553, 8.676448 ], [ 111.6859066, 8.6766283 ], [ 111.6860756, 8.6767344 ], [ 111.6861301, 8.6768259 ], [ 111.6861072, 8.6768787 ], [ 111.6860934, 8.6769344 ], [ 111.686089, 8.6769916 ], [ 111.6860943, 8.6770487 ], [ 111.6861089, 8.6771042 ], [ 111.6861327, 8.6771566 ], [ 111.6861648, 8.6772044 ], [ 111.6862044, 8.6772463 ], [ 111.6862505, 8.6772812 ], [ 111.6863017, 8.6773081 ], [ 111.6863567, 8.6773263 ], [ 111.6864141, 8.6773353 ], [ 111.6864721, 8.6773349 ], [ 111.6865293, 8.677325 ], [ 111.686584, 8.677306 ], [ 111.6866348, 8.6772783 ], [ 111.6866804, 8.6772427 ], [ 111.6867193, 8.6772002 ], [ 111.6867507, 8.6771519 ], [ 111.6867736, 8.6770992 ], [ 111.6867874, 8.6770435 ], [ 111.6867918, 8.6769863 ], [ 111.6867865, 8.6769291 ], [ 111.6867719, 8.6768736 ], [ 111.6867481, 8.6768213 ], [ 111.6867596, 8.6766973 ], [ 111.686832, 8.6766628 ], [ 111.6868825, 8.6765642 ], [ 111.6868266, 8.6764772 ] ] ] ] } },
{ "type": "Feature", "properties": { "FID": 715122, "id": 2105, "left": 110.0, "top": 10.0, "right": 115.0, "bottom": 5.0, "row_index": 16, "col_index": 58, "min_lon": 110.0, "min_lat": 5.0, "tile_id": "110_5" }, "geometry": { "type": "MultiPolygon", "coordinates": [ [ [ [ 114.1748843, 8.6850409 ], [ 114.1749894, 8.6852941 ], [ 114.1759142, 8.6856264 ], [ 114.1762166, 8.6855099 ], [ 114.1771676, 8.6834587 ], [ 114.1774326, 8.683512 ], [ 114.1776719, 8.6836671 ], [ 114.1775001, 8.6839073 ], [ 114.1775617, 8.6840112 ], [ 114.1776664, 8.6839427 ], [ 114.1777384, 8.6838276 ], [ 114.1778104, 8.6836933 ], [ 114.1777285, 8.6835529 ], [ 114.1775421, 8.6834221 ], [ 114.177214, 8.6833421 ], [ 114.1773307, 8.6830922 ], [ 114.1770835, 8.6822797 ], [ 114.176447, 8.6820204 ], [ 114.1761127, 8.6821482 ], [ 114.1748843, 8.6850409 ] ] ] ] } },
{ "type": "Feature", "properties": { "FID": 715123, "id": 2105, "left": 110.0, "top": 10.0, "right": 115.0, "bottom": 5.0, "row_index": 16, "col_index": 58, "min_lon": 110.0, "min_lat": 5.0, "tile_id": "110_5" }, "geometry": { "type": "MultiPolygon", "coordinates": [ [ [ [ 114.0516343, 8.7792647 ], [ 114.0519032, 8.7796072 ], [ 114.0525015, 8.7796689 ], [ 114.0524814, 8.7797149 ], [ 114.0525026, 8.7797562 ], [ 114.0524732, 8.7797888 ], [ 114.0525082, 8.7798201 ], [ 114.0525362, 8.779789 ], [ 114.052627, 8.7797944 ], [ 114.0526404, 8.7797833 ], [ 114.0526474, 8.7797774 ], [ 114.0526777, 8.7797523 ], [ 114.0527066, 8.7796614 ], [ 114.0526765, 8.7796059 ], [ 114.0526077, 8.7795748 ], [ 114.0527242, 8.7793126 ], [ 114.0528299, 8.7793186 ], [ 114.0528948, 8.7792616 ], [ 114.0529349, 8.7792697 ], [ 114.0529476, 8.7792082 ], [ 114.0529265, 8.7792014 ], [ 114.052943, 8.7791342 ], [ 114.0531686, 8.7787522 ], [ 114.0528281, 8.7783425 ], [ 114.0521601, 8.7782909 ], [ 114.0517108, 8.7785139 ], [ 114.0516343, 8.7792647 ] ] ] ] } },
{ "type": "Feature", "properties": { "FID": 715359, "id": 2105, "left": 110.0, "top": 10.0, "right": 115.0, "bottom": 5.0, "row_index": 16, "col_index": 58, "min_lon": 110.0, "min_lat": 5.0, "tile_id": "110_5" }, "geometry": { "type": "MultiPolygon", "coordinates": [ [ [ [ 113.3213661, 8.2037563 ], [ 113.3249188, 8.2062837 ], [ 113.3261586, 8.2065943 ], [ 113.3315645, 8.2105058 ], [ 113.3323551, 8.2115919 ], [ 113.3357616, 8.2140513 ], [ 113.3361446, 8.2141797 ], [ 113.3366439, 8.2141494 ], [ 113.3371484, 8.2138173 ], [ 113.338727, 8.2116424 ], [ 113.3388652, 8.2111387 ], [ 113.338826, 8.2107002 ], [ 113.3385037, 8.2102692 ], [ 113.3353927, 8.2080419 ], [ 113.3348191, 8.2078562 ], [ 113.3340207, 8.2078812 ], [ 113.3334043, 8.2078496 ], [ 113.3253125, 8.2020361 ], [ 113.3248376, 8.2015208 ], [ 113.3246763, 8.2010331 ], [ 113.3241696, 8.1976281 ], [ 113.3223862, 8.1963672 ], [ 113.3218621, 8.1964269 ], [ 113.3206857, 8.195484 ], [ 113.3196302, 8.1948835 ], [ 113.316479, 8.1926463 ], [ 113.3147442, 8.1909957 ], [ 113.3135813, 8.1902579 ], [ 113.3133845, 8.190119 ], [ 113.3128949, 8.1898584 ], [ 113.3125567, 8.1896746 ], [ 113.312284, 8.1896622 ], [ 113.3114841, 8.1895594 ], [ 113.3108777, 8.1895404 ], [ 113.3098178, 8.1888457 ], [ 113.3088484, 8.1879704 ], [ 113.308233, 8.1879131 ], [ 113.3074752, 8.1881314 ], [ 113.3057107, 8.1899353 ], [ 113.3029134, 8.1869117 ], [ 113.3028787, 8.1867866 ], [ 113.3028797, 8.1866561 ], [ 113.3028031, 8.1866221 ], [ 113.3027602, 8.1865158 ], [ 113.3028181, 8.1864445 ], [ 113.3029158, 8.1863876 ], [ 113.3030192, 8.1863636 ], [ 113.303054, 8.1862871 ], [ 113.3030065, 8.1862432 ], [ 113.3029477, 8.1862395 ], [ 113.3028271, 8.1862859 ], [ 113.3027537, 8.1863282 ], [ 113.3027094, 8.1864009 ], [ 113.3025752, 8.186495 ], [ 113.3025257, 8.1864087 ], [ 113.30245, 8.1863029 ], [ 113.302365, 8.1862733 ], [ 113.3022478, 8.1862884 ], [ 113.3021574, 8.1862969 ], [ 113.3020893, 8.18626 ], [ 113.3019968, 8.1862349 ], [ 113.3019265, 8.1862043 ], [ 113.3018051, 8.1862233 ], [ 113.3017057, 8.1863112 ], [ 113.3015907, 8.1863247 ], [ 113.3014453, 8.1862989 ], [ 113.3012956, 8.1862618 ], [ 113.3011518, 8.1862018 ], [ 113.3008893, 8.186071 ], [ 113.3006987, 8.1859809 ], [ 113.3005996, 8.1859343 ], [ 113.3005254, 8.1859613 ], [ 113.3006472, 8.1861646 ], [ 113.3007871, 8.1862482 ], [ 113.3010135, 8.1863515 ], [ 113.301349, 8.1864481 ], [ 113.3014993, 8.1864954 ], [ 113.3016941, 8.1864776 ], [ 113.3018089, 8.1864392 ], [ 113.3018853, 8.1864008 ], [ 113.3019557, 8.1863836 ], [ 113.3019943, 8.1863919 ], [ 113.3020559, 8.1863934 ], [ 113.3021085, 8.1863956 ], [ 113.3021397, 8.1865072 ], [ 113.3022135, 8.1865587 ], [ 113.3022499, 8.1866376 ], [ 113.3055803, 8.1900686 ], [ 113.30485, 8.1908317 ], [ 113.3047317, 8.1912122 ], [ 113.3048881, 8.1919054 ], [ 113.3065447, 8.193591 ], [ 113.3078538, 8.1948699 ], [ 113.3094933, 8.1957889 ], [ 113.3122369, 8.1965429 ], [ 113.3205335, 8.2025842 ], [ 113.3213661, 8.2037563 ] ] ] ] } },
{ "type": "Feature", "properties": { "FID": 762631, "id": 2105, "left": 110.0, "top": 10.0, "right": 115.0, "bottom": 5.0, "row_index": 16, "col_index": 58, "min_lon": 110.0, "min_lat": 5.0, "tile_id": "110_5" }, "geometry": { "type": "MultiPolygon", "coordinates": [ [ [ [ 111.9212216, 8.6434965 ], [ 111.9211599, 8.6433891 ], [ 111.9210888, 8.6433175 ], [ 111.9209869, 8.6432658 ], [ 111.9209145, 8.6431916 ], [ 111.9208729, 8.6431399 ], [ 111.920712, 8.6429953 ], [ 111.9205806, 8.6428787 ], [ 111.9203713, 8.642705 ], [ 111.9199978, 8.6423404 ], [ 111.9199754, 8.6422273 ], [ 111.9199262, 8.6421143 ], [ 111.9194234, 8.6416945 ], [ 111.9192629, 8.641506 ], [ 111.9189654, 8.6413176 ], [ 111.9187776, 8.6412407 ], [ 111.9185792, 8.6411718 ], [ 111.918435, 8.6411373 ], [ 111.9183524, 8.6410291 ], [ 111.9182269, 8.6409606 ], [ 111.9181904, 8.6410279 ], [ 111.9184099, 8.641242 ], [ 111.9186556, 8.6412911 ], [ 111.9188233, 8.6413202 ], [ 111.9190541, 8.6414687 ], [ 111.919366, 8.6417228 ], [ 111.9198492, 8.6421375 ], [ 111.9199098, 8.6423563 ], [ 111.920239, 8.6426679 ], [ 111.920544, 8.6429211 ], [ 111.9207529, 8.6431385 ], [ 111.921184, 8.643539 ], [ 111.9212216, 8.6434965 ] ] ] ] } },
{ "type": "Feature", "properties": { "FID": 771546, "id": 2105, "left": 110.0, "top": 10.0, "right": 115.0, "bottom": 5.0, "row_index": 16, "col_index": 58, "min_lon": 110.0, "min_lat": 5.0, "tile_id": "110_5" }, "geometry": { "type": "MultiPolygon", "coordinates": [ [ [ [ 111.6642958, 8.6661429 ], [ 111.664242, 8.6661184 ], [ 111.6641676, 8.6661388 ], [ 111.6641325, 8.6662021 ], [ 111.6641558, 8.6662603 ], [ 111.6642379, 8.6662798 ], [ 111.6642937, 8.6662532 ], [ 111.6643144, 8.6661899 ], [ 111.6642958, 8.6661429 ] ] ] ] } },
{ "type": "Feature", "properties": { "FID": 787759, "id": 2105, "left": 110.0, "top": 10.0, "right": 115.0, "bottom": 5.0, "row_index": 16, "col_index": 58, "min_lon": 110.0, "min_lat": 5.0, "tile_id": "110_5" }, "geometry": { "type": "MultiPolygon", "coordinates": [ [ [ [ 114.6388816, 8.8502081 ], [ 114.6389297, 8.8501303 ], [ 114.6389397, 8.8501142 ], [ 114.6389395, 8.8499749 ], [ 114.6388515, 8.8499183 ], [ 114.6391785, 8.849476 ], [ 114.6392512, 8.8495068 ], [ 114.6393364, 8.8494982 ], [ 114.6393819, 8.8494659 ], [ 114.6394142, 8.8494003 ], [ 114.6394017, 8.8492789 ], [ 114.6395386, 8.8490388 ], [ 114.6395035, 8.8487613 ], [ 114.6387729, 8.8481821 ], [ 114.6385569, 8.8481006 ], [ 114.6383638, 8.8481456 ], [ 114.6382028, 8.8482649 ], [ 114.637652, 8.8490798 ], [ 114.6376395, 8.8493568 ], [ 114.6377629, 8.84959 ], [ 114.6386842, 8.8501843 ], [ 114.6387526, 8.8502369 ], [ 114.6388816, 8.8502081 ] ] ] ] } },
{ "type": "Feature", "properties": { "FID": 791308, "id": 2105, "left": 110.0, "top": 10.0, "right": 115.0, "bottom": 5.0, "row_index": 16, "col_index": 58, "min_lon": 110.0, "min_lat": 5.0, "tile_id": "110_5" }, "geometry": { "type": "MultiPolygon", "coordinates": [ [ [ [ 112.9778101, 9.6498441 ], [ 112.9778335, 9.649823 ], [ 112.9778892, 9.649827 ], [ 112.9779408, 9.649827 ], [ 112.977975, 9.6497998 ], [ 112.9779978, 9.6497298 ], [ 112.9779958, 9.6496716 ], [ 112.977971, 9.6496273 ], [ 112.9779234, 9.6496081 ], [ 112.977808, 9.6496385 ], [ 112.9777423, 9.6496617 ], [ 112.9777222, 9.6497119 ], [ 112.9777095, 9.6497582 ], [ 112.9776994, 9.6498071 ], [ 112.9777222, 9.6498408 ], [ 112.9777792, 9.6498474 ], [ 112.9778101, 9.6498441 ] ] ] ] } },
{ "type": "Feature", "properties": { "FID": 791309, "id": 2105, "left": 110.0, "top": 10.0, "right": 115.0, "bottom": 5.0, "row_index": 16, "col_index": 58, "min_lon": 110.0, "min_lat": 5.0, "tile_id": "110_5" }, "geometry": { "type": "MultiPolygon", "coordinates": [ [ [ [ 112.9782325, 9.6497582 ], [ 112.9782741, 9.6497701 ], [ 112.9783304, 9.6497529 ], [ 112.978376, 9.649708 ], [ 112.9784605, 9.649667 ], [ 112.9785839, 9.6496617 ], [ 112.9787166, 9.6496657 ], [ 112.9788266, 9.6496564 ], [ 112.9789352, 9.6496181 ], [ 112.9790224, 9.6496009 ], [ 112.9791123, 9.6495837 ], [ 112.9791713, 9.6495784 ], [ 112.9792289, 9.6495929 ], [ 112.9792558, 9.649626 ], [ 112.9793027, 9.6496445 ], [ 112.9793443, 9.6496432 ], [ 112.9793738, 9.6496181 ], [ 112.9793966, 9.6495705 ], [ 112.9794395, 9.6495453 ], [ 112.9794931, 9.6495149 ], [ 112.9795387, 9.6494687 ], [ 112.9794851, 9.6494237 ], [ 112.9793376, 9.6494052 ], [ 112.9791686, 9.6494105 ], [ 112.9789835, 9.6494475 ], [ 112.9788172, 9.6494607 ], [ 112.9785758, 9.6494898 ], [ 112.9783559, 9.6495321 ], [ 112.9782955, 9.6495546 ], [ 112.9782312, 9.6495982 ], [ 112.9782043, 9.6496379 ], [ 112.9781976, 9.6496868 ], [ 112.9782137, 9.6497225 ], [ 112.9782325, 9.6497582 ] ] ] ] } },
{ "type": "Feature", "properties": { "FID": 791310, "id": 2105, "left": 110.0, "top": 10.0, "right": 115.0, "bottom": 5.0, "row_index": 16, "col_index": 58, "min_lon": 110.0, "min_lat": 5.0, "tile_id": "110_5" }, "geometry": { "type": "MultiPolygon", "coordinates": [ [ [ [ 113.0190906, 9.662182 ], [ 113.0192247, 9.6621503 ], [ 113.0193883, 9.6620868 ], [ 113.0194876, 9.6619626 ], [ 113.0195251, 9.6618277 ], [ 113.0195627, 9.6617219 ], [ 113.0196404, 9.6617246 ], [ 113.0196834, 9.6616796 ], [ 113.0197021, 9.6615977 ], [ 113.0196592, 9.6614945 ], [ 113.0194983, 9.6613835 ], [ 113.0193347, 9.6613597 ], [ 113.0191925, 9.6613914 ], [ 113.0190611, 9.6614972 ], [ 113.0189645, 9.6616135 ], [ 113.0188921, 9.6618118 ], [ 113.0188546, 9.6619176 ], [ 113.0188385, 9.6620498 ], [ 113.0188626, 9.6621529 ], [ 113.0189075, 9.6621774 ], [ 113.0189672, 9.6621873 ], [ 113.0190906, 9.662182 ] ] ] ] } },
{ "type": "Feature", "properties": { "FID": 794997, "id": 2105, "left": 110.0, "top": 10.0, "right": 115.0, "bottom": 5.0, "row_index": 16, "col_index": 58, "min_lon": 110.0, "min_lat": 5.0, "tile_id": "110_5" }, "geometry": { "type": "MultiPolygon", "coordinates": [ [ [ [ 112.6391544, 5.0203199 ], [ 112.6389492, 5.020717 ], [ 112.6389439, 5.021002 ], [ 112.6390538, 5.0212705 ], [ 112.6392879, 5.021602 ], [ 112.6397562, 5.0221054 ], [ 112.6401629, 5.022535 ], [ 112.640379, 5.0226226 ], [ 112.6406025, 5.0225282 ], [ 112.6407903, 5.0223518 ], [ 112.6409807, 5.0220953 ], [ 112.6410263, 5.021903 ], [ 112.6409405, 5.0217373 ], [ 112.6407152, 5.0217533 ], [ 112.6404834, 5.021903 ], [ 112.6402324, 5.021903 ], [ 112.6398408, 5.0215182 ], [ 112.6396262, 5.0212029 ], [ 112.639535, 5.0209411 ], [ 112.6397603, 5.0206258 ], [ 112.6399803, 5.0203533 ], [ 112.6401627, 5.0201342 ], [ 112.6402968, 5.019899 ], [ 112.6402431, 5.0197066 ], [ 112.6400554, 5.0196051 ], [ 112.6398086, 5.0197066 ], [ 112.6395058, 5.0199975 ], [ 112.6391544, 5.0203199 ] ] ] ] } },
{ "type": "Feature", "properties": { "FID": 794998, "id": 2105, "left": 110.0, "top": 10.0, "right": 115.0, "bottom": 5.0, "row_index": 16, "col_index": 58, "min_lon": 110.0, "min_lat": 5.0, "tile_id": "110_5" }, "geometry": { "type": "MultiPolygon", "coordinates": [ [ [ [ 112.541569, 5.5203858 ], [ 112.5416503, 5.5202159 ], [ 112.5416503, 5.5199812 ], [ 112.5414877, 5.519795 ], [ 112.5413332, 5.5196413 ], [ 112.5411543, 5.5196008 ], [ 112.5410405, 5.5196979 ], [ 112.5409754, 5.5198598 ], [ 112.5410324, 5.520143 ], [ 112.5412194, 5.5203777 ], [ 112.5414064, 5.5204425 ], [ 112.541569, 5.5203858 ] ] ] ] } },
{ "type": "Feature", "properties": { "FID": 794999, "id": 2105, "left": 110.0, "top": 10.0, "right": 115.0, "bottom": 5.0, "row_index": 16, "col_index": 58, "min_lon": 110.0, "min_lat": 5.0, "tile_id": "110_5" }, "geometry": { "type": "MultiPolygon", "coordinates": [ [ [ [ 112.5420328, 5.5215144 ], [ 112.5420274, 5.5214518 ], [ 112.5419439, 5.5214133 ], [ 112.541875, 5.5214133 ], [ 112.541841, 5.5214484 ], [ 112.5418469, 5.5215342 ], [ 112.5419259, 5.5216063 ], [ 112.5419799, 5.5216078 ], [ 112.5420373, 5.5215678 ], [ 112.5420328, 5.5215144 ] ] ] ] } },
{ "type": "Feature", "properties": { "FID": 797064, "id": 2105, "left": 110.0, "top": 10.0, "right": 115.0, "bottom": 5.0, "row_index": 16, "col_index": 58, "min_lon": 110.0, "min_lat": 5.0, "tile_id": "110_5" }, "geometry": { "type": "MultiPolygon", "coordinates": [ [ [ [ 113.3288843, 8.1793785 ], [ 113.3293833, 8.1790766 ], [ 113.3295808, 8.1788727 ], [ 113.329628, 8.1786306 ], [ 113.329555, 8.1784267 ], [ 113.3282804, 8.1764047 ], [ 113.3281045, 8.1762136 ], [ 113.32787, 8.176135 ], [ 113.3275884, 8.1762281 ], [ 113.3270027, 8.1765419 ], [ 113.326876, 8.1767243 ], [ 113.3268342, 8.1769697 ], [ 113.32692, 8.1772331 ], [ 113.3282332, 8.1792678 ], [ 113.3283963, 8.1794122 ], [ 113.3286109, 8.1794675 ], [ 113.3288843, 8.1793785 ] ] ] ] } },
{ "type": "Feature", "properties": { "FID": 805361, "id": 2105, "left": 110.0, "top": 10.0, "right": 115.0, "bottom": 5.0, "row_index": 16, "col_index": 58, "min_lon": 110.0, "min_lat": 5.0, "tile_id": "110_5" }, "geometry": { "type": "MultiPolygon", "coordinates": [ [ [ [ 113.6611317, 8.9595301 ], [ 113.6612776, 8.9594623 ], [ 113.6613635, 8.9593605 ], [ 113.6617153, 8.9586102 ], [ 113.6620287, 8.9586929 ], [ 113.6622518, 8.9584576 ], [ 113.6622045, 8.9581566 ], [ 113.6619128, 8.9580295 ], [ 113.6616682, 8.9581947 ], [ 113.6484975, 8.9519334 ], [ 113.6484848, 8.9511563 ], [ 113.6488408, 8.9504111 ], [ 113.649179, 8.9505662 ], [ 113.6492515, 8.9504019 ], [ 113.6461199, 8.9489108 ], [ 113.6446951, 8.9499706 ], [ 113.6418885, 8.9485589 ], [ 113.6417812, 8.9485547 ], [ 113.6416911, 8.9485801 ], [ 113.6416052, 8.9486649 ], [ 113.6411417, 8.9494831 ], [ 113.6407813, 8.9495425 ], [ 113.6406439, 8.9498138 ], [ 113.640807, 8.9501317 ], [ 113.6411074, 8.9501614 ], [ 113.6412571, 8.950013 ], [ 113.6535124, 8.9559416 ], [ 113.653802, 8.9567767 ], [ 113.6531083, 8.9582383 ], [ 113.6530501, 8.9582223 ], [ 113.652961, 8.9582753 ], [ 113.6529246, 8.9583728 ], [ 113.6529846, 8.9584819 ], [ 113.6530415, 8.9584947 ], [ 113.6531112, 8.9584756 ], [ 113.653137, 8.9585254 ], [ 113.6531621, 8.9585123 ], [ 113.6534089, 8.958984 ], [ 113.6532933, 8.9589916 ], [ 113.6533027, 8.9592243 ], [ 113.653529, 8.9592182 ], [ 113.6535254, 8.9590775 ], [ 113.6541142, 8.9590577 ], [ 113.6541182, 8.9591376 ], [ 113.6541612, 8.9591379 ], [ 113.6541626, 8.9592313 ], [ 113.6542637, 8.9592297 ], [ 113.654263, 8.959136 ], [ 113.6543575, 8.959135 ], [ 113.6543806, 8.9591003 ], [ 113.6543654, 8.9588126 ], [ 113.6551064, 8.9574147 ], [ 113.6559518, 8.9571095 ], [ 113.6609729, 8.9595216 ], [ 113.6611317, 8.9595301 ] ] ] ] } },
{ "type": "Feature", "properties": { "FID": 808378, "id": 2105, "left": 110.0, "top": 10.0, "right": 115.0, "bottom": 5.0, "row_index": 16, "col_index": 58, "min_lon": 110.0, "min_lat": 5.0, "tile_id": "110_5" }, "geometry": { "type": "MultiPolygon", "coordinates": [ [ [ [ 112.9208425, 7.8908949 ], [ 112.9207793, 7.8909254 ], [ 112.9206344, 7.891067 ], [ 112.920158, 7.8919214 ], [ 112.9201752, 7.8920277 ], [ 112.9202653, 7.8921212 ], [ 112.9210314, 7.8924247 ], [ 112.9210899, 7.8924585 ], [ 112.9212379, 7.892514 ], [ 112.921313, 7.8925366 ], [ 112.9220699, 7.89288 ], [ 112.9220914, 7.8931478 ], [ 112.9221815, 7.8932668 ], [ 112.922306, 7.8932753 ], [ 112.9224175, 7.893186 ], [ 112.922512, 7.8928758 ], [ 112.9229782, 7.8920866 ], [ 112.9229987, 7.8919086 ], [ 112.9229523, 7.8917516 ], [ 112.922851, 7.891609 ], [ 112.9211972, 7.8908606 ], [ 112.9211496, 7.8908533 ], [ 112.9210983, 7.8908535 ], [ 112.9210445, 7.8908542 ], [ 112.9209992, 7.890853 ], [ 112.920958, 7.8908571 ], [ 112.9209048, 7.8908678 ], [ 112.9208425, 7.8908949 ] ] ] ] } },
{ "type": "Feature", "properties": { "FID": 811231, "id": 2105, "left": 110.0, "top": 10.0, "right": 115.0, "bottom": 5.0, "row_index": 16, "col_index": 58, "min_lon": 110.0, "min_lat": 5.0, "tile_id": "110_5" }, "geometry": { "type": "MultiPolygon", "coordinates": [ [ [ [ 112.5945221, 8.8402439 ], [ 112.5945774, 8.8402084 ], [ 112.5946074, 8.8401538 ], [ 112.5946176, 8.8401135 ], [ 112.5946122, 8.8400478 ], [ 112.5946294, 8.8400398 ], [ 112.5945876, 8.8399471 ], [ 112.5948664, 8.8395252 ], [ 112.5949243, 8.8391139 ], [ 112.5948793, 8.8386516 ], [ 112.5945616, 8.8382004 ], [ 112.5939051, 8.8378968 ], [ 112.593124, 8.8378152 ], [ 112.592343, 8.8378184 ], [ 112.5915705, 8.837847 ], [ 112.5908152, 8.8379604 ], [ 112.5902191, 8.8383685 ], [ 112.5899912, 8.8388721 ], [ 112.5898946, 8.8393132 ], [ 112.5899869, 8.8399068 ], [ 112.5903066, 8.8404115 ], [ 112.5909396, 8.8407041 ], [ 112.5915956, 8.8407912 ], [ 112.5922515, 8.8408275 ], [ 112.5929074, 8.8408129 ], [ 112.5935805, 8.8407305 ], [ 112.5936759, 8.8407549 ], [ 112.593794, 8.8407035 ], [ 112.5938176, 8.8406139 ], [ 112.5938776, 8.8405937 ], [ 112.5938433, 8.840492 ], [ 112.5937816, 8.84051 ], [ 112.5937332, 8.8404832 ], [ 112.5942835, 8.8401515 ], [ 112.5943049, 8.840202 ], [ 112.5944175, 8.8402402 ], [ 112.5944234, 8.8402646 ], [ 112.5944772, 8.8402535 ], [ 112.5944885, 8.8402509 ], [ 112.5945221, 8.8402439 ] ] ] ] } }
]
}
