{
"type": "FeatureCollection",
"name": "115_65",
"crs": { "type": "name", "properties": { "name": "urn:ogc:def:crs:OGC:1.3:CRS84" } },
"xy_coordinate_resolution": 1e-15,
"features": [
{ "type": "Feature", "properties": { "FID": 123912, "id": 2129, "left": 115.0, "top": 70.0, "right": 120.0, "bottom": 65.0, "row_index": 4, "col_index": 59, "min_lon": 115.0, "min_lat": 65.0, "tile_id": "115_65" }, "geometry": { "type": "MultiPolygon", "coordinates": [ [ [ [ 120.0, 70.0 ], [ 120.0, 65.0 ], [ 115.0, 65.0 ], [ 115.0, 70.0 ], [ 120.0, 70.0 ] ] ] ] } }
]
}
