{
"type": "FeatureCollection",
"name": "115_-80",
"crs": { "type": "name", "properties": { "name": "urn:ogc:def:crs:OGC:1.3:CRS84" } },
"xy_coordinate_resolution": 1e-15,
"features": [
{ "type": "Feature", "properties": { "FID": 307096, "id": 2158, "left": 115.0, "top": -75.0, "right": 120.0, "bottom": -80.0, "row_index": 33, "col_index": 59, "min_lon": 115.0, "min_lat": -80.0, "tile_id": "115_-80" }, "geometry": { "type": "MultiPolygon", "coordinates": [ [ [ [ 120.0, -75.0 ], [ 120.0, -80.0 ], [ 115.0, -80.0 ], [ 115.0, -75.0 ], [ 120.0, -75.0 ] ] ] ] } }
]
}
