{
"type": "FeatureCollection",
"name": "115_-70",
"crs": { "type": "name", "properties": { "name": "urn:ogc:def:crs:OGC:1.3:CRS84" } },
"xy_coordinate_resolution": 1e-15,
"features": [
{ "type": "Feature", "properties": { "FID": 307096, "id": 2156, "left": 115.0, "top": -65.0, "right": 120.0, "bottom": -70.0, "row_index": 31, "col_index": 59, "min_lon": 115.0, "min_lat": -70.0, "tile_id": "115_-70" }, "geometry": { "type": "MultiPolygon", "coordinates": [ [ [ [ 115.0022345, -66.3782352 ], [ 115.009897, -66.3772917 ], [ 115.0158147, -66.3747511 ], [ 115.0210619, -66.3726753 ], [ 115.0275152, -66.3711652 ], [ 115.0387938, -66.3672907 ], [ 115.0448262, -66.3654921 ], [ 115.0476792, -66.3624328 ], [ 115.0578403, -66.3585859 ], [ 115.0698325, -66.3591681 ], [ 115.0843927, -66.3595328 ], [ 115.1009261, -66.3605904 ], [ 115.1113615, -66.3630016 ], [ 115.1065673, -66.3655165 ], [ 115.0960951, -66.3674345 ], [ 115.0846384, -66.3678849 ], [ 115.082191, -66.3688447 ], [ 115.0872486, -66.3702046 ], [ 115.0876122, -66.372434 ], [ 115.0754044, -66.3751424 ], [ 115.0631785, -66.375462 ], [ 115.0563801, -66.3771319 ], [ 115.0474293, -66.3793053 ], [ 115.0393383, -66.3822021 ], [ 115.0289257, -66.3845615 ], [ 115.0214527, -66.3866951 ], [ 115.020842, -66.3892608 ], [ 115.0258337, -66.3895235 ], [ 115.0343283, -66.3901365 ], [ 115.0394949, -66.3921507 ], [ 115.0500914, -66.3926762 ], [ 115.0606876, -66.3896111 ], [ 115.0697076, -66.3882975 ], [ 115.079253, -66.3917129 ], [ 115.0824056, -66.3932892 ], [ 115.0880978, -66.3960039 ], [ 115.0873098, -66.3993316 ], [ 115.0819677, -66.4018712 ], [ 115.0822306, -66.4044109 ], [ 115.0746992, -66.4071256 ], [ 115.0631396, -66.4105409 ], [ 115.0578854, -66.4121173 ], [ 115.0545575, -66.4126427 ], [ 115.0502664, -66.413606 ], [ 115.0450998, -66.4146568 ], [ 115.0392324, -66.4162332 ], [ 115.0326644, -66.4177219 ], [ 115.0256586, -66.4198237 ], [ 115.0151498, -66.4205242 ], [ 115.0019263, -66.4185101 ], [ 115.0, -66.418433348416116 ], [ 115.0, -66.378292601914993 ], [ 115.0022345, -66.3782352 ] ] ], [ [ [ 115.0035704, -66.4804872 ], [ 115.0098416, -66.4813464 ], [ 115.0273805, -66.4815686 ], [ 115.0327549, -66.4814415 ], [ 115.0395758, -66.4815272 ], [ 115.0516343, -66.4832364 ], [ 115.0609524, -66.4825729 ], [ 115.0688687, -66.4811124 ], [ 115.0831172, -66.4797293 ], [ 115.0894655, -66.4796121 ], [ 115.0922397, -66.4815942 ], [ 115.1004336, -66.4828628 ], [ 115.1082737, -66.4823734 ], [ 115.1170441, -66.4824792 ], [ 115.1237631, -66.4839236 ], [ 115.1338794, -66.4856032 ], [ 115.1395674, -66.4878138 ], [ 115.1416997, -66.4919302 ], [ 115.145884, -66.4947071 ], [ 115.1485344, -66.4984398 ], [ 115.156492, -66.5030143 ], [ 115.154885, -66.5049434 ], [ 115.1576817, -66.5067296 ], [ 115.1643666, -66.5087562 ], [ 115.1754143, -66.5112231 ], [ 115.1824619, -66.5150063 ], [ 115.1934858, -66.5178612 ], [ 115.1992007, -66.5198751 ], [ 115.1946394, -66.5221601 ], [ 115.1994072, -66.5237735 ], [ 115.2047319, -66.5249857 ], [ 115.2138261, -66.5270554 ], [ 115.2251505, -66.5258206 ], [ 115.2328363, -66.5276607 ], [ 115.2433972, -66.5303119 ], [ 115.2477637, -66.5307504 ], [ 115.2516148, -66.5315726 ], [ 115.2590065, -66.530681 ], [ 115.2652991, -66.53153 ], [ 115.2723796, -66.5351146 ], [ 115.2847943, -66.5393417 ], [ 115.288989, -66.5423095 ], [ 115.2946904, -66.5447092 ], [ 115.304328, -66.5467618 ], [ 115.3116563, -66.5468409 ], [ 115.3178495, -66.549245 ], [ 115.3303049, -66.5530792 ], [ 115.3384045, -66.556282 ], [ 115.3392519, -66.5582389 ], [ 115.344881, -66.5594023 ], [ 115.3585379, -66.5624676 ], [ 115.3772359, -66.5633116 ], [ 115.3870769, -66.5624392 ], [ 115.3986305, -66.5602851 ], [ 115.4069025, -66.5584215 ], [ 115.4158848, -66.5581879 ], [ 115.4230521, -66.5608573 ], [ 115.4286325, -66.5628612 ], [ 115.4407124, -66.5652543 ], [ 115.4553407, -66.5660483 ], [ 115.4739849, -66.5678541 ], [ 115.5040039, -66.5704157 ], [ 115.5151245, -66.5753909 ], [ 115.5306532, -66.5748879 ], [ 115.5370798, -66.5765711 ], [ 115.5412326, -66.5753112 ], [ 115.5574065, -66.5777332 ], [ 115.574287, -66.5821077 ], [ 115.5849074, -66.5818792 ], [ 115.5930073, -66.582926 ], [ 115.5971033, -66.582638 ], [ 115.6011445, -66.5833233 ], [ 115.6025748, -66.5869069 ], [ 115.6128705, -66.5925168 ], [ 115.6176393, -66.5948313 ], [ 115.6232431, -66.5968283 ], [ 115.631765, -66.6039911 ], [ 115.6322462, -66.6044833 ], [ 115.6388337, -66.6102737 ], [ 115.6579726, -66.6188784 ], [ 115.6598063, -66.6197856 ], [ 115.6622372, -66.6208772 ], [ 115.6739085, -66.6264799 ], [ 115.6906029, -66.6353846 ], [ 115.6926096, -66.6438412 ], [ 115.6963147, -66.649427 ], [ 115.6971567, -66.6506958 ], [ 115.7089839, -66.6592333 ], [ 115.7128044, -66.6644584 ], [ 115.7199339, -66.6690611 ], [ 115.7197155, -66.6732793 ], [ 115.7211008, -66.6781597 ], [ 115.7274169, -66.6827555 ], [ 115.7237561, -66.6901918 ], [ 115.7212147, -66.6917942 ], [ 115.7276346, -66.6944431 ], [ 115.7295881, -66.6982329 ], [ 115.7242428, -66.7127479 ], [ 115.7183451, -66.7230121 ], [ 115.7164517, -66.7317282 ], [ 115.7280433, -66.7373612 ], [ 115.7370679, -66.7454659 ], [ 115.7457883, -66.7526131 ], [ 115.7580423, -66.7577321 ], [ 115.7705413, -66.7560267 ], [ 115.7751462, -66.752776 ], [ 115.7834921, -66.7511833 ], [ 115.7920464, -66.7434493 ], [ 115.7978386, -66.7355638 ], [ 115.8038936, -66.7299999 ], [ 115.8030926, -66.7230352 ], [ 115.7977091, -66.7088133 ], [ 115.799686, -66.701318 ], [ 115.7999852, -66.6924492 ], [ 115.8006422, -66.6831733 ], [ 115.8006286, -66.6733483 ], [ 115.8005232, -66.6662521 ], [ 115.7938164, -66.6509343 ], [ 115.7858354, -66.6429778 ], [ 115.7883859, -66.6387618 ], [ 115.7938646, -66.6292407 ], [ 115.803304, -66.6243792 ], [ 115.8081439, -66.6234497 ], [ 115.8099743, -66.6200485 ], [ 115.817957, -66.6174979 ], [ 115.8201196, -66.6143713 ], [ 115.8178018, -66.6117672 ], [ 115.8260076, -66.6075121 ], [ 115.8298761, -66.6067679 ], [ 115.8302315, -66.6042596 ], [ 115.8306397, -66.6001145 ], [ 115.8370712, -66.5964366 ], [ 115.8423438, -66.5946078 ], [ 115.845174, -66.5918937 ], [ 115.846183, -66.5860056 ], [ 115.8473387, -66.5841562 ], [ 115.8545309, -66.5822275 ], [ 115.8588136, -66.5767922 ], [ 115.8616564, -66.5735324 ], [ 115.8633786, -66.571031 ], [ 115.8613406, -66.5660014 ], [ 115.8674899, -66.562103 ], [ 115.8740065, -66.5640986 ], [ 115.8836628, -66.5619622 ], [ 115.8930016, -66.5612423 ], [ 115.9039931, -66.560202 ], [ 115.9179449, -66.5610293 ], [ 115.9285, -66.5657685 ], [ 115.9331166, -66.5673165 ], [ 115.944869, -66.568568 ], [ 115.9488184, -66.5745867 ], [ 115.9530379, -66.5808247 ], [ 115.9621572, -66.5782442 ], [ 115.9658622, -66.5729127 ], [ 115.972504, -66.5705395 ], [ 115.9819867, -66.5749431 ], [ 115.9931674, -66.5773886 ], [ 116.0080194, -66.5755918 ], [ 116.0183569, -66.5790142 ], [ 116.0229564, -66.5816506 ], [ 116.0342083, -66.5813651 ], [ 116.0452031, -66.580314 ], [ 116.0517896, -66.5801193 ], [ 116.0597111, -66.581566 ], [ 116.0665793, -66.5810442 ], [ 116.0740686, -66.5771416 ], [ 116.0801495, -66.5748707 ], [ 116.0892064, -66.5744644 ], [ 116.092476, -66.5754572 ], [ 116.1009489, -66.5767943 ], [ 116.0993551, -66.5877015 ], [ 116.1066215, -66.5947089 ], [ 116.1387297, -66.5946984 ], [ 116.1453196, -66.5944995 ], [ 116.1612433, -66.5941084 ], [ 116.1654168, -66.5908463 ], [ 116.169309, -66.5879107 ], [ 116.17432, -66.5836685 ], [ 116.1826308, -66.5787803 ], [ 116.1969185, -66.5770717 ], [ 116.2108825, -66.5784162 ], [ 116.2224097, -66.5777893 ], [ 116.2303489, -66.5786809 ], [ 116.2437735, -66.5795845 ], [ 116.2542003, -66.5791709 ], [ 116.2659838, -66.5798505 ], [ 116.2717259, -66.5811718 ], [ 116.2702487, -66.5893529 ], [ 116.282927, -66.584686 ], [ 116.2936272, -66.5844884 ], [ 116.3002128, -66.5842824 ], [ 116.3079101, -66.5827687 ], [ 116.3161621, -66.5806008 ], [ 116.3312513, -66.5800804 ], [ 116.3408553, -66.5795501 ], [ 116.3567699, -66.5785919 ], [ 116.368833, -66.5789362 ], [ 116.3770553, -66.5794928 ], [ 116.3888382, -66.580708 ], [ 116.3956905, -66.5812618 ], [ 116.4017092, -66.5833421 ], [ 116.4027886, -66.5858531 ], [ 116.4088279, -66.585205 ], [ 116.4137718, -66.5842282 ], [ 116.4203666, -66.5823799 ], [ 116.4313471, -66.5807538 ], [ 116.436007, -66.5811945 ], [ 116.4436854, -66.5813103 ], [ 116.4521919, -66.5804442 ], [ 116.4579552, -66.5795757 ], [ 116.4681093, -66.577837 ], [ 116.4859371, -66.5767567 ], [ 116.4925189, -66.5765419 ], [ 116.5029397, -66.5761103 ], [ 116.5122589, -66.5775326 ], [ 116.5158189, -66.5798254 ], [ 116.5064815, -66.5849505 ], [ 116.5059227, -66.5888786 ], [ 116.506737, -66.5922618 ], [ 116.5064547, -66.5953171 ], [ 116.5089171, -66.5983736 ], [ 116.5201708, -66.5980502 ], [ 116.5212554, -66.6049256 ], [ 116.5278449, -66.6047091 ], [ 116.5352561, -66.605693 ], [ 116.5440424, -66.6050398 ], [ 116.5531033, -66.603513 ], [ 116.5616135, -66.6037317 ], [ 116.5725947, -66.6042772 ], [ 116.5841266, -66.6058039 ], [ 116.5962081, -66.6066749 ], [ 116.6006039, -66.6085291 ], [ 116.5984128, -66.6122401 ], [ 116.5923751, -66.6156244 ], [ 116.5849612, -66.6184631 ], [ 116.5860628, -66.6215186 ], [ 116.5863399, -66.6239196 ], [ 116.5893638, -66.6252288 ], [ 116.5885444, -66.6300309 ], [ 116.5803023, -66.6349433 ], [ 116.5728824, -66.6426929 ], [ 116.5720596, -66.6496782 ], [ 116.5673837, -66.6536076 ], [ 116.5632563, -66.659065 ], [ 116.5602283, -66.6632126 ], [ 116.5549967, -66.6672509 ], [ 116.5527918, -66.6720535 ], [ 116.5442521, -66.6762004 ], [ 116.5403913, -66.6807844 ], [ 116.5467237, -66.684715 ], [ 116.5593964, -66.6876633 ], [ 116.5671116, -66.6883184 ], [ 116.5745527, -66.690938 ], [ 116.5789628, -66.6922475 ], [ 116.5894397, -66.696176 ], [ 116.5861346, -66.6990147 ], [ 116.5773132, -66.6996707 ], [ 116.5712485, -66.7008719 ], [ 116.5638041, -66.7058937 ], [ 116.5640797, -66.7093871 ], [ 116.5734582, -66.7118977 ], [ 116.5792511, -66.7126614 ], [ 116.5875331, -66.7192106 ], [ 116.5883644, -66.7225948 ], [ 116.5853325, -66.7267439 ], [ 116.5787085, -66.7275089 ], [ 116.5690485, -66.7329683 ], [ 116.5610413, -66.7342784 ], [ 116.5624217, -66.7370079 ], [ 116.5640783, -66.7410475 ], [ 116.5712599, -66.7429034 ], [ 116.5831386, -66.7446494 ], [ 116.5958466, -66.7454115 ], [ 116.6182244, -66.7461693 ], [ 116.6309296, -66.7452906 ], [ 116.6267979, -66.7496597 ], [ 116.6204494, -66.7522827 ], [ 116.6229399, -66.7537011 ], [ 116.6295747, -66.7545718 ], [ 116.6279267, -66.7581756 ], [ 116.6265477, -66.7592681 ], [ 116.613838, -66.7617843 ], [ 116.6058223, -66.762551 ], [ 116.6080404, -66.7659352 ], [ 116.617728, -66.7702997 ], [ 116.6282371, -66.7704047 ], [ 116.6409722, -66.7744387 ], [ 116.6523135, -66.7746507 ], [ 116.6581255, -66.7754114 ], [ 116.6689173, -66.7762776 ], [ 116.6741696, -66.7755094 ], [ 116.6783104, -66.7738684 ], [ 116.6888156, -66.772877 ], [ 116.7009939, -66.7742857 ], [ 116.7081799, -66.7734052 ], [ 116.715091, -66.7728522 ], [ 116.7267105, -66.7732765 ], [ 116.7325324, -66.7751263 ], [ 116.7314558, -66.7791676 ], [ 116.7336821, -66.7809122 ], [ 116.7436571, -66.7827566 ], [ 116.7533418, -66.7827444 ], [ 116.7635836, -66.7831675 ], [ 116.7696799, -66.7841419 ], [ 116.7647271, -66.7873155 ], [ 116.7611471, -66.7893951 ], [ 116.7633864, -66.7922313 ], [ 116.7659048, -66.7952854 ], [ 116.7625979, -66.7970371 ], [ 116.7570742, -66.7986826 ], [ 116.7512396, -66.7962878 ], [ 116.7468037, -66.795529 ], [ 116.7340705, -66.7958719 ], [ 116.7349265, -66.7992562 ], [ 116.7396585, -66.8024175 ], [ 116.7482587, -66.8042634 ], [ 116.759342, -66.804795 ], [ 116.7676463, -66.8042376 ], [ 116.7726276, -66.8037938 ], [ 116.7798359, -66.8045477 ], [ 116.7889822, -66.8051891 ], [ 116.7995028, -66.8047358 ], [ 116.8114018, -66.8037332 ], [ 116.8211262, -66.8064466 ], [ 116.8275299, -66.8092745 ], [ 116.8355938, -66.8117714 ], [ 116.844192, -66.8125196 ], [ 116.8536094, -66.8122828 ], [ 116.8646699, -66.8106224 ], [ 116.8704539, -66.8080985 ], [ 116.8731868, -66.8053626 ], [ 116.8795512, -66.8049122 ], [ 116.8875724, -66.8041301 ], [ 116.8928393, -66.804446 ], [ 116.9011807, -66.806611 ], [ 116.9070423, -66.809546 ], [ 116.9187526, -66.8143231 ], [ 116.9273983, -66.8177966 ], [ 116.9396244, -66.8197314 ], [ 116.9482106, -66.8193814 ], [ 116.965411, -66.8203179 ], [ 116.9692677, -66.8189967 ], [ 116.9633861, -66.8155182 ], [ 116.9672227, -66.813105 ], [ 116.9741396, -66.8125397 ], [ 116.981337, -66.8121916 ], [ 116.9949397, -66.8135717 ], [ 117.0007942, -66.8154109 ], [ 117.0127656, -66.818214 ], [ 117.0192846, -66.8254019 ], [ 117.0243545, -66.8293178 ], [ 117.0329881, -66.831147 ], [ 117.0415771, -66.8307914 ], [ 117.0610348, -66.8329108 ], [ 117.0688751, -66.8362696 ], [ 117.0741643, -66.8371249 ], [ 117.0728267, -66.839314 ], [ 117.0723113, -66.8410634 ], [ 117.0770867, -66.843668 ], [ 117.0882728, -66.8474511 ], [ 117.0941693, -66.8503789 ], [ 117.1022642, -66.8523152 ], [ 117.1125838, -66.8543521 ], [ 117.11738, -66.8575017 ], [ 117.1218407, -66.8582493 ], [ 117.1290641, -66.8584399 ], [ 117.1352241, -66.8604913 ], [ 117.1364953, -66.8668217 ], [ 117.140731, -66.8695359 ], [ 117.1463001, -66.87006 ], [ 117.1564773, -66.8767917 ], [ 117.1699195, -66.880669 ], [ 117.1783006, -66.8822726 ], [ 117.1827831, -66.8835646 ], [ 117.189345, -66.8896541 ], [ 117.193845, -66.8914919 ], [ 117.199705, -66.8922313 ], [ 117.2056276, -66.8951549 ], [ 117.2118833, -66.8999342 ], [ 117.2204337, -66.9069971 ], [ 117.2222051, -66.9104851 ], [ 117.2278669, -66.9137372 ], [ 117.2412226, -66.9228532 ], [ 117.2529961, -66.9254204 ], [ 117.2675738, -66.9285195 ], [ 117.2724765, -66.9338495 ], [ 117.2822428, -66.9343483 ], [ 117.2889563, -66.9351892 ], [ 117.298009, -66.9394053 ], [ 117.3006347, -66.9429978 ], [ 117.3087807, -66.9449233 ], [ 117.3149444, -66.9458753 ], [ 117.3281688, -66.9495219 ], [ 117.3349072, -66.950907 ], [ 117.3397741, -66.9545965 ], [ 117.3496083, -66.9567295 ], [ 117.3620821, -66.9624535 ], [ 117.3719021, -66.9640388 ], [ 117.3757293, -66.9695907 ], [ 117.3778167, -66.9732945 ], [ 117.3824086, -66.9767659 ], [ 117.3934656, -66.9814028 ], [ 117.3966251, -66.9837891 ], [ 117.4073192, -66.9860229 ], [ 117.4148736, -66.9864164 ], [ 117.4225955, -66.9911799 ], [ 117.4333591, -66.9950508 ], [ 117.4381242, -66.9954597 ], [ 117.4442431, -66.9947673 ], [ 117.4542843, -66.9943788 ], [ 117.460734, -66.9949952 ], [ 117.469711, -66.9959236 ], [ 117.4798639, -66.998265 ], [ 117.4846529, -66.9992185 ], [ 117.5011248, -66.9988956 ], [ 117.5092163, -66.9986252 ], [ 117.5159109, -66.9983633 ], [ 117.5246028, -66.9990716 ], [ 117.5335841, -66.9999961 ], [ 117.5422294, -66.9996108 ], [ 117.5499598, -66.9974825 ], [ 117.5552087, -66.9961355 ], [ 117.5708346, -66.9957012 ], [ 117.5784691, -66.9977251 ], [ 117.593328, -66.9988238 ], [ 117.5966497, -66.9981447 ], [ 117.6025508, -66.998868 ], [ 117.6174115, -66.9999643 ], [ 117.6297178, -67.0002032 ], [ 117.6414187, -66.9994619 ], [ 117.6503519, -66.9992867 ], [ 117.6609718, -66.999317 ], [ 117.6671654, -67.0002542 ], [ 117.6764701, -67.0019326 ], [ 117.6863023, -67.0029507 ], [ 117.69951, -67.0043792 ], [ 117.7075732, -67.0035514 ], [ 117.712289, -67.0028588 ], [ 117.7227977, -67.0006994 ], [ 117.7255061, -66.9990385 ], [ 117.7332472, -66.9974468 ], [ 117.7379038, -66.9956607 ], [ 117.7361597, -66.9943631 ], [ 117.7335722, -66.9929629 ], [ 117.7317716, -66.9905727 ], [ 117.7318065, -66.9858727 ], [ 117.736432, -66.9835406 ], [ 117.7475105, -66.9818121 ], [ 117.7597502, -66.9809476 ], [ 117.7699532, -66.9785688 ], [ 117.7797793, -66.9795805 ], [ 117.7906808, -66.9798176 ], [ 117.802978, -66.9800419 ], [ 117.807977, -66.9795624 ], [ 117.8152449, -66.979719 ], [ 117.8217309, -66.9808658 ], [ 117.8254265, -66.9820362 ], [ 117.8310391, -66.9825342 ], [ 117.8358086, -66.9829301 ], [ 117.8487537, -66.9846752 ], [ 117.8543049, -66.9840799 ], [ 117.8649175, -66.9840954 ], [ 117.8704681, -66.9834994 ], [ 117.8799129, -66.9826498 ], [ 117.8884489, -66.9806055 ], [ 117.9011688, -66.9785226 ], [ 117.91366, -66.977315 ], [ 117.9211871, -66.9771361 ], [ 117.9293652, -66.978481 ], [ 117.9355055, -66.9830143 ], [ 117.9464101, -66.9832396 ], [ 117.9542653, -66.9838211 ], [ 117.9629653, -66.9845034 ], [ 117.9685817, -66.9849962 ], [ 117.9805215, -66.9838975 ], [ 117.9916161, -66.9826967 ], [ 118.004538, -66.9838818 ], [ 118.0147056, -66.9856397 ], [ 118.0240302, -66.987296 ], [ 118.0313376, -66.9879881 ], [ 118.0383879, -66.9890104 ], [ 118.0521247, -66.989746 ], [ 118.0613443, -66.9897614 ], [ 118.0800407, -66.9894597 ], [ 118.0914266, -66.988467 ], [ 118.0997262, -66.9872871 ], [ 118.1057843, -66.986021 ], [ 118.1209838, -66.9836739 ], [ 118.1368069, -66.9823025 ], [ 118.1430154, -66.9832194 ], [ 118.161605, -66.9854227 ], [ 118.1699781, -66.9853312 ], [ 118.1782329, -66.9836007 ], [ 118.191557, -66.9824694 ], [ 118.201874, -66.982245 ], [ 118.2159872, -66.9842728 ], [ 118.2241047, -66.984509 ], [ 118.2391584, -66.9841189 ], [ 118.2589886, -66.9841094 ], [ 118.2699385, -66.9848568 ], [ 118.2783525, -66.9853051 ], [ 118.2857091, -66.9865307 ], [ 118.2925168, -66.9878717 ], [ 118.3042308, -66.9876236 ], [ 118.3081625, -66.9842971 ], [ 118.3076542, -66.9813516 ], [ 118.3158543, -66.9790673 ], [ 118.3236747, -66.9790828 ], [ 118.3288296, -66.9771622 ], [ 118.3305157, -66.9737531 ], [ 118.3300048, -66.9708076 ], [ 118.3362554, -66.9686549 ], [ 118.3430539, -66.9663861 ], [ 118.351541, -66.9643149 ], [ 118.3573699, -66.9639157 ], [ 118.3626057, -66.9630862 ], [ 118.3682585, -66.9605023 ], [ 118.3728565, -66.9586964 ], [ 118.3794843, -66.9578491 ], [ 118.388098, -66.957414 ], [ 118.39726, -66.9568621 ], [ 118.4048655, -66.9577505 ], [ 118.4129754, -66.9579762 ], [ 118.4199432, -66.9578879 ], [ 118.4263175, -66.9573697 ], [ 118.436187, -66.9552759 ], [ 118.4421262, -66.9529041 ], [ 118.4486122, -66.9504156 ], [ 118.4594138, -66.9495107 ], [ 118.4665373, -66.947997 ], [ 118.4683393, -66.9462245 ], [ 118.4779779, -66.9480664 ], [ 118.4873375, -66.9466317 ], [ 118.4942077, -66.945448 ], [ 118.5040804, -66.9402886 ], [ 118.5087717, -66.9365095 ], [ 118.51603, -66.9366314 ], [ 118.5219912, -66.9378634 ], [ 118.5327839, -66.9369532 ], [ 118.5375075, -66.9367801 ], [ 118.5421833, -66.936061 ], [ 118.5483955, -66.9369606 ], [ 118.5586323, -66.9392263 ], [ 118.5651925, -66.9408858 ], [ 118.5727994, -66.9417654 ], [ 118.5855768, -66.9443222 ], [ 118.5903513, -66.9446934 ], [ 118.5936836, -66.9445379 ], [ 118.5985585, -66.9429396 ], [ 118.6037531, -66.9416083 ], [ 118.6139568, -66.9383178 ], [ 118.6214807, -66.9344193 ], [ 118.6291854, -66.9333267 ], [ 118.6362924, -66.9318048 ], [ 118.6438942, -66.9296197 ], [ 118.6534329, -66.9272971 ], [ 118.6629254, -66.927489 ], [ 118.6677484, -66.9284034 ], [ 118.6733146, -66.9283232 ], [ 118.6815706, -66.9301716 ], [ 118.6865496, -66.9327232 ], [ 118.6971612, -66.9388003 ], [ 118.7091054, -66.9412494 ], [ 118.7216513, -66.9441261 ], [ 118.7323832, -66.9512927 ], [ 118.7406525, -66.953138 ], [ 118.7458715, -66.9522948 ], [ 118.7513369, -66.9511197 ], [ 118.7543162, -66.9502004 ], [ 118.7712224, -66.9490714 ], [ 118.7831028, -66.9479075 ], [ 118.7946815, -66.9465285 ], [ 118.8108734, -66.943875 ], [ 118.8152414, -66.9429331 ], [ 118.8286436, -66.9403205 ], [ 118.8406029, -66.9427588 ], [ 118.848087, -66.9450476 ], [ 118.8545921, -66.9486635 ], [ 118.862402, -66.9486502 ], [ 118.8687631, -66.9481127 ], [ 118.8768375, -66.9452514 ], [ 118.8876004, -66.9468303 ], [ 118.9038611, -66.9502887 ], [ 118.917658, -66.9514888 ], [ 118.9335099, -66.9536384 ], [ 118.9458598, -66.9543125 ], [ 118.9572463, -66.9537986 ], [ 118.9634214, -66.9541348 ], [ 118.9737169, -66.9538561 ], [ 118.9955747, -66.9546971 ], [ 119.0050818, -66.9548667 ], [ 119.0128935, -66.9548454 ], [ 119.0302127, -66.9549917 ], [ 119.049954, -66.9568446 ], [ 119.0589172, -66.9571294 ], [ 119.0478945, -66.9584107 ], [ 119.0538904, -66.9596211 ], [ 119.0633391, -66.9592411 ], [ 119.0757544, -66.9579347 ], [ 119.0964641, -66.955937 ], [ 119.1086343, -66.9549601 ], [ 119.1199552, -66.9538876 ], [ 119.1275879, -66.9547382 ], [ 119.1329097, -66.9579934 ], [ 119.1394329, -66.9612686 ], [ 119.1532516, -66.9622259 ], [ 119.1671116, -66.9626836 ], [ 119.2030334, -66.9626458 ], [ 119.223663, -66.9639462 ], [ 119.2449188, -66.9637206 ], [ 119.2667627, -66.9633679 ], [ 119.2708826, -66.9627466 ], [ 119.3043194, -66.9631868 ], [ 119.3191623, -66.9642748 ], [ 119.333452, -66.9660407 ], [ 119.345628, -66.9674057 ], [ 119.3705749, -66.9668607 ], [ 119.3836555, -66.9643208 ], [ 119.3921184, -66.961487 ], [ 119.4015314, -66.9615192 ], [ 119.40118, -66.9554971 ], [ 119.401083, -66.9520916 ], [ 119.4094364, -66.9519291 ], [ 119.4183734, -66.9541616 ], [ 119.427034, -66.9542109 ], [ 119.4386885, -66.9558419 ], [ 119.4388715, -66.9594485 ], [ 119.4301118, -66.9608239 ], [ 119.4255991, -66.9626626 ], [ 119.4361018, -66.9639883 ], [ 119.4520373, -66.9641121 ], [ 119.4641715, -66.9650752 ], [ 119.4656812, -66.9681087 ], [ 119.4764958, -66.9696442 ], [ 119.4842893, -66.9715674 ], [ 119.4867009, -66.9772086 ], [ 119.4967699, -66.9836813 ], [ 119.5060567, -66.9841513 ], [ 119.5167581, -66.9826228 ], [ 119.5287608, -66.9824894 ], [ 119.5418496, -66.9821142 ], [ 119.5579442, -66.9833176 ], [ 119.567937, -66.9827845 ], [ 119.5716643, -66.9813949 ], [ 119.5755526, -66.9791264 ], [ 119.5774305, -66.9764617 ], [ 119.5807748, -66.9743138 ], [ 119.5824905, -66.9725277 ], [ 119.5844546, -66.9684386 ], [ 119.5839997, -66.967135 ], [ 119.5856689, -66.9608638 ], [ 119.5887022, -66.9585034 ], [ 119.5949615, -66.9593584 ], [ 119.5996682, -66.9611208 ], [ 119.6129656, -66.9623759 ], [ 119.6186957, -66.9613809 ], [ 119.6310048, -66.9594819 ], [ 119.6365838, -66.9573951 ], [ 119.6432459, -66.9550665 ], [ 119.6538488, -66.9529826 ], [ 119.6609665, -66.9519565 ], [ 119.6646077, -66.9500192 ], [ 119.6693313, -66.9478399 ], [ 119.6820186, -66.9447248 ], [ 119.6897497, -66.9441219 ], [ 119.698948, -66.9440341 ], [ 119.7038197, -66.9429446 ], [ 119.7079203, -66.9403398 ], [ 119.7301035, -66.9353743 ], [ 119.7390661, -66.9356173 ], [ 119.7485696, -66.933769 ], [ 119.756681, -66.9319505 ], [ 119.7625523, -66.9320409 ], [ 119.7690463, -66.9364941 ], [ 119.7777786, -66.9370682 ], [ 119.783573, -66.9366122 ], [ 119.7984881, -66.9374863 ], [ 119.8014448, -66.9386015 ], [ 119.8043239, -66.9402327 ], [ 119.8061721, -66.9414082 ], [ 119.8101997, -66.9436947 ], [ 119.8157052, -66.9457395 ], [ 119.8266894, -66.9455317 ], [ 119.8379259, -66.9455493 ], [ 119.849069, -66.9454672 ], [ 119.8556466, -66.9436163 ], [ 119.8618026, -66.9429643 ], [ 119.8706092, -66.9421085 ], [ 119.878633, -66.9397378 ], [ 119.8841842, -66.9376419 ], [ 119.8912866, -66.9366047 ], [ 119.8990093, -66.9359907 ], [ 119.9048683, -66.9341057 ], [ 119.909417, -66.9327977 ], [ 119.9182024, -66.9299695 ], [ 119.9308614, -66.9288025 ], [ 119.9413604, -66.9281221 ], [ 119.9516302, -66.9277746 ], [ 119.9628961, -66.9266371 ], [ 119.9692039, -66.9240823 ], [ 119.9734986, -66.9211365 ], [ 119.9746197, -66.9174988 ], [ 119.9736668, -66.9148945 ], [ 119.9763419, -66.9123149 ], [ 119.9773999, -66.9101013 ], [ 119.9911222, -66.9086851 ], [ 119.998377, -66.9087333 ], [ 120.0, -66.9084589 ], [ 120.0, -70.0 ], [ 115.0, -70.0 ], [ 115.0, -66.47961031391246 ], [ 115.0035704, -66.4804872 ] ] ] ] } }
]
}
