{
"type": "FeatureCollection",
"name": "115_40",
"crs": { "type": "name", "properties": { "name": "urn:ogc:def:crs:OGC:1.3:CRS84" } },
"xy_coordinate_resolution": 1e-15,
"features": [
{ "type": "Feature", "properties": { "FID": 123912, "id": 2134, "left": 115.0, "top": 45.0, "right": 120.0, "bottom": 40.0, "row_index": 9, "col_index": 59, "min_lon": 115.0, "min_lat": 40.0, "tile_id": "115_40" }, "geometry": { "type": "MultiPolygon", "coordinates": [ [ [ [ 119.9995357, 40.0711529 ], [ 119.9984306, 40.0709969 ], [ 119.9969608, 40.0706028 ], [ 119.995727, 40.0702498 ], [ 119.9952764, 40.070102 ], [ 119.9946863, 40.0698721 ], [ 119.9937958, 40.0694616 ], [ 119.9933666, 40.0690675 ], [ 119.9943429, 40.0680329 ], [ 119.993931, 40.0676485 ], [ 119.9942503, 40.0672946 ], [ 119.9942135, 40.0672426 ], [ 119.993152, 40.0680083 ], [ 119.9926907, 40.0684681 ], [ 119.9919826, 40.0691167 ], [ 119.9911028, 40.0685256 ], [ 119.9914032, 40.0680576 ], [ 119.9911565, 40.0679673 ], [ 119.9908883, 40.0681725 ], [ 119.9901802, 40.067762 ], [ 119.9897617, 40.0675485 ], [ 119.9898797, 40.0673843 ], [ 119.9913496, 40.0678769 ], [ 119.9921864, 40.0683039 ], [ 119.9925834, 40.0678277 ], [ 119.993313, 40.0674418 ], [ 119.9939055, 40.0668549 ], [ 119.9941104, 40.0666039 ], [ 119.9940959, 40.0665158 ], [ 119.993828, 40.0668178 ], [ 119.9930126, 40.0674664 ], [ 119.9924332, 40.0677374 ], [ 119.9915105, 40.0675978 ], [ 119.9904801, 40.0671999 ], [ 119.9898001, 40.0669601 ], [ 119.9887425, 40.0665714 ], [ 119.9875301, 40.0658982 ], [ 119.9872619, 40.0657668 ], [ 119.9869079, 40.065504 ], [ 119.9861568, 40.0650196 ], [ 119.9860546, 40.0649345 ], [ 119.9858081, 40.0648909 ], [ 119.9847569, 40.0648552 ], [ 119.9829292, 40.0647525 ], [ 119.9813134, 40.0645433 ], [ 119.98032, 40.06412 ], [ 119.9798869, 40.0639491 ], [ 119.9809143, 40.0612606 ], [ 119.9807983, 40.0612449 ], [ 119.9794459, 40.0648235 ], [ 119.9808266, 40.0650546 ], [ 119.9806888, 40.0658864 ], [ 119.9802288, 40.0659154 ], [ 119.9799742, 40.0662187 ], [ 119.9782322, 40.0660726 ], [ 119.9790399, 40.0633504 ], [ 119.9790981, 40.0633514 ], [ 119.9793981, 40.0624229 ], [ 119.9795241, 40.0620286 ], [ 119.9794744, 40.0620137 ], [ 119.9793091, 40.0624045 ], [ 119.9784948, 40.062218 ], [ 119.9784225, 40.062101 ], [ 119.978617, 40.0604134 ], [ 119.9787978, 40.0602116 ], [ 119.9798323, 40.0595399 ], [ 119.9797653, 40.0594343 ], [ 119.9786589, 40.0601847 ], [ 119.978524, 40.0603678 ], [ 119.978391, 40.0612629 ], [ 119.9783177, 40.0621979 ], [ 119.9782691, 40.0632681 ], [ 119.9761171, 40.0633675 ], [ 119.9746099, 40.06324 ], [ 119.9733002, 40.0631396 ], [ 119.9715459, 40.0628411 ], [ 119.9691789, 40.0625289 ], [ 119.9667127, 40.0616612 ], [ 119.9664811, 40.061589 ], [ 119.9637611, 40.061326 ], [ 119.9614031, 40.060832 ], [ 119.9587319, 40.0602999 ], [ 119.9555021, 40.0595324 ], [ 119.9545343, 40.0591282 ], [ 119.9541037, 40.0595689 ], [ 119.9537912, 40.0602887 ], [ 119.9521215, 40.0597932 ], [ 119.9525094, 40.0591515 ], [ 119.9537562, 40.0594784 ], [ 119.954121, 40.0587311 ], [ 119.949405, 40.0575322 ], [ 119.948468, 40.0571426 ], [ 119.9466485, 40.0566087 ], [ 119.9434888, 40.0552903 ], [ 119.9411789, 40.0542162 ], [ 119.9374981, 40.0518879 ], [ 119.9344157, 40.0503504 ], [ 119.9335876, 40.0499562 ], [ 119.9283883, 40.0469581 ], [ 119.9267775, 40.0457305 ], [ 119.9262097, 40.0451286 ], [ 119.9245262, 40.0440339 ], [ 119.92294, 40.0427399 ], [ 119.922685, 40.0423057 ], [ 119.9223778, 40.0417826 ], [ 119.9221009, 40.0412057 ], [ 119.9203947, 40.0394287 ], [ 119.9194178, 40.0382366 ], [ 119.9188768, 40.0375167 ], [ 119.9174756, 40.0362391 ], [ 119.9163563, 40.0351558 ], [ 119.9158284, 40.0347056 ], [ 119.9141737, 40.0328531 ], [ 119.9136053, 40.0319865 ], [ 119.9134083, 40.0309689 ], [ 119.9127843, 40.0299097 ], [ 119.9125301, 40.0295099 ], [ 119.912169, 40.0290722 ], [ 119.9117128, 40.0284021 ], [ 119.9113142, 40.0273373 ], [ 119.9108799, 40.0267021 ], [ 119.9104985, 40.0261442 ], [ 119.9103255, 40.0254805 ], [ 119.9099308, 40.0246582 ], [ 119.9097799, 40.0237001 ], [ 119.9096391, 40.0232797 ], [ 119.909544, 40.0229404 ], [ 119.9094077, 40.0224405 ], [ 119.9092313, 40.0220068 ], [ 119.9089676, 40.0211594 ], [ 119.9088621, 40.0207449 ], [ 119.90862, 40.02 ], [ 119.9078149, 40.0186177 ], [ 119.907669, 40.0183671 ], [ 119.9075401, 40.01823 ], [ 119.9071419, 40.0177272 ], [ 119.9067903, 40.0173323 ], [ 119.9065232, 40.0169385 ], [ 119.9061982, 40.0168815 ], [ 119.9059496, 40.0167065 ], [ 119.9057214, 40.016563 ], [ 119.9057669, 40.016087 ], [ 119.9058798, 40.0154611 ], [ 119.905749, 40.015532 ], [ 119.9058899, 40.0148001 ], [ 119.9059362, 40.0144451 ], [ 119.9061089, 40.0139964 ], [ 119.906205, 40.013477 ], [ 119.9064613, 40.0130786 ], [ 119.9065768, 40.0125002 ], [ 119.9066672, 40.0122079 ], [ 119.9068199, 40.0119096 ], [ 119.9070089, 40.011726 ], [ 119.9072243, 40.0113951 ], [ 119.90772, 40.01065 ], [ 119.9080026, 40.0102392 ], [ 119.90836, 40.01012 ], [ 119.9084959, 40.0099787 ], [ 119.908872, 40.009558 ], [ 119.9090737, 40.0094641 ], [ 119.9092685, 40.0094675 ], [ 119.9094899, 40.0093912 ], [ 119.909653, 40.0091451 ], [ 119.912163, 40.0080982 ], [ 119.9156826, 40.0114398 ], [ 119.9157655, 40.0113801 ], [ 119.9122712, 40.0080525 ], [ 119.9144937, 40.0071316 ], [ 119.9167817, 40.0061859 ], [ 119.9184347, 40.007808 ], [ 119.9192096, 40.0085439 ], [ 119.9193955, 40.008755 ], [ 119.9194215, 40.0089341 ], [ 119.9191926, 40.0094691 ], [ 119.9191056, 40.0094705 ], [ 119.9190302, 40.0098221 ], [ 119.9191664, 40.009866 ], [ 119.9190129, 40.0102715 ], [ 119.9190887, 40.0102957 ], [ 119.9192478, 40.0098962 ], [ 119.9196108, 40.0099753 ], [ 119.9194961, 40.0103911 ], [ 119.9195922, 40.0104031 ], [ 119.9197161, 40.0099947 ], [ 119.9199249, 40.0100153 ], [ 119.9196248, 40.0109766 ], [ 119.9194119, 40.0115435 ], [ 119.9195483, 40.0115745 ], [ 119.920031, 40.0099505 ], [ 119.9200988, 40.0095584 ], [ 119.9199666, 40.0091421 ], [ 119.9196234, 40.008682 ], [ 119.9184596, 40.0076521 ], [ 119.9176734, 40.0068837 ], [ 119.9172235, 40.0064048 ], [ 119.9169956, 40.0060906 ], [ 119.9169289, 40.0057593 ], [ 119.9167396, 40.0056388 ], [ 119.9165994, 40.0054854 ], [ 119.9165289, 40.0053415 ], [ 119.9166237, 40.0051629 ], [ 119.9163456, 40.0046974 ], [ 119.9160575, 40.0044164 ], [ 119.9158989, 40.0039059 ], [ 119.91593, 40.00351 ], [ 119.9160266, 40.0034146 ], [ 119.916268, 40.0034095 ], [ 119.9166168, 40.0034262 ], [ 119.9169968, 40.0034579 ], [ 119.9173464, 40.0027102 ], [ 119.9175133, 40.0020297 ], [ 119.9175354, 40.0017431 ], [ 119.9174349, 40.001673 ], [ 119.9173356, 40.0018294 ], [ 119.9171689, 40.0019231 ], [ 119.9166454, 40.0020665 ], [ 119.9162567, 40.0019636 ], [ 119.9157554, 40.0018259 ], [ 119.9152702, 40.0015646 ], [ 119.9148818, 40.0013412 ], [ 119.9144866, 40.0010572 ], [ 119.9142468, 40.0006728 ], [ 119.9140351, 40.0004504 ], [ 119.9139181, 40.0001982 ], [ 119.913884, 40.0000402 ], [ 119.913902342101693, 40.0 ], [ 119.913124272405099, 40.0 ], [ 119.9130824, 40.0000033 ], [ 119.913068817209989, 40.0 ], [ 115.0, 40.0 ], [ 115.0, 45.0 ], [ 120.0, 45.0 ], [ 120.0, 40.071231842364902 ], [ 119.9995357, 40.0711529 ] ] ] ] } },
{ "type": "Feature", "properties": { "FID": 641407, "id": 2134, "left": 115.0, "top": 45.0, "right": 120.0, "bottom": 40.0, "row_index": 9, "col_index": 59, "min_lon": 115.0, "min_lat": 40.0, "tile_id": "115_40" }, "geometry": { "type": "MultiPolygon", "coordinates": [ [ [ [ 119.9862585, 40.0646198 ], [ 119.9863117, 40.0643654 ], [ 119.9864912, 40.0639076 ], [ 119.9869764, 40.0629665 ], [ 119.9870628, 40.06288 ], [ 119.987229, 40.0628698 ], [ 119.987229, 40.0626867 ], [ 119.9875945, 40.0625442 ], [ 119.9875414, 40.0624781 ], [ 119.9872423, 40.0626155 ], [ 119.9870694, 40.0625493 ], [ 119.9869897, 40.0625442 ], [ 119.987003, 40.0626358 ], [ 119.9869365, 40.0627579 ], [ 119.9867504, 40.063175 ], [ 119.9864912, 40.063699 ], [ 119.9860791, 40.0645791 ], [ 119.9862585, 40.0646198 ] ] ] ] } }
]
}
