{
"type": "FeatureCollection",
"name": "125_-90",
"crs": { "type": "name", "properties": { "name": "urn:ogc:def:crs:OGC:1.3:CRS84" } },
"xy_coordinate_resolution": 1e-15,
"features": [
{ "type": "Feature", "properties": { "FID": 307096, "id": 2232, "left": 125.0, "top": -85.0, "right": 130.0, "bottom": -90.0, "row_index": 35, "col_index": 61, "min_lon": 125.0, "min_lat": -90.0, "tile_id": "125_-90" }, "geometry": { "type": "MultiPolygon", "coordinates": [ [ [ [ 129.0, -90.0 ], [ 128.0, -90.0 ], [ 127.0, -90.0 ], [ 126.0, -90.0 ], [ 125.0, -90.0 ], [ 125.0, -85.0 ], [ 130.0, -85.0 ], [ 130.0, -90.0 ], [ 129.0, -90.0 ] ] ] ] } }
]
}
