{
"type": "FeatureCollection",
"name": "125_50",
"crs": { "type": "name", "properties": { "name": "urn:ogc:def:crs:OGC:1.3:CRS84" } },
"xy_coordinate_resolution": 1e-15,
"features": [
{ "type": "Feature", "properties": { "FID": 123912, "id": 2204, "left": 125.0, "top": 55.0, "right": 130.0, "bottom": 50.0, "row_index": 7, "col_index": 61, "min_lon": 125.0, "min_lat": 50.0, "tile_id": "125_50" }, "geometry": { "type": "MultiPolygon", "coordinates": [ [ [ [ 130.0, 55.0 ], [ 130.0, 50.0 ], [ 125.0, 50.0 ], [ 125.0, 55.0 ], [ 130.0, 55.0 ] ] ] ] } }
]
}
