{
"type": "FeatureCollection",
"name": "125_-70",
"crs": { "type": "name", "properties": { "name": "urn:ogc:def:crs:OGC:1.3:CRS84" } },
"xy_coordinate_resolution": 1e-15,
"features": [
{ "type": "Feature", "properties": { "FID": 307096, "id": 2228, "left": 125.0, "top": -65.0, "right": 130.0, "bottom": -70.0, "row_index": 31, "col_index": 61, "min_lon": 125.0, "min_lat": -70.0, "tile_id": "125_-70" }, "geometry": { "type": "MultiPolygon", "coordinates": [ [ [ [ 125.0259483, -66.4611626 ], [ 125.0417504, -66.4701722 ], [ 125.0407666, -66.4742111 ], [ 125.0304917, -66.4813898 ], [ 125.0134375, -66.4877758 ], [ 125.010376, -66.4983059 ], [ 125.0, -66.502562762589562 ], [ 125.0, -66.456996725177191 ], [ 125.0259483, -66.4611626 ] ] ], [ [ [ 125.0078867, -66.5559735 ], [ 125.0, -66.562730434137094 ], [ 125.0, -66.548955433346151 ], [ 125.0078867, -66.5559735 ] ] ], [ [ [ 125.0032003, -66.6024337 ], [ 125.0, -66.604519901738442 ], [ 125.0, -66.602523322970157 ], [ 125.0032003, -66.6024337 ] ] ], [ [ [ 125.001772, -66.6576686 ], [ 125.0085069, -66.6622503 ], [ 125.0405442, -66.6673306 ], [ 125.066562, -66.6643969 ], [ 125.0863845, -66.6610297 ], [ 125.0988347, -66.6580984 ], [ 125.1194856, -66.6582621 ], [ 125.1199949, -66.6596053 ], [ 125.1276141, -66.6791431 ], [ 125.1286417, -66.6753795 ], [ 125.1374667, -66.6680281 ], [ 125.1417033, -66.6623458 ], [ 125.1493799, -66.65742 ], [ 125.164771, -66.6481022 ], [ 125.1656513, -66.6427333 ], [ 125.173106, -66.6353986 ], [ 125.1741482, -66.6319022 ], [ 125.1850593, -66.6255903 ], [ 125.1942763, -66.6230512 ], [ 125.204838, -66.6204927 ], [ 125.2140032, -66.6174175 ], [ 125.2244164, -66.6132525 ], [ 125.2238887, -66.6073673 ], [ 125.222087, -66.6023035 ], [ 125.2331173, -66.5975935 ], [ 125.2348225, -66.5940872 ], [ 125.237993, -66.5918991 ], [ 125.2368863, -66.5870936 ], [ 125.2313139, -66.5850302 ], [ 125.2309532, -66.5810175 ], [ 125.2367633, -66.5782562 ], [ 125.2386114, -66.5763549 ], [ 125.2382016, -66.5718071 ], [ 125.2364961, -66.5678137 ], [ 125.2366384, -66.5619189 ], [ 125.2436663, -66.5578006 ], [ 125.2440241, -66.5543134 ], [ 125.2477152, -66.5505104 ], [ 125.2548109, -66.5471942 ], [ 125.2559109, -66.5444998 ], [ 125.269814, -66.5421561 ], [ 125.2736705, -66.5402252 ], [ 125.2843363, -66.5392664 ], [ 125.291547, -66.5372861 ], [ 125.2918731, -66.5335312 ], [ 125.2887707, -66.5290229 ], [ 125.2816372, -66.5247142 ], [ 125.2802542, -66.5240579 ], [ 125.2846305, -66.5205118 ], [ 125.2897502, -66.5177584 ], [ 125.2954651, -66.5141925 ], [ 125.2990439, -66.5093184 ], [ 125.3018026, -66.5028491 ], [ 125.2992491, -66.4969937 ], [ 125.3020559, -66.4910593 ], [ 125.3063741, -66.4869777 ], [ 125.3084095, -66.4799832 ], [ 125.3087325, -66.4762283 ], [ 125.3115845, -66.4708288 ], [ 125.3132205, -66.4667866 ], [ 125.3126507, -66.4606341 ], [ 125.3174323, -66.4544024 ], [ 125.327092, -66.4502407 ], [ 125.3315489, -66.4477634 ], [ 125.3374422, -66.4463359 ], [ 125.3430159, -66.4447449 ], [ 125.3473143, -66.4398567 ], [ 125.3538948, -66.4368251 ], [ 125.3588436, -66.4336258 ], [ 125.3609349, -66.4303649 ], [ 125.3631367, -66.4287371 ], [ 125.3671072, -66.4270594 ], [ 125.3699768, -66.4261954 ], [ 125.3735426, -66.4242443 ], [ 125.389085, -66.4216677 ], [ 125.3958946, -66.4209755 ], [ 125.3995838, -66.4197317 ], [ 125.4043589, -66.4185991 ], [ 125.4103588, -66.4173601 ], [ 125.4171668, -66.4166669 ], [ 125.4232807, -66.4170608 ], [ 125.4274757, -66.4186482 ], [ 125.4315443, -66.4195275 ], [ 125.4354859, -66.4196988 ], [ 125.4442011, -66.418736 ], [ 125.4538742, -66.4171757 ], [ 125.4602765, -66.4162076 ], [ 125.468031, -66.4158406 ], [ 125.4744323, -66.4148719 ], [ 125.4787981, -66.413464 ], [ 125.4833018, -66.4118384 ], [ 125.4872616, -66.4101574 ], [ 125.4901252, -66.409291 ], [ 125.4946182, -66.4085906 ], [ 125.5030692, -66.4062084 ], [ 125.5077164, -66.4034391 ], [ 125.5143889, -66.4020336 ], [ 125.5183449, -66.4003517 ], [ 125.5235083, -66.4004134 ], [ 125.5279829, -66.401563 ], [ 125.5304154, -66.4031996 ], [ 125.5408661, -66.4049558 ], [ 125.5505071, -66.4061657 ], [ 125.5650522, -66.4060198 ], [ 125.5688089, -66.4055866 ], [ 125.5768816, -66.405738 ], [ 125.5850785, -66.4055731 ], [ 125.5945389, -66.4056077 ], [ 125.6084753, -66.4043601 ], [ 125.6171937, -66.4035152 ], [ 125.6309659, -66.4034688 ], [ 125.647205, -66.4010608 ], [ 125.6634642, -66.3984792 ], [ 125.6745969, -66.3956142 ], [ 125.6852756, -66.3929112 ], [ 125.6901738, -66.3916363 ], [ 125.6978028, -66.3892124 ], [ 125.7105069, -66.3874126 ], [ 125.7227803, -66.3856028 ], [ 125.7317574, -66.3826885 ], [ 125.7430318, -66.3786152 ], [ 125.7523159, -66.3732931 ], [ 125.7594319, -66.3680976 ], [ 125.7680957, -66.3608655 ], [ 125.7720969, -66.3564668 ], [ 125.7763042, -66.353796 ], [ 125.7821125, -66.3520201 ], [ 125.7908729, -66.3506496 ], [ 125.8008728, -66.3496489 ], [ 125.8087097, -66.3487757 ], [ 125.810125, -66.3477704 ], [ 125.8136234, -66.3438776 ], [ 125.8204355, -66.3409143 ], [ 125.8271153, -66.3389822 ], [ 125.8364267, -66.3365863 ], [ 125.8444528, -66.3341639 ], [ 125.8503167, -66.3318696 ], [ 125.8529509, -66.3279585 ], [ 125.862429, -66.3207382 ], [ 125.8689726, -66.3163887 ], [ 125.8744239, -66.3139129 ], [ 125.8797887, -66.3121247 ], [ 125.8894487, -66.3102499 ], [ 125.897719, -66.3092087 ], [ 125.9059041, -66.3088548 ], [ 125.9152657, -66.3093856 ], [ 125.9284123, -66.3105078 ], [ 125.9339276, -66.3109614 ], [ 125.9445426, -66.3082404 ], [ 125.9498151, -66.3060516 ], [ 125.9508605, -66.3056068 ], [ 125.9570106, -66.3043484 ], [ 125.962629, -66.3039413 ], [ 125.9673923, -66.3035173 ], [ 125.9701224, -66.3021917 ], [ 125.972914, -66.3003503 ], [ 125.9743821, -66.2988276 ], [ 125.9810393, -66.2968888 ], [ 125.9859246, -66.2954326 ], [ 125.9903, -66.2946556 ], [ 125.9946543, -66.2940505 ], [ 126.0013087, -66.2921109 ], [ 126.0082276, -66.2879354 ], [ 126.0183165, -66.2858889 ], [ 126.0291159, -66.2850618 ], [ 126.0420499, -66.2842746 ], [ 126.0505918, -66.284437 ], [ 126.0562445, -66.2836825 ], [ 126.0601283, -66.2834114 ], [ 126.0672486, -66.2847524 ], [ 126.0749165, -66.2850695 ], [ 126.0815425, -66.2832983 ], [ 126.0873928, -66.280823 ], [ 126.0995171, -66.2758796 ], [ 126.1106844, -66.2717793 ], [ 126.1143951, -66.2692632 ], [ 126.1213426, -66.2683581 ], [ 126.1274166, -66.2676089 ], [ 126.1336271, -66.2656557 ], [ 126.1365004, -66.2629513 ], [ 126.1393928, -66.2600749 ], [ 126.1412361, -66.2589025 ], [ 126.1469776, -66.2572847 ], [ 126.1540761, -66.2550024 ], [ 126.1587691, -66.2550884 ], [ 126.1655182, -66.2559012 ], [ 126.1740899, -66.2557128 ], [ 126.1870239, -66.2547415 ], [ 126.194449, -66.2533249 ], [ 126.2038919, -66.2529784 ], [ 126.2104245, -66.2518896 ], [ 126.2147285, -66.2516223 ], [ 126.2252234, -66.2533613 ], [ 126.2331786, -66.254882 ], [ 126.2392209, -66.2582638 ], [ 126.2543583, -66.2606003 ], [ 126.2595886, -66.2636223 ], [ 126.2669359, -66.2668537 ], [ 126.2779973, -66.2713563 ], [ 126.286129, -66.2752897 ], [ 126.2922017, -66.2784975 ], [ 126.2954155, -66.2804491 ], [ 126.2995944, -66.2813835 ], [ 126.3022677, -66.280396 ], [ 126.304013, -66.2800817 ], [ 126.3114625, -66.282451 ], [ 126.316649, -66.2859871 ], [ 126.3194811, -66.2915503 ], [ 126.323425, -66.29472 ], [ 126.3313447, -66.2967517 ], [ 126.3340815, -66.2992112 ], [ 126.3371371, -66.3027099 ], [ 126.3395566, -66.3041299 ], [ 126.3499552, -66.3070647 ], [ 126.3607659, -66.310178 ], [ 126.3709037, -66.311556 ], [ 126.3860856, -66.3138798 ], [ 126.3919132, -66.3155285 ], [ 126.3948539, -66.3160947 ], [ 126.3888645, -66.3201298 ], [ 126.3896138, -66.3209337 ], [ 126.3917414, -66.3213164 ], [ 126.3943805, -66.320664 ], [ 126.4030702, -66.3153705 ], [ 126.4061708, -66.3143884 ], [ 126.4113923, -66.3154293 ], [ 126.4161007, -66.3178277 ], [ 126.4159594, -66.3192039 ], [ 126.4106306, -66.3210106 ], [ 126.410489, -66.3223868 ], [ 126.4179042, -66.3211316 ], [ 126.4217195, -66.3215395 ], [ 126.4240047, -66.3243344 ], [ 126.425593, -66.3255668 ], [ 126.4272378, -66.327157 ], [ 126.4233278, -66.3281963 ], [ 126.420515, -66.3291013 ], [ 126.4198751, -66.3311583 ], [ 126.4197339, -66.3325345 ], [ 126.4200206, -66.3339177 ], [ 126.424125, -66.3357088 ], [ 126.4248402, -66.3370992 ], [ 126.4221302, -66.3384327 ], [ 126.4207222, -66.3396156 ], [ 126.4205454, -66.3413358 ], [ 126.4195478, -66.3426977 ], [ 126.4193356, -66.3447619 ], [ 126.4212649, -66.3468616 ], [ 126.4278709, -66.3493833 ], [ 126.4306228, -66.3518411 ], [ 126.4344297, -66.3529008 ], [ 126.4354564, -66.3530565 ], [ 126.4377269, -66.3534009 ], [ 126.4429232, -66.3532497 ], [ 126.4496905, -66.3542223 ], [ 126.4558903, -66.3565637 ], [ 126.4597291, -66.3567987 ], [ 126.4613212, -66.3580308 ], [ 126.4652759, -66.3613691 ], [ 126.471033, -66.363875 ], [ 126.473518, -66.3647769 ], [ 126.4758301, -66.3673989 ], [ 126.4773026, -66.369835 ], [ 126.4839374, -66.3721823 ], [ 126.4928035, -66.3737036 ], [ 126.5025797, -66.3747222 ], [ 126.5143302, -66.3774947 ], [ 126.5230471, -66.3805626 ], [ 126.5313371, -66.3836233 ], [ 126.5350963, -66.3847166 ], [ 126.5395992, -66.3856248 ], [ 126.5397306, -66.3856513 ], [ 126.5448785, -66.3857325 ], [ 126.5545943, -66.3874359 ], [ 126.5668192, -66.3898671 ], [ 126.5785341, -66.3931509 ], [ 126.5830221, -66.3956326 ], [ 126.590466, -66.3986769 ], [ 126.5965084, -66.4029052 ], [ 126.6053593, -66.4047643 ], [ 126.6255439, -66.4095525 ], [ 126.6437989, -66.4120691 ], [ 126.6540259, -66.4130847 ], [ 126.6565868, -66.4132954 ], [ 126.6592281, -66.412646 ], [ 126.6640329, -66.4118566 ], [ 126.6692027, -66.4117616 ], [ 126.6726866, -66.4112968 ], [ 126.6778722, -66.4110295 ], [ 126.6796858, -66.4100228 ], [ 126.6836304, -66.4092199 ], [ 126.6853481, -66.4092455 ], [ 126.6872249, -66.4075505 ], [ 126.6890537, -66.4063716 ], [ 126.6920752, -66.406244 ], [ 126.6963059, -66.4069957 ], [ 126.7053077, -66.4073007 ], [ 126.7095232, -66.4082241 ], [ 126.717604, -66.409204 ], [ 126.7230148, -66.4111782 ], [ 126.7263256, -66.4126047 ], [ 126.7297149, -66.4131709 ], [ 126.7375396, -66.4122509 ], [ 126.7457314, -66.412025 ], [ 126.7499957, -66.4124311 ], [ 126.7556255, -66.4119953 ], [ 126.7615772, -66.41277 ], [ 126.767882, -66.4144108 ], [ 126.7699226, -66.415646 ], [ 126.7706591, -66.4170348 ], [ 126.7748631, -66.4181284 ], [ 126.7827031, -66.4170341 ], [ 126.7913865, -66.4161236 ], [ 126.7981691, -66.4172532 ], [ 126.8007165, -66.4176336 ], [ 126.8027136, -66.4193845 ], [ 126.8090228, -66.4210237 ], [ 126.8082088, -66.4303152 ], [ 126.8088424, -66.4329083 ], [ 126.8151103, -66.4350634 ], [ 126.8151996, -66.4350922 ], [ 126.8201343, -66.4366841 ], [ 126.8303041, -66.4385485 ], [ 126.8387254, -66.4407326 ], [ 126.8434254, -66.446138 ], [ 126.8510493, -66.4476213 ], [ 126.8526959, -66.4485053 ], [ 126.8510503, -66.4526172 ], [ 126.8521487, -66.4548718 ], [ 126.8530993, -66.4588472 ], [ 126.8528776, -66.4614282 ], [ 126.8495093, -66.4655164 ], [ 126.8475945, -66.4677296 ], [ 126.8457388, -66.4692544 ], [ 126.8453082, -66.4742443 ], [ 126.8421303, -66.4760955 ], [ 126.8379415, -66.4796554 ], [ 126.8314242, -66.4821137 ], [ 126.835733, -66.4856512 ], [ 126.8402011, -66.4892251 ], [ 126.8455661, -66.4920844 ], [ 126.8527511, -66.4943278 ], [ 126.8573318, -66.4963863 ], [ 126.861799, -66.4976214 ], [ 126.8733698, -66.4995882 ], [ 126.8802442, -66.4998165 ], [ 126.8837946, -66.4978954 ], [ 126.8861981, -66.4946023 ], [ 126.8911215, -66.4922692 ], [ 126.888599, -66.4890225 ], [ 126.8797801, -66.4862337 ], [ 126.8772603, -66.4841303 ], [ 126.8756565, -66.480609 ], [ 126.8697037, -66.4778195 ], [ 126.8702761, -66.4739324 ], [ 126.8710771, -66.4716916 ], [ 126.8822903, -66.4700448 ], [ 126.898996, -66.4701796 ], [ 126.9064351, -66.4710925 ], [ 126.9215395, -66.4711335 ], [ 126.9347077, -66.4743294 ], [ 126.9462769, -66.4774333 ], [ 126.9515589, -66.4821407 ], [ 126.9542028, -66.485066 ], [ 126.9702614, -66.4916869 ], [ 126.9739319, -66.4928734 ], [ 126.9944517, -66.4961498 ], [ 127.0082214, -66.5000247 ], [ 127.0128101, -66.5009349 ], [ 127.0246049, -66.4999622 ], [ 127.0360455, -66.4976627 ], [ 127.0440333, -66.4935372 ], [ 127.0570728, -66.4913255 ], [ 127.0737746, -66.4891533 ], [ 127.0789217, -66.4884599 ], [ 127.0918545, -66.4877088 ], [ 127.1000859, -66.4863695 ], [ 127.1086497, -66.4840689 ], [ 127.1208758, -66.4818072 ], [ 127.1337771, -66.4787657 ], [ 127.1439244, -66.4754083 ], [ 127.1496468, -66.4753972 ], [ 127.1670494, -66.4758653 ], [ 127.1858203, -66.4759166 ], [ 127.2072669, -66.478886 ], [ 127.2187657, -66.4822884 ], [ 127.2244333, -66.4860246 ], [ 127.2319445, -66.4903506 ], [ 127.2455323, -66.4948433 ], [ 127.2451701, -66.5006984 ], [ 127.2566148, -66.5067051 ], [ 127.2618889, -66.506828 ], [ 127.2737772, -66.5115517 ], [ 127.2911642, -66.5157554 ], [ 127.302607, -66.5206155 ], [ 127.3136626, -66.5230059 ], [ 127.3185746, -66.5278391 ], [ 127.323443, -66.5303852 ], [ 127.3314207, -66.5334245 ], [ 127.338883, -66.5392095 ], [ 127.3570588, -66.5411618 ], [ 127.3688517, -66.5450553 ], [ 127.3787163, -66.5498238 ], [ 127.3766444, -66.5547714 ], [ 127.3778234, -66.5561397 ], [ 127.3860584, -66.5596785 ], [ 127.3953161, -66.5626185 ], [ 127.4105629, -66.5660388 ], [ 127.4124426, -66.5677701 ], [ 127.4079596, -66.5725904 ], [ 127.4088462, -66.576064 ], [ 127.415267, -66.5801572 ], [ 127.4220394, -66.5844319 ], [ 127.4275233, -66.587659 ], [ 127.4339791, -66.5928953 ], [ 127.4494264, -66.603174 ], [ 127.4558031, -66.6049784 ], [ 127.4587395, -66.6072541 ], [ 127.4618429, -66.6114966 ], [ 127.4651609, -66.6150975 ], [ 127.4605434, -66.6190972 ], [ 127.4523146, -66.6216015 ], [ 127.4451058, -66.6235064 ], [ 127.4420693, -66.626447 ], [ 127.4457658, -66.631374 ], [ 127.4556651, -66.639891 ], [ 127.4667311, -66.6486316 ], [ 127.4595743, -66.6528253 ], [ 127.4590686, -66.655573 ], [ 127.455114, -66.6587923 ], [ 127.4714568, -66.6616083 ], [ 127.4843994, -66.662286 ], [ 127.4916671, -66.6664194 ], [ 127.5047087, -66.6705272 ], [ 127.5185562, -66.6784289 ], [ 127.5201345, -66.6811219 ], [ 127.5295988, -66.6848777 ], [ 127.5420261, -66.6871546 ], [ 127.5529418, -66.6890257 ], [ 127.5671347, -66.6922075 ], [ 127.5737571, -66.6933655 ], [ 127.5873201, -66.6947176 ], [ 127.5954596, -66.696279 ], [ 127.6042682, -66.6970584 ], [ 127.612057, -66.6984375 ], [ 127.6204095, -66.6993556 ], [ 127.6340836, -66.7003825 ], [ 127.6458893, -66.7008232 ], [ 127.6571334, -66.7017236 ], [ 127.6650716, -66.703923 ], [ 127.66068, -66.7072884 ], [ 127.6541283, -66.7084225 ], [ 127.6441619, -66.7111767 ], [ 127.6373326, -66.7144172 ], [ 127.6361796, -66.7179478 ], [ 127.6373167, -66.7207798 ], [ 127.63852, -66.7221466 ], [ 127.6319349, -66.7258891 ], [ 127.6217393, -66.7255304 ], [ 127.6129564, -66.7258961 ], [ 127.6068244, -66.7294978 ], [ 127.6018553, -66.7333224 ], [ 127.5956095, -66.7334912 ], [ 127.5949442, -66.7380262 ], [ 127.58478, -66.7388092 ], [ 127.5822048, -66.7416142 ], [ 127.5817483, -66.7455075 ], [ 127.568932, -66.7468058 ], [ 127.561693, -66.7487174 ], [ 127.5597143, -66.752206 ], [ 127.5638099, -66.7573135 ], [ 127.5657524, -66.7601883 ], [ 127.5679076, -66.7624211 ], [ 127.5809845, -66.769133 ], [ 127.5919429, -66.7710018 ], [ 127.6001472, -66.7737076 ], [ 127.6014936, -66.7758984 ], [ 127.6023124, -66.7796942 ], [ 127.6059258, -66.7837964 ], [ 127.6116277, -66.7878421 ], [ 127.6285912, -66.7954005 ], [ 127.6368088, -66.7981045 ], [ 127.6414169, -66.800461 ], [ 127.6457106, -66.8037805 ], [ 127.6486377, -66.8088723 ], [ 127.6541916, -66.8149809 ], [ 127.6649639, -66.8196108 ], [ 127.6703538, -66.8208634 ], [ 127.678608, -66.8209551 ], [ 127.6864028, -66.8211862 ], [ 127.6723559, -66.8248819 ], [ 127.6685068, -66.8277879 ], [ 127.6589098, -66.8292597 ], [ 127.6584645, -66.8331545 ], [ 127.653021, -66.837122 ], [ 127.6422605, -66.8421251 ], [ 127.6353246, -66.8468327 ], [ 127.6325327, -66.8502819 ], [ 127.6281848, -66.8559372 ], [ 127.6256786, -66.8610336 ], [ 127.6232769, -66.8658088 ], [ 127.6227192, -66.870025 ], [ 127.6234009, -66.8729983 ], [ 127.6251496, -66.8765157 ], [ 127.6257646, -66.880955 ], [ 127.6272643, -66.8839699 ], [ 127.6353525, -66.8922175 ], [ 127.6396631, -66.8955383 ], [ 127.6468897, -66.8988435 ], [ 127.6500949, -66.9004752 ], [ 127.6580371, -66.9041426 ], [ 127.6550305, -66.9082352 ], [ 127.6526959, -66.9115457 ], [ 127.6477206, -66.9127632 ], [ 127.641069, -66.9127527 ], [ 127.6386927, -66.914918 ], [ 127.6326794, -66.9268589 ], [ 127.6330855, -66.9319413 ], [ 127.6351578, -66.9344957 ], [ 127.6354587, -66.9398995 ], [ 127.6392098, -66.9436818 ], [ 127.6438878, -66.9471844 ], [ 127.6490295, -66.950547 ], [ 127.6534191, -66.9524018 ], [ 127.6659421, -66.9561365 ], [ 127.6733619, -66.9576535 ], [ 127.6796693, -66.9574813 ], [ 127.6957319, -66.9555131 ], [ 127.6980444, -66.9548128 ], [ 127.7033411, -66.9526297 ], [ 127.7132594, -66.9490453 ], [ 127.7213084, -66.9486322 ], [ 127.72736, -66.9479554 ], [ 127.7371802, -66.9510585 ], [ 127.7399817, -66.9539737 ], [ 127.7430219, -66.9600028 ], [ 127.7478683, -66.9643261 ], [ 127.7561028, -66.9684913 ], [ 127.7671026, -66.974426 ], [ 127.7777956, -66.981324 ], [ 127.789015, -66.9866146 ], [ 127.7951127, -66.9896917 ], [ 127.8042907, -66.9935738 ], [ 127.8249573, -67.0058577 ], [ 127.8358902, -67.0121094 ], [ 127.8381459, -67.0154853 ], [ 127.8401818, -67.0183854 ], [ 127.8361969, -67.0216483 ], [ 127.8656406, -67.0266231 ], [ 127.8682027, -67.0269819 ], [ 127.8814069, -67.0287205 ], [ 127.8827012, -67.0288846 ], [ 127.8840169, -67.029022 ], [ 127.8850256, -67.0290743 ], [ 127.8873953, -67.0289955 ], [ 127.9084165, -67.0284196 ], [ 127.9114731, -67.0284546 ], [ 127.9386454, -67.0288853 ], [ 127.9400017, -67.0289156 ], [ 127.9413474, -67.0289895 ], [ 127.9418033, -67.0291863 ], [ 127.9420034, -67.0292937 ], [ 127.9427562, -67.0297357 ], [ 127.9429177, -67.0298526 ], [ 127.9434902, -67.0303338 ], [ 127.9463646, -67.0328867 ], [ 127.9467355, -67.0333979 ], [ 127.9476522, -67.0349497 ], [ 127.9476813, -67.0350192 ], [ 127.962506, -67.0342703 ], [ 127.9671864, -67.0340062 ], [ 127.9757234, -67.033438 ], [ 127.9807642, -67.0333541 ], [ 127.989358, -67.0339303 ], [ 127.9962044, -67.0347486 ], [ 128.0067486, -67.0344381 ], [ 128.0178137, -67.035131 ], [ 128.0234768, -67.0357282 ], [ 128.0358283, -67.036318 ], [ 128.0421355, -67.033518 ], [ 128.0460316, -67.0317454 ], [ 128.0582206, -67.0315096 ], [ 128.064807300000012, -67.0318227 ], [ 128.0703478, -67.0301276 ], [ 128.074402600000013, -67.0291778 ], [ 128.0858288, -67.0300459 ], [ 128.090931, -67.0311034 ], [ 128.0989027, -67.030991 ], [ 128.1078967, -67.0302737 ], [ 128.1120493, -67.0290013 ], [ 128.1191968, -67.0288489 ], [ 128.1282187, -67.0307423 ], [ 128.136155699999989, -67.0320947 ], [ 128.1487716, -67.0331769 ], [ 128.158390700000012, -67.0331385 ], [ 128.166626400000013, -67.0335243 ], [ 128.1739751, -67.0368047 ], [ 128.187880299999989, -67.0377804 ], [ 128.1943044, -67.0372642 ], [ 128.2070242, -67.0380196 ], [ 128.2147036, -67.038866 ], [ 128.22558140000001, -67.0401868 ], [ 128.2325777, -67.0432844 ], [ 128.2374946, -67.0449804 ], [ 128.2491032, -67.0466592 ], [ 128.2552361, -67.0471056 ], [ 128.2643744, -67.0486691 ], [ 128.2718903, -67.0486892 ], [ 128.2820738, -67.048179 ], [ 128.2923538, -67.0473464 ], [ 128.3018085, -67.0464753 ], [ 128.3114559, -67.0449599 ], [ 128.3185104, -67.0451196 ], [ 128.3258545, -67.0443135 ], [ 128.3308216, -67.0430724 ], [ 128.3398129, -67.0423409 ], [ 128.3444149, -67.0409197 ], [ 128.3511246, -67.0394312 ], [ 128.353617, -67.0380768 ], [ 128.3514532, -67.035532 ], [ 128.3502856, -67.0338479 ], [ 128.351589600000011, -67.0322763 ], [ 128.359388, -67.0313264 ], [ 128.3647144, -67.0302639 ], [ 128.3718605, -67.0300992 ], [ 128.374983, -67.0294255 ], [ 128.3765534, -67.0283552 ], [ 128.369695299999989, -67.0275547 ], [ 128.365749099999988, -67.0281909 ], [ 128.3564964, -67.0284224 ], [ 128.348259500000012, -67.0280474 ], [ 128.343605599999989, -67.0268567 ], [ 128.341327, -67.0261005 ], [ 128.3373686, -67.0211903 ], [ 128.3399018, -67.0169025 ], [ 128.346241, -67.0152347 ], [ 128.346014700000012, -67.0117997 ], [ 128.3494232, -67.0101613 ], [ 128.3549367, -67.0084556 ], [ 128.3651193, -67.0064729 ], [ 128.3757593, -67.0043474 ], [ 128.3828196, -67.0030372 ], [ 128.393534, -67.0020554 ], [ 128.4003071, -67.0017098 ], [ 128.4180615, -67.0008816 ], [ 128.430703099999988, -66.9990059 ], [ 128.4396734, -66.9982684 ], [ 128.4457304, -66.9960951 ], [ 128.4548878, -66.994713 ], [ 128.465406800000011, -66.9943696 ], [ 128.473187200000012, -66.9934138 ], [ 128.479133600000011, -66.9930278 ], [ 128.489933, -66.9917171 ], [ 128.498252799999989, -66.9917623 ], [ 128.4999813, -66.9929805 ], [ 128.5047097, -66.9967776 ], [ 128.5129378, -66.9971439 ], [ 128.5172389, -66.996683 ], [ 128.528216, -66.9961925 ], [ 128.5422973, -66.9964906 ], [ 128.5455795, -66.9980194 ], [ 128.5548332, -66.9949261 ], [ 128.560241100000013, -66.992068 ], [ 128.562907599999988, -66.9885997 ], [ 128.562005, -66.985952 ], [ 128.564856, -66.98184 ], [ 128.571440700000011, -66.9806636 ], [ 128.5803937, -66.9813842 ], [ 128.590174499999989, -66.9806738 ], [ 128.6018834, -66.9761358 ], [ 128.604261400000013, -66.9750994 ], [ 128.6138636, -66.9706313 ], [ 128.6188905, -66.9690589 ], [ 128.6294885, -66.9669152 ], [ 128.6348769, -66.9669878 ], [ 128.6343249, -66.9703859 ], [ 128.6337696, -66.9767173 ], [ 128.6325803, -66.9779691 ], [ 128.6312073, -66.9798648 ], [ 128.6234359, -66.9822956 ], [ 128.616580199999987, -66.9829733 ], [ 128.618650699999989, -66.9851474 ], [ 128.6293018, -66.9831933 ], [ 128.6379134, -66.9822234 ], [ 128.643815100000012, -66.9838374 ], [ 128.644179400000013, -66.985483 ], [ 128.6491145, -66.9871647 ], [ 128.6519472, -66.9903845 ], [ 128.651306299999987, -66.9926382 ], [ 128.656334500000014, -66.9969312 ], [ 128.6584378, -66.9983264 ], [ 128.6580717, -66.9996143 ], [ 128.6680412, -66.9997215 ], [ 128.6725232, -67.0000788 ], [ 128.69136610000001, -67.0012208 ], [ 128.6923779, -67.0050127 ], [ 128.6900937, -67.0071954 ], [ 128.69036890000001, -67.0076963 ], [ 128.6968661, -67.008303 ], [ 128.7010746, -67.0081587 ], [ 128.7137107, -67.0121257 ], [ 128.720671, -67.0140549 ], [ 128.7260752, -67.0155909 ], [ 128.734866399999987, -67.0169462 ], [ 128.744307600000013, -67.0204472 ], [ 128.7472483, -67.0233434 ], [ 128.748451, -67.0264911 ], [ 128.749202700000012, -67.0312491 ], [ 128.7480228, -67.033969 ], [ 128.7539237, -67.0357792 ], [ 128.759498900000011, -67.0357877 ], [ 128.766574, -67.0379758 ], [ 128.7711511, -67.0363989 ], [ 128.7807941, -67.0350267 ], [ 128.7889017, -67.0352356 ], [ 128.79395, -67.0376178 ], [ 128.801555, -67.0374295 ], [ 128.8086576, -67.0366464 ], [ 128.8167647, -67.0370519 ], [ 128.8238536, -67.0380497 ], [ 128.827910300000013, -67.0378562 ], [ 128.832972899999987, -67.0374416 ], [ 128.8496546, -67.039554 ], [ 128.8502292, -67.0430472 ], [ 128.8506131, -67.0431334 ], [ 128.8543982, -67.0439825 ], [ 128.8681076, -67.0453916 ], [ 128.8764506, -67.0467954 ], [ 128.8836059, -67.0472665 ], [ 128.8931435, -67.0486703 ], [ 128.9008914, -67.0503053 ], [ 128.908052700000013, -67.0496111 ], [ 128.918200899999988, -67.047521 ], [ 128.918496800000014, -67.0475139 ], [ 128.9245066, -67.0455461 ], [ 128.9285012, -67.0442865 ], [ 128.9383099, -67.0408244 ], [ 128.9466234, -67.0370962 ], [ 128.9535514, -67.0326996 ], [ 128.9606105, -67.0297336 ], [ 128.9779758, -67.0271924 ], [ 128.9869827, -67.0247128 ], [ 129.006106, -67.0252951 ], [ 129.019124, -67.0233854 ], [ 129.03377, -67.0231698 ], [ 129.048491500000011, -67.0207166 ], [ 129.060011, -67.0185389 ], [ 129.068898100000013, -67.0164572 ], [ 129.0803063, -67.0146808 ], [ 129.091251, -67.0126813 ], [ 129.1025129, -67.0094724 ], [ 129.117217900000014, -67.0070123 ], [ 129.1259894, -67.00533 ], [ 129.143673400000011, -67.0033945 ], [ 129.1520194, -67.0033219 ], [ 129.1718016, -67.0032988 ], [ 129.1788024, -67.0043922 ], [ 129.189714900000013, -67.0064551 ], [ 129.1953729, -67.0087153 ], [ 129.1986128, -67.0102686 ], [ 129.210964600000011, -67.014829 ], [ 129.22740970000001, -67.0136482 ], [ 129.2399384, -67.0089402 ], [ 129.2388334, -67.0123751 ], [ 129.2389719, -67.0122501 ], [ 129.24210020000001, -67.0083195 ], [ 129.242454, -67.0079459 ], [ 129.2426083, -67.0078281 ], [ 129.2428066, -67.0077202 ], [ 129.2430582, -67.0076307 ], [ 129.243643, -67.0074965 ], [ 129.2442672, -67.0073908 ], [ 129.2461773, -67.0071144 ], [ 129.271740200000011, -67.0035197 ], [ 129.274001700000014, -67.0032378 ], [ 129.2902389, -67.0013015 ], [ 129.290872799999988, -67.0012062 ], [ 129.2945953, -67.0005604 ], [ 129.295540499999987, -67.0004111 ], [ 129.3036018, -66.9993735 ], [ 129.305203, -66.9991548 ], [ 129.305378100000013, -66.999129 ], [ 129.305062, -66.9888198 ], [ 129.3006834, -66.9835622 ], [ 129.2996523, -66.9794527 ], [ 129.300782199999986, -66.9750207 ], [ 129.3002646, -66.9688969 ], [ 129.2962512, -66.9642639 ], [ 129.2992827, -66.9584825 ], [ 129.300051599999989, -66.9534265 ], [ 129.2999973, -66.9475246 ], [ 129.3014856, -66.9437174 ], [ 129.3009183, -66.93983 ], [ 129.3074894, -66.9343909 ], [ 129.30214620000001, -66.9309272 ], [ 129.3102563, -66.9275827 ], [ 129.3190845, -66.9254865 ], [ 129.3228795, -66.9227867 ], [ 129.3281078, -66.9185156 ], [ 129.3324175, -66.9178698 ], [ 129.3371429, -66.919681 ], [ 129.3469462, -66.9198588 ], [ 129.349969499999986, -66.9181456 ], [ 129.3558124, -66.9155248 ], [ 129.368419, -66.910725 ], [ 129.369633, -66.9058907 ], [ 129.3760763, -66.9017575 ], [ 129.3738449, -66.896926 ], [ 129.3737454, -66.8965311 ], [ 129.3737676, -66.8963981 ], [ 129.373838400000011, -66.8962688 ], [ 129.3741638, -66.8958903 ], [ 129.374839400000013, -66.8952833 ], [ 129.381606, -66.8894944 ], [ 129.3824285, -66.8887655 ], [ 129.3829637, -66.8881361 ], [ 129.38596050000001, -66.8840554 ], [ 129.3861192, -66.883799 ], [ 129.3860956, -66.8826011 ], [ 129.386188800000014, -66.8816844 ], [ 129.3861627, -66.87996 ], [ 129.3864156, -66.8759101 ], [ 129.3841735, -66.8701714 ], [ 129.3860651, -66.865082 ], [ 129.3943693, -66.8607548 ], [ 129.393053, -66.8589847 ], [ 129.3923847, -66.8574663 ], [ 129.400070199999988, -66.8549137 ], [ 129.4044978, -66.850089 ], [ 129.403812499999987, -66.8475574 ], [ 129.4021314, -66.8447243 ], [ 129.4019223, -66.8442646 ], [ 129.4075991, -66.8432171 ], [ 129.4110959, -66.843208 ], [ 129.4145724, -66.8419944 ], [ 129.4161685, -66.8419007 ], [ 129.4168167, -66.8418368 ], [ 129.4228679, -66.8414563 ], [ 129.4273236, -66.8404009 ], [ 129.4293969, -66.8398901 ], [ 129.4355155, -66.8398734 ], [ 129.4389965, -66.8390034 ], [ 129.4470119, -66.8380882 ], [ 129.4473157, -66.838038 ], [ 129.448155, -66.8379453 ], [ 129.4499983, -66.8374758 ], [ 129.4523269, -66.836943 ], [ 129.4581613, -66.8355076 ], [ 129.465126700000013, -66.8341108 ], [ 129.4729384, -66.8313344 ], [ 129.4781209, -66.8282214 ], [ 129.4833454, -66.8255495 ], [ 129.4850439, -66.8247267 ], [ 129.4863389, -66.8240666 ], [ 129.4910813, -66.8209545 ], [ 129.4975657, -66.8176648 ], [ 129.5079349, -66.8122975 ], [ 129.5105982, -66.8094202 ], [ 129.5111331, -66.8089363 ], [ 129.5126329, -66.8072921 ], [ 129.514307, -66.8038451 ], [ 129.516409399999986, -66.8000525 ], [ 129.5211397, -66.7967675 ], [ 129.524102199999987, -66.7924558 ], [ 129.521437600000013, -66.7902276 ], [ 129.5204889, -66.7866169 ], [ 129.5213065, -66.7840331 ], [ 129.5208121, -66.7812815 ], [ 129.5229263, -66.7790008 ], [ 129.522246599999988, -66.7782445 ], [ 129.5220989, -66.7781251 ], [ 129.521707099999986, -66.7779099 ], [ 129.5182082, -66.7764762 ], [ 129.5141556, -66.7748869 ], [ 129.5141831, -66.7747542 ], [ 129.5143238, -66.7746338 ], [ 129.514749, -66.77443 ], [ 129.518635499999988, -66.7729639 ], [ 129.520053600000011, -66.7722234 ], [ 129.5207112, -66.771921 ], [ 129.5210199, -66.7718686 ], [ 129.5220118, -66.7717943 ], [ 129.52469210000001, -66.7717205 ], [ 129.5249167, -66.7717126 ], [ 129.5238458, -66.7706962 ], [ 129.5235104, -66.7678382 ], [ 129.5228118, -66.7643568 ], [ 129.522937500000012, -66.7617195 ], [ 129.522602, -66.7588616 ], [ 129.524012699999986, -66.7572892 ], [ 129.5249624, -66.7554961 ], [ 129.524236, -66.7542493 ], [ 129.523924599999987, -66.7523414 ], [ 129.5215483, -66.7498596 ], [ 129.5173393, -66.7476752 ], [ 129.512119500000011, -66.7448478 ], [ 129.5117859, -66.7419901 ], [ 129.511717, -66.7401585 ], [ 129.510923, -66.73708 ], [ 129.5145348, -66.7312268 ], [ 129.510735, -66.7230511 ], [ 129.5112234, -66.7201696 ], [ 129.512031, -66.7154036 ], [ 129.5115001, -66.7107591 ], [ 129.514514600000012, -66.7093727 ], [ 129.51362, -66.7081711 ], [ 129.508803, -66.7064658 ], [ 129.506583799999987, -66.704236 ], [ 129.50346780000001, -66.7006323 ], [ 129.5025148, -66.6965054 ], [ 129.499821, -66.6922119 ], [ 129.489211, -66.6829528 ], [ 129.4874673, -66.6826141 ], [ 129.483888900000011, -66.6772906 ], [ 129.481668, -66.6747162 ], [ 129.4868299, -66.6722912 ], [ 129.4911161, -66.6695246 ], [ 129.4945265, -66.6664165 ], [ 129.5014038, -66.6631252 ], [ 129.507401, -66.6593202 ], [ 129.519436899999988, -66.6539464 ], [ 129.5223354, -66.6473977 ], [ 129.5253344, -66.6456669 ], [ 129.5240044, -66.6442947 ], [ 129.5269884, -66.6418756 ], [ 129.5277126, -66.635162 ], [ 129.5245842, -66.6306983 ], [ 129.5232116, -66.6272612 ], [ 129.5209982, -66.6250314 ], [ 129.530044800000013, -66.6225921 ], [ 129.538667800000013, -66.6206699 ], [ 129.545971, -66.6178913 ], [ 129.551498400000014, -66.6132259 ], [ 129.5531846, -66.6111549 ], [ 129.5561885, -66.6099398 ], [ 129.558303200000012, -66.6076952 ], [ 129.5625585, -66.6044104 ], [ 129.566757700000011, -66.5987166 ], [ 129.5692283, -66.5932009 ], [ 129.5726621, -66.5919838 ], [ 129.5735036, -66.5909483 ], [ 129.5799613, -66.5895479 ], [ 129.5907439, -66.5881311 ], [ 129.5993709, -66.5870659 ], [ 129.600207, -66.5858581 ], [ 129.603659, -66.5855007 ], [ 129.607098400000012, -66.5846271 ], [ 129.608396, -66.584622 ], [ 129.6226006, -66.581813 ], [ 129.6354828, -66.5781476 ], [ 129.647108800000012, -66.5762072 ], [ 129.656566700000013, -66.5741029 ], [ 129.664243199999987, -66.5701127 ], [ 129.6620223, -66.5678849 ], [ 129.667154, -66.5657981 ], [ 129.6705512, -66.5635465 ], [ 129.6753002, -66.5633541 ], [ 129.6798894, -66.5573112 ], [ 129.685349800000012, -66.5516085 ], [ 129.689564499999989, -66.5478042 ], [ 129.6946223, -66.5433076 ], [ 129.697893599999986, -66.5367538 ], [ 129.7024385, -66.5295057 ], [ 129.7040676, -66.5260567 ], [ 129.7070247, -66.5238062 ], [ 129.7077899, -66.5203609 ], [ 129.7106628, -66.5151853 ], [ 129.708917899999989, -66.5145048 ], [ 129.7084328, -66.512614 ], [ 129.7122947, -66.5119082 ], [ 129.710942, -66.5098493 ], [ 129.715631300000013, -66.5079349 ], [ 129.7206813, -66.5036096 ], [ 129.7197148, -66.5000001 ], [ 129.7200814, -66.4977613 ], [ 129.7230486, -66.4960267 ], [ 129.727268400000014, -66.4929095 ], [ 129.7297533, -66.4894562 ], [ 129.7278843, -66.4844742 ], [ 129.7291367, -66.4830917 ], [ 129.73299320000001, -66.4823853 ], [ 129.7385574, -66.4811546 ], [ 129.7445414, -66.4795774 ], [ 129.753062, -66.476439 ], [ 129.756807400000014, -66.4721186 ], [ 129.756739900000014, -66.4698818 ], [ 129.753497900000013, -66.4623254 ], [ 129.748153, -66.4563278 ], [ 129.7416116, -66.4534335 ], [ 129.7350366, -66.4493343 ], [ 129.73157, -66.4484901 ], [ 129.7289889, -66.4485022 ], [ 129.728443700000014, -66.4445466 ], [ 129.724083, -66.4425017 ], [ 129.7244532, -66.4404349 ], [ 129.7287235, -66.4393825 ], [ 129.732553200000012, -66.4379879 ], [ 129.7363676, -66.436077 ], [ 129.745365600000014, -66.4350018 ], [ 129.7470084, -66.4324126 ], [ 129.748630100000014, -66.4291351 ], [ 129.7502826, -66.42689 ], [ 129.7567087, -66.4261706 ], [ 129.7566929, -66.4256544 ], [ 129.7600893, -66.4242612 ], [ 129.7694962, -66.4226663 ], [ 129.779331500000012, -66.4210688 ], [ 129.7810126, -66.4198557 ], [ 129.7857014, -66.4186275 ], [ 129.7873874, -66.4175865 ], [ 129.7899381, -66.4167131 ], [ 129.7962566, -66.4127229 ], [ 129.800855, -66.4087412 ], [ 129.803734600000013, -66.4047683 ], [ 129.805842899999988, -66.4035527 ], [ 129.8151942, -66.4005786 ], [ 129.8215667, -66.3984801 ], [ 129.8218833, -66.3950365 ], [ 129.8234627, -66.3937956 ], [ 129.827250600000013, -66.3926251 ], [ 129.828135300000014, -66.3904473 ], [ 129.827919, -66.3887227 ], [ 129.8312382, -66.3878741 ], [ 129.8386648, -66.3859168 ], [ 129.8444945, -66.383904 ], [ 129.8452566, -66.3828772 ], [ 129.8493498, -66.3813848 ], [ 129.8560635, -66.3773214 ], [ 129.8604123, -66.3740376 ], [ 129.863280300000014, -66.3694198 ], [ 129.8633538, -66.3669267 ], [ 129.86886530000001, -66.3651064 ], [ 129.8715477, -66.3643883 ], [ 129.8750216, -66.3635379 ], [ 129.8788361, -66.3633247 ], [ 129.8859828, -66.3627728 ], [ 129.8889762, -66.361861 ], [ 129.8927333, -66.3600498 ], [ 129.8969563, -66.3579163 ], [ 129.9029478, -66.3562838 ], [ 129.906597, -66.355943 ], [ 129.9176476, -66.3533855 ], [ 129.9250312, -66.3507212 ], [ 129.9342608, -66.3463837 ], [ 129.9368917, -66.3443864 ], [ 129.9404934, -66.3428306 ], [ 129.9420174, -66.3410317 ], [ 129.9440228, -66.3393577 ], [ 129.947953500000011, -66.3381194 ], [ 129.9502909, -66.3368267 ], [ 129.9527606, -66.3348302 ], [ 129.9551291, -66.3343683 ], [ 129.9577356, -66.3337178 ], [ 129.9590681, -66.3333853 ], [ 129.9612138, -66.3312627 ], [ 129.9605412, -66.3303081 ], [ 129.9565852, -66.3269527 ], [ 129.9562908, -66.3236979 ], [ 129.9551725, -66.3196026 ], [ 129.9602501, -66.3171466 ], [ 129.963517, -66.3160458 ], [ 129.964326, -66.3146551 ], [ 129.962029699999988, -66.3113294 ], [ 129.966016200000013, -66.3092402 ], [ 129.965456499999988, -66.3071927 ], [ 129.9589837, -66.30453 ], [ 129.9592333, -66.3010919 ], [ 129.9678505, -66.2985588 ], [ 129.9722902, -66.2966885 ], [ 129.9850085, -66.2961244 ], [ 129.9935515, -66.2962232 ], [ 130.0, -66.2950271 ], [ 130.0, -70.0 ], [ 125.0, -70.0 ], [ 125.0, -66.655542871959099 ], [ 125.001772, -66.6576686 ] ] ] ] } }
]
}
