{
"type": "FeatureCollection",
"name": "125_-25",
"crs": { "type": "name", "properties": { "name": "urn:ogc:def:crs:OGC:1.3:CRS84" } },
"xy_coordinate_resolution": 1e-15,
"features": [
{ "type": "Feature", "properties": { "FID": 547127, "id": 2219, "left": 125.0, "top": -20.0, "right": 130.0, "bottom": -25.0, "row_index": 22, "col_index": 61, "min_lon": 125.0, "min_lat": -25.0, "tile_id": "125_-25" }, "geometry": { "type": "MultiPolygon", "coordinates": [ [ [ [ 130.0, -20.0 ], [ 130.0, -25.0 ], [ 125.0, -25.0 ], [ 125.0, -20.0 ], [ 130.0, -20.0 ] ] ] ] } }
]
}
