{
"type": "FeatureCollection",
"name": "125_60",
"crs": { "type": "name", "properties": { "name": "urn:ogc:def:crs:OGC:1.3:CRS84" } },
"xy_coordinate_resolution": 1e-15,
"features": [
{ "type": "Feature", "properties": { "FID": 123912, "id": 2202, "left": 125.0, "top": 65.0, "right": 130.0, "bottom": 60.0, "row_index": 5, "col_index": 61, "min_lon": 125.0, "min_lat": 60.0, "tile_id": "125_60" }, "geometry": { "type": "MultiPolygon", "coordinates": [ [ [ [ 130.0, 65.0 ], [ 130.0, 60.0 ], [ 125.0, 60.0 ], [ 125.0, 65.0 ], [ 130.0, 65.0 ] ] ] ] } }
]
}
