{
"type": "FeatureCollection",
"name": "130_-20",
"crs": { "type": "name", "properties": { "name": "urn:ogc:def:crs:OGC:1.3:CRS84" } },
"xy_coordinate_resolution": 1e-15,
"features": [
{ "type": "Feature", "properties": { "FID": 547127, "id": 2254, "left": 130.0, "top": -15.0, "right": 135.0, "bottom": -20.0, "row_index": 21, "col_index": 62, "min_lon": 130.0, "min_lat": -20.0, "tile_id": "130_-20" }, "geometry": { "type": "MultiPolygon", "coordinates": [ [ [ [ 135.0, -15.0 ], [ 135.0, -20.0 ], [ 130.0, -20.0 ], [ 130.0, -15.0 ], [ 135.0, -15.0 ] ] ] ] } }
]
}
