{
"type": "FeatureCollection",
"name": "130_-75",
"crs": { "type": "name", "properties": { "name": "urn:ogc:def:crs:OGC:1.3:CRS84" } },
"xy_coordinate_resolution": 1e-15,
"features": [
{ "type": "Feature", "properties": { "FID": 307096, "id": 2265, "left": 130.0, "top": -70.0, "right": 135.0, "bottom": -75.0, "row_index": 32, "col_index": 62, "min_lon": 130.0, "min_lat": -75.0, "tile_id": "130_-75" }, "geometry": { "type": "MultiPolygon", "coordinates": [ [ [ [ 135.0, -70.0 ], [ 135.0, -75.0 ], [ 130.0, -75.0 ], [ 130.0, -70.0 ], [ 135.0, -70.0 ] ] ] ] } }
]
}
