{
"type": "FeatureCollection",
"name": "130_-70",
"crs": { "type": "name", "properties": { "name": "urn:ogc:def:crs:OGC:1.3:CRS84" } },
"xy_coordinate_resolution": 1e-15,
"features": [
{ "type": "Feature", "properties": { "FID": 307096, "id": 2264, "left": 130.0, "top": -65.0, "right": 135.0, "bottom": -70.0, "row_index": 31, "col_index": 62, "min_lon": 130.0, "min_lat": -70.0, "tile_id": "130_-70" }, "geometry": { "type": "MultiPolygon", "coordinates": [ [ [ [ 130.000900699999988, -66.2948601 ], [ 130.0062691, -66.2956572 ], [ 130.008550500000013, -66.2967511 ], [ 130.017181, -66.296446 ], [ 130.024637, -66.2969102 ], [ 130.0301153, -66.2995348 ], [ 130.0354858, -66.3003309 ], [ 130.0430532, -66.3026225 ], [ 130.0475324, -66.3038569 ], [ 130.0478019, -66.3039438 ], [ 130.0516777, -66.3029143 ], [ 130.061396300000013, -66.2968283 ], [ 130.0630132, -66.2929472 ], [ 130.065414299999986, -66.2907807 ], [ 130.070607700000011, -66.287305 ], [ 130.0704922, -66.2845824 ], [ 130.0699902, -66.2811458 ], [ 130.084849, -66.2790361 ], [ 130.099299800000011, -66.2757811 ], [ 130.1095602, -66.2744182 ], [ 130.118097799999987, -66.274357 ], [ 130.1186224, -66.2740561 ], [ 130.1280946, -66.2686214 ], [ 130.1361028, -66.2650046 ], [ 130.1410329, -66.264525 ], [ 130.147696200000013, -66.2634559 ], [ 130.155401899999987, -66.2593416 ], [ 130.1584751, -66.2562038 ], [ 130.1648095, -66.252853 ], [ 130.1663788, -66.2511231 ], [ 130.1653342, -66.2446023 ], [ 130.1655485, -66.2397458 ], [ 130.1663307, -66.2340982 ], [ 130.1598923, -66.2303117 ], [ 130.160337700000014, -66.226274 ], [ 130.1595802, -66.2241406 ], [ 130.1544164, -66.2181278 ], [ 130.1523355, -66.2146521 ], [ 130.1499991, -66.208574 ], [ 130.1368726, -66.2022876 ], [ 130.1349993, -66.1978462 ], [ 130.1356096, -66.1949493 ], [ 130.133983, -66.1874366 ], [ 130.1331788, -66.1817354 ], [ 130.1346949, -66.1764383 ], [ 130.1375477, -66.1685939 ], [ 130.1376651, -66.1566036 ], [ 130.1363198, -66.1534777 ], [ 130.136877700000014, -66.1470137 ], [ 130.14384530000001, -66.1443361 ], [ 130.1487232, -66.1420728 ], [ 130.155957199999989, -66.1381073 ], [ 130.1651139, -66.1325871 ], [ 130.17644820000001, -66.1281131 ], [ 130.1796639, -66.1261163 ], [ 130.1784485, -66.1223475 ], [ 130.1814048, -66.117749 ], [ 130.182036, -66.1166363 ], [ 130.1859767, -66.1149883 ], [ 130.1979588, -66.1111837 ], [ 130.206726300000014, -66.1093755 ], [ 130.215293300000013, -66.1085322 ], [ 130.221943, -66.1053549 ], [ 130.2284584, -66.1028212 ], [ 130.238609200000013, -66.1020302 ], [ 130.2417508, -66.1042427 ], [ 130.247736, -66.1042825 ], [ 130.2518359, -66.1037725 ], [ 130.256296099999986, -66.0995481 ], [ 130.265287300000011, -66.0985542 ], [ 130.27325780000001, -66.100604 ], [ 130.287112, -66.1012299 ], [ 130.2940486, -66.0985455 ], [ 130.3010866, -66.0973222 ], [ 130.3131965, -66.1006416 ], [ 130.3224346, -66.1043506 ], [ 130.329164100000014, -66.108624 ], [ 130.3374028, -66.1093827 ], [ 130.3438007, -66.1053819 ], [ 130.3515481, -66.1006155 ], [ 130.3636669, -66.1039306 ], [ 130.3655977, -66.1062621 ], [ 130.3755324, -66.1085323 ], [ 130.3823768, -66.1082706 ], [ 130.3913018, -66.1075906 ], [ 130.4004912, -66.1116166 ], [ 130.4054751, -66.1146949 ], [ 130.4131154, -66.1144576 ], [ 130.422089199999988, -66.1155591 ], [ 130.432112, -66.1153981 ], [ 130.440371, -66.1140454 ], [ 130.444883, -66.1154871 ], [ 130.444713900000011, -66.1224472 ], [ 130.448798900000014, -66.1240369 ], [ 130.4574625, -66.126746 ], [ 130.4654472, -66.1308906 ], [ 130.4725258, -66.1335477 ], [ 130.4767918, -66.1362763 ], [ 130.49161620000001, -66.1443642 ], [ 130.4978968, -66.1491004 ], [ 130.5047344, -66.153044 ], [ 130.5058254, -66.1556707 ], [ 130.51144930000001, -66.1576315 ], [ 130.5170196, -66.1578083 ], [ 130.52595980000001, -66.1571197 ], [ 130.5319031, -66.1553639 ], [ 130.5395609, -66.1530139 ], [ 130.545445199999989, -66.1494739 ], [ 130.5482083, -66.1455115 ], [ 130.5482131, -66.1434059 ], [ 130.5504271, -66.1381303 ], [ 130.5703026, -66.1408609 ], [ 130.572136699999987, -66.1417283 ], [ 130.5779498, -66.1406147 ], [ 130.586269, -66.1410369 ], [ 130.5913462, -66.1416814 ], [ 130.6016851, -66.1420038 ], [ 130.606335699999988, -66.1470076 ], [ 130.6096412, -66.1506737 ], [ 130.618884, -66.1525804 ], [ 130.6258626, -66.1537684 ], [ 130.6349224, -66.1545346 ], [ 130.6430621, -66.153814 ], [ 130.6516945, -66.1547278 ], [ 130.659773300000012, -66.1543283 ], [ 130.6684668, -66.154919 ], [ 130.6753817, -66.154321 ], [ 130.6788727, -66.1549136 ], [ 130.685657600000013, -66.1564158 ], [ 130.6906454, -66.1557799 ], [ 130.7004722, -66.1547568 ], [ 130.7021211, -66.1540522 ], [ 130.710808899999989, -66.1529266 ], [ 130.715525899999989, -66.1516158 ], [ 130.7184349, -66.1509957 ], [ 130.7186977, -66.1509215 ], [ 130.7205404, -66.1505304 ], [ 130.72104490000001, -66.1502273 ], [ 130.724865099999988, -66.1476218 ], [ 130.7258703, -66.1457799 ], [ 130.7308988, -66.1449228 ], [ 130.7353937, -66.1445292 ], [ 130.7377155, -66.1454185 ], [ 130.740586400000012, -66.1460727 ], [ 130.7434496, -66.1466126 ], [ 130.745764, -66.1473874 ], [ 130.7472706, -66.1487434 ], [ 130.7515387, -66.1491528 ], [ 130.7555639, -66.150137 ], [ 130.7545212, -66.1514074 ], [ 130.7572059, -66.1534365 ], [ 130.7587772, -66.155707 ], [ 130.758251699999988, -66.156285 ], [ 130.7649484, -66.1590693 ], [ 130.769023800000014, -66.1607391 ], [ 130.781455200000011, -66.1646012 ], [ 130.788915800000012, -66.166117 ], [ 130.7953441, -66.1690175 ], [ 130.8043748, -66.1726885 ], [ 130.8141827, -66.1753199 ], [ 130.8228205, -66.1773925 ], [ 130.830320300000011, -66.1793636 ], [ 130.8354846, -66.1803322 ], [ 130.8411897, -66.1809511 ], [ 130.84457470000001, -66.1807963 ], [ 130.8530577, -66.1806951 ], [ 130.8558605, -66.1803183 ], [ 130.8609923, -66.1808288 ], [ 130.8685044, -66.1829124 ], [ 130.8745022, -66.1836408 ], [ 130.8776384, -66.1839461 ], [ 130.882454599999988, -66.1840021 ], [ 130.8861651, -66.1844146 ], [ 130.8893072, -66.1847365 ], [ 130.895608900000013, -66.1827479 ], [ 130.9014736, -66.1812986 ], [ 130.90930130000001, -66.1800678 ], [ 130.9170712, -66.1791588 ], [ 130.9254106, -66.1795612 ], [ 130.928114599999986, -66.1801248 ], [ 130.9335802, -66.1809297 ], [ 130.9441981, -66.1820441 ], [ 130.951170499999989, -66.1811104 ], [ 130.961161299999986, -66.181234 ], [ 130.965798, -66.179909 ], [ 130.972544199999987, -66.1802631 ], [ 130.980996800000014, -66.1800177 ], [ 130.9866668, -66.1819597 ], [ 130.993987800000014, -66.1836244 ], [ 130.998288300000013, -66.1842318 ], [ 131.0058147, -66.187035 ], [ 131.0102646, -66.1891034 ], [ 131.0145666, -66.1897104 ], [ 131.0168478, -66.1904223 ], [ 131.025082, -66.1914633 ], [ 131.0286262, -66.1941533 ], [ 131.030039, -66.197593 ], [ 131.0281263, -66.1981765 ], [ 131.0293873, -66.1983955 ], [ 131.03707270000001, -66.1988668 ], [ 131.040843, -66.1999615 ], [ 131.0446417, -66.201399 ], [ 131.045318400000014, -66.2027632 ], [ 131.04658, -66.2043486 ], [ 131.0478693, -66.2062769 ], [ 131.0479621, -66.20742 ], [ 131.050583499999988, -66.2083008 ], [ 131.05211, -66.2096538 ], [ 131.0548527, -66.2120205 ], [ 131.061939, -66.2120408 ], [ 131.073545599999989, -66.211886 ], [ 131.077754199999987, -66.2113719 ], [ 131.085982, -66.2114903 ], [ 131.0910868, -66.2115359 ], [ 131.0938323, -66.2104689 ], [ 131.097690699999987, -66.209158 ], [ 131.1044459, -66.2086087 ], [ 131.1137191, -66.2076814 ], [ 131.1195764, -66.2065715 ], [ 131.1262918, -66.2055641 ], [ 131.132373, -66.203764 ], [ 131.136833200000012, -66.2029015 ], [ 131.140151300000014, -66.2019402 ], [ 131.1429034, -66.2009866 ], [ 131.1474111, -66.2006954 ], [ 131.151606500000014, -66.200065 ], [ 131.1557628, -66.1989773 ], [ 131.1630309, -66.1978461 ], [ 131.169010899999989, -66.1982202 ], [ 131.1798502, -66.199098 ], [ 131.1950134, -66.2008294 ], [ 131.1979718, -66.2022751 ], [ 131.202072500000014, -66.2038191 ], [ 131.2023035, -66.2038729 ], [ 131.21317160000001, -66.2073033 ], [ 131.2255212, -66.210223 ], [ 131.239523, -66.2128616 ], [ 131.2427939, -66.2139424 ], [ 131.247513199999986, -66.2155016 ], [ 131.2526771, -66.2158001 ], [ 131.246283, -66.2132028 ], [ 131.245799, -66.2112473 ], [ 131.2536184, -66.2099974 ], [ 131.258841100000012, -66.2124017 ], [ 131.2678401, -66.2137722 ], [ 131.272257599999989, -66.2137265 ], [ 131.279868599999986, -66.2137646 ], [ 131.2856238, -66.2153725 ], [ 131.2931836, -66.2157323 ], [ 131.2989801, -66.2145888 ], [ 131.3039772, -66.2134243 ], [ 131.3105194, -66.2126236 ], [ 131.3185037, -66.2128312 ], [ 131.3242981, -66.2116868 ], [ 131.3288426, -66.2130157 ], [ 131.327911199999988, -66.2073585 ], [ 131.3249334, -66.2027109 ], [ 131.33705710000001, -66.2020707 ], [ 131.350637, -66.2018653 ], [ 131.3505946, -66.2014081 ], [ 131.3525431, -66.2010352 ], [ 131.3596583, -66.2013848 ], [ 131.361921599999988, -66.2013503 ], [ 131.3649694, -66.2006171 ], [ 131.3723783, -66.2010761 ], [ 131.37698, -66.2018067 ], [ 131.3812989, -66.2025415 ], [ 131.3866528, -66.2022302 ], [ 131.3917344, -66.2020374 ], [ 131.3943131, -66.2023409 ], [ 131.3971422, -66.2022971 ], [ 131.4016469, -66.2019985 ], [ 131.4029306, -66.2035809 ], [ 131.3990772, -66.2077608 ], [ 131.397661699999986, -66.2095334 ], [ 131.399396700000011, -66.2093441 ], [ 131.399734, -66.2093458 ], [ 131.40004540000001, -66.2093055 ], [ 131.4009491, -66.2091477 ], [ 131.401603599999987, -66.209165 ], [ 131.4019251, -66.2091388 ], [ 131.4028463, -66.2090014 ], [ 131.403478299999989, -66.2089305 ], [ 131.404076800000013, -66.2088265 ], [ 131.4095658, -66.2089773 ], [ 131.413274699999988, -66.209291 ], [ 131.417619800000011, -66.2098424 ], [ 131.419221599999986, -66.2105603 ], [ 131.4238967, -66.2113539 ], [ 131.4309977, -66.2118617 ], [ 131.4347907, -66.2130404 ], [ 131.4388902, -66.214214 ], [ 131.4423061, -66.2146555 ], [ 131.447325, -66.2158145 ], [ 131.4507892, -66.2167502 ], [ 131.4533108, -66.2174532 ], [ 131.456313099999988, -66.2167866 ], [ 131.462671300000011, -66.2159428 ], [ 131.4666518, -66.2158795 ], [ 131.4718814, -66.2160439 ], [ 131.4777235, -66.2161982 ], [ 131.482022300000011, -66.2162532 ], [ 131.485709, -66.2163179 ], [ 131.4900934, -66.2172381 ], [ 131.4959725, -66.2177627 ], [ 131.4984222, -66.2177232 ], [ 131.5024398, -66.2180298 ], [ 131.505538800000011, -66.2183512 ], [ 131.5073514, -66.2180743 ], [ 131.5104628, -66.2185192 ], [ 131.512655599999988, -66.2189789 ], [ 131.5163795, -66.2194138 ], [ 131.5247712, -66.2205155 ], [ 131.5300393, -66.2210488 ], [ 131.5340205, -66.2209837 ], [ 131.5379893, -66.2207949 ], [ 131.542583, -66.2207196 ], [ 131.545107699999988, -66.2214211 ], [ 131.5485636, -66.2222311 ], [ 131.5529387, -66.2230259 ], [ 131.5595835, -66.2250213 ], [ 131.5659102, -66.2268978 ], [ 131.5709621, -66.2283 ], [ 131.5757084, -66.2297071 ], [ 131.5812984, -66.2303571 ], [ 131.591101400000014, -66.2301936 ], [ 131.595671399999986, -66.2298695 ], [ 131.5974583, -66.2293443 ], [ 131.5996154, -66.2294319 ], [ 131.6030743, -66.2302407 ], [ 131.6056525, -66.2314356 ], [ 131.610082299999988, -66.2327232 ], [ 131.612865199999987, -66.2329239 ], [ 131.6177927, -66.2330885 ], [ 131.622082, -66.233016 ], [ 131.6291414, -66.2330203 ], [ 131.6346302, -66.2326795 ], [ 131.6361104, -66.232159 ], [ 131.6402958, -66.2310972 ], [ 131.6423756, -66.2304426 ], [ 131.643959099999989, -66.230911 ], [ 131.645594499999987, -66.2318737 ], [ 131.649400500000013, -66.233047 ], [ 131.654380300000014, -66.2337047 ], [ 131.6599732, -66.2343519 ], [ 131.6649009, -66.2355959 ], [ 131.6720113, -66.2369528 ], [ 131.677579900000012, -66.2375963 ], [ 131.689162399999987, -66.2396147 ], [ 131.6995225, -66.2404702 ], [ 131.7057929, -66.2408047 ], [ 131.712111099999987, -66.2415818 ], [ 131.7169178, -66.2419415 ], [ 131.7266113, -66.2433985 ], [ 131.7354616, -66.2438343 ], [ 131.7364478, -66.2427815 ], [ 131.747398, -66.2422921 ], [ 131.754143699999986, -66.2402494 ], [ 131.7524219, -66.2379131 ], [ 131.7556031, -66.2368211 ], [ 131.7615721, -66.2377504 ], [ 131.7625143, -66.2396568 ], [ 131.7678005, -66.2410417 ], [ 131.77058980000001, -66.2430629 ], [ 131.7707196, -66.2442441 ], [ 131.7726635, -66.2452448 ], [ 131.7745266, -66.2455073 ], [ 131.779717299999987, -66.2460061 ], [ 131.7882357, -66.2467408 ], [ 131.798088400000012, -66.2462676 ], [ 131.803181099999989, -66.2458797 ], [ 131.8112026, -66.2454387 ], [ 131.825182500000011, -66.2425219 ], [ 131.831988200000012, -66.2410664 ], [ 131.8348004, -66.2399795 ], [ 131.8419709, -66.2385168 ], [ 131.8547302, -66.2378386 ], [ 131.8586056, -66.2364359 ], [ 131.8633126, -66.2359052 ], [ 131.866854600000011, -66.2348042 ], [ 131.8682344, -66.234039 ], [ 131.87074530000001, -66.2335487 ], [ 131.87262530000001, -66.2339576 ], [ 131.8854153, -66.2335723 ], [ 131.894478, -66.2326636 ], [ 131.9133506, -66.2309786 ], [ 131.9188383, -66.2308755 ], [ 131.922743200000014, -66.2297663 ], [ 131.9342095, -66.2274785 ], [ 131.9341751, -66.2271833 ], [ 131.944456, -66.2241774 ], [ 131.9492452, -66.2243822 ], [ 131.9539134, -66.2235536 ], [ 131.9766526, -66.2207548 ], [ 131.9867222, -66.2183193 ], [ 131.9926539, -66.2154271 ], [ 131.9963922, -66.2153117 ], [ 132.001126199999987, -66.2146515 ], [ 132.0032066, -66.2128121 ], [ 132.0057289, -66.2111692 ], [ 132.009533, -66.2104908 ], [ 132.0137349, -66.2103839 ], [ 132.018843299999986, -66.2104823 ], [ 132.0304978, -66.2103302 ], [ 132.0417535, -66.2096057 ], [ 132.0498455, -66.2080684 ], [ 132.0569424, -66.2070756 ], [ 132.062667299999987, -66.2058686 ], [ 132.07166380000001, -66.2045353 ], [ 132.084816499999988, -66.2034677 ], [ 132.0877102, -66.2025823 ], [ 132.0921263, -66.2005978 ], [ 132.096034300000014, -66.1989795 ], [ 132.1027056, -66.1976008 ], [ 132.1168458, -66.1959852 ], [ 132.122208199999989, -66.1938295 ], [ 132.1243633, -66.1912382 ], [ 132.1243045, -66.187666 ], [ 132.123275, -66.1844517 ], [ 132.1235737, -66.1818259 ], [ 132.125621099999989, -66.1801724 ], [ 132.133256, -66.1784345 ], [ 132.1369881, -66.1783156 ], [ 132.1423006, -66.1806692 ], [ 132.1468339, -66.1816926 ], [ 132.1600776, -66.1838156 ], [ 132.1689562, -66.1834144 ], [ 132.1746496, -66.1823908 ], [ 132.1842002, -66.1801215 ], [ 132.190377, -66.178918 ], [ 132.2011091, -66.1785487 ], [ 132.2040169, -66.1774736 ], [ 132.21551070000001, -66.1786205 ], [ 132.2250472, -66.1806711 ], [ 132.2368507, -66.1790029 ], [ 132.2595832, -66.179407 ], [ 132.2744901, -66.1791065 ], [ 132.2847973, -66.1783479 ], [ 132.2896376, -66.1765534 ], [ 132.295645400000012, -66.172524 ], [ 132.3081238, -66.1687949 ], [ 132.3172534, -66.1659466 ], [ 132.3294484, -66.164842 ], [ 132.3369466, -66.1642195 ], [ 132.3440004, -66.1634012 ], [ 132.3549916, -66.1649049 ], [ 132.3633188, -66.165235 ], [ 132.3769805, -66.1634 ], [ 132.3899061, -66.1596722 ], [ 132.4013027, -66.1572331 ], [ 132.4178298, -66.149993 ], [ 132.4212076, -66.1487339 ], [ 132.4244517, -66.1487879 ], [ 132.428102, -66.1494124 ], [ 132.433162, -66.1498723 ], [ 132.4401897, -66.1492372 ], [ 132.4482573, -66.1474913 ], [ 132.4552464, -66.1472306 ], [ 132.4582302, -66.1472796 ], [ 132.46514590000001, -66.1470972 ], [ 132.4697874, -66.1484735 ], [ 132.4795231, -66.1507488 ], [ 132.4821203, -66.1525732 ], [ 132.4826722, -66.1548462 ], [ 132.4848542, -66.1568249 ], [ 132.485962699999988, -66.1576528 ], [ 132.495564300000012, -66.161218 ], [ 132.5006615, -66.1621163 ], [ 132.504163799999986, -66.1629864 ], [ 132.512556, -66.1629725 ], [ 132.5184518, -66.1638843 ], [ 132.5233777, -66.1663954 ], [ 132.5232053, -66.168009 ], [ 132.523345400000011, -66.1704363 ], [ 132.5297629, -66.1702251 ], [ 132.53292, -66.1706035 ], [ 132.53971820000001, -66.1709464 ], [ 132.54661870000001, -66.1686533 ], [ 132.5473662, -66.1690132 ], [ 132.552823600000011, -66.1702271 ], [ 132.5526786, -66.171728 ], [ 132.553425, -66.1736189 ], [ 132.5577374, -66.1751471 ], [ 132.562860699999987, -66.1769622 ], [ 132.572979, -66.1780607 ], [ 132.58083160000001, -66.1785594 ], [ 132.588095399999986, -66.1803639 ], [ 132.5941282, -66.1804578 ], [ 132.5974124, -66.180133 ], [ 132.6013029, -66.1783143 ], [ 132.607370800000012, -66.1780324 ], [ 132.612833200000011, -66.1792441 ], [ 132.624617199999989, -66.1824318 ], [ 132.629923100000013, -66.1853316 ], [ 132.638637499999987, -66.1865921 ], [ 132.64878010000001, -66.1874981 ], [ 132.657618, -66.1874441 ], [ 132.666386499999987, -66.1881401 ], [ 132.6764274, -66.1901701 ], [ 132.6819989, -66.1902536 ], [ 132.6904418, -66.1894403 ], [ 132.695152900000011, -66.1887589 ], [ 132.7002258, -66.18921 ], [ 132.711747800000012, -66.1903202 ], [ 132.724647, -66.1916376 ], [ 132.7324901, -66.1923163 ], [ 132.7384762, -66.1929676 ], [ 132.7440485, -66.1930488 ], [ 132.7497378, -66.1918163 ], [ 132.7581623, -66.1911869 ], [ 132.760053, -66.1908385 ], [ 132.7636679, -66.192018 ], [ 132.770517399999989, -66.193432 ], [ 132.7803439, -66.1942948 ], [ 132.7848668, -66.1952708 ], [ 132.7895537, -66.1957624 ], [ 132.794793199999987, -66.1959432 ], [ 132.7997153, -66.1967564 ], [ 132.8070458, -66.1970728 ], [ 132.810982700000011, -66.1971284 ], [ 132.8118526, -66.1961852 ], [ 132.8195096, -66.1957622 ], [ 132.8277367, -66.1948161 ], [ 132.8335831, -66.1940486 ], [ 132.8367958, -66.1933503 ], [ 132.8413387, -66.1924581 ], [ 132.8424426, -66.1918364 ], [ 132.8453562, -66.1915584 ], [ 132.8496539, -66.1904503 ], [ 132.8497351, -66.1894959 ], [ 132.8542587, -66.1888154 ], [ 132.8562662, -66.1868259 ], [ 132.8578943, -66.1862114 ], [ 132.8590423, -66.1850595 ], [ 132.862506599999989, -66.1844703 ], [ 132.8670468, -66.1835773 ], [ 132.871631400000012, -66.182154 ], [ 132.8761442, -66.181579 ], [ 132.8799143, -66.1804627 ], [ 132.8826172, -66.1795441 ], [ 132.8856211, -66.1750199 ], [ 132.88972290000001, -66.1730586 ], [ 132.89697910000001, -66.1710339 ], [ 132.900502, -66.1697015 ], [ 132.9013414, -66.1690759 ], [ 132.9056506, -66.1677541 ], [ 132.9059916, -66.1668031 ], [ 132.912642, -66.1657251 ], [ 132.9160633, -66.1648991 ], [ 132.9164451, -66.1646237 ], [ 132.916694, -66.1643794 ], [ 132.916930900000011, -66.1639938 ], [ 132.9171843, -66.1637503 ], [ 132.9177898, -66.1634369 ], [ 132.918396800000011, -66.1629687 ], [ 132.918936, -66.1626369 ], [ 132.9195278, -66.1623203 ], [ 132.9201632, -66.1620174 ], [ 132.9203444, -66.161907 ], [ 132.921381200000013, -66.1615844 ], [ 132.924344600000012, -66.1607586 ], [ 132.9248623, -66.1605963 ], [ 132.9253266, -66.1604095 ], [ 132.9255334, -66.1603064 ], [ 132.9260346, -66.1599659 ], [ 132.926431400000013, -66.1597563 ], [ 132.926926900000012, -66.159583 ], [ 132.927454899999987, -66.1594253 ], [ 132.928820699999989, -66.1590631 ], [ 132.9293955, -66.1589347 ], [ 132.9299958, -66.1588317 ], [ 132.9311724, -66.1585998 ], [ 132.9314762, -66.1585505 ], [ 132.9324182, -66.1584394 ], [ 132.9336391, -66.1582474 ], [ 132.933959, -66.1582246 ], [ 132.9346117, -66.1582429 ], [ 132.9362964, -66.1586477 ], [ 132.9367982, -66.158818 ], [ 132.937071, -66.1588913 ], [ 132.9376545, -66.1590116 ], [ 132.9389065, -66.1591635 ], [ 132.940169, -66.1590233 ], [ 132.9404956, -66.1590124 ], [ 132.941643, -66.1587599 ], [ 132.9419311, -66.1585225 ], [ 132.942302500000011, -66.158303 ], [ 132.9425783, -66.1580641 ], [ 132.942675900000012, -66.1579382 ], [ 132.942615499999988, -66.1575414 ], [ 132.942667199999988, -66.157411 ], [ 132.9428738, -66.1573078 ], [ 132.9437946, -66.1569309 ], [ 132.944408399999986, -66.1566213 ], [ 132.944986199999988, -66.1563013 ], [ 132.9454901, -66.1559607 ], [ 132.9456152, -66.1558377 ], [ 132.945582, -66.1557067 ], [ 132.945701899999989, -66.1553119 ], [ 132.945801, -66.1551865 ], [ 132.9459488, -66.1550682 ], [ 132.9463815, -66.154869 ], [ 132.9479585, -66.1543979 ], [ 132.948790300000013, -66.154187 ], [ 132.9496612, -66.1540048 ], [ 132.9499649, -66.1539555 ], [ 132.9512521, -66.1538636 ], [ 132.9522269, -66.1538147 ], [ 132.9537551, -66.1535801 ], [ 132.9548906, -66.1533187 ], [ 132.9554865, -66.1532099 ], [ 132.957085799999987, -66.1530762 ], [ 132.957736399999987, -66.1530469 ], [ 132.9593494, -66.1529347 ], [ 132.960297700000012, -66.1528353 ], [ 132.9612583, -66.1527542 ], [ 132.9619116, -66.1527468 ], [ 132.9625507, -66.1526892 ], [ 132.9638497, -66.1526373 ], [ 132.9641758, -66.1526495 ], [ 132.964501, -66.1526355 ], [ 132.9654842, -66.1526302 ], [ 132.9664558, -66.1526704 ], [ 132.967093799999986, -66.1527314 ], [ 132.9676873, -66.1528417 ], [ 132.968646, -66.1529229 ], [ 132.9695372, -66.1530887 ], [ 132.9698506, -66.1531213 ], [ 132.970138, -66.1531866 ], [ 132.9713403, -66.1533943 ], [ 132.9719734, -66.1534584 ], [ 132.972276099999988, -66.1535083 ], [ 132.9736863, -66.1538426 ], [ 132.9746218, -66.1539615 ], [ 132.9759096, -66.1540549 ], [ 132.9765616, -66.1540623 ], [ 132.9768853, -66.1540838 ], [ 132.9775386, -66.1540763 ], [ 132.9781592, -66.1541607 ], [ 132.978794599999986, -66.1542179 ], [ 132.979446599999989, -66.1542253 ], [ 132.9807398, -66.1543106 ], [ 132.9810663, -66.1543178 ], [ 132.9817179, -66.154294 ], [ 132.9820421, -66.1543104 ], [ 132.983017499999988, -66.1542719 ], [ 132.9833428, -66.1542565 ], [ 132.9839805, -66.1541982 ], [ 132.984306800000013, -66.1541897 ], [ 132.985809100000012, -66.1539282 ], [ 132.986121200000014, -66.1538877 ], [ 132.986771, -66.1538501 ], [ 132.98872750000001, -66.1538311 ], [ 132.989364200000011, -66.1537659 ], [ 132.9896879, -66.1537511 ], [ 132.990324, -66.1536933 ], [ 132.9909744, -66.1536651 ], [ 132.992280599999987, -66.1536368 ], [ 132.9932278, -66.1535316 ], [ 132.9937989, -66.1534042 ], [ 132.9942892, -66.1532288 ], [ 132.9944985, -66.1531281 ], [ 132.9947785, -66.1528873 ], [ 132.9953204, -66.1527407 ], [ 132.995614100000012, -66.1526806 ], [ 132.9965512, -66.1525658 ], [ 132.9968782, -66.1525499 ], [ 132.9978137, -66.1524357 ], [ 132.9984679, -66.1524169 ], [ 133.000713, -66.1522344 ], [ 133.0022794, -66.1520499 ], [ 133.0028721, -66.1519383 ], [ 133.0034848, -66.1518458 ], [ 133.0037697, -66.1517805 ], [ 133.004043, -66.1517063 ], [ 133.0045199, -66.1515251 ], [ 133.0047095, -66.1514185 ], [ 133.0049893, -66.1511789 ], [ 133.0062533, -66.1507609 ], [ 133.006952899999987, -66.1504822 ], [ 133.0082538, -66.1500816 ], [ 133.0089504, -66.1498029 ], [ 133.009141699999986, -66.1496944 ], [ 133.009533800000014, -66.1493315 ], [ 133.010404099999988, -66.1487712 ], [ 133.0105059, -66.1486458 ], [ 133.0109527, -66.1482924 ], [ 133.01150530000001, -66.1479643 ], [ 133.011774300000013, -66.1477226 ], [ 133.0120186, -66.1473383 ], [ 133.012257299999987, -66.1470913 ], [ 133.0122855, -66.1469599 ], [ 133.012514399999986, -66.1465741 ], [ 133.0125571, -66.1463106 ], [ 133.0134701, -66.1451776 ], [ 133.01390760000001, -66.1446792 ], [ 133.0139405, -66.1445473 ], [ 133.0140666, -66.1444248 ], [ 133.0141439, -66.1442966 ], [ 133.0143961, -66.1440529 ], [ 133.0143859, -66.1439204 ], [ 133.0144295, -66.1437892 ], [ 133.01460560000001, -66.1435332 ], [ 133.014654400000012, -66.1432698 ], [ 133.014767799999987, -66.1430085 ], [ 133.014990899999987, -66.1427612 ], [ 133.0150131, -66.1426285 ], [ 133.0150949, -66.142501 ], [ 133.015541500000012, -66.1421477 ], [ 133.0155867, -66.1420159 ], [ 133.016226100000011, -66.1415547 ], [ 133.0166728, -66.1413618 ], [ 133.017663, -66.1410166 ], [ 133.0184411, -66.1405911 ], [ 133.019057800000013, -66.1401227 ], [ 133.0191624, -66.1399986 ], [ 133.0198595, -66.1394008 ], [ 133.021072299999986, -66.138957 ], [ 133.0213024, -66.1388628 ], [ 133.021493600000014, -66.1387543 ], [ 133.0225043, -66.1384194 ], [ 133.0229524, -66.1382271 ], [ 133.023466899999988, -66.137889 ], [ 133.02356850000001, -66.1377637 ], [ 133.023618199999987, -66.1376326 ], [ 133.0241528, -66.1371493 ], [ 133.024256, -66.1370234 ], [ 133.0260482, -66.1362542 ], [ 133.0264243, -66.1360372 ], [ 133.026580700000011, -66.1359213 ], [ 133.027466299999986, -66.1355322 ], [ 133.0280349, -66.1352086 ], [ 133.028160899999989, -66.1350861 ], [ 133.0281336, -66.134954 ], [ 133.0282283, -66.1346924 ], [ 133.0282631, -66.1344282 ], [ 133.028344, -66.1341658 ], [ 133.0286688, -66.1337907 ], [ 133.028743, -66.1336612 ], [ 133.0292149, -66.1333138 ], [ 133.0294209, -66.1332118 ], [ 133.0299091, -66.1330356 ], [ 133.0317809, -66.1325029 ], [ 133.0325611, -66.1322633 ], [ 133.0330299, -66.1320788 ], [ 133.0332134, -66.1319696 ], [ 133.0338449, -66.1316656 ], [ 133.03533010000001, -66.1311461 ], [ 133.036738899999989, -66.1304177 ], [ 133.0372348, -66.1300755 ], [ 133.037836199999987, -66.1297623 ], [ 133.038135, -66.1295273 ], [ 133.0383093, -66.1292706 ], [ 133.03864440000001, -66.1288988 ], [ 133.0389131, -66.1283818 ], [ 133.038986200000011, -66.1281187 ], [ 133.0390213, -66.1277215 ], [ 133.0389561, -66.1273259 ], [ 133.038868900000011, -66.1270631 ], [ 133.0388862, -66.126931 ], [ 133.0388318, -66.126535 ], [ 133.0388819, -66.126271 ], [ 133.0387931, -66.1260088 ], [ 133.038907599999987, -66.1257481 ], [ 133.0389218, -66.1256159 ], [ 133.0390974, -66.1253611 ], [ 133.0394614, -66.1249928 ], [ 133.03964160000001, -66.1247387 ], [ 133.0397706, -66.1246162 ], [ 133.03984, -66.1244873 ], [ 133.0400053, -66.1243729 ], [ 133.040502800000013, -66.1238828 ], [ 133.0405715, -66.1234885 ], [ 133.0404346, -66.12323 ], [ 133.040445799999986, -66.1230978 ], [ 133.0406695, -66.1227113 ], [ 133.040802899999989, -66.1225908 ], [ 133.0409908, -66.1224822 ], [ 133.0414638, -66.1222996 ], [ 133.0432816, -66.1217373 ], [ 133.0437306, -66.1215468 ], [ 133.044218300000011, -66.1213719 ], [ 133.045029, -66.1211483 ], [ 133.045602, -66.121022 ], [ 133.0459064, -66.1209744 ], [ 133.046852, -66.1208689 ], [ 133.0474987, -66.1208366 ], [ 133.0484592, -66.1207556 ], [ 133.0490336, -66.1206299 ], [ 133.0495775, -66.1204832 ], [ 133.050323100000014, -66.1202262 ], [ 133.0505335, -66.1201249 ], [ 133.050889500000011, -66.1199032 ], [ 133.0511103, -66.1198051 ], [ 133.0513608, -66.1197211 ], [ 133.052185900000012, -66.1195077 ], [ 133.052476, -66.1194474 ], [ 133.0527892, -66.1194049 ], [ 133.053366399999987, -66.119283 ], [ 133.0550006, -66.1188453 ], [ 133.055796500000014, -66.1186128 ], [ 133.056539, -66.1183545 ], [ 133.0576068, -66.1178548 ], [ 133.0581034, -66.1176824 ], [ 133.059145199999989, -66.1173627 ], [ 133.059628300000014, -66.1171858 ], [ 133.059835600000014, -66.1170831 ], [ 133.0601553, -66.1168521 ], [ 133.060425, -66.1166098 ], [ 133.0606022, -66.1164993 ], [ 133.0612343, -66.116197 ], [ 133.0619412, -66.115922 ], [ 133.06233610000001, -66.115712 ], [ 133.0624527, -66.1155881 ], [ 133.062525099999988, -66.1154593 ], [ 133.062655400000011, -66.1153374 ], [ 133.0632455, -66.1150209 ], [ 133.063515099999989, -66.1147798 ], [ 133.063834899999989, -66.1145476 ], [ 133.063933100000014, -66.1144222 ], [ 133.064425199999988, -66.1140799 ], [ 133.064622, -66.113974 ], [ 133.0653019, -66.1136886 ], [ 133.066464, -66.113049 ], [ 133.066633599999989, -66.1129364 ], [ 133.0668394, -66.1126845 ], [ 133.0672164, -66.1123182 ], [ 133.067380899999989, -66.1120626 ], [ 133.0677351, -66.1116929 ], [ 133.0678151, -66.1115635 ], [ 133.067849099999989, -66.1114322 ], [ 133.068007599999987, -66.1111753 ], [ 133.068077100000011, -66.1109134 ], [ 133.068205, -66.1106535 ], [ 133.0682885, -66.11039 ], [ 133.0685899, -66.110155 ], [ 133.0687421, -66.109898 ], [ 133.0694009, -66.1096048 ], [ 133.0701563, -66.1093535 ], [ 133.071228600000012, -66.109051 ], [ 133.0717909, -66.1089176 ], [ 133.0724065, -66.1088292 ], [ 133.073058300000014, -66.1088238 ], [ 133.0752601, -66.1090667 ], [ 133.0765247, -66.1089316 ], [ 133.0768488, -66.1089235 ], [ 133.07776, -66.1087786 ], [ 133.0786124, -66.1085823 ], [ 133.0796844, -66.1082797 ], [ 133.080158399999988, -66.1080976 ], [ 133.0803683, -66.1079974 ], [ 133.0807088, -66.1077717 ], [ 133.080923399999989, -66.1076722 ], [ 133.0814255, -66.1075024 ], [ 133.0824886, -66.1071959 ], [ 133.0829832, -66.1070228 ], [ 133.0832068, -66.1069259 ], [ 133.0834003, -66.1068199 ], [ 133.083649900000012, -66.1065755 ], [ 133.083687, -66.106443 ], [ 133.0839214, -66.1061958 ], [ 133.0839844, -66.1060668 ], [ 133.0839784, -66.1059338 ], [ 133.084046300000011, -66.1056712 ], [ 133.0840495, -66.1055383 ], [ 133.0836818, -66.1050314 ], [ 133.0835822, -66.1045037 ], [ 133.083635, -66.1041068 ], [ 133.083550300000013, -66.1038453 ], [ 133.0835136, -66.1035813 ], [ 133.0835678, -66.1033167 ], [ 133.0835433, -66.103053 ], [ 133.083597200000014, -66.1029226 ], [ 133.0837996, -66.1026706 ], [ 133.0837982, -66.1025382 ], [ 133.08387350000001, -66.1024094 ], [ 133.084133799999989, -66.1021657 ], [ 133.0846721, -66.1018347 ], [ 133.0849503, -66.1017654 ], [ 133.0869947, -66.1013523 ], [ 133.0882351, -66.1011875 ], [ 133.0885558, -66.1011625 ], [ 133.089161100000013, -66.1010645 ], [ 133.0897013, -66.1009164 ], [ 133.089991, -66.100856 ], [ 133.0903051, -66.1008178 ], [ 133.0912841, -66.1008354 ], [ 133.0925734, -66.1009178 ], [ 133.093209300000012, -66.1009725 ], [ 133.093536199999988, -66.1009838 ], [ 133.0941704, -66.1010404 ], [ 133.0951488, -66.1010655 ], [ 133.095790099999988, -66.1010167 ], [ 133.0964423, -66.1010037 ], [ 133.097080799999986, -66.1009511 ], [ 133.0974085, -66.1009524 ], [ 133.0980405, -66.1008854 ], [ 133.0986842, -66.1008441 ], [ 133.098997, -66.1008027 ], [ 133.0995692, -66.1006762 ], [ 133.100924600000013, -66.100308 ], [ 133.1017558, -66.1001001 ], [ 133.102349800000013, -66.0999894 ], [ 133.102669, -66.0999637 ], [ 133.1032882, -66.0998822 ], [ 133.1035824, -66.0998237 ], [ 133.1038472, -66.0997473 ], [ 133.1040899, -66.0996588 ], [ 133.104284799999988, -66.0995522 ], [ 133.1044148, -66.0994303 ], [ 133.1049258, -66.0990913 ], [ 133.105471599999987, -66.098947 ], [ 133.1066246, -66.0987002 ], [ 133.107720699999987, -66.0984134 ], [ 133.1087949, -66.0981119 ], [ 133.1093113, -66.0979509 ], [ 133.10979660000001, -66.0977738 ], [ 133.110595600000011, -66.0973556 ], [ 133.1108811, -66.0971179 ], [ 133.1117305, -66.0965524 ], [ 133.112282, -66.0964131 ], [ 133.112586, -66.0963641 ], [ 133.1132203, -66.0963045 ], [ 133.1135481, -66.0963045 ], [ 133.1138738, -66.096292 ], [ 133.1141996, -66.0962976 ], [ 133.1152467, -66.0966131 ], [ 133.1155276, -66.0966793 ], [ 133.116444300000012, -66.0968183 ], [ 133.117013899999989, -66.0969488 ], [ 133.1178095, -66.0971786 ], [ 133.1192691, -66.0974739 ], [ 133.120227699999987, -66.0975535 ], [ 133.1208457, -66.0976379 ], [ 133.1214826, -66.0976982 ], [ 133.121781700000014, -66.097749 ], [ 133.1227587, -66.0977333 ], [ 133.123405, -66.0976969 ], [ 133.124051799999989, -66.0977292 ], [ 133.1250198, -66.0976734 ], [ 133.125673299999988, -66.0976609 ], [ 133.126624099999987, -66.0975692 ], [ 133.127864, -66.0974052 ], [ 133.1291603, -66.0973419 ], [ 133.129472600000014, -66.0973055 ], [ 133.1303733, -66.097147 ], [ 133.1306868, -66.0971149 ], [ 133.1331084, -66.0967218 ], [ 133.1343355, -66.0965433 ], [ 133.1346561, -66.0965169 ], [ 133.1349798, -66.0965305 ], [ 133.1359453, -66.0964659 ], [ 133.1362734, -66.0964621 ], [ 133.1372308, -66.0963823 ], [ 133.13817610000001, -66.0962818 ], [ 133.1388287, -66.0962804 ], [ 133.139467599999989, -66.0963351 ], [ 133.1397926, -66.0963312 ], [ 133.141028299999988, -66.096159 ], [ 133.142471699999987, -66.0958521 ], [ 133.143728, -66.0957107 ], [ 133.1450139, -66.0956221 ], [ 133.1453391, -66.0956157 ], [ 133.145954, -66.0955271 ], [ 133.146271899999988, -66.0954969 ], [ 133.147479, -66.0952967 ], [ 133.1477969, -66.0952653 ], [ 133.1487696, -66.0953031 ], [ 133.1494179, -66.0952778 ], [ 133.151011, -66.0951377 ], [ 133.1516641, -66.0951493 ], [ 133.152637, -66.0951059 ], [ 133.1529548, -66.0950757 ], [ 133.154465499999986, -66.0948302 ], [ 133.1553064, -66.0946276 ], [ 133.1560915, -66.0943907 ], [ 133.1572873, -66.0939419 ], [ 133.1596839, -66.0932527 ], [ 133.161568499999987, -66.0927317 ], [ 133.1621518, -66.0926138 ], [ 133.162777799999986, -66.0925389 ], [ 133.1637574, -66.0925448 ], [ 133.1644042, -66.0925189 ], [ 133.165058, -66.0925205 ], [ 133.1656917, -66.0924645 ], [ 133.1663438, -66.0924486 ], [ 133.1679393, -66.0923132 ], [ 133.168864899999988, -66.0921848 ], [ 133.1691841, -66.0921565 ], [ 133.1701598, -66.0921735 ], [ 133.1708025, -66.092218 ], [ 133.172433399999989, -66.0922385 ], [ 133.1730782, -66.0921976 ], [ 133.1737253, -66.0922259 ], [ 133.174049599999989, -66.0922101 ], [ 133.1743768, -66.0922175 ], [ 133.175022399999989, -66.0921859 ], [ 133.1753421, -66.0922094 ], [ 133.1759735, -66.0921445 ], [ 133.17694, -66.0920814 ], [ 133.1775448, -66.0919819 ], [ 133.1781761, -66.091917 ], [ 133.1787894, -66.0918275 ], [ 133.180061599999988, -66.0917122 ], [ 133.18098710000001, -66.0915837 ], [ 133.1824269, -66.0912726 ], [ 133.1830486, -66.0911932 ], [ 133.1833737, -66.0911868 ], [ 133.1840262, -66.0912046 ], [ 133.1846778, -66.0911948 ], [ 133.1856422, -66.0912572 ], [ 133.185955, -66.0912905 ], [ 133.1868599, -66.0914445 ], [ 133.187176, -66.0914754 ], [ 133.1880812, -66.0916268 ], [ 133.18839890000001, -66.0916571 ], [ 133.189369199999987, -66.0917027 ], [ 133.190346, -66.0917058 ], [ 133.190992, -66.0917478 ], [ 133.1913165, -66.0917501 ], [ 133.191954900000013, -66.0916921 ], [ 133.1922472, -66.0916328 ], [ 133.192511599999989, -66.0915563 ], [ 133.192745, -66.0914638 ], [ 133.193340299999988, -66.0911487 ], [ 133.193853, -66.0909861 ], [ 133.1944374, -66.0908699 ], [ 133.194754, -66.090834 ], [ 133.195074799999986, -66.0908244 ], [ 133.196030799999988, -66.0907374 ], [ 133.1962701, -66.0906474 ], [ 133.196472, -66.0905439 ], [ 133.1967294, -66.0903006 ], [ 133.1967474, -66.0901679 ], [ 133.1969728, -66.0899198 ], [ 133.1971354, -66.0898058 ], [ 133.197314799999987, -66.0896951 ], [ 133.1977306, -66.0894906 ], [ 133.1982853, -66.0891631 ], [ 133.1991587, -66.088771 ], [ 133.1997359, -66.0884494 ], [ 133.2001889, -66.0882611 ], [ 133.2016779, -66.0877457 ], [ 133.2024553, -66.0873212 ], [ 133.2026765, -66.0872247 ], [ 133.204238, -66.0867458 ], [ 133.2047283, -66.0865711 ], [ 133.204952600000013, -66.0864759 ], [ 133.2055205, -66.0861529 ], [ 133.20599, -66.0859691 ], [ 133.2065115, -66.0858091 ], [ 133.2073339, -66.0855961 ], [ 133.207911, -66.0854729 ], [ 133.2085126, -66.0853707 ], [ 133.2096142, -66.0850875 ], [ 133.2103347, -66.0848189 ], [ 133.210545599999989, -66.0847167 ], [ 133.2107066, -66.0846033 ], [ 133.2109069, -66.0844991 ], [ 133.211376300000012, -66.0843153 ], [ 133.213742200000013, -66.0836105 ], [ 133.2145013, -66.0833586 ], [ 133.2152084, -66.0830841 ], [ 133.2160144, -66.0828615 ], [ 133.2166072, -66.0827529 ], [ 133.216923400000013, -66.0827207 ], [ 133.2182133, -66.0826465 ], [ 133.2188643, -66.0826403 ], [ 133.219497, -66.0825722 ], [ 133.2198194, -66.0825606 ], [ 133.2201317, -66.0825989 ], [ 133.2207759, -66.0826413 ], [ 133.2211, -66.0826267 ], [ 133.2216741, -66.082501 ], [ 133.222499199999987, -66.0822892 ], [ 133.2241189, -66.0818433 ], [ 133.2251494, -66.0815192 ], [ 133.225384100000014, -66.0814272 ], [ 133.226253899999989, -66.0810324 ], [ 133.226442, -66.0809243 ], [ 133.2273267, -66.080536 ], [ 133.2274923, -66.0804207 ], [ 133.227559, -66.0802923 ], [ 133.2281927, -66.0799888 ], [ 133.228431699999987, -66.0798988 ], [ 133.2289764, -66.0797539 ], [ 133.2292741, -66.0797009 ], [ 133.2299064, -66.0796364 ], [ 133.2305505, -66.0795989 ], [ 133.2308784, -66.0795949 ], [ 133.2315213, -66.0795518 ], [ 133.2328252, -66.0795544 ], [ 133.2341208, -66.079502 ], [ 133.2344462, -66.079511 ], [ 133.2357041, -66.0793676 ], [ 133.237003, -66.0793345 ], [ 133.237324199999989, -66.0793572 ], [ 133.2399159, -66.079246 ], [ 133.240566800000011, -66.0792616 ], [ 133.241217799999987, -66.0792542 ], [ 133.241867500000012, -66.0792847 ], [ 133.2431693, -66.0792928 ], [ 133.243494199999986, -66.0793069 ], [ 133.2444711, -66.0792816 ], [ 133.2451199, -66.0793027 ], [ 133.245768, -66.0792733 ], [ 133.2473966, -66.0792911 ], [ 133.2480434, -66.0792585 ], [ 133.249993100000012, -66.0791985 ], [ 133.250641800000011, -66.0792209 ], [ 133.2509623, -66.0791918 ], [ 133.2525785, -66.07911 ], [ 133.2532295, -66.0791231 ], [ 133.253863200000012, -66.0790592 ], [ 133.254185400000011, -66.0790475 ], [ 133.2548258, -66.0789968 ], [ 133.2560514, -66.0788122 ], [ 133.2574995, -66.0785099 ], [ 133.2581021, -66.0784093 ], [ 133.2586626, -66.0782752 ], [ 133.2589399, -66.0782068 ], [ 133.2598041, -66.0780209 ], [ 133.260746899999987, -66.0779152 ], [ 133.2610709, -66.0779004 ], [ 133.2630182, -66.0774182 ], [ 133.2641872, -66.0771848 ], [ 133.2650045, -66.076967 ], [ 133.265739, -66.0767058 ], [ 133.265927, -66.0765964 ], [ 133.2669744, -66.0762822 ], [ 133.267533500000013, -66.0761461 ], [ 133.2681347, -66.0760424 ], [ 133.2684491, -66.0760106 ], [ 133.2694266, -66.0759945 ], [ 133.2700731, -66.0759644 ], [ 133.2703984, -66.0759721 ], [ 133.272014500000012, -66.0758877 ], [ 133.27234, -66.0758929 ], [ 133.2729692, -66.0758257 ], [ 133.2736204, -66.0758144 ], [ 133.2758636, -66.0756477 ], [ 133.276514600000013, -66.0756594 ], [ 133.2771648, -66.0756411 ], [ 133.2781324, -66.0756966 ], [ 133.2791087, -66.075716 ], [ 133.2797354, -66.0757867 ], [ 133.2803854, -66.0757709 ], [ 133.2807085, -66.0757879 ], [ 133.281035, -66.0757807 ], [ 133.2816841, -66.0757967 ], [ 133.2826389, -66.0758801 ], [ 133.283556, -66.0760155 ], [ 133.2841915, -66.0760706 ], [ 133.284500400000013, -66.0761137 ], [ 133.28534350000001, -66.076315 ], [ 133.2856664, -66.0763357 ], [ 133.286189799999988, -66.0764931 ], [ 133.286474, -66.076559 ], [ 133.2875364, -66.0770606 ], [ 133.2880328, -66.0772308 ], [ 133.288608900000014, -66.0775511 ], [ 133.289084699999989, -66.0778965 ], [ 133.2899535, -66.0787521 ], [ 133.2903249, -66.0789713 ], [ 133.2907437, -66.0791737 ], [ 133.2909799, -66.0792652 ], [ 133.2912561, -66.0793353 ], [ 133.2920159, -66.0795842 ], [ 133.2927151, -66.0798623 ], [ 133.292976900000014, -66.0799416 ], [ 133.2935391, -66.0800745 ], [ 133.294129199999986, -66.0801858 ], [ 133.2948729, -66.0804445 ], [ 133.295147500000013, -66.0805165 ], [ 133.2957489, -66.0806199 ], [ 133.2960706, -66.0806362 ], [ 133.296397399999989, -66.0806252 ], [ 133.2976544, -66.08049 ], [ 133.2989575, -66.0804607 ], [ 133.3002421, -66.0803695 ], [ 133.3008925, -66.0803486 ], [ 133.301535199999989, -66.0803076 ], [ 133.3018612, -66.0803078 ], [ 133.3025041, -66.0802644 ], [ 133.302831200000014, -66.0802702 ], [ 133.3031493, -66.080294 ], [ 133.303472199999987, -66.0802735 ], [ 133.3037998, -66.0802718 ], [ 133.3041226, -66.0802526 ], [ 133.3044303, -66.0802089 ], [ 133.305275099999989, -66.0800106 ], [ 133.3074269, -66.0794116 ], [ 133.307981399999989, -66.0792722 ], [ 133.3088641, -66.0791018 ], [ 133.3095017, -66.0790457 ], [ 133.31010710000001, -66.0789462 ], [ 133.3123114, -66.0783828 ], [ 133.3128805, -66.0782535 ], [ 133.3137659, -66.0780868 ], [ 133.3143174, -66.0779461 ], [ 133.3148349, -66.0777844 ], [ 133.31527650000001, -66.07759 ], [ 133.3156128, -66.0773618 ], [ 133.3158975, -66.0771243 ], [ 133.3160942, -66.0770199 ], [ 133.317654, -66.0765416 ], [ 133.3184899, -66.0763356 ], [ 133.3190894, -66.0762311 ], [ 133.3203872, -66.0761854 ], [ 133.3213657, -66.076177 ], [ 133.321687700000012, -66.0761883 ], [ 133.322259699999989, -66.0760603 ], [ 133.3228605, -66.0759576 ], [ 133.3231792, -66.0759302 ], [ 133.3235043, -66.0759416 ], [ 133.32381860000001, -66.0759752 ], [ 133.324465, -66.0760079 ], [ 133.3254179, -66.0760978 ], [ 133.3265232, -66.0763781 ], [ 133.3267595, -66.0764695 ], [ 133.326958, -66.0765743 ], [ 133.327287500000011, -66.0768022 ], [ 133.3275002, -66.0770519 ], [ 133.3277563, -66.0772959 ], [ 133.3279348, -66.0775502 ], [ 133.3282662, -66.0779242 ], [ 133.328995600000013, -66.0785146 ], [ 133.3292587, -66.0788978 ], [ 133.3293837, -66.0790197 ], [ 133.3297211, -66.0792459 ], [ 133.330151300000011, -66.0794427 ], [ 133.3309803, -66.0796553 ], [ 133.3325447, -66.0798398 ], [ 133.334048700000011, -66.0800948 ], [ 133.3348361, -66.0803294 ], [ 133.3371754, -66.080797 ], [ 133.3376466, -66.0809805 ], [ 133.338642599999986, -66.081504 ], [ 133.339096500000011, -66.0816941 ], [ 133.3393489, -66.081777 ], [ 133.3402317, -66.0819484 ], [ 133.340539299999989, -66.0819907 ], [ 133.3410857, -66.0821357 ], [ 133.3416594, -66.0822629 ], [ 133.3421342, -66.0824414 ], [ 133.3431333, -66.0829662 ], [ 133.3435953, -66.083152 ], [ 133.3444246, -66.0833621 ], [ 133.345051500000011, -66.0834349 ], [ 133.3459542, -66.0835866 ], [ 133.3465778, -66.0836632 ], [ 133.3468622, -66.0837289 ], [ 133.3480494, -66.0839476 ], [ 133.3486577, -66.0840433 ], [ 133.34898050000001, -66.0840677 ], [ 133.3492847, -66.0841149 ], [ 133.3499314, -66.0841487 ], [ 133.3502475, -66.0841805 ], [ 133.351173499999987, -66.0843074 ], [ 133.351821, -66.08433 ], [ 133.3521134, -66.0843914 ], [ 133.353064, -66.0844774 ], [ 133.3533893, -66.0844874 ], [ 133.3540401, -66.0844626 ], [ 133.3543644, -66.0844657 ], [ 133.354685499999988, -66.084492 ], [ 133.3559895, -66.0845165 ], [ 133.3564992, -66.0846816 ], [ 133.3567919, -66.0847393 ], [ 133.3571193, -66.0847425 ], [ 133.359338400000013, -66.084528 ], [ 133.3603013, -66.0844599 ], [ 133.3609523, -66.0844325 ], [ 133.362402300000014, -66.0841304 ], [ 133.3626998, -66.0840783 ], [ 133.3630159, -66.0840445 ], [ 133.365480600000012, -66.0833971 ], [ 133.366043499999989, -66.0832651 ], [ 133.3672104, -66.0830289 ], [ 133.368609099999986, -66.0826893 ], [ 133.3691954, -66.0825738 ], [ 133.369510100000014, -66.0825381 ], [ 133.3707001, -66.0823221 ], [ 133.371645199999989, -66.082222 ], [ 133.3722285, -66.0821051 ], [ 133.3724983, -66.0820296 ], [ 133.3729813, -66.0818529 ], [ 133.373557299999987, -66.0815325 ], [ 133.3740209, -66.0813462 ], [ 133.374561699999987, -66.0811995 ], [ 133.3748578, -66.081143 ], [ 133.3751738, -66.0811104 ], [ 133.3761515, -66.0811142 ], [ 133.3768002, -66.0811385 ], [ 133.3780792, -66.0810353 ], [ 133.3787279, -66.0810159 ], [ 133.3793814, -66.0810165 ], [ 133.380346, -66.0810763 ], [ 133.381327, -66.0810763 ], [ 133.3816482, -66.0810575 ], [ 133.382273199999986, -66.0809817 ], [ 133.3825929, -66.080961 ], [ 133.3838728, -66.0810649 ], [ 133.3848467, -66.0811016 ], [ 133.3858239, -66.081091 ], [ 133.3864733, -66.0811053 ], [ 133.3884176, -66.0811861 ], [ 133.389722299999988, -66.0811748 ], [ 133.390363799999989, -66.0812165 ], [ 133.3916333, -66.0813364 ], [ 133.392610100000013, -66.0813538 ], [ 133.39355470000001, -66.0814588 ], [ 133.3938766, -66.0814737 ], [ 133.3945266, -66.0814586 ], [ 133.3954941, -66.0815208 ], [ 133.3958198, -66.0815258 ], [ 133.3971249, -66.0815325 ], [ 133.3977727, -66.0815036 ], [ 133.398098, -66.0815148 ], [ 133.398734, -66.0815682 ], [ 133.3990602, -66.0815644 ], [ 133.399385700000011, -66.0815719 ], [ 133.4000284, -66.0815511 ], [ 133.4006709, -66.0815109 ], [ 133.4022492, -66.0813447 ], [ 133.402891899999986, -66.081302 ], [ 133.403219299999989, -66.0813038 ], [ 133.4035323, -66.0812687 ], [ 133.403859399999988, -66.0812524 ], [ 133.4047902, -66.0811344 ], [ 133.4051129, -66.0811149 ], [ 133.405436900000012, -66.0810986 ], [ 133.4060892, -66.0810947 ], [ 133.406410599999987, -66.0811171 ], [ 133.4077077, -66.08106 ], [ 133.4080333, -66.0810649 ], [ 133.408666399999987, -66.081004 ], [ 133.4096432, -66.0809994 ], [ 133.4106088, -66.0809323 ], [ 133.4112572, -66.0809408 ], [ 133.4118987, -66.0808912 ], [ 133.4125479, -66.0809092 ], [ 133.41317140000001, -66.0808313 ], [ 133.4134951, -66.0808187 ], [ 133.4147394, -66.0806567 ], [ 133.4153724, -66.080597 ], [ 133.416306, -66.0804801 ], [ 133.4166324, -66.0804738 ], [ 133.417581399999989, -66.0803802 ], [ 133.417907899999989, -66.0803727 ], [ 133.418528400000014, -66.0802922 ], [ 133.4194867, -66.0802193 ], [ 133.4204263, -66.080105 ], [ 133.4210621, -66.0800491 ], [ 133.4216582, -66.0799428 ], [ 133.4222179, -66.0798068 ], [ 133.423300399999988, -66.0795112 ], [ 133.424366600000013, -66.0792073 ], [ 133.42487890000001, -66.0790432 ], [ 133.4253555, -66.0788625 ], [ 133.4261918, -66.0784562 ], [ 133.427128399999987, -66.0780878 ], [ 133.4275405, -66.0778833 ], [ 133.427839299999988, -66.0776482 ], [ 133.428453600000012, -66.0773393 ], [ 133.4287706, -66.0771081 ], [ 133.42892, -66.0769899 ], [ 133.4292084, -66.0766118 ], [ 133.429507300000012, -66.0763755 ], [ 133.4297041, -66.0759876 ], [ 133.4295708, -66.0755941 ], [ 133.429590499999989, -66.0754614 ], [ 133.4296592, -66.075333 ], [ 133.429645, -66.0752012 ], [ 133.429871, -66.0748142 ], [ 133.429680100000013, -66.0747272 ], [ 133.4299786, -66.0746769 ], [ 133.4302456, -66.0745937 ], [ 133.430549899999988, -66.0745497 ], [ 133.4308762, -66.0745433 ], [ 133.4315226, -66.0745767 ], [ 133.4318139, -66.0746349 ], [ 133.4333024, -66.0753361 ], [ 133.4337965, -66.0755094 ], [ 133.4351954, -66.0762414 ], [ 133.435866299999986, -66.0765291 ], [ 133.4366609, -66.0767607 ], [ 133.4372239, -66.076893 ], [ 133.4378226, -66.0769983 ], [ 133.4384495, -66.077072 ], [ 133.4399187, -66.0773554 ], [ 133.4402311, -66.0773969 ], [ 133.4408234, -66.0775058 ], [ 133.4411486, -66.0775169 ], [ 133.4421237, -66.0774883 ], [ 133.4427757, -66.0774868 ], [ 133.4434187, -66.0775276 ], [ 133.4443973, -66.077539 ], [ 133.4450273, -66.0774754 ], [ 133.4453552, -66.0774684 ], [ 133.445995, -66.0774193 ], [ 133.4466453, -66.0774209 ], [ 133.4472615, -66.0773334 ], [ 133.447585299999986, -66.0773182 ], [ 133.448179900000014, -66.0772099 ], [ 133.4484943, -66.0771753 ], [ 133.4487915, -66.0771218 ], [ 133.4494422, -66.0771389 ], [ 133.4497647, -66.0771206 ], [ 133.4507108, -66.0770193 ], [ 133.4516791, -66.0769775 ], [ 133.4523175, -66.0769265 ], [ 133.452643200000011, -66.0769288 ], [ 133.45296780000001, -66.0769498 ], [ 133.453289899999987, -66.0769378 ], [ 133.4536154, -66.0769438 ], [ 133.455869, -66.0770858 ], [ 133.4561961, -66.0770913 ], [ 133.4568437, -66.0770634 ], [ 133.4578224, -66.0770735 ], [ 133.4591174, -66.0771345 ], [ 133.4603893, -66.0772432 ], [ 133.460716100000013, -66.0772536 ], [ 133.4619793, -66.0773791 ], [ 133.4625878, -66.0774769 ], [ 133.4643729, -66.0778003 ], [ 133.46525, -66.0779746 ], [ 133.4655644, -66.0780104 ], [ 133.466431699999987, -66.0781934 ], [ 133.466910399999989, -66.0783727 ], [ 133.4681114, -66.0789986 ], [ 133.4685695, -66.0791871 ], [ 133.4693758, -66.0794118 ], [ 133.469975, -66.0795119 ], [ 133.47029280000001, -66.0795416 ], [ 133.4709482, -66.0795593 ], [ 133.471891699999986, -66.0796606 ], [ 133.472217300000011, -66.0796666 ], [ 133.472853, -66.0797272 ], [ 133.473794700000013, -66.0798329 ], [ 133.474698, -66.0799849 ], [ 133.475322299999988, -66.080056 ], [ 133.4758966, -66.0801839 ], [ 133.476197899999988, -66.0802321 ], [ 133.4777569, -66.0804224 ], [ 133.478992799999986, -66.0805924 ], [ 133.479948400000012, -66.0806745 ], [ 133.4814561, -66.080921 ], [ 133.4820733, -66.0810056 ], [ 133.483027, -66.0810945 ], [ 133.483618, -66.0812039 ], [ 133.4845884, -66.0812499 ], [ 133.484910899999988, -66.0812315 ], [ 133.4855622, -66.0812422 ], [ 133.4871737, -66.0813356 ], [ 133.4874474, -66.0814079 ], [ 133.4880269, -66.0815289 ], [ 133.4883348, -66.0815709 ], [ 133.4889092, -66.0816988 ], [ 133.4894533, -66.0818444 ], [ 133.4900575, -66.0819413 ], [ 133.4903787, -66.0819672 ], [ 133.4910309, -66.0819642 ], [ 133.4913526, -66.0819839 ], [ 133.492325099999988, -66.08195 ], [ 133.4926479, -66.081974 ], [ 133.4935549, -66.082121 ], [ 133.494182200000012, -66.0821932 ], [ 133.49544370000001, -66.0823265 ], [ 133.495769, -66.0823375 ], [ 133.496092800000014, -66.0823478 ], [ 133.4970668, -66.0823863 ], [ 133.4973928, -66.082386 ], [ 133.4980323, -66.0824365 ], [ 133.4999741, -66.0825376 ], [ 133.500251, -66.0826074 ], [ 133.5005621, -66.0826481 ], [ 133.5008391, -66.0827154 ], [ 133.5019098, -66.0830194 ], [ 133.50241410000001, -66.0831877 ], [ 133.502976, -66.0833216 ], [ 133.5032627, -66.0833839 ], [ 133.5038869, -66.0834573 ], [ 133.5041912, -66.083508 ], [ 133.5044665, -66.0835783 ], [ 133.5057474, -66.0839876 ], [ 133.506026, -66.0840554 ], [ 133.5063403, -66.0840937 ], [ 133.506660399999987, -66.0841139 ], [ 133.5069698, -66.0841578 ], [ 133.507293299999986, -66.0841731 ], [ 133.5082713, -66.0841503 ], [ 133.5089168, -66.0841802 ], [ 133.5095681, -66.0841908 ], [ 133.5104182, -66.0843877 ], [ 133.5110209, -66.0844864 ], [ 133.5119019, -66.084658 ], [ 133.5122288, -66.0846683 ], [ 133.5128478, -66.0847522 ], [ 133.5137418, -66.0849127 ], [ 133.5143645, -66.0849866 ], [ 133.5149489, -66.0851082 ], [ 133.5155819, -66.0851661 ], [ 133.5168284, -66.0853208 ], [ 133.5177964, -66.0853834 ], [ 133.518743699999987, -66.0854808 ], [ 133.5193887, -66.0855194 ], [ 133.520338, -66.0856098 ], [ 133.5212029, -66.0857949 ], [ 133.5222008, -66.0861367 ], [ 133.5224843, -66.0862015 ], [ 133.523122300000011, -66.0862537 ], [ 133.5241004, -66.086254 ], [ 133.524426, -66.0862368 ], [ 133.524748100000011, -66.0862501 ], [ 133.5250628, -66.0862846 ], [ 133.5259749, -66.0864284 ], [ 133.5265209, -66.0865732 ], [ 133.5271089, -66.0866873 ], [ 133.5277149, -66.0867835 ], [ 133.5283425, -66.0868556 ], [ 133.529241500000012, -66.0870129 ], [ 133.5295578, -66.0870455 ], [ 133.5298396, -66.0871121 ], [ 133.531054899999987, -66.0873033 ], [ 133.5320056, -66.0873968 ], [ 133.5338834, -66.0876185 ], [ 133.53453, -66.0876577 ], [ 133.5348396, -66.0877002 ], [ 133.535479400000014, -66.0877493 ], [ 133.535784, -66.0877962 ], [ 133.537193699999989, -66.0881253 ], [ 133.5377799, -66.088245 ], [ 133.5384966, -66.0885152 ], [ 133.5387562, -66.088594 ], [ 133.5395954, -66.0887987 ], [ 133.54023, -66.0888583 ], [ 133.5417158, -66.0891289 ], [ 133.5423572, -66.0891773 ], [ 133.542667, -66.0892161 ], [ 133.5429901, -66.08924 ], [ 133.54331590000001, -66.0892446 ], [ 133.5439539, -66.089298 ], [ 133.544574899999986, -66.0893787 ], [ 133.545143599999989, -66.0895088 ], [ 133.54574310000001, -66.0896123 ], [ 133.5463863, -66.0896589 ], [ 133.54701080000001, -66.0897321 ], [ 133.547332399999988, -66.0897541 ], [ 133.5476338, -66.0898047 ], [ 133.5482702, -66.0898611 ], [ 133.54921250000001, -66.0899688 ], [ 133.5495139, -66.0900206 ], [ 133.5497942, -66.090089 ], [ 133.5503357, -66.0902356 ], [ 133.5513263, -66.0905803 ], [ 133.551977099999988, -66.090876 ], [ 133.5523465, -66.0910938 ], [ 133.5526707, -66.0913231 ], [ 133.552793799999989, -66.091446 ], [ 133.5530421, -66.0918299 ], [ 133.5531412, -66.0920912 ], [ 133.5532488, -66.0922165 ], [ 133.5535604, -66.0924494 ], [ 133.554449, -66.093004 ], [ 133.554746599999987, -66.0932398 ], [ 133.5548667, -66.0933615 ], [ 133.5549952, -66.0936212 ], [ 133.5551074, -66.0937459 ], [ 133.5560395, -66.0944433 ], [ 133.5564513, -66.0949468 ], [ 133.556733400000013, -66.0951849 ], [ 133.557614300000012, -66.0957413 ], [ 133.560580499999986, -66.097483 ], [ 133.561073099999987, -66.0978275 ], [ 133.5614971, -66.0981851 ], [ 133.5620133, -66.0985218 ], [ 133.5625624, -66.0988494 ], [ 133.5633722, -66.0992665 ], [ 133.5647942, -66.0998114 ], [ 133.5650748, -66.0998773 ], [ 133.5655879, -66.1000411 ], [ 133.565870100000012, -66.1001063 ], [ 133.5666334, -66.1003563 ], [ 133.5670565, -66.1005559 ], [ 133.56803020000001, -66.1010876 ], [ 133.5684722, -66.1012824 ], [ 133.5687192, -66.1013698 ], [ 133.569544900000011, -66.101581 ], [ 133.570074, -66.1017362 ], [ 133.570635, -66.1018729 ], [ 133.570931699999988, -66.1019277 ], [ 133.573486699999989, -66.1027493 ], [ 133.574453, -66.1031036 ], [ 133.575009200000011, -66.1032447 ], [ 133.5764493, -66.1035538 ], [ 133.578233, -66.1038826 ], [ 133.579266, -66.104205 ], [ 133.579999500000014, -66.1044677 ], [ 133.5808237, -66.1046819 ], [ 133.5814435, -66.1047643 ], [ 133.5823308, -66.1049299 ], [ 133.5829421, -66.1050253 ], [ 133.5835759, -66.1050828 ], [ 133.583879, -66.1051339 ], [ 133.5842008, -66.1051571 ], [ 133.584486199999986, -66.1052224 ], [ 133.5850996, -66.1053109 ], [ 133.5856916, -66.1054223 ], [ 133.58664, -66.1055179 ], [ 133.5872319, -66.1056306 ], [ 133.587860400000011, -66.1056987 ], [ 133.5890772, -66.1058881 ], [ 133.5893972, -66.1059156 ], [ 133.5900006, -66.1060165 ], [ 133.5920152, -66.1064523 ], [ 133.592912399999989, -66.1066079 ], [ 133.593232199999989, -66.1066404 ], [ 133.5938839, -66.1066556 ], [ 133.5942058, -66.1066776 ], [ 133.594531100000012, -66.1066689 ], [ 133.595182599999987, -66.1066879 ], [ 133.5954993, -66.1067204 ], [ 133.5957994, -66.1067714 ], [ 133.5966158, -66.1069911 ], [ 133.5974999, -66.1071603 ], [ 133.5987969, -66.1072225 ], [ 133.599112100000013, -66.1072543 ], [ 133.59943770000001, -66.107265 ], [ 133.599751, -66.1073025 ], [ 133.600328600000012, -66.1074243 ], [ 133.6016395, -66.1078186 ], [ 133.601926600000013, -66.107882 ], [ 133.6023706, -66.1080762 ], [ 133.6028588, -66.1082507 ], [ 133.603410700000012, -66.108391 ], [ 133.603714, -66.1084421 ], [ 133.6042851, -66.1085701 ], [ 133.6052411, -66.1086469 ], [ 133.60554590000001, -66.1086973 ], [ 133.6064843, -66.1088115 ], [ 133.6071231, -66.1088633 ], [ 133.6074473, -66.1088734 ], [ 133.6081011, -66.1088549 ], [ 133.609051599999987, -66.108946 ], [ 133.6093357, -66.1090093 ], [ 133.6099523, -66.109099 ], [ 133.611122099999989, -66.1093334 ], [ 133.6114355, -66.1093683 ], [ 133.6124054, -66.1094202 ], [ 133.6133845, -66.1094199 ], [ 133.6140321, -66.1094537 ], [ 133.6146856, -66.1094401 ], [ 133.6159666, -66.1095413 ], [ 133.6175843, -66.109622 ], [ 133.6179088, -66.1096283 ], [ 133.61856130000001, -66.1096066 ], [ 133.6188852, -66.1096217 ], [ 133.6198425, -66.109704 ], [ 133.6201493, -66.1097476 ], [ 133.6207142, -66.1098792 ], [ 133.6213095, -66.1099905 ], [ 133.621929599999987, -66.1100739 ], [ 133.6229055, -66.1101016 ], [ 133.623229, -66.1101241 ], [ 133.62355070000001, -66.1101241 ], [ 133.6241967, -66.1100817 ], [ 133.6248493, -66.1100587 ], [ 133.6254999, -66.1100694 ], [ 133.6267914, -66.1099921 ], [ 133.628037, -66.1098338 ], [ 133.6307209, -66.1093524 ], [ 133.632314900000011, -66.1092105 ], [ 133.6326017, -66.1092277 ], [ 133.632866400000012, -66.109151 ], [ 133.6331372, -66.1090756 ], [ 133.6338319, -66.1085705 ], [ 133.6340849, -66.1083264 ], [ 133.6349983, -66.1079489 ], [ 133.6357492, -66.1076928 ], [ 133.6365477, -66.1074633 ], [ 133.6379704, -66.1071412 ], [ 133.638276499999989, -66.1070924 ], [ 133.638556, -66.1070245 ], [ 133.6403579, -66.1064558 ], [ 133.6406359, -66.1063874 ], [ 133.6415481, -66.1062395 ], [ 133.642172499999987, -66.1061687 ], [ 133.6424998, -66.1061519 ], [ 133.645015199999989, -66.1055388 ], [ 133.645325500000013, -66.1054968 ], [ 133.645972300000011, -66.105465 ], [ 133.646614, -66.1054143 ], [ 133.6472657, -66.1054293 ], [ 133.6475896, -66.1054174 ], [ 133.6479072, -66.1053824 ], [ 133.648198400000012, -66.1053246 ], [ 133.64846, -66.1052454 ], [ 133.648676599999988, -66.105147 ], [ 133.64964950000001, -66.1046145 ], [ 133.6507626, -66.1041327 ], [ 133.651385299999987, -66.1038247 ], [ 133.6518695, -66.1036496 ], [ 133.652404600000011, -66.1034974 ], [ 133.652688500000011, -66.1034327 ], [ 133.654197399999987, -66.1031819 ], [ 133.654503299999988, -66.1031355 ], [ 133.654825, -66.1031073 ], [ 133.656357, -66.1028829 ], [ 133.658766, -66.1024751 ], [ 133.6606453, -66.1022564 ], [ 133.661538, -66.1020939 ], [ 133.661821800000013, -66.1020291 ], [ 133.6623509, -66.1018744 ], [ 133.6633358, -66.1015273 ], [ 133.6639899, -66.1012314 ], [ 133.6645457, -66.1009053 ], [ 133.6647848, -66.1008152 ], [ 133.6650627, -66.1007454 ], [ 133.6656901, -66.1006733 ], [ 133.6660153, -66.1006633 ], [ 133.6676462, -66.1006687 ], [ 133.6682955, -66.100643 ], [ 133.668619299999989, -66.1006579 ], [ 133.6692477, -66.1007294 ], [ 133.6695719, -66.100738 ], [ 133.6708759, -66.1007004 ], [ 133.6718534, -66.100694 ], [ 133.672823200000011, -66.1007418 ], [ 133.6734467, -66.1008175 ], [ 133.673994, -66.1009619 ], [ 133.6744716, -66.1011405 ], [ 133.676206900000011, -66.1019325 ], [ 133.6771148, -66.102313 ], [ 133.6773623, -66.1023989 ], [ 133.678174500000011, -66.1026212 ], [ 133.67844740000001, -66.1026925 ], [ 133.6805541, -66.1030479 ], [ 133.6811334, -66.1031713 ], [ 133.681649099999987, -66.1033328 ], [ 133.6828739, -66.1037698 ], [ 133.6847876, -66.1042745 ], [ 133.685675300000014, -66.1044431 ], [ 133.686285700000013, -66.1045362 ], [ 133.6869227, -66.1045945 ], [ 133.6875282, -66.1046919 ], [ 133.6884014, -66.1048723 ], [ 133.689366299999989, -66.1049293 ], [ 133.689984900000013, -66.105013 ], [ 133.691204, -66.1052022 ], [ 133.6917803, -66.1053268 ], [ 133.692701, -66.1054582 ], [ 133.6936737, -66.1055134 ], [ 133.6946293, -66.1055984 ], [ 133.6949555, -66.1056002 ], [ 133.6959166, -66.1056708 ], [ 133.696244, -66.1056782 ], [ 133.6965591, -66.1057136 ], [ 133.6972111, -66.1057246 ], [ 133.697533099999987, -66.1057463 ], [ 133.6981566, -66.1058257 ], [ 133.6994525, -66.1058813 ], [ 133.6997806, -66.1058762 ], [ 133.7001046, -66.1058898 ], [ 133.7007452, -66.1059406 ], [ 133.7017204, -66.1059777 ], [ 133.7023729, -66.1059799 ], [ 133.703021, -66.1060058 ], [ 133.704652, -66.1060146 ], [ 133.7049757, -66.1060331 ], [ 133.705302499999988, -66.1060249 ], [ 133.7065842, -66.1059212 ], [ 133.7078833, -66.1058937 ], [ 133.7085036, -66.1058095 ], [ 133.709475200000014, -66.1057747 ], [ 133.7104027, -66.1056471 ], [ 133.7112952, -66.1054843 ], [ 133.712237, -66.1053755 ], [ 133.7128869, -66.1053677 ], [ 133.713203600000014, -66.1054024 ], [ 133.7138579, -66.105399 ], [ 133.7148287, -66.1053498 ], [ 133.7154109, -66.1052316 ], [ 133.716623700000014, -66.105036 ], [ 133.7178983, -66.1049202 ], [ 133.71820550000001, -66.1048768 ], [ 133.718808200000012, -66.104775 ], [ 133.719951900000012, -66.1045207 ], [ 133.720257800000013, -66.1044717 ], [ 133.720895, -66.1044163 ], [ 133.7218723, -66.1043864 ], [ 133.7228307, -66.1043115 ], [ 133.7234451, -66.1042209 ], [ 133.7237154, -66.1041466 ], [ 133.723949800000014, -66.1040545 ], [ 133.724129799999986, -66.1039444 ], [ 133.7242214, -66.1038173 ], [ 133.7241019, -66.1036951 ], [ 133.723872199999988, -66.1033092 ], [ 133.7238872, -66.1031777 ], [ 133.7240122, -66.1029179 ], [ 133.7240118, -66.102785 ], [ 133.7239092, -66.1025244 ], [ 133.724015900000012, -66.1022633 ], [ 133.7241701, -66.1020057 ], [ 133.7241804, -66.1018734 ], [ 133.7240763, -66.1016122 ], [ 133.7241189, -66.1014809 ], [ 133.724212, -66.1013545 ], [ 133.724344800000011, -66.1012333 ], [ 133.724869500000011, -66.1008979 ], [ 133.7255514, -66.1006139 ], [ 133.7260814, -66.1004608 ], [ 133.7263754, -66.1004029 ], [ 133.7266897, -66.1003689 ], [ 133.727017100000012, -66.1003737 ], [ 133.7273371, -66.1004034 ], [ 133.727632699999987, -66.1004573 ], [ 133.729499299999986, -66.1009908 ], [ 133.729782, -66.1010558 ], [ 133.730382600000013, -66.1011586 ], [ 133.7309558, -66.1012867 ], [ 133.7314386, -66.1014632 ], [ 133.73180210000001, -66.1016824 ], [ 133.7319913, -66.1019363 ], [ 133.7320755, -66.1021979 ], [ 133.7320442, -66.1024616 ], [ 133.732095500000014, -66.1025931 ], [ 133.7324601, -66.1029621 ], [ 133.7325332, -66.1030901 ], [ 133.7327534, -66.1033405 ], [ 133.7331896, -66.1036951 ], [ 133.7335297, -66.103921 ], [ 133.7339528, -66.1041208 ], [ 133.734423, -66.1043047 ], [ 133.7349326, -66.1044709 ], [ 133.735854100000012, -66.1048462 ], [ 133.7360907, -66.1049375 ], [ 133.736333699999989, -66.1050252 ], [ 133.7376658, -66.1054072 ], [ 133.7391633, -66.1059192 ], [ 133.739454, -66.1059799 ], [ 133.7402526, -66.1062098 ], [ 133.7417403, -66.1064789 ], [ 133.7423743, -66.1065383 ], [ 133.742676100000011, -66.1065921 ], [ 133.7429913, -66.1066261 ], [ 133.7435889, -66.1067326 ], [ 133.7442279, -66.1067863 ], [ 133.74453, -66.1068352 ], [ 133.745811, -66.1069414 ], [ 133.7467819, -66.1068895 ], [ 133.748081899999988, -66.1068455 ], [ 133.7487176, -66.1067881 ], [ 133.749340600000011, -66.1067074 ], [ 133.7496617, -66.1066903 ], [ 133.7503141, -66.1066655 ], [ 133.7509665, -66.1066688 ], [ 133.75194, -66.1066268 ], [ 133.7522487, -66.1065828 ], [ 133.7527727, -66.1064257 ], [ 133.7532594, -66.106249 ], [ 133.7539456, -66.1059655 ], [ 133.7541194, -66.1058541 ], [ 133.7543341, -66.1057536 ], [ 133.7552289, -66.1053683 ], [ 133.75559770000001, -66.1051494 ], [ 133.756228099999987, -66.104846 ], [ 133.756612, -66.1046322 ], [ 133.7570624, -66.1044402 ], [ 133.757562400000012, -66.1042705 ], [ 133.7580969, -66.1041179 ], [ 133.758382, -66.1040536 ], [ 133.7596002, -66.103864 ], [ 133.7604863, -66.103697 ], [ 133.7618864, -66.1033573 ], [ 133.7624104, -66.103199 ], [ 133.7628683, -66.1030102 ], [ 133.7632384, -66.1027931 ], [ 133.7635737, -66.1025651 ], [ 133.763849599999986, -66.102326 ], [ 133.764044500000011, -66.1022198 ], [ 133.7645504, -66.1020538 ], [ 133.7648355, -66.1019895 ], [ 133.7654597, -66.101912 ], [ 133.766414, -66.1018223 ], [ 133.766740199999987, -66.1018227 ], [ 133.767389400000013, -66.1018552 ], [ 133.7677036, -66.1018211 ], [ 133.7686146, -66.1016761 ], [ 133.77019, -66.1015076 ], [ 133.7708407, -66.1014833 ], [ 133.7711663, -66.1014949 ], [ 133.771814, -66.1014681 ], [ 133.7724553, -66.1014169 ], [ 133.7727813, -66.1014222 ], [ 133.7734254, -66.1014627 ], [ 133.7740086, -66.1015808 ], [ 133.7750299, -66.101911 ], [ 133.7753174, -66.1019728 ], [ 133.776090900000014, -66.1022173 ], [ 133.776364199999989, -66.1022883 ], [ 133.7769797, -66.1023754 ], [ 133.777577400000013, -66.1024817 ], [ 133.7778994, -66.1025044 ], [ 133.7785165, -66.1025909 ], [ 133.77978920000001, -66.1027074 ], [ 133.7804389, -66.1027311 ], [ 133.781023800000014, -66.1028472 ], [ 133.7813423, -66.1028762 ], [ 133.7823172, -66.1029202 ], [ 133.7826418, -66.1029223 ], [ 133.7829621, -66.1029482 ], [ 133.7841951, -66.1031192 ], [ 133.7854869, -66.1031952 ], [ 133.7864659, -66.1031899 ], [ 133.787104199999987, -66.1031373 ], [ 133.788076, -66.1030933 ], [ 133.789052199999986, -66.1030829 ], [ 133.7893795, -66.1030926 ], [ 133.789699500000012, -66.103066 ], [ 133.791328, -66.1030281 ], [ 133.792266399999988, -66.1029176 ], [ 133.7932418, -66.1029515 ], [ 133.793891300000013, -66.1029496 ], [ 133.7945406, -66.1029819 ], [ 133.7948668, -66.1029822 ], [ 133.795182399999987, -66.1030099 ], [ 133.796162900000013, -66.1030064 ], [ 133.7967591, -66.1031119 ], [ 133.797084500000011, -66.1031297 ], [ 133.7977372, -66.1031253 ], [ 133.7983695, -66.1031874 ], [ 133.7993454, -66.1032126 ], [ 133.799991299999988, -66.1032524 ], [ 133.800642, -66.1032561 ], [ 133.8012862, -66.1032977 ], [ 133.8016106, -66.1033036 ], [ 133.8022197, -66.1034005 ], [ 133.802534900000012, -66.1034356 ], [ 133.803110299999986, -66.1035578 ], [ 133.804429, -66.1039497 ], [ 133.8065805, -66.1045483 ], [ 133.807811, -66.1049818 ], [ 133.8083512, -66.1051312 ], [ 133.8089703, -66.1052144 ], [ 133.809561699999989, -66.1053267 ], [ 133.809875299999987, -66.1053637 ], [ 133.810199, -66.1053539 ], [ 133.810521099999988, -66.1053754 ], [ 133.811127, -66.1054747 ], [ 133.8121998, -66.1057752 ], [ 133.813336099999987, -66.1060362 ], [ 133.8143914, -66.1063472 ], [ 133.8154088, -66.106679 ], [ 133.8156966, -66.1067407 ], [ 133.816374599999989, -66.1070272 ], [ 133.817660100000012, -66.1076252 ], [ 133.8180275, -66.1078455 ], [ 133.8183545, -66.1080741 ], [ 133.8185867, -66.1083214 ], [ 133.8187658, -66.1084327 ], [ 133.819498900000013, -66.1086953 ], [ 133.820367, -66.1090901 ], [ 133.8212791, -66.1094691 ], [ 133.821524, -66.109556 ], [ 133.8218038, -66.1096245 ], [ 133.8222905, -66.1098008 ], [ 133.8244398, -66.1107967 ], [ 133.8251118, -66.1110856 ], [ 133.8255844, -66.1112686 ], [ 133.8263509, -66.1115147 ], [ 133.8278786, -66.1122045 ], [ 133.828579, -66.1124812 ], [ 133.8291116, -66.1126347 ], [ 133.8297441, -66.1127005 ], [ 133.830275300000011, -66.1128534 ], [ 133.83056, -66.1129163 ], [ 133.830910499999987, -66.1131408 ], [ 133.831025899999986, -66.1132647 ], [ 133.8313589, -66.1137761 ], [ 133.831467300000014, -66.1140372 ], [ 133.832404, -66.114578 ], [ 133.8325629, -66.1146935 ], [ 133.83295720000001, -66.1150575 ], [ 133.8330525, -66.1151843 ], [ 133.833504799999986, -66.1153753 ], [ 133.83375620000001, -66.1154585 ], [ 133.834028, -66.1155338 ], [ 133.834615, -66.1156491 ], [ 133.8348791, -66.1157249 ], [ 133.8358215, -66.1160922 ], [ 133.8363369, -66.1162549 ], [ 133.8375318, -66.1164689 ], [ 133.837844, -66.1165064 ], [ 133.8386679, -66.1167203 ], [ 133.8392987, -66.1167917 ], [ 133.8399005, -66.1168902 ], [ 133.840543200000013, -66.1169386 ], [ 133.8408455, -66.1169897 ], [ 133.8411611, -66.1170223 ], [ 133.84358850000001, -66.117411 ], [ 133.8442296, -66.1174624 ], [ 133.844556, -66.1174626 ], [ 133.845175500000011, -66.1175457 ], [ 133.8460538, -66.1177214 ], [ 133.8469692, -66.1178618 ], [ 133.8472846, -66.1178968 ], [ 133.8481213, -66.1181033 ], [ 133.8490343, -66.1184796 ], [ 133.8503369, -66.1190738 ], [ 133.8508287, -66.1192482 ], [ 133.8513585, -66.1194029 ], [ 133.8516545, -66.1194577 ], [ 133.8526326, -66.1194856 ], [ 133.8529579, -66.1194777 ], [ 133.853778799999986, -66.119694 ], [ 133.854549, -66.1199399 ], [ 133.854778399999987, -66.1200341 ], [ 133.855159, -66.1202482 ], [ 133.8554087, -66.1204936 ], [ 133.8557291, -66.1208682 ], [ 133.8557796, -66.120999 ], [ 133.855958, -66.1212539 ], [ 133.8559203, -66.1215182 ], [ 133.855936899999989, -66.12165 ], [ 133.8560813, -66.1219083 ], [ 133.8560794, -66.1220412 ], [ 133.855918, -66.1225654 ], [ 133.8556548, -66.1232186 ], [ 133.8556776, -66.1233505 ], [ 133.8554854, -66.1238732 ], [ 133.8555005, -66.1240056 ], [ 133.855422800000014, -66.1242684 ], [ 133.8554344, -66.1245331 ], [ 133.8553987, -66.1246645 ], [ 133.8554488, -66.1249277 ], [ 133.8553425, -66.1250535 ], [ 133.855293, -66.1251829 ], [ 133.8552645, -66.1254486 ], [ 133.8551684, -66.1257099 ], [ 133.8550577, -66.1262364 ], [ 133.8548844, -66.1266282 ], [ 133.854964599999988, -66.1271563 ], [ 133.855192100000011, -66.1275413 ], [ 133.855462100000011, -66.1277825 ], [ 133.8555809, -66.1279052 ], [ 133.8557275, -66.1280244 ], [ 133.8558148, -66.1282853 ], [ 133.8577047, -66.1291994 ], [ 133.8581058, -66.1294067 ], [ 133.8584663, -66.1296274 ], [ 133.8590375, -66.1301051 ], [ 133.859372, -66.1304779 ], [ 133.8597732, -66.1308407 ], [ 133.8598609, -66.1309681 ], [ 133.8604587, -66.1314391 ], [ 133.860632, -66.1315504 ], [ 133.861056600000012, -66.1317523 ], [ 133.8615189, -66.1319395 ], [ 133.8617658, -66.1320257 ], [ 133.862042800000012, -66.1320954 ], [ 133.8625271, -66.1322728 ], [ 133.8633624, -66.1326783 ], [ 133.8637214, -66.1328996 ], [ 133.86384480000001, -66.133023 ], [ 133.8642975, -66.1333755 ], [ 133.8646678, -66.133743 ], [ 133.865031499999986, -66.1339625 ], [ 133.8655065, -66.1341435 ], [ 133.8666433, -66.1344036 ], [ 133.8672373, -66.134515 ], [ 133.8683057, -66.1348201 ], [ 133.86889020000001, -66.1349377 ], [ 133.8695069, -66.1350269 ], [ 133.8704021, -66.1351876 ], [ 133.8722158, -66.1359492 ], [ 133.873444400000011, -66.1363852 ], [ 133.874762800000013, -66.1369725 ], [ 133.8754566, -66.1372532 ], [ 133.875975899999986, -66.1374134 ], [ 133.8768359, -66.1376037 ], [ 133.877461, -66.1376798 ], [ 133.8781065, -66.1377162 ], [ 133.8784238, -66.1377518 ], [ 133.8793064, -66.1379223 ], [ 133.8796255, -66.137951 ], [ 133.8799534, -66.1379605 ], [ 133.8808943, -66.1380715 ], [ 133.8825209, -66.1381212 ], [ 133.8828493, -66.1381194 ], [ 133.8834981, -66.1381508 ], [ 133.883825, -66.1381484 ], [ 133.884455300000013, -66.1382126 ], [ 133.8856179, -66.1384577 ], [ 133.8862449, -66.1385282 ], [ 133.886827899999986, -66.1386476 ], [ 133.8873347, -66.1388139 ], [ 133.888652, -66.1394028 ], [ 133.8891573, -66.1395697 ], [ 133.8894407, -66.1396368 ], [ 133.8913982, -66.1396347 ], [ 133.8920384, -66.139689 ], [ 133.892685699999987, -66.139721 ], [ 133.893307600000014, -66.1398032 ], [ 133.893539, -66.1398955 ], [ 133.8939624, -66.1400979 ], [ 133.894146799999987, -66.1402074 ], [ 133.8943093, -66.1403216 ], [ 133.894419, -66.1404467 ], [ 133.8945004, -66.1408411 ], [ 133.8946871, -66.1410954 ], [ 133.8948212, -66.1413542 ], [ 133.894839600000012, -66.1414867 ], [ 133.89504, -66.141874 ], [ 133.895121499999988, -66.1421374 ], [ 133.8951367, -66.1424009 ], [ 133.895384799999988, -66.142919 ], [ 133.8957833, -66.1431299 ], [ 133.896224100000012, -66.1433256 ], [ 133.897179599999987, -66.143687 ], [ 133.897381200000012, -66.1437909 ], [ 133.8975423, -66.1439058 ], [ 133.8977414, -66.1441588 ], [ 133.8979525, -66.1446804 ], [ 133.8980047, -66.1449442 ], [ 133.8982009, -66.145196 ], [ 133.8983041, -66.1454584 ], [ 133.8985188, -66.1457078 ], [ 133.8986611, -66.1458275 ], [ 133.8992255, -66.1461502 ], [ 133.89989940000001, -66.1464388 ], [ 133.9001419, -66.1465281 ], [ 133.9017388, -66.1469899 ], [ 133.9022096, -66.1471739 ], [ 133.9026333, -66.1473751 ], [ 133.9030117, -66.1475902 ], [ 133.9031665, -66.1477075 ], [ 133.9035812, -66.1480665 ], [ 133.903683199999989, -66.1481921 ], [ 133.9041244, -66.148547 ], [ 133.904217, -66.1486738 ], [ 133.9042308, -66.1489379 ], [ 133.9042014, -66.1490706 ], [ 133.9042507, -66.1492008 ], [ 133.904242900000014, -66.1493337 ], [ 133.9041426, -66.149728 ], [ 133.9041455, -66.1498616 ], [ 133.9039976, -66.1501189 ], [ 133.9039697, -66.1503833 ], [ 133.9038284, -66.1505021 ], [ 133.903215100000011, -66.1507545 ], [ 133.9032875, -66.1510166 ], [ 133.903507, -66.1512667 ], [ 133.9042982, -66.1516873 ], [ 133.9046095, -66.15192 ], [ 133.9048089, -66.1521718 ], [ 133.9051379, -66.1526843 ], [ 133.9053198, -66.1532075 ], [ 133.90529810000001, -66.153341 ], [ 133.905332, -66.1534723 ], [ 133.9056358, -66.1542567 ], [ 133.9057143, -66.1546524 ], [ 133.905864, -66.1549101 ], [ 133.9059689, -66.1551719 ], [ 133.905993599999988, -66.1553031 ], [ 133.9059196, -66.1554324 ], [ 133.9059349, -66.1556972 ], [ 133.905890199999988, -66.1558273 ], [ 133.9057855, -66.1559538 ], [ 133.9057531, -66.1560852 ], [ 133.9057607, -66.1562183 ], [ 133.9056774, -66.1564798 ], [ 133.9056989, -66.1566123 ], [ 133.905657, -66.1570083 ], [ 133.9055429, -66.1572696 ], [ 133.905513500000012, -66.1575334 ], [ 133.9054027, -66.1576586 ], [ 133.9053441, -66.1577892 ], [ 133.9052853, -66.1580534 ], [ 133.9050363, -66.1582974 ], [ 133.9049623, -66.1584267 ], [ 133.9045146, -66.1589232 ], [ 133.904224199999987, -66.1591613 ], [ 133.9040594, -66.1594165 ], [ 133.90352390000001, -66.1600416 ], [ 133.9028926, -66.1605042 ], [ 133.9026419, -66.1607488 ], [ 133.9024939, -66.1610073 ], [ 133.902387800000014, -66.161132 ], [ 133.901567699999987, -66.1617036 ], [ 133.9013415, -66.1619522 ], [ 133.901044899999988, -66.1621889 ], [ 133.9006841, -66.1624102 ], [ 133.900135400000011, -66.1628885 ], [ 133.899926, -66.163139 ], [ 133.8996569, -66.163381 ], [ 133.899499600000013, -66.1636382 ], [ 133.899375, -66.1637602 ], [ 133.8991902, -66.1640134 ], [ 133.8991561, -66.1641455 ], [ 133.898933, -66.1643941 ], [ 133.8987972, -66.1646527 ], [ 133.8985556, -66.1648986 ], [ 133.898571, -66.165031 ], [ 133.8985016, -66.1651597 ], [ 133.898509, -66.1654251 ], [ 133.8983993, -66.1658181 ], [ 133.8984917, -66.166081 ], [ 133.8984452, -66.1663453 ], [ 133.8985176, -66.1666074 ], [ 133.8987617, -66.1669925 ], [ 133.8989611, -66.1672444 ], [ 133.8990814, -66.167505 ], [ 133.8990767, -66.1676367 ], [ 133.8992637, -66.1678909 ], [ 133.8993438, -66.1681537 ], [ 133.899721, -66.1686598 ], [ 133.8997271, -66.1687922 ], [ 133.8996884, -66.1689236 ], [ 133.899754800000011, -66.1690533 ], [ 133.899754699999988, -66.1691856 ], [ 133.899867300000011, -66.1694468 ], [ 133.8998359, -66.1701082 ], [ 133.8999284, -66.1703699 ], [ 133.8999948, -66.1704996 ], [ 133.90020770000001, -66.1710218 ], [ 133.900167399999987, -66.1712849 ], [ 133.900252, -66.1716807 ], [ 133.9002395, -66.1719453 ], [ 133.900438400000013, -66.1724681 ], [ 133.9007291, -66.1728474 ], [ 133.9008523, -66.1733739 ], [ 133.9008537, -66.1735069 ], [ 133.9007398, -66.1736308 ], [ 133.900695, -66.1737622 ], [ 133.900772100000012, -66.174025 ], [ 133.900788799999987, -66.1742891 ], [ 133.9013933, -66.1747583 ], [ 133.9018069, -66.1751179 ], [ 133.9026835, -66.1756771 ], [ 133.9034974, -66.1760929 ], [ 133.904400900000013, -66.1764751 ], [ 133.905376100000012, -66.1770057 ], [ 133.9058272, -66.1773594 ], [ 133.9059433, -66.1774833 ], [ 133.906067, -66.1777414 ], [ 133.9065195, -66.1780957 ], [ 133.9110413, -66.1806936 ], [ 133.9118336, -66.1811142 ], [ 133.9122722, -66.1813111 ], [ 133.9125371, -66.1813905 ], [ 133.9127674, -66.1814847 ], [ 133.9138135, -66.181994 ], [ 133.9145265, -66.1822654 ], [ 133.915577500000012, -66.1827728 ], [ 133.916288900000012, -66.183046 ], [ 133.9173399, -66.1835535 ], [ 133.918048199999987, -66.1838279 ], [ 133.9190506, -66.1843518 ], [ 133.91969610000001, -66.1846508 ], [ 133.9199343, -66.1847419 ], [ 133.9215328, -66.1852029 ], [ 133.9221284, -66.1853129 ], [ 133.9233912, -66.1854548 ], [ 133.923678700000011, -66.1855157 ], [ 133.9239374, -66.1855988 ], [ 133.925393, -66.1863127 ], [ 133.9256296, -66.1864044 ], [ 133.926677399999988, -66.186722 ], [ 133.927113100000014, -66.1869201 ], [ 133.927721, -66.1872324 ], [ 133.928169200000013, -66.1874256 ], [ 133.928417, -66.1875117 ], [ 133.928980599999988, -66.1876465 ], [ 133.9292873, -66.1876937 ], [ 133.9297891, -66.1878648 ], [ 133.9302437, -66.1880543 ], [ 133.930648, -66.1882621 ], [ 133.93100530000001, -66.1884845 ], [ 133.9313065, -66.188719 ], [ 133.9313979, -66.1888464 ], [ 133.9317553, -66.1890688 ], [ 133.932375900000011, -66.1893763 ], [ 133.9326063, -66.1894704 ], [ 133.9328668, -66.1895491 ], [ 133.9336786, -66.189966 ], [ 133.9339028, -66.1900626 ], [ 133.9346241, -66.1903321 ], [ 133.9352608, -66.1903905 ], [ 133.9355292, -66.1904675 ], [ 133.935829500000011, -66.1905209 ], [ 133.9363219, -66.1906956 ], [ 133.9365951, -66.1907682 ], [ 133.9380121, -66.1914961 ], [ 133.938727199999988, -66.191768 ], [ 133.9392863, -66.1919058 ], [ 133.9395342, -66.1919907 ], [ 133.939759900000013, -66.1920866 ], [ 133.9405735, -66.1925029 ], [ 133.9410471, -66.1926862 ], [ 133.941323399999987, -66.1927575 ], [ 133.9422767, -66.1928558 ], [ 133.9425563, -66.1929247 ], [ 133.942793200000011, -66.1930138 ], [ 133.942997, -66.1931184 ], [ 133.9431414, -66.1932374 ], [ 133.9433249, -66.1933462 ], [ 133.9437733, -66.1935393 ], [ 133.94515530000001, -66.1938935 ], [ 133.9454508, -66.1939513 ], [ 133.9457708, -66.1939799 ], [ 133.9463491, -66.1941053 ], [ 133.947388100000012, -66.1944264 ], [ 133.947992, -66.1945308 ], [ 133.9484139, -66.194733 ], [ 133.9487856, -66.1949511 ], [ 133.949435200000011, -66.1954104 ], [ 133.949650100000014, -66.1955106 ], [ 133.949909100000013, -66.1955912 ], [ 133.9508429, -66.1957118 ], [ 133.9511613, -66.1957434 ], [ 133.9514882, -66.1957571 ], [ 133.9517985, -66.1957981 ], [ 133.952658, -66.1959905 ], [ 133.953998899999988, -66.1963706 ], [ 133.954593499999987, -66.1964786 ], [ 133.95540840000001, -66.1967031 ], [ 133.9560143, -66.1968018 ], [ 133.9569881, -66.1968602 ], [ 133.9573034, -66.1968931 ], [ 133.9579559, -66.196916 ], [ 133.958227599999987, -66.1969904 ], [ 133.958818799999989, -66.1971058 ], [ 133.959137199999986, -66.1971363 ], [ 133.9600419, -66.1972915 ], [ 133.960974099999987, -66.1974176 ], [ 133.9619262, -66.1975138 ], [ 133.9625716, -66.1975578 ], [ 133.9632019, -66.1976286 ], [ 133.965471799999989, -66.1977632 ], [ 133.966100399999988, -66.1978383 ], [ 133.9664208, -66.1978606 ], [ 133.966698799999989, -66.1979326 ], [ 133.967005699999987, -66.1979798 ], [ 133.9672822, -66.1980511 ], [ 133.968166200000013, -66.1982217 ], [ 133.968492, -66.1982247 ], [ 133.9691372, -66.1981719 ], [ 133.9700683, -66.1980457 ], [ 133.9703949, -66.1980325 ], [ 133.970706799999988, -66.1980728 ], [ 133.971034300000014, -66.198074 ], [ 133.9720103, -66.1981204 ], [ 133.9723305, -66.1981489 ], [ 133.97298330000001, -66.1981655 ], [ 133.9733034, -66.198194 ], [ 133.9736325, -66.1981958 ], [ 133.974583, -66.1982951 ], [ 133.9752287, -66.1983341 ], [ 133.9758606, -66.1984054 ], [ 133.976513, -66.1984307 ], [ 133.977160700000013, -66.1983905 ], [ 133.977490100000011, -66.1983847 ], [ 133.9781256, -66.1984436 ], [ 133.9797522, -66.1985234 ], [ 133.98040610000001, -66.1985175 ], [ 133.981712499999986, -66.1984657 ], [ 133.9826654, -66.1983701 ], [ 133.9829928, -66.1983737 ], [ 133.9833178, -66.1983967 ], [ 133.983641299999988, -66.1983846 ], [ 133.9842956, -66.1984031 ], [ 133.984625, -66.1983973 ], [ 133.986258, -66.1984377 ], [ 133.9869122, -66.1984243 ], [ 133.9875615, -66.1984508 ], [ 133.98818030000001, -66.1983628 ], [ 133.9897827, -66.1982213 ], [ 133.9913573, -66.1980415 ], [ 133.992272, -66.1978981 ], [ 133.993110699999988, -66.1976912 ], [ 133.993695300000013, -66.1975724 ], [ 133.9940048, -66.1975253 ], [ 133.994324299999988, -66.1974988 ], [ 133.9946516, -66.1975036 ], [ 133.9960704, -66.1971747 ], [ 133.9966595, -66.1970578 ], [ 133.9972927, -66.1969911 ], [ 133.99858660000001, -66.1969047 ], [ 133.9992126, -66.1968261 ], [ 133.9995146, -66.1967746 ], [ 133.99979110000001, -66.1967047 ], [ 134.0002823, -66.196529 ], [ 134.00048910000001, -66.1964262 ], [ 134.0007529, -66.1961846 ], [ 134.0011422, -66.1959714 ], [ 134.0013093, -66.1958583 ], [ 134.0014351, -66.1957356 ], [ 134.0016206, -66.1956264 ], [ 134.0018502, -66.1955319 ], [ 134.002628499999986, -66.1952883 ], [ 134.003452, -66.1950737 ], [ 134.004029, -66.1949467 ], [ 134.004342799999989, -66.1949065 ], [ 134.0049047, -66.1947731 ], [ 134.005411, -66.1946037 ], [ 134.005625400000014, -66.1945053 ], [ 134.006119, -66.1941617 ], [ 134.0062402, -66.1940383 ], [ 134.006700099999989, -66.1936882 ], [ 134.0073433, -66.1933881 ], [ 134.0075104, -66.1932738 ], [ 134.0081017, -66.1929571 ], [ 134.008531, -66.1925993 ], [ 134.008949, -66.1923968 ], [ 134.0096969, -66.1921392 ], [ 134.011017399999986, -66.1917464 ], [ 134.012357400000013, -66.1913669 ], [ 134.0129358, -66.1912429 ], [ 134.01355430000001, -66.1911548 ], [ 134.0142084, -66.1911376 ], [ 134.0151809, -66.1910806 ], [ 134.01550850000001, -66.1910779 ], [ 134.0158121, -66.1911287 ], [ 134.0160319, -66.191227 ], [ 134.0164073, -66.1914437 ], [ 134.016871400000014, -66.1917928 ], [ 134.0177653, -66.1923483 ], [ 134.0180581, -66.192585 ], [ 134.0181686, -66.19271 ], [ 134.01823730000001, -66.1928391 ], [ 134.018228599999986, -66.1929714 ], [ 134.0182663, -66.1931015 ], [ 134.0183515, -66.1934978 ], [ 134.0184454, -66.1937607 ], [ 134.018925, -66.1942534 ], [ 134.01905, -66.1945127 ], [ 134.019148199999989, -66.1946389 ], [ 134.019285200000013, -66.1947597 ], [ 134.0196185, -66.1949879 ], [ 134.021115900000012, -66.1958554 ], [ 134.0216455, -66.1961911 ], [ 134.0219571, -66.196423 ], [ 134.0222202, -66.1966664 ], [ 134.0223963, -66.1967781 ], [ 134.0225864, -66.1968855 ], [ 134.0230309, -66.1970803 ], [ 134.0238276, -66.197313 ], [ 134.024071099999986, -66.1974008 ], [ 134.024512499999986, -66.1975967 ], [ 134.0253074, -66.1980179 ], [ 134.0266401, -66.1987718 ], [ 134.0272481, -66.1990831 ], [ 134.02771, -66.1992711 ], [ 134.028483099999988, -66.1995155 ], [ 134.0287645, -66.1995861 ], [ 134.0293835, -66.1998943 ], [ 134.0297546, -66.2001116 ], [ 134.030088, -66.2003399 ], [ 134.0305914, -66.2008283 ], [ 134.0308081, -66.2010789 ], [ 134.030953, -66.2011966 ], [ 134.03130680000001, -66.2014207 ], [ 134.0324981, -66.2020518 ], [ 134.032961699999987, -66.2022391 ], [ 134.0331644, -66.2023429 ], [ 134.0333343, -66.202457 ], [ 134.033445, -66.2025808 ], [ 134.0335977, -66.2026979 ], [ 134.0343211, -66.2031398 ], [ 134.041161, -66.2070242 ], [ 134.041821199999987, -66.207319 ], [ 134.0420633, -66.2074074 ], [ 134.0426201, -66.2075485 ], [ 134.0428732, -66.2076326 ], [ 134.0439673, -66.208125 ], [ 134.0442047, -66.2082165 ], [ 134.045002, -66.2084479 ], [ 134.045250399999986, -66.2085351 ], [ 134.0464106, -66.2090017 ], [ 134.047212699999989, -66.2092312 ], [ 134.047507200000013, -66.2092881 ], [ 134.048285600000014, -66.2095306 ], [ 134.0492179, -66.2099033 ], [ 134.0502969, -66.2102052 ], [ 134.0516038, -66.2106047 ], [ 134.052164, -66.210742 ], [ 134.0524488, -66.2108089 ], [ 134.0530603, -66.2109016 ], [ 134.0536539, -66.2110161 ], [ 134.0542898, -66.2110784 ], [ 134.0552085, -66.2112206 ], [ 134.0558461, -66.2112797 ], [ 134.0573796, -66.2115109 ], [ 134.058523900000012, -66.2117701 ], [ 134.059346799999986, -66.2119878 ], [ 134.0596428, -66.2120454 ], [ 134.0602591, -66.212135 ], [ 134.0608886, -66.2122059 ], [ 134.061214, -66.2122262 ], [ 134.062709, -66.2124933 ], [ 134.0633599, -66.2125313 ], [ 134.0643435, -66.2125228 ], [ 134.0653223, -66.2125567 ], [ 134.066217099999989, -66.2127193 ], [ 134.066848099999987, -66.2127921 ], [ 134.0674386, -66.212909 ], [ 134.0680566, -66.2129955 ], [ 134.069229900000011, -66.213231 ], [ 134.0698576, -66.2133088 ], [ 134.0710437, -66.2135344 ], [ 134.0719987, -66.2136231 ], [ 134.072575, -66.213748 ], [ 134.0733586, -66.2139884 ], [ 134.073944399999988, -66.2141084 ], [ 134.075201600000014, -66.2142595 ], [ 134.0755269, -66.2142429 ], [ 134.077159099999989, -66.2142966 ], [ 134.0774663, -66.2143461 ], [ 134.078723700000012, -66.2144935 ], [ 134.0797044, -66.2145217 ], [ 134.0806709, -66.2145947 ], [ 134.0816029, -66.2147219 ], [ 134.0829037, -66.2147871 ], [ 134.0832234, -66.214758 ], [ 134.0835501, -66.214747 ], [ 134.0844887, -66.2146282 ], [ 134.0851451, -66.2146074 ], [ 134.085467599999987, -66.2146239 ], [ 134.085783, -66.2146627 ], [ 134.08676, -66.2147071 ], [ 134.0877267, -66.2147764 ], [ 134.0886313, -66.2149314 ], [ 134.0892657, -66.2149991 ], [ 134.0902485, -66.2150154 ], [ 134.0912204, -66.2150716 ], [ 134.0915392, -66.215103 ], [ 134.0918687, -66.2150995 ], [ 134.0928369, -66.2151706 ], [ 134.0931316, -66.2152274 ], [ 134.0934471, -66.2152638 ], [ 134.0940539, -66.2153644 ], [ 134.0947084, -66.2153542 ], [ 134.0953633, -66.2153709 ], [ 134.0960181, -66.215352 ], [ 134.0966747, -66.2153655 ], [ 134.097328, -66.2153459 ], [ 134.0976485, -66.2153742 ], [ 134.0982554, -66.2154748 ], [ 134.0997173, -66.2157731 ], [ 134.100027899999986, -66.2158176 ], [ 134.1011746, -66.2160733 ], [ 134.1021067, -66.2162003 ], [ 134.103071699999987, -66.2162763 ], [ 134.1033993, -66.2162834 ], [ 134.103719899999987, -66.2163091 ], [ 134.104048299999988, -66.2162937 ], [ 134.104374400000012, -66.2162989 ], [ 134.1053483, -66.2163456 ], [ 134.1063033, -66.2164403 ], [ 134.1068847, -66.2165619 ], [ 134.107813599999986, -66.2166926 ], [ 134.108446500000014, -66.2167622 ], [ 134.1090945, -66.2167975 ], [ 134.1097307, -66.216862 ], [ 134.1100563, -66.2168784 ], [ 134.1103607, -66.2169253 ], [ 134.111171500000012, -66.2171526 ], [ 134.111754499999989, -66.2172736 ], [ 134.1120604, -66.2173198 ], [ 134.1123696, -66.2173624 ], [ 134.1126968, -66.2173781 ], [ 134.1136486, -66.217479 ], [ 134.1143002, -66.2175043 ], [ 134.1148293, -66.2176599 ], [ 134.115405900000013, -66.2177871 ], [ 134.116597500000012, -66.2180068 ], [ 134.1174117, -66.2182291 ], [ 134.1179883, -66.2183563 ], [ 134.1182943, -66.2184025 ], [ 134.1194285, -66.218668 ], [ 134.1200388, -66.2187648 ], [ 134.1213416, -66.2188278 ], [ 134.1219956, -66.21883 ], [ 134.122313, -66.2188619 ], [ 134.1229009, -66.2189785 ], [ 134.1245298, -66.2190454 ], [ 134.1251861, -66.219032 ], [ 134.125510100000014, -66.2190515 ], [ 134.1258176, -66.2190983 ], [ 134.1264655, -66.219141 ], [ 134.126765, -66.2191946 ], [ 134.127346499999987, -66.2193175 ], [ 134.1276143, -66.2193934 ], [ 134.1283403, -66.2196613 ], [ 134.1291531, -66.2198854 ], [ 134.1294479, -66.2199422 ], [ 134.130294, -66.2203475 ], [ 134.1307744, -66.2205271 ], [ 134.1310517, -66.2205981 ], [ 134.132218, -66.22084 ], [ 134.13253370000001, -66.2208763 ], [ 134.132857800000011, -66.2208945 ], [ 134.13375640000001, -66.2210579 ], [ 134.134593099999989, -66.2212665 ], [ 134.1349054, -66.221309 ], [ 134.1354967, -66.2214219 ], [ 134.136338, -66.2216286 ], [ 134.136475600000011, -66.2216761 ], [ 134.1682066, -66.2222756 ], [ 134.1742265, -66.2218261 ], [ 134.1794573, -66.2210487 ], [ 134.189523400000013, -66.2193294 ], [ 134.196454499999987, -66.2156532 ], [ 134.203777800000012, -66.2121404 ], [ 134.208282700000012, -66.2090963 ], [ 134.213203, -66.2055696 ], [ 134.2192938, -66.2028571 ], [ 134.2209911, -66.1999587 ], [ 134.2226336, -66.1986753 ], [ 134.2258966, -66.1967548 ], [ 134.22480010000001, -66.1936796 ], [ 134.229245, -66.19225 ], [ 134.233263099999988, -66.1916256 ], [ 134.2365347, -66.1893818 ], [ 134.2378239, -66.1866427 ], [ 134.23988, -66.1848769 ], [ 134.245888799999989, -66.1844244 ], [ 134.2483696, -66.1818531 ], [ 134.250030400000014, -66.1799236 ], [ 134.2536723, -66.1784891 ], [ 134.256162100000012, -66.1755947 ], [ 134.260248600000011, -66.1727086 ], [ 134.2651531, -66.1691807 ], [ 134.2684289, -66.1666133 ], [ 134.2733309, -66.1630852 ], [ 134.2798478, -66.1589191 ], [ 134.2851307, -66.1558771 ], [ 134.2896039, -66.153154 ], [ 134.2924808, -66.1504227 ], [ 134.295347, -66.1480144 ], [ 134.2986259, -66.1451235 ], [ 134.3027213, -66.1415907 ], [ 134.306382899999988, -66.1391862 ], [ 134.3068346, -66.1374118 ], [ 134.306508400000013, -66.1349878 ], [ 134.306940700000013, -66.1338594 ], [ 134.3093807, -66.1322563 ], [ 134.3142215, -66.1303419 ], [ 134.3210402, -66.1289214 ], [ 134.327061, -66.1274966 ], [ 134.335472, -66.126083 ], [ 134.344697599999989, -66.1240267 ], [ 134.3495155, -66.122757 ], [ 134.358711699999986, -66.1216685 ], [ 134.3595621, -66.1197345 ], [ 134.3608506, -66.1163491 ], [ 134.3600985, -66.1147308 ], [ 134.3610107, -66.1105363 ], [ 134.3610372, -66.1095676 ], [ 134.365072700000013, -66.107648 ], [ 134.3694487, -66.1078291 ], [ 134.3770016, -66.108347 ], [ 134.380975400000011, -66.1086874 ], [ 134.3841698, -66.1083784 ], [ 134.3917657, -66.107281 ], [ 134.400601200000011, -66.1044121 ], [ 134.4065861, -66.1039529 ], [ 134.4113557, -66.1042958 ], [ 134.419705, -66.1048148 ], [ 134.4284805, -66.1042046 ], [ 134.4348903, -66.1026156 ], [ 134.4428917, -66.1010326 ], [ 134.4472901, -66.1002426 ], [ 134.454463299999986, -66.0999475 ], [ 134.4631913, -66.1012727 ], [ 134.4687944, -66.1000021 ], [ 134.4724249, -66.0979165 ], [ 134.477237800000012, -66.0963197 ], [ 134.4848397, -66.0945714 ], [ 134.490869800000013, -66.0918484 ], [ 134.5012442, -66.0905936 ], [ 134.5092573, -66.0880382 ], [ 134.508509299999986, -66.0857751 ], [ 134.5109373, -66.083846 ], [ 134.5082104, -66.0810916 ], [ 134.499114100000014, -66.0786377 ], [ 134.496347500000013, -66.0778205 ], [ 134.4904491, -66.0747316 ], [ 134.4928701, -66.0731258 ], [ 134.4921382, -66.0702169 ], [ 134.4981613, -66.0674937 ], [ 134.500588099999987, -66.0655648 ], [ 134.497048799999988, -66.0637763 ], [ 134.4935314, -66.061019 ], [ 134.491611299999988, -66.0579445 ], [ 134.4916536, -66.0560073 ], [ 134.4984605, -66.05361 ], [ 134.5064545, -66.0513779 ], [ 134.5120363, -66.0504287 ], [ 134.5259629, -66.0493461 ], [ 134.5338945, -66.0500183 ], [ 134.5374536, -66.0508372 ], [ 134.5457676, -66.0523173 ], [ 134.5532694, -66.0547629 ], [ 134.5540392, -66.0560569 ], [ 134.5579821, -66.0576838 ], [ 134.5639215, -66.0588324 ], [ 134.5718693, -66.0588568 ], [ 134.5766438, -66.0585483 ], [ 134.5798404, -66.0575892 ], [ 134.5846434, -66.0556661 ], [ 134.5835004, -66.0529181 ], [ 134.5799977, -66.0488716 ], [ 134.576519600000012, -66.0435337 ], [ 134.5746254, -66.0385234 ], [ 134.5722965, -66.0356105 ], [ 134.5695861, -66.0318893 ], [ 134.564889099999988, -66.0283233 ], [ 134.5669306, -66.0252624 ], [ 134.5693355, -66.0239784 ], [ 134.570982, -66.0207549 ], [ 134.569836400000014, -66.01833 ], [ 134.5694904, -66.0155847 ], [ 134.5679876, -66.0110603 ], [ 134.568071300000014, -66.0065408 ], [ 134.5724712, -66.0044558 ], [ 134.5744741, -66.0033319 ], [ 134.582455, -66.0004504 ], [ 134.5852499, -65.9993288 ], [ 134.594414300000011, -65.9966115 ], [ 134.5954696, -65.995002 ], [ 134.595263, -65.9933856 ], [ 134.5929246, -65.9911192 ], [ 134.5878222, -65.9883604 ], [ 134.591014199999989, -65.9870785 ], [ 134.5918235, -65.9861124 ], [ 134.5938295, -65.9846655 ], [ 134.5966498, -65.9819298 ], [ 134.5990208, -65.9822593 ], [ 134.602162, -65.9838823 ], [ 134.605287299999986, -65.9864736 ], [ 134.6099657, -65.991006 ], [ 134.6139173, -65.9916626 ], [ 134.621847699999989, -65.9913613 ], [ 134.625028, -65.9907242 ], [ 134.6392974, -65.9904387 ], [ 134.6424671, -65.9904468 ], [ 134.6480484, -65.9882012 ], [ 134.6539986, -65.9877317 ], [ 134.6595592, -65.9867769 ], [ 134.6607736, -65.9850044 ], [ 134.663187599999986, -65.9824277 ], [ 134.6683346, -65.9826013 ], [ 134.6750616, -65.9831012 ], [ 134.679376600000012, -65.9861779 ], [ 134.680129099999988, -65.9890848 ], [ 134.6836533, -65.9921596 ], [ 134.684406599999988, -65.9950666 ], [ 134.687928, -65.9984641 ], [ 134.6902806, -66.0004062 ], [ 134.6934391, -66.0013816 ], [ 134.6953727, -66.0050983 ], [ 134.695725, -66.0084888 ], [ 134.6984486, -66.0125301 ], [ 134.7019622, -66.016896 ], [ 134.7058558, -66.0227154 ], [ 134.7145218, -66.0278989 ], [ 134.715291900000011, -66.0298376 ], [ 134.723199099999988, -66.0324363 ], [ 134.7247792, -66.0330851 ], [ 134.7390553, -66.0344037 ], [ 134.7441753, -66.038126 ], [ 134.7508785, -66.0424967 ], [ 134.7623505, -66.0468754 ], [ 134.7706676, -66.0493107 ], [ 134.781005, -66.0483585 ], [ 134.785765700000013, -66.0490116 ], [ 134.790130799999986, -66.0495024 ], [ 134.8008328, -66.0522625 ], [ 134.811128200000013, -66.0564741 ], [ 134.816681100000011, -66.0577731 ], [ 134.8285884, -66.0597254 ], [ 134.8333457, -66.0613455 ], [ 134.8452518, -66.0639422 ], [ 134.848026800000014, -66.0650753 ], [ 134.8591394, -66.067993 ], [ 134.8678746, -66.0699388 ], [ 134.8734217, -66.0734959 ], [ 134.8829523, -66.0760874 ], [ 134.8897015, -66.0785146 ], [ 134.892068599999988, -66.0827143 ], [ 134.8952453, -66.0840083 ], [ 134.9027926, -66.0867585 ], [ 134.9059704, -66.0880524 ], [ 134.9163168, -66.087736 ], [ 134.921488, -66.0882233 ], [ 134.927448, -66.0909714 ], [ 134.9262362, -66.096622 ], [ 134.9310069, -66.098562 ], [ 134.9357803, -66.099856 ], [ 134.941349699999989, -66.1014731 ], [ 134.95011, -66.1008306 ], [ 134.961259, -66.0998652 ], [ 134.9688262, -66.0974452 ], [ 134.974799100000013, -66.0956703 ], [ 134.975596700000011, -66.0940557 ], [ 134.980771800000014, -66.0929263 ], [ 134.9847531, -66.0906663 ], [ 134.9863463, -66.0880831 ], [ 134.993509, -66.086469 ], [ 134.997886, -66.0824326 ], [ 134.9998752, -66.0787191 ], [ 135.0, -66.078653963177558 ], [ 135.0, -70.0 ], [ 130.0, -70.0 ], [ 130.0, -66.2950271 ], [ 130.000900699999988, -66.2948601 ] ] ] ] } },
{ "type": "Feature", "properties": { "FID": 322499, "id": 2264, "left": 130.0, "top": -65.0, "right": 135.0, "bottom": -70.0, "row_index": 31, "col_index": 62, "min_lon": 130.0, "min_lat": -70.0, "tile_id": "130_-70" }, "geometry": { "type": "MultiPolygon", "coordinates": [ [ [ [ 134.4546684, -66.0856694 ], [ 134.4548424, -66.0859452 ], [ 134.4547265, -66.0863647 ], [ 134.4535747, -66.0868383 ], [ 134.4528589, -66.0869368 ], [ 134.4523613, -66.0868485 ], [ 134.452329600000013, -66.0866454 ], [ 134.4514753, -66.0865267 ], [ 134.4507303, -66.0863648 ], [ 134.4504157, -66.0861466 ], [ 134.4507779, -66.0858586 ], [ 134.451460700000013, -66.0856008 ], [ 134.4522144, -66.085415 ], [ 134.4537087, -66.0855792 ], [ 134.453797900000012, -66.0855876 ], [ 134.4546684, -66.0856694 ] ] ] ] } },
{ "type": "Feature", "properties": { "FID": 322502, "id": 2264, "left": 130.0, "top": -65.0, "right": 135.0, "bottom": -70.0, "row_index": 31, "col_index": 62, "min_lon": 130.0, "min_lat": -70.0, "tile_id": "130_-70" }, "geometry": { "type": "MultiPolygon", "coordinates": [ [ [ [ 134.3864644, -66.1047794 ], [ 134.3861143, -66.105219 ], [ 134.3849516, -66.1055723 ], [ 134.3832504, -66.1057581 ], [ 134.3814899, -66.1055309 ], [ 134.3808223, -66.1050878 ], [ 134.3809703, -66.1045924 ], [ 134.3809862, -66.1039045 ], [ 134.3822875, -66.1034417 ], [ 134.3833117, -66.1031986 ], [ 134.3852889, -66.102903 ], [ 134.386107399999986, -66.102714 ], [ 134.387664300000012, -66.102885 ], [ 134.388473, -66.1031359 ], [ 134.388866400000012, -66.1037156 ], [ 134.388787900000011, -66.1041559 ], [ 134.38742160000001, -66.1045083 ], [ 134.386885799999988, -66.10466 ], [ 134.3864644, -66.1047794 ] ] ] ] } },
{ "type": "Feature", "properties": { "FID": 322510, "id": 2264, "left": 130.0, "top": -65.0, "right": 135.0, "bottom": -70.0, "row_index": 31, "col_index": 62, "min_lon": 130.0, "min_lat": -70.0, "tile_id": "130_-70" }, "geometry": { "type": "MultiPolygon", "coordinates": [ [ [ [ 134.472271799999987, -66.0601877 ], [ 134.473216799999989, -66.0604321 ], [ 134.472733799999986, -66.0608163 ], [ 134.4722467, -66.0613936 ], [ 134.470821699999988, -66.0613887 ], [ 134.469756, -66.0612404 ], [ 134.4689318, -66.0608998 ], [ 134.468467800000013, -66.0603675 ], [ 134.469659299999989, -66.0601788 ], [ 134.472271799999987, -66.0601877 ] ] ] ] } }
]
}
