{
"type": "FeatureCollection",
"name": "130_55",
"crs": { "type": "name", "properties": { "name": "urn:ogc:def:crs:OGC:1.3:CRS84" } },
"xy_coordinate_resolution": 1e-15,
"features": [
{ "type": "Feature", "properties": { "FID": 123912, "id": 2239, "left": 130.0, "top": 60.0, "right": 135.0, "bottom": 55.0, "row_index": 6, "col_index": 62, "min_lon": 130.0, "min_lat": 55.0, "tile_id": "130_55" }, "geometry": { "type": "MultiPolygon", "coordinates": [ [ [ [ 135.0, 60.0 ], [ 135.0, 55.0 ], [ 130.0, 55.0 ], [ 130.0, 60.0 ], [ 135.0, 60.0 ] ] ] ] } }
]
}
