{
"type": "FeatureCollection",
"name": "135_10",
"crs": { "type": "name", "properties": { "name": "urn:ogc:def:crs:OGC:1.3:CRS84" } },
"xy_coordinate_resolution": 1e-15,
"features": [
{ "type": "Feature", "properties": { "FID": 90346, "id": 2284, "left": 135.0, "top": 15.0, "right": 140.0, "bottom": 10.0, "row_index": 15, "col_index": 63, "min_lon": 135.0, "min_lat": 10.0, "tile_id": "135_10" }, "geometry": { "type": "MultiPolygon", "coordinates": [ [ [ [ 139.6038572, 10.0449565 ], [ 139.603818, 10.0450249 ], [ 139.6037574, 10.0450829 ], [ 139.6037397, 10.0450882 ], [ 139.6036291, 10.0451215 ], [ 139.6035364, 10.0451601 ], [ 139.603431199999989, 10.0452005 ], [ 139.6033385, 10.0452075 ], [ 139.6033367, 10.0452461 ], [ 139.603340300000013, 10.0453093 ], [ 139.6032601, 10.0453075 ], [ 139.6031477, 10.0453813 ], [ 139.6031246, 10.0454216 ], [ 139.6031567, 10.0454638 ], [ 139.6031834, 10.0455234 ], [ 139.6031032, 10.045634 ], [ 139.6030605, 10.0456782 ], [ 139.6030319, 10.0457077 ], [ 139.60295880000001, 10.0457393 ], [ 139.602875, 10.0457358 ], [ 139.602746700000012, 10.0457042 ], [ 139.6026272, 10.0456832 ], [ 139.602579100000014, 10.0456533 ], [ 139.6025256, 10.0455919 ], [ 139.6024294, 10.0455656 ], [ 139.6024026, 10.0455129 ], [ 139.6024204, 10.0454602 ], [ 139.602404400000012, 10.0454374 ], [ 139.6023563, 10.0454708 ], [ 139.602320600000013, 10.0455252 ], [ 139.602301, 10.0455866 ], [ 139.602295700000013, 10.0456533 ], [ 139.6022457, 10.0456779 ], [ 139.602211899999986, 10.0457183 ], [ 139.6022154, 10.0457955 ], [ 139.6025024, 10.046136 ], [ 139.6025524, 10.046373 ], [ 139.602645099999989, 10.0465239 ], [ 139.602810799999986, 10.0466573 ], [ 139.602875, 10.0467714 ], [ 139.6029356, 10.0469663 ], [ 139.602992699999987, 10.0471084 ], [ 139.6030747, 10.0471927 ], [ 139.6031811, 10.0472759 ], [ 139.6031959, 10.0472875 ], [ 139.6032904, 10.0473314 ], [ 139.6034205, 10.0473419 ], [ 139.6036005, 10.0472875 ], [ 139.6037627, 10.0472173 ], [ 139.6038929, 10.0471874 ], [ 139.604133499999989, 10.0470681 ], [ 139.6043314, 10.0470207 ], [ 139.6044651, 10.0469329 ], [ 139.6047806, 10.046789 ], [ 139.604843, 10.0468048 ], [ 139.604964200000012, 10.0467574 ], [ 139.6050605, 10.0467504 ], [ 139.605099700000011, 10.0468522 ], [ 139.6051211, 10.0469206 ], [ 139.6050908, 10.046975 ], [ 139.605049799999989, 10.0469908 ], [ 139.6050195, 10.0470242 ], [ 139.6050124, 10.0470751 ], [ 139.605042700000013, 10.047133 ], [ 139.605089, 10.0471804 ], [ 139.6051443, 10.0471997 ], [ 139.6052049, 10.0472243 ], [ 139.6052459, 10.0472682 ], [ 139.6052851, 10.0472857 ], [ 139.6053439, 10.0471822 ], [ 139.6053938, 10.0470979 ], [ 139.6054758, 10.0470347 ], [ 139.6055347, 10.0469136 ], [ 139.605557800000014, 10.0468048 ], [ 139.605524, 10.0467223 ], [ 139.6054562, 10.0467012 ], [ 139.6053475, 10.0467276 ], [ 139.6052994, 10.046782 ], [ 139.6052584, 10.046803 ], [ 139.6052405, 10.0467802 ], [ 139.6052387, 10.0467082 ], [ 139.6052904, 10.0466082 ], [ 139.6052922, 10.0464765 ], [ 139.6052637, 10.0462975 ], [ 139.6052316, 10.0461237 ], [ 139.6051977, 10.0459886 ], [ 139.6051371, 10.0459166 ], [ 139.6050213, 10.0458148 ], [ 139.6049018, 10.0457516 ], [ 139.6047967, 10.0456568 ], [ 139.604638, 10.0454954 ], [ 139.60454, 10.0453426 ], [ 139.6044027, 10.0452057 ], [ 139.604261900000012, 10.0451197 ], [ 139.604094300000014, 10.0450267 ], [ 139.603982, 10.0449547 ], [ 139.6038572, 10.0449565 ] ] ] ] } },
{ "type": "Feature", "properties": { "FID": 90348, "id": 2284, "left": 135.0, "top": 15.0, "right": 140.0, "bottom": 10.0, "row_index": 15, "col_index": 63, "min_lon": 135.0, "min_lat": 10.0, "tile_id": "135_10" }, "geometry": { "type": "MultiPolygon", "coordinates": [ [ [ [ 139.7389307, 10.0300596 ], [ 139.7387042, 10.0302005 ], [ 139.7386613, 10.0305597 ], [ 139.7389081, 10.0306442 ], [ 139.7391887, 10.030576 ], [ 139.7393193, 10.0303188 ], [ 139.739390899999989, 10.0300843 ], [ 139.7393212, 10.0298034 ], [ 139.739069, 10.0295983 ], [ 139.7389307, 10.0300596 ] ] ] ] } },
{ "type": "Feature", "properties": { "FID": 90349, "id": 2284, "left": 135.0, "top": 15.0, "right": 140.0, "bottom": 10.0, "row_index": 15, "col_index": 63, "min_lon": 135.0, "min_lat": 10.0, "tile_id": "135_10" }, "geometry": { "type": "MultiPolygon", "coordinates": [ [ [ [ 139.5872555, 10.0450801 ], [ 139.587119199999989, 10.0451442 ], [ 139.58697380000001, 10.0451924 ], [ 139.586884700000013, 10.0452855 ], [ 139.5868669, 10.0454154 ], [ 139.5868883, 10.0454979 ], [ 139.5869524, 10.0455874 ], [ 139.5869845, 10.0457366 ], [ 139.5870362, 10.0459174 ], [ 139.5871271, 10.046135 ], [ 139.5872501, 10.0463106 ], [ 139.5873589, 10.0465756 ], [ 139.5874248, 10.0467599 ], [ 139.5876227, 10.0469126 ], [ 139.5879668, 10.0472887 ], [ 139.5883101, 10.0476585 ], [ 139.588664099999988, 10.0479648 ], [ 139.58911040000001, 10.0483459 ], [ 139.5893493, 10.0484934 ], [ 139.589581, 10.0485671 ], [ 139.589827, 10.0486303 ], [ 139.5901586, 10.0486303 ], [ 139.5903511, 10.0485917 ], [ 139.5905722, 10.0484758 ], [ 139.5907647, 10.0482968 ], [ 139.5909572, 10.0480756 ], [ 139.5911462, 10.0478545 ], [ 139.5912424, 10.0476368 ], [ 139.591285199999987, 10.0474437 ], [ 139.5912888, 10.0471629 ], [ 139.591285199999987, 10.0469347 ], [ 139.5912923, 10.0467592 ], [ 139.5911889, 10.0466293 ], [ 139.591039200000012, 10.0465415 ], [ 139.5908574, 10.0465485 ], [ 139.590701200000012, 10.0464931 ], [ 139.5905479, 10.0463755 ], [ 139.590341200000012, 10.0463334 ], [ 139.590089799999987, 10.0462474 ], [ 139.589727900000014, 10.0461526 ], [ 139.5894534, 10.0460929 ], [ 139.5892359, 10.0459507 ], [ 139.5889917, 10.0457576 ], [ 139.5886548, 10.0454434 ], [ 139.5883518, 10.0452012 ], [ 139.5881575, 10.0451135 ], [ 139.5880256, 10.0450222 ], [ 139.5878277, 10.0449748 ], [ 139.5876476, 10.0449151 ], [ 139.587423, 10.0449713 ], [ 139.5872555, 10.0450801 ] ] ] ] } },
{ "type": "Feature", "properties": { "FID": 90352, "id": 2284, "left": 135.0, "top": 15.0, "right": 140.0, "bottom": 10.0, "row_index": 15, "col_index": 63, "min_lon": 135.0, "min_lat": 10.0, "tile_id": "135_10" }, "geometry": { "type": "MultiPolygon", "coordinates": [ [ [ [ 139.692185099999989, 10.0788171 ], [ 139.6920867, 10.0787091 ], [ 139.691968300000013, 10.0786098 ], [ 139.691827100000012, 10.078554 ], [ 139.6916632, 10.0785465 ], [ 139.69158250000001, 10.0785577 ], [ 139.691500600000012, 10.0786297 ], [ 139.6914515, 10.0787538 ], [ 139.6914351, 10.0788729 ], [ 139.6914691, 10.0789747 ], [ 139.6915447, 10.0790727 ], [ 139.6916468, 10.0791571 ], [ 139.691813200000013, 10.0791795 ], [ 139.692009899999988, 10.0791881 ], [ 139.6921384, 10.0791857 ], [ 139.6922027, 10.0791621 ], [ 139.6922607, 10.0790926 ], [ 139.6922695, 10.0789896 ], [ 139.692267, 10.0788866 ], [ 139.692185099999989, 10.0788171 ] ] ] ] } },
{ "type": "Feature", "properties": { "FID": 90353, "id": 2284, "left": 135.0, "top": 15.0, "right": 140.0, "bottom": 10.0, "row_index": 15, "col_index": 63, "min_lon": 135.0, "min_lat": 10.0, "tile_id": "135_10" }, "geometry": { "type": "MultiPolygon", "coordinates": [ [ [ [ 139.7087184, 10.0903807 ], [ 139.709067800000014, 10.0903053 ], [ 139.709474199999988, 10.0901754 ], [ 139.7098378, 10.0900139 ], [ 139.7101534, 10.0898349 ], [ 139.710419, 10.0896226 ], [ 139.7106561, 10.0893927 ], [ 139.7108236, 10.0891996 ], [ 139.7109003, 10.0890259 ], [ 139.7109448, 10.0888574 ], [ 139.7110839, 10.0885467 ], [ 139.7112907, 10.0882326 ], [ 139.7114297, 10.0879623 ], [ 139.7116026, 10.0877219 ], [ 139.7117934, 10.0875657 ], [ 139.7120536, 10.0874533 ], [ 139.7122747, 10.0873498 ], [ 139.7124119, 10.08732 ], [ 139.7125278, 10.0873445 ], [ 139.712583099999989, 10.0873779 ], [ 139.7125973, 10.0874674 ], [ 139.7126187, 10.0875481 ], [ 139.7127078, 10.0876043 ], [ 139.7128148, 10.087613 ], [ 139.712923499999988, 10.0875446 ], [ 139.7129948, 10.0874393 ], [ 139.7130626, 10.0873077 ], [ 139.712982399999987, 10.0872954 ], [ 139.712879, 10.0872936 ], [ 139.712780900000013, 10.0872392 ], [ 139.712652600000013, 10.0871918 ], [ 139.7124868, 10.0871743 ], [ 139.71237450000001, 10.087083 ], [ 139.7122818, 10.0870532 ], [ 139.7121731, 10.086983 ], [ 139.7119146, 10.0869444 ], [ 139.7117132, 10.0869235 ], [ 139.7113727, 10.0869163 ], [ 139.7110768, 10.0869409 ], [ 139.7107915, 10.0869374 ], [ 139.7103156, 10.0868443 ], [ 139.710053499999987, 10.0868408 ], [ 139.709679200000011, 10.0868391 ], [ 139.7093334, 10.0867338 ], [ 139.7090909, 10.0867408 ], [ 139.70887350000001, 10.0866741 ], [ 139.7081512, 10.0863743 ], [ 139.707486, 10.0861841 ], [ 139.7071033, 10.0861493 ], [ 139.7068894, 10.0860668 ], [ 139.706745, 10.086109 ], [ 139.7063315, 10.0861037 ], [ 139.7058894, 10.0860826 ], [ 139.7055685, 10.0861195 ], [ 139.7049874, 10.0861335 ], [ 139.704746699999987, 10.086109 ], [ 139.704643299999987, 10.0861897 ], [ 139.7044704, 10.0862266 ], [ 139.704270799999989, 10.086202 ], [ 139.704105, 10.0861722 ], [ 139.703926700000011, 10.0861651 ], [ 139.7037164, 10.086209 ], [ 139.7036273, 10.0863073 ], [ 139.703605900000014, 10.0864319 ], [ 139.7036718, 10.0865793 ], [ 139.7037752, 10.0867355 ], [ 139.7040069, 10.0869093 ], [ 139.7043866, 10.0871427 ], [ 139.7046006, 10.0872427 ], [ 139.7047681, 10.0873638 ], [ 139.704900400000014, 10.087663 ], [ 139.7051229, 10.0880606 ], [ 139.7052797, 10.0884958 ], [ 139.705433, 10.0888398 ], [ 139.7055578, 10.0891487 ], [ 139.7056969, 10.0893681 ], [ 139.7058858, 10.0895611 ], [ 139.706185299999987, 10.0898051 ], [ 139.706520399999988, 10.0900438 ], [ 139.7068342, 10.0902052 ], [ 139.707267300000012, 10.0903053 ], [ 139.7075668, 10.0903334 ], [ 139.7081426, 10.090307 ], [ 139.7084706, 10.0903614 ], [ 139.7087184, 10.0903807 ] ] ] ] } },
{ "type": "Feature", "properties": { "FID": 90354, "id": 2284, "left": 135.0, "top": 15.0, "right": 140.0, "bottom": 10.0, "row_index": 15, "col_index": 63, "min_lon": 135.0, "min_lat": 10.0, "tile_id": "135_10" }, "geometry": { "type": "MultiPolygon", "coordinates": [ [ [ [ 139.7615001, 10.0528164 ], [ 139.7613993, 10.0527928 ], [ 139.761312299999986, 10.0527531 ], [ 139.761230399999988, 10.0527208 ], [ 139.7612002, 10.0526761 ], [ 139.7611044, 10.0526972 ], [ 139.7609594, 10.0527878 ], [ 139.7608825, 10.0528424 ], [ 139.7608056, 10.0529343 ], [ 139.7607476, 10.0529963 ], [ 139.7606657, 10.0530001 ], [ 139.7605737, 10.0530224 ], [ 139.760546, 10.0531018 ], [ 139.760567400000014, 10.0531664 ], [ 139.7606241, 10.0532173 ], [ 139.7607653, 10.0532384 ], [ 139.760851, 10.0532309 ], [ 139.7609972, 10.0532011 ], [ 139.7611182, 10.0532098 ], [ 139.7612758, 10.0532408 ], [ 139.761374100000012, 10.0532446 ], [ 139.761457299999989, 10.0532508 ], [ 139.7615417, 10.0532781 ], [ 139.761587100000014, 10.0532619 ], [ 139.7616212, 10.0531862 ], [ 139.761608599999988, 10.0531329 ], [ 139.761583300000012, 10.0530882 ], [ 139.761587100000014, 10.0530311 ], [ 139.7616136, 10.0529715 ], [ 139.76159340000001, 10.0529343 ], [ 139.761594699999989, 10.0528313 ], [ 139.7615001, 10.0528164 ] ] ] ] } },
{ "type": "Feature", "properties": { "FID": 90355, "id": 2284, "left": 135.0, "top": 15.0, "right": 140.0, "bottom": 10.0, "row_index": 15, "col_index": 63, "min_lon": 135.0, "min_lat": 10.0, "tile_id": "135_10" }, "geometry": { "type": "MultiPolygon", "coordinates": [ [ [ [ 139.6185815, 10.0042099 ], [ 139.6184012, 10.0043755 ], [ 139.6182693, 10.0045862 ], [ 139.6179876, 10.0048671 ], [ 139.617964699999987, 10.0048819 ], [ 139.6177595, 10.0050145 ], [ 139.6174992, 10.0052428 ], [ 139.6173566, 10.0053902 ], [ 139.617128400000013, 10.0057132 ], [ 139.616897099999989, 10.005911 ], [ 139.6166685, 10.006117 ], [ 139.616522300000014, 10.0061345 ], [ 139.6163369, 10.0062188 ], [ 139.6161658, 10.006282 ], [ 139.6161123, 10.0063382 ], [ 139.6161337, 10.0064435 ], [ 139.6162855, 10.0066083 ], [ 139.6167041, 10.0068227 ], [ 139.6171534, 10.0071106 ], [ 139.6174671, 10.0073704 ], [ 139.6176525, 10.0075319 ], [ 139.6178842, 10.0076127 ], [ 139.6181445, 10.0076408 ], [ 139.6184083, 10.0075986 ], [ 139.618522399999989, 10.0075986 ], [ 139.618793399999987, 10.0074617 ], [ 139.6190786, 10.0073388 ], [ 139.6193424, 10.0072581 ], [ 139.619631199999986, 10.0071492 ], [ 139.6198914, 10.0069561 ], [ 139.6200804, 10.0067209 ], [ 139.620205199999987, 10.0064646 ], [ 139.620248, 10.0060819 ], [ 139.6202337, 10.0057343 ], [ 139.620166, 10.0054043 ], [ 139.6201517, 10.0050567 ], [ 139.6202159, 10.0049935 ], [ 139.6201838, 10.0048425 ], [ 139.6200804, 10.0046178 ], [ 139.6199128, 10.0044668 ], [ 139.619727399999988, 10.0043264 ], [ 139.6196383, 10.0042105 ], [ 139.6195242, 10.0040596 ], [ 139.619353100000012, 10.0040034 ], [ 139.6190786, 10.0040209 ], [ 139.618779100000012, 10.0041052 ], [ 139.6185815, 10.0042099 ] ] ] ] } },
{ "type": "Feature", "properties": { "FID": 90356, "id": 2284, "left": 135.0, "top": 15.0, "right": 140.0, "bottom": 10.0, "row_index": 15, "col_index": 63, "min_lon": 135.0, "min_lat": 10.0, "tile_id": "135_10" }, "geometry": { "type": "MultiPolygon", "coordinates": [ [ [ [ 139.6743188, 10.0739827 ], [ 139.6742582, 10.0740564 ], [ 139.674140599999987, 10.0741512 ], [ 139.6739694, 10.0741933 ], [ 139.6737306, 10.0742109 ], [ 139.6733027, 10.0742144 ], [ 139.672874900000011, 10.0742495 ], [ 139.672194, 10.074253 ], [ 139.6712421, 10.074239 ], [ 139.670611, 10.0742636 ], [ 139.6696983, 10.0742355 ], [ 139.6690601, 10.0742144 ], [ 139.6688106, 10.0741372 ], [ 139.668336399999987, 10.0740951 ], [ 139.667962100000011, 10.0740073 ], [ 139.6678016, 10.0740213 ], [ 139.6676555, 10.074067 ], [ 139.6676234, 10.0741582 ], [ 139.6676733, 10.0744952 ], [ 139.6676733, 10.0748392 ], [ 139.667659, 10.0749972 ], [ 139.667659, 10.0751376 ], [ 139.667762399999987, 10.0753061 ], [ 139.6679478, 10.0754781 ], [ 139.668048, 10.0755442 ], [ 139.6682295, 10.0756641 ], [ 139.668856799999986, 10.0758481 ], [ 139.6695757, 10.0761016 ], [ 139.6701979, 10.0763551 ], [ 139.671077700000012, 10.0771262 ], [ 139.6717214, 10.0774959 ], [ 139.6722332, 10.0776439 ], [ 139.6725683, 10.0776614 ], [ 139.672907, 10.0776544 ], [ 139.6731708, 10.0775877 ], [ 139.6734774, 10.0774965 ], [ 139.6740265, 10.0772367 ], [ 139.6743295, 10.0770788 ], [ 139.674461400000013, 10.0770472 ], [ 139.6746896, 10.076991 ], [ 139.674921399999988, 10.0768962 ], [ 139.6750782, 10.0767804 ], [ 139.6753028, 10.0765136 ], [ 139.675531, 10.0763135 ], [ 139.675776899999988, 10.0761333 ], [ 139.676008700000011, 10.0758853 ], [ 139.6761371, 10.0756712 ], [ 139.676333199999988, 10.0753974 ], [ 139.6763938, 10.0751797 ], [ 139.6764437, 10.0749796 ], [ 139.676557800000012, 10.0747374 ], [ 139.6766576, 10.0746146 ], [ 139.6766826, 10.0745022 ], [ 139.6765934, 10.0744391 ], [ 139.6764758, 10.0743267 ], [ 139.6763153, 10.0743022 ], [ 139.676126399999987, 10.0743057 ], [ 139.675887499999988, 10.0742706 ], [ 139.675584500000014, 10.0742039 ], [ 139.675358499999987, 10.0740734 ], [ 139.6750152, 10.0739044 ], [ 139.674818, 10.0738704 ], [ 139.674675400000012, 10.073909 ], [ 139.67450070000001, 10.0739476 ], [ 139.6743188, 10.0739827 ] ] ] ] } },
{ "type": "Feature", "properties": { "FID": 90357, "id": 2284, "left": 135.0, "top": 15.0, "right": 140.0, "bottom": 10.0, "row_index": 15, "col_index": 63, "min_lon": 135.0, "min_lat": 10.0, "tile_id": "135_10" }, "geometry": { "type": "MultiPolygon", "coordinates": [ [ [ [ 139.6206465, 10.0531941 ], [ 139.6205218, 10.0532608 ], [ 139.6204112, 10.0532696 ], [ 139.62024550000001, 10.0532099 ], [ 139.620186600000011, 10.0531889 ], [ 139.620161700000011, 10.0532292 ], [ 139.620323899999988, 10.0533345 ], [ 139.6205004, 10.0534837 ], [ 139.6206376, 10.0535768 ], [ 139.620871099999988, 10.0536663 ], [ 139.621051200000011, 10.0537593 ], [ 139.6213311, 10.0539541 ], [ 139.6215646, 10.0541174 ], [ 139.621832, 10.0542789 ], [ 139.6220156, 10.0543596 ], [ 139.6222081, 10.0543701 ], [ 139.6224612, 10.0543772 ], [ 139.6226983, 10.0543684 ], [ 139.622746400000011, 10.0543491 ], [ 139.62275, 10.0543069 ], [ 139.6226734, 10.0542332 ], [ 139.6225058, 10.0540489 ], [ 139.6224078, 10.0539489 ], [ 139.6223489, 10.0539489 ], [ 139.6222473, 10.0539068 ], [ 139.622167100000013, 10.053819 ], [ 139.622135, 10.0537505 ], [ 139.6219728, 10.0536382 ], [ 139.621848, 10.0536189 ], [ 139.6217125, 10.0535452 ], [ 139.621545, 10.0534434 ], [ 139.6214095, 10.053324 ], [ 139.621322099999986, 10.0532661 ], [ 139.621179500000011, 10.0532257 ], [ 139.6210726, 10.0532117 ], [ 139.620974499999988, 10.0531818 ], [ 139.6209318, 10.0531485 ], [ 139.6207339, 10.0531555 ], [ 139.6206465, 10.0531941 ] ] ] ] } },
{ "type": "Feature", "properties": { "FID": 90358, "id": 2284, "left": 135.0, "top": 15.0, "right": 140.0, "bottom": 10.0, "row_index": 15, "col_index": 63, "min_lon": 135.0, "min_lat": 10.0, "tile_id": "135_10" }, "geometry": { "type": "MultiPolygon", "coordinates": [ [ [ [ 139.768225699999988, 10.0271453 ], [ 139.76755, 10.0272595 ], [ 139.7671063, 10.0272471 ], [ 139.766703, 10.0273538 ], [ 139.76634, 10.0273464 ], [ 139.7659946, 10.0274134 ], [ 139.7655862, 10.027612 ], [ 139.7652383, 10.0278702 ], [ 139.7649559, 10.0280439 ], [ 139.7646789, 10.0280512 ], [ 139.7644491, 10.0280318 ], [ 139.764106700000013, 10.0282133 ], [ 139.764051200000011, 10.0284943 ], [ 139.763877900000011, 10.0286359 ], [ 139.7635144, 10.0293414 ], [ 139.7633022, 10.0299232 ], [ 139.763103, 10.0302062 ], [ 139.7629325, 10.0303084 ], [ 139.762908900000014, 10.0303996 ], [ 139.7629795, 10.0309708 ], [ 139.762956800000012, 10.031579 ], [ 139.7629114, 10.0321524 ], [ 139.7628106, 10.0327829 ], [ 139.762785400000013, 10.0330337 ], [ 139.7628408, 10.0332174 ], [ 139.7629341, 10.0333638 ], [ 139.7630198, 10.0333961 ], [ 139.763313399999987, 10.0333806 ], [ 139.7637966, 10.0332612 ], [ 139.764076100000011, 10.0331454 ], [ 139.7643358, 10.0330635 ], [ 139.7645173, 10.0330436 ], [ 139.764560100000011, 10.032979 ], [ 139.764663500000012, 10.0329294 ], [ 139.7647316, 10.0328624 ], [ 139.764852600000012, 10.0327755 ], [ 139.765445, 10.0325099 ], [ 139.765697100000011, 10.0324056 ], [ 139.7659366, 10.0323485 ], [ 139.7660803, 10.0323386 ], [ 139.7661358, 10.0323038 ], [ 139.7662971, 10.0322343 ], [ 139.7663929, 10.0321747 ], [ 139.7664232, 10.0320928 ], [ 139.766475, 10.0319275 ], [ 139.766587, 10.0317353 ], [ 139.7668013, 10.031363 ], [ 139.7670282, 10.0310328 ], [ 139.7673862, 10.0305686 ], [ 139.7678273, 10.0301367 ], [ 139.768349199999989, 10.0296426 ], [ 139.7688181, 10.0292678 ], [ 139.769118099999986, 10.0290891 ], [ 139.769801300000012, 10.0286596 ], [ 139.7700635, 10.0285479 ], [ 139.7703735, 10.0284511 ], [ 139.770759199999986, 10.0283964 ], [ 139.771215500000011, 10.0283816 ], [ 139.7716643, 10.0282723 ], [ 139.771997, 10.028111 ], [ 139.7722693, 10.0279397 ], [ 139.7726752, 10.0276368 ], [ 139.7728617, 10.0274084 ], [ 139.7730962, 10.0270385 ], [ 139.7731819, 10.0267406 ], [ 139.77317690000001, 10.026542 ], [ 139.7730609, 10.0263956 ], [ 139.7729828, 10.0261473 ], [ 139.772919699999989, 10.0257998 ], [ 139.7726777, 10.0255739 ], [ 139.7724786, 10.0254622 ], [ 139.7722063, 10.0254075 ], [ 139.77196, 10.0254781 ], [ 139.7716265, 10.0255764 ], [ 139.771384399999988, 10.0257402 ], [ 139.771099600000014, 10.025976 ], [ 139.7705626, 10.0263261 ], [ 139.7700433, 10.0265321 ], [ 139.7693223, 10.0268325 ], [ 139.7689567, 10.0269616 ], [ 139.7685962, 10.0270733 ], [ 139.768225699999988, 10.0271453 ] ] ] ] } },
{ "type": "Feature", "properties": { "FID": 90359, "id": 2284, "left": 135.0, "top": 15.0, "right": 140.0, "bottom": 10.0, "row_index": 15, "col_index": 63, "min_lon": 135.0, "min_lat": 10.0, "tile_id": "135_10" }, "geometry": { "type": "MultiPolygon", "coordinates": [ [ [ [ 139.720797800000014, 10.0085346 ], [ 139.720890200000014, 10.008649 ], [ 139.7211801, 10.0087156 ], [ 139.7214784, 10.0089117 ], [ 139.721778, 10.0088937 ], [ 139.7217102, 10.0086015 ], [ 139.7216555, 10.0084671 ], [ 139.7215826, 10.0083944 ], [ 139.721184099999988, 10.008322 ], [ 139.720802600000013, 10.0083914 ], [ 139.720797800000014, 10.0085346 ] ] ] ] } },
{ "type": "Feature", "properties": { "FID": 90363, "id": 2284, "left": 135.0, "top": 15.0, "right": 140.0, "bottom": 10.0, "row_index": 15, "col_index": 63, "min_lon": 135.0, "min_lat": 10.0, "tile_id": "135_10" }, "geometry": { "type": "MultiPolygon", "coordinates": [ [ [ [ 139.6347179, 10.0626375 ], [ 139.6347747, 10.0628164 ], [ 139.634887, 10.0631517 ], [ 139.6350243, 10.0634378 ], [ 139.635104500000011, 10.0635132 ], [ 139.6352005, 10.0635943 ], [ 139.635391, 10.0637086 ], [ 139.6354792, 10.0637346 ], [ 139.6355977, 10.0637408 ], [ 139.635708599999987, 10.0637309 ], [ 139.635790500000013, 10.0636962 ], [ 139.635901499999989, 10.0636502 ], [ 139.63602, 10.0635994 ], [ 139.6361435, 10.0635497 ], [ 139.636238, 10.0635001 ], [ 139.6363074, 10.0634529 ], [ 139.6363653, 10.0633623 ], [ 139.6363628, 10.0632841 ], [ 139.6363288, 10.0631985 ], [ 139.63626450000001, 10.0631042 ], [ 139.6361737, 10.0629875 ], [ 139.636065300000013, 10.0628907 ], [ 139.635935499999988, 10.0628013 ], [ 139.6357918, 10.0627231 ], [ 139.63572, 10.0626449 ], [ 139.6356242, 10.0626425 ], [ 139.6355714, 10.0626414 ], [ 139.6355006, 10.06264 ], [ 139.6354174, 10.0626152 ], [ 139.635206899999986, 10.0625742 ], [ 139.6349687, 10.0625345 ], [ 139.6347796, 10.0625134 ], [ 139.6346586, 10.0625059 ], [ 139.6347179, 10.0626375 ] ] ] ] } },
{ "type": "Feature", "properties": { "FID": 90365, "id": 2284, "left": 135.0, "top": 15.0, "right": 140.0, "bottom": 10.0, "row_index": 15, "col_index": 63, "min_lon": 135.0, "min_lat": 10.0, "tile_id": "135_10" }, "geometry": { "type": "MultiPolygon", "coordinates": [ [ [ [ 139.6800274, 10.0747263 ], [ 139.679914, 10.0747784 ], [ 139.6798358, 10.0747858 ], [ 139.6796745, 10.074761 ], [ 139.679482900000011, 10.0747039 ], [ 139.6792434, 10.0746841 ], [ 139.6790795, 10.0746394 ], [ 139.6786459, 10.07456 ], [ 139.6783762, 10.0745327 ], [ 139.678335800000013, 10.0745749 ], [ 139.678277900000012, 10.0745848 ], [ 139.6780434, 10.0745674 ], [ 139.6777258, 10.07455 ], [ 139.6776274, 10.0745798 ], [ 139.6775518, 10.0746965 ], [ 139.677481199999988, 10.0747387 ], [ 139.6774762, 10.0748156 ], [ 139.677546799999988, 10.0748727 ], [ 139.6776174, 10.0749273 ], [ 139.6777459, 10.074977 ], [ 139.6779098, 10.0750142 ], [ 139.678030799999988, 10.0751011 ], [ 139.6781846, 10.075173 ], [ 139.6783686, 10.0751954 ], [ 139.678472, 10.0752649 ], [ 139.678651, 10.0753096 ], [ 139.678761900000012, 10.0754014 ], [ 139.6789963, 10.0754709 ], [ 139.679377, 10.0755553 ], [ 139.6795535, 10.0755553 ], [ 139.67975770000001, 10.0754907 ], [ 139.679856, 10.0754014 ], [ 139.679994599999986, 10.0752475 ], [ 139.6801005, 10.0750613 ], [ 139.6801661, 10.0749223 ], [ 139.6801762, 10.0748156 ], [ 139.6801434, 10.0747412 ], [ 139.6800274, 10.0747263 ] ] ] ] } },
{ "type": "Feature", "properties": { "FID": 90366, "id": 2284, "left": 135.0, "top": 15.0, "right": 140.0, "bottom": 10.0, "row_index": 15, "col_index": 63, "min_lon": 135.0, "min_lat": 10.0, "tile_id": "135_10" }, "geometry": { "type": "MultiPolygon", "coordinates": [ [ [ [ 139.735647199999988, 10.0819178 ], [ 139.7359217, 10.0818968 ], [ 139.7361, 10.081788 ], [ 139.7364814, 10.0816405 ], [ 139.736820099999989, 10.0814019 ], [ 139.7372016, 10.0811737 ], [ 139.7376009, 10.0807981 ], [ 139.737891499999989, 10.0805223 ], [ 139.738207, 10.0801944 ], [ 139.7385849, 10.0798153 ], [ 139.738756, 10.0795555 ], [ 139.7389, 10.0792758 ], [ 139.7391696, 10.0789904 ], [ 139.7393621, 10.0788254 ], [ 139.739611700000012, 10.0784603 ], [ 139.739818500000013, 10.0781444 ], [ 139.739961099999988, 10.0778215 ], [ 139.740068, 10.0775055 ], [ 139.7403247, 10.077144 ], [ 139.7405707, 10.0769264 ], [ 139.7408916, 10.0766982 ], [ 139.7413872, 10.0764314 ], [ 139.7416759, 10.076298 ], [ 139.741836400000011, 10.0761752 ], [ 139.7420467, 10.0760137 ], [ 139.7424746, 10.0758101 ], [ 139.742501800000014, 10.0758071 ], [ 139.742791899999986, 10.075775 ], [ 139.742963, 10.0759014 ], [ 139.7431698, 10.0759891 ], [ 139.7434514, 10.0760348 ], [ 139.7437473, 10.075926 ], [ 139.7438685, 10.0758803 ], [ 139.7440147, 10.075947 ], [ 139.744132400000012, 10.0761471 ], [ 139.7442001, 10.0762313 ], [ 139.7443035, 10.0762138 ], [ 139.7443142, 10.0761155 ], [ 139.7442322, 10.0759716 ], [ 139.744171599999987, 10.0757575 ], [ 139.7442108, 10.075596 ], [ 139.744435399999986, 10.075424 ], [ 139.7446957, 10.0752064 ], [ 139.7449738, 10.0749852 ], [ 139.7453802, 10.0747465 ], [ 139.7458187, 10.074399 ], [ 139.7460683, 10.0741849 ], [ 139.7463392, 10.0740059 ], [ 139.7466245, 10.0739111 ], [ 139.7471343, 10.0736654 ], [ 139.747544299999987, 10.0735144 ], [ 139.74794, 10.0733494 ], [ 139.748175300000014, 10.0731634 ], [ 139.7484998, 10.0727527 ], [ 139.7487279, 10.0724508 ], [ 139.749130799999989, 10.0720857 ], [ 139.749355400000013, 10.0717839 ], [ 139.749697700000013, 10.0714363 ], [ 139.7500849, 10.0711473 ], [ 139.750425, 10.0707975 ], [ 139.7506888, 10.0705939 ], [ 139.7511024, 10.0703411 ], [ 139.7513519, 10.0702323 ], [ 139.7516478, 10.0701235 ], [ 139.7518225, 10.0699515 ], [ 139.7520257, 10.0696812 ], [ 139.7521113, 10.0695197 ], [ 139.7522325, 10.0693934 ], [ 139.7523823, 10.0693547 ], [ 139.752489200000014, 10.0692705 ], [ 139.7525641, 10.0691266 ], [ 139.75268890000001, 10.0689967 ], [ 139.752767299999988, 10.0688879 ], [ 139.7527317, 10.0686913 ], [ 139.7527245, 10.0684877 ], [ 139.75268890000001, 10.0682385 ], [ 139.752614, 10.0680138 ], [ 139.752528399999989, 10.0679998 ], [ 139.7524607, 10.0681156 ], [ 139.7523823, 10.0684456 ], [ 139.7521826, 10.0688914 ], [ 139.752018600000014, 10.0692003 ], [ 139.7517976, 10.069446 ], [ 139.7513662, 10.0698286 ], [ 139.7508991, 10.0701305 ], [ 139.7504749, 10.0704956 ], [ 139.750161100000014, 10.0706711 ], [ 139.749626400000011, 10.0711906 ], [ 139.7489989, 10.0717628 ], [ 139.748679399999986, 10.0721192 ], [ 139.7484058, 10.0724308 ], [ 139.747968500000013, 10.0727773 ], [ 139.747426600000011, 10.073209 ], [ 139.7469917, 10.0734793 ], [ 139.7464961, 10.0736724 ], [ 139.745982700000013, 10.0739181 ], [ 139.7458615, 10.0739567 ], [ 139.7456333, 10.0741322 ], [ 139.7454265, 10.0742445 ], [ 139.745177, 10.0742691 ], [ 139.744977299999988, 10.0743955 ], [ 139.7447884, 10.074564 ], [ 139.7442001, 10.0748483 ], [ 139.7437387, 10.0749977 ], [ 139.7429448, 10.0752512 ], [ 139.7423547, 10.0755259 ], [ 139.741932600000013, 10.0757399 ], [ 139.7416938, 10.0758312 ], [ 139.741487, 10.0759716 ], [ 139.7411305, 10.0762313 ], [ 139.7408773, 10.0763366 ], [ 139.7407526, 10.0764069 ], [ 139.7405636, 10.0764069 ], [ 139.74011440000001, 10.0765367 ], [ 139.739601, 10.0767403 ], [ 139.7389949, 10.0770808 ], [ 139.738328200000012, 10.0774634 ], [ 139.7381642, 10.0775968 ], [ 139.7379503, 10.0777337 ], [ 139.7375831, 10.0779654 ], [ 139.7374547, 10.0781233 ], [ 139.7373442, 10.07819 ], [ 139.7372551, 10.0782111 ], [ 139.737155300000012, 10.078341 ], [ 139.7369378, 10.0785375 ], [ 139.7366312, 10.0787657 ], [ 139.7363317, 10.0789096 ], [ 139.7361998, 10.0790184 ], [ 139.736117799999988, 10.0791518 ], [ 139.7359046, 10.07933 ], [ 139.7355267, 10.0795442 ], [ 139.735081, 10.0797723 ], [ 139.734617500000013, 10.0799935 ], [ 139.734179, 10.0801725 ], [ 139.733883100000014, 10.0802813 ], [ 139.733811800000012, 10.0803866 ], [ 139.733687, 10.0804042 ], [ 139.7334909, 10.0804744 ], [ 139.7333626, 10.0806218 ], [ 139.733195, 10.080685 ], [ 139.7329134, 10.0807446 ], [ 139.732735100000014, 10.0808184 ], [ 139.7326809, 10.0809174 ], [ 139.7327166, 10.0809666 ], [ 139.7328948, 10.0810157 ], [ 139.7331801, 10.0812088 ], [ 139.7333607, 10.0813382 ], [ 139.7336649, 10.0815563 ], [ 139.7342746, 10.0818512 ], [ 139.7348735, 10.081967 ], [ 139.7352586, 10.0819705 ], [ 139.735647199999988, 10.0819178 ] ] ] ] } },
{ "type": "Feature", "properties": { "FID": 90367, "id": 2284, "left": 135.0, "top": 15.0, "right": 140.0, "bottom": 10.0, "row_index": 15, "col_index": 63, "min_lon": 135.0, "min_lat": 10.0, "tile_id": "135_10" }, "geometry": { "type": "MultiPolygon", "coordinates": [ [ [ [ 139.7902161, 10.0120882 ], [ 139.7898128, 10.0125624 ], [ 139.789606, 10.0127436 ], [ 139.789406899999989, 10.0128405 ], [ 139.789210200000014, 10.0129919 ], [ 139.7889128, 10.0131235 ], [ 139.788564900000011, 10.0132451 ], [ 139.7884439, 10.0132799 ], [ 139.788403499999987, 10.0133941 ], [ 139.7883481, 10.0134636 ], [ 139.7881993, 10.0135281 ], [ 139.7880556, 10.0136572 ], [ 139.78787410000001, 10.0138608 ], [ 139.787833799999987, 10.0140594 ], [ 139.7875842, 10.0144492 ], [ 139.7873851, 10.014829 ], [ 139.787198499999988, 10.0153106 ], [ 139.787160699999987, 10.0156135 ], [ 139.7870649, 10.0158369 ], [ 139.7871178, 10.0159586 ], [ 139.7870145, 10.0160752 ], [ 139.7870145, 10.0161919 ], [ 139.7869464, 10.0163458 ], [ 139.7868229, 10.0166313 ], [ 139.786843, 10.0167455 ], [ 139.78680270000001, 10.0168498 ], [ 139.786714499999988, 10.0169764 ], [ 139.7867876, 10.0170683 ], [ 139.7867851, 10.0172048 ], [ 139.7867296, 10.0174704 ], [ 139.7866338, 10.0176194 ], [ 139.7865153, 10.0178205 ], [ 139.7863515, 10.0179247 ], [ 139.7861599, 10.0179496 ], [ 139.7859733, 10.0182127 ], [ 139.785766599999988, 10.0182971 ], [ 139.7855145, 10.0184461 ], [ 139.78530520000001, 10.0187117 ], [ 139.7851666, 10.0190618 ], [ 139.7849548, 10.0194168 ], [ 139.7848943, 10.0198438 ], [ 139.7848162, 10.0201168 ], [ 139.7847935, 10.0203378 ], [ 139.7848616, 10.0205215 ], [ 139.7850305, 10.0208343 ], [ 139.7852498, 10.0210875 ], [ 139.785522500000013, 10.0213356 ], [ 139.78588, 10.0215269 ], [ 139.7862279, 10.0216461 ], [ 139.7868834, 10.0217305 ], [ 139.787316800000013, 10.0218378 ], [ 139.787922, 10.0219092 ], [ 139.788242200000013, 10.0219663 ], [ 139.7885346, 10.0220135 ], [ 139.788801799999987, 10.0220383 ], [ 139.7890892, 10.0220557 ], [ 139.7894901, 10.0220929 ], [ 139.789931200000012, 10.0220805 ], [ 139.7901833, 10.0220507 ], [ 139.79061440000001, 10.0219514 ], [ 139.7909119, 10.0218993 ], [ 139.791043, 10.0218794 ], [ 139.7915296, 10.0218025 ], [ 139.7921724, 10.0216684 ], [ 139.792689200000012, 10.0215294 ], [ 139.793085, 10.0214599 ], [ 139.7933774, 10.0213556 ], [ 139.79369, 10.0211669 ], [ 139.7940984, 10.0209063 ], [ 139.7943833, 10.0206679 ], [ 139.7945825, 10.0204371 ], [ 139.7947589, 10.0201466 ], [ 139.7948623, 10.0197047 ], [ 139.794859800000012, 10.0191735 ], [ 139.7948194, 10.0185305 ], [ 139.794716099999988, 10.0180588 ], [ 139.7945043, 10.0175573 ], [ 139.7944463, 10.0173538 ], [ 139.794406, 10.0169417 ], [ 139.7943934, 10.0163682 ], [ 139.7943883, 10.0158518 ], [ 139.7942573, 10.015323 ], [ 139.793985, 10.0145038 ], [ 139.7938438, 10.0139055 ], [ 139.7937379, 10.0135554 ], [ 139.793501, 10.0131979 ], [ 139.793180799999988, 10.012694 ], [ 139.792734599999989, 10.0122496 ], [ 139.792364, 10.011984 ], [ 139.792069, 10.011835 ], [ 139.7914161, 10.0114328 ], [ 139.7912169, 10.0113683 ], [ 139.791030400000011, 10.0113559 ], [ 139.7908539, 10.0113906 ], [ 139.7907793, 10.0114579 ], [ 139.7902161, 10.0120882 ] ] ] ] } },
{ "type": "Feature", "properties": { "FID": 90368, "id": 2284, "left": 135.0, "top": 15.0, "right": 140.0, "bottom": 10.0, "row_index": 15, "col_index": 63, "min_lon": 135.0, "min_lat": 10.0, "tile_id": "135_10" }, "geometry": { "type": "MultiPolygon", "coordinates": [ [ [ [ 139.6428072, 10.0663244 ], [ 139.6426788, 10.06637 ], [ 139.642605800000013, 10.0664191 ], [ 139.642625399999986, 10.0664806 ], [ 139.642784, 10.0665631 ], [ 139.6429676, 10.066628 ], [ 139.6433099, 10.0667807 ], [ 139.64347570000001, 10.0668105 ], [ 139.6436931, 10.0669036 ], [ 139.6438072, 10.0669211 ], [ 139.6438892, 10.0669246 ], [ 139.6439588, 10.0669194 ], [ 139.6440265, 10.0669123 ], [ 139.644096, 10.066872 ], [ 139.6442101, 10.066886 ], [ 139.6442868, 10.0668825 ], [ 139.6444258, 10.0668334 ], [ 139.6445363, 10.0667667 ], [ 139.6446076, 10.0667105 ], [ 139.6447288, 10.0666877 ], [ 139.6448055, 10.0667017 ], [ 139.6449231, 10.0666807 ], [ 139.644973099999987, 10.0666368 ], [ 139.6449107, 10.0665824 ], [ 139.64488750000001, 10.0665332 ], [ 139.6447877, 10.0665227 ], [ 139.6446843, 10.0664771 ], [ 139.6445631, 10.0664139 ], [ 139.6443634, 10.0663577 ], [ 139.6439891, 10.0662542 ], [ 139.6438518, 10.0662349 ], [ 139.6437716, 10.0662401 ], [ 139.643547, 10.066205 ], [ 139.6434026, 10.0661682 ], [ 139.6432297, 10.0661682 ], [ 139.6431637, 10.0662085 ], [ 139.643112, 10.0662138 ], [ 139.6430978, 10.0661892 ], [ 139.643044300000014, 10.0662191 ], [ 139.642973, 10.0662717 ], [ 139.6428072, 10.0663244 ] ] ] ] } },
{ "type": "Feature", "properties": { "FID": 90369, "id": 2284, "left": 135.0, "top": 15.0, "right": 140.0, "bottom": 10.0, "row_index": 15, "col_index": 63, "min_lon": 135.0, "min_lat": 10.0, "tile_id": "135_10" }, "geometry": { "type": "MultiPolygon", "coordinates": [ [ [ [ 139.682020200000011, 10.0749835 ], [ 139.6820095, 10.0750362 ], [ 139.682187699999986, 10.0751397 ], [ 139.682323200000013, 10.0752064 ], [ 139.6824498, 10.0752924 ], [ 139.682510400000012, 10.0753714 ], [ 139.682613800000013, 10.0754609 ], [ 139.6827671, 10.0755206 ], [ 139.6830042, 10.0755381 ], [ 139.6830862, 10.0755171 ], [ 139.683212700000013, 10.0754363 ], [ 139.6833001, 10.0753503 ], [ 139.6833643, 10.0752731 ], [ 139.6834231, 10.0752117 ], [ 139.6834177, 10.075166 ], [ 139.6833767, 10.075152 ], [ 139.6832537, 10.075145 ], [ 139.683088, 10.0751327 ], [ 139.6827439, 10.0751011 ], [ 139.6824302, 10.0750467 ], [ 139.6822163, 10.0749958 ], [ 139.6820683, 10.0749589 ], [ 139.682020200000011, 10.0749835 ] ] ] ] } },
{ "type": "Feature", "properties": { "FID": 90370, "id": 2284, "left": 135.0, "top": 15.0, "right": 140.0, "bottom": 10.0, "row_index": 15, "col_index": 63, "min_lon": 135.0, "min_lat": 10.0, "tile_id": "135_10" }, "geometry": { "type": "MultiPolygon", "coordinates": [ [ [ [ 139.5782117, 10.0397656 ], [ 139.577969700000011, 10.0396688 ], [ 139.5778084, 10.0395794 ], [ 139.577705, 10.0395 ], [ 139.5776596, 10.0393709 ], [ 139.5776621, 10.0392393 ], [ 139.5773268, 10.0393684 ], [ 139.5770798, 10.039495 ], [ 139.5767218, 10.0396117 ], [ 139.5764294, 10.0396737 ], [ 139.576142, 10.0397135 ], [ 139.575731100000013, 10.0397532 ], [ 139.575476400000014, 10.0397383 ], [ 139.5750983, 10.0396464 ], [ 139.5747403, 10.0395496 ], [ 139.5745916, 10.0395298 ], [ 139.5743521, 10.0396117 ], [ 139.574178100000012, 10.0397433 ], [ 139.574092400000012, 10.0399443 ], [ 139.5740571, 10.0401578 ], [ 139.574042, 10.040406 ], [ 139.574092400000012, 10.0406444 ], [ 139.5741731, 10.0408926 ], [ 139.5743143, 10.0411185 ], [ 139.574518500000011, 10.0413096 ], [ 139.574697500000013, 10.0414412 ], [ 139.5749372, 10.0415769 ], [ 139.575193899999988, 10.0417068 ], [ 139.5754613, 10.0417524 ], [ 139.57571440000001, 10.0417524 ], [ 139.5761743, 10.0417629 ], [ 139.5763882, 10.041784 ], [ 139.576573599999989, 10.041784 ], [ 139.5767193, 10.0417639 ], [ 139.5768579, 10.041677 ], [ 139.5769789, 10.0415405 ], [ 139.577087299999988, 10.0414511 ], [ 139.5772638, 10.0413866 ], [ 139.5774907, 10.0412947 ], [ 139.5776823, 10.0412749 ], [ 139.5778865, 10.0412972 ], [ 139.5779394, 10.0413345 ], [ 139.577884, 10.0413816 ], [ 139.5778789, 10.0414611 ], [ 139.5779067, 10.0415306 ], [ 139.57801760000001, 10.0415405 ], [ 139.5781336, 10.0414884 ], [ 139.578272199999986, 10.0413618 ], [ 139.5784033, 10.0412451 ], [ 139.5784663, 10.0411954 ], [ 139.57853080000001, 10.0411878 ], [ 139.5785445, 10.0412997 ], [ 139.5785319, 10.0414015 ], [ 139.5785495, 10.0415455 ], [ 139.5785798, 10.0416249 ], [ 139.5786478, 10.0416001 ], [ 139.5786781, 10.0414933 ], [ 139.578756199999987, 10.0413096 ], [ 139.5788546, 10.0411135 ], [ 139.5789251, 10.0408926 ], [ 139.5789529, 10.0405624 ], [ 139.579010899999986, 10.0403092 ], [ 139.579068799999988, 10.0401975 ], [ 139.5790764, 10.0400436 ], [ 139.5790134, 10.0399344 ], [ 139.578949200000011, 10.0398778 ], [ 139.5786488, 10.0398144 ], [ 139.578423500000014, 10.0397721 ], [ 139.5782117, 10.0397656 ] ] ] ] } },
{ "type": "Feature", "properties": { "FID": 379063, "id": 2284, "left": 135.0, "top": 15.0, "right": 140.0, "bottom": 10.0, "row_index": 15, "col_index": 63, "min_lon": 135.0, "min_lat": 10.0, "tile_id": "135_10" }, "geometry": { "type": "MultiPolygon", "coordinates": [ [ [ [ 139.6073293, 10.0481823 ], [ 139.6073848, 10.0481574 ], [ 139.607372199999986, 10.0480606 ], [ 139.6073216, 10.0479226 ], [ 139.607278900000011, 10.0477528 ], [ 139.6072159, 10.0475865 ], [ 139.6072134, 10.0474971 ], [ 139.6071327, 10.0474127 ], [ 139.6070243, 10.0472812 ], [ 139.6069436, 10.0472017 ], [ 139.6069512, 10.0471521 ], [ 139.607004100000012, 10.0471124 ], [ 139.6070394, 10.047028 ], [ 139.607021800000012, 10.046956 ], [ 139.606918400000012, 10.046889 ], [ 139.606767100000013, 10.0468666 ], [ 139.6066411, 10.0468517 ], [ 139.606506200000013, 10.0469084 ], [ 139.606368800000013, 10.0470379 ], [ 139.606358699999987, 10.0471099 ], [ 139.6062856, 10.0471769 ], [ 139.6061798, 10.0472886 ], [ 139.6060613, 10.0473283 ], [ 139.6059655, 10.0473556 ], [ 139.6059201, 10.0473482 ], [ 139.605932700000011, 10.0472712 ], [ 139.605932700000011, 10.0472142 ], [ 139.6059075, 10.0471844 ], [ 139.6058419, 10.0472439 ], [ 139.60580920000001, 10.0473606 ], [ 139.605789, 10.0474649 ], [ 139.605726, 10.0475766 ], [ 139.6057285, 10.0476684 ], [ 139.6057764, 10.0478695 ], [ 139.6058344, 10.0481103 ], [ 139.6059075, 10.0482617 ], [ 139.6060134, 10.048361 ], [ 139.6061092, 10.0483759 ], [ 139.6062302, 10.0483659 ], [ 139.6064016, 10.0483386 ], [ 139.6066108, 10.0482816 ], [ 139.6068503, 10.0482096 ], [ 139.607049499999988, 10.0481748 ], [ 139.607220899999987, 10.0481698 ], [ 139.6073293, 10.0481823 ] ] ] ] } },
{ "type": "Feature", "properties": { "FID": 391362, "id": 2284, "left": 135.0, "top": 15.0, "right": 140.0, "bottom": 10.0, "row_index": 15, "col_index": 63, "min_lon": 135.0, "min_lat": 10.0, "tile_id": "135_10" }, "geometry": { "type": "MultiPolygon", "coordinates": [ [ [ [ 139.611205, 10.0114961 ], [ 139.611417100000011, 10.0114277 ], [ 139.6116346, 10.0112837 ], [ 139.611804, 10.011131 ], [ 139.6119127, 10.0110134 ], [ 139.61191980000001, 10.0109045 ], [ 139.6118521, 10.0108694 ], [ 139.611741599999988, 10.0108694 ], [ 139.61160430000001, 10.0108466 ], [ 139.611443900000012, 10.0108624 ], [ 139.611303, 10.0108448 ], [ 139.611189, 10.0107852 ], [ 139.611037399999987, 10.0106711 ], [ 139.6109234, 10.0105745 ], [ 139.6107843, 10.0105429 ], [ 139.6106863, 10.0105798 ], [ 139.6106346, 10.0106869 ], [ 139.610593599999987, 10.0108326 ], [ 139.610598900000014, 10.0109625 ], [ 139.6106488, 10.0111222 ], [ 139.610716599999989, 10.0112925 ], [ 139.6107005, 10.0114048 ], [ 139.6106667, 10.0114645 ], [ 139.610734400000013, 10.0114979 ], [ 139.610861, 10.0115365 ], [ 139.6109875, 10.0115225 ], [ 139.611205, 10.0114961 ] ] ] ] } }
]
}
