{
"type": "FeatureCollection",
"name": "140_5",
"crs": { "type": "name", "properties": { "name": "urn:ogc:def:crs:OGC:1.3:CRS84" } },
"xy_coordinate_resolution": 1e-15,
"features": [
{ "type": "Feature", "properties": { "FID": 88969, "id": 2321, "left": 140.0, "top": 10.0, "right": 145.0, "bottom": 5.0, "row_index": 16, "col_index": 64, "min_lon": 140.0, "min_lat": 5.0, "tile_id": "140_5" }, "geometry": { "type": "MultiPolygon", "coordinates": [ [ [ [ 140.4122372, 8.1156492 ], [ 140.4120102, 8.1154785 ], [ 140.411842299999989, 8.115483 ], [ 140.411955799999987, 8.1156762 ], [ 140.4120738, 8.1158919 ], [ 140.4121691, 8.1161211 ], [ 140.4121283, 8.1162919 ], [ 140.4118786, 8.1163638 ], [ 140.411683399999987, 8.1165166 ], [ 140.411315699999989, 8.1167997 ], [ 140.4108345, 8.1171637 ], [ 140.410525799999988, 8.1172895 ], [ 140.4099675, 8.1175367 ], [ 140.409490799999986, 8.1178063 ], [ 140.409368300000011, 8.1179501 ], [ 140.4092139, 8.1181119 ], [ 140.4089688, 8.1182512 ], [ 140.4086102, 8.1184085 ], [ 140.4082879, 8.1184804 ], [ 140.4078748, 8.1185973 ], [ 140.4075843, 8.1188085 ], [ 140.4073664, 8.1189433 ], [ 140.4069351, 8.11915 ], [ 140.4065311, 8.1193882 ], [ 140.406204300000013, 8.1196713 ], [ 140.4060681, 8.119932 ], [ 140.4059138, 8.120278 ], [ 140.40579120000001, 8.1205971 ], [ 140.405582399999986, 8.1211588 ], [ 140.4053055, 8.1218778 ], [ 140.4051103, 8.1223227 ], [ 140.4048152, 8.1230912 ], [ 140.4047017, 8.1232889 ], [ 140.4044884, 8.123617 ], [ 140.4042569, 8.1241023 ], [ 140.4039981, 8.1244708 ], [ 140.4037348, 8.1249652 ], [ 140.4033944, 8.1257471 ], [ 140.4032173, 8.1263852 ], [ 140.4031674, 8.1266998 ], [ 140.402945, 8.1273469 ], [ 140.4027135, 8.1279041 ], [ 140.4024398, 8.1285904 ], [ 140.4024139, 8.1287535 ], [ 140.402259500000014, 8.1289332 ], [ 140.4019735, 8.1292927 ], [ 140.4018101, 8.1295264 ], [ 140.4016648, 8.1297286 ], [ 140.401646699999986, 8.1299488 ], [ 140.4016648, 8.1301016 ], [ 140.4017829, 8.1302409 ], [ 140.402146, 8.1304432 ], [ 140.4023276, 8.1304791 ], [ 140.4024139, 8.1305735 ], [ 140.4025954, 8.1306858 ], [ 140.4028406, 8.1307802 ], [ 140.4031311, 8.1307937 ], [ 140.403389800000014, 8.1307263 ], [ 140.403671300000013, 8.1306454 ], [ 140.403907299999986, 8.1306049 ], [ 140.4042614, 8.1305195 ], [ 140.4045882, 8.1303488 ], [ 140.404865199999989, 8.13016 ], [ 140.4051194, 8.1299129 ], [ 140.4053418, 8.1296118 ], [ 140.4056641, 8.129122 ], [ 140.4058411, 8.1288029 ], [ 140.405882, 8.1285513 ], [ 140.406081699999987, 8.1280434 ], [ 140.406290500000011, 8.127603 ], [ 140.4066038, 8.1269335 ], [ 140.4068988, 8.1263358 ], [ 140.4070486, 8.1261605 ], [ 140.4072574, 8.1258235 ], [ 140.4075116, 8.1252168 ], [ 140.407725, 8.124727 ], [ 140.408020099999987, 8.1241068 ], [ 140.4082924, 8.1235586 ], [ 140.4085466, 8.1229294 ], [ 140.408728200000013, 8.122516 ], [ 140.4091458, 8.1217565 ], [ 140.4095544, 8.1211274 ], [ 140.4099493, 8.1205117 ], [ 140.410403300000013, 8.119914 ], [ 140.4108254, 8.1193657 ], [ 140.411175, 8.1189478 ], [ 140.41147, 8.1186063 ], [ 140.411769600000014, 8.1183276 ], [ 140.4122463, 8.1179412 ], [ 140.4125414, 8.1175592 ], [ 140.412614, 8.1172446 ], [ 140.412568599999986, 8.1169615 ], [ 140.4125822, 8.1167548 ], [ 140.412564, 8.1163054 ], [ 140.4123916, 8.115838 ], [ 140.4122372, 8.1156492 ] ] ] ] } },
{ "type": "Feature", "properties": { "FID": 88990, "id": 2321, "left": 140.0, "top": 10.0, "right": 145.0, "bottom": 5.0, "row_index": 16, "col_index": 64, "min_lon": 140.0, "min_lat": 5.0, "tile_id": "140_5" }, "geometry": { "type": "MultiPolygon", "coordinates": [ [ [ [ 143.8618726, 7.3648563 ], [ 143.862042, 7.364878 ], [ 143.86235640000001, 7.364864 ], [ 143.8630406, 7.3648665 ], [ 143.8636721, 7.36465 ], [ 143.8640379, 7.3642024 ], [ 143.8641145, 7.3638413 ], [ 143.8641701, 7.3633194 ], [ 143.8639852, 7.3628185 ], [ 143.86356330000001, 7.3627908 ], [ 143.8627641, 7.363391 ], [ 143.861578900000012, 7.3642602 ], [ 143.8613157, 7.3643941 ], [ 143.8610648, 7.364521 ], [ 143.8614696, 7.3647725 ], [ 143.8618726, 7.3648563 ] ] ] ] } },
{ "type": "Feature", "properties": { "FID": 89002, "id": 2321, "left": 140.0, "top": 10.0, "right": 145.0, "bottom": 5.0, "row_index": 16, "col_index": 64, "min_lon": 140.0, "min_lat": 5.0, "tile_id": "140_5" }, "geometry": { "type": "MultiPolygon", "coordinates": [ [ [ [ 140.401205299999987, 8.1314242 ], [ 140.4010705, 8.1313574 ], [ 140.4009582, 8.131367 ], [ 140.4008201, 8.1314083 ], [ 140.4006693, 8.1315608 ], [ 140.400627500000013, 8.1316402 ], [ 140.400749499999989, 8.131707 ], [ 140.400967799999989, 8.1317705 ], [ 140.4011251, 8.1318563 ], [ 140.4011028, 8.1319379 ], [ 140.4011252, 8.1320332 ], [ 140.4010946, 8.132157 ], [ 140.4010302, 8.1323801 ], [ 140.4007968, 8.1327571 ], [ 140.4004937, 8.1332908 ], [ 140.400374, 8.1336866 ], [ 140.4001814, 8.1340425 ], [ 140.399889300000012, 8.1346018 ], [ 140.3996774, 8.1348973 ], [ 140.3993255, 8.1352882 ], [ 140.3988108, 8.1358251 ], [ 140.3985026, 8.1360793 ], [ 140.3983132, 8.1362446 ], [ 140.3981174, 8.1363494 ], [ 140.39793130000001, 8.1363748 ], [ 140.3978061, 8.1363431 ], [ 140.3976745, 8.1362573 ], [ 140.3975685, 8.1362255 ], [ 140.397392, 8.1361937 ], [ 140.3973471, 8.1363208 ], [ 140.3974145, 8.1364606 ], [ 140.397575, 8.1365496 ], [ 140.397851, 8.136664 ], [ 140.3981431, 8.1366704 ], [ 140.3985347, 8.1366227 ], [ 140.3988525, 8.1365051 ], [ 140.3991189, 8.1363621 ], [ 140.3993821, 8.1361747 ], [ 140.3997288, 8.1359173 ], [ 140.3999824, 8.1358029 ], [ 140.400171699999987, 8.1356535 ], [ 140.400329, 8.1354915 ], [ 140.4003836, 8.1353739 ], [ 140.400422099999986, 8.1352214 ], [ 140.4004093, 8.1350752 ], [ 140.4004093, 8.1349608 ], [ 140.4004991, 8.1348433 ], [ 140.4006051, 8.1345732 ], [ 140.4008522, 8.1340076 ], [ 140.4013177, 8.1333403 ], [ 140.4015488, 8.132816 ], [ 140.4016387, 8.1325681 ], [ 140.401674, 8.132352 ], [ 140.4016483, 8.132155 ], [ 140.4015712, 8.1319135 ], [ 140.4014396, 8.1317324 ], [ 140.4013305, 8.131564 ], [ 140.401205299999987, 8.1314242 ] ] ] ] } },
{ "type": "Feature", "properties": { "FID": 89007, "id": 2321, "left": 140.0, "top": 10.0, "right": 145.0, "bottom": 5.0, "row_index": 16, "col_index": 64, "min_lon": 140.0, "min_lat": 5.0, "tile_id": "140_5" }, "geometry": { "type": "MultiPolygon", "coordinates": [ [ [ [ 144.52033560000001, 8.5862444 ], [ 144.5202069, 8.5863133 ], [ 144.520267499999989, 8.586618 ], [ 144.52044810000001, 8.5867536 ], [ 144.520560100000012, 8.5870723 ], [ 144.5205689, 8.587235 ], [ 144.5205159, 8.5874528 ], [ 144.5202358, 8.5878959 ], [ 144.519983700000012, 8.5885052 ], [ 144.5197183, 8.5889884 ], [ 144.51965, 8.5893983 ], [ 144.519647600000013, 8.5898137 ], [ 144.5197656, 8.5899558 ], [ 144.5200817, 8.590049 ], [ 144.5204388, 8.5901183 ], [ 144.5208519, 8.5901252 ], [ 144.521209, 8.5902083 ], [ 144.5216431, 8.5903398 ], [ 144.5218812, 8.5904229 ], [ 144.5225744, 8.5905614 ], [ 144.523295600000012, 8.590776 ], [ 144.5239187, 8.5909698 ], [ 144.5244509, 8.5909975 ], [ 144.5251931, 8.590956 ], [ 144.5257042, 8.5907829 ], [ 144.5260963, 8.5905267 ], [ 144.5264044, 8.5901875 ], [ 144.5266564, 8.5896752 ], [ 144.5267685, 8.5891836 ], [ 144.52675450000001, 8.5887336 ], [ 144.5265934, 8.5881659 ], [ 144.526194299999986, 8.5874459 ], [ 144.5258232, 8.5870651 ], [ 144.5255431, 8.5868713 ], [ 144.525095, 8.5869059 ], [ 144.5240168, 8.5869474 ], [ 144.5235126, 8.586989 ], [ 144.523162500000012, 8.5868851 ], [ 144.5228194, 8.5869336 ], [ 144.5224974, 8.5871551 ], [ 144.5222523, 8.5871966 ], [ 144.5220562, 8.5872174 ], [ 144.5218462, 8.5871482 ], [ 144.5213841, 8.586892 ], [ 144.5207143, 8.5865041 ], [ 144.520407299999988, 8.5863913 ], [ 144.52033560000001, 8.5862444 ] ] ] ] } },
{ "type": "Feature", "properties": { "FID": 89011, "id": 2321, "left": 140.0, "top": 10.0, "right": 145.0, "bottom": 5.0, "row_index": 16, "col_index": 64, "min_lon": 140.0, "min_lat": 5.0, "tile_id": "140_5" }, "geometry": { "type": "MultiPolygon", "coordinates": [ [ [ [ 143.9138874, 7.3576822 ], [ 143.913756799999987, 7.3573432 ], [ 143.9135683, 7.3571791 ], [ 143.9133103, 7.3571031 ], [ 143.913128300000011, 7.3568379 ], [ 143.9129063, 7.3567266 ], [ 143.9123644, 7.3567171 ], [ 143.912212, 7.3569815 ], [ 143.9122288, 7.3595562 ], [ 143.911289900000014, 7.3615362 ], [ 143.910761799999989, 7.3623036 ], [ 143.9105049, 7.3628907 ], [ 143.910863, 7.3634448 ], [ 143.9113883, 7.3635869 ], [ 143.9126961, 7.3634263 ], [ 143.9137014, 7.3628494 ], [ 143.9143542, 7.362083 ], [ 143.9147395, 7.3611907 ], [ 143.9149932, 7.359556 ], [ 143.9149323, 7.3587662 ], [ 143.9144071, 7.357789 ], [ 143.9138874, 7.3576822 ] ] ] ] } },
{ "type": "Feature", "properties": { "FID": 89012, "id": 2321, "left": 140.0, "top": 10.0, "right": 145.0, "bottom": 5.0, "row_index": 16, "col_index": 64, "min_lon": 140.0, "min_lat": 5.0, "tile_id": "140_5" }, "geometry": { "type": "MultiPolygon", "coordinates": [ [ [ [ 143.031622700000014, 6.6981232 ], [ 143.031307700000013, 6.6981232 ], [ 143.0310355, 6.6981043 ], [ 143.030596300000013, 6.6981659 ], [ 143.030252600000011, 6.6983176 ], [ 143.029947099999987, 6.6984874 ], [ 143.0298516, 6.6985405 ], [ 143.029617699999989, 6.6986732 ], [ 143.029379, 6.6987965 ], [ 143.0293026, 6.698953 ], [ 143.0293456, 6.6990383 ], [ 143.0294936, 6.6991237 ], [ 143.029598600000014, 6.6991995 ], [ 143.0296416, 6.6994176 ], [ 143.0296511, 6.6996073 ], [ 143.02978, 6.6998301 ], [ 143.0296368, 6.6999297 ], [ 143.029612899999989, 6.700053 ], [ 143.0297132, 6.7002379 ], [ 143.029885, 6.7003896 ], [ 143.0300808, 6.7005224 ], [ 143.0303767, 6.7007215 ], [ 143.030605900000012, 6.7008685 ], [ 143.0307348, 6.7009159 ], [ 143.030959200000012, 6.7009017 ], [ 143.0311644, 6.7008827 ], [ 143.03145090000001, 6.7008543 ], [ 143.0315214, 6.7008044 ], [ 143.0316657, 6.7007025 ], [ 143.03180420000001, 6.7005698 ], [ 143.031976, 6.7004038 ], [ 143.031999899999988, 6.7001573 ], [ 143.032004699999987, 6.6999297 ], [ 143.0321049, 6.6996831 ], [ 143.0322004, 6.6994034 ], [ 143.032329299999986, 6.6991426 ], [ 143.0324534, 6.6989008 ], [ 143.032510699999989, 6.6986495 ], [ 143.032463, 6.6984551 ], [ 143.03228630000001, 6.6983176 ], [ 143.031956900000012, 6.6981754 ], [ 143.031622700000014, 6.6981232 ] ] ] ] } },
{ "type": "Feature", "properties": { "FID": 89013, "id": 2321, "left": 140.0, "top": 10.0, "right": 145.0, "bottom": 5.0, "row_index": 16, "col_index": 64, "min_lon": 140.0, "min_lat": 5.0, "tile_id": "140_5" }, "geometry": { "type": "MultiPolygon", "coordinates": [ [ [ [ 140.3621158, 8.1493648 ], [ 140.361848, 8.149558 ], [ 140.3617073, 8.1496973 ], [ 140.36149850000001, 8.1498276 ], [ 140.3612034, 8.1499804 ], [ 140.360931, 8.1500568 ], [ 140.3607041, 8.1501152 ], [ 140.360595100000012, 8.1501691 ], [ 140.3605225, 8.1503129 ], [ 140.3604635, 8.1503578 ], [ 140.3603908, 8.1503983 ], [ 140.3602637, 8.1505466 ], [ 140.3599868, 8.1507173 ], [ 140.359773499999989, 8.1509105 ], [ 140.3596555, 8.15096 ], [ 140.35956920000001, 8.1507982 ], [ 140.3595147, 8.150623 ], [ 140.3595057, 8.1504477 ], [ 140.359455700000012, 8.150241 ], [ 140.359315, 8.150232 ], [ 140.3592242, 8.1503713 ], [ 140.359219700000011, 8.1505241 ], [ 140.3592333, 8.1507218 ], [ 140.35930590000001, 8.1509061 ], [ 140.3594285, 8.1510678 ], [ 140.3595238, 8.1512026 ], [ 140.3597508, 8.1513464 ], [ 140.360086700000011, 8.1514678 ], [ 140.3603545, 8.1515397 ], [ 140.3607949, 8.1515486 ], [ 140.3612987, 8.1514588 ], [ 140.3616664, 8.1513374 ], [ 140.361902500000014, 8.1511981 ], [ 140.36210220000001, 8.1510004 ], [ 140.3622384, 8.1508117 ], [ 140.3624427, 8.150587 ], [ 140.362533500000012, 8.1503803 ], [ 140.362715, 8.1501332 ], [ 140.3628058, 8.1499175 ], [ 140.362814899999989, 8.1495939 ], [ 140.362778600000013, 8.149221 ], [ 140.3626878, 8.1489244 ], [ 140.3625562, 8.1486323 ], [ 140.36237460000001, 8.1484076 ], [ 140.362193, 8.1483537 ], [ 140.3620795, 8.1484166 ], [ 140.362075, 8.14852 ], [ 140.3622021, 8.1487042 ], [ 140.3623383, 8.1488749 ], [ 140.3623519, 8.1490053 ], [ 140.362297399999989, 8.1492075 ], [ 140.3621158, 8.1493648 ] ] ] ] } },
{ "type": "Feature", "properties": { "FID": 89019, "id": 2321, "left": 140.0, "top": 10.0, "right": 145.0, "bottom": 5.0, "row_index": 16, "col_index": 64, "min_lon": 140.0, "min_lat": 5.0, "tile_id": "140_5" }, "geometry": { "type": "MultiPolygon", "coordinates": [ [ [ [ 140.387270199999989, 8.1433423 ], [ 140.38723490000001, 8.1431357 ], [ 140.387161, 8.1429546 ], [ 140.3869492, 8.1427512 ], [ 140.386766200000011, 8.1427322 ], [ 140.3867052, 8.1428053 ], [ 140.3867759, 8.1430118 ], [ 140.3868144, 8.1431738 ], [ 140.386811200000011, 8.1432755 ], [ 140.386856099999989, 8.1433518 ], [ 140.3868593, 8.1434153 ], [ 140.3867951, 8.1434598 ], [ 140.386692399999987, 8.1434694 ], [ 140.3865159, 8.1434566 ], [ 140.386310400000013, 8.1434503 ], [ 140.3861018, 8.1434312 ], [ 140.3859573, 8.1434376 ], [ 140.385861, 8.1434535 ], [ 140.3856749, 8.1435361 ], [ 140.38537310000001, 8.14366 ], [ 140.3851838, 8.1437394 ], [ 140.385071399999987, 8.1437204 ], [ 140.3849976, 8.1436092 ], [ 140.384988, 8.1435297 ], [ 140.3849109, 8.1434471 ], [ 140.3847954, 8.1433232 ], [ 140.3847312, 8.143177 ], [ 140.3845867, 8.1431548 ], [ 140.3844968, 8.1433073 ], [ 140.384525700000012, 8.1434662 ], [ 140.384606, 8.1436155 ], [ 140.384776100000011, 8.1438221 ], [ 140.3849815, 8.1440064 ], [ 140.3851292, 8.1441144 ], [ 140.3853402, 8.1441983 ], [ 140.385730599999988, 8.1443016 ], [ 140.385909199999986, 8.1444163 ], [ 140.386159600000013, 8.1445592 ], [ 140.3863586, 8.1446768 ], [ 140.386548, 8.1447594 ], [ 140.386734100000012, 8.1447149 ], [ 140.3868722, 8.1445529 ], [ 140.3869877, 8.1443845 ], [ 140.38701660000001, 8.1442892 ], [ 140.3871546, 8.1440763 ], [ 140.3872541, 8.143857 ], [ 140.3872734, 8.14366 ], [ 140.3872843, 8.1435191 ], [ 140.387270199999989, 8.1433423 ] ] ] ] } },
{ "type": "Feature", "properties": { "FID": 89023, "id": 2321, "left": 140.0, "top": 10.0, "right": 145.0, "bottom": 5.0, "row_index": 16, "col_index": 64, "min_lon": 140.0, "min_lat": 5.0, "tile_id": "140_5" }, "geometry": { "type": "MultiPolygon", "coordinates": [ [ [ [ 143.842887499999989, 7.3725881 ], [ 143.8424779, 7.3722122 ], [ 143.8406843, 7.3718835 ], [ 143.8397429, 7.371584 ], [ 143.8385375, 7.371102 ], [ 143.8380137, 7.37065 ], [ 143.837255699999986, 7.370232 ], [ 143.836738200000013, 7.3699778 ], [ 143.8358174, 7.3691876 ], [ 143.834038600000014, 7.3682034 ], [ 143.83323, 7.3679164 ], [ 143.8321967, 7.3676656 ], [ 143.8316471, 7.3674175 ], [ 143.8306789, 7.367211 ], [ 143.8302208, 7.3670382 ], [ 143.8294243, 7.3670837 ], [ 143.8290572, 7.3680892 ], [ 143.8292554, 7.3684389 ], [ 143.8294889, 7.3691045 ], [ 143.8293253, 7.3701865 ], [ 143.829624, 7.3709088 ], [ 143.8303448, 7.3718042 ], [ 143.8308527, 7.3723529 ], [ 143.8311855, 7.3727046 ], [ 143.8315287, 7.3730358 ], [ 143.832075300000014, 7.373424 ], [ 143.832474499999989, 7.3736659 ], [ 143.8331308, 7.3741322 ], [ 143.8336961, 7.3743857 ], [ 143.8344104, 7.3746314 ], [ 143.8354673, 7.3748846 ], [ 143.8359525, 7.3749691 ], [ 143.8366591, 7.3751628 ], [ 143.8378414, 7.3752114 ], [ 143.839308, 7.3752536 ], [ 143.8400732, 7.3751718 ], [ 143.840913300000011, 7.3749542 ], [ 143.841686399999986, 7.3746413 ], [ 143.842161299999987, 7.3742281 ], [ 143.842621, 7.3734514 ], [ 143.842813799999988, 7.372916 ], [ 143.842887499999989, 7.3725881 ] ] ] ] } },
{ "type": "Feature", "properties": { "FID": 89030, "id": 2321, "left": 140.0, "top": 10.0, "right": 145.0, "bottom": 5.0, "row_index": 16, "col_index": 64, "min_lon": 140.0, "min_lat": 5.0, "tile_id": "140_5" }, "geometry": { "type": "MultiPolygon", "coordinates": [ [ [ [ 143.8581558, 7.3694966 ], [ 143.858389499999987, 7.3693014 ], [ 143.8585086, 7.3689151 ], [ 143.858512, 7.3686573 ], [ 143.8583793, 7.368143 ], [ 143.8577325, 7.3677605 ], [ 143.8570911, 7.3675751 ], [ 143.8568318, 7.3681531 ], [ 143.8565755, 7.3684122 ], [ 143.8565772, 7.3686696 ], [ 143.856774, 7.3690266 ], [ 143.8571044, 7.3694017 ], [ 143.857730800000013, 7.369592 ], [ 143.8581558, 7.3694966 ] ] ] ] } },
{ "type": "Feature", "properties": { "FID": 89038, "id": 2321, "left": 140.0, "top": 10.0, "right": 145.0, "bottom": 5.0, "row_index": 16, "col_index": 64, "min_lon": 140.0, "min_lat": 5.0, "tile_id": "140_5" }, "geometry": { "type": "MultiPolygon", "coordinates": [ [ [ [ 140.3531779, 8.1541692 ], [ 140.3531597, 8.1542119 ], [ 140.3531438, 8.1543355 ], [ 140.353132499999987, 8.1543916 ], [ 140.3531393, 8.15445 ], [ 140.353175599999986, 8.1544478 ], [ 140.3532142, 8.1544141 ], [ 140.3532324, 8.154322 ], [ 140.3532528, 8.1542164 ], [ 140.3532301, 8.1541714 ], [ 140.3531779, 8.1541692 ] ] ] ] } },
{ "type": "Feature", "properties": { "FID": 89039, "id": 2321, "left": 140.0, "top": 10.0, "right": 145.0, "bottom": 5.0, "row_index": 16, "col_index": 64, "min_lon": 140.0, "min_lat": 5.0, "tile_id": "140_5" }, "geometry": { "type": "MultiPolygon", "coordinates": [ [ [ [ 143.0798129, 6.6818853 ], [ 143.0796373, 6.6818014 ], [ 143.0794955, 6.681778 ], [ 143.079239, 6.6817277 ], [ 143.07879, 6.6817981 ], [ 143.0784558, 6.6818249 ], [ 143.0779934, 6.6818886 ], [ 143.0776085, 6.6819758 ], [ 143.0773115, 6.6820529 ], [ 143.077038, 6.6820864 ], [ 143.0768017, 6.6821267 ], [ 143.076700499999987, 6.6822205 ], [ 143.07645740000001, 6.6822775 ], [ 143.0760591, 6.6823714 ], [ 143.075731600000012, 6.6824552 ], [ 143.0754143, 6.6825491 ], [ 143.0751679, 6.6826765 ], [ 143.074999100000014, 6.6827939 ], [ 143.07473920000001, 6.6828978 ], [ 143.0745738, 6.6829883 ], [ 143.0743881, 6.6830319 ], [ 143.07421260000001, 6.6830721 ], [ 143.0740539, 6.683109 ], [ 143.073956, 6.6831928 ], [ 143.0739054, 6.6832766 ], [ 143.0738986, 6.6833839 ], [ 143.0739257, 6.6834845 ], [ 143.0739695, 6.6835214 ], [ 143.0740573, 6.6835248 ], [ 143.0741349, 6.6834979 ], [ 143.0741721, 6.6834208 ], [ 143.0741755, 6.6833605 ], [ 143.074243, 6.6832901 ], [ 143.074351, 6.6832699 ], [ 143.074469099999988, 6.6833336 ], [ 143.074513700000011, 6.6834024 ], [ 143.074590699999987, 6.6835214 ], [ 143.0747594, 6.6836287 ], [ 143.0750396, 6.6837159 ], [ 143.0754177, 6.6837494 ], [ 143.0756135, 6.6838131 ], [ 143.0757519, 6.6838131 ], [ 143.0759376, 6.6837997 ], [ 143.0762346, 6.683736 ], [ 143.0766768, 6.6836957 ], [ 143.0769266, 6.6837159 ], [ 143.0771224, 6.6837594 ], [ 143.0772642, 6.6838969 ], [ 143.0774566, 6.6839975 ], [ 143.077632200000011, 6.6840344 ], [ 143.077814499999988, 6.6839707 ], [ 143.0780575, 6.6838198 ], [ 143.078233, 6.6837896 ], [ 143.0783951, 6.6836857 ], [ 143.078601, 6.6835616 ], [ 143.078759600000012, 6.683518 ], [ 143.078935199999989, 6.6835382 ], [ 143.079080299999987, 6.6835583 ], [ 143.0792559, 6.6835013 ], [ 143.0794955, 6.6833772 ], [ 143.07968120000001, 6.6832632 ], [ 143.0798871, 6.6832197 ], [ 143.0800696, 6.6832174 ], [ 143.0801606, 6.6832163 ], [ 143.0802821, 6.6831157 ], [ 143.080400200000014, 6.6829749 ], [ 143.0804374, 6.6827838 ], [ 143.0804374, 6.6826061 ], [ 143.0803462, 6.6824351 ], [ 143.0801639, 6.6822004 ], [ 143.0800087, 6.6820596 ], [ 143.0798129, 6.6818853 ] ] ] ] } },
{ "type": "Feature", "properties": { "FID": 89044, "id": 2321, "left": 140.0, "top": 10.0, "right": 145.0, "bottom": 5.0, "row_index": 16, "col_index": 64, "min_lon": 140.0, "min_lat": 5.0, "tile_id": "140_5" }, "geometry": { "type": "MultiPolygon", "coordinates": [ [ [ [ 143.868769, 7.3593218 ], [ 143.8683098, 7.3596192 ], [ 143.8679741, 7.3599101 ], [ 143.8677012, 7.3604838 ], [ 143.8673116, 7.3610175 ], [ 143.867520399999989, 7.36144 ], [ 143.8678332, 7.361806 ], [ 143.868179, 7.3619219 ], [ 143.8687339, 7.3620228 ], [ 143.8690761, 7.3618465 ], [ 143.8694013, 7.3613197 ], [ 143.8695434, 7.3606335 ], [ 143.869386100000014, 7.3601508 ], [ 143.8694808, 7.359495 ], [ 143.8695933, 7.3590651 ], [ 143.8691761, 7.3589678 ], [ 143.868769, 7.3593218 ] ] ] ] } },
{ "type": "Feature", "properties": { "FID": 89045, "id": 2321, "left": 140.0, "top": 10.0, "right": 145.0, "bottom": 5.0, "row_index": 16, "col_index": 64, "min_lon": 140.0, "min_lat": 5.0, "tile_id": "140_5" }, "geometry": { "type": "MultiPolygon", "coordinates": [ [ [ [ 140.3579961, 8.1523391 ], [ 140.357999299999989, 8.1524789 ], [ 140.3579704, 8.1525806 ], [ 140.3578645, 8.1526473 ], [ 140.357630199999988, 8.1527173 ], [ 140.3574697, 8.152749 ], [ 140.357389399999988, 8.1527173 ], [ 140.357306, 8.1527045 ], [ 140.357245, 8.1527458 ], [ 140.357245, 8.152892 ], [ 140.357302800000014, 8.1531113 ], [ 140.35776820000001, 8.1534767 ], [ 140.3579929, 8.1535656 ], [ 140.3581694, 8.153572 ], [ 140.358272199999988, 8.1535402 ], [ 140.358423, 8.1534449 ], [ 140.3585578, 8.1532511 ], [ 140.358606, 8.1530223 ], [ 140.358660500000013, 8.1527872 ], [ 140.3586702, 8.1526315 ], [ 140.358705500000013, 8.1524122 ], [ 140.3586894, 8.152247 ], [ 140.358660500000013, 8.1520913 ], [ 140.358606, 8.1520087 ], [ 140.3585065, 8.1519134 ], [ 140.3584038, 8.1518593 ], [ 140.3583396, 8.1517799 ], [ 140.3583299, 8.1517227 ], [ 140.3583973, 8.1517227 ], [ 140.358468, 8.1517132 ], [ 140.3584615, 8.1516941 ], [ 140.3584294, 8.1516274 ], [ 140.3583107, 8.1515289 ], [ 140.3580186, 8.1513859 ], [ 140.35794150000001, 8.1513986 ], [ 140.3579672, 8.1515225 ], [ 140.3579801, 8.1516909 ], [ 140.3579704, 8.1518307 ], [ 140.358025, 8.1519451 ], [ 140.3580828, 8.1520786 ], [ 140.358086, 8.1521358 ], [ 140.3580507, 8.1521803 ], [ 140.3579961, 8.1523391 ] ] ] ] } },
{ "type": "Feature", "properties": { "FID": 89055, "id": 2321, "left": 140.0, "top": 10.0, "right": 145.0, "bottom": 5.0, "row_index": 16, "col_index": 64, "min_lon": 140.0, "min_lat": 5.0, "tile_id": "140_5" }, "geometry": { "type": "MultiPolygon", "coordinates": [ [ [ [ 143.8881853, 7.3707915 ], [ 143.888900400000011, 7.3709383 ], [ 143.8891937, 7.3709843 ], [ 143.890422, 7.3710117 ], [ 143.8909014, 7.3709802 ], [ 143.8911553, 7.3709543 ], [ 143.89138650000001, 7.3708824 ], [ 143.891831700000012, 7.3707397 ], [ 143.8919435, 7.370643 ], [ 143.8920176, 7.3705997 ], [ 143.892157, 7.3704091 ], [ 143.8922278, 7.3702165 ], [ 143.8923576, 7.3699432 ], [ 143.8926075, 7.3695994 ], [ 143.8927148, 7.3695031 ], [ 143.8927332, 7.3694462 ], [ 143.8927165, 7.3694088 ], [ 143.8925539, 7.3693653 ], [ 143.8923526, 7.3692983 ], [ 143.892187799999988, 7.3692231 ], [ 143.8917194, 7.36908 ], [ 143.891361, 7.3689487 ], [ 143.8912028, 7.3688806 ], [ 143.8910468, 7.3687621 ], [ 143.8906361, 7.3684802 ], [ 143.889363300000014, 7.3678358 ], [ 143.8886105, 7.3674359 ], [ 143.888054399999987, 7.3669711 ], [ 143.887709199999989, 7.3667213 ], [ 143.8874674, 7.3663342 ], [ 143.887282, 7.3661682 ], [ 143.8871945, 7.3661916 ], [ 143.8871129, 7.366271 ], [ 143.887049499999989, 7.3664971 ], [ 143.8869733, 7.3668812 ], [ 143.8869386, 7.367012 ], [ 143.886746499999987, 7.3675055 ], [ 143.88665610000001, 7.3677949 ], [ 143.8865628, 7.3680638 ], [ 143.8865544, 7.3684306 ], [ 143.886573199999987, 7.3686867 ], [ 143.8866535, 7.3690398 ], [ 143.886742700000013, 7.3693221 ], [ 143.8869507, 7.3698278 ], [ 143.8871351, 7.3701025 ], [ 143.887266399999987, 7.3702277 ], [ 143.887540300000012, 7.3704325 ], [ 143.8878683, 7.3706359 ], [ 143.8881853, 7.3707915 ] ] ] ] } },
{ "type": "Feature", "properties": { "FID": 89056, "id": 2321, "left": 140.0, "top": 10.0, "right": 145.0, "bottom": 5.0, "row_index": 16, "col_index": 64, "min_lon": 140.0, "min_lat": 5.0, "tile_id": "140_5" }, "geometry": { "type": "MultiPolygon", "coordinates": [ [ [ [ 144.509193900000014, 8.5970439 ], [ 144.5090386, 8.5971167 ], [ 144.5090151, 8.5971249 ], [ 144.5081633, 8.5974214 ], [ 144.508088500000014, 8.5974503 ], [ 144.507463199999989, 8.5976914 ], [ 144.507422100000014, 8.5977138 ], [ 144.50684, 8.5980306 ], [ 144.5067986, 8.598061 ], [ 144.5061608, 8.5985291 ], [ 144.5059228, 8.5988129 ], [ 144.505873799999989, 8.599166 ], [ 144.5058273, 8.5994822 ], [ 144.505862, 8.5996193 ], [ 144.5059561, 8.5996584 ], [ 144.5060699, 8.5996633 ], [ 144.5062828, 8.5999815 ], [ 144.5063289, 8.6002183 ], [ 144.5062869, 8.6004606 ], [ 144.5063499, 8.6005021 ], [ 144.506425299999989, 8.6006974 ], [ 144.5066155, 8.6008763 ], [ 144.506868, 8.6010768 ], [ 144.5072251, 8.6011737 ], [ 144.5077642, 8.6011321 ], [ 144.508121100000011, 8.6011542 ], [ 144.508268, 8.6011622 ], [ 144.508556, 8.601182 ], [ 144.5089481, 8.6011265 ], [ 144.5091856, 8.6010283 ], [ 144.509479700000014, 8.6008898 ], [ 144.509703699999989, 8.600696 ], [ 144.5098508, 8.600426 ], [ 144.5098998, 8.6000591 ], [ 144.5100048, 8.5996644 ], [ 144.5101098, 8.5993252 ], [ 144.510130800000013, 8.5987852 ], [ 144.5102219, 8.5984529 ], [ 144.5101659, 8.5982175 ], [ 144.510232, 8.5979676 ], [ 144.5102963, 8.5976079 ], [ 144.5101966, 8.5974343 ], [ 144.510083, 8.5972812 ], [ 144.509831, 8.5970218 ], [ 144.5097089, 8.5969464 ], [ 144.5095847, 8.5968606 ], [ 144.509193900000014, 8.5970439 ] ] ] ] } },
{ "type": "Feature", "properties": { "FID": 89059, "id": 2321, "left": 140.0, "top": 10.0, "right": 145.0, "bottom": 5.0, "row_index": 16, "col_index": 64, "min_lon": 140.0, "min_lat": 5.0, "tile_id": "140_5" }, "geometry": { "type": "MultiPolygon", "coordinates": [ [ [ [ 140.3368348, 8.1546025 ], [ 140.33663580000001, 8.1545008 ], [ 140.3365331, 8.1543419 ], [ 140.3365267, 8.1542402 ], [ 140.336578, 8.1540877 ], [ 140.3365202, 8.1540432 ], [ 140.336430400000012, 8.1540559 ], [ 140.3363276, 8.1541958 ], [ 140.3362956, 8.1544245 ], [ 140.336379, 8.154666 ], [ 140.3365652, 8.1549774 ], [ 140.3369825, 8.1554349 ], [ 140.3373676, 8.1557718 ], [ 140.3377079, 8.1559942 ], [ 140.3379133, 8.156045 ], [ 140.3382921, 8.1561149 ], [ 140.3387222, 8.1560323 ], [ 140.339056, 8.1559116 ], [ 140.3393321, 8.1559052 ], [ 140.3397751, 8.1560259 ], [ 140.3400447, 8.1560768 ], [ 140.3403721, 8.1562738 ], [ 140.34069310000001, 8.1564263 ], [ 140.3410654, 8.156547 ], [ 140.341431300000011, 8.1565153 ], [ 140.3416753, 8.1563818 ], [ 140.3419385, 8.1561785 ], [ 140.3423173, 8.1558353 ], [ 140.342497, 8.1557273 ], [ 140.3426896, 8.1557018 ], [ 140.342805199999987, 8.1556002 ], [ 140.342946399999988, 8.1554413 ], [ 140.3430555, 8.1551808 ], [ 140.3430363, 8.1549266 ], [ 140.342946399999988, 8.1547613 ], [ 140.3427859, 8.1548058 ], [ 140.3427025, 8.154971 ], [ 140.3427153, 8.1551108 ], [ 140.3425355, 8.1551744 ], [ 140.3421825, 8.1551172 ], [ 140.3417074, 8.1549647 ], [ 140.340988399999986, 8.1547613 ], [ 140.340173099999987, 8.154577 ], [ 140.3395054, 8.154469 ], [ 140.339178, 8.1544309 ], [ 140.338934099999989, 8.1543101 ], [ 140.338561700000014, 8.1542593 ], [ 140.338150899999988, 8.154272 ], [ 140.3377336, 8.1544754 ], [ 140.3371751, 8.1546597 ], [ 140.3368348, 8.1546025 ] ] ] ] } },
{ "type": "Feature", "properties": { "FID": 89071, "id": 2321, "left": 140.0, "top": 10.0, "right": 145.0, "bottom": 5.0, "row_index": 16, "col_index": 64, "min_lon": 140.0, "min_lat": 5.0, "tile_id": "140_5" }, "geometry": { "type": "MultiPolygon", "coordinates": [ [ [ [ 143.8256151, 7.3632008 ], [ 143.8258243, 7.3629805 ], [ 143.8257677, 7.3625908 ], [ 143.82550040000001, 7.3620783 ], [ 143.8251598, 7.361921 ], [ 143.824970900000011, 7.3617507 ], [ 143.8249629, 7.3613836 ], [ 143.8249333, 7.3611457 ], [ 143.8245245, 7.3603818 ], [ 143.8241207, 7.3599968 ], [ 143.823801800000012, 7.3599294 ], [ 143.8235244, 7.3604063 ], [ 143.823302899999987, 7.3607622 ], [ 143.823318, 7.3612291 ], [ 143.8234201, 7.3615038 ], [ 143.8238897, 7.3617609 ], [ 143.824353800000011, 7.3618916 ], [ 143.8246902, 7.3619164 ], [ 143.8246871, 7.3621034 ], [ 143.8244223, 7.3624722 ], [ 143.8242873, 7.3630211 ], [ 143.8245053, 7.363123 ], [ 143.824937299999988, 7.3631689 ], [ 143.8252841, 7.3631933 ], [ 143.8254786, 7.363221 ], [ 143.8256151, 7.3632008 ] ] ] ] } },
{ "type": "Feature", "properties": { "FID": 89074, "id": 2321, "left": 140.0, "top": 10.0, "right": 145.0, "bottom": 5.0, "row_index": 16, "col_index": 64, "min_lon": 140.0, "min_lat": 5.0, "tile_id": "140_5" }, "geometry": { "type": "MultiPolygon", "coordinates": [ [ [ [ 143.8234601, 7.3470898 ], [ 143.8230594, 7.3474323 ], [ 143.822771100000011, 7.3476766 ], [ 143.8224218, 7.3480121 ], [ 143.8224185, 7.348313 ], [ 143.822410100000013, 7.348594 ], [ 143.8223875, 7.3488366 ], [ 143.8223969, 7.3490475 ], [ 143.82250590000001, 7.3494114 ], [ 143.8226228, 7.3495375 ], [ 143.8230646, 7.349534 ], [ 143.8234267, 7.3492904 ], [ 143.823836, 7.3488945 ], [ 143.824503099999987, 7.3485116 ], [ 143.825111600000014, 7.3482519 ], [ 143.8258296, 7.3479983 ], [ 143.8265865, 7.3479748 ], [ 143.8260095, 7.3476586 ], [ 143.824898499999989, 7.3472037 ], [ 143.824015800000012, 7.3470337 ], [ 143.8234601, 7.3470898 ] ] ] ] } },
{ "type": "Feature", "properties": { "FID": 89075, "id": 2321, "left": 140.0, "top": 10.0, "right": 145.0, "bottom": 5.0, "row_index": 16, "col_index": 64, "min_lon": 140.0, "min_lat": 5.0, "tile_id": "140_5" }, "geometry": { "type": "MultiPolygon", "coordinates": [ [ [ [ 143.8300312, 7.3515859 ], [ 143.8300346, 7.3521009 ], [ 143.8305504, 7.3520977 ], [ 143.8308034, 7.3513236 ], [ 143.8300312, 7.3515859 ] ] ] ] } },
{ "type": "Feature", "properties": { "FID": 89085, "id": 2321, "left": 140.0, "top": 10.0, "right": 145.0, "bottom": 5.0, "row_index": 16, "col_index": 64, "min_lon": 140.0, "min_lat": 5.0, "tile_id": "140_5" }, "geometry": { "type": "MultiPolygon", "coordinates": [ [ [ [ 143.859402, 7.3676858 ], [ 143.859518799999989, 7.3673733 ], [ 143.859473900000012, 7.366992 ], [ 143.8593587, 7.366618 ], [ 143.8586837, 7.3663932 ], [ 143.85821820000001, 7.366795 ], [ 143.8584123, 7.3675201 ], [ 143.858930500000014, 7.3679026 ], [ 143.8592433, 7.3679741 ], [ 143.859402, 7.3676858 ] ] ] ] } },
{ "type": "Feature", "properties": { "FID": 89094, "id": 2321, "left": 140.0, "top": 10.0, "right": 145.0, "bottom": 5.0, "row_index": 16, "col_index": 64, "min_lon": 140.0, "min_lat": 5.0, "tile_id": "140_5" }, "geometry": { "type": "MultiPolygon", "coordinates": [ [ [ [ 143.9116931, 7.3801536 ], [ 143.911743300000012, 7.3797343 ], [ 143.91178690000001, 7.3795781 ], [ 143.9118614, 7.379297 ], [ 143.9116759, 7.3791419 ], [ 143.911792100000014, 7.3786696 ], [ 143.9118655, 7.3782879 ], [ 143.9119177, 7.3776184 ], [ 143.9119236, 7.3771794 ], [ 143.91198, 7.3766402 ], [ 143.911985499999986, 7.3763695 ], [ 143.911927100000014, 7.3754964 ], [ 143.9119235, 7.3745629 ], [ 143.911910400000011, 7.3741084 ], [ 143.9118085, 7.3728739 ], [ 143.911817899999988, 7.3722164 ], [ 143.9118532, 7.3717503 ], [ 143.9118956, 7.3714036 ], [ 143.9119096, 7.3709568 ], [ 143.911892, 7.3702939 ], [ 143.911906, 7.370157 ], [ 143.9119493, 7.3698849 ], [ 143.9120106, 7.3690902 ], [ 143.9119906, 7.3684365 ], [ 143.911939, 7.3679487 ], [ 143.911786799999987, 7.3671962 ], [ 143.9116266, 7.3660341 ], [ 143.911466499999989, 7.36542 ], [ 143.911277899999988, 7.3649305 ], [ 143.911009799999988, 7.3646149 ], [ 143.910901200000012, 7.3644098 ], [ 143.9107862, 7.3642799 ], [ 143.9105984, 7.3641536 ], [ 143.910429599999986, 7.3640587 ], [ 143.9103572, 7.3640378 ], [ 143.910307, 7.3640713 ], [ 143.9102762, 7.3641382 ], [ 143.910270700000012, 7.3642347 ], [ 143.9102052, 7.3643406 ], [ 143.9100995, 7.3644586 ], [ 143.9099517, 7.3645808 ], [ 143.9097123, 7.3649065 ], [ 143.9094193, 7.3653446 ], [ 143.9090861, 7.3657175 ], [ 143.9087793, 7.3660489 ], [ 143.9084157, 7.3663364 ], [ 143.9081938, 7.3664565 ], [ 143.9081046, 7.3664952 ], [ 143.9079135, 7.366535 ], [ 143.9078533, 7.3665081 ], [ 143.9076762, 7.3665671 ], [ 143.9075934, 7.3666787 ], [ 143.9073316, 7.366908 ], [ 143.9071299, 7.3671529 ], [ 143.907004, 7.3674047 ], [ 143.906906600000013, 7.3676534 ], [ 143.9068316, 7.368038 ], [ 143.9067538, 7.3681945 ], [ 143.9066569, 7.3682946 ], [ 143.9064381, 7.3684574 ], [ 143.905766699999987, 7.3690584 ], [ 143.9050981, 7.3696872 ], [ 143.904918900000013, 7.3698118 ], [ 143.9043599, 7.3700984 ], [ 143.903696700000012, 7.3703537 ], [ 143.9033617, 7.3704197 ], [ 143.9030861, 7.3704416 ], [ 143.9019107, 7.3704666 ], [ 143.9011711, 7.3704721 ], [ 143.9004694, 7.3704244 ], [ 143.9001783, 7.3703222 ], [ 143.9000656, 7.3702789 ], [ 143.8997735, 7.3701668 ], [ 143.899507, 7.3701251 ], [ 143.8994538, 7.3701546 ], [ 143.899351599999989, 7.3702695 ], [ 143.899315699999988, 7.3703218 ], [ 143.899326, 7.3703699 ], [ 143.89947810000001, 7.3705285 ], [ 143.8996333, 7.3707453 ], [ 143.8998075, 7.3709528 ], [ 143.9000025, 7.3712577 ], [ 143.9005511, 7.3716691 ], [ 143.901086600000014, 7.3720117 ], [ 143.901452, 7.3723061 ], [ 143.902178, 7.3730149 ], [ 143.9032516, 7.374182 ], [ 143.9037504, 7.3748955 ], [ 143.903962799999988, 7.3752305 ], [ 143.904030799999987, 7.3753974 ], [ 143.9041512, 7.375576 ], [ 143.9043225, 7.3756858 ], [ 143.9046232, 7.3760485 ], [ 143.904755200000011, 7.3762762 ], [ 143.9048735, 7.3765789 ], [ 143.9052072, 7.377329 ], [ 143.9055434, 7.3781706 ], [ 143.9056651, 7.3787311 ], [ 143.90573040000001, 7.3793546 ], [ 143.9058245, 7.3797001 ], [ 143.9060503, 7.3801024 ], [ 143.90661, 7.3809479 ], [ 143.9073947, 7.3816286 ], [ 143.907877, 7.381912 ], [ 143.908424200000013, 7.3821955 ], [ 143.908916799999986, 7.3823164 ], [ 143.9093795, 7.3822754 ], [ 143.909692799999988, 7.3822233 ], [ 143.9099414, 7.3821296 ], [ 143.9101899, 7.3820109 ], [ 143.910469, 7.3818274 ], [ 143.9107196, 7.3816313 ], [ 143.9109814, 7.3813969 ], [ 143.911240099999986, 7.3810904 ], [ 143.9114543, 7.380728 ], [ 143.91164280000001, 7.3802286 ], [ 143.9116931, 7.3801536 ] ] ] ] } },
{ "type": "Feature", "properties": { "FID": 89097, "id": 2321, "left": 140.0, "top": 10.0, "right": 145.0, "bottom": 5.0, "row_index": 16, "col_index": 64, "min_lon": 140.0, "min_lat": 5.0, "tile_id": "140_5" }, "geometry": { "type": "MultiPolygon", "coordinates": [ [ [ [ 144.4603573, 7.2389341 ], [ 144.4596699, 7.2392718 ], [ 144.4592074, 7.2395713 ], [ 144.458783399999987, 7.2399601 ], [ 144.4584237, 7.2404125 ], [ 144.4580254, 7.2409669 ], [ 144.4575501, 7.2415468 ], [ 144.4572289, 7.2420184 ], [ 144.4567985, 7.2424517 ], [ 144.4563167, 7.2429297 ], [ 144.4556744, 7.2433375 ], [ 144.4551155, 7.2436497 ], [ 144.4549934, 7.2438919 ], [ 144.45445380000001, 7.24451 ], [ 144.4538629, 7.2452938 ], [ 144.4536637, 7.2455232 ], [ 144.4536252, 7.2457399 ], [ 144.4537023, 7.2461223 ], [ 144.4538243, 7.2464664 ], [ 144.4537729, 7.2467468 ], [ 144.4533328, 7.2472373 ], [ 144.4532012, 7.247486 ], [ 144.4531049, 7.2477409 ], [ 144.4532269, 7.2479957 ], [ 144.4535031, 7.2483972 ], [ 144.4539335, 7.2491938 ], [ 144.4542162, 7.2502834 ], [ 144.4542162, 7.250927 ], [ 144.4539656, 7.2522589 ], [ 144.453560900000014, 7.2535142 ], [ 144.4530344, 7.2544473 ], [ 144.452668, 7.2551774 ], [ 144.4521092, 7.2558337 ], [ 144.451730199999986, 7.2563435 ], [ 144.4514283, 7.2566175 ], [ 144.4511071, 7.2567896 ], [ 144.4508122, 7.2568264 ], [ 144.4500491, 7.2567994 ], [ 144.4496494, 7.2569616 ], [ 144.4492769, 7.257295 ], [ 144.4488863, 7.2576285 ], [ 144.448259400000012, 7.2578718 ], [ 144.4476599, 7.2579529 ], [ 144.447151100000013, 7.2579799 ], [ 144.4469149, 7.2581061 ], [ 144.4469149, 7.2584395 ], [ 144.4470239, 7.2589802 ], [ 144.4473237, 7.2594488 ], [ 144.4476417, 7.2597462 ], [ 144.4480777, 7.2600797 ], [ 144.448704600000013, 7.2602148 ], [ 144.449722, 7.2601968 ], [ 144.4504306, 7.2600797 ], [ 144.4512028, 7.2602058 ], [ 144.4518416, 7.2602352 ], [ 144.4529186, 7.2600267 ], [ 144.453972099999987, 7.2594787 ], [ 144.454608, 7.2587459 ], [ 144.455064099999987, 7.2579939 ], [ 144.4556019, 7.2565223 ], [ 144.455989100000011, 7.2557764 ], [ 144.456310300000013, 7.254349 ], [ 144.4565416, 7.2533422 ], [ 144.456830599999989, 7.2521888 ], [ 144.4568692, 7.2515006 ], [ 144.4569655, 7.2508761 ], [ 144.4572739, 7.2501815 ], [ 144.457614299999989, 7.2493467 ], [ 144.4578682, 7.2488476 ], [ 144.457967599999989, 7.2486521 ], [ 144.4582567, 7.2479257 ], [ 144.4586036, 7.2473776 ], [ 144.458860499999986, 7.2470144 ], [ 144.459201, 7.2468041 ], [ 144.4598177, 7.2464409 ], [ 144.4607298, 7.2456507 ], [ 144.4612951, 7.2450389 ], [ 144.461899, 7.2442742 ], [ 144.462252299999989, 7.2438091 ], [ 144.4627854, 7.2432037 ], [ 144.463241399999987, 7.2424966 ], [ 144.4635499, 7.2420184 ], [ 144.4638261, 7.2413811 ], [ 144.4639353, 7.2408458 ], [ 144.4639546, 7.2402914 ], [ 144.463883900000013, 7.2398581 ], [ 144.4635242, 7.2391253 ], [ 144.4631901, 7.238762 ], [ 144.4626634, 7.2385836 ], [ 144.4616998, 7.23859 ], [ 144.4603573, 7.2389341 ] ] ] ] } },
{ "type": "Feature", "properties": { "FID": 89118, "id": 2321, "left": 140.0, "top": 10.0, "right": 145.0, "bottom": 5.0, "row_index": 16, "col_index": 64, "min_lon": 140.0, "min_lat": 5.0, "tile_id": "140_5" }, "geometry": { "type": "MultiPolygon", "coordinates": [ [ [ [ 143.8463027, 7.3739971 ], [ 143.8465353, 7.3746688 ], [ 143.8467468, 7.375061 ], [ 143.84701530000001, 7.3754992 ], [ 143.8477349, 7.3757813 ], [ 143.8489521, 7.3758443 ], [ 143.8512193, 7.3756782 ], [ 143.8522826, 7.3753032 ], [ 143.8535573, 7.3749466 ], [ 143.8546134, 7.3744178 ], [ 143.85558420000001, 7.373738 ], [ 143.8562404, 7.3731967 ], [ 143.856711499999989, 7.3723465 ], [ 143.856976300000014, 7.3719076 ], [ 143.857171099999988, 7.3712771 ], [ 143.8571023, 7.3709485 ], [ 143.8569408, 7.3703435 ], [ 143.85658380000001, 7.3696996 ], [ 143.856052, 7.3692554 ], [ 143.8554186, 7.3689346 ], [ 143.855423699999989, 7.3696077 ], [ 143.855304100000012, 7.3703375 ], [ 143.854528, 7.3708921 ], [ 143.8533727, 7.3716509 ], [ 143.852413899999988, 7.3719219 ], [ 143.851744599999989, 7.372085 ], [ 143.8514883, 7.3720797 ], [ 143.8512599, 7.3723571 ], [ 143.8498641, 7.3727048 ], [ 143.84886370000001, 7.3727143 ], [ 143.8479404, 7.3729206 ], [ 143.847189899999989, 7.3728495 ], [ 143.8463925, 7.3732695 ], [ 143.846133400000014, 7.3735951 ], [ 143.8463027, 7.3739971 ] ] ] ] } },
{ "type": "Feature", "properties": { "FID": 89138, "id": 2321, "left": 140.0, "top": 10.0, "right": 145.0, "bottom": 5.0, "row_index": 16, "col_index": 64, "min_lon": 140.0, "min_lat": 5.0, "tile_id": "140_5" }, "geometry": { "type": "MultiPolygon", "coordinates": [ [ [ [ 143.890674, 7.3443156 ], [ 143.890417500000012, 7.3443848 ], [ 143.890344700000014, 7.3446033 ], [ 143.8904915, 7.3448338 ], [ 143.8909014, 7.3448343 ], [ 143.8910622, 7.3445722 ], [ 143.8909333, 7.3443814 ], [ 143.890674, 7.3443156 ] ] ] ] } },
{ "type": "Feature", "properties": { "FID": 89139, "id": 2321, "left": 140.0, "top": 10.0, "right": 145.0, "bottom": 5.0, "row_index": 16, "col_index": 64, "min_lon": 140.0, "min_lat": 5.0, "tile_id": "140_5" }, "geometry": { "type": "MultiPolygon", "coordinates": [ [ [ [ 144.436048, 7.2473005 ], [ 144.435935699999987, 7.247266 ], [ 144.435831400000012, 7.2472377 ], [ 144.43574910000001, 7.2472079 ], [ 144.4356321, 7.2471797 ], [ 144.4355515, 7.2471687 ], [ 144.4354756, 7.2471075 ], [ 144.4353839, 7.2470495 ], [ 144.4353001, 7.2470542 ], [ 144.43524, 7.2471279 ], [ 144.4352558, 7.2472158 ], [ 144.435259, 7.2473115 ], [ 144.4352384, 7.2473726 ], [ 144.4351483, 7.2474275 ], [ 144.4350834, 7.2474605 ], [ 144.435089799999986, 7.2475593 ], [ 144.435134, 7.2476236 ], [ 144.435230499999989, 7.247633 ], [ 144.435327, 7.2476158 ], [ 144.4354123, 7.247564 ], [ 144.435527799999988, 7.247575 ], [ 144.435659, 7.2476032 ], [ 144.435788699999989, 7.247644 ], [ 144.4359294, 7.2476471 ], [ 144.436015200000014, 7.2476379 ], [ 144.4360749, 7.2476315 ], [ 144.4361666, 7.2475985 ], [ 144.436223500000011, 7.2475593 ], [ 144.4362425, 7.2474981 ], [ 144.4361619, 7.2474009 ], [ 144.436048, 7.2473005 ] ] ] ] } },
{ "type": "Feature", "properties": { "FID": 89160, "id": 2321, "left": 140.0, "top": 10.0, "right": 145.0, "bottom": 5.0, "row_index": 16, "col_index": 64, "min_lon": 140.0, "min_lat": 5.0, "tile_id": "140_5" }, "geometry": { "type": "MultiPolygon", "coordinates": [ [ [ [ 140.5231837, 9.7606732 ], [ 140.5226509, 9.7599988 ], [ 140.522279200000014, 9.7596689 ], [ 140.5219497, 9.7593688 ], [ 140.520292399999988, 9.7569034 ], [ 140.5187589, 9.7556132 ], [ 140.5158473, 9.7541904 ], [ 140.5139421, 9.7534964 ], [ 140.51273470000001, 9.7534206 ], [ 140.5109751, 9.7533883 ], [ 140.5089428, 9.7540767 ], [ 140.508578300000011, 9.754848 ], [ 140.508697399999988, 9.7552659 ], [ 140.5087873, 9.7558814 ], [ 140.5088471, 9.7559257 ], [ 140.5088174, 9.7559653 ], [ 140.508746699999989, 9.7560784 ], [ 140.508776399999988, 9.756205 ], [ 140.508702, 9.7562433 ], [ 140.508615, 9.756391 ], [ 140.5085664, 9.7566521 ], [ 140.508579700000013, 9.7567216 ], [ 140.508470100000011, 9.7567282 ], [ 140.508404399999989, 9.7568822 ], [ 140.508361799999989, 9.7570267 ], [ 140.508273300000013, 9.7572139 ], [ 140.5082999, 9.757321 ], [ 140.5083433, 9.757321 ], [ 140.5083114, 9.7574928 ], [ 140.5082148, 9.7576039 ], [ 140.508298, 9.7579515 ], [ 140.5082548, 9.7582497 ], [ 140.5083397, 9.759019 ], [ 140.508466, 9.7590009 ], [ 140.508575, 9.7595199 ], [ 140.5088136, 9.7604652 ], [ 140.5091136, 9.7611179 ], [ 140.5092993, 9.7611777 ], [ 140.5093426, 9.7614018 ], [ 140.5093266, 9.7615123 ], [ 140.5094531, 9.7616827 ], [ 140.509522, 9.7618658 ], [ 140.5097557, 9.7620019 ], [ 140.5102105, 9.7619245 ], [ 140.510337, 9.7620887 ], [ 140.510542, 9.7622118 ], [ 140.5107243, 9.7621559 ], [ 140.510975, 9.7624191 ], [ 140.511184899999989, 9.7626848 ], [ 140.5116347, 9.7633107 ], [ 140.5121225, 9.7638288 ], [ 140.512743699999987, 9.7645693 ], [ 140.5133611, 9.7656133 ], [ 140.5129303, 9.7660602 ], [ 140.5127378, 9.7663356 ], [ 140.5127698, 9.7663927 ], [ 140.5128637, 9.7664215 ], [ 140.513123, 9.7664206 ], [ 140.513251700000012, 9.7665321 ], [ 140.513484799999986, 9.7663809 ], [ 140.514021899999989, 9.7670846 ], [ 140.5144655, 9.7674368 ], [ 140.515254700000014, 9.7683551 ], [ 140.5163389, 9.7692859 ], [ 140.5174365, 9.7700205 ], [ 140.5181154, 9.770268 ], [ 140.5185835, 9.7704243 ], [ 140.5189818, 9.7706232 ], [ 140.5194131, 9.7706689 ], [ 140.51992820000001, 9.7708794 ], [ 140.5205019, 9.7709318 ], [ 140.5218111, 9.770615 ], [ 140.521881, 9.77067 ], [ 140.522098699999987, 9.7706606 ], [ 140.522226499999988, 9.7708022 ], [ 140.522504, 9.7708121 ], [ 140.522613799999988, 9.7706193 ], [ 140.5228094, 9.7705957 ], [ 140.5229591, 9.7704619 ], [ 140.5232385, 9.7704297 ], [ 140.523547400000012, 9.7705374 ], [ 140.523690499999987, 9.770703 ], [ 140.523976, 9.7705417 ], [ 140.52429140000001, 9.7705732 ], [ 140.5245109, 9.7709914 ], [ 140.5246349, 9.7710473 ], [ 140.5247867, 9.7711931 ], [ 140.525056299999989, 9.7712834 ], [ 140.5250997, 9.7714086 ], [ 140.5252361, 9.771433 ], [ 140.525412100000011, 9.7712306 ], [ 140.5255836, 9.7714615 ], [ 140.5258009, 9.7715365 ], [ 140.52589660000001, 9.7716876 ], [ 140.5260149, 9.7716923 ], [ 140.52614, 9.7718285 ], [ 140.5262622, 9.7721821 ], [ 140.5263749, 9.7721869 ], [ 140.526509299999987, 9.7720646 ], [ 140.5266512, 9.7719663 ], [ 140.526992799999988, 9.7719956 ], [ 140.5273393, 9.771856 ], [ 140.527505600000012, 9.7716372 ], [ 140.5276017, 9.7715998 ], [ 140.52748, 9.7714918 ], [ 140.527539100000013, 9.7713024 ], [ 140.527836900000011, 9.7710998 ], [ 140.5280688, 9.7709466 ], [ 140.528037399999988, 9.7707819 ], [ 140.5281891, 9.7706382 ], [ 140.5284279, 9.7705821 ], [ 140.5285475, 9.7703687 ], [ 140.5288305, 9.7704213 ], [ 140.529039, 9.7703781 ], [ 140.529078, 9.770229 ], [ 140.5294388, 9.7700335 ], [ 140.529446400000012, 9.7697707 ], [ 140.5295964, 9.7697466 ], [ 140.5299522, 9.7689242 ], [ 140.5299139, 9.768649 ], [ 140.530282, 9.7683571 ], [ 140.530057699999986, 9.7681668 ], [ 140.530184600000013, 9.7680889 ], [ 140.530343499999987, 9.7677228 ], [ 140.530444100000011, 9.7671456 ], [ 140.5301115, 9.7669493 ], [ 140.5303101, 9.7668429 ], [ 140.5299879, 9.7665227 ], [ 140.5296156, 9.7664346 ], [ 140.5294233, 9.7663461 ], [ 140.5289655, 9.7663258 ], [ 140.5286711, 9.7662355 ], [ 140.5284988, 9.7661105 ], [ 140.5282157, 9.766092 ], [ 140.5274435, 9.7659011 ], [ 140.5267809, 9.7655467 ], [ 140.5261797, 9.765431 ], [ 140.5253712, 9.7650052 ], [ 140.525087500000012, 9.7639669 ], [ 140.52461310000001, 9.7628494 ], [ 140.5231837, 9.7606732 ] ] ] ] } },
{ "type": "Feature", "properties": { "FID": 89197, "id": 2321, "left": 140.0, "top": 10.0, "right": 145.0, "bottom": 5.0, "row_index": 16, "col_index": 64, "min_lon": 140.0, "min_lat": 5.0, "tile_id": "140_5" }, "geometry": { "type": "MultiPolygon", "coordinates": [ [ [ [ 143.8395858, 7.3237035 ], [ 143.8387257, 7.3239859 ], [ 143.8378552, 7.3244992 ], [ 143.837223200000011, 7.3247809 ], [ 143.8366149, 7.3251628 ], [ 143.8361865, 7.3257972 ], [ 143.835800400000011, 7.3262627 ], [ 143.835550399999988, 7.3270886 ], [ 143.8355521, 7.3273463 ], [ 143.83569, 7.3277566 ], [ 143.8353775, 7.3284469 ], [ 143.8355398, 7.3290176 ], [ 143.836077499999988, 7.3288879 ], [ 143.8367146, 7.3285813 ], [ 143.8378626, 7.3286558 ], [ 143.8387531, 7.3286398 ], [ 143.8396134, 7.3282241 ], [ 143.8400461, 7.3278318 ], [ 143.8403049, 7.3278007 ], [ 143.84079890000001, 7.3276996 ], [ 143.841104699999988, 7.327684 ], [ 143.8414732, 7.327754 ], [ 143.8418888, 7.3277696 ], [ 143.8420065, 7.327824 ], [ 143.842545199999989, 7.3279223 ], [ 143.8432765, 7.327351 ], [ 143.844049399999989, 7.3270537 ], [ 143.8444945, 7.3263661 ], [ 143.8450555, 7.3257451 ], [ 143.845378399999987, 7.3254049 ], [ 143.8452251, 7.3247234 ], [ 143.8444907, 7.3243363 ], [ 143.843275299999988, 7.3240199 ], [ 143.8406339, 7.3235821 ], [ 143.8395858, 7.3237035 ] ] ] ] } },
{ "type": "Feature", "properties": { "FID": 89205, "id": 2321, "left": 140.0, "top": 10.0, "right": 145.0, "bottom": 5.0, "row_index": 16, "col_index": 64, "min_lon": 140.0, "min_lat": 5.0, "tile_id": "140_5" }, "geometry": { "type": "MultiPolygon", "coordinates": [ [ [ [ 144.4414164, 7.2415348 ], [ 144.4414639, 7.2416132 ], [ 144.44160930000001, 7.2415975 ], [ 144.4418497, 7.2415505 ], [ 144.4420173, 7.2415442 ], [ 144.4422861, 7.2416164 ], [ 144.4424759, 7.2417011 ], [ 144.4425549, 7.241814 ], [ 144.4425929, 7.242043 ], [ 144.4427542, 7.2424132 ], [ 144.442902800000013, 7.2426674 ], [ 144.4430451, 7.2428619 ], [ 144.443279100000012, 7.2430689 ], [ 144.4435226, 7.243207 ], [ 144.4437915, 7.2434203 ], [ 144.4440854, 7.2436423 ], [ 144.4445125, 7.243825 ], [ 144.4447845, 7.2438815 ], [ 144.4450248, 7.2439034 ], [ 144.4452557, 7.2438846 ], [ 144.4453474, 7.243985 ], [ 144.4455213, 7.2439599 ], [ 144.4457143, 7.2439442 ], [ 144.4459167, 7.2440383 ], [ 144.4460621, 7.2440289 ], [ 144.4463752, 7.244076 ], [ 144.446618699999988, 7.2440823 ], [ 144.4467168, 7.2440164 ], [ 144.4468053, 7.2440446 ], [ 144.4468622, 7.2440007 ], [ 144.446900199999988, 7.2438972 ], [ 144.44697930000001, 7.2436995 ], [ 144.4470583, 7.2436399 ], [ 144.4471121, 7.2434925 ], [ 144.4471524, 7.2434061 ], [ 144.4472486, 7.2434061 ], [ 144.447510200000011, 7.2434305 ], [ 144.4477316, 7.2434372 ], [ 144.447852399999988, 7.2434616 ], [ 144.4478971, 7.2435037 ], [ 144.447953, 7.2435171 ], [ 144.4479955, 7.2434638 ], [ 144.448, 7.2433817 ], [ 144.447934299999986, 7.2432383 ], [ 144.4477129, 7.2430658 ], [ 144.4474347, 7.2428525 ], [ 144.4469729, 7.2426015 ], [ 144.446577600000012, 7.2424383 ], [ 144.446217100000013, 7.2421811 ], [ 144.4457807, 7.2420274 ], [ 144.4453379, 7.2420305 ], [ 144.4447908, 7.2420023 ], [ 144.444348100000013, 7.2418454 ], [ 144.443763, 7.2415034 ], [ 144.4434214, 7.2413309 ], [ 144.443007200000011, 7.241127 ], [ 144.442605500000013, 7.2410422 ], [ 144.4422671, 7.2410517 ], [ 144.442131100000012, 7.2410956 ], [ 144.4420426, 7.2412399 ], [ 144.4419952, 7.2413654 ], [ 144.4418718, 7.2414375 ], [ 144.4417042, 7.2414375 ], [ 144.4415366, 7.2414219 ], [ 144.4414291, 7.2414313 ], [ 144.4413911, 7.2414595 ], [ 144.4414164, 7.2415348 ] ] ] ] } },
{ "type": "Feature", "properties": { "FID": 89224, "id": 2321, "left": 140.0, "top": 10.0, "right": 145.0, "bottom": 5.0, "row_index": 16, "col_index": 64, "min_lon": 140.0, "min_lat": 5.0, "tile_id": "140_5" }, "geometry": { "type": "MultiPolygon", "coordinates": [ [ [ [ 144.514404399999989, 8.5764091 ], [ 144.5140543, 8.5766653 ], [ 144.513802199999986, 8.5770046 ], [ 144.5136832, 8.5773092 ], [ 144.5136762, 8.5776623 ], [ 144.5137952, 8.5779046 ], [ 144.5139938, 8.5780848 ], [ 144.514684499999987, 8.5784377 ], [ 144.515468700000014, 8.5790678 ], [ 144.5159938, 8.5794555 ], [ 144.516638, 8.579947 ], [ 144.5172891, 8.580494 ], [ 144.517786199999989, 8.5811863 ], [ 144.51793330000001, 8.5814771 ], [ 144.518108399999988, 8.5817593 ], [ 144.518186899999989, 8.5819624 ], [ 144.518336, 8.5821251 ], [ 144.518506699999989, 8.5820552 ], [ 144.5184671, 8.5817932 ], [ 144.518514, 8.5815361 ], [ 144.5185825, 8.5814107 ], [ 144.5186335, 8.5811586 ], [ 144.5187315, 8.580674 ], [ 144.518682500000011, 8.5802032 ], [ 144.5186055, 8.5798224 ], [ 144.518458399999986, 8.5795455 ], [ 144.518402400000014, 8.5791162 ], [ 144.5183394, 8.5788393 ], [ 144.518122299999987, 8.5783754 ], [ 144.517597200000012, 8.5777384 ], [ 144.517149100000012, 8.5772676 ], [ 144.5166029, 8.5767899 ], [ 144.5160498, 8.5763745 ], [ 144.5155737, 8.5762084 ], [ 144.5152096, 8.5761599 ], [ 144.5148385, 8.5762222 ], [ 144.514404399999989, 8.5764091 ] ] ] ] } },
{ "type": "Feature", "properties": { "FID": 89225, "id": 2321, "left": 140.0, "top": 10.0, "right": 145.0, "bottom": 5.0, "row_index": 16, "col_index": 64, "min_lon": 140.0, "min_lat": 5.0, "tile_id": "140_5" }, "geometry": { "type": "MultiPolygon", "coordinates": [ [ [ [ 140.4180461, 8.1124945 ], [ 140.4179066, 8.1126432 ], [ 140.417847599999988, 8.1128344 ], [ 140.4178584, 8.1131424 ], [ 140.4174237, 8.1136558 ], [ 140.4167175, 8.1143253 ], [ 140.415783, 8.1146894 ], [ 140.414865, 8.114812 ], [ 140.4141588, 8.1150099 ], [ 140.414910600000013, 8.1151233 ], [ 140.4158669, 8.1151694 ], [ 140.416000700000012, 8.1151936 ], [ 140.41611420000001, 8.1151861 ], [ 140.416512, 8.1151183 ], [ 140.416784400000012, 8.1149993 ], [ 140.4172003, 8.1146178 ], [ 140.4175955, 8.1143427 ], [ 140.4179023, 8.1141111 ], [ 140.4181477, 8.113426 ], [ 140.418089, 8.1131371 ], [ 140.41829820000001, 8.1128025 ], [ 140.4183304, 8.1125901 ], [ 140.4182506, 8.1124453 ], [ 140.4180461, 8.1124945 ] ] ] ] } },
{ "type": "Feature", "properties": { "FID": 89243, "id": 2321, "left": 140.0, "top": 10.0, "right": 145.0, "bottom": 5.0, "row_index": 16, "col_index": 64, "min_lon": 140.0, "min_lat": 5.0, "tile_id": "140_5" }, "geometry": { "type": "MultiPolygon", "coordinates": [ [ [ [ 143.880487, 7.3568683 ], [ 143.879030199999988, 7.3563159 ], [ 143.8771365, 7.3566133 ], [ 143.875876799999986, 7.3568683 ], [ 143.8748828, 7.3566303 ], [ 143.8731481, 7.3567359 ], [ 143.8727035, 7.356784 ], [ 143.87259370000001, 7.3570173 ], [ 143.8725859, 7.3572117 ], [ 143.8730032, 7.3576058 ], [ 143.8745336, 7.3583721 ], [ 143.8753304, 7.3587826 ], [ 143.8756626, 7.3588739 ], [ 143.8774462, 7.3586284 ], [ 143.8786215, 7.358764 ], [ 143.8798445, 7.3590034 ], [ 143.879871400000013, 7.359179 ], [ 143.882026599999989, 7.3595637 ], [ 143.883195199999989, 7.3600447 ], [ 143.8836776, 7.3597934 ], [ 143.8832531, 7.3592588 ], [ 143.8827774, 7.3586596 ], [ 143.880487, 7.3568683 ] ] ] ] } },
{ "type": "Feature", "properties": { "FID": 89248, "id": 2321, "left": 140.0, "top": 10.0, "right": 145.0, "bottom": 5.0, "row_index": 16, "col_index": 64, "min_lon": 140.0, "min_lat": 5.0, "tile_id": "140_5" }, "geometry": { "type": "MultiPolygon", "coordinates": [ [ [ [ 143.874124200000011, 7.33408 ], [ 143.8748792, 7.3340565 ], [ 143.8754519, 7.3341295 ], [ 143.8758713, 7.3341719 ], [ 143.875780099999986, 7.3338932 ], [ 143.874926499999987, 7.3335851 ], [ 143.874046099999987, 7.3335064 ], [ 143.8738691, 7.3337661 ], [ 143.874124200000011, 7.33408 ] ] ] ] } },
{ "type": "Feature", "properties": { "FID": 89266, "id": 2321, "left": 140.0, "top": 10.0, "right": 145.0, "bottom": 5.0, "row_index": 16, "col_index": 64, "min_lon": 140.0, "min_lat": 5.0, "tile_id": "140_5" }, "geometry": { "type": "MultiPolygon", "coordinates": [ [ [ [ 143.822189, 7.3573757 ], [ 143.8218684, 7.3574536 ], [ 143.8217393, 7.3576178 ], [ 143.8216616, 7.3577531 ], [ 143.8217861, 7.3580702 ], [ 143.8220423, 7.3582557 ], [ 143.821611, 7.3586524 ], [ 143.8214587, 7.359224 ], [ 143.8214883, 7.3595708 ], [ 143.821773799999988, 7.3597047 ], [ 143.8222992, 7.3597303 ], [ 143.8231377, 7.3597608 ], [ 143.8230715, 7.3589928 ], [ 143.8229522, 7.3586472 ], [ 143.822933299999988, 7.3583734 ], [ 143.8226838, 7.3581766 ], [ 143.822630800000013, 7.3580554 ], [ 143.822589099999988, 7.3575554 ], [ 143.822189, 7.3573757 ] ] ] ] } },
{ "type": "Feature", "properties": { "FID": 89270, "id": 2321, "left": 140.0, "top": 10.0, "right": 145.0, "bottom": 5.0, "row_index": 16, "col_index": 64, "min_lon": 140.0, "min_lat": 5.0, "tile_id": "140_5" }, "geometry": { "type": "MultiPolygon", "coordinates": [ [ [ [ 143.9124103, 7.355425 ], [ 143.912261300000011, 7.3555727 ], [ 143.912214299999988, 7.3559616 ], [ 143.9122849, 7.3562027 ], [ 143.912465200000014, 7.3563504 ], [ 143.912771, 7.356436 ], [ 143.913084700000013, 7.3564826 ], [ 143.913908, 7.3564671 ], [ 143.914640100000014, 7.3561235 ], [ 143.9149485, 7.3552992 ], [ 143.9150094, 7.354951 ], [ 143.9145749, 7.3527641 ], [ 143.9143013, 7.3519493 ], [ 143.914125, 7.3513955 ], [ 143.913729499999988, 7.3500856 ], [ 143.9135822, 7.3495056 ], [ 143.912611700000014, 7.3464021 ], [ 143.9123162, 7.3457229 ], [ 143.9117551, 7.3445374 ], [ 143.9110282, 7.3437808 ], [ 143.9096745, 7.3434797 ], [ 143.9094165, 7.3434814 ], [ 143.9090003, 7.3435827 ], [ 143.9089066, 7.3440908 ], [ 143.9092498, 7.3444064 ], [ 143.9095543, 7.3448972 ], [ 143.9098138, 7.3451529 ], [ 143.9101679, 7.3457068 ], [ 143.910464100000013, 7.3459212 ], [ 143.910991599999988, 7.3477201 ], [ 143.911397599999987, 7.3487588 ], [ 143.9118375, 7.3503122 ], [ 143.912293, 7.350677 ], [ 143.912434600000012, 7.351573 ], [ 143.91248250000001, 7.3551845 ], [ 143.9124103, 7.355425 ] ] ] ] } },
{ "type": "Feature", "properties": { "FID": 476908, "id": 2321, "left": 140.0, "top": 10.0, "right": 145.0, "bottom": 5.0, "row_index": 16, "col_index": 64, "min_lon": 140.0, "min_lat": 5.0, "tile_id": "140_5" }, "geometry": { "type": "MultiPolygon", "coordinates": [ [ [ [ 143.826375, 7.3652743 ], [ 143.8263993, 7.3654471 ], [ 143.8266021, 7.3657486 ], [ 143.8268209, 7.365827 ], [ 143.827147, 7.3657709 ], [ 143.827272, 7.3656746 ], [ 143.8273206, 7.3653356 ], [ 143.8272077, 7.3648517 ], [ 143.8267624, 7.3648675 ], [ 143.8264926, 7.3649615 ], [ 143.826393200000012, 7.3651872 ], [ 143.826375, 7.3652743 ] ] ] ] } },
{ "type": "Feature", "properties": { "FID": 512740, "id": 2321, "left": 140.0, "top": 10.0, "right": 145.0, "bottom": 5.0, "row_index": 16, "col_index": 64, "min_lon": 140.0, "min_lat": 5.0, "tile_id": "140_5" }, "geometry": { "type": "MultiPolygon", "coordinates": [ [ [ [ 143.0819142, 6.6811299 ], [ 143.0819678, 6.6811299 ], [ 143.082118, 6.6810713 ], [ 143.0822468, 6.6809861 ], [ 143.082456, 6.6808582 ], [ 143.0824614, 6.6807303 ], [ 143.082397, 6.6806238 ], [ 143.082236, 6.6805012 ], [ 143.082059, 6.6804373 ], [ 143.081849799999986, 6.680448 ], [ 143.081646, 6.6805172 ], [ 143.081367, 6.6807144 ], [ 143.081479699999988, 6.6808582 ], [ 143.081603, 6.6809648 ], [ 143.081801500000012, 6.681066 ], [ 143.0819142, 6.6811299 ] ] ] ] } },
{ "type": "Feature", "properties": { "FID": 674390, "id": 2321, "left": 140.0, "top": 10.0, "right": 145.0, "bottom": 5.0, "row_index": 16, "col_index": 64, "min_lon": 140.0, "min_lat": 5.0, "tile_id": "140_5" }, "geometry": { "type": "MultiPolygon", "coordinates": [ [ [ [ 143.0091099, 6.6868855 ], [ 143.0087512, 6.6868967 ], [ 143.0085511, 6.687013 ], [ 143.008554800000013, 6.687088 ], [ 143.0086341, 6.687103 ], [ 143.008721, 6.687118 ], [ 143.0089437, 6.6872267 ], [ 143.0091778, 6.6872492 ], [ 143.00935530000001, 6.6872492 ], [ 143.0096158, 6.6871255 ], [ 143.009661099999988, 6.6870505 ], [ 143.009646, 6.686923 ], [ 143.00958940000001, 6.6868555 ], [ 143.0095063, 6.686788 ], [ 143.0093779, 6.6867805 ], [ 143.0091099, 6.6868855 ] ] ] ] } }
]
}
