{
"type": "FeatureCollection",
"name": "140_30",
"crs": { "type": "name", "properties": { "name": "urn:ogc:def:crs:OGC:1.3:CRS84" } },
"xy_coordinate_resolution": 1e-15,
"features": [
{ "type": "Feature", "properties": { "FID": 176411, "id": 2316, "left": 140.0, "top": 35.0, "right": 145.0, "bottom": 30.0, "row_index": 11, "col_index": 64, "min_lon": 140.0, "min_lat": 30.0, "tile_id": "140_30" }, "geometry": { "type": "MultiPolygon", "coordinates": [ [ [ [ 140.2864, 30.482741 ], [ 140.28636, 30.482749 ], [ 140.286355, 30.482791 ], [ 140.286375, 30.48281 ], [ 140.286605, 30.482929 ], [ 140.286706, 30.482935 ], [ 140.286734, 30.482929 ], [ 140.286745, 30.482902 ], [ 140.286701, 30.482856 ], [ 140.286571, 30.482776 ], [ 140.2864, 30.482741 ] ] ] ] } },
{ "type": "Feature", "properties": { "FID": 176916, "id": 2316, "left": 140.0, "top": 35.0, "right": 145.0, "bottom": 30.0, "row_index": 11, "col_index": 64, "min_lon": 140.0, "min_lat": 30.0, "tile_id": "140_30" }, "geometry": { "type": "MultiPolygon", "coordinates": [ [ [ [ 140.286987, 30.485206 ], [ 140.286987, 30.485179 ], [ 140.286942, 30.485126 ], [ 140.286872, 30.485114 ], [ 140.286747, 30.485158 ], [ 140.286589, 30.485264 ], [ 140.286529, 30.485304 ], [ 140.286382, 30.485345 ], [ 140.286369, 30.485387 ], [ 140.286445, 30.485426 ], [ 140.286547, 30.485443 ], [ 140.286652, 30.485352 ], [ 140.28677, 30.485284 ], [ 140.286942, 30.485256 ], [ 140.286987, 30.485206 ] ] ] ] } },
{ "type": "Feature", "properties": { "FID": 177077, "id": 2316, "left": 140.0, "top": 35.0, "right": 145.0, "bottom": 30.0, "row_index": 11, "col_index": 64, "min_lon": 140.0, "min_lat": 30.0, "tile_id": "140_30" }, "geometry": { "type": "MultiPolygon", "coordinates": [ [ [ [ 140.050735300000014, 31.437815 ], [ 140.0506358, 31.4378059 ], [ 140.0505273, 31.4378249 ], [ 140.0504731, 31.4378549 ], [ 140.0504258, 31.4378349 ], [ 140.0503493, 31.437828 ], [ 140.0503031, 31.437852 ], [ 140.0502922, 31.4378944 ], [ 140.0502999, 31.4379468 ], [ 140.050322099999988, 31.4379809 ], [ 140.050227799999988, 31.4380879 ], [ 140.0501746, 31.4381769 ], [ 140.0501511, 31.4382649 ], [ 140.0501346, 31.4384659 ], [ 140.0500189, 31.4388099 ], [ 140.0500059, 31.4389093 ], [ 140.0500069, 31.4389449 ], [ 140.0500261, 31.4391749 ], [ 140.0500398, 31.439225 ], [ 140.0500501, 31.4393845 ], [ 140.0500744, 31.439538 ], [ 140.050075600000014, 31.4397459 ], [ 140.0500168, 31.4398459 ], [ 140.0500131, 31.4399099 ], [ 140.0500399, 31.4399449 ], [ 140.0500878, 31.4399659 ], [ 140.0501693, 31.4399509 ], [ 140.050214, 31.4399869 ], [ 140.050272799999988, 31.440009 ], [ 140.050351299999988, 31.4400074 ], [ 140.0503703, 31.4401189 ], [ 140.0504118, 31.4401654 ], [ 140.050500699999986, 31.44018 ], [ 140.0505913, 31.4402477 ], [ 140.0506349, 31.4402625 ], [ 140.0506968, 31.4402642 ], [ 140.0507513, 31.4402302 ], [ 140.0507637, 31.4401575 ], [ 140.0507288, 31.4400925 ], [ 140.050723, 31.4400394 ], [ 140.050771700000013, 31.4400019 ], [ 140.0507945, 31.4399551 ], [ 140.0507652, 31.4398424 ], [ 140.0508288, 31.4397812 ], [ 140.050857400000012, 31.439717 ], [ 140.0508481, 31.4396829 ], [ 140.0509094, 31.4396398 ], [ 140.0509151, 31.4395788 ], [ 140.0508662, 31.4395239 ], [ 140.0508173, 31.4394989 ], [ 140.050803800000011, 31.4394729 ], [ 140.0508639, 31.4393829 ], [ 140.0508481, 31.439321 ], [ 140.050757299999987, 31.4392769 ], [ 140.051105299999989, 31.4384809 ], [ 140.0511828, 31.4383779 ], [ 140.0512756, 31.4382899 ], [ 140.0513018, 31.4382959 ], [ 140.0513513, 31.4382899 ], [ 140.0513799, 31.4382669 ], [ 140.051391700000011, 31.4382 ], [ 140.051407, 31.4381879 ], [ 140.0515239, 31.4381879 ], [ 140.0515976, 31.4381359 ], [ 140.0516016, 31.438085 ], [ 140.0515628, 31.438037 ], [ 140.0514838, 31.4380229 ], [ 140.0514081, 31.438033 ], [ 140.0513681, 31.437985 ], [ 140.0512808, 31.4379709 ], [ 140.051212099999987, 31.4378429 ], [ 140.0511371, 31.437803 ], [ 140.0510744, 31.437799 ], [ 140.0509779, 31.437816 ], [ 140.0509118, 31.437856 ], [ 140.050735300000014, 31.437815 ] ] ] ] } },
{ "type": "Feature", "properties": { "FID": 177101, "id": 2316, "left": 140.0, "top": 35.0, "right": 145.0, "bottom": 30.0, "row_index": 11, "col_index": 64, "min_lon": 140.0, "min_lat": 30.0, "tile_id": "140_30" }, "geometry": { "type": "MultiPolygon", "coordinates": [ [ [ [ 140.291125, 30.491024 ], [ 140.291151, 30.49108 ], [ 140.291193, 30.491116 ], [ 140.291302, 30.491135 ], [ 140.29135, 30.491245 ], [ 140.291451, 30.491349 ], [ 140.291453, 30.491468 ], [ 140.291477, 30.491512 ], [ 140.291582, 30.491545 ], [ 140.291597, 30.491617 ], [ 140.291632, 30.491673 ], [ 140.29163, 30.491696 ], [ 140.291584, 30.49174 ], [ 140.291584, 30.491776 ], [ 140.291634, 30.49187 ], [ 140.291665, 30.491887 ], [ 140.291772, 30.491875 ], [ 140.291887, 30.491924 ], [ 140.291951, 30.49193 ], [ 140.292023, 30.491911 ], [ 140.292043, 30.491985 ], [ 140.292139, 30.492113 ], [ 140.29206, 30.492164 ], [ 140.292043, 30.492196 ], [ 140.29204, 30.492251 ], [ 140.292064, 30.492293 ], [ 140.292171, 30.492332 ], [ 140.292191, 30.492424 ], [ 140.292265, 30.492487 ], [ 140.292386, 30.492494 ], [ 140.292466, 30.492544 ], [ 140.292586, 30.492536 ], [ 140.292602, 30.492628 ], [ 140.292685, 30.492702 ], [ 140.29265, 30.492784 ], [ 140.292652, 30.492833 ], [ 140.292694, 30.492893 ], [ 140.292718, 30.492991 ], [ 140.292801, 30.493001 ], [ 140.292844, 30.492976 ], [ 140.292881, 30.492893 ], [ 140.292971, 30.492954 ], [ 140.2931, 30.492931 ], [ 140.293113, 30.493049 ], [ 140.293152, 30.493106 ], [ 140.293229, 30.493161 ], [ 140.293216, 30.493271 ], [ 140.293246, 30.493313 ], [ 140.293303, 30.493349 ], [ 140.293421, 30.493343 ], [ 140.293506, 30.493388 ], [ 140.29357, 30.493401 ], [ 140.293666, 30.493391 ], [ 140.29362, 30.493446 ], [ 140.293605, 30.493506 ], [ 140.293618, 30.493539 ], [ 140.293694, 30.493576 ], [ 140.293734, 30.493668 ], [ 140.293773, 30.493683 ], [ 140.293841, 30.493676 ], [ 140.293882, 30.493593 ], [ 140.293972, 30.493554 ], [ 140.294011, 30.493471 ], [ 140.294109, 30.493503 ], [ 140.294166, 30.493498 ], [ 140.294265, 30.493453 ], [ 140.294341, 30.493491 ], [ 140.294459, 30.493509 ], [ 140.294538, 30.493561 ], [ 140.294732, 30.493563 ], [ 140.294786, 30.493653 ], [ 140.294905, 30.493696 ], [ 140.294961, 30.493691 ], [ 140.295011, 30.493636 ], [ 140.295132, 30.493661 ], [ 140.29523, 30.493606 ], [ 140.295302, 30.493684 ], [ 140.295368, 30.493703 ], [ 140.295456, 30.493701 ], [ 140.2955, 30.493764 ], [ 140.295565, 30.493778 ], [ 140.295581, 30.493906 ], [ 140.295609, 30.493948 ], [ 140.295734, 30.493976 ], [ 140.295817, 30.494051 ], [ 140.29588, 30.494056 ], [ 140.295935, 30.494041 ], [ 140.295972, 30.494004 ], [ 140.295976, 30.493919 ], [ 140.296079, 30.493863 ], [ 140.296112, 30.493816 ], [ 140.296129, 30.493738 ], [ 140.296218, 30.493743 ], [ 140.296562599999987, 30.493861 ], [ 140.296833, 30.493896 ], [ 140.297059, 30.493998 ], [ 140.297513, 30.494049 ], [ 140.297783, 30.494026 ], [ 140.297899, 30.494043 ], [ 140.298062, 30.494098 ], [ 140.298091, 30.494174 ], [ 140.298131, 30.494218 ], [ 140.298111, 30.494291 ], [ 140.298139, 30.494408 ], [ 140.298189, 30.494456 ], [ 140.298244, 30.494469 ], [ 140.298249, 30.494583 ], [ 140.298313, 30.494681 ], [ 140.298293, 30.494826 ], [ 140.298348, 30.494921 ], [ 140.298329, 30.495014 ], [ 140.298344, 30.495081 ], [ 140.298389, 30.495139 ], [ 140.298439, 30.495169 ], [ 140.298454, 30.495273 ], [ 140.298481, 30.495303 ], [ 140.298539, 30.495328 ], [ 140.298576, 30.495323 ], [ 140.298717, 30.495178 ], [ 140.298784, 30.495243 ], [ 140.298878, 30.495273 ], [ 140.298936, 30.495373 ], [ 140.299051, 30.495389 ], [ 140.299103, 30.495378 ], [ 140.299151, 30.495336 ], [ 140.299213, 30.495364 ], [ 140.299315, 30.495343 ], [ 140.299366, 30.495303 ], [ 140.299416, 30.495218 ], [ 140.29958, 30.495183 ], [ 140.299676, 30.495213 ], [ 140.29984, 30.495211 ], [ 140.299866, 30.495271 ], [ 140.299975, 30.495323 ], [ 140.300183, 30.495306 ], [ 140.300152, 30.495429 ], [ 140.300168, 30.495468 ], [ 140.300213, 30.495499 ], [ 140.300305, 30.495493 ], [ 140.300419, 30.495413 ], [ 140.300524, 30.495441 ], [ 140.300635, 30.495431 ], [ 140.300617, 30.495546 ], [ 140.300641, 30.495584 ], [ 140.300692, 30.495603 ], [ 140.300764, 30.495596 ], [ 140.300803, 30.495566 ], [ 140.300843, 30.495496 ], [ 140.300945, 30.495533 ], [ 140.301015, 30.495536 ], [ 140.301032, 30.495584 ], [ 140.301098, 30.495641 ], [ 140.301244, 30.495688 ], [ 140.301303, 30.495799 ], [ 140.301415, 30.495838 ], [ 140.301511, 30.495826 ], [ 140.301618, 30.495769 ], [ 140.301858, 30.495748 ], [ 140.301926, 30.495828 ], [ 140.302048, 30.495871 ], [ 140.302354, 30.495871 ], [ 140.302536, 30.495806 ], [ 140.302555, 30.495821 ], [ 140.302575, 30.495901 ], [ 140.302612, 30.495938 ], [ 140.302667, 30.495948 ], [ 140.302776, 30.495903 ], [ 140.302817, 30.495823 ], [ 140.302883, 30.495768 ], [ 140.30296, 30.495643 ], [ 140.302981, 30.495646 ], [ 140.303025, 30.495759 ], [ 140.303058, 30.495776 ], [ 140.30323, 30.495774 ], [ 140.303368, 30.495796 ], [ 140.303484, 30.495743 ], [ 140.303508, 30.495853 ], [ 140.303569, 30.495881 ], [ 140.303606, 30.495961 ], [ 140.303687, 30.496006 ], [ 140.30379, 30.495996 ], [ 140.303862, 30.495901 ], [ 140.303923, 30.495876 ], [ 140.303947, 30.495764 ], [ 140.303982, 30.495741 ], [ 140.304052, 30.495784 ], [ 140.304248, 30.495746 ], [ 140.304285, 30.495768 ], [ 140.304338, 30.495874 ], [ 140.304447, 30.495918 ], [ 140.304596, 30.495931 ], [ 140.304646, 30.495911 ], [ 140.304692, 30.495859 ], [ 140.304718, 30.495768 ], [ 140.304812, 30.495683 ], [ 140.304915, 30.495676 ], [ 140.305022, 30.495619 ], [ 140.305061, 30.495623 ], [ 140.305063, 30.495673 ], [ 140.305111, 30.495716 ], [ 140.305229, 30.495713 ], [ 140.305284, 30.495681 ], [ 140.305334, 30.495624 ], [ 140.305461, 30.495621 ], [ 140.305524, 30.495597 ], [ 140.305585, 30.495548 ], [ 140.30574, 30.495554 ], [ 140.305795, 30.495537 ], [ 140.305837, 30.495504 ], [ 140.30587, 30.495441 ], [ 140.305867, 30.495346 ], [ 140.305889, 30.495239 ], [ 140.305863, 30.495144 ], [ 140.305961, 30.49511 ], [ 140.306029, 30.495033 ], [ 140.306178, 30.494992 ], [ 140.306208, 30.494999 ], [ 140.306245, 30.495041 ], [ 140.306271, 30.495153 ], [ 140.306326, 30.495192 ], [ 140.3064, 30.495215 ], [ 140.306598, 30.495213 ], [ 140.306651, 30.495181 ], [ 140.306718, 30.495086 ], [ 140.306823, 30.495096 ], [ 140.307065, 30.495079 ], [ 140.307123, 30.495012 ], [ 140.307185, 30.494749 ], [ 140.307303, 30.494728 ], [ 140.307351, 30.494683 ], [ 140.307383, 30.494541 ], [ 140.307363, 30.494451 ], [ 140.307416, 30.494409 ], [ 140.307434, 30.494303 ], [ 140.307456, 30.494277 ], [ 140.307488, 30.494264 ], [ 140.307658, 30.494296 ], [ 140.307718, 30.494284 ], [ 140.307848, 30.494249 ], [ 140.307927, 30.494182 ], [ 140.307955, 30.494097 ], [ 140.307913, 30.49389 ], [ 140.308122, 30.493693 ], [ 140.308242, 30.493622 ], [ 140.308349, 30.493585 ], [ 140.308402, 30.493619 ], [ 140.308503, 30.493621 ], [ 140.308645, 30.4936 ], [ 140.308787, 30.493524 ], [ 140.308882, 30.493524 ], [ 140.308997, 30.493452 ], [ 140.309108, 30.493448 ], [ 140.309154, 30.493429 ], [ 140.309197, 30.493365 ], [ 140.30919, 30.493304 ], [ 140.309377, 30.49314 ], [ 140.309542, 30.493062 ], [ 140.309847, 30.492762 ], [ 140.309907, 30.492735 ], [ 140.309968, 30.492755 ], [ 140.310004, 30.492732 ], [ 140.310002, 30.492684 ], [ 140.309938, 30.492641 ], [ 140.310022, 30.492435 ], [ 140.31008, 30.492344 ], [ 140.310275, 30.492125 ], [ 140.310493, 30.491961 ], [ 140.31057, 30.491842 ], [ 140.310653, 30.491758 ], [ 140.310842, 30.49161 ], [ 140.311177, 30.491352 ], [ 140.311533, 30.490989 ], [ 140.311851, 30.490741 ], [ 140.312111, 30.490253 ], [ 140.312196, 30.490157 ], [ 140.312541, 30.489864 ], [ 140.312691, 30.489712 ], [ 140.312958, 30.489391 ], [ 140.31309, 30.489186 ], [ 140.313524, 30.488296 ], [ 140.313693, 30.488115 ], [ 140.31383, 30.487839 ], [ 140.31409, 30.487472 ], [ 140.314331, 30.487213 ], [ 140.314428, 30.487021 ], [ 140.314422, 30.486485 ], [ 140.314395, 30.486248 ], [ 140.31435, 30.486051 ], [ 140.314218, 30.485654 ], [ 140.313966, 30.485149 ], [ 140.313771, 30.484681 ], [ 140.313705, 30.484449 ], [ 140.313667, 30.484207 ], [ 140.313523, 30.483818 ], [ 140.313517, 30.483716 ], [ 140.313536, 30.483626 ], [ 140.313616, 30.483582 ], [ 140.313672, 30.483508 ], [ 140.313642, 30.483355 ], [ 140.313685, 30.483234 ], [ 140.313624, 30.483057 ], [ 140.313647, 30.482915 ], [ 140.313629, 30.482872 ], [ 140.31357, 30.482823 ], [ 140.31357, 30.482802 ], [ 140.313612, 30.482723 ], [ 140.313629, 30.482542 ], [ 140.313714, 30.482432 ], [ 140.313703, 30.482273 ], [ 140.313788, 30.482185 ], [ 140.313793, 30.482058 ], [ 140.313837, 30.482007 ], [ 140.313843, 30.481925 ], [ 140.313817, 30.481764 ], [ 140.313762, 30.481669 ], [ 140.313637, 30.481588 ], [ 140.313535, 30.481576 ], [ 140.313434, 30.48159 ], [ 140.313372, 30.481567 ], [ 140.313337, 30.481527 ], [ 140.313302, 30.481421 ], [ 140.313258, 30.481376 ], [ 140.313302, 30.481261 ], [ 140.313297, 30.481189 ], [ 140.313229, 30.481139 ], [ 140.313112, 30.481169 ], [ 140.313036, 30.48092 ], [ 140.312671, 30.480108 ], [ 140.312431, 30.479413 ], [ 140.312431, 30.479335 ], [ 140.312476, 30.47929 ], [ 140.312476, 30.479223 ], [ 140.312437, 30.479148 ], [ 140.312235, 30.478918 ], [ 140.311808, 30.478257 ], [ 140.31152, 30.477976 ], [ 140.311396, 30.477835 ], [ 140.311298, 30.477682 ], [ 140.311175, 30.477366 ], [ 140.311133, 30.477154 ], [ 140.311133, 30.477051 ], [ 140.311205, 30.476973 ], [ 140.311223, 30.476896 ], [ 140.311181, 30.47683 ], [ 140.311113, 30.476799 ], [ 140.311113, 30.476746 ], [ 140.31105, 30.476633 ], [ 140.310912, 30.476519 ], [ 140.310908, 30.476491 ], [ 140.310958, 30.476459 ], [ 140.310976, 30.476398 ], [ 140.31091, 30.476311 ], [ 140.310901, 30.476231 ], [ 140.310882, 30.47621 ], [ 140.310718, 30.476158 ], [ 140.31063, 30.476097 ], [ 140.310528, 30.476103 ], [ 140.310423, 30.476142 ], [ 140.310357, 30.476097 ], [ 140.310224, 30.47608 ], [ 140.310196, 30.476059 ], [ 140.310143, 30.475967 ], [ 140.310038, 30.475873 ], [ 140.310095, 30.47585 ], [ 140.310139, 30.475805 ], [ 140.310163, 30.47574 ], [ 140.31018, 30.475642 ], [ 140.310159, 30.475538 ], [ 140.310065, 30.475496 ], [ 140.309988, 30.475418 ], [ 140.309791, 30.475389 ], [ 140.309724, 30.475325 ], [ 140.309599, 30.475299 ], [ 140.309523, 30.475306 ], [ 140.309422, 30.475219 ], [ 140.309269, 30.475225 ], [ 140.309208, 30.475126 ], [ 140.309112, 30.475044 ], [ 140.30906, 30.474927 ], [ 140.308973, 30.474853 ], [ 140.308964, 30.474726 ], [ 140.3089, 30.474628 ], [ 140.308758, 30.474579 ], [ 140.308688, 30.474573 ], [ 140.308568, 30.474645 ], [ 140.308446, 30.474643 ], [ 140.308356, 30.474682 ], [ 140.308284, 30.474663 ], [ 140.308175, 30.474578 ], [ 140.30812, 30.474589 ], [ 140.308075, 30.474629 ], [ 140.307954, 30.474578 ], [ 140.307834, 30.474587 ], [ 140.307692, 30.474517 ], [ 140.307561, 30.474544 ], [ 140.307522, 30.474568 ], [ 140.30752, 30.474612 ], [ 140.307388, 30.474608 ], [ 140.307314, 30.47465 ], [ 140.307235, 30.474595 ], [ 140.307198, 30.474595 ], [ 140.307122, 30.474646 ], [ 140.307021, 30.47458 ], [ 140.306919, 30.474583 ], [ 140.306818, 30.474504 ], [ 140.306649, 30.474533 ], [ 140.306569, 30.474496 ], [ 140.306379, 30.474473 ], [ 140.305748, 30.474462 ], [ 140.304921, 30.474298 ], [ 140.304342, 30.474276 ], [ 140.304022, 30.474242 ], [ 140.303697, 30.474174 ], [ 140.302898, 30.473914 ], [ 140.302364, 30.473602 ], [ 140.302003, 30.473499 ], [ 140.300718, 30.472956 ], [ 140.300366, 30.472894 ], [ 140.300113, 30.472882 ], [ 140.299455, 30.472961 ], [ 140.299135, 30.472966 ], [ 140.299008, 30.47301 ], [ 140.29898, 30.472975 ], [ 140.298879, 30.472956 ], [ 140.298772, 30.472962 ], [ 140.29868, 30.473003 ], [ 140.29861, 30.472969 ], [ 140.298538, 30.472965 ], [ 140.29842, 30.47302 ], [ 140.298388, 30.473018 ], [ 140.298403, 30.472961 ], [ 140.298392, 30.472899 ], [ 140.298211, 30.472899 ], [ 140.298138, 30.472936 ], [ 140.298147, 30.473006 ], [ 140.298191, 30.473035 ], [ 140.298036, 30.473054 ], [ 140.297968, 30.47312 ], [ 140.297933, 30.473199 ], [ 140.2978, 30.473215 ], [ 140.297666, 30.473288 ], [ 140.297282, 30.473469 ], [ 140.296709, 30.473858 ], [ 140.295819, 30.474361 ], [ 140.295571, 30.474536 ], [ 140.295438, 30.474686 ], [ 140.29533, 30.474913 ], [ 140.295245, 30.475003 ], [ 140.294321, 30.475725 ], [ 140.293944, 30.475968 ], [ 140.293651, 30.476205 ], [ 140.293393, 30.476469 ], [ 140.293196, 30.476718 ], [ 140.29262, 30.47726 ], [ 140.292312, 30.477482 ], [ 140.291965, 30.477868 ], [ 140.291555, 30.478211 ], [ 140.291164, 30.478488 ], [ 140.290582, 30.47882 ], [ 140.2905, 30.478849 ], [ 140.29043, 30.47881 ], [ 140.290357, 30.478833 ], [ 140.290319, 30.478914 ], [ 140.290329, 30.47899 ], [ 140.290209, 30.479081 ], [ 140.290219, 30.479184 ], [ 140.290129, 30.479213 ], [ 140.290087, 30.479268 ], [ 140.290082, 30.479304 ], [ 140.2901, 30.47934 ], [ 140.290185, 30.479422 ], [ 140.290102, 30.479483 ], [ 140.290057, 30.479562 ], [ 140.290065, 30.479626 ], [ 140.2901, 30.479679 ], [ 140.289994, 30.479773 ], [ 140.290004, 30.479932 ], [ 140.289939, 30.479988 ], [ 140.289892, 30.48007 ], [ 140.289915, 30.480202 ], [ 140.28985, 30.480574 ], [ 140.289757, 30.480767 ], [ 140.289245, 30.481337 ], [ 140.288847, 30.481725 ], [ 140.288665, 30.481866 ], [ 140.288542, 30.481886 ], [ 140.288489, 30.481933 ], [ 140.288469, 30.482016 ], [ 140.288314, 30.482079 ], [ 140.2883, 30.482113 ], [ 140.288329, 30.482221 ], [ 140.28819, 30.482272 ], [ 140.288151, 30.482311 ], [ 140.288092, 30.482451 ], [ 140.288022, 30.48252 ], [ 140.287957, 30.48252 ], [ 140.287892, 30.482469 ], [ 140.287827, 30.482452 ], [ 140.287572, 30.482582 ], [ 140.287485, 30.482588 ], [ 140.287452, 30.482546 ], [ 140.287529, 30.482459 ], [ 140.287539, 30.482385 ], [ 140.287522, 30.482364 ], [ 140.28741, 30.482364 ], [ 140.287382, 30.482402 ], [ 140.287233, 30.482423 ], [ 140.28721, 30.482451 ], [ 140.287206, 30.482514 ], [ 140.287254, 30.482561 ], [ 140.28725, 30.482576 ], [ 140.287165, 30.482639 ], [ 140.287148, 30.482679 ], [ 140.287168, 30.482787 ], [ 140.28711, 30.482844 ], [ 140.287101, 30.482882 ], [ 140.287124, 30.48302 ], [ 140.287079, 30.483019 ], [ 140.287016, 30.48296 ], [ 140.286924, 30.482952 ], [ 140.286876, 30.482986 ], [ 140.286835, 30.483059 ], [ 140.28675, 30.483085 ], [ 140.286675, 30.483149 ], [ 140.286653, 30.483255 ], [ 140.286505, 30.483272 ], [ 140.28647, 30.483301 ], [ 140.286461, 30.48339 ], [ 140.286485, 30.483429 ], [ 140.28643, 30.483477 ], [ 140.286433, 30.483568 ], [ 140.286473, 30.483604 ], [ 140.286546, 30.48362 ], [ 140.286559, 30.483692 ], [ 140.286583, 30.483725 ], [ 140.286666, 30.483736 ], [ 140.286748, 30.483705 ], [ 140.286845, 30.483771 ], [ 140.28668, 30.483835 ], [ 140.286605, 30.483909 ], [ 140.286487, 30.48396 ], [ 140.286452, 30.484038 ], [ 140.286503, 30.484115 ], [ 140.28661, 30.484115 ], [ 140.286653, 30.484051 ], [ 140.286734, 30.484051 ], [ 140.286824, 30.484007 ], [ 140.286897, 30.483913 ], [ 140.286984, 30.483919 ], [ 140.287065, 30.483879 ], [ 140.287089, 30.483994 ], [ 140.287189, 30.484058 ], [ 140.287085, 30.484124 ], [ 140.28703, 30.484271 ], [ 140.286939, 30.4843 ], [ 140.286797, 30.484383 ], [ 140.286722, 30.48447 ], [ 140.286496, 30.484447 ], [ 140.286383, 30.484494 ], [ 140.286352, 30.484578 ], [ 140.286301, 30.484627 ], [ 140.28626, 30.484702 ], [ 140.286293, 30.484735 ], [ 140.286352, 30.484735 ], [ 140.286442, 30.484702 ], [ 140.286512, 30.484755 ], [ 140.286569, 30.484769 ], [ 140.286676, 30.484733 ], [ 140.286714, 30.484681 ], [ 140.286889, 30.484658 ], [ 140.28689, 30.484768 ], [ 140.286912, 30.484804 ], [ 140.286969, 30.484838 ], [ 140.287045, 30.484823 ], [ 140.287079, 30.484772 ], [ 140.287164, 30.484779 ], [ 140.28731, 30.484735 ], [ 140.287344, 30.484804 ], [ 140.287382, 30.484834 ], [ 140.287434, 30.484849 ], [ 140.28752, 30.484839 ], [ 140.287559, 30.484895 ], [ 140.287655, 30.484977 ], [ 140.287684, 30.48517 ], [ 140.287845, 30.485386 ], [ 140.288009, 30.485657 ], [ 140.288034, 30.485764 ], [ 140.288039, 30.485893 ], [ 140.288014, 30.485966 ], [ 140.288014, 30.486124 ], [ 140.28804, 30.486191 ], [ 140.288222, 30.48642 ], [ 140.288202, 30.486524 ], [ 140.28821, 30.486634 ], [ 140.288127, 30.486649 ], [ 140.288087, 30.486683 ], [ 140.288072, 30.486788 ], [ 140.287987, 30.486811 ], [ 140.287887, 30.486958 ], [ 140.287889, 30.487002 ], [ 140.287914, 30.48704 ], [ 140.287952, 30.487053 ], [ 140.288114, 30.487036 ], [ 140.288157, 30.486994 ], [ 140.28817, 30.486896 ], [ 140.288227, 30.486868 ], [ 140.288249, 30.486824 ], [ 140.288282, 30.486919 ], [ 140.288309, 30.486949 ], [ 140.28835, 30.486962 ], [ 140.288436, 30.487083 ], [ 140.288342, 30.48718 ], [ 140.288302, 30.487261 ], [ 140.288317, 30.48732 ], [ 140.288382, 30.487373 ], [ 140.288321, 30.487431 ], [ 140.288309, 30.487471 ], [ 140.288174, 30.487484 ], [ 140.288145, 30.487514 ], [ 140.288157, 30.487584 ], [ 140.2882, 30.487622 ], [ 140.288401, 30.487646 ], [ 140.288522, 30.487723 ], [ 140.288635, 30.487712 ], [ 140.288698, 30.487665 ], [ 140.288785, 30.487716 ], [ 140.288899, 30.48771 ], [ 140.288928, 30.487793 ], [ 140.289004, 30.487851 ], [ 140.289026, 30.487948 ], [ 140.289126, 30.487991 ], [ 140.289188, 30.488093 ], [ 140.289231, 30.488127 ], [ 140.289288, 30.488135 ], [ 140.289428, 30.488114 ], [ 140.289896, 30.488667 ], [ 140.290124, 30.489034 ], [ 140.290228, 30.489259 ], [ 140.290325, 30.489564 ], [ 140.290325, 30.489699 ], [ 140.29028, 30.489818 ], [ 140.290351, 30.489812 ], [ 140.29045, 30.489852 ], [ 140.290573, 30.490032 ], [ 140.290703, 30.490164 ], [ 140.290647, 30.490238 ], [ 140.290653, 30.490334 ], [ 140.290537, 30.490431 ], [ 140.290531, 30.490471 ], [ 140.290579, 30.490612 ], [ 140.290623, 30.490635 ], [ 140.290675, 30.490635 ], [ 140.290767, 30.49061 ], [ 140.290841, 30.490527 ], [ 140.290854, 30.490597 ], [ 140.2909, 30.490639 ], [ 140.291014, 30.490682 ], [ 140.291011, 30.490752 ], [ 140.291029, 30.490807 ], [ 140.291055, 30.490858 ], [ 140.291127, 30.490912 ], [ 140.291125, 30.491024 ] ] ] ] } },
{ "type": "Feature", "properties": { "FID": 177610, "id": 2316, "left": 140.0, "top": 35.0, "right": 145.0, "bottom": 30.0, "row_index": 11, "col_index": 64, "min_lon": 140.0, "min_lat": 30.0, "tile_id": "140_30" }, "geometry": { "type": "MultiPolygon", "coordinates": [ [ [ [ 140.310276, 30.475691 ], [ 140.310316, 30.475674 ], [ 140.310307, 30.475638 ], [ 140.31027, 30.475663 ], [ 140.310276, 30.475691 ] ] ] ] } },
{ "type": "Feature", "properties": { "FID": 177627, "id": 2316, "left": 140.0, "top": 35.0, "right": 145.0, "bottom": 30.0, "row_index": 11, "col_index": 64, "min_lon": 140.0, "min_lat": 30.0, "tile_id": "140_30" }, "geometry": { "type": "MultiPolygon", "coordinates": [ [ [ [ 140.313975, 30.48199 ], [ 140.313949, 30.481947 ], [ 140.313902, 30.481943 ], [ 140.31391, 30.481993 ], [ 140.313975, 30.48199 ] ] ] ] } },
{ "type": "Feature", "properties": { "FID": 177644, "id": 2316, "left": 140.0, "top": 35.0, "right": 145.0, "bottom": 30.0, "row_index": 11, "col_index": 64, "min_lon": 140.0, "min_lat": 30.0, "tile_id": "140_30" }, "geometry": { "type": "MultiPolygon", "coordinates": [ [ [ [ 140.311226, 30.491579 ], [ 140.311291, 30.491579 ], [ 140.311305, 30.491525 ], [ 140.311257, 30.491514 ], [ 140.311226, 30.491579 ] ] ] ] } },
{ "type": "Feature", "properties": { "FID": 177648, "id": 2316, "left": 140.0, "top": 35.0, "right": 145.0, "bottom": 30.0, "row_index": 11, "col_index": 64, "min_lon": 140.0, "min_lat": 30.0, "tile_id": "140_30" }, "geometry": { "type": "MultiPolygon", "coordinates": [ [ [ [ 140.295387, 30.474433 ], [ 140.295432, 30.474418 ], [ 140.295431, 30.474381 ], [ 140.295381, 30.474406 ], [ 140.295387, 30.474433 ] ] ] ] } },
{ "type": "Feature", "properties": { "FID": 177663, "id": 2316, "left": 140.0, "top": 35.0, "right": 145.0, "bottom": 30.0, "row_index": 11, "col_index": 64, "min_lon": 140.0, "min_lat": 30.0, "tile_id": "140_30" }, "geometry": { "type": "MultiPolygon", "coordinates": [ [ [ [ 140.313767, 30.483111 ], [ 140.313757, 30.483069 ], [ 140.313716, 30.483073 ], [ 140.313732, 30.483116 ], [ 140.313767, 30.483111 ] ] ] ] } },
{ "type": "Feature", "properties": { "FID": 177679, "id": 2316, "left": 140.0, "top": 35.0, "right": 145.0, "bottom": 30.0, "row_index": 11, "col_index": 64, "min_lon": 140.0, "min_lat": 30.0, "tile_id": "140_30" }, "geometry": { "type": "MultiPolygon", "coordinates": [ [ [ [ 140.311426, 30.477317 ], [ 140.311486, 30.477309 ], [ 140.311481, 30.477264 ], [ 140.311432, 30.477258 ], [ 140.311426, 30.477317 ] ] ] ] } },
{ "type": "Feature", "properties": { "FID": 177763, "id": 2316, "left": 140.0, "top": 35.0, "right": 145.0, "bottom": 30.0, "row_index": 11, "col_index": 64, "min_lon": 140.0, "min_lat": 30.0, "tile_id": "140_30" }, "geometry": { "type": "MultiPolygon", "coordinates": [ [ [ [ 140.294125, 30.475785 ], [ 140.294161, 30.475765 ], [ 140.294154, 30.475723 ], [ 140.294112, 30.475746 ], [ 140.294125, 30.475785 ] ] ] ] } },
{ "type": "Feature", "properties": { "FID": 177830, "id": 2316, "left": 140.0, "top": 35.0, "right": 145.0, "bottom": 30.0, "row_index": 11, "col_index": 64, "min_lon": 140.0, "min_lat": 30.0, "tile_id": "140_30" }, "geometry": { "type": "MultiPolygon", "coordinates": [ [ [ [ 140.311021, 30.476173 ], [ 140.31092, 30.476143 ], [ 140.310978, 30.476232 ], [ 140.311032, 30.476245 ], [ 140.311048, 30.476205 ], [ 140.311021, 30.476173 ] ] ] ] } },
{ "type": "Feature", "properties": { "FID": 177856, "id": 2316, "left": 140.0, "top": 35.0, "right": 145.0, "bottom": 30.0, "row_index": 11, "col_index": 64, "min_lon": 140.0, "min_lat": 30.0, "tile_id": "140_30" }, "geometry": { "type": "MultiPolygon", "coordinates": [ [ [ [ 140.313033, 30.479323 ], [ 140.31307, 30.479325 ], [ 140.313091, 30.479295 ], [ 140.31306, 30.479248 ], [ 140.313028, 30.479248 ], [ 140.313033, 30.479323 ] ] ] ] } },
{ "type": "Feature", "properties": { "FID": 177867, "id": 2316, "left": 140.0, "top": 35.0, "right": 145.0, "bottom": 30.0, "row_index": 11, "col_index": 64, "min_lon": 140.0, "min_lat": 30.0, "tile_id": "140_30" }, "geometry": { "type": "MultiPolygon", "coordinates": [ [ [ [ 140.310205, 30.475886 ], [ 140.31019, 30.475918 ], [ 140.310226, 30.475932 ], [ 140.310249, 30.475925 ], [ 140.310249, 30.475898 ], [ 140.310205, 30.475886 ] ] ] ] } },
{ "type": "Feature", "properties": { "FID": 177871, "id": 2316, "left": 140.0, "top": 35.0, "right": 145.0, "bottom": 30.0, "row_index": 11, "col_index": 64, "min_lon": 140.0, "min_lat": 30.0, "tile_id": "140_30" }, "geometry": { "type": "MultiPolygon", "coordinates": [ [ [ [ 140.307107, 30.474432 ], [ 140.307082, 30.474421 ], [ 140.307057, 30.474447 ], [ 140.307071, 30.474476 ], [ 140.307111, 30.474458 ], [ 140.307107, 30.474432 ] ] ] ] } },
{ "type": "Feature", "properties": { "FID": 177892, "id": 2316, "left": 140.0, "top": 35.0, "right": 145.0, "bottom": 30.0, "row_index": 11, "col_index": 64, "min_lon": 140.0, "min_lat": 30.0, "tile_id": "140_30" }, "geometry": { "type": "MultiPolygon", "coordinates": [ [ [ [ 140.310261, 30.475595 ], [ 140.310283, 30.475602 ], [ 140.310307, 30.475578 ], [ 140.310288, 30.475541 ], [ 140.310263, 30.475565 ], [ 140.310261, 30.475595 ] ] ] ] } },
{ "type": "Feature", "properties": { "FID": 177932, "id": 2316, "left": 140.0, "top": 35.0, "right": 145.0, "bottom": 30.0, "row_index": 11, "col_index": 64, "min_lon": 140.0, "min_lat": 30.0, "tile_id": "140_30" }, "geometry": { "type": "MultiPolygon", "coordinates": [ [ [ [ 140.305926, 30.474249 ], [ 140.305939, 30.474272 ], [ 140.305992, 30.474261 ], [ 140.305976, 30.474213 ], [ 140.305954, 30.474213 ], [ 140.305926, 30.474249 ] ] ] ] } },
{ "type": "Feature", "properties": { "FID": 177939, "id": 2316, "left": 140.0, "top": 35.0, "right": 145.0, "bottom": 30.0, "row_index": 11, "col_index": 64, "min_lon": 140.0, "min_lat": 30.0, "tile_id": "140_30" }, "geometry": { "type": "MultiPolygon", "coordinates": [ [ [ [ 140.313772, 30.48249 ], [ 140.313785, 30.482502 ], [ 140.313817, 30.482491 ], [ 140.313828, 30.482462 ], [ 140.313807, 30.482441 ], [ 140.313772, 30.48249 ] ] ] ] } },
{ "type": "Feature", "properties": { "FID": 177949, "id": 2316, "left": 140.0, "top": 35.0, "right": 145.0, "bottom": 30.0, "row_index": 11, "col_index": 64, "min_lon": 140.0, "min_lat": 30.0, "tile_id": "140_30" }, "geometry": { "type": "MultiPolygon", "coordinates": [ [ [ [ 140.309078, 30.474573 ], [ 140.30904, 30.474584 ], [ 140.309053, 30.474629 ], [ 140.309081, 30.474644 ], [ 140.309098, 30.474625 ], [ 140.309078, 30.474573 ] ] ] ] } },
{ "type": "Feature", "properties": { "FID": 177977, "id": 2316, "left": 140.0, "top": 35.0, "right": 145.0, "bottom": 30.0, "row_index": 11, "col_index": 64, "min_lon": 140.0, "min_lat": 30.0, "tile_id": "140_30" }, "geometry": { "type": "MultiPolygon", "coordinates": [ [ [ [ 140.295576, 30.474312 ], [ 140.295601, 30.474348 ], [ 140.295649, 30.474336 ], [ 140.29567, 30.474301 ], [ 140.295646, 30.474282 ], [ 140.295576, 30.474312 ] ] ] ] } },
{ "type": "Feature", "properties": { "FID": 177981, "id": 2316, "left": 140.0, "top": 35.0, "right": 145.0, "bottom": 30.0, "row_index": 11, "col_index": 64, "min_lon": 140.0, "min_lat": 30.0, "tile_id": "140_30" }, "geometry": { "type": "MultiPolygon", "coordinates": [ [ [ [ 140.307525, 30.474433 ], [ 140.307535, 30.474471 ], [ 140.307585, 30.474473 ], [ 140.307605, 30.474444 ], [ 140.307591, 30.474424 ], [ 140.307525, 30.474433 ] ] ] ] } },
{ "type": "Feature", "properties": { "FID": 177995, "id": 2316, "left": 140.0, "top": 35.0, "right": 145.0, "bottom": 30.0, "row_index": 11, "col_index": 64, "min_lon": 140.0, "min_lat": 30.0, "tile_id": "140_30" }, "geometry": { "type": "MultiPolygon", "coordinates": [ [ [ [ 140.295531, 30.47447 ], [ 140.295546, 30.474495 ], [ 140.295589, 30.474481 ], [ 140.295598, 30.474458 ], [ 140.295583, 30.474442 ], [ 140.295531, 30.47447 ] ] ] ] } },
{ "type": "Feature", "properties": { "FID": 177998, "id": 2316, "left": 140.0, "top": 35.0, "right": 145.0, "bottom": 30.0, "row_index": 11, "col_index": 64, "min_lon": 140.0, "min_lat": 30.0, "tile_id": "140_30" }, "geometry": { "type": "MultiPolygon", "coordinates": [ [ [ [ 140.311587, 30.491194 ], [ 140.31158, 30.49124 ], [ 140.311623, 30.491267 ], [ 140.311667, 30.491263 ], [ 140.311673, 30.491224 ], [ 140.311587, 30.491194 ] ] ] ] } },
{ "type": "Feature", "properties": { "FID": 177999, "id": 2316, "left": 140.0, "top": 35.0, "right": 145.0, "bottom": 30.0, "row_index": 11, "col_index": 64, "min_lon": 140.0, "min_lat": 30.0, "tile_id": "140_30" }, "geometry": { "type": "MultiPolygon", "coordinates": [ [ [ [ 140.314674, 30.485056 ], [ 140.314654, 30.485101 ], [ 140.314697, 30.485112 ], [ 140.314727, 30.485095 ], [ 140.314722, 30.485067 ], [ 140.314674, 30.485056 ] ] ] ] } },
{ "type": "Feature", "properties": { "FID": 178020, "id": 2316, "left": 140.0, "top": 35.0, "right": 145.0, "bottom": 30.0, "row_index": 11, "col_index": 64, "min_lon": 140.0, "min_lat": 30.0, "tile_id": "140_30" }, "geometry": { "type": "MultiPolygon", "coordinates": [ [ [ [ 140.287689, 30.486107 ], [ 140.287714, 30.48616 ], [ 140.287784, 30.486133 ], [ 140.287765, 30.486065 ], [ 140.287702, 30.48608 ], [ 140.287689, 30.486107 ] ] ] ] } },
{ "type": "Feature", "properties": { "FID": 178021, "id": 2316, "left": 140.0, "top": 35.0, "right": 145.0, "bottom": 30.0, "row_index": 11, "col_index": 64, "min_lon": 140.0, "min_lat": 30.0, "tile_id": "140_30" }, "geometry": { "type": "MultiPolygon", "coordinates": [ [ [ [ 140.289989, 30.479147 ], [ 140.289989, 30.479205 ], [ 140.290037, 30.479204 ], [ 140.29004, 30.479154 ], [ 140.290007, 30.479138 ], [ 140.289989, 30.479147 ] ] ] ] } },
{ "type": "Feature", "properties": { "FID": 178032, "id": 2316, "left": 140.0, "top": 35.0, "right": 145.0, "bottom": 30.0, "row_index": 11, "col_index": 64, "min_lon": 140.0, "min_lat": 30.0, "tile_id": "140_30" }, "geometry": { "type": "MultiPolygon", "coordinates": [ [ [ [ 140.309485, 30.493207 ], [ 140.309522, 30.493218 ], [ 140.30955, 30.493188 ], [ 140.309551, 30.493147 ], [ 140.309525, 30.493145 ], [ 140.309485, 30.493207 ] ] ] ] } },
{ "type": "Feature", "properties": { "FID": 178052, "id": 2316, "left": 140.0, "top": 35.0, "right": 145.0, "bottom": 30.0, "row_index": 11, "col_index": 64, "min_lon": 140.0, "min_lat": 30.0, "tile_id": "140_30" }, "geometry": { "type": "MultiPolygon", "coordinates": [ [ [ [ 140.311812, 30.49086 ], [ 140.311792, 30.490901 ], [ 140.31183, 30.49092 ], [ 140.311858, 30.490904 ], [ 140.311841, 30.49085 ], [ 140.311812, 30.49086 ] ] ] ] } },
{ "type": "Feature", "properties": { "FID": 178075, "id": 2316, "left": 140.0, "top": 35.0, "right": 145.0, "bottom": 30.0, "row_index": 11, "col_index": 64, "min_lon": 140.0, "min_lat": 30.0, "tile_id": "140_30" }, "geometry": { "type": "MultiPolygon", "coordinates": [ [ [ [ 140.300294, 30.472754 ], [ 140.30027, 30.472779 ], [ 140.300312, 30.472804 ], [ 140.300347, 30.472795 ], [ 140.300334, 30.472753 ], [ 140.300294, 30.472754 ] ] ] ] } },
{ "type": "Feature", "properties": { "FID": 178094, "id": 2316, "left": 140.0, "top": 35.0, "right": 145.0, "bottom": 30.0, "row_index": 11, "col_index": 64, "min_lon": 140.0, "min_lat": 30.0, "tile_id": "140_30" }, "geometry": { "type": "MultiPolygon", "coordinates": [ [ [ [ 140.31257, 30.479123 ], [ 140.312545, 30.47913 ], [ 140.312561, 30.479183 ], [ 140.31261, 30.479178 ], [ 140.312604, 30.47915 ], [ 140.31257, 30.479123 ] ] ] ] } },
{ "type": "Feature", "properties": { "FID": 178116, "id": 2316, "left": 140.0, "top": 35.0, "right": 145.0, "bottom": 30.0, "row_index": 11, "col_index": 64, "min_lon": 140.0, "min_lat": 30.0, "tile_id": "140_30" }, "geometry": { "type": "MultiPolygon", "coordinates": [ [ [ [ 140.308417, 30.474539 ], [ 140.308421, 30.47456 ], [ 140.308455, 30.474577 ], [ 140.308495, 30.474574 ], [ 140.308509, 30.474543 ], [ 140.308417, 30.474539 ] ] ] ] } },
{ "type": "Feature", "properties": { "FID": 178156, "id": 2316, "left": 140.0, "top": 35.0, "right": 145.0, "bottom": 30.0, "row_index": 11, "col_index": 64, "min_lon": 140.0, "min_lat": 30.0, "tile_id": "140_30" }, "geometry": { "type": "MultiPolygon", "coordinates": [ [ [ [ 140.314513, 30.48715 ], [ 140.314531, 30.487167 ], [ 140.314576, 30.487135 ], [ 140.314563, 30.487098 ], [ 140.314511, 30.487109 ], [ 140.314513, 30.48715 ] ] ] ] } },
{ "type": "Feature", "properties": { "FID": 178158, "id": 2316, "left": 140.0, "top": 35.0, "right": 145.0, "bottom": 30.0, "row_index": 11, "col_index": 64, "min_lon": 140.0, "min_lat": 30.0, "tile_id": "140_30" }, "geometry": { "type": "MultiPolygon", "coordinates": [ [ [ [ 140.29225, 30.477254 ], [ 140.292261, 30.477293 ], [ 140.29233, 30.477278 ], [ 140.29233, 30.477208 ], [ 140.292277, 30.477207 ], [ 140.29225, 30.477254 ] ] ] ] } },
{ "type": "Feature", "properties": { "FID": 178164, "id": 2316, "left": 140.0, "top": 35.0, "right": 145.0, "bottom": 30.0, "row_index": 11, "col_index": 64, "min_lon": 140.0, "min_lat": 30.0, "tile_id": "140_30" }, "geometry": { "type": "MultiPolygon", "coordinates": [ [ [ [ 140.310218, 30.475786 ], [ 140.310252, 30.475796 ], [ 140.310267, 30.475768 ], [ 140.310258, 30.475735 ], [ 140.310232, 30.475736 ], [ 140.310218, 30.475786 ] ] ] ] } },
{ "type": "Feature", "properties": { "FID": 178173, "id": 2316, "left": 140.0, "top": 35.0, "right": 145.0, "bottom": 30.0, "row_index": 11, "col_index": 64, "min_lon": 140.0, "min_lat": 30.0, "tile_id": "140_30" }, "geometry": { "type": "MultiPolygon", "coordinates": [ [ [ [ 140.312849, 30.479843 ], [ 140.312815, 30.479846 ], [ 140.312799, 30.479886 ], [ 140.312808, 30.479923 ], [ 140.31287, 30.47991 ], [ 140.312849, 30.479843 ] ] ] ] } },
{ "type": "Feature", "properties": { "FID": 178190, "id": 2316, "left": 140.0, "top": 35.0, "right": 145.0, "bottom": 30.0, "row_index": 11, "col_index": 64, "min_lon": 140.0, "min_lat": 30.0, "tile_id": "140_30" }, "geometry": { "type": "MultiPolygon", "coordinates": [ [ [ [ 140.290187, 30.478909 ], [ 140.290214, 30.47892 ], [ 140.290242, 30.478889 ], [ 140.290244, 30.478859 ], [ 140.290211, 30.478844 ], [ 140.290187, 30.478909 ] ] ] ] } },
{ "type": "Feature", "properties": { "FID": 178196, "id": 2316, "left": 140.0, "top": 35.0, "right": 145.0, "bottom": 30.0, "row_index": 11, "col_index": 64, "min_lon": 140.0, "min_lat": 30.0, "tile_id": "140_30" }, "geometry": { "type": "MultiPolygon", "coordinates": [ [ [ [ 140.315506, 30.486414 ], [ 140.315454, 30.486435 ], [ 140.315471, 30.486499 ], [ 140.315503, 30.486513 ], [ 140.31555, 30.486491 ], [ 140.315506, 30.486414 ] ] ] ] } },
{ "type": "Feature", "properties": { "FID": 178214, "id": 2316, "left": 140.0, "top": 35.0, "right": 145.0, "bottom": 30.0, "row_index": 11, "col_index": 64, "min_lon": 140.0, "min_lat": 30.0, "tile_id": "140_30" }, "geometry": { "type": "MultiPolygon", "coordinates": [ [ [ [ 140.293829, 30.475601 ], [ 140.293819, 30.475636 ], [ 140.293881, 30.475651 ], [ 140.293904, 30.475601 ], [ 140.293856, 30.475583 ], [ 140.293829, 30.475601 ] ] ] ] } },
{ "type": "Feature", "properties": { "FID": 178239, "id": 2316, "left": 140.0, "top": 35.0, "right": 145.0, "bottom": 30.0, "row_index": 11, "col_index": 64, "min_lon": 140.0, "min_lat": 30.0, "tile_id": "140_30" }, "geometry": { "type": "MultiPolygon", "coordinates": [ [ [ [ 140.310237, 30.475458 ], [ 140.310226, 30.475494 ], [ 140.310248, 30.475509 ], [ 140.310303, 30.475489 ], [ 140.310293, 30.475455 ], [ 140.310237, 30.475458 ] ] ] ] } },
{ "type": "Feature", "properties": { "FID": 178250, "id": 2316, "left": 140.0, "top": 35.0, "right": 145.0, "bottom": 30.0, "row_index": 11, "col_index": 64, "min_lon": 140.0, "min_lat": 30.0, "tile_id": "140_30" }, "geometry": { "type": "MultiPolygon", "coordinates": [ [ [ [ 140.309334, 30.475028 ], [ 140.309285, 30.475046 ], [ 140.309291, 30.475099 ], [ 140.309321, 30.475103 ], [ 140.309346, 30.47508 ], [ 140.309334, 30.475028 ] ] ] ] } },
{ "type": "Feature", "properties": { "FID": 178274, "id": 2316, "left": 140.0, "top": 35.0, "right": 145.0, "bottom": 30.0, "row_index": 11, "col_index": 64, "min_lon": 140.0, "min_lat": 30.0, "tile_id": "140_30" }, "geometry": { "type": "MultiPolygon", "coordinates": [ [ [ [ 140.298922, 30.472846 ], [ 140.298905, 30.472894 ], [ 140.298953, 30.472917 ], [ 140.298988, 30.472904 ], [ 140.298988, 30.472871 ], [ 140.298922, 30.472846 ] ] ] ] } },
{ "type": "Feature", "properties": { "FID": 178298, "id": 2316, "left": 140.0, "top": 35.0, "right": 145.0, "bottom": 30.0, "row_index": 11, "col_index": 64, "min_lon": 140.0, "min_lat": 30.0, "tile_id": "140_30" }, "geometry": { "type": "MultiPolygon", "coordinates": [ [ [ [ 140.291009, 30.478294 ], [ 140.291012, 30.478322 ], [ 140.291047, 30.478324 ], [ 140.291066, 30.478301 ], [ 140.291054, 30.47828 ], [ 140.291009, 30.478294 ] ] ] ] } },
{ "type": "Feature", "properties": { "FID": 178330, "id": 2316, "left": 140.0, "top": 35.0, "right": 145.0, "bottom": 30.0, "row_index": 11, "col_index": 64, "min_lon": 140.0, "min_lat": 30.0, "tile_id": "140_30" }, "geometry": { "type": "MultiPolygon", "coordinates": [ [ [ [ 140.312356, 30.478815 ], [ 140.312365, 30.478843 ], [ 140.312402, 30.478838 ], [ 140.312415, 30.478816 ], [ 140.312399, 30.478796 ], [ 140.312356, 30.478815 ] ] ] ] } },
{ "type": "Feature", "properties": { "FID": 178352, "id": 2316, "left": 140.0, "top": 35.0, "right": 145.0, "bottom": 30.0, "row_index": 11, "col_index": 64, "min_lon": 140.0, "min_lat": 30.0, "tile_id": "140_30" }, "geometry": { "type": "MultiPolygon", "coordinates": [ [ [ [ 140.309982, 30.492878 ], [ 140.310008, 30.492891 ], [ 140.31003, 30.492875 ], [ 140.310035, 30.492835 ], [ 140.309999, 30.492823 ], [ 140.309982, 30.492878 ] ] ] ] } },
{ "type": "Feature", "properties": { "FID": 178383, "id": 2316, "left": 140.0, "top": 35.0, "right": 145.0, "bottom": 30.0, "row_index": 11, "col_index": 64, "min_lon": 140.0, "min_lat": 30.0, "tile_id": "140_30" }, "geometry": { "type": "MultiPolygon", "coordinates": [ [ [ [ 140.304899, 30.473888 ], [ 140.304856, 30.47391 ], [ 140.304879, 30.473965 ], [ 140.304943, 30.47396 ], [ 140.304964, 30.473938 ], [ 140.304953, 30.473894 ], [ 140.304899, 30.473888 ] ] ] ] } },
{ "type": "Feature", "properties": { "FID": 178394, "id": 2316, "left": 140.0, "top": 35.0, "right": 145.0, "bottom": 30.0, "row_index": 11, "col_index": 64, "min_lon": 140.0, "min_lat": 30.0, "tile_id": "140_30" }, "geometry": { "type": "MultiPolygon", "coordinates": [ [ [ [ 140.307884, 30.474489 ], [ 140.307923, 30.474522 ], [ 140.307944, 30.474504 ], [ 140.307932, 30.474462 ], [ 140.307908, 30.474439 ], [ 140.307877, 30.474458 ], [ 140.307884, 30.474489 ] ] ] ] } },
{ "type": "Feature", "properties": { "FID": 178397, "id": 2316, "left": 140.0, "top": 35.0, "right": 145.0, "bottom": 30.0, "row_index": 11, "col_index": 64, "min_lon": 140.0, "min_lat": 30.0, "tile_id": "140_30" }, "geometry": { "type": "MultiPolygon", "coordinates": [ [ [ [ 140.28671, 30.483034 ], [ 140.286748, 30.483015 ], [ 140.286744, 30.482981 ], [ 140.28668, 30.482976 ], [ 140.286633, 30.483024 ], [ 140.286653, 30.48305 ], [ 140.28671, 30.483034 ] ] ] ] } },
{ "type": "Feature", "properties": { "FID": 178418, "id": 2316, "left": 140.0, "top": 35.0, "right": 145.0, "bottom": 30.0, "row_index": 11, "col_index": 64, "min_lon": 140.0, "min_lat": 30.0, "tile_id": "140_30" }, "geometry": { "type": "MultiPolygon", "coordinates": [ [ [ [ 140.31464, 30.486683 ], [ 140.31458, 30.4867 ], [ 140.314566, 30.486736 ], [ 140.314597, 30.486794 ], [ 140.314639, 30.486793 ], [ 140.314661, 30.486764 ], [ 140.31464, 30.486683 ] ] ] ] } },
{ "type": "Feature", "properties": { "FID": 178422, "id": 2316, "left": 140.0, "top": 35.0, "right": 145.0, "bottom": 30.0, "row_index": 11, "col_index": 64, "min_lon": 140.0, "min_lat": 30.0, "tile_id": "140_30" }, "geometry": { "type": "MultiPolygon", "coordinates": [ [ [ [ 140.297909, 30.472595 ], [ 140.297855, 30.47259 ], [ 140.29784, 30.472655 ], [ 140.297897, 30.472703 ], [ 140.297942, 30.472694 ], [ 140.297948, 30.472641 ], [ 140.297909, 30.472595 ] ] ] ] } },
{ "type": "Feature", "properties": { "FID": 178427, "id": 2316, "left": 140.0, "top": 35.0, "right": 145.0, "bottom": 30.0, "row_index": 11, "col_index": 64, "min_lon": 140.0, "min_lat": 30.0, "tile_id": "140_30" }, "geometry": { "type": "MultiPolygon", "coordinates": [ [ [ [ 140.289851, 30.479253 ], [ 140.289835, 30.479266 ], [ 140.289839, 30.479329 ], [ 140.289895, 30.479323 ], [ 140.289907, 30.479287 ], [ 140.289889, 30.479261 ], [ 140.289851, 30.479253 ] ] ] ] } },
{ "type": "Feature", "properties": { "FID": 178439, "id": 2316, "left": 140.0, "top": 35.0, "right": 145.0, "bottom": 30.0, "row_index": 11, "col_index": 64, "min_lon": 140.0, "min_lat": 30.0, "tile_id": "140_30" }, "geometry": { "type": "MultiPolygon", "coordinates": [ [ [ [ 140.314555, 30.484945 ], [ 140.314613, 30.484953 ], [ 140.314629, 30.484942 ], [ 140.31463, 30.484903 ], [ 140.314608, 30.48487 ], [ 140.314573, 30.484875 ], [ 140.314555, 30.484945 ] ] ] ] } },
{ "type": "Feature", "properties": { "FID": 178447, "id": 2316, "left": 140.0, "top": 35.0, "right": 145.0, "bottom": 30.0, "row_index": 11, "col_index": 64, "min_lon": 140.0, "min_lat": 30.0, "tile_id": "140_30" }, "geometry": { "type": "MultiPolygon", "coordinates": [ [ [ [ 140.298801, 30.472819 ], [ 140.298752, 30.47283 ], [ 140.298742, 30.47287 ], [ 140.298798, 30.472899 ], [ 140.298837, 30.472884 ], [ 140.298836, 30.472844 ], [ 140.298801, 30.472819 ] ] ] ] } },
{ "type": "Feature", "properties": { "FID": 178462, "id": 2316, "left": 140.0, "top": 35.0, "right": 145.0, "bottom": 30.0, "row_index": 11, "col_index": 64, "min_lon": 140.0, "min_lat": 30.0, "tile_id": "140_30" }, "geometry": { "type": "MultiPolygon", "coordinates": [ [ [ [ 140.314711, 30.486554 ], [ 140.314753, 30.486548 ], [ 140.314754, 30.486529 ], [ 140.314688, 30.486494 ], [ 140.314645, 30.486502 ], [ 140.314657, 30.486546 ], [ 140.314711, 30.486554 ] ] ] ] } },
{ "type": "Feature", "properties": { "FID": 178505, "id": 2316, "left": 140.0, "top": 35.0, "right": 145.0, "bottom": 30.0, "row_index": 11, "col_index": 64, "min_lon": 140.0, "min_lat": 30.0, "tile_id": "140_30" }, "geometry": { "type": "MultiPolygon", "coordinates": [ [ [ [ 140.298419, 30.472786 ], [ 140.298384, 30.472797 ], [ 140.298387, 30.47283 ], [ 140.298444, 30.47284 ], [ 140.298476, 30.47282 ], [ 140.298468, 30.4728 ], [ 140.298419, 30.472786 ] ] ] ] } },
{ "type": "Feature", "properties": { "FID": 178554, "id": 2316, "left": 140.0, "top": 35.0, "right": 145.0, "bottom": 30.0, "row_index": 11, "col_index": 64, "min_lon": 140.0, "min_lat": 30.0, "tile_id": "140_30" }, "geometry": { "type": "MultiPolygon", "coordinates": [ [ [ [ 140.30052, 30.472791 ], [ 140.300481, 30.47281 ], [ 140.300495, 30.472856 ], [ 140.300538, 30.472858 ], [ 140.300573, 30.472839 ], [ 140.300567, 30.472796 ], [ 140.30052, 30.472791 ] ] ] ] } },
{ "type": "Feature", "properties": { "FID": 178573, "id": 2316, "left": 140.0, "top": 35.0, "right": 145.0, "bottom": 30.0, "row_index": 11, "col_index": 64, "min_lon": 140.0, "min_lat": 30.0, "tile_id": "140_30" }, "geometry": { "type": "MultiPolygon", "coordinates": [ [ [ [ 140.28834, 30.481924 ], [ 140.28838, 30.481915 ], [ 140.288377, 30.481882 ], [ 140.288325, 30.481855 ], [ 140.288277, 30.481867 ], [ 140.288287, 30.48191 ], [ 140.28834, 30.481924 ] ] ] ] } },
{ "type": "Feature", "properties": { "FID": 178612, "id": 2316, "left": 140.0, "top": 35.0, "right": 145.0, "bottom": 30.0, "row_index": 11, "col_index": 64, "min_lon": 140.0, "min_lat": 30.0, "tile_id": "140_30" }, "geometry": { "type": "MultiPolygon", "coordinates": [ [ [ [ 140.313661, 30.481489 ], [ 140.313619, 30.48149 ], [ 140.313605, 30.481527 ], [ 140.313647, 30.481543 ], [ 140.313682, 30.481529 ], [ 140.313684, 30.481507 ], [ 140.313661, 30.481489 ] ] ] ] } },
{ "type": "Feature", "properties": { "FID": 178690, "id": 2316, "left": 140.0, "top": 35.0, "right": 145.0, "bottom": 30.0, "row_index": 11, "col_index": 64, "min_lon": 140.0, "min_lat": 30.0, "tile_id": "140_30" }, "geometry": { "type": "MultiPolygon", "coordinates": [ [ [ [ 140.3104, 30.475937 ], [ 140.3104, 30.475969 ], [ 140.310444, 30.475979 ], [ 140.310465, 30.475933 ], [ 140.310457, 30.475906 ], [ 140.310426, 30.475905 ], [ 140.3104, 30.475937 ] ] ] ] } },
{ "type": "Feature", "properties": { "FID": 178726, "id": 2316, "left": 140.0, "top": 35.0, "right": 145.0, "bottom": 30.0, "row_index": 11, "col_index": 64, "min_lon": 140.0, "min_lat": 30.0, "tile_id": "140_30" }, "geometry": { "type": "MultiPolygon", "coordinates": [ [ [ [ 140.313375, 30.489051 ], [ 140.313376, 30.489087 ], [ 140.313398, 30.489095 ], [ 140.313426, 30.489065 ], [ 140.313433, 30.489034 ], [ 140.313401, 30.489024 ], [ 140.313375, 30.489051 ] ] ] ] } },
{ "type": "Feature", "properties": { "FID": 178733, "id": 2316, "left": 140.0, "top": 35.0, "right": 145.0, "bottom": 30.0, "row_index": 11, "col_index": 64, "min_lon": 140.0, "min_lat": 30.0, "tile_id": "140_30" }, "geometry": { "type": "MultiPolygon", "coordinates": [ [ [ [ 140.307375, 30.47446 ], [ 140.307311, 30.474499 ], [ 140.307334, 30.474522 ], [ 140.307395, 30.474505 ], [ 140.307427, 30.474482 ], [ 140.307423, 30.474456 ], [ 140.307375, 30.47446 ] ] ] ] } },
{ "type": "Feature", "properties": { "FID": 178736, "id": 2316, "left": 140.0, "top": 35.0, "right": 145.0, "bottom": 30.0, "row_index": 11, "col_index": 64, "min_lon": 140.0, "min_lat": 30.0, "tile_id": "140_30" }, "geometry": { "type": "MultiPolygon", "coordinates": [ [ [ [ 140.29755, 30.472637 ], [ 140.297538, 30.472673 ], [ 140.29755, 30.472688 ], [ 140.297615, 30.472709 ], [ 140.297648, 30.472699 ], [ 140.297633, 30.472643 ], [ 140.29755, 30.472637 ] ] ] ] } },
{ "type": "Feature", "properties": { "FID": 178759, "id": 2316, "left": 140.0, "top": 35.0, "right": 145.0, "bottom": 30.0, "row_index": 11, "col_index": 64, "min_lon": 140.0, "min_lat": 30.0, "tile_id": "140_30" }, "geometry": { "type": "MultiPolygon", "coordinates": [ [ [ [ 140.298559, 30.472661 ], [ 140.298541, 30.47268 ], [ 140.298549, 30.472714 ], [ 140.298596, 30.472724 ], [ 140.298621, 30.472715 ], [ 140.29863, 30.472684 ], [ 140.298559, 30.472661 ] ] ] ] } },
{ "type": "Feature", "properties": { "FID": 178771, "id": 2316, "left": 140.0, "top": 35.0, "right": 145.0, "bottom": 30.0, "row_index": 11, "col_index": 64, "min_lon": 140.0, "min_lat": 30.0, "tile_id": "140_30" }, "geometry": { "type": "MultiPolygon", "coordinates": [ [ [ [ 140.306703, 30.474411 ], [ 140.306668, 30.474421 ], [ 140.306666, 30.474448 ], [ 140.306706, 30.474463 ], [ 140.306739, 30.474453 ], [ 140.306736, 30.474425 ], [ 140.306703, 30.474411 ] ] ] ] } },
{ "type": "Feature", "properties": { "FID": 178798, "id": 2316, "left": 140.0, "top": 35.0, "right": 145.0, "bottom": 30.0, "row_index": 11, "col_index": 64, "min_lon": 140.0, "min_lat": 30.0, "tile_id": "140_30" }, "geometry": { "type": "MultiPolygon", "coordinates": [ [ [ [ 140.305849, 30.474353 ], [ 140.305846, 30.474391 ], [ 140.305871, 30.474394 ], [ 140.305903, 30.474361 ], [ 140.305913, 30.474321 ], [ 140.305884, 30.474316 ], [ 140.305849, 30.474353 ] ] ] ] } },
{ "type": "Feature", "properties": { "FID": 178816, "id": 2316, "left": 140.0, "top": 35.0, "right": 145.0, "bottom": 30.0, "row_index": 11, "col_index": 64, "min_lon": 140.0, "min_lat": 30.0, "tile_id": "140_30" }, "geometry": { "type": "MultiPolygon", "coordinates": [ [ [ [ 140.310392, 30.492322 ], [ 140.310357, 30.492343 ], [ 140.310361, 30.492384 ], [ 140.310438, 30.492399 ], [ 140.310467, 30.492383 ], [ 140.310458, 30.492331 ], [ 140.310392, 30.492322 ] ] ] ] } },
{ "type": "Feature", "properties": { "FID": 178836, "id": 2316, "left": 140.0, "top": 35.0, "right": 145.0, "bottom": 30.0, "row_index": 11, "col_index": 64, "min_lon": 140.0, "min_lat": 30.0, "tile_id": "140_30" }, "geometry": { "type": "MultiPolygon", "coordinates": [ [ [ [ 140.314326, 30.485348 ], [ 140.31428, 30.485348 ], [ 140.314272, 30.485388 ], [ 140.314316, 30.485419 ], [ 140.314347, 30.485418 ], [ 140.314355, 30.485377 ], [ 140.314326, 30.485348 ] ] ] ] } },
{ "type": "Feature", "properties": { "FID": 178847, "id": 2316, "left": 140.0, "top": 35.0, "right": 145.0, "bottom": 30.0, "row_index": 11, "col_index": 64, "min_lon": 140.0, "min_lat": 30.0, "tile_id": "140_30" }, "geometry": { "type": "MultiPolygon", "coordinates": [ [ [ [ 140.315274, 30.487206 ], [ 140.315285, 30.487173 ], [ 140.315268, 30.48715 ], [ 140.315235, 30.487146 ], [ 140.315203, 30.487171 ], [ 140.315216, 30.487215 ], [ 140.315274, 30.487206 ] ] ] ] } },
{ "type": "Feature", "properties": { "FID": 178892, "id": 2316, "left": 140.0, "top": 35.0, "right": 145.0, "bottom": 30.0, "row_index": 11, "col_index": 64, "min_lon": 140.0, "min_lat": 30.0, "tile_id": "140_30" }, "geometry": { "type": "MultiPolygon", "coordinates": [ [ [ [ 140.29336, 30.476036 ], [ 140.293352, 30.476085 ], [ 140.293388, 30.47611 ], [ 140.293419, 30.476066 ], [ 140.293405, 30.476028 ], [ 140.293378, 30.476026 ], [ 140.29336, 30.476036 ] ] ] ] } },
{ "type": "Feature", "properties": { "FID": 178909, "id": 2316, "left": 140.0, "top": 35.0, "right": 145.0, "bottom": 30.0, "row_index": 11, "col_index": 64, "min_lon": 140.0, "min_lat": 30.0, "tile_id": "140_30" }, "geometry": { "type": "MultiPolygon", "coordinates": [ [ [ [ 140.315362, 30.486312 ], [ 140.315356, 30.486382 ], [ 140.315407, 30.486398 ], [ 140.315436, 30.486386 ], [ 140.315461, 30.486358 ], [ 140.315445, 30.4863 ], [ 140.315362, 30.486312 ] ] ] ] } },
{ "type": "Feature", "properties": { "FID": 178916, "id": 2316, "left": 140.0, "top": 35.0, "right": 145.0, "bottom": 30.0, "row_index": 11, "col_index": 64, "min_lon": 140.0, "min_lat": 30.0, "tile_id": "140_30" }, "geometry": { "type": "MultiPolygon", "coordinates": [ [ [ [ 140.298535, 30.472838 ], [ 140.298519, 30.472861 ], [ 140.298533, 30.472899 ], [ 140.298605, 30.472895 ], [ 140.298628, 30.472865 ], [ 140.298615, 30.472839 ], [ 140.298535, 30.472838 ] ] ] ] } },
{ "type": "Feature", "properties": { "FID": 178969, "id": 2316, "left": 140.0, "top": 35.0, "right": 145.0, "bottom": 30.0, "row_index": 11, "col_index": 64, "min_lon": 140.0, "min_lat": 30.0, "tile_id": "140_30" }, "geometry": { "type": "MultiPolygon", "coordinates": [ [ [ [ 140.290372, 30.47871 ], [ 140.290355, 30.478727 ], [ 140.290372, 30.478755 ], [ 140.290429, 30.478758 ], [ 140.290464, 30.478734 ], [ 140.290444, 30.478706 ], [ 140.290372, 30.47871 ] ] ] ] } },
{ "type": "Feature", "properties": { "FID": 178984, "id": 2316, "left": 140.0, "top": 35.0, "right": 145.0, "bottom": 30.0, "row_index": 11, "col_index": 64, "min_lon": 140.0, "min_lat": 30.0, "tile_id": "140_30" }, "geometry": { "type": "MultiPolygon", "coordinates": [ [ [ [ 140.288854, 30.481552 ], [ 140.288795, 30.481578 ], [ 140.288812, 30.481613 ], [ 140.288837, 30.481624 ], [ 140.288879, 30.481606 ], [ 140.288877, 30.481573 ], [ 140.288854, 30.481552 ] ] ] ] } },
{ "type": "Feature", "properties": { "FID": 179029, "id": 2316, "left": 140.0, "top": 35.0, "right": 145.0, "bottom": 30.0, "row_index": 11, "col_index": 64, "min_lon": 140.0, "min_lat": 30.0, "tile_id": "140_30" }, "geometry": { "type": "MultiPolygon", "coordinates": [ [ [ [ 140.311273, 30.477416 ], [ 140.311284, 30.477446 ], [ 140.311321, 30.477451 ], [ 140.311341, 30.477436 ], [ 140.311329, 30.477389 ], [ 140.311288, 30.47738 ], [ 140.311273, 30.477416 ] ] ] ] } },
{ "type": "Feature", "properties": { "FID": 179051, "id": 2316, "left": 140.0, "top": 35.0, "right": 145.0, "bottom": 30.0, "row_index": 11, "col_index": 64, "min_lon": 140.0, "min_lat": 30.0, "tile_id": "140_30" }, "geometry": { "type": "MultiPolygon", "coordinates": [ [ [ [ 140.309721, 30.475224 ], [ 140.309688, 30.475241 ], [ 140.3097, 30.475272 ], [ 140.30973, 30.475279 ], [ 140.309773, 30.475258 ], [ 140.309769, 30.475231 ], [ 140.309721, 30.475224 ] ] ] ] } },
{ "type": "Feature", "properties": { "FID": 179056, "id": 2316, "left": 140.0, "top": 35.0, "right": 145.0, "bottom": 30.0, "row_index": 11, "col_index": 64, "min_lon": 140.0, "min_lat": 30.0, "tile_id": "140_30" }, "geometry": { "type": "MultiPolygon", "coordinates": [ [ [ [ 140.315205, 30.487036 ], [ 140.315166, 30.487069 ], [ 140.315188, 30.487106 ], [ 140.315237, 30.487087 ], [ 140.315251, 30.487042 ], [ 140.31524, 30.487032 ], [ 140.315205, 30.487036 ] ] ] ] } },
{ "type": "Feature", "properties": { "FID": 179068, "id": 2316, "left": 140.0, "top": 35.0, "right": 145.0, "bottom": 30.0, "row_index": 11, "col_index": 64, "min_lon": 140.0, "min_lat": 30.0, "tile_id": "140_30" }, "geometry": { "type": "MultiPolygon", "coordinates": [ [ [ [ 140.314783, 30.487074 ], [ 140.3148, 30.487103 ], [ 140.31484, 30.487101 ], [ 140.314858, 30.487064 ], [ 140.314824, 30.487015 ], [ 140.314786, 30.487029 ], [ 140.314783, 30.487074 ] ] ] ] } },
{ "type": "Feature", "properties": { "FID": 179144, "id": 2316, "left": 140.0, "top": 35.0, "right": 145.0, "bottom": 30.0, "row_index": 11, "col_index": 64, "min_lon": 140.0, "min_lat": 30.0, "tile_id": "140_30" }, "geometry": { "type": "MultiPolygon", "coordinates": [ [ [ [ 140.313862, 30.481573 ], [ 140.313898, 30.481602 ], [ 140.31393, 30.481601 ], [ 140.313962, 30.481576 ], [ 140.313947, 30.481535 ], [ 140.313919, 30.481519 ], [ 140.313863, 30.481538 ], [ 140.313862, 30.481573 ] ] ] ] } },
{ "type": "Feature", "properties": { "FID": 179187, "id": 2316, "left": 140.0, "top": 35.0, "right": 145.0, "bottom": 30.0, "row_index": 11, "col_index": 64, "min_lon": 140.0, "min_lat": 30.0, "tile_id": "140_30" }, "geometry": { "type": "MultiPolygon", "coordinates": [ [ [ [ 140.309758, 30.49323 ], [ 140.309808, 30.493238 ], [ 140.309888, 30.493204 ], [ 140.309888, 30.493157 ], [ 140.309829, 30.493126 ], [ 140.309749, 30.493128 ], [ 140.30972, 30.493188 ], [ 140.309758, 30.49323 ] ] ] ] } },
{ "type": "Feature", "properties": { "FID": 179253, "id": 2316, "left": 140.0, "top": 35.0, "right": 145.0, "bottom": 30.0, "row_index": 11, "col_index": 64, "min_lon": 140.0, "min_lat": 30.0, "tile_id": "140_30" }, "geometry": { "type": "MultiPolygon", "coordinates": [ [ [ [ 140.314037, 30.485003 ], [ 140.314062, 30.484965 ], [ 140.314057, 30.484928 ], [ 140.314026, 30.4849 ], [ 140.313976, 30.484929 ], [ 140.313963, 30.484959 ], [ 140.313992, 30.485006 ], [ 140.314037, 30.485003 ] ] ] ] } },
{ "type": "Feature", "properties": { "FID": 179258, "id": 2316, "left": 140.0, "top": 35.0, "right": 145.0, "bottom": 30.0, "row_index": 11, "col_index": 64, "min_lon": 140.0, "min_lat": 30.0, "tile_id": "140_30" }, "geometry": { "type": "MultiPolygon", "coordinates": [ [ [ [ 140.293702, 30.475878 ], [ 140.29371, 30.475856 ], [ 140.293717, 30.475823 ], [ 140.293696, 30.4758 ], [ 140.293658, 30.475813 ], [ 140.293641, 30.475851 ], [ 140.293659, 30.475888 ], [ 140.293702, 30.475878 ] ] ] ] } },
{ "type": "Feature", "properties": { "FID": 179272, "id": 2316, "left": 140.0, "top": 35.0, "right": 145.0, "bottom": 30.0, "row_index": 11, "col_index": 64, "min_lon": 140.0, "min_lat": 30.0, "tile_id": "140_30" }, "geometry": { "type": "MultiPolygon", "coordinates": [ [ [ [ 140.314598, 30.48592 ], [ 140.314619, 30.48593 ], [ 140.314658, 30.485929 ], [ 140.314679, 30.485906 ], [ 140.314658, 30.485858 ], [ 140.314605, 30.485861 ], [ 140.31459, 30.485878 ], [ 140.314598, 30.48592 ] ] ] ] } },
{ "type": "Feature", "properties": { "FID": 179280, "id": 2316, "left": 140.0, "top": 35.0, "right": 145.0, "bottom": 30.0, "row_index": 11, "col_index": 64, "min_lon": 140.0, "min_lat": 30.0, "tile_id": "140_30" }, "geometry": { "type": "MultiPolygon", "coordinates": [ [ [ [ 140.286021, 30.482525 ], [ 140.286107, 30.482479 ], [ 140.286129, 30.482423 ], [ 140.286062, 30.482414 ], [ 140.285986, 30.482455 ], [ 140.285972, 30.48249 ], [ 140.285977, 30.482508 ], [ 140.286021, 30.482525 ] ] ] ] } },
{ "type": "Feature", "properties": { "FID": 179308, "id": 2316, "left": 140.0, "top": 35.0, "right": 145.0, "bottom": 30.0, "row_index": 11, "col_index": 64, "min_lon": 140.0, "min_lat": 30.0, "tile_id": "140_30" }, "geometry": { "type": "MultiPolygon", "coordinates": [ [ [ [ 140.290184, 30.47872 ], [ 140.290246, 30.478721 ], [ 140.29029, 30.478696 ], [ 140.290294, 30.478638 ], [ 140.290244, 30.47863 ], [ 140.290162, 30.478672 ], [ 140.290157, 30.478689 ], [ 140.290184, 30.47872 ] ] ] ] } },
{ "type": "Feature", "properties": { "FID": 179367, "id": 2316, "left": 140.0, "top": 35.0, "right": 145.0, "bottom": 30.0, "row_index": 11, "col_index": 64, "min_lon": 140.0, "min_lat": 30.0, "tile_id": "140_30" }, "geometry": { "type": "MultiPolygon", "coordinates": [ [ [ [ 140.31548, 30.486207 ], [ 140.31551, 30.486169 ], [ 140.315504, 30.486113 ], [ 140.315476, 30.486101 ], [ 140.315449, 30.486112 ], [ 140.31543, 30.486173 ], [ 140.315443, 30.486203 ], [ 140.31548, 30.486207 ] ] ] ] } },
{ "type": "Feature", "properties": { "FID": 179402, "id": 2316, "left": 140.0, "top": 35.0, "right": 145.0, "bottom": 30.0, "row_index": 11, "col_index": 64, "min_lon": 140.0, "min_lat": 30.0, "tile_id": "140_30" }, "geometry": { "type": "MultiPolygon", "coordinates": [ [ [ [ 140.297912, 30.473016 ], [ 140.297974, 30.473011 ], [ 140.298003, 30.472994 ], [ 140.298002, 30.472957 ], [ 140.297935, 30.472939 ], [ 140.297899, 30.472953 ], [ 140.297891, 30.472977 ], [ 140.297912, 30.473016 ] ] ] ] } },
{ "type": "Feature", "properties": { "FID": 179409, "id": 2316, "left": 140.0, "top": 35.0, "right": 145.0, "bottom": 30.0, "row_index": 11, "col_index": 64, "min_lon": 140.0, "min_lat": 30.0, "tile_id": "140_30" }, "geometry": { "type": "MultiPolygon", "coordinates": [ [ [ [ 140.052506, 31.4380515 ], [ 140.052453, 31.4380495 ], [ 140.052432, 31.4380815 ], [ 140.052437, 31.4381255 ], [ 140.052494, 31.4381625 ], [ 140.052526, 31.4381515 ], [ 140.052529, 31.4380755 ], [ 140.052506, 31.4380515 ] ] ] ] } },
{ "type": "Feature", "properties": { "FID": 179461, "id": 2316, "left": 140.0, "top": 35.0, "right": 145.0, "bottom": 30.0, "row_index": 11, "col_index": 64, "min_lon": 140.0, "min_lat": 30.0, "tile_id": "140_30" }, "geometry": { "type": "MultiPolygon", "coordinates": [ [ [ [ 140.311395, 30.477154 ], [ 140.311416, 30.47712 ], [ 140.311401, 30.477076 ], [ 140.311353, 30.477077 ], [ 140.311338, 30.477094 ], [ 140.31134, 30.477144 ], [ 140.311356, 30.477156 ], [ 140.311395, 30.477154 ] ] ] ] } },
{ "type": "Feature", "properties": { "FID": 179666, "id": 2316, "left": 140.0, "top": 35.0, "right": 145.0, "bottom": 30.0, "row_index": 11, "col_index": 64, "min_lon": 140.0, "min_lat": 30.0, "tile_id": "140_30" }, "geometry": { "type": "MultiPolygon", "coordinates": [ [ [ [ 140.287295, 30.482257 ], [ 140.287285, 30.482278 ], [ 140.287295, 30.48233 ], [ 140.287318, 30.482346 ], [ 140.287362, 30.482341 ], [ 140.287384, 30.4823 ], [ 140.287386, 30.482272 ], [ 140.287356, 30.482244 ], [ 140.287295, 30.482257 ] ] ] ] } },
{ "type": "Feature", "properties": { "FID": 179670, "id": 2316, "left": 140.0, "top": 35.0, "right": 145.0, "bottom": 30.0, "row_index": 11, "col_index": 64, "min_lon": 140.0, "min_lat": 30.0, "tile_id": "140_30" }, "geometry": { "type": "MultiPolygon", "coordinates": [ [ [ [ 140.313193, 30.480406 ], [ 140.313143, 30.480426 ], [ 140.31315, 30.480495 ], [ 140.313171, 30.48051 ], [ 140.313224, 30.480511 ], [ 140.313269, 30.480491 ], [ 140.313278, 30.48045 ], [ 140.313248, 30.480415 ], [ 140.313193, 30.480406 ] ] ] ] } },
{ "type": "Feature", "properties": { "FID": 179764, "id": 2316, "left": 140.0, "top": 35.0, "right": 145.0, "bottom": 30.0, "row_index": 11, "col_index": 64, "min_lon": 140.0, "min_lat": 30.0, "tile_id": "140_30" }, "geometry": { "type": "MultiPolygon", "coordinates": [ [ [ [ 140.050603599999988, 31.4420478 ], [ 140.0506086, 31.4420958 ], [ 140.0506566, 31.4421328 ], [ 140.0507196, 31.4421128 ], [ 140.0507436, 31.4420638 ], [ 140.0507366, 31.4420368 ], [ 140.0507136, 31.4420058 ], [ 140.050626599999987, 31.4420138 ], [ 140.050603599999988, 31.4420478 ] ] ] ] } },
{ "type": "Feature", "properties": { "FID": 179828, "id": 2316, "left": 140.0, "top": 35.0, "right": 145.0, "bottom": 30.0, "row_index": 11, "col_index": 64, "min_lon": 140.0, "min_lat": 30.0, "tile_id": "140_30" }, "geometry": { "type": "MultiPolygon", "coordinates": [ [ [ [ 140.0520469, 31.4383934 ], [ 140.0520229, 31.4383564 ], [ 140.0519739, 31.4383344 ], [ 140.0519529, 31.4383394 ], [ 140.051947899999988, 31.4384664 ], [ 140.0519899, 31.4385254 ], [ 140.05201790000001, 31.4385124 ], [ 140.0520419, 31.4384624 ], [ 140.0520469, 31.4383934 ] ] ] ] } },
{ "type": "Feature", "properties": { "FID": 179855, "id": 2316, "left": 140.0, "top": 35.0, "right": 145.0, "bottom": 30.0, "row_index": 11, "col_index": 64, "min_lon": 140.0, "min_lat": 30.0, "tile_id": "140_30" }, "geometry": { "type": "MultiPolygon", "coordinates": [ [ [ [ 140.297382, 30.472503 ], [ 140.297357, 30.472437 ], [ 140.297305, 30.472425 ], [ 140.29728, 30.472451 ], [ 140.297268, 30.472476 ], [ 140.297294, 30.472546 ], [ 140.297337, 30.472573 ], [ 140.29737, 30.472556 ], [ 140.297382, 30.472503 ] ] ] ] } },
{ "type": "Feature", "properties": { "FID": 180004, "id": 2316, "left": 140.0, "top": 35.0, "right": 145.0, "bottom": 30.0, "row_index": 11, "col_index": 64, "min_lon": 140.0, "min_lat": 30.0, "tile_id": "140_30" }, "geometry": { "type": "MultiPolygon", "coordinates": [ [ [ [ 140.0537664, 31.4381056 ], [ 140.0536174, 31.4381396 ], [ 140.0536204, 31.4381886 ], [ 140.053703399999989, 31.4382946 ], [ 140.0537204, 31.4383656 ], [ 140.0537424, 31.4383796 ], [ 140.0538014, 31.4383166 ], [ 140.053861399999988, 31.4381906 ], [ 140.053828399999986, 31.4381226 ], [ 140.0537664, 31.4381056 ] ] ] ] } },
{ "type": "Feature", "properties": { "FID": 180078, "id": 2316, "left": 140.0, "top": 35.0, "right": 145.0, "bottom": 30.0, "row_index": 11, "col_index": 64, "min_lon": 140.0, "min_lat": 30.0, "tile_id": "140_30" }, "geometry": { "type": "MultiPolygon", "coordinates": [ [ [ [ 140.315168, 30.48749 ], [ 140.315206, 30.487436 ], [ 140.315206, 30.48739 ], [ 140.315182, 30.487353 ], [ 140.315125, 30.487341 ], [ 140.31504, 30.487356 ], [ 140.315005, 30.487427 ], [ 140.31502, 30.48749 ], [ 140.315073, 30.487523 ], [ 140.315168, 30.48749 ] ] ] ] } }
]
}
