{
"type": "FeatureCollection",
"name": "140_55",
"crs": { "type": "name", "properties": { "name": "urn:ogc:def:crs:OGC:1.3:CRS84" } },
"xy_coordinate_resolution": 1e-15,
"features": [
{ "type": "Feature", "properties": { "FID": 123912, "id": 2311, "left": 140.0, "top": 60.0, "right": 145.0, "bottom": 55.0, "row_index": 6, "col_index": 64, "min_lon": 140.0, "min_lat": 55.0, "tile_id": "140_55" }, "geometry": { "type": "MultiPolygon", "coordinates": [ [ [ [ 144.9958365, 59.3682828 ], [ 144.99055580000001, 59.3677072 ], [ 144.9861536, 59.3673687 ], [ 144.9800706, 59.3671219 ], [ 144.973719100000011, 59.3668377 ], [ 144.9678826, 59.3664878 ], [ 144.962303600000013, 59.3661488 ], [ 144.9595141, 59.365952 ], [ 144.953227, 59.3656021 ], [ 144.9473476, 59.36546 ], [ 144.9407601, 59.3653507 ], [ 144.935503, 59.3655475 ], [ 144.931662100000011, 59.3655475 ], [ 144.9296665, 59.3654163 ], [ 144.927585099999988, 59.365296 ], [ 144.9267764, 59.3654736 ], [ 144.9258935, 59.3659687 ], [ 144.9249006, 59.3665254 ], [ 144.9221349, 59.366455 ], [ 144.920718599999987, 59.3666846 ], [ 144.9188733, 59.3670126 ], [ 144.9181223, 59.3671001 ], [ 144.916040900000013, 59.367111 ], [ 144.9135732, 59.3669798 ], [ 144.909818199999989, 59.3666737 ], [ 144.9071145, 59.3665315 ], [ 144.9035096, 59.3664331 ], [ 144.9009561, 59.3662582 ], [ 144.89402530000001, 59.3660723 ], [ 144.8860001, 59.3660614 ], [ 144.8824811, 59.3660614 ], [ 144.8801636, 59.3661816 ], [ 144.8726105, 59.3663347 ], [ 144.8684907, 59.3665862 ], [ 144.865207700000013, 59.3667393 ], [ 144.8628258, 59.3667939 ], [ 144.8570269, 59.3670941 ], [ 144.8514433, 59.3673979 ], [ 144.8442942, 59.3677454 ], [ 144.8417403, 59.3678216 ], [ 144.8377698, 59.3680587 ], [ 144.833792100000011, 59.3683234 ], [ 144.828447899999986, 59.3685993 ], [ 144.826186400000012, 59.3687418 ], [ 144.8237436, 59.3686339 ], [ 144.820806, 59.3687537 ], [ 144.8000621, 59.3697896 ], [ 144.7796593, 59.3710254 ], [ 144.771802400000013, 59.3714294 ], [ 144.765172, 59.3715825 ], [ 144.7605586, 59.3715497 ], [ 144.758563, 59.371495 ], [ 144.75701810000001, 59.3715825 ], [ 144.75631, 59.3719214 ], [ 144.756020299999989, 59.3722383 ], [ 144.754555, 59.3724485 ], [ 144.752418299999988, 59.3727548 ], [ 144.7502619, 59.3725398 ], [ 144.7449374, 59.3726866 ], [ 144.7431564, 59.3730255 ], [ 144.74159, 59.3734081 ], [ 144.7396374, 59.3732332 ], [ 144.7350669, 59.3728724 ], [ 144.7318482, 59.3727412 ], [ 144.727942899999988, 59.3728178 ], [ 144.7159153, 59.3728806 ], [ 144.7019331, 59.372604 ], [ 144.6909714, 59.3727768 ], [ 144.6857451, 59.3727941 ], [ 144.668312, 59.3725664 ], [ 144.6541499, 59.3726538 ], [ 144.6376704, 59.3725664 ], [ 144.619923199999988, 59.3721154 ], [ 144.6120245, 59.371878 ], [ 144.6048343, 59.3715804 ], [ 144.599922099999986, 59.3712672 ], [ 144.5944895, 59.3708325 ], [ 144.588776, 59.3705184 ], [ 144.58026, 59.3701517 ], [ 144.569312, 59.3695333 ], [ 144.559399500000012, 59.3691485 ], [ 144.5474308, 59.3687939 ], [ 144.5348582, 59.3685543 ], [ 144.5197349, 59.3686188 ], [ 144.5077153, 59.3685682 ], [ 144.49396010000001, 59.3686521 ], [ 144.4743229, 59.3686339 ], [ 144.4661152, 59.3686984 ], [ 144.4554305, 59.3682262 ], [ 144.4518256, 59.3680075 ], [ 144.4472551, 59.3673953 ], [ 144.4408393, 59.3667393 ], [ 144.4379854, 59.3665315 ], [ 144.4338655, 59.3666627 ], [ 144.427042, 59.367439 ], [ 144.426140800000013, 59.3676249 ], [ 144.4259691, 59.3677998 ], [ 144.426080399999989, 59.3680957 ], [ 144.425825800000013, 59.368521 ], [ 144.425578, 59.3689349 ], [ 144.4245958, 59.3690024 ], [ 144.4226646, 59.369068 ], [ 144.4213986, 59.3693085 ], [ 144.4195533, 59.3693632 ], [ 144.417600599999986, 59.3692648 ], [ 144.414103, 59.3691336 ], [ 144.411227700000012, 59.3691336 ], [ 144.4061422, 59.3691118 ], [ 144.3938684, 59.3695053 ], [ 144.386830300000014, 59.3697021 ], [ 144.373784, 59.3703143 ], [ 144.3652868, 59.3706423 ], [ 144.3569612, 59.3711015 ], [ 144.3471336, 59.371823 ], [ 144.3381214, 59.3725882 ], [ 144.3257547, 59.373611 ], [ 144.3169398, 59.3743861 ], [ 144.3100739, 59.3749609 ], [ 144.3014288, 59.3756927 ], [ 144.2986393, 59.3759331 ], [ 144.2969565, 59.3760123 ], [ 144.2960792, 59.3762168 ], [ 144.2949221, 59.376457 ], [ 144.2940567, 59.3765266 ], [ 144.2913436, 59.3767857 ], [ 144.2894125, 59.3769825 ], [ 144.286623, 59.3771355 ], [ 144.275465, 59.3781848 ], [ 144.2680569, 59.379185 ], [ 144.2622041, 59.3798679 ], [ 144.2570543, 59.380327 ], [ 144.2520332, 59.3808953 ], [ 144.2492334, 59.3814685 ], [ 144.2470121, 59.3816166 ], [ 144.2446088, 59.3816822 ], [ 144.2420201, 59.3822826 ], [ 144.239716499999986, 59.3825564 ], [ 144.232378, 59.3832777 ], [ 144.227271, 59.3838678 ], [ 144.2245245, 59.3843487 ], [ 144.2157268, 59.385048 ], [ 144.211049, 59.3853322 ], [ 144.2061865, 59.3857398 ], [ 144.1991885, 59.3866093 ], [ 144.1858717, 59.3882779 ], [ 144.181182, 59.388824 ], [ 144.1707504, 59.3902439 ], [ 144.1524056, 59.3926705 ], [ 144.1465023, 59.3936244 ], [ 144.1416337, 59.3946131 ], [ 144.1369976, 59.395308 ], [ 144.1316167, 59.3958242 ], [ 144.1270499, 59.3961275 ], [ 144.1078776, 59.3970444 ], [ 144.0814248, 59.3986752 ], [ 144.0577145, 59.4000757 ], [ 144.037133399999988, 59.4011254 ], [ 144.0261992, 59.4016618 ], [ 144.0144186, 59.4020687 ], [ 143.9987156, 59.4025035 ], [ 143.9795265, 59.4028121 ], [ 143.964223299999986, 59.402877 ], [ 143.9582786, 59.4027894 ], [ 143.9459139, 59.40264 ], [ 143.9366025, 59.4026526 ], [ 143.9187939, 59.4021944 ], [ 143.910198799999989, 59.401882 ], [ 143.8995171, 59.4016011 ], [ 143.8837979, 59.4011083 ], [ 143.877202399999987, 59.4007557 ], [ 143.87028620000001, 59.4003131 ], [ 143.8648231, 59.3999807 ], [ 143.8543076, 59.3991637 ], [ 143.8420865, 59.3980803 ], [ 143.830513200000013, 59.3969345 ], [ 143.8219991, 59.3958911 ], [ 143.8088649, 59.3941287 ], [ 143.7935489, 59.3920019 ], [ 143.7776625, 59.3894041 ], [ 143.7637159, 59.38686 ], [ 143.744468399999988, 59.3827042 ], [ 143.732779, 59.3801038 ], [ 143.716743900000012, 59.3763666 ], [ 143.702686699999987, 59.3731902 ], [ 143.6830823, 59.3683544 ], [ 143.6672108, 59.3644452 ], [ 143.651904300000012, 59.3606151 ], [ 143.6501125, 59.36019 ], [ 143.6420695, 59.3582817 ], [ 143.636233, 59.3567345 ], [ 143.6310521, 59.3551917 ], [ 143.6286896, 59.3546101 ], [ 143.616313100000013, 59.351851 ], [ 143.6069467, 59.3491984 ], [ 143.597601, 59.3459922 ], [ 143.5917364, 59.3440891 ], [ 143.585772, 59.3424091 ], [ 143.5826128, 59.3416795 ], [ 143.581200599999988, 59.3413533 ], [ 143.5784597, 59.3409995 ], [ 143.5758597, 59.3403621 ], [ 143.5712787, 59.3394755 ], [ 143.568109, 59.3387891 ], [ 143.563542, 59.3378507 ], [ 143.5593668, 59.3367561 ], [ 143.5566743, 59.3358718 ], [ 143.5550973, 59.3351273 ], [ 143.553395099999989, 59.3350963 ], [ 143.5513282, 59.3356854 ], [ 143.5504651, 59.3357237 ], [ 143.5487799, 59.3356716 ], [ 143.5456139, 59.3350963 ], [ 143.541788, 59.3344298 ], [ 143.5395277, 59.3339767 ], [ 143.5349785, 59.3329629 ], [ 143.53213980000001, 59.3323349 ], [ 143.5294525, 59.3315974 ], [ 143.526451, 59.3308691 ], [ 143.5235281, 59.3299824 ], [ 143.5204632, 59.3292057 ], [ 143.5170957, 59.3284351 ], [ 143.514069400000011, 59.3277672 ], [ 143.5123937, 59.3272306 ], [ 143.509672099999989, 59.3265007 ], [ 143.5048732, 59.3254903 ], [ 143.5019026, 59.3249987 ], [ 143.497352, 59.3241769 ], [ 143.494318099999987, 59.3234329 ], [ 143.4910762, 59.3225853 ], [ 143.4872134, 59.3215144 ], [ 143.4838239, 59.3201541 ], [ 143.482087, 59.3194044 ], [ 143.48108830000001, 59.3191796 ], [ 143.4802463, 59.3192019 ], [ 143.479527100000013, 59.319335 ], [ 143.478054, 59.3195557 ], [ 143.47777640000001, 59.3197373 ], [ 143.4767784, 59.3201592 ], [ 143.4758857, 59.3203424 ], [ 143.47566470000001, 59.3204739 ], [ 143.475537300000013, 59.320569 ], [ 143.4755518, 59.3207273 ], [ 143.475740300000012, 59.3211209 ], [ 143.4757109, 59.3213954 ], [ 143.4751645, 59.3223566 ], [ 143.4745718, 59.3229535 ], [ 143.4735818, 59.323872 ], [ 143.4715701, 59.3248323 ], [ 143.4697464, 59.3253905 ], [ 143.4659165, 59.3255146 ], [ 143.4634241, 59.3259177 ], [ 143.4606277, 59.3256076 ], [ 143.4586823, 59.3257316 ], [ 143.458378399999987, 59.3263519 ], [ 143.4563115, 59.3270032 ], [ 143.45424460000001, 59.3270652 ], [ 143.4521777, 59.3267861 ], [ 143.45005, 59.3260108 ], [ 143.448043899999988, 59.3253595 ], [ 143.4454906, 59.3252044 ], [ 143.444335599999988, 59.3255146 ], [ 143.4418432, 59.3249563 ], [ 143.440627299999989, 59.3253595 ], [ 143.4391076, 59.3259487 ], [ 143.437648599999989, 59.3262589 ], [ 143.430657599999989, 59.3262899 ], [ 143.4282259, 59.3260418 ], [ 143.426402200000012, 59.3253285 ], [ 143.4253079, 59.3256386 ], [ 143.4234842, 59.3255146 ], [ 143.4202623, 59.3254835 ], [ 143.4182561, 59.3252975 ], [ 143.415581300000014, 59.3256696 ], [ 143.4129673, 59.3257627 ], [ 143.412359400000014, 59.3262589 ], [ 143.4102925, 59.3264449 ], [ 143.4076785, 59.3263519 ], [ 143.4049429, 59.3261968 ], [ 143.4023896, 59.3259487 ], [ 143.4006267, 59.3254835 ], [ 143.3992893, 59.3247702 ], [ 143.3967968, 59.3245841 ], [ 143.3954594, 59.3250493 ], [ 143.394426, 59.3255456 ], [ 143.3932101, 59.3262278 ], [ 143.3899274, 59.326538 ], [ 143.387495800000011, 59.3264759 ], [ 143.3853073, 59.3262899 ], [ 143.383665900000011, 59.3260108 ], [ 143.3816598, 59.3258867 ], [ 143.3813558, 59.3264449 ], [ 143.380444, 59.3271892 ], [ 143.3789242, 59.3274063 ], [ 143.377647599999989, 59.3280886 ], [ 143.377282799999989, 59.3285847 ], [ 143.3758846, 59.329391 ], [ 143.3748512, 59.3300732 ], [ 143.374243299999989, 59.3310965 ], [ 143.373696099999989, 59.3319337 ], [ 143.3728451, 59.3329879 ], [ 143.3716292, 59.3336701 ], [ 143.369927100000012, 59.3344142 ], [ 143.3681034, 59.3348483 ], [ 143.366218800000013, 59.3351583 ], [ 143.3649422, 59.3354063 ], [ 143.362718699999988, 59.3355611 ], [ 143.3624098, 59.3358072 ], [ 143.3620248, 59.3360554 ], [ 143.361668, 59.3362549 ], [ 143.361020200000013, 59.3364541 ], [ 143.3603444, 59.336583 ], [ 143.3601371, 59.3365777 ], [ 143.3600505, 59.3366351 ], [ 143.3601674, 59.3366793 ], [ 143.3597302, 59.3367632 ], [ 143.359479099999987, 59.336836 ], [ 143.3592194, 59.3367632 ], [ 143.359093800000011, 59.3367831 ], [ 143.3591111, 59.3368625 ], [ 143.359039700000011, 59.3369376 ], [ 143.359091299999989, 59.3369691 ], [ 143.3591371, 59.3369773 ], [ 143.3591692, 59.3370165 ], [ 143.3592644, 59.3370386 ], [ 143.3592796, 59.3370717 ], [ 143.3592601, 59.3371633 ], [ 143.3591927, 59.3372521 ], [ 143.3585302, 59.3377425 ], [ 143.3584782, 59.3378484 ], [ 143.3581921, 59.3383037 ], [ 143.3578506, 59.3386697 ], [ 143.3577651, 59.3389645 ], [ 143.3574649, 59.3398087 ], [ 143.356936, 59.3404304 ], [ 143.35645980000001, 59.3409315 ], [ 143.3562608, 59.341238 ], [ 143.3561851, 59.341451 ], [ 143.3562219, 59.3416033 ], [ 143.3562847, 59.3416971 ], [ 143.356358300000011, 59.3417523 ], [ 143.356447, 59.3417755 ], [ 143.356533399999989, 59.3417802 ], [ 143.3566137, 59.3417689 ], [ 143.356648299999989, 59.341738 ], [ 143.356665600000014, 59.3417104 ], [ 143.3565985, 59.341696 ], [ 143.356540099999989, 59.3416276 ], [ 143.3565227, 59.3415625 ], [ 143.3565552, 59.3415327 ], [ 143.356582300000014, 59.3415382 ], [ 143.3565758, 59.3415614 ], [ 143.3566223, 59.3415658 ], [ 143.356702399999989, 59.3415459 ], [ 143.3567457, 59.3415183 ], [ 143.3567284, 59.3414797 ], [ 143.3567262, 59.3414157 ], [ 143.3567803, 59.3414168 ], [ 143.3568453, 59.3413837 ], [ 143.3568756, 59.3413539 ], [ 143.3568323, 59.3412755 ], [ 143.3568864, 59.3412093 ], [ 143.3569015, 59.3411563 ], [ 143.3569924, 59.3410691 ], [ 143.3569903, 59.3409687 ], [ 143.357035599999989, 59.3408896 ], [ 143.357312799999988, 59.3406751 ], [ 143.357302, 59.3406398 ], [ 143.3573776, 59.3406202 ], [ 143.357524500000011, 59.3406925 ], [ 143.3575334, 59.3407924 ], [ 143.35738760000001, 59.3412513 ], [ 143.357223800000014, 59.3416623 ], [ 143.3568661, 59.3422554 ], [ 143.3563098, 59.3426613 ], [ 143.355238500000013, 59.3431428 ], [ 143.3548705, 59.343401 ], [ 143.354441799999989, 59.343761 ], [ 143.3539744, 59.3442265 ], [ 143.353814199999988, 59.3445201 ], [ 143.3535842, 59.3448076 ], [ 143.3532078, 59.3450037 ], [ 143.352643699999987, 59.3451155 ], [ 143.3513317, 59.345425 ], [ 143.3490677, 59.3461515 ], [ 143.347737099999989, 59.3465095 ], [ 143.3464009, 59.3472479 ], [ 143.3460361, 59.3477128 ], [ 143.3452796, 59.3482633 ], [ 143.344281599999988, 59.348733 ], [ 143.3430631, 59.3492529 ], [ 143.3419461, 59.3495706 ], [ 143.3406267, 59.35002 ], [ 143.3391991, 59.3504102 ], [ 143.3384551, 59.3506847 ], [ 143.337790500000011, 59.3510316 ], [ 143.336959799999988, 59.3517505 ], [ 143.336440900000014, 59.3521265 ], [ 143.3355101, 59.3525456 ], [ 143.334496300000012, 59.3530711 ], [ 143.332524799999987, 59.3539851 ], [ 143.3312666, 59.3544862 ], [ 143.3303708, 59.3548288 ], [ 143.3303618, 59.3550006 ], [ 143.330294400000014, 59.3551785 ], [ 143.330037299999987, 59.3554063 ], [ 143.329486300000013, 59.3557152 ], [ 143.329358, 59.3558973 ], [ 143.3288033, 59.3565047 ], [ 143.3287072, 59.3566318 ], [ 143.3279382, 59.3571968 ], [ 143.327057, 59.3576525 ], [ 143.3249621, 59.358585 ], [ 143.3239528, 59.3589229 ], [ 143.3237983, 59.3589911 ], [ 143.3229077, 59.3593843 ], [ 143.320591400000012, 59.3600302 ], [ 143.316304699999989, 59.3607746 ], [ 143.312102, 59.3613503 ], [ 143.306922899999989, 59.3618335 ], [ 143.3038996, 59.3620615 ], [ 143.300712299999986, 59.3621995 ], [ 143.2970422, 59.3623446 ], [ 143.293391899999989, 59.3624234 ], [ 143.2876301, 59.3624327 ], [ 143.276213500000011, 59.3620932 ], [ 143.2698545, 59.3619226 ], [ 143.262505299999987, 59.3615481 ], [ 143.2550048, 59.3610041 ], [ 143.2419698, 59.3598468 ], [ 143.2369497, 59.3593407 ], [ 143.2301756, 59.3586982 ], [ 143.224338499999988, 59.3578728 ], [ 143.2187284, 59.3570537 ], [ 143.2130496, 59.3560248 ], [ 143.2077356, 59.3549956 ], [ 143.20359590000001, 59.3540167 ], [ 143.1988761, 59.3530399 ], [ 143.1911349, 59.3513059 ], [ 143.18752520000001, 59.3506647 ], [ 143.1859953, 59.3504087 ], [ 143.1841832, 59.3499703 ], [ 143.1830631, 59.3498669 ], [ 143.180203799999987, 59.3492563 ], [ 143.176585499999987, 59.3484282 ], [ 143.1745417, 59.3479748 ], [ 143.171909199999988, 59.3473743 ], [ 143.1646431, 59.3462392 ], [ 143.161770600000011, 59.3458752 ], [ 143.1603835, 59.3457199 ], [ 143.1574774, 59.3454777 ], [ 143.1562332, 59.3454223 ], [ 143.152025400000014, 59.3447724 ], [ 143.14864750000001, 59.3443126 ], [ 143.1489158, 59.3439242 ], [ 143.148690499999987, 59.3432185 ], [ 143.1484437, 59.3430653 ], [ 143.1482398, 59.3427152 ], [ 143.1476712, 59.3424909 ], [ 143.147006, 59.3424471 ], [ 143.1451499, 59.3422392 ], [ 143.1431222, 59.3419766 ], [ 143.138541, 59.3413037 ], [ 143.136363, 59.3407402 ], [ 143.1336808, 59.3400728 ], [ 143.1314063, 59.3395038 ], [ 143.1245827, 59.3382454 ], [ 143.1158686, 59.3364819 ], [ 143.0950355, 59.3324233 ], [ 143.085444, 59.3304532 ], [ 143.0782556, 59.3290303 ], [ 143.0751443, 59.3284064 ], [ 143.071711, 59.3275307 ], [ 143.0701446, 59.3271257 ], [ 143.067011799999989, 59.326239 ], [ 143.0660891, 59.3264361 ], [ 143.0655741, 59.3267754 ], [ 143.0647802, 59.3271257 ], [ 143.064823100000012, 59.3267316 ], [ 143.0643296, 59.3263485 ], [ 143.0637288, 59.3259982 ], [ 143.0623984, 59.3255822 ], [ 143.0613041, 59.325418 ], [ 143.0594802, 59.3253524 ], [ 143.0585575, 59.3251444 ], [ 143.0548239, 59.3252538 ], [ 143.0521631, 59.3251882 ], [ 143.0486655, 59.3248597 ], [ 143.046669900000012, 59.3245751 ], [ 143.0431294, 59.3243343 ], [ 143.0408764, 59.3241153 ], [ 143.0376612, 59.3237548 ], [ 143.0348093, 59.3231821 ], [ 143.0302441, 59.3221995 ], [ 143.0266928, 59.3214277 ], [ 143.0234796, 59.3206175 ], [ 143.01926850000001, 59.3197224 ], [ 143.0184328, 59.3195594 ], [ 143.0169243, 59.3192653 ], [ 143.006738, 59.3170967 ], [ 142.9910189, 59.3131472 ], [ 142.9834378, 59.3112852 ], [ 142.9766761, 59.3097168 ], [ 142.971856, 59.3083226 ], [ 142.967104, 59.3070777 ], [ 142.9542243, 59.3036405 ], [ 142.943552399999987, 59.3006008 ], [ 142.935003, 59.2981832 ], [ 142.9278928, 59.2963156 ], [ 142.919502099999988, 59.2939973 ], [ 142.9111428, 59.2916685 ], [ 142.9052019, 59.2900162 ], [ 142.899465099999986, 59.2882388 ], [ 142.897572700000012, 59.2876762 ], [ 142.8921937, 59.2860768 ], [ 142.8793713, 59.2826711 ], [ 142.8774128, 59.2820634 ], [ 142.8733863, 59.280829 ], [ 142.8694044, 59.2796991 ], [ 142.8614288, 59.2769542 ], [ 142.8592572, 59.2764197 ], [ 142.855041699999987, 59.2753821 ], [ 142.847890799999988, 59.2737207 ], [ 142.840150599999987, 59.2719224 ], [ 142.8388969, 59.2716169 ], [ 142.837764600000014, 59.2713309 ], [ 142.8368235, 59.2711271 ], [ 142.8361839, 59.270987 ], [ 142.8354434, 59.2707941 ], [ 142.8345763, 59.2705906 ], [ 142.8335894, 59.2704055 ], [ 142.832877, 59.270162 ], [ 142.8321129, 59.2700735 ], [ 142.8313868, 59.2699489 ], [ 142.8293572, 59.2694947 ], [ 142.8281373, 59.2691444 ], [ 142.826253900000012, 59.268859 ], [ 142.8251546, 59.2687182 ], [ 142.8237168, 59.268464 ], [ 142.8223385, 59.2684329 ], [ 142.819896699999987, 59.2687454 ], [ 142.8158283, 59.2689291 ], [ 142.81252520000001, 59.2683944 ], [ 142.8110862, 59.2681615 ], [ 142.8077173, 59.2676681 ], [ 142.8048238, 59.2673353 ], [ 142.8021038, 59.2671557 ], [ 142.7977249, 59.2666682 ], [ 142.7942485, 59.2661071 ], [ 142.7889633, 59.2650911 ], [ 142.7845203, 59.2641782 ], [ 142.774517, 59.2623497 ], [ 142.7582688, 59.2594633 ], [ 142.73802280000001, 59.2564094 ], [ 142.710862, 59.2522453 ], [ 142.6925647, 59.249427 ], [ 142.6760261, 59.2465561 ], [ 142.6676376, 59.2449378 ], [ 142.657509, 59.24327 ], [ 142.6440086, 59.240498 ], [ 142.6360938, 59.2388475 ], [ 142.6044628, 59.2328774 ], [ 142.577098799999987, 59.2283839 ], [ 142.5603715, 59.2253758 ], [ 142.5458577, 59.222511 ], [ 142.5389256, 59.2205968 ], [ 142.530831400000011, 59.2182542 ], [ 142.524855, 59.2167704 ], [ 142.516788100000014, 59.2147105 ], [ 142.506416800000011, 59.2122887 ], [ 142.4974752, 59.2101946 ], [ 142.4882686, 59.207836 ], [ 142.4824372, 59.206177 ], [ 142.480470200000013, 59.2056276 ], [ 142.4768879, 59.2047197 ], [ 142.475057, 59.2042281 ], [ 142.469008800000012, 59.2026552 ], [ 142.4625443, 59.2009427 ], [ 142.4544626, 59.1986336 ], [ 142.4484009, 59.1968538 ], [ 142.4418111, 59.1947454 ], [ 142.4362111, 59.192917 ], [ 142.4350067, 59.1925074 ], [ 142.429781, 59.1907302 ], [ 142.4228247, 59.1884512 ], [ 142.416616299999987, 59.1859098 ], [ 142.4096671, 59.1832834 ], [ 142.4051076, 59.1814049 ], [ 142.4003985, 59.1796021 ], [ 142.392883500000011, 59.1766056 ], [ 142.387469900000013, 59.1744547 ], [ 142.3812125, 59.1719661 ], [ 142.3731861, 59.1688159 ], [ 142.3593124, 59.1630727 ], [ 142.3545195, 59.1611842 ], [ 142.3480202, 59.1584028 ], [ 142.3399391, 59.1551876 ], [ 142.3302828, 59.1511252 ], [ 142.3212231, 59.1473671 ], [ 142.308989200000013, 59.1421945 ], [ 142.2930337, 59.135954 ], [ 142.2885072, 59.1340111 ], [ 142.2832143, 59.1319366 ], [ 142.2739733, 59.1277225 ], [ 142.2618751, 59.122185 ], [ 142.251936, 59.1175567 ], [ 142.2430738, 59.1136531 ], [ 142.2349898, 59.1101845 ], [ 142.234351299999986, 59.1099013 ], [ 142.2304052, 59.1081507 ], [ 142.2166389, 59.1016494 ], [ 142.2083759, 59.0977738 ], [ 142.200616200000013, 59.0938348 ], [ 142.195388400000013, 59.0916228 ], [ 142.1903615, 59.0895461 ], [ 142.184818799999988, 59.0871838 ], [ 142.1828638, 59.0863056 ], [ 142.1824919, 59.0863694 ], [ 142.182123600000011, 59.0862405 ], [ 142.1817327, 59.0861037 ], [ 142.179247800000013, 59.0852339 ], [ 142.1720992, 59.0819761 ], [ 142.161404, 59.0764638 ], [ 142.1498684, 59.0706213 ], [ 142.149131, 59.0702831 ], [ 142.132545099999987, 59.0611311 ], [ 142.116226899999987, 59.0520595 ], [ 142.1079431, 59.0477305 ], [ 142.104863599999987, 59.0461235 ], [ 142.1019105, 59.0444777 ], [ 142.0962958, 59.0410808 ], [ 142.0865619, 59.0354286 ], [ 142.0824298, 59.0330608 ], [ 142.0785726, 59.0306998 ], [ 142.0748951, 59.0282768 ], [ 142.0687002, 59.0242017 ], [ 142.0659617, 59.0220823 ], [ 142.05527810000001, 59.0152204 ], [ 142.046225099999987, 59.009009 ], [ 142.037109, 59.0025791 ], [ 142.0244719, 58.99332 ], [ 142.0098255, 58.9827819 ], [ 141.9974229, 58.9736968 ], [ 141.9861646, 58.9650654 ], [ 141.977642300000014, 58.958273 ], [ 141.968893, 58.9511295 ], [ 141.9628641, 58.9460101 ], [ 141.957551200000012, 58.9414712 ], [ 141.9522208, 58.9369191 ], [ 141.9484807, 58.9335864 ], [ 141.9448117, 58.9302095 ], [ 141.937942, 58.9235647 ], [ 141.9336605, 58.9201794 ], [ 141.9279098, 58.9145296 ], [ 141.92430490000001, 58.9105631 ], [ 141.9207859, 58.9062858 ], [ 141.9190692, 58.9044241 ], [ 141.917696, 58.9030055 ], [ 141.9146657, 58.8999159 ], [ 141.9115161, 58.895402 ], [ 141.907053, 58.8903025 ], [ 141.901743399999987, 58.8841647 ], [ 141.8985557, 58.8806779 ], [ 141.8948221, 58.876153 ], [ 141.8904876, 58.8713612 ], [ 141.8888139, 58.8696972 ], [ 141.885144700000012, 58.8655037 ], [ 141.8835568, 58.8632292 ], [ 141.8813252, 58.8599559 ], [ 141.879909, 58.8576367 ], [ 141.8779135, 58.8555726 ], [ 141.8760681, 58.8529978 ], [ 141.876025199999987, 58.8521099 ], [ 141.876132500000011, 58.8512108 ], [ 141.8762183, 58.8507447 ], [ 141.8754458, 58.8498567 ], [ 141.874024100000014, 58.8487141 ], [ 141.8733124, 58.8480471 ], [ 141.872184299999986, 58.8475701 ], [ 141.8713045, 58.8468708 ], [ 141.868557900000013, 58.84525 ], [ 141.86578990000001, 58.8432518 ], [ 141.8620991, 58.8403319 ], [ 141.8592667, 58.8377448 ], [ 141.856198299999988, 58.8343581 ], [ 141.8524861, 58.8307933 ], [ 141.8493962, 58.8279168 ], [ 141.846091699999988, 58.8246846 ], [ 141.8428731, 58.8217964 ], [ 141.8408619, 58.8197296 ], [ 141.8341767, 58.8140135 ], [ 141.8277548, 58.809929 ], [ 141.8199387, 58.8043381 ], [ 141.802530100000013, 58.789034 ], [ 141.7843015, 58.7720223 ], [ 141.7788648, 58.7678998 ], [ 141.7751312, 58.7644061 ], [ 141.771827, 58.7606566 ], [ 141.7643165, 58.7534998 ], [ 141.7544086, 58.7445484 ], [ 141.7402276, 58.7317782 ], [ 141.735472, 58.7295347 ], [ 141.733513, 58.7261788 ], [ 141.7275634, 58.7209127 ], [ 141.711745799999989, 58.7087574 ], [ 141.7035913, 58.7025403 ], [ 141.6966167, 58.6965176 ], [ 141.69312, 58.6930419 ], [ 141.6929161, 58.6928997 ], [ 141.6925943, 58.6927882 ], [ 141.6920471, 58.6927074 ], [ 141.691408700000011, 58.6926126 ], [ 141.691123, 58.6923189 ], [ 141.6909152, 58.6921052 ], [ 141.6910332, 58.6919687 ], [ 141.691430200000013, 58.6918711 ], [ 141.6914195, 58.6917652 ], [ 141.6905826, 58.6908815 ], [ 141.689260600000011, 58.6885732 ], [ 141.6865003, 58.6874051 ], [ 141.6854811, 58.6865409 ], [ 141.6847146, 58.6861369 ], [ 141.683592800000014, 58.6852137 ], [ 141.681585399999989, 58.6830938 ], [ 141.6808569, 58.6822276 ], [ 141.6806638, 58.6819627 ], [ 141.6805431, 58.6818609 ], [ 141.6805592, 58.6817912 ], [ 141.680669200000011, 58.6817563 ], [ 141.680704100000014, 58.6817019 ], [ 141.680797899999988, 58.681681 ], [ 141.6808462, 58.6815876 ], [ 141.680851600000011, 58.6815249 ], [ 141.6805577, 58.6810519 ], [ 141.67872650000001, 58.6807346 ], [ 141.676931200000013, 58.6808466 ], [ 141.676047, 58.6817897 ], [ 141.6725329, 58.6809675 ], [ 141.6671799, 58.6778797 ], [ 141.6631853, 58.6744205 ], [ 141.6568863, 58.6702449 ], [ 141.6421001, 58.6630243 ], [ 141.640259, 58.6616659 ], [ 141.640064599999988, 58.661481 ], [ 141.6399868, 58.6614726 ], [ 141.6398862, 58.6614531 ], [ 141.6398218, 58.6614566 ], [ 141.6397689, 58.661451 ], [ 141.6397548, 58.6614332 ], [ 141.6397414, 58.6614162 ], [ 141.6397735, 58.661398 ], [ 141.639800400000013, 58.6613645 ], [ 141.6398513, 58.6613199 ], [ 141.639800400000013, 58.6612557 ], [ 141.6392988, 58.6608623 ], [ 141.6383255, 58.660043 ], [ 141.6370028, 58.6588451 ], [ 141.6355169, 58.6577039 ], [ 141.63407380000001, 58.6566324 ], [ 141.6332424, 58.6560994 ], [ 141.6329446, 58.6558859 ], [ 141.6328159, 58.6558371 ], [ 141.6327616, 58.6558092 ], [ 141.6327435, 58.6557502 ], [ 141.632715600000012, 58.6557354 ], [ 141.632620800000012, 58.6556847 ], [ 141.632544599999989, 58.6555878 ], [ 141.6313434, 58.6547042 ], [ 141.63026210000001, 58.6538272 ], [ 141.6285456, 58.6523193 ], [ 141.6265785, 58.6508914 ], [ 141.624459300000012, 58.6491439 ], [ 141.622653, 58.6482183 ], [ 141.6220844, 58.6476936 ], [ 141.62133080000001, 58.6469807 ], [ 141.620636, 58.6462422 ], [ 141.6206038, 58.6458794 ], [ 141.6203409, 58.6456979 ], [ 141.6199815, 58.6455877 ], [ 141.619341100000014, 58.6452313 ], [ 141.6189377, 58.6450355 ], [ 141.6180235, 58.6445116 ], [ 141.617066, 58.6440455 ], [ 141.616205, 58.6434955 ], [ 141.6154091, 58.6429546 ], [ 141.61363, 58.6417592 ], [ 141.6114178, 58.6407248 ], [ 141.610976099999988, 58.6405472 ], [ 141.6101056, 58.6400982 ], [ 141.6095853, 58.639745 ], [ 141.6093251, 58.6396138 ], [ 141.6090472, 58.6394298 ], [ 141.607321500000012, 58.6387526 ], [ 141.6056436, 58.6379759 ], [ 141.6051704, 58.637728 ], [ 141.6045803, 58.6375744 ], [ 141.60366830000001, 58.6375297 ], [ 141.6030601, 58.637401 ], [ 141.598880900000012, 58.6358941 ], [ 141.597992799999986, 58.635553 ], [ 141.5976244, 58.6353864 ], [ 141.5973383, 58.635257 ], [ 141.5971255, 58.6351622 ], [ 141.5967924, 58.6350137 ], [ 141.5962738, 58.6346726 ], [ 141.595224699999989, 58.6339028 ], [ 141.5948823, 58.6335737 ], [ 141.594699, 58.6333975 ], [ 141.5942377, 58.6329842 ], [ 141.594001600000013, 58.6327887 ], [ 141.593772199999989, 58.6325074 ], [ 141.593450600000011, 58.6322597 ], [ 141.5919405, 58.6313343 ], [ 141.5914287, 58.6310207 ], [ 141.5907723, 58.6305046 ], [ 141.5899676, 58.6299963 ], [ 141.589323900000011, 58.6295495 ], [ 141.589001200000013, 58.6293363 ], [ 141.5887056, 58.629141 ], [ 141.588133, 58.6287983 ], [ 141.5876394, 58.6283543 ], [ 141.586985, 58.627934 ], [ 141.586261799999988, 58.6275303 ], [ 141.586042099999986, 58.6274045 ], [ 141.58528720000001, 58.6270208 ], [ 141.584428800000012, 58.6266591 ], [ 141.5836644, 58.6262947 ], [ 141.5829137, 58.6258734 ], [ 141.581811, 58.6252948 ], [ 141.5813363, 58.6250476 ], [ 141.581094900000011, 58.624922 ], [ 141.580822500000011, 58.6247351 ], [ 141.5805656, 58.6245589 ], [ 141.5789652, 58.6235981 ], [ 141.5788513, 58.6235143 ], [ 141.5782249, 58.6230535 ], [ 141.5772096, 58.6223977 ], [ 141.5767744, 58.6221165 ], [ 141.5757616, 58.6216492 ], [ 141.5737944, 58.6208885 ], [ 141.5729763, 58.6204265 ], [ 141.5729565, 58.6204157 ], [ 141.572411100000011, 58.6201172 ], [ 141.5712838, 58.6195002 ], [ 141.5702212, 58.618763 ], [ 141.5693502, 58.6182048 ], [ 141.568322200000011, 58.6173859 ], [ 141.5675598, 58.6167977 ], [ 141.5668899, 58.6162293 ], [ 141.5663248, 58.615752 ], [ 141.5656185, 58.6148939 ], [ 141.5646932, 58.6140575 ], [ 141.5639126, 58.6131506 ], [ 141.5634727, 58.6127008 ], [ 141.5627826, 58.6119881 ], [ 141.562233600000013, 58.6117509 ], [ 141.5615416, 58.6116195 ], [ 141.5606694, 58.6115631 ], [ 141.5592576, 58.6112243 ], [ 141.5576021, 58.6108253 ], [ 141.557386799999989, 58.6107438 ], [ 141.556995199999989, 58.6105955 ], [ 141.5562467, 58.6102068 ], [ 141.5550184, 58.6095491 ], [ 141.553739900000011, 58.6087247 ], [ 141.5529666, 58.6082264 ], [ 141.5526779, 58.6080404 ], [ 141.551564, 58.6070817 ], [ 141.550716200000011, 58.6067074 ], [ 141.5498364, 58.606087 ], [ 141.5482558, 58.6052259 ], [ 141.547164900000013, 58.6044997 ], [ 141.5459912, 58.6038362 ], [ 141.5442152, 58.6026317 ], [ 141.543452699999989, 58.6020237 ], [ 141.542028499999986, 58.6015748 ], [ 141.541264, 58.6009784 ], [ 141.540033599999987, 58.6003828 ], [ 141.538828599999988, 58.5999331 ], [ 141.536972, 58.599559 ], [ 141.5342139, 58.5982018 ], [ 141.532796600000012, 58.5975631 ], [ 141.530191699999989, 58.5975032 ], [ 141.5285828, 58.5967847 ], [ 141.5270505, 58.5966649 ], [ 141.524867, 58.5955271 ], [ 141.5223005, 58.5954872 ], [ 141.5198871, 58.5951279 ], [ 141.5183165, 58.5944293 ], [ 141.5155201, 58.5929721 ], [ 141.5116894, 58.590836 ], [ 141.5089696, 58.589179 ], [ 141.5062499, 58.5878214 ], [ 141.5039897, 58.5876817 ], [ 141.5017679, 58.5867832 ], [ 141.4996611, 58.5861842 ], [ 141.4978223, 58.5852458 ], [ 141.49610770000001, 58.5841384 ], [ 141.494544, 58.5835429 ], [ 141.492780399999987, 58.5827681 ], [ 141.49060080000001, 58.5816587 ], [ 141.4878385, 58.5805754 ], [ 141.4859097, 58.5797373 ], [ 141.4846963, 58.5790852 ], [ 141.4835917, 58.5784677 ], [ 141.4830092, 58.5781246 ], [ 141.4824405, 58.5777303 ], [ 141.48124820000001, 58.5770706 ], [ 141.480635400000011, 58.5767864 ], [ 141.4801607, 58.5766297 ], [ 141.479210599999988, 58.5763562 ], [ 141.4784977, 58.5761962 ], [ 141.4779076, 58.5760508 ], [ 141.4767827, 58.5756301 ], [ 141.4755499, 58.5754047 ], [ 141.4746221, 58.5750552 ], [ 141.4735329, 58.5747027 ], [ 141.4724076, 58.5744016 ], [ 141.4714327, 58.5741503 ], [ 141.4709848, 58.5740916 ], [ 141.4705065, 58.5739546 ], [ 141.4696223, 58.5738776 ], [ 141.468930199999988, 58.5737839 ], [ 141.4687958, 58.5737707 ], [ 141.4684805, 58.5737397 ], [ 141.466439900000012, 58.5732762 ], [ 141.464974, 58.5726343 ], [ 141.463269700000012, 58.5721363 ], [ 141.4601146, 58.5711752 ], [ 141.458973899999989, 58.5706973 ], [ 141.4573809, 58.5702092 ], [ 141.4537602, 58.5690362 ], [ 141.451129400000013, 58.5681668 ], [ 141.448583, 58.5674541 ], [ 141.4453418, 58.5660725 ], [ 141.443349899999987, 58.5652734 ], [ 141.441166399999986, 58.5643144 ], [ 141.4389062, 58.5634553 ], [ 141.4361481, 58.562816 ], [ 141.4338114, 58.5617571 ], [ 141.431972699999989, 58.5614374 ], [ 141.4308375, 58.5605921 ], [ 141.430059699999987, 58.5602955 ], [ 141.4297995, 58.5602137 ], [ 141.4296947, 58.5601932 ], [ 141.429518, 58.5601587 ], [ 141.4292027, 58.560164 ], [ 141.42896, 58.5598052 ], [ 141.428567, 58.5593959 ], [ 141.42615, 58.5588199 ], [ 141.4238516, 58.5580206 ], [ 141.4216298, 58.5568017 ], [ 141.418373699999989, 58.5545835 ], [ 141.415768899999989, 58.5530846 ], [ 141.414658, 58.5522453 ], [ 141.4130491, 58.5513259 ], [ 141.4102527, 58.5507263 ], [ 141.407341300000013, 58.5494272 ], [ 141.4057324, 58.5484878 ], [ 141.402706200000011, 58.5478082 ], [ 141.400177899999989, 58.5468288 ], [ 141.39814770000001, 58.5460492 ], [ 141.395810899999987, 58.5448298 ], [ 141.3945085, 58.5434905 ], [ 141.393359299999986, 58.5428308 ], [ 141.390984300000014, 58.5419512 ], [ 141.3892988, 58.5414314 ], [ 141.3871153, 58.5406117 ], [ 141.3856213, 58.5396321 ], [ 141.384472100000011, 58.5385325 ], [ 141.3827483, 58.5380127 ], [ 141.3809095, 58.5373529 ], [ 141.3784579, 58.5364931 ], [ 141.3755466, 58.5355534 ], [ 141.3734014, 58.5349135 ], [ 141.3713711, 58.5340937 ], [ 141.3695707, 58.5333538 ], [ 141.368344900000011, 58.532494 ], [ 141.365816599999988, 58.532234 ], [ 141.3654718, 58.5310142 ], [ 141.363824599999987, 58.5299543 ], [ 141.3621774, 58.5292344 ], [ 141.360221, 58.5286778 ], [ 141.3578453, 58.5282535 ], [ 141.3550318, 58.5278291 ], [ 141.3531562, 58.527111 ], [ 141.3516557, 58.5260665 ], [ 141.349842599999988, 58.5254789 ], [ 141.3469667, 58.5242384 ], [ 141.3443408, 58.5230959 ], [ 141.3418139, 58.5214498 ], [ 141.3391086, 58.5198843 ], [ 141.3377136, 58.5190886 ], [ 141.336400700000013, 58.5184599 ], [ 141.335670599999986, 58.5180689 ], [ 141.3346594, 58.5178099 ], [ 141.3340786, 58.5174759 ], [ 141.3288197, 58.5148011 ], [ 141.3261681, 58.5132611 ], [ 141.3235736, 58.5117302 ], [ 141.3209209, 58.5103922 ], [ 141.319843, 58.5097272 ], [ 141.3186599, 58.5090305 ], [ 141.3179705, 58.5085743 ], [ 141.3174032, 58.5078326 ], [ 141.3171563, 58.507409 ], [ 141.3171609, 58.5072586 ], [ 141.3172406, 58.5071903 ], [ 141.3169672, 58.5071675 ], [ 141.3166529, 58.5070878 ], [ 141.3164684, 58.5071128 ], [ 141.316314299999988, 58.5070109 ], [ 141.3157075, 58.5069124 ], [ 141.3154934, 58.5069078 ], [ 141.314942800000011, 58.5066358 ], [ 141.3141129, 58.5063064 ], [ 141.313664100000011, 58.5062381 ], [ 141.3132176, 58.5063337 ], [ 141.3128515, 58.5063528 ], [ 141.3114841, 58.5062768 ], [ 141.3101791, 58.5060981 ], [ 141.308693799999986, 58.5059681 ], [ 141.307254, 58.5061454 ], [ 141.3067208, 58.5061281 ], [ 141.3055704, 58.5059943 ], [ 141.3044381, 58.5058232 ], [ 141.302574600000014, 58.5055142 ], [ 141.3012487, 58.5052102 ], [ 141.299941, 58.5049039 ], [ 141.299383299999988, 58.5048599 ], [ 141.298870099999988, 58.5049919 ], [ 141.2981441, 58.5049738 ], [ 141.2968062, 58.5046316 ], [ 141.295462, 58.5041928 ], [ 141.2946815, 58.5039988 ], [ 141.294113399999986, 58.5040379 ], [ 141.2933284, 58.5039122 ], [ 141.292527799999988, 58.5036614 ], [ 141.2915869, 58.5034789 ], [ 141.2913466, 58.5034042 ], [ 141.291121, 58.5034885 ], [ 141.2909798, 58.5035887 ], [ 141.290662, 58.5037702 ], [ 141.290301, 58.5038986 ], [ 141.2899957, 58.503935 ], [ 141.28968230000001, 58.5039265 ], [ 141.2891938, 58.5039054 ], [ 141.288477199999988, 58.5037825 ], [ 141.2878567, 58.5036411 ], [ 141.2871209, 58.5034111 ], [ 141.286421499999989, 58.5032129 ], [ 141.285854300000011, 58.5031445 ], [ 141.285579399999989, 58.5032611 ], [ 141.2852278, 58.5033723 ], [ 141.284913499999988, 58.5034657 ], [ 141.2845542, 58.5034753 ], [ 141.2818158, 58.5030877 ], [ 141.2794783, 58.5025735 ], [ 141.27681290000001, 58.5017165 ], [ 141.274680499999988, 58.5013094 ], [ 141.272630099999986, 58.5007309 ], [ 141.2696776, 58.4999596 ], [ 141.2675042, 58.4992097 ], [ 141.265207800000013, 58.498524 ], [ 141.2622963, 58.4973669 ], [ 141.2590567, 58.4964026 ], [ 141.25573510000001, 58.4954384 ], [ 141.251675299999988, 58.4940883 ], [ 141.24983, 58.4935097 ], [ 141.2476976, 58.4928882 ], [ 141.2464674, 58.4924167 ], [ 141.2447861, 58.4917952 ], [ 141.242940800000014, 58.4913023 ], [ 141.239578200000011, 58.490145 ], [ 141.236461600000013, 58.4889447 ], [ 141.234083199999986, 58.4882589 ], [ 141.2321559, 58.487423 ], [ 141.230351500000012, 58.4865227 ], [ 141.2285882, 58.485944 ], [ 141.227153, 58.4854724 ], [ 141.2255127, 58.4851723 ], [ 141.22292920000001, 58.4844006 ], [ 141.221617, 58.4839076 ], [ 141.2197716, 58.4832645 ], [ 141.217434200000014, 58.4822141 ], [ 141.2152198, 58.4812066 ], [ 141.21239030000001, 58.4797273 ], [ 141.210257899999988, 58.478784 ], [ 141.2086586, 58.4775405 ], [ 141.2069363, 58.4767044 ], [ 141.2057471, 58.4759539 ], [ 141.205091, 58.4751392 ], [ 141.2038198, 58.4745388 ], [ 141.202015499999987, 58.4738527 ], [ 141.199596, 58.4727376 ], [ 141.1978737, 58.4719657 ], [ 141.1966435, 58.471451 ], [ 141.1956183, 58.4707005 ], [ 141.1947161, 58.4698856 ], [ 141.1933219, 58.4693709 ], [ 141.1919687, 58.4692637 ], [ 141.1909435, 58.4691565 ], [ 141.1894672, 58.4693495 ], [ 141.188073, 58.4694138 ], [ 141.1864737, 58.4690064 ], [ 141.1848334, 58.468749 ], [ 141.1830701, 58.468363 ], [ 141.1811837, 58.4675695 ], [ 141.179953500000011, 58.4672478 ], [ 141.1793384, 58.4667331 ], [ 141.177124, 58.4666259 ], [ 141.176016800000014, 58.4667974 ], [ 141.174704600000013, 58.4664972 ], [ 141.1730643, 58.4663256 ], [ 141.171588, 58.465961 ], [ 141.1701937, 58.4655535 ], [ 141.1686765, 58.4653391 ], [ 141.1679383, 58.4658538 ], [ 141.1668311, 58.4662613 ], [ 141.166216, 58.4666688 ], [ 141.1646988, 58.466776 ], [ 141.1633455, 58.4674623 ], [ 141.1618693, 58.4688348 ], [ 141.1607621, 58.4697784 ], [ 141.1600239, 58.4703359 ], [ 141.1586069, 58.4705441 ], [ 141.1571853, 58.4706719 ], [ 141.1552489, 58.4708052 ], [ 141.1532076, 58.4707663 ], [ 141.15118, 58.470708 ], [ 141.1489316, 58.4706518 ], [ 141.1482298, 58.4706016 ], [ 141.147494, 58.4704973 ], [ 141.1469289, 58.4704484 ], [ 141.1463685, 58.4704646 ], [ 141.143867, 58.4702502 ], [ 141.14140660000001, 58.4697355 ], [ 141.138331, 58.4689635 ], [ 141.1361987, 58.4684059 ], [ 141.1339433, 58.4675481 ], [ 141.131728900000013, 58.4667117 ], [ 141.1297195, 58.4658109 ], [ 141.127218, 58.4648887 ], [ 141.1247576, 58.4638806 ], [ 141.122379200000012, 58.4631513 ], [ 141.120000800000014, 58.4625079 ], [ 141.118770500000011, 58.4618429 ], [ 141.1171712, 58.4614783 ], [ 141.116531, 58.460987 ], [ 141.1155924, 58.4608041 ], [ 141.114929600000011, 58.4606319 ], [ 141.1144603, 58.4605267 ], [ 141.114373199999989, 58.4605072 ], [ 141.113765300000011, 58.4603434 ], [ 141.1119223, 58.4602771 ], [ 141.110241, 58.4598052 ], [ 141.1070834, 58.4589686 ], [ 141.104377, 58.4579818 ], [ 141.1026957, 58.4575957 ], [ 141.100604299999986, 58.4571237 ], [ 141.0995791, 58.4566518 ], [ 141.0977895, 58.4560477 ], [ 141.094505700000013, 58.4550421 ], [ 141.0912219, 58.4542041 ], [ 141.0885841, 58.4531986 ], [ 141.0861739, 58.4523983 ], [ 141.084737, 58.4517193 ], [ 141.083439199999987, 58.4512828 ], [ 141.082697599999989, 58.4507735 ], [ 141.0808436, 58.450337 ], [ 141.0800094, 58.4506522 ], [ 141.079128700000012, 58.4507977 ], [ 141.0780163, 58.4506037 ], [ 141.077135700000014, 58.4507735 ], [ 141.0755598, 58.4504097 ], [ 141.0747255, 58.4500702 ], [ 141.073335, 58.4494154 ], [ 141.0711565, 58.4486878 ], [ 141.0691635, 58.4480815 ], [ 141.0680511, 58.4478632 ], [ 141.0658727, 58.4475964 ], [ 141.0638796, 58.4471598 ], [ 141.062164700000011, 58.446699 ], [ 141.0600789, 58.4464322 ], [ 141.058132199999989, 58.4459956 ], [ 141.055536600000011, 58.445462 ], [ 141.0539608, 58.4450254 ], [ 141.051875, 58.4448799 ], [ 141.0502064, 58.4447343 ], [ 141.047471800000011, 58.4444432 ], [ 141.0442736, 58.4438854 ], [ 141.0422806, 58.443473 ], [ 141.040612, 58.4428908 ], [ 141.0383582, 58.4423253 ], [ 141.036258, 58.4414157 ], [ 141.0340854, 58.4407334 ], [ 141.0326369, 58.4398995 ], [ 141.030391900000012, 58.4392172 ], [ 141.0283641, 58.4384212 ], [ 141.025612099999989, 58.4371702 ], [ 141.0231497, 58.4359951 ], [ 141.020108, 58.4348578 ], [ 141.0169215, 58.4333792 ], [ 141.012174, 58.4313899 ], [ 141.0092099, 58.4298978 ], [ 141.007157799999987, 58.4286145 ], [ 141.0049347, 58.4272417 ], [ 141.0035097, 58.4261673 ], [ 141.0019438, 58.4246602 ], [ 140.9999219, 58.4235839 ], [ 140.9979348, 58.4224609 ], [ 140.9956762, 58.4211567 ], [ 140.9941748, 58.420146 ], [ 140.9925498, 58.4189723 ], [ 140.991045, 58.4181112 ], [ 140.987752699999987, 58.4167628 ], [ 140.9856237, 58.4159079 ], [ 140.9825705, 58.4146576 ], [ 140.9799712, 58.4134158 ], [ 140.976734099999987, 58.4115404 ], [ 140.9721935, 58.4091654 ], [ 140.968654, 58.4070941 ], [ 140.9669924, 58.4060624 ], [ 140.9648068, 58.4049646 ], [ 140.9625622, 58.403704 ], [ 140.9585835, 58.4020765 ], [ 140.955697, 58.4006122 ], [ 140.952775800000012, 58.3993985 ], [ 140.9485512, 58.3976307 ], [ 140.9451855, 58.3962289 ], [ 140.9431648, 58.3950991 ], [ 140.940013, 58.3933724 ], [ 140.9370127, 58.3917775 ], [ 140.934326199999987, 58.3901115 ], [ 140.9317747, 58.3889132 ], [ 140.92951, 58.3874938 ], [ 140.9274934, 58.3863246 ], [ 140.9218496, 58.3836694 ], [ 140.9176891, 58.3814655 ], [ 140.9136789, 58.3796321 ], [ 140.911918500000013, 58.3786318 ], [ 140.9091463, 58.377144 ], [ 140.9046981, 58.3748493 ], [ 140.900773, 58.3722486 ], [ 140.8949239, 58.3688291 ], [ 140.8896202, 58.3663351 ], [ 140.886542100000014, 58.3640629 ], [ 140.8830175, 58.3615721 ], [ 140.8806028, 58.3599524 ], [ 140.8786236, 58.359101 ], [ 140.8713933, 58.3538172 ], [ 140.8699733, 58.3529461 ], [ 140.8670625, 58.3507082 ], [ 140.863652699999989, 58.3482258 ], [ 140.8619206, 58.3468965 ], [ 140.8589278, 58.3453671 ], [ 140.856252, 58.34427 ], [ 140.850483200000014, 58.3422074 ], [ 140.8456209, 58.3401151 ], [ 140.8431453, 58.3388528 ], [ 140.8403358, 58.3374202 ], [ 140.8367117, 58.3351215 ], [ 140.835110899999989, 58.3339481 ], [ 140.8333091, 58.3326273 ], [ 140.8300491, 58.3314554 ], [ 140.8276458, 58.3293796 ], [ 140.824256600000012, 58.326881 ], [ 140.8215231, 58.3249976 ], [ 140.82032430000001, 58.3239866 ], [ 140.8195844, 58.3232484 ], [ 140.8194404, 58.3227565 ], [ 140.818397800000014, 58.3226006 ], [ 140.8179331, 58.3227796 ], [ 140.8168708, 58.3225469 ], [ 140.8166594, 58.3224225 ], [ 140.816050600000011, 58.3220642 ], [ 140.8147974, 58.3214431 ], [ 140.8129384, 58.3208221 ], [ 140.8106444, 58.3206335 ], [ 140.8089496, 58.3202169 ], [ 140.808342, 58.3197358 ], [ 140.80785, 58.3199636 ], [ 140.8069947, 58.3200328 ], [ 140.8028644, 58.3185295 ], [ 140.801063199999987, 58.3174045 ], [ 140.7992619, 58.3168675 ], [ 140.796195, 58.3156402 ], [ 140.7951727, 58.3147197 ], [ 140.7925439, 58.313211 ], [ 140.791025100000013, 58.3113063 ], [ 140.7904499, 58.31077 ], [ 140.789995, 58.3103459 ], [ 140.7886608, 58.3096573 ], [ 140.7876724, 58.3091823 ], [ 140.785845200000011, 58.3084556 ], [ 140.7840746, 58.307664 ], [ 140.7803482, 58.305209 ], [ 140.778147600000011, 58.3036922 ], [ 140.7755426, 58.3017756 ], [ 140.7722824, 58.3000398 ], [ 140.7696201, 58.2973417 ], [ 140.7656657, 58.2943805 ], [ 140.763182, 58.292071 ], [ 140.7590779, 58.287619 ], [ 140.7567891, 58.285687 ], [ 140.75324710000001, 58.2824971 ], [ 140.750182099999989, 58.2794737 ], [ 140.746980400000012, 58.2766637 ], [ 140.7443413, 58.2744651 ], [ 140.7415948, 58.2719516 ], [ 140.740174700000011, 58.2704403 ], [ 140.7376985, 58.2681848 ], [ 140.7347062, 58.2651698 ], [ 140.7328565, 58.2634053 ], [ 140.7304098, 58.2605147 ], [ 140.7282073, 58.258339 ], [ 140.7266694, 58.2566478 ], [ 140.7247307, 58.2544536 ], [ 140.7230133, 58.2529199 ], [ 140.7214443, 58.251065 ], [ 140.7200541, 58.2495554 ], [ 140.7186845, 58.2480662 ], [ 140.716242099999988, 58.2455808 ], [ 140.715043400000013, 58.2442592 ], [ 140.713997299999988, 58.2429155 ], [ 140.7130972, 58.2417546 ], [ 140.7119923, 58.2404205 ], [ 140.709699699999987, 58.2383897 ], [ 140.7065457, 58.2347258 ], [ 140.7045319, 58.2326471 ], [ 140.7028412, 58.2307431 ], [ 140.69962670000001, 58.22712 ], [ 140.6982257, 58.2257615 ], [ 140.6959923, 58.2231673 ], [ 140.6938639, 58.2210182 ], [ 140.6920788, 58.2188048 ], [ 140.690897799999988, 58.2173006 ], [ 140.6893622, 58.2154646 ], [ 140.686928599999987, 58.2124459 ], [ 140.6848518, 58.2097204 ], [ 140.681808600000011, 58.2057064 ], [ 140.6801381, 58.2038209 ], [ 140.6794549, 58.2029115 ], [ 140.678596700000014, 58.201769 ], [ 140.676886, 58.1994976 ], [ 140.6739474, 58.1959824 ], [ 140.6723279, 58.1939628 ], [ 140.6712211, 58.1919757 ], [ 140.6697292, 58.1897257 ], [ 140.6679725, 58.1869176 ], [ 140.6660623, 58.1837152 ], [ 140.663946399999986, 58.1809973 ], [ 140.662302, 58.1792319 ], [ 140.660944199999989, 58.1768165 ], [ 140.6576005, 58.1702724 ], [ 140.656621699999988, 58.1668966 ], [ 140.6537032, 58.1619896 ], [ 140.6512138, 58.1577573 ], [ 140.650097100000011, 58.1546628 ], [ 140.648713, 58.1518058 ], [ 140.6455517, 58.146785 ], [ 140.642646899999988, 58.1417095 ], [ 140.642221299999989, 58.1409658 ], [ 140.6406893, 58.1380249 ], [ 140.6385033, 58.1340835 ], [ 140.6366277, 58.1306403 ], [ 140.6353887, 58.1277642 ], [ 140.633539399999989, 58.1226922 ], [ 140.632637499999987, 58.1197169 ], [ 140.6317809, 58.1163524 ], [ 140.6310394, 58.1137452 ], [ 140.6304982, 58.1116929 ], [ 140.629876200000012, 58.1108469 ], [ 140.6288955, 58.1084135 ], [ 140.6290522, 58.1072874 ], [ 140.628950800000013, 58.1062285 ], [ 140.6271639, 58.1036387 ], [ 140.626521, 58.102227 ], [ 140.6257349, 58.1012324 ], [ 140.624442, 58.0994632 ], [ 140.6230912, 58.098213 ], [ 140.6212176, 58.0960168 ], [ 140.618935099999987, 58.0931191 ], [ 140.615883, 58.0887906 ], [ 140.614707399999986, 58.0872021 ], [ 140.6141743, 58.0868558 ], [ 140.6139966, 58.086726 ], [ 140.6133634, 58.0868763 ], [ 140.6132107, 58.0867237 ], [ 140.613386100000014, 58.0865278 ], [ 140.613643599999989, 58.0864162 ], [ 140.6139101, 58.0861542 ], [ 140.613660900000013, 58.0857419 ], [ 140.6115436, 58.0826868 ], [ 140.6099645, 58.0793221 ], [ 140.608814, 58.0762097 ], [ 140.6077441, 58.0721216 ], [ 140.607535500000012, 58.0704178 ], [ 140.607641, 58.069871 ], [ 140.6074816, 58.0692469 ], [ 140.607504299999988, 58.0687001 ], [ 140.607165900000012, 58.0682904 ], [ 140.6069579, 58.0677477 ], [ 140.607137599999987, 58.0675622 ], [ 140.6073586, 58.0673928 ], [ 140.607646100000011, 58.0671614 ], [ 140.6078597, 58.0669597 ], [ 140.6077094, 58.0668982 ], [ 140.607288, 58.0670344 ], [ 140.606861900000013, 58.067003 ], [ 140.6064155, 58.0663811 ], [ 140.6061421, 58.0660212 ], [ 140.605978099999987, 58.0658025 ], [ 140.6058368, 58.0656567 ], [ 140.6056318, 58.0654198 ], [ 140.6054997, 58.0651692 ], [ 140.605458700000014, 58.0650417 ], [ 140.6055316, 58.064823 ], [ 140.605590799999987, 58.0647091 ], [ 140.6056979, 58.0645686 ], [ 140.6057231, 58.0643911 ], [ 140.6054792, 58.0639551 ], [ 140.605563499999988, 58.0635291 ], [ 140.6056595, 58.0630388 ], [ 140.605447700000013, 58.0624494 ], [ 140.6052976, 58.0617821 ], [ 140.604647199999988, 58.0604693 ], [ 140.604036799999989, 58.0597601 ], [ 140.6036523, 58.0595085 ], [ 140.6032724, 58.0592449 ], [ 140.603129, 58.0591768 ], [ 140.6028588, 58.0590484 ], [ 140.6021273, 58.058819 ], [ 140.601176, 58.0585409 ], [ 140.6010073, 58.0584921 ], [ 140.6008227, 58.0584936 ], [ 140.6004134, 58.0582713 ], [ 140.59994660000001, 58.058001 ], [ 140.5992573, 58.0576752 ], [ 140.5973923, 58.0568574 ], [ 140.5957864, 58.0559226 ], [ 140.5947104, 58.0549161 ], [ 140.5935079, 58.0538679 ], [ 140.591350299999988, 58.0522201 ], [ 140.5898019, 58.0507581 ], [ 140.587923600000011, 58.0487156 ], [ 140.586773099999988, 58.0472974 ], [ 140.5857579, 58.0463137 ], [ 140.584740900000014, 58.0450725 ], [ 140.5836664, 58.0436898 ], [ 140.582515199999989, 58.0417853 ], [ 140.581188, 58.0400648 ], [ 140.5802611, 58.0390061 ], [ 140.5798072, 58.038659 ], [ 140.578215300000011, 58.0374831 ], [ 140.576968099999988, 58.0361536 ], [ 140.5753638, 58.0340233 ], [ 140.5733464, 58.0311576 ], [ 140.571728, 58.0287921 ], [ 140.5697125, 58.0258981 ], [ 140.567735699999986, 58.0231319 ], [ 140.5658076, 58.0201173 ], [ 140.563677, 58.0167643 ], [ 140.5632895, 58.0162068 ], [ 140.5621174, 58.0145203 ], [ 140.5608619, 58.0129121 ], [ 140.5597555, 58.0114521 ], [ 140.5553974, 58.00558 ], [ 140.5529948, 58.0022099 ], [ 140.5511009, 57.9990258 ], [ 140.5490441, 57.9954808 ], [ 140.5474256, 57.992429 ], [ 140.5460697, 57.9907521 ], [ 140.5447676, 57.987843 ], [ 140.5440467, 57.985567 ], [ 140.542724600000014, 57.9827734 ], [ 140.540209800000014, 57.9783112 ], [ 140.5344087, 57.9679856 ], [ 140.530331499999988, 57.9599841 ], [ 140.5266264, 57.9530184 ], [ 140.5233838, 57.9466878 ], [ 140.5210784, 57.9419159 ], [ 140.518440199999986, 57.937232 ], [ 140.5170004, 57.9341982 ], [ 140.515044499999988, 57.9303907 ], [ 140.513333499999987, 57.9260556 ], [ 140.5123906, 57.9243616 ], [ 140.511696699999987, 57.9223647 ], [ 140.5082371, 57.9165609 ], [ 140.505851, 57.9121842 ], [ 140.502347500000013, 57.90586 ], [ 140.4995375, 57.9016171 ], [ 140.4976302, 57.8986687 ], [ 140.4960484, 57.8952108 ], [ 140.4943831, 57.8903338 ], [ 140.4932854, 57.8864169 ], [ 140.4922032, 57.883385 ], [ 140.491317, 57.8803025 ], [ 140.490343, 57.8773167 ], [ 140.4900686, 57.8760722 ], [ 140.4899718, 57.8750994 ], [ 140.4900888, 57.8744135 ], [ 140.490442699999988, 57.8737201 ], [ 140.4913856, 57.873354 ], [ 140.493106399999988, 57.8725202 ], [ 140.4946742, 57.8710967 ], [ 140.4952477, 57.8699579 ], [ 140.4949801, 57.8681682 ], [ 140.494291800000013, 57.8668462 ], [ 140.4943682, 57.8651377 ], [ 140.4940623, 57.8629613 ], [ 140.4935652, 57.8617815 ], [ 140.493068099999988, 57.8603168 ], [ 140.493985900000013, 57.8600727 ], [ 140.4944447, 57.8589335 ], [ 140.4945212, 57.8570619 ], [ 140.493985900000013, 57.8562888 ], [ 140.494648399999988, 57.8559633 ], [ 140.4952319, 57.8552803 ], [ 140.4947651, 57.8545353 ], [ 140.494415, 57.8519274 ], [ 140.4952319, 57.8502508 ], [ 140.492664600000012, 57.8473942 ], [ 140.491381, 57.8451584 ], [ 140.4885803, 57.8430468 ], [ 140.4858963, 57.8418045 ], [ 140.4828824, 57.8405422 ], [ 140.4799706, 57.8393941 ], [ 140.47619610000001, 57.8393367 ], [ 140.4735, 57.8378442 ], [ 140.4658432, 57.8378442 ], [ 140.462392200000011, 57.8377868 ], [ 140.458402, 57.8363516 ], [ 140.4541961, 57.8342274 ], [ 140.449825299999986, 57.8319374 ], [ 140.4474849, 57.8303222 ], [ 140.4445379, 57.8289607 ], [ 140.4427176, 57.8282684 ], [ 140.4415041, 57.8275992 ], [ 140.439423799999986, 57.8272761 ], [ 140.4383403, 57.8278069 ], [ 140.43639, 57.8279684 ], [ 140.4349598, 57.8288223 ], [ 140.4324461, 57.8287069 ], [ 140.429845699999987, 57.827853 ], [ 140.4274187, 57.8271146 ], [ 140.4259018, 57.8261222 ], [ 140.424211500000013, 57.8243683 ], [ 140.4217845, 57.8224988 ], [ 140.4187507, 57.8202369 ], [ 140.4165837, 57.8185749 ], [ 140.4152402, 57.8175362 ], [ 140.4127265, 57.8158972 ], [ 140.4112096, 57.8148353 ], [ 140.4099961, 57.8135425 ], [ 140.4083492, 57.8115109 ], [ 140.4081325, 57.8104951 ], [ 140.407742399999989, 57.8092252 ], [ 140.4057922, 57.8090867 ], [ 140.4053154, 57.8078398 ], [ 140.4038852, 57.8080477 ], [ 140.402931700000011, 57.8067084 ], [ 140.4013282, 57.8060157 ], [ 140.3995512, 57.805069 ], [ 140.3983811, 57.8039606 ], [ 140.3969942, 57.8029445 ], [ 140.3957373, 57.8024826 ], [ 140.393527, 57.8012125 ], [ 140.39084, 57.8003349 ], [ 140.3871561, 57.7996421 ], [ 140.3852925, 57.7988337 ], [ 140.38212870000001, 57.7971246 ], [ 140.380481800000013, 57.7961084 ], [ 140.3764945, 57.7953693 ], [ 140.372940699999987, 57.7948611 ], [ 140.369516800000014, 57.794353 ], [ 140.3667431, 57.7933828 ], [ 140.3639694, 57.7933828 ], [ 140.3624091, 57.7928746 ], [ 140.3599388, 57.7925512 ], [ 140.3574251, 57.7928746 ], [ 140.355344800000012, 57.7922971 ], [ 140.351660900000013, 57.7909111 ], [ 140.34897380000001, 57.7895482 ], [ 140.34602670000001, 57.7879311 ], [ 140.3442498, 57.7867528 ], [ 140.3426029, 57.7858287 ], [ 140.3393524, 57.7843269 ], [ 140.3376188, 57.7829637 ], [ 140.3349318, 57.7801447 ], [ 140.332591400000013, 57.7777646 ], [ 140.331941300000011, 57.7761007 ], [ 140.329557599999987, 57.7741594 ], [ 140.327434, 57.7724491 ], [ 140.3261338, 57.7706001 ], [ 140.324486900000011, 57.7694906 ], [ 140.32271, 57.7684042 ], [ 140.321453100000014, 57.7666474 ], [ 140.3198495, 57.7652373 ], [ 140.3191994, 57.7640121 ], [ 140.3177259, 57.7623014 ], [ 140.3169024, 57.761261 ], [ 140.316122299999989, 57.7600357 ], [ 140.3150388, 57.7590646 ], [ 140.3148655, 57.7576311 ], [ 140.3149955, 57.7566137 ], [ 140.314258700000011, 57.756105 ], [ 140.3129585, 57.7555963 ], [ 140.311701699999986, 57.7535845 ], [ 140.3103581, 57.7518964 ], [ 140.3097947, 57.7504395 ], [ 140.309578, 57.7493525 ], [ 140.3093613, 57.7486124 ], [ 140.308841300000012, 57.747988 ], [ 140.3077144, 57.7474792 ], [ 140.3065009, 57.7470629 ], [ 140.305157400000013, 57.7467622 ], [ 140.303120400000012, 57.7467853 ], [ 140.3023403, 57.7471322 ], [ 140.300736699999987, 57.7476179 ], [ 140.2999566, 57.7484505 ], [ 140.2996532, 57.7503238 ], [ 140.2996532, 57.7520583 ], [ 140.2999566, 57.7539314 ], [ 140.2999566, 57.7557119 ], [ 140.299913299999986, 57.7569605 ], [ 140.2993065, 57.7580473 ], [ 140.2988298, 57.7589721 ], [ 140.2973996, 57.7600588 ], [ 140.295319299999989, 57.7613997 ], [ 140.293499, 57.7621164 ], [ 140.2930656, 57.7630643 ], [ 140.2918453, 57.7636636 ], [ 140.290152400000011, 57.7640248 ], [ 140.2879515, 57.7647472 ], [ 140.284734899999989, 57.7658308 ], [ 140.2802486, 57.7665983 ], [ 140.2763548, 57.7670047 ], [ 140.2721224, 57.7672756 ], [ 140.268143900000013, 57.7672756 ], [ 140.2624725, 57.7670047 ], [ 140.258748, 57.7668241 ], [ 140.254431, 57.7664177 ], [ 140.2494975, 57.7651364 ], [ 140.2421449, 57.7638398 ], [ 140.2398689, 57.7632177 ], [ 140.2334142, 57.7611563 ], [ 140.2295072, 57.7597066 ], [ 140.225056, 57.7584287 ], [ 140.220761900000014, 57.7570042 ], [ 140.203043400000013, 57.7493584 ], [ 140.200225100000011, 57.7480351 ], [ 140.1977063, 57.7472409 ], [ 140.1927851, 57.74657 ], [ 140.190008799999987, 57.7466595 ], [ 140.1861032, 57.746756 ], [ 140.182385399999987, 57.7468563 ], [ 140.178843699999987, 57.7467683 ], [ 140.1765031, 57.7465468 ], [ 140.1727923, 57.7467439 ], [ 140.170784200000014, 57.7469486 ], [ 140.164734, 57.7470026 ], [ 140.1612343, 57.7469827 ], [ 140.1594407, 57.7467754 ], [ 140.1579068, 57.7469516 ], [ 140.1540564, 57.7463564 ], [ 140.1504716, 57.7459147 ], [ 140.146623799999986, 57.7450725 ], [ 140.1434969, 57.7443937 ], [ 140.1418198, 57.7441915 ], [ 140.1401306, 57.7442659 ], [ 140.1355131, 57.7436453 ], [ 140.1332702, 57.7431881 ], [ 140.1315349, 57.7429183 ], [ 140.1297265, 57.7427977 ], [ 140.127052600000013, 57.743057 ], [ 140.1242422, 57.7430131 ], [ 140.1212952, 57.7431381 ], [ 140.11724190000001, 57.7430188 ], [ 140.114567099999988, 57.7426142 ], [ 140.111713400000014, 57.741972 ], [ 140.109028200000012, 57.7411594 ], [ 140.105811100000011, 57.7402787 ], [ 140.101875299999989, 57.7395005 ], [ 140.0977746, 57.7382715 ], [ 140.0946946, 57.7376985 ], [ 140.0922837, 57.7370919 ], [ 140.0902374, 57.7366654 ], [ 140.088767100000013, 57.7362558 ], [ 140.086101, 57.735436 ], [ 140.0822748, 57.7341276 ], [ 140.079831899999988, 57.7331222 ], [ 140.0787621, 57.7325515 ], [ 140.0777577, 57.7320346 ], [ 140.077709700000014, 57.7320132 ], [ 140.0758028, 57.7311623 ], [ 140.074910499999987, 57.7305144 ], [ 140.074057900000014, 57.7303078 ], [ 140.0713988, 57.7299535 ], [ 140.0694016, 57.7296777 ], [ 140.0677279, 57.7292667 ], [ 140.064486499999987, 57.7287697 ], [ 140.0610399, 57.7276734 ], [ 140.058355, 57.7266525 ], [ 140.0579646, 57.7265041 ], [ 140.05414110000001, 57.7248437 ], [ 140.046527700000013, 57.7210728 ], [ 140.0398204, 57.7183799 ], [ 140.0319428, 57.7140955 ], [ 140.0306234, 57.7131999 ], [ 140.0305423, 57.7131615 ], [ 140.030417699999987, 57.7131025 ], [ 140.030377499999986, 57.7130834 ], [ 140.0302771, 57.7130359 ], [ 140.0297122, 57.7128673 ], [ 140.0291518, 57.7128263 ], [ 140.0277681, 57.7122071 ], [ 140.0240159, 57.7109023 ], [ 140.021937400000013, 57.7098491 ], [ 140.0188793, 57.7087038 ], [ 140.015204399999988, 57.7077278 ], [ 140.01344, 57.7073076 ], [ 140.012225300000011, 57.7069124 ], [ 140.008760700000011, 57.7057692 ], [ 140.006107, 57.7044887 ], [ 140.0027756, 57.7025436 ], [ 140.0, 57.701125523386615 ], [ 140.0, 60.0 ], [ 145.0, 60.0 ], [ 145.0, 59.368760770996076 ], [ 144.9958365, 59.3682828 ] ] ] ] } },
{ "type": "Feature", "properties": { "FID": 405413, "id": 2311, "left": 140.0, "top": 60.0, "right": 145.0, "bottom": 55.0, "row_index": 6, "col_index": 64, "min_lon": 140.0, "min_lat": 55.0, "tile_id": "140_55" }, "geometry": { "type": "MultiPolygon", "coordinates": [ [ [ [ 143.3934353, 56.4056817 ], [ 143.3936543, 56.4058812 ], [ 143.3939624, 56.4057338 ], [ 143.39410190000001, 56.4058466 ], [ 143.3941901, 56.4060652 ], [ 143.3945086, 56.4062407 ], [ 143.3948403, 56.4060074 ], [ 143.3949038, 56.4056488 ], [ 143.3946518, 56.4053735 ], [ 143.3945536, 56.4050214 ], [ 143.3938846, 56.4050004 ], [ 143.3936544, 56.4050907 ], [ 143.3936742, 56.4053822 ], [ 143.3934353, 56.4056817 ] ] ] ] } },
{ "type": "Feature", "properties": { "FID": 405414, "id": 2311, "left": 140.0, "top": 60.0, "right": 145.0, "bottom": 55.0, "row_index": 6, "col_index": 64, "min_lon": 140.0, "min_lat": 55.0, "tile_id": "140_55" }, "geometry": { "type": "MultiPolygon", "coordinates": [ [ [ [ 143.3831494, 56.4130659 ], [ 143.3834469, 56.4132692 ], [ 143.383692, 56.4134532 ], [ 143.38363050000001, 56.413572 ], [ 143.3839356, 56.4137466 ], [ 143.384252800000013, 56.4138213 ], [ 143.3846786, 56.4138268 ], [ 143.385094400000014, 56.4136901 ], [ 143.3852355, 56.4133619 ], [ 143.3848942, 56.4131599 ], [ 143.38423130000001, 56.413109 ], [ 143.384099600000013, 56.413052 ], [ 143.3838455, 56.4130339 ], [ 143.3832959, 56.4128971 ], [ 143.3831494, 56.4130659 ] ] ] ] } },
{ "type": "Feature", "properties": { "FID": 405415, "id": 2311, "left": 140.0, "top": 60.0, "right": 145.0, "bottom": 55.0, "row_index": 6, "col_index": 64, "min_lon": 140.0, "min_lat": 55.0, "tile_id": "140_55" }, "geometry": { "type": "MultiPolygon", "coordinates": [ [ [ [ 143.380299799999989, 56.4044723 ], [ 143.3803493, 56.4045887 ], [ 143.380634, 56.4046298 ], [ 143.3809434, 56.4046503 ], [ 143.3810795, 56.4048352 ], [ 143.381376499999988, 56.4049311 ], [ 143.3815003, 56.4048763 ], [ 143.381537400000013, 56.4047188 ], [ 143.3813889, 56.4045682 ], [ 143.3811538, 56.4045339 ], [ 143.3808196, 56.4044654 ], [ 143.380473099999989, 56.4043559 ], [ 143.380299799999989, 56.4044723 ] ] ] ] } },
{ "type": "Feature", "properties": { "FID": 405416, "id": 2311, "left": 140.0, "top": 60.0, "right": 145.0, "bottom": 55.0, "row_index": 6, "col_index": 64, "min_lon": 140.0, "min_lat": 55.0, "tile_id": "140_55" }, "geometry": { "type": "MultiPolygon", "coordinates": [ [ [ [ 143.3954939, 56.4051122 ], [ 143.3957389, 56.4051413 ], [ 143.395984, 56.4047927 ], [ 143.3957389, 56.4045796 ], [ 143.395213899999987, 56.4046377 ], [ 143.395213899999987, 56.4049767 ], [ 143.3954939, 56.4051122 ] ] ] ] } },
{ "type": "Feature", "properties": { "FID": 405417, "id": 2311, "left": 140.0, "top": 60.0, "right": 145.0, "bottom": 55.0, "row_index": 6, "col_index": 64, "min_lon": 140.0, "min_lat": 55.0, "tile_id": "140_55" }, "geometry": { "type": "MultiPolygon", "coordinates": [ [ [ [ 143.3831572, 56.4124992 ], [ 143.3832926, 56.4126134 ], [ 143.3837063, 56.4126681 ], [ 143.384016699999989, 56.4126669 ], [ 143.3842462, 56.4125129 ], [ 143.3841884, 56.4123998 ], [ 143.384488800000014, 56.4123998 ], [ 143.3846122, 56.4123404 ], [ 143.3846241, 56.4122375 ], [ 143.3842851, 56.4120376 ], [ 143.3837792, 56.4119835 ], [ 143.3835661, 56.4122366 ], [ 143.3831956, 56.4123669 ], [ 143.3831572, 56.4124992 ] ] ] ] } },
{ "type": "Feature", "properties": { "FID": 405418, "id": 2311, "left": 140.0, "top": 60.0, "right": 145.0, "bottom": 55.0, "row_index": 6, "col_index": 64, "min_lon": 140.0, "min_lat": 55.0, "tile_id": "140_55" }, "geometry": { "type": "MultiPolygon", "coordinates": [ [ [ [ 143.390592, 56.4038364 ], [ 143.3907481, 56.4038876 ], [ 143.3909547, 56.4039013 ], [ 143.390989600000012, 56.4037891 ], [ 143.39077850000001, 56.4037623 ], [ 143.39067940000001, 56.4037659 ], [ 143.390592, 56.4038364 ] ] ] ] } },
{ "type": "Feature", "properties": { "FID": 405419, "id": 2311, "left": 140.0, "top": 60.0, "right": 145.0, "bottom": 55.0, "row_index": 6, "col_index": 64, "min_lon": 140.0, "min_lat": 55.0, "tile_id": "140_55" }, "geometry": { "type": "MultiPolygon", "coordinates": [ [ [ [ 143.38648950000001, 56.4076777 ], [ 143.3866018, 56.4077524 ], [ 143.3867229, 56.4078505 ], [ 143.3870311, 56.4077268 ], [ 143.3871548, 56.407583 ], [ 143.3870327, 56.4075728 ], [ 143.386692, 56.4075335 ], [ 143.386552599999987, 56.4075591 ], [ 143.38648950000001, 56.4076777 ] ] ] ] } },
{ "type": "Feature", "properties": { "FID": 405420, "id": 2311, "left": 140.0, "top": 60.0, "right": 145.0, "bottom": 55.0, "row_index": 6, "col_index": 64, "min_lon": 140.0, "min_lat": 55.0, "tile_id": "140_55" }, "geometry": { "type": "MultiPolygon", "coordinates": [ [ [ [ 143.383415899999989, 56.4060781 ], [ 143.3833033, 56.4060396 ], [ 143.383158400000013, 56.4061197 ], [ 143.382949200000013, 56.4060811 ], [ 143.382766800000013, 56.4062918 ], [ 143.3827937, 56.4064195 ], [ 143.3830458, 56.4064848 ], [ 143.383126299999986, 56.4064729 ], [ 143.3834588, 56.4066124 ], [ 143.38355, 56.4065115 ], [ 143.3834642, 56.4064492 ], [ 143.383389099999988, 56.4064076 ], [ 143.383469600000012, 56.4063661 ], [ 143.3835554, 56.406375 ], [ 143.3836681, 56.4063957 ], [ 143.383888, 56.4063275 ], [ 143.3840758, 56.4063928 ], [ 143.3842099, 56.4064432 ], [ 143.3844083, 56.4064165 ], [ 143.3846873, 56.4064996 ], [ 143.384918, 56.4064907 ], [ 143.385272, 56.4064937 ], [ 143.3855241, 56.4065709 ], [ 143.385926500000011, 56.4065887 ], [ 143.3862001, 56.4064699 ], [ 143.3862269, 56.4064195 ], [ 143.386479, 56.4064403 ], [ 143.3866185, 56.4065056 ], [ 143.3868009, 56.4065145 ], [ 143.386876, 56.4064937 ], [ 143.3871388, 56.4065887 ], [ 143.3873534, 56.4066213 ], [ 143.387337300000013, 56.4064699 ], [ 143.3872461, 56.4064343 ], [ 143.387385599999988, 56.4063898 ], [ 143.3874768, 56.406369 ], [ 143.387568, 56.4062176 ], [ 143.388404799999989, 56.4058051 ], [ 143.3888555, 56.4054667 ], [ 143.3887964, 56.4053955 ], [ 143.388925199999989, 56.4053509 ], [ 143.3890754, 56.4053895 ], [ 143.3891773, 56.4052827 ], [ 143.3892041, 56.4051046 ], [ 143.3895528, 56.4050363 ], [ 143.389654799999988, 56.4049562 ], [ 143.389686899999987, 56.4048612 ], [ 143.3896494, 56.4047543 ], [ 143.3893651, 56.4045228 ], [ 143.3890915, 56.4043892 ], [ 143.3887911, 56.4042438 ], [ 143.3887482, 56.4041191 ], [ 143.388876900000014, 56.4039707 ], [ 143.3887964, 56.4038015 ], [ 143.388850100000013, 56.4035967 ], [ 143.388903699999986, 56.403472 ], [ 143.388823300000013, 56.4033889 ], [ 143.388614100000012, 56.4034423 ], [ 143.3885175, 56.4034809 ], [ 143.3885443, 56.4033295 ], [ 143.388555, 56.403193 ], [ 143.3887857, 56.4031188 ], [ 143.3887374, 56.4029229 ], [ 143.3884531, 56.402911 ], [ 143.388319, 56.4029526 ], [ 143.38783620000001, 56.4032078 ], [ 143.387745, 56.4034037 ], [ 143.3876699, 56.4035017 ], [ 143.3875304, 56.4035492 ], [ 143.387310500000012, 56.4035195 ], [ 143.387358799999987, 56.403383 ], [ 143.3872998, 56.4032969 ], [ 143.3871871, 56.403282 ], [ 143.3867741, 56.4033147 ], [ 143.3868706, 56.40338 ], [ 143.3867472, 56.4034394 ], [ 143.3866078, 56.403377 ], [ 143.386366400000014, 56.403383 ], [ 143.38647370000001, 56.4035076 ], [ 143.3865863, 56.4035373 ], [ 143.386554100000012, 56.4035789 ], [ 143.3865648, 56.4036887 ], [ 143.3864951, 56.403659 ], [ 143.386162500000012, 56.4035611 ], [ 143.386066, 56.4034958 ], [ 143.3859318, 56.403567 ], [ 143.3859855, 56.4036204 ], [ 143.3860391, 56.4037035 ], [ 143.385744100000011, 56.403754 ], [ 143.3854651, 56.403567 ], [ 143.3851218, 56.4034958 ], [ 143.3848965, 56.4033384 ], [ 143.384671200000014, 56.4033414 ], [ 143.3844513, 56.403472 ], [ 143.3845425, 56.4035789 ], [ 143.384617600000013, 56.4036828 ], [ 143.3846605, 56.4037896 ], [ 143.3846068, 56.4038282 ], [ 143.384488800000014, 56.4037303 ], [ 143.384344, 56.4037599 ], [ 143.3843386, 56.4038401 ], [ 143.3842206, 56.4038638 ], [ 143.3841026, 56.4039084 ], [ 143.3840865, 56.4039559 ], [ 143.383941600000014, 56.4038668 ], [ 143.3839577, 56.4036857 ], [ 143.3837485, 56.4036353 ], [ 143.383625099999989, 56.4037392 ], [ 143.3835339, 56.4038282 ], [ 143.38355, 56.4039588 ], [ 143.383652, 56.4040152 ], [ 143.3834052, 56.4042082 ], [ 143.3832282, 56.4043803 ], [ 143.3831745, 56.4045376 ], [ 143.3833301, 56.405069 ], [ 143.383330199999989, 56.4053094 ], [ 143.38347490000001, 56.4056656 ], [ 143.3835259, 56.4059906 ], [ 143.383415899999989, 56.4060781 ] ] ] ] } },
{ "type": "Feature", "properties": { "FID": 694605, "id": 2311, "left": 140.0, "top": 60.0, "right": 145.0, "bottom": 55.0, "row_index": 6, "col_index": 64, "min_lon": 140.0, "min_lat": 55.0, "tile_id": "140_55" }, "geometry": { "type": "MultiPolygon", "coordinates": [ [ [ [ 143.3893052, 56.4055235 ], [ 143.3894436, 56.4055439 ], [ 143.3895268, 56.4055442 ], [ 143.3897299, 56.405483 ], [ 143.389773600000012, 56.4053993 ], [ 143.3896365, 56.4053832 ], [ 143.3893641, 56.4054452 ], [ 143.3893052, 56.4055235 ] ] ] ] } },
{ "type": "Feature", "properties": { "FID": 694606, "id": 2311, "left": 140.0, "top": 60.0, "right": 145.0, "bottom": 55.0, "row_index": 6, "col_index": 64, "min_lon": 140.0, "min_lat": 55.0, "tile_id": "140_55" }, "geometry": { "type": "MultiPolygon", "coordinates": [ [ [ [ 143.3892114, 56.4040527 ], [ 143.389231700000011, 56.4040894 ], [ 143.389314899999988, 56.4040898 ], [ 143.3893257, 56.4040487 ], [ 143.3893334, 56.4039881 ], [ 143.389238, 56.4040041 ], [ 143.3892114, 56.4040527 ] ] ] ] } },
{ "type": "Feature", "properties": { "FID": 694607, "id": 2311, "left": 140.0, "top": 60.0, "right": 145.0, "bottom": 55.0, "row_index": 6, "col_index": 64, "min_lon": 140.0, "min_lat": 55.0, "tile_id": "140_55" }, "geometry": { "type": "MultiPolygon", "coordinates": [ [ [ [ 143.386778600000014, 56.4031028 ], [ 143.3867989, 56.4031395 ], [ 143.3868821, 56.4031399 ], [ 143.3869439, 56.4030914 ], [ 143.386898, 56.4030546 ], [ 143.386802499999988, 56.4030736 ], [ 143.386778600000014, 56.4031028 ] ] ] ] } },
{ "type": "Feature", "properties": { "FID": 694608, "id": 2311, "left": 140.0, "top": 60.0, "right": 145.0, "bottom": 55.0, "row_index": 6, "col_index": 64, "min_lon": 140.0, "min_lat": 55.0, "tile_id": "140_55" }, "geometry": { "type": "MultiPolygon", "coordinates": [ [ [ [ 143.3828063, 56.4028327 ], [ 143.3828561, 56.4028991 ], [ 143.3829661, 56.4028906 ], [ 143.3830332, 56.4028332 ], [ 143.3829524, 56.4027815 ], [ 143.3828436, 56.4027708 ], [ 143.3828063, 56.4028327 ] ] ] ] } },
{ "type": "Feature", "properties": { "FID": 694609, "id": 2311, "left": 140.0, "top": 60.0, "right": 145.0, "bottom": 55.0, "row_index": 6, "col_index": 64, "min_lon": 140.0, "min_lat": 55.0, "tile_id": "140_55" }, "geometry": { "type": "MultiPolygon", "coordinates": [ [ [ [ 143.383098100000012, 56.4025333 ], [ 143.3831184, 56.40257 ], [ 143.3832016, 56.4025703 ], [ 143.3832392, 56.4025337 ], [ 143.3831906, 56.4024984 ], [ 143.383122, 56.402504 ], [ 143.383098100000012, 56.4025333 ] ] ] ] } },
{ "type": "Feature", "properties": { "FID": 694610, "id": 2311, "left": 140.0, "top": 60.0, "right": 145.0, "bottom": 55.0, "row_index": 6, "col_index": 64, "min_lon": 140.0, "min_lat": 55.0, "tile_id": "140_55" }, "geometry": { "type": "MultiPolygon", "coordinates": [ [ [ [ 143.3813208, 56.4035295 ], [ 143.3815601, 56.4036386 ], [ 143.3818981, 56.403725 ], [ 143.381927600000012, 56.4035623 ], [ 143.3816361, 56.403488 ], [ 143.381461800000011, 56.4034901 ], [ 143.3813208, 56.4035295 ] ] ] ] } },
{ "type": "Feature", "properties": { "FID": 694611, "id": 2311, "left": 140.0, "top": 60.0, "right": 145.0, "bottom": 55.0, "row_index": 6, "col_index": 64, "min_lon": 140.0, "min_lat": 55.0, "tile_id": "140_55" }, "geometry": { "type": "MultiPolygon", "coordinates": [ [ [ [ 143.381654, 56.403373 ], [ 143.3820354, 56.4035148 ], [ 143.3821365, 56.4035418 ], [ 143.3823423, 56.403499 ], [ 143.382453, 56.4034453 ], [ 143.3825139, 56.403312 ], [ 143.3824335, 56.4032868 ], [ 143.382353, 56.4032423 ], [ 143.3822044, 56.4031876 ], [ 143.3821043, 56.4032345 ], [ 143.381950499999988, 56.4031935 ], [ 143.3816832, 56.4032093 ], [ 143.3815616, 56.4032654 ], [ 143.381654, 56.403373 ] ] ] ] } },
{ "type": "Feature", "properties": { "FID": 694612, "id": 2311, "left": 140.0, "top": 60.0, "right": 145.0, "bottom": 55.0, "row_index": 6, "col_index": 64, "min_lon": 140.0, "min_lat": 55.0, "tile_id": "140_55" }, "geometry": { "type": "MultiPolygon", "coordinates": [ [ [ [ 143.3822422, 56.4038937 ], [ 143.382232, 56.404071 ], [ 143.382538899999986, 56.4040553 ], [ 143.3827229, 56.4040165 ], [ 143.3829412, 56.4039915 ], [ 143.382997499999988, 56.4038727 ], [ 143.382766800000013, 56.4038579 ], [ 143.382799, 56.4038045 ], [ 143.3828366, 56.4037421 ], [ 143.3828044, 56.4036442 ], [ 143.382713200000012, 56.4035314 ], [ 143.382511, 56.4035896 ], [ 143.3824126, 56.4037468 ], [ 143.3823135, 56.4038395 ], [ 143.3822422, 56.4038937 ] ] ] ] } },
{ "type": "Feature", "properties": { "FID": 694613, "id": 2311, "left": 140.0, "top": 60.0, "right": 145.0, "bottom": 55.0, "row_index": 6, "col_index": 64, "min_lon": 140.0, "min_lat": 55.0, "tile_id": "140_55" }, "geometry": { "type": "MultiPolygon", "coordinates": [ [ [ [ 143.386936, 56.4029928 ], [ 143.387011699999988, 56.403047 ], [ 143.3871968, 56.4030458 ], [ 143.3872585, 56.4029781 ], [ 143.3870904, 56.4029335 ], [ 143.386991200000011, 56.4029371 ], [ 143.386936, 56.4029928 ] ] ] ] } },
{ "type": "Feature", "properties": { "FID": 694614, "id": 2311, "left": 140.0, "top": 60.0, "right": 145.0, "bottom": 55.0, "row_index": 6, "col_index": 64, "min_lon": 140.0, "min_lat": 55.0, "tile_id": "140_55" }, "geometry": { "type": "MultiPolygon", "coordinates": [ [ [ [ 143.3850156, 56.4031412 ], [ 143.385089599999986, 56.403288 ], [ 143.3853471, 56.4034126 ], [ 143.3855778, 56.4034542 ], [ 143.3857226, 56.403377 ], [ 143.3857993, 56.4032043 ], [ 143.385566, 56.4031497 ], [ 143.3855151, 56.4030731 ], [ 143.385245, 56.4030433 ], [ 143.385108300000013, 56.4030172 ], [ 143.3850156, 56.4031412 ] ] ] ] } },
{ "type": "Feature", "properties": { "FID": 694615, "id": 2311, "left": 140.0, "top": 60.0, "right": 145.0, "bottom": 55.0, "row_index": 6, "col_index": 64, "min_lon": 140.0, "min_lat": 55.0, "tile_id": "140_55" }, "geometry": { "type": "MultiPolygon", "coordinates": [ [ [ [ 143.390325, 56.4035805 ], [ 143.3904489, 56.4036466 ], [ 143.3906555, 56.4036603 ], [ 143.3906475, 56.4035658 ], [ 143.39047930000001, 56.4035212 ], [ 143.39038020000001, 56.4035248 ], [ 143.390325, 56.4035805 ] ] ] ] } },
{ "type": "Feature", "properties": { "FID": 694616, "id": 2311, "left": 140.0, "top": 60.0, "right": 145.0, "bottom": 55.0, "row_index": 6, "col_index": 64, "min_lon": 140.0, "min_lat": 55.0, "tile_id": "140_55" }, "geometry": { "type": "MultiPolygon", "coordinates": [ [ [ [ 143.38034, 56.4067243 ], [ 143.3805113, 56.4067278 ], [ 143.380544, 56.406686 ], [ 143.3805506, 56.4066313 ], [ 143.3804513, 56.406592 ], [ 143.3803173, 56.4066235 ], [ 143.38034, 56.4067243 ] ] ] ] } },
{ "type": "Feature", "properties": { "FID": 694617, "id": 2311, "left": 140.0, "top": 60.0, "right": 145.0, "bottom": 55.0, "row_index": 6, "col_index": 64, "min_lon": 140.0, "min_lat": 55.0, "tile_id": "140_55" }, "geometry": { "type": "MultiPolygon", "coordinates": [ [ [ [ 143.3824261, 56.4066516 ], [ 143.3825974, 56.406655 ], [ 143.3827159, 56.4066133 ], [ 143.3826904, 56.4065407 ], [ 143.3825374, 56.4065193 ], [ 143.3824195, 56.4065359 ], [ 143.3824261, 56.4066516 ] ] ] ] } },
{ "type": "Feature", "properties": { "FID": 694618, "id": 2311, "left": 140.0, "top": 60.0, "right": 145.0, "bottom": 55.0, "row_index": 6, "col_index": 64, "min_lon": 140.0, "min_lat": 55.0, "tile_id": "140_55" }, "geometry": { "type": "MultiPolygon", "coordinates": [ [ [ [ 143.381592, 56.4060846 ], [ 143.381774, 56.406192 ], [ 143.3819408, 56.4060404 ], [ 143.3819313, 56.4060034 ], [ 143.3817784, 56.405982 ], [ 143.38166050000001, 56.4059986 ], [ 143.381592, 56.4060846 ] ] ] ] } }
]
}
