{
"type": "FeatureCollection",
"name": "140_60",
"crs": { "type": "name", "properties": { "name": "urn:ogc:def:crs:OGC:1.3:CRS84" } },
"xy_coordinate_resolution": 1e-15,
"features": [
{ "type": "Feature", "properties": { "FID": 123912, "id": 2310, "left": 140.0, "top": 65.0, "right": 145.0, "bottom": 60.0, "row_index": 5, "col_index": 64, "min_lon": 140.0, "min_lat": 60.0, "tile_id": "140_60" }, "geometry": { "type": "MultiPolygon", "coordinates": [ [ [ [ 145.0, 65.0 ], [ 145.0, 60.0 ], [ 140.0, 60.0 ], [ 140.0, 65.0 ], [ 145.0, 65.0 ] ] ] ] } }
]
}
