{
"type": "FeatureCollection",
"name": "140_-80",
"crs": { "type": "name", "properties": { "name": "urn:ogc:def:crs:OGC:1.3:CRS84" } },
"xy_coordinate_resolution": 1e-15,
"features": [
{ "type": "Feature", "properties": { "FID": 307096, "id": 2338, "left": 140.0, "top": -75.0, "right": 145.0, "bottom": -80.0, "row_index": 33, "col_index": 64, "min_lon": 140.0, "min_lat": -80.0, "tile_id": "140_-80" }, "geometry": { "type": "MultiPolygon", "coordinates": [ [ [ [ 145.0, -75.0 ], [ 145.0, -80.0 ], [ 140.0, -80.0 ], [ 140.0, -75.0 ], [ 145.0, -75.0 ] ] ] ] } }
]
}
