{
"type": "FeatureCollection",
"name": "140_-25",
"crs": { "type": "name", "properties": { "name": "urn:ogc:def:crs:OGC:1.3:CRS84" } },
"xy_coordinate_resolution": 1e-15,
"features": [
{ "type": "Feature", "properties": { "FID": 547127, "id": 2327, "left": 140.0, "top": -20.0, "right": 145.0, "bottom": -25.0, "row_index": 22, "col_index": 64, "min_lon": 140.0, "min_lat": -25.0, "tile_id": "140_-25" }, "geometry": { "type": "MultiPolygon", "coordinates": [ [ [ [ 145.0, -20.0 ], [ 145.0, -25.0 ], [ 140.0, -25.0 ], [ 140.0, -20.0 ], [ 145.0, -20.0 ] ] ] ] } }
]
}
