{
"type": "FeatureCollection",
"name": "145_-35",
"crs": { "type": "name", "properties": { "name": "urn:ogc:def:crs:OGC:1.3:CRS84" } },
"xy_coordinate_resolution": 1e-15,
"features": [
{ "type": "Feature", "properties": { "FID": 547127, "id": 2365, "left": 145.0, "top": -30.0, "right": 150.0, "bottom": -35.0, "row_index": 24, "col_index": 65, "min_lon": 145.0, "min_lat": -35.0, "tile_id": "145_-35" }, "geometry": { "type": "MultiPolygon", "coordinates": [ [ [ [ 150.0, -30.0 ], [ 150.0, -35.0 ], [ 145.0, -35.0 ], [ 145.0, -30.0 ], [ 150.0, -30.0 ] ] ] ] } }
]
}
