{
"type": "FeatureCollection",
"name": "145_5",
"crs": { "type": "name", "properties": { "name": "urn:ogc:def:crs:OGC:1.3:CRS84" } },
"xy_coordinate_resolution": 1e-15,
"features": [
{ "type": "Feature", "properties": { "FID": 88971, "id": 2357, "left": 145.0, "top": 10.0, "right": 150.0, "bottom": 5.0, "row_index": 16, "col_index": 65, "min_lon": 145.0, "min_lat": 5.0, "tile_id": "145_5" }, "geometry": { "type": "MultiPolygon", "coordinates": [ [ [ [ 149.430482899999987, 7.5357512 ], [ 149.4293934, 7.5359165 ], [ 149.4260734, 7.536049 ], [ 149.4253867, 7.536049 ], [ 149.424474800000013, 7.5360065 ], [ 149.423778700000014, 7.5360005 ], [ 149.4234026, 7.5361192 ], [ 149.4225018, 7.5363334 ], [ 149.4221465, 7.5364194 ], [ 149.4218275, 7.536594 ], [ 149.4214063, 7.5367404 ], [ 149.420891, 7.5368429 ], [ 149.4203013, 7.5369106 ], [ 149.420033100000012, 7.5370701 ], [ 149.4195073, 7.5370595 ], [ 149.418885100000011, 7.537219 ], [ 149.4180352, 7.5374384 ], [ 149.415883799999989, 7.5374832 ], [ 149.414218, 7.5373147 ], [ 149.413697500000012, 7.5372786 ], [ 149.413330699999989, 7.5371183 ], [ 149.4126731, 7.536868 ], [ 149.411804, 7.5367616 ], [ 149.4112759, 7.5368119 ], [ 149.4108369, 7.536954 ], [ 149.4100853, 7.537237 ], [ 149.4097218, 7.5374756 ], [ 149.409561700000012, 7.5375806 ], [ 149.4092502, 7.537736 ], [ 149.4091326, 7.5380699 ], [ 149.4091111, 7.538623 ], [ 149.409268200000014, 7.5390672 ], [ 149.4096778, 7.5395436 ], [ 149.4103771, 7.5401865 ], [ 149.4110077, 7.5405586 ], [ 149.411385599999988, 7.5406864 ], [ 149.411837600000013, 7.5409061 ], [ 149.4122654, 7.5412607 ], [ 149.4126465, 7.5414184 ], [ 149.4128407, 7.5412667 ], [ 149.4132047, 7.5411354 ], [ 149.4136709, 7.5409629 ], [ 149.4141399, 7.5406183 ], [ 149.414340900000013, 7.5403053 ], [ 149.414550600000013, 7.5401971 ], [ 149.4148051, 7.5398051 ], [ 149.4149062, 7.5396492 ], [ 149.415678899999989, 7.5391405 ], [ 149.416192599999988, 7.5387766 ], [ 149.416621, 7.5383633 ], [ 149.4168879, 7.5382865 ], [ 149.417566099999988, 7.5380012 ], [ 149.417973100000012, 7.5379103 ], [ 149.4185101, 7.5380066 ], [ 149.4189173, 7.5378784 ], [ 149.4196066, 7.5375809 ], [ 149.419799, 7.5373646 ], [ 149.4202584, 7.5372296 ], [ 149.4206471, 7.5371132 ], [ 149.421181, 7.5371126 ], [ 149.421733, 7.5371714 ], [ 149.4224302, 7.5369854 ], [ 149.4228977, 7.5368361 ], [ 149.4232839, 7.5365276 ], [ 149.4234625, 7.5364457 ], [ 149.4238056, 7.536422 ], [ 149.424710800000014, 7.5364107 ], [ 149.4252687, 7.5362511 ], [ 149.4256872, 7.5362617 ], [ 149.426277199999987, 7.5362511 ], [ 149.427869, 7.5365893 ], [ 149.4287127, 7.5367829 ], [ 149.4296239, 7.5369376 ], [ 149.4301825, 7.5370781 ], [ 149.430433099999988, 7.5371986 ], [ 149.4306497, 7.5373377 ], [ 149.43108380000001, 7.5375487 ], [ 149.4316524, 7.5375062 ], [ 149.4322532, 7.5373679 ], [ 149.4326178, 7.5371008 ], [ 149.432720100000012, 7.5369563 ], [ 149.4326824, 7.5367856 ], [ 149.432467800000012, 7.5364851 ], [ 149.4322118, 7.5361546 ], [ 149.4318562, 7.5359746 ], [ 149.4311992, 7.5357539 ], [ 149.430482899999987, 7.5357512 ] ] ] ] } },
{ "type": "Feature", "properties": { "FID": 88984, "id": 2357, "left": 145.0, "top": 10.0, "right": 150.0, "bottom": 5.0, "row_index": 16, "col_index": 65, "min_lon": 145.0, "min_lat": 5.0, "tile_id": "145_5" }, "geometry": { "type": "MultiPolygon", "coordinates": [ [ [ [ 149.183768, 7.3588677 ], [ 149.1831645, 7.3590087 ], [ 149.18288290000001, 7.3590593 ], [ 149.1826603, 7.3590752 ], [ 149.182445699999988, 7.3591417 ], [ 149.1822606, 7.3592455 ], [ 149.1820702, 7.3593891 ], [ 149.1819602, 7.3594397 ], [ 149.1818288, 7.3594796 ], [ 149.181633, 7.3595301 ], [ 149.181480099999987, 7.3596099 ], [ 149.181295, 7.3597908 ], [ 149.181155600000011, 7.3599318 ], [ 149.1809007, 7.3601233 ], [ 149.180608400000011, 7.3603574 ], [ 149.1803107, 7.3606686 ], [ 149.1798406, 7.3611704 ], [ 149.1794524, 7.361605 ], [ 149.1792592, 7.3618816 ], [ 149.179090300000013, 7.3620652 ], [ 149.178787199999988, 7.3622541 ], [ 149.1781971, 7.3627355 ], [ 149.1778529, 7.3629759 ], [ 149.177301199999988, 7.3633261 ], [ 149.176193500000011, 7.3639565 ], [ 149.1750884, 7.3645471 ], [ 149.174501, 7.3647785 ], [ 149.1739646, 7.3649541 ], [ 149.173513899999989, 7.365111 ], [ 149.1730311, 7.3653291 ], [ 149.17159620000001, 7.3660101 ], [ 149.1713279, 7.3661803 ], [ 149.1711321, 7.3663745 ], [ 149.1706011, 7.3670475 ], [ 149.1701746, 7.3678775 ], [ 149.1697725, 7.3686547 ], [ 149.169254599999988, 7.369532 ], [ 149.169032, 7.3701598 ], [ 149.1688335, 7.3709232 ], [ 149.1687906, 7.371136 ], [ 149.1688067, 7.371285 ], [ 149.1688684, 7.3714207 ], [ 149.1690025, 7.3715457 ], [ 149.1692117, 7.371692 ], [ 149.169611300000014, 7.3718995 ], [ 149.170051199999989, 7.3720963 ], [ 149.170407899999987, 7.3722293 ], [ 149.171108, 7.3724661 ], [ 149.1715988, 7.3725698 ], [ 149.1724357, 7.3726044 ], [ 149.17333690000001, 7.3725858 ], [ 149.1743481, 7.3725804 ], [ 149.1747531, 7.3725299 ], [ 149.1752788, 7.3724288 ], [ 149.1771563, 7.3718191 ], [ 149.180527899999987, 7.370604 ], [ 149.1820595, 7.370072 ], [ 149.182303499999989, 7.3699922 ], [ 149.18284, 7.3698699 ], [ 149.183237, 7.369798 ], [ 149.1835508, 7.3696916 ], [ 149.183875300000011, 7.3694948 ], [ 149.1841087, 7.3692713 ], [ 149.184261600000013, 7.3690107 ], [ 149.1843903, 7.3686515 ], [ 149.1844198, 7.3684121 ], [ 149.18438230000001, 7.3682392 ], [ 149.184315199999986, 7.3680637 ], [ 149.1841704, 7.3677524 ], [ 149.184114, 7.3675396 ], [ 149.1841355, 7.367279 ], [ 149.1842186, 7.3670555 ], [ 149.1843876, 7.3667523 ], [ 149.184720199999987, 7.3662761 ], [ 149.1853961, 7.3655499 ], [ 149.18614980000001, 7.3647785 ], [ 149.1865334, 7.36443 ], [ 149.1869867, 7.3640762 ], [ 149.187279, 7.3638475 ], [ 149.1876653, 7.3637118 ], [ 149.1881132, 7.3636639 ], [ 149.1884887, 7.3636107 ], [ 149.1889769, 7.3634697 ], [ 149.1899264, 7.3631 ], [ 149.1903073, 7.3628898 ], [ 149.190768600000013, 7.3625414 ], [ 149.1909751, 7.3623126 ], [ 149.191128, 7.3620386 ], [ 149.1911709, 7.3618045 ], [ 149.191181699999987, 7.3615412 ], [ 149.1911575, 7.3613975 ], [ 149.191069, 7.3612964 ], [ 149.1909322, 7.3612645 ], [ 149.1907445, 7.3613337 ], [ 149.1905245, 7.3614906 ], [ 149.1902268, 7.3617061 ], [ 149.1899371, 7.3619056 ], [ 149.1894704, 7.3620998 ], [ 149.1890788, 7.3621822 ], [ 149.1887087, 7.3622354 ], [ 149.188301, 7.3622354 ], [ 149.1878664, 7.3621902 ], [ 149.187499, 7.3621024 ], [ 149.1871181, 7.3619455 ], [ 149.186807, 7.3617407 ], [ 149.186528, 7.3614693 ], [ 149.186359, 7.3612299 ], [ 149.1861016, 7.3607671 ], [ 149.185881599999988, 7.3604399 ], [ 149.1856214, 7.360118 ], [ 149.185203, 7.3597323 ], [ 149.184975, 7.3594184 ], [ 149.184714899999989, 7.3592082 ], [ 149.184449300000011, 7.3590087 ], [ 149.1841838, 7.3589023 ], [ 149.1840121, 7.3588544 ], [ 149.183768, 7.3588677 ] ] ] ] } },
{ "type": "Feature", "properties": { "FID": 89014, "id": 2357, "left": 145.0, "top": 10.0, "right": 150.0, "bottom": 5.0, "row_index": 16, "col_index": 65, "min_lon": 145.0, "min_lat": 5.0, "tile_id": "145_5" }, "geometry": { "type": "MultiPolygon", "coordinates": [ [ [ [ 146.380442499999987, 7.4507306 ], [ 146.380151500000011, 7.4507905 ], [ 146.3797653, 7.4509248 ], [ 146.379324, 7.451103 ], [ 146.3789673, 7.4513024 ], [ 146.378497900000013, 7.4515631 ], [ 146.3780111, 7.4519022 ], [ 146.377729499999987, 7.4521602 ], [ 146.3775578, 7.4523796 ], [ 146.377269500000011, 7.4527838 ], [ 146.3770495, 7.4531468 ], [ 146.376812199999989, 7.4534886 ], [ 146.3764742, 7.4538476 ], [ 146.3763119, 7.454075 ], [ 146.376243499999987, 7.4542147 ], [ 146.376202, 7.4545139 ], [ 146.376163100000014, 7.4547572 ], [ 146.3760987, 7.4549912 ], [ 146.3760799, 7.4552067 ], [ 146.376141600000011, 7.4555205 ], [ 146.3762355, 7.4558184 ], [ 146.3764742, 7.4562332 ], [ 146.3765895, 7.4563902 ], [ 146.3768148, 7.4565072 ], [ 146.3771126, 7.4565338 ], [ 146.377337899999986, 7.4565683 ], [ 146.377531, 7.4566428 ], [ 146.3777107, 7.4568263 ], [ 146.3778609, 7.4570816 ], [ 146.3780017, 7.4574008 ], [ 146.3781667, 7.4578263 ], [ 146.3782579, 7.4581188 ], [ 146.3783732, 7.4587292 ], [ 146.378397299999989, 7.459043 ], [ 146.3783826, 7.4593781 ], [ 146.378323599999987, 7.4597584 ], [ 146.378219, 7.4599978 ], [ 146.3780889, 7.460293 ], [ 146.3780098, 7.4604379 ], [ 146.3779078, 7.4606653 ], [ 146.3778596, 7.4607424 ], [ 146.3778475, 7.4608116 ], [ 146.3778649, 7.4609446 ], [ 146.3779467, 7.4611241 ], [ 146.378059400000012, 7.4612863 ], [ 146.3782659, 7.461515 ], [ 146.3785945, 7.4619539 ], [ 146.3788721, 7.4622597 ], [ 146.3790947, 7.4624326 ], [ 146.379267700000014, 7.4624951 ], [ 146.379463500000014, 7.4625097 ], [ 146.379658, 7.4624831 ], [ 146.379855099999986, 7.4624126 ], [ 146.38009790000001, 7.4622437 ], [ 146.3803835, 7.4620017 ], [ 146.380921300000011, 7.461402 ], [ 146.3813357, 7.4608728 ], [ 146.3816294, 7.4604792 ], [ 146.3818239, 7.4601095 ], [ 146.3820867, 7.4596135 ], [ 146.3823898, 7.4591534 ], [ 146.3826017, 7.4587332 ], [ 146.3828512, 7.4581574 ], [ 146.3829906, 7.4576069 ], [ 146.3831341, 7.4569739 ], [ 146.3831864, 7.4563928 ], [ 146.3832213, 7.4557864 ], [ 146.383230700000013, 7.4554447 ], [ 146.38317570000001, 7.4548144 ], [ 146.383055, 7.4542133 ], [ 146.382937, 7.4537293 ], [ 146.3827129, 7.453131 ], [ 146.3825601, 7.4527851 ], [ 146.3824368, 7.4524766 ], [ 146.3823576, 7.4523397 ], [ 146.38208, 7.451986 ], [ 146.3819379, 7.4517758 ], [ 146.381797, 7.4515631 ], [ 146.3814899, 7.4511759 ], [ 146.3812901, 7.4509647 ], [ 146.381101, 7.450833 ], [ 146.3809106, 7.4507626 ], [ 146.380659799999989, 7.4507213 ], [ 146.380442499999987, 7.4507306 ] ] ] ] } },
{ "type": "Feature", "properties": { "FID": 89017, "id": 2357, "left": 145.0, "top": 10.0, "right": 150.0, "bottom": 5.0, "row_index": 16, "col_index": 65, "min_lon": 145.0, "min_lat": 5.0, "tile_id": "145_5" }, "geometry": { "type": "MultiPolygon", "coordinates": [ [ [ [ 146.2638004, 7.5033419 ], [ 146.2636157, 7.5033123 ], [ 146.2633911, 7.503436 ], [ 146.2630617, 7.5036686 ], [ 146.262857, 7.5038814 ], [ 146.2627915, 7.5040277 ], [ 146.26277540000001, 7.5042085 ], [ 146.26277, 7.5043814 ], [ 146.2627378, 7.5045648 ], [ 146.2627405, 7.5047723 ], [ 146.2628746, 7.5051818 ], [ 146.2629768, 7.5055492 ], [ 146.2630302, 7.5058599 ], [ 146.263140099999987, 7.5060567 ], [ 146.2633145, 7.5061843 ], [ 146.2637624, 7.5064662 ], [ 146.2644061, 7.50678 ], [ 146.2646556, 7.5069209 ], [ 146.2648393, 7.5069781 ], [ 146.2649319, 7.5070087 ], [ 146.2650083, 7.5070725 ], [ 146.265098200000011, 7.507248 ], [ 146.2652349, 7.5076017 ], [ 146.265280499999989, 7.5077692 ], [ 146.265347600000013, 7.5078038 ], [ 146.265401200000014, 7.5077559 ], [ 146.265422699999988, 7.5076575 ], [ 146.265387800000013, 7.5074581 ], [ 146.26532610000001, 7.5071603 ], [ 146.265248, 7.5067617 ], [ 146.265178600000013, 7.5065274 ], [ 146.2650821, 7.5062402 ], [ 146.265015, 7.5059689 ], [ 146.2650123, 7.5057509 ], [ 146.2650499, 7.5054451 ], [ 146.2650552, 7.5052562 ], [ 146.265007, 7.504985 ], [ 146.2648437, 7.5047128 ], [ 146.264661, 7.5041527 ], [ 146.264497299999988, 7.503666 ], [ 146.2644893, 7.5035464 ], [ 146.264435600000013, 7.5034214 ], [ 146.2642962, 7.503331 ], [ 146.2641099, 7.5033222 ], [ 146.2638004, 7.5033419 ] ] ] ] } },
{ "type": "Feature", "properties": { "FID": 89020, "id": 2357, "left": 145.0, "top": 10.0, "right": 150.0, "bottom": 5.0, "row_index": 16, "col_index": 65, "min_lon": 145.0, "min_lat": 5.0, "tile_id": "145_5" }, "geometry": { "type": "MultiPolygon", "coordinates": [ [ [ [ 145.882656700000013, 7.7011624 ], [ 145.8826487, 7.7010083 ], [ 145.8826607, 7.7009219 ], [ 145.8826554, 7.7008395 ], [ 145.882644699999986, 7.7007969 ], [ 145.8826084, 7.7007518 ], [ 145.882549399999988, 7.7007332 ], [ 145.8824582, 7.7007278 ], [ 145.8823054, 7.7007624 ], [ 145.8821954, 7.7007996 ], [ 145.8820613, 7.7009086 ], [ 145.8818158, 7.7011757 ], [ 145.8815141, 7.7015585 ], [ 145.8813022, 7.7017791 ], [ 145.8811641, 7.7019027 ], [ 145.8809616, 7.7020475 ], [ 145.8806759, 7.7021539 ], [ 145.880342, 7.7022575 ], [ 145.87992220000001, 7.7023825 ], [ 145.8797519, 7.7024742 ], [ 145.879620499999987, 7.7025579 ], [ 145.879477, 7.7026655 ], [ 145.8792919, 7.7027532 ], [ 145.8789995, 7.7028423 ], [ 145.878695099999987, 7.7028968 ], [ 145.8784621, 7.7029222 ], [ 145.877757699999989, 7.7030602 ], [ 145.877417, 7.7031613 ], [ 145.8770844, 7.703249 ], [ 145.8766311, 7.7032357 ], [ 145.8764166, 7.7032649 ], [ 145.876352200000014, 7.7032862 ], [ 145.876312, 7.703346 ], [ 145.8763066, 7.7034151 ], [ 145.876338800000013, 7.7034603 ], [ 145.876392399999986, 7.7034696 ], [ 145.8764555, 7.7034523 ], [ 145.87648630000001, 7.7034031 ], [ 145.876539900000012, 7.7033739 ], [ 145.8766566, 7.703354 ], [ 145.876772, 7.7033699 ], [ 145.8769825, 7.7034257 ], [ 145.8772346, 7.7034483 ], [ 145.8774814, 7.7034802 ], [ 145.8776624, 7.70354 ], [ 145.8778314, 7.7036384 ], [ 145.878080899999986, 7.7037885 ], [ 145.878261900000012, 7.7039095 ], [ 145.8784027, 7.7040185 ], [ 145.8785181, 7.7040876 ], [ 145.8786543, 7.7041341 ], [ 145.8789539, 7.7041939 ], [ 145.879269099999988, 7.7042244 ], [ 145.8795172, 7.704255 ], [ 145.87975990000001, 7.7043321 ], [ 145.879923600000012, 7.7043932 ], [ 145.8801676, 7.7044942 ], [ 145.880456, 7.7046338 ], [ 145.880848899999989, 7.7048571 ], [ 145.881123800000012, 7.7050218 ], [ 145.8812901, 7.7051667 ], [ 145.8814712, 7.7054259 ], [ 145.8816321, 7.7056438 ], [ 145.8817944, 7.7058458 ], [ 145.8819339, 7.7060186 ], [ 145.882055900000012, 7.7061036 ], [ 145.8821793, 7.7061462 ], [ 145.8822571, 7.7061448 ], [ 145.882326799999987, 7.7061169 ], [ 145.8823898, 7.7060771 ], [ 145.882494400000013, 7.7059801 ], [ 145.8825776, 7.7059468 ], [ 145.882758599999988, 7.7058923 ], [ 145.8829397, 7.7058046 ], [ 145.883102, 7.7056837 ], [ 145.8832026, 7.7055561 ], [ 145.8832468, 7.7054205 ], [ 145.883270900000014, 7.7052969 ], [ 145.8832696, 7.7051042 ], [ 145.8832467, 7.7049577 ], [ 145.8831999, 7.7048132 ], [ 145.8831355, 7.7046776 ], [ 145.8829384, 7.7044251 ], [ 145.882785500000011, 7.7042617 ], [ 145.882664799999986, 7.7040969 ], [ 145.8825012, 7.7038962 ], [ 145.8824354, 7.7037792 ], [ 145.882418, 7.703637 ], [ 145.882400600000011, 7.7034151 ], [ 145.882414, 7.7031825 ], [ 145.8824405, 7.702984 ], [ 145.8825521, 7.7023585 ], [ 145.8826688, 7.7017645 ], [ 145.882697, 7.7015186 ], [ 145.8826956, 7.7013711 ], [ 145.882656700000013, 7.7011624 ] ] ] ] } },
{ "type": "Feature", "properties": { "FID": 89048, "id": 2357, "left": 145.0, "top": 10.0, "right": 150.0, "bottom": 5.0, "row_index": 16, "col_index": 65, "min_lon": 145.0, "min_lat": 5.0, "tile_id": "145_5" }, "geometry": { "type": "MultiPolygon", "coordinates": [ [ [ [ 149.299148699999989, 6.6732289 ], [ 149.2985979, 6.6730411 ], [ 149.2980296, 6.6729917 ], [ 149.2975141, 6.6731362 ], [ 149.297210299999989, 6.673315 ], [ 149.2969661, 6.6735488 ], [ 149.2967279, 6.6737883 ], [ 149.2964603, 6.6741435 ], [ 149.2959999, 6.6762993 ], [ 149.2959588, 6.6780794 ], [ 149.2959588, 6.6792961 ], [ 149.2961479, 6.6800718 ], [ 149.297220900000013, 6.6833047 ], [ 149.2977438, 6.6863582 ], [ 149.2976703, 6.6873407 ], [ 149.297406200000012, 6.6890127 ], [ 149.2969635, 6.6906951 ], [ 149.296959, 6.6918031 ], [ 149.296927399999987, 6.6926465 ], [ 149.2968645, 6.6949346 ], [ 149.297022199999986, 6.6964463 ], [ 149.2973384, 6.6979761 ], [ 149.2973429, 6.6993219 ], [ 149.297532600000011, 6.699784 ], [ 149.2977991, 6.7002012 ], [ 149.298156, 6.7006139 ], [ 149.2990091, 6.7012044 ], [ 149.2997053, 6.7014797 ], [ 149.3003919, 6.7014842 ], [ 149.3017714, 6.7012286 ], [ 149.3023222, 6.7015307 ], [ 149.302947100000011, 6.701596 ], [ 149.3037857, 6.7015144 ], [ 149.3048709, 6.7014736 ], [ 149.3055862, 6.7014736 ], [ 149.3058821, 6.7013756 ], [ 149.3062603, 6.7010653 ], [ 149.3066385, 6.7008285 ], [ 149.3070825, 6.7004611 ], [ 149.3074935, 6.6996854 ], [ 149.3078882, 6.6985014 ], [ 149.307978600000013, 6.6953169 ], [ 149.307740200000012, 6.6937328 ], [ 149.307353799999987, 6.6918874 ], [ 149.3061945, 6.6885395 ], [ 149.305760600000013, 6.6874439 ], [ 149.305314900000013, 6.6863185 ], [ 149.3047311, 6.6848487 ], [ 149.304278900000014, 6.6835667 ], [ 149.303539, 6.6808394 ], [ 149.30314580000001, 6.679657 ], [ 149.302947100000011, 6.6790593 ], [ 149.3027533, 6.6785234 ], [ 149.3021085, 6.6767402 ], [ 149.301565900000014, 6.6756297 ], [ 149.3008753, 6.6747641 ], [ 149.299995599999988, 6.6738087 ], [ 149.299148699999989, 6.6732289 ] ] ] ] } },
{ "type": "Feature", "properties": { "FID": 89070, "id": 2357, "left": 145.0, "top": 10.0, "right": 150.0, "bottom": 5.0, "row_index": 16, "col_index": 65, "min_lon": 145.0, "min_lat": 5.0, "tile_id": "145_5" }, "geometry": { "type": "MultiPolygon", "coordinates": [ [ [ [ 146.174147, 7.5081364 ], [ 146.174009399999989, 7.5079649 ], [ 146.1738435, 7.5076184 ], [ 146.1736387, 7.5074505 ], [ 146.1733317, 7.507223 ], [ 146.173151600000011, 7.507076 ], [ 146.1729187, 7.507013 ], [ 146.172703399999989, 7.5069116 ], [ 146.1725128, 7.5067821 ], [ 146.1723292, 7.5066141 ], [ 146.1722269, 7.5065616 ], [ 146.172061, 7.5066351 ], [ 146.1719445, 7.5067436 ], [ 146.171828, 7.5070515 ], [ 146.1717504, 7.507328 ], [ 146.1717186, 7.5076639 ], [ 146.1717574, 7.5080804 ], [ 146.171785699999987, 7.5083673 ], [ 146.171729199999987, 7.5086683 ], [ 146.171528, 7.5090637 ], [ 146.1713374, 7.5093646 ], [ 146.1709491, 7.5097566 ], [ 146.170695, 7.509935 ], [ 146.170253800000012, 7.510152 ], [ 146.169950199999988, 7.510243 ], [ 146.169657300000011, 7.51039 ], [ 146.1692761, 7.5105194 ], [ 146.1688878, 7.5106664 ], [ 146.1686125, 7.5108064 ], [ 146.1684148, 7.5109954 ], [ 146.1682807, 7.5111738 ], [ 146.1682525, 7.5113873 ], [ 146.1682878, 7.5116532 ], [ 146.1684113, 7.5119437 ], [ 146.1687396, 7.5124721 ], [ 146.168954899999989, 7.5127801 ], [ 146.1692549, 7.5133574 ], [ 146.1696149, 7.5139768 ], [ 146.169749, 7.5142638 ], [ 146.1698796, 7.5145297 ], [ 146.1699891, 7.5146242 ], [ 146.170204399999989, 7.5148272 ], [ 146.1704056, 7.5150021 ], [ 146.1705503, 7.5151351 ], [ 146.170755, 7.5152401 ], [ 146.1709703, 7.5153591 ], [ 146.1711644, 7.5155166 ], [ 146.1713833, 7.5156215 ], [ 146.1716762, 7.515737 ], [ 146.1719904, 7.515744 ], [ 146.172223300000013, 7.515688 ], [ 146.172375100000011, 7.5156285 ], [ 146.1725022, 7.5156075 ], [ 146.172809300000011, 7.515541 ], [ 146.1730952, 7.5154046 ], [ 146.1732858, 7.5152716 ], [ 146.1736176, 7.5149357 ], [ 146.17373760000001, 7.5147397 ], [ 146.174115199999989, 7.5141658 ], [ 146.1742882, 7.5138159 ], [ 146.174447, 7.5135639 ], [ 146.174644699999988, 7.513053 ], [ 146.1748177, 7.5124371 ], [ 146.1748777, 7.5123041 ], [ 146.1749059, 7.5122516 ], [ 146.1749059, 7.5120067 ], [ 146.1748988, 7.5111598 ], [ 146.1748318, 7.5106629 ], [ 146.1747259, 7.5100785 ], [ 146.1745353, 7.5092597 ], [ 146.174418800000012, 7.5088257 ], [ 146.174362300000013, 7.5085493 ], [ 146.17432, 7.5083463 ], [ 146.1742317, 7.5082308 ], [ 146.174147, 7.5081364 ] ] ] ] } },
{ "type": "Feature", "properties": { "FID": 89079, "id": 2357, "left": 145.0, "top": 10.0, "right": 150.0, "bottom": 5.0, "row_index": 16, "col_index": 65, "min_lon": 145.0, "min_lat": 5.0, "tile_id": "145_5" }, "geometry": { "type": "MultiPolygon", "coordinates": [ [ [ [ 146.1682941, 7.4094386 ], [ 146.1685482, 7.4097991 ], [ 146.1687, 7.4101842 ], [ 146.1688483, 7.4103802 ], [ 146.1690989, 7.4108212 ], [ 146.169254200000012, 7.4111922 ], [ 146.1693707, 7.4117243 ], [ 146.1694095, 7.4122213 ], [ 146.1693883, 7.4128303 ], [ 146.169300099999987, 7.4133273 ], [ 146.169141200000013, 7.4137229 ], [ 146.1690353, 7.4138909 ], [ 146.169, 7.4140764 ], [ 146.1690036, 7.4142549 ], [ 146.169045899999986, 7.4144264 ], [ 146.1691271, 7.4145349 ], [ 146.1692683, 7.4145874 ], [ 146.1694765, 7.4145699 ], [ 146.1696919, 7.4145104 ], [ 146.1698683, 7.4143564 ], [ 146.1700166, 7.4141569 ], [ 146.170171900000014, 7.4138734 ], [ 146.1703378, 7.4136073 ], [ 146.1704613, 7.4131453 ], [ 146.1705955, 7.4123683 ], [ 146.1707155, 7.4117698 ], [ 146.1707472, 7.4113147 ], [ 146.1707013, 7.4108632 ], [ 146.170588400000014, 7.4103977 ], [ 146.1704719, 7.4101072 ], [ 146.170313099999987, 7.4098412 ], [ 146.1700907, 7.4096416 ], [ 146.1696954, 7.4094071 ], [ 146.1693565, 7.4092531 ], [ 146.1691448, 7.4092006 ], [ 146.1687847, 7.4089941 ], [ 146.1685977, 7.4088156 ], [ 146.168392899999986, 7.4086196 ], [ 146.1681812, 7.4083641 ], [ 146.167987, 7.4080595 ], [ 146.1678035, 7.407783 ], [ 146.167567, 7.407482 ], [ 146.167284599999988, 7.407174 ], [ 146.1670234, 7.4068765 ], [ 146.166822200000013, 7.406649 ], [ 146.166554, 7.4063549 ], [ 146.166321, 7.4060364 ], [ 146.1659822, 7.4055289 ], [ 146.1657104, 7.4051474 ], [ 146.1655233, 7.4048603 ], [ 146.1653504, 7.4045138 ], [ 146.165269200000012, 7.4042688 ], [ 146.1651819, 7.4041684 ], [ 146.164983299999989, 7.4039398 ], [ 146.1646409, 7.4034602 ], [ 146.1643267, 7.4030787 ], [ 146.164019700000011, 7.4027917 ], [ 146.1638855, 7.4027357 ], [ 146.1636526, 7.4025642 ], [ 146.1633984, 7.4024837 ], [ 146.163102, 7.4024592 ], [ 146.1628584, 7.4025117 ], [ 146.162618400000014, 7.4026132 ], [ 146.1622619, 7.4027882 ], [ 146.162099500000011, 7.4028757 ], [ 146.161947700000013, 7.4030647 ], [ 146.1618842, 7.4032607 ], [ 146.161863, 7.4034147 ], [ 146.161923, 7.4035652 ], [ 146.162036, 7.4038383 ], [ 146.1621525, 7.4040448 ], [ 146.1622266, 7.4041988 ], [ 146.162410099999988, 7.4042198 ], [ 146.1626149, 7.4042793 ], [ 146.1631055, 7.4044053 ], [ 146.1635149, 7.4044963 ], [ 146.1637302, 7.4045733 ], [ 146.1639985, 7.4047063 ], [ 146.164266700000013, 7.4048813 ], [ 146.164616200000012, 7.4051579 ], [ 146.1649233, 7.4054694 ], [ 146.165248, 7.4058509 ], [ 146.1656045, 7.4061659 ], [ 146.1661128, 7.4064739 ], [ 146.1666104, 7.4068205 ], [ 146.1669105, 7.407202 ], [ 146.167115200000012, 7.4074785 ], [ 146.1674399, 7.4078355 ], [ 146.1678388, 7.4084586 ], [ 146.1680011, 7.4088121 ], [ 146.1681247, 7.4090886 ], [ 146.1682941, 7.4094386 ] ] ] ] } },
{ "type": "Feature", "properties": { "FID": 89084, "id": 2357, "left": 145.0, "top": 10.0, "right": 150.0, "bottom": 5.0, "row_index": 16, "col_index": 65, "min_lon": 145.0, "min_lat": 5.0, "tile_id": "145_5" }, "geometry": { "type": "MultiPolygon", "coordinates": [ [ [ [ 149.697634099999988, 8.6006115 ], [ 149.698405, 8.6018769 ], [ 149.6999854, 8.6038135 ], [ 149.700408399999986, 8.6041497 ], [ 149.7010792, 8.6047781 ], [ 149.7017837, 8.6049965 ], [ 149.7021695, 8.6049254 ], [ 149.7027316, 8.6043716 ], [ 149.7027316, 8.6038267 ], [ 149.702571, 8.6035378 ], [ 149.702179699999988, 8.6031548 ], [ 149.701659799999987, 8.602389 ], [ 149.7011338, 8.601617 ], [ 149.7006108, 8.6008481 ], [ 149.7002206, 8.6004642 ], [ 149.6997189, 8.5999979 ], [ 149.698923900000011, 8.5988636 ], [ 149.6986774, 8.5985054 ], [ 149.6978718, 8.597648 ], [ 149.69683710000001, 8.5976553 ], [ 149.695938899999987, 8.5971969 ], [ 149.69544, 8.5956263 ], [ 149.6952674, 8.5952202 ], [ 149.6944944, 8.5944325 ], [ 149.6941759, 8.5938663 ], [ 149.693348500000013, 8.5927328 ], [ 149.6921298, 8.5906069 ], [ 149.6916455, 8.5902118 ], [ 149.69093380000001, 8.589279 ], [ 149.690572, 8.5885995 ], [ 149.6902548, 8.5879559 ], [ 149.6899866, 8.5875053 ], [ 149.6892292, 8.5867261 ], [ 149.688446699999986, 8.585938 ], [ 149.6878022, 8.5849307 ], [ 149.687427500000013, 8.5842017 ], [ 149.687065499999989, 8.5827566 ], [ 149.6871344, 8.5817326 ], [ 149.6878283, 8.5798964 ], [ 149.6881603, 8.5780163 ], [ 149.688626, 8.577688 ], [ 149.689058, 8.57698 ], [ 149.689821599999988, 8.5751721 ], [ 149.6900268, 8.5747569 ], [ 149.690519099999989, 8.5744154 ], [ 149.6908419, 8.5740694 ], [ 149.6911553, 8.5729076 ], [ 149.691445, 8.5725117 ], [ 149.6918315, 8.5722799 ], [ 149.692178899999988, 8.5719663 ], [ 149.692176, 8.5715015 ], [ 149.691856699999988, 8.5702651 ], [ 149.691539400000011, 8.569382 ], [ 149.6911491, 8.5690416 ], [ 149.6904226, 8.5687678 ], [ 149.688352900000012, 8.5686151 ], [ 149.6870846, 8.5685089 ], [ 149.6865419, 8.5686278 ], [ 149.68592910000001, 8.5688348 ], [ 149.685123, 8.5693836 ], [ 149.684739900000011, 8.5699279 ], [ 149.6841468, 8.5704862 ], [ 149.6833666, 8.5714503 ], [ 149.6828165, 8.5723881 ], [ 149.6826144, 8.5729176 ], [ 149.6824253, 8.5735434 ], [ 149.682348100000013, 8.5747133 ], [ 149.682583099999988, 8.575995 ], [ 149.682740599999988, 8.576287 ], [ 149.6827754, 8.5780605 ], [ 149.6827757, 8.5789882 ], [ 149.68267, 8.5793862 ], [ 149.6823532, 8.5799353 ], [ 149.6817125, 8.5815169 ], [ 149.6813345, 8.5824416 ], [ 149.68108620000001, 8.5833639 ], [ 149.6812018, 8.5845149 ], [ 149.681671099999988, 8.5854907 ], [ 149.682324099999988, 8.5863638 ], [ 149.683109800000011, 8.5873225 ], [ 149.6847415, 8.5885984 ], [ 149.6853305, 8.5891052 ], [ 149.686982199999989, 8.5904017 ], [ 149.6879949, 8.5912792 ], [ 149.6891669, 8.5924302 ], [ 149.6899486, 8.5931974 ], [ 149.690761400000014, 8.5941929 ], [ 149.691409099999987, 8.5948673 ], [ 149.6925736, 8.5958914 ], [ 149.693534199999988, 8.5968554 ], [ 149.6940729, 8.5971377 ], [ 149.6946365, 8.5975423 ], [ 149.6949904, 8.5978457 ], [ 149.695415, 8.5981915 ], [ 149.6958085, 8.5985642 ], [ 149.6967208, 8.5995878 ], [ 149.697634099999988, 8.6006115 ] ] ] ] } },
{ "type": "Feature", "properties": { "FID": 89099, "id": 2357, "left": 145.0, "top": 10.0, "right": 150.0, "bottom": 5.0, "row_index": 16, "col_index": 65, "min_lon": 145.0, "min_lat": 5.0, "tile_id": "145_5" }, "geometry": { "type": "MultiPolygon", "coordinates": [ [ [ [ 146.3314748, 7.5171601 ], [ 146.331276300000013, 7.5170298 ], [ 146.3310792, 7.5169474 ], [ 146.330933, 7.5168849 ], [ 146.3308552, 7.5168237 ], [ 146.3307989, 7.5166961 ], [ 146.3307734, 7.5165631 ], [ 146.330729100000013, 7.5164687 ], [ 146.3306366, 7.5164289 ], [ 146.330553400000014, 7.5164621 ], [ 146.330452900000012, 7.5165605 ], [ 146.3303845, 7.5167028 ], [ 146.3303536, 7.5168118 ], [ 146.330344200000013, 7.5169394 ], [ 146.3303845, 7.5170258 ], [ 146.3304247, 7.517079 ], [ 146.3304636, 7.5172146 ], [ 146.330469, 7.5173064 ], [ 146.330372399999987, 7.5174447 ], [ 146.3302732, 7.5175763 ], [ 146.3299865, 7.5177905 ], [ 146.32916, 7.5181693 ], [ 146.328414400000014, 7.5185708 ], [ 146.328124699999989, 7.5187304 ], [ 146.327888699999988, 7.5189484 ], [ 146.3276955, 7.5191186 ], [ 146.3274461, 7.519209 ], [ 146.3271403, 7.5192648 ], [ 146.3269526, 7.519334 ], [ 146.32685330000001, 7.5193978 ], [ 146.3267782, 7.5195294 ], [ 146.3266549, 7.5196584 ], [ 146.3265945, 7.5197355 ], [ 146.3265932, 7.5198047 ], [ 146.3266347, 7.5198472 ], [ 146.326780899999989, 7.5198645 ], [ 146.3269325, 7.5199017 ], [ 146.3270827, 7.5199536 ], [ 146.32718460000001, 7.520024 ], [ 146.327294599999988, 7.5200958 ], [ 146.3274246, 7.5202128 ], [ 146.3275145, 7.5203019 ], [ 146.327611100000013, 7.5203843 ], [ 146.3277706, 7.5205505 ], [ 146.3279101, 7.5207593 ], [ 146.3280107, 7.5209667 ], [ 146.328190400000011, 7.5211276 ], [ 146.3283983, 7.5212645 ], [ 146.3286558, 7.5213682 ], [ 146.3289374, 7.5213975 ], [ 146.3292137, 7.5213789 ], [ 146.3295034, 7.5213257 ], [ 146.3297904, 7.5212512 ], [ 146.3301241, 7.5210939 ], [ 146.3305159, 7.5208874 ], [ 146.330898100000013, 7.5205918 ], [ 146.3312119, 7.5202434 ], [ 146.331472100000013, 7.5197967 ], [ 146.3317189, 7.5193553 ], [ 146.33192, 7.5189165 ], [ 146.3319817, 7.5186426 ], [ 146.3320354, 7.5183873 ], [ 146.3320196, 7.518158 ], [ 146.3319631, 7.5179795 ], [ 146.3318219, 7.5177171 ], [ 146.331645400000014, 7.5173391 ], [ 146.3314748, 7.5171601 ] ] ] ] } },
{ "type": "Feature", "properties": { "FID": 89144, "id": 2357, "left": 145.0, "top": 10.0, "right": 150.0, "bottom": 5.0, "row_index": 16, "col_index": 65, "min_lon": 145.0, "min_lat": 5.0, "tile_id": "145_5" }, "geometry": { "type": "MultiPolygon", "coordinates": [ [ [ [ 149.4273187, 7.6320312 ], [ 149.427121, 7.6320457 ], [ 149.4267037, 7.6323461 ], [ 149.4265375, 7.6323674 ], [ 149.42629070000001, 7.6323833 ], [ 149.4259098, 7.6326279 ], [ 149.4256332, 7.6330791 ], [ 149.4254056, 7.6331809 ], [ 149.42525, 7.6332991 ], [ 149.4251051, 7.6334799 ], [ 149.4250729, 7.6335969 ], [ 149.425110499999988, 7.6336926 ], [ 149.4252285, 7.6337139 ], [ 149.4255196, 7.6335694 ], [ 149.4256791, 7.6336275 ], [ 149.4257791, 7.6338255 ], [ 149.4258025, 7.6343506 ], [ 149.4257795, 7.634558 ], [ 149.4256416, 7.6348663 ], [ 149.4255351, 7.6352661 ], [ 149.4254699, 7.6355508 ], [ 149.4254431, 7.6358871 ], [ 149.4255236, 7.6364507 ], [ 149.4257351, 7.6374208 ], [ 149.426578799999987, 7.6391352 ], [ 149.4268538, 7.6396374 ], [ 149.4274011, 7.6408912 ], [ 149.4277083, 7.6413775 ], [ 149.4279218, 7.6416612 ], [ 149.4283584, 7.6421161 ], [ 149.428742199999988, 7.6423949 ], [ 149.4291177, 7.6425491 ], [ 149.4294653, 7.6426014 ], [ 149.4298741, 7.6426342 ], [ 149.4301048, 7.6427033 ], [ 149.430331, 7.6427033 ], [ 149.430625099999986, 7.6427458 ], [ 149.4311175, 7.6428022 ], [ 149.431698, 7.6428256 ], [ 149.432293499999986, 7.6427565 ], [ 149.4326475, 7.6425597 ], [ 149.4328448, 7.6424003 ], [ 149.432964, 7.6422141 ], [ 149.433046600000011, 7.642022 ], [ 149.4332176, 7.6414812 ], [ 149.433472, 7.6408331 ], [ 149.4335908, 7.6403903 ], [ 149.433667899999989, 7.6398278 ], [ 149.433771299999989, 7.639261 ], [ 149.43379010000001, 7.6383488 ], [ 149.4337526, 7.6377055 ], [ 149.43369, 7.6374343 ], [ 149.433523, 7.6370399 ], [ 149.433441499999986, 7.6369239 ], [ 149.433339499999988, 7.6369239 ], [ 149.4330606, 7.6370887 ], [ 149.43286040000001, 7.6370512 ], [ 149.4325885, 7.6369718 ], [ 149.4319812, 7.6367264 ], [ 149.431510300000014, 7.6364933 ], [ 149.431254200000012, 7.6363154 ], [ 149.430748, 7.6357393 ], [ 149.4302476, 7.6350809 ], [ 149.4294813, 7.6341146 ], [ 149.4288215, 7.6333051 ], [ 149.4283077, 7.6327874 ], [ 149.4279497, 7.632457 ], [ 149.4276628, 7.6321872 ], [ 149.4273187, 7.6320312 ] ] ] ] } },
{ "type": "Feature", "properties": { "FID": 89150, "id": 2357, "left": 145.0, "top": 10.0, "right": 150.0, "bottom": 5.0, "row_index": 16, "col_index": 65, "min_lon": 145.0, "min_lat": 5.0, "tile_id": "145_5" }, "geometry": { "type": "MultiPolygon", "coordinates": [ [ [ [ 149.3943317, 7.5846422 ], [ 149.3940106, 7.5846673 ], [ 149.393543599999987, 7.5846802 ], [ 149.393030900000014, 7.5849593 ], [ 149.3927926, 7.5851588 ], [ 149.392696, 7.5854566 ], [ 149.392696, 7.5859032 ], [ 149.3929228, 7.5866555 ], [ 149.393211, 7.5870624 ], [ 149.3935414, 7.5875029 ], [ 149.3937487, 7.5877369 ], [ 149.3940264, 7.5878494 ], [ 149.394251700000012, 7.5878601 ], [ 149.3944694, 7.5877251 ], [ 149.3946604, 7.5875268 ], [ 149.3947238, 7.5873177 ], [ 149.3947211, 7.5871416 ], [ 149.394648600000011, 7.5868763 ], [ 149.394506, 7.586638 ], [ 149.39441260000001, 7.5863393 ], [ 149.394434100000012, 7.5859989 ], [ 149.3945632, 7.5856902 ], [ 149.3946927, 7.5853486 ], [ 149.3947211, 7.5850575 ], [ 149.3944826, 7.584726 ], [ 149.3943317, 7.5846422 ] ] ] ] } },
{ "type": "Feature", "properties": { "FID": 89184, "id": 2357, "left": 145.0, "top": 10.0, "right": 150.0, "bottom": 5.0, "row_index": 16, "col_index": 65, "min_lon": 145.0, "min_lat": 5.0, "tile_id": "145_5" }, "geometry": { "type": "MultiPolygon", "coordinates": [ [ [ [ 149.1939792, 7.3475648 ], [ 149.1937485, 7.3475089 ], [ 149.19355, 7.3474956 ], [ 149.193273799999986, 7.3475089 ], [ 149.1930217, 7.3475993 ], [ 149.1927963, 7.3477616 ], [ 149.1926086, 7.3479505 ], [ 149.1924584, 7.348291 ], [ 149.192386, 7.3485597 ], [ 149.1923779, 7.3486501 ], [ 149.192386, 7.3487246 ], [ 149.19241550000001, 7.3488097 ], [ 149.192453, 7.3489108 ], [ 149.192504, 7.3489986 ], [ 149.1925764, 7.3490784 ], [ 149.1926542, 7.3491263 ], [ 149.1927507, 7.3491768 ], [ 149.1929331, 7.3493524 ], [ 149.1931772, 7.3497009 ], [ 149.1932335, 7.3498951 ], [ 149.1932416, 7.3502489 ], [ 149.1931826, 7.3507543 ], [ 149.1931692, 7.3512172 ], [ 149.1931826, 7.351821 ], [ 149.1932979, 7.3525153 ], [ 149.1933247, 7.3530128 ], [ 149.1933113, 7.3539465 ], [ 149.1932765, 7.3544439 ], [ 149.1932014, 7.3549175 ], [ 149.1930619, 7.3556756 ], [ 149.1930538, 7.3560773 ], [ 149.1930994, 7.3564736 ], [ 149.193212100000011, 7.3568594 ], [ 149.1934803, 7.357676 ], [ 149.1935876, 7.3579154 ], [ 149.193665399999986, 7.3580205 ], [ 149.1937271, 7.358067 ], [ 149.1938022, 7.3580537 ], [ 149.193834399999986, 7.3579859 ], [ 149.1938491, 7.3577837 ], [ 149.1938558, 7.3572264 ], [ 149.1938236, 7.3565694 ], [ 149.193866500000013, 7.3561863 ], [ 149.1939631, 7.3559842 ], [ 149.1941616, 7.3557474 ], [ 149.1943815, 7.3555319 ], [ 149.1944942, 7.3554548 ], [ 149.1946551, 7.3554388 ], [ 149.1949233, 7.3555559 ], [ 149.1960713, 7.3560454 ], [ 149.1962215, 7.3560826 ], [ 149.1963288, 7.3560347 ], [ 149.1963959, 7.3559469 ], [ 149.19662120000001, 7.3556357 ], [ 149.1968089, 7.3554841 ], [ 149.1970476, 7.3553723 ], [ 149.197289, 7.3553378 ], [ 149.1974983, 7.355375 ], [ 149.1976646, 7.3554601 ], [ 149.1979542, 7.3557474 ], [ 149.1980991, 7.3559815 ], [ 149.198160800000011, 7.3562342 ], [ 149.198174200000011, 7.3565508 ], [ 149.198214400000012, 7.3569578 ], [ 149.19826, 7.3571041 ], [ 149.1982654, 7.3572238 ], [ 149.1982037, 7.3576148 ], [ 149.19815, 7.3579553 ], [ 149.1980293, 7.3584075 ], [ 149.1977745, 7.3592987 ], [ 149.1976377, 7.3596817 ], [ 149.197484800000012, 7.359985 ], [ 149.197439300000013, 7.3601606 ], [ 149.1973427, 7.3603255 ], [ 149.197149599999989, 7.3605144 ], [ 149.1969028, 7.3607032 ], [ 149.1965032, 7.3609613 ], [ 149.1962001, 7.3610863 ], [ 149.195872799999989, 7.3611687 ], [ 149.195049399999988, 7.3612751 ], [ 149.1948429, 7.3612991 ], [ 149.1947061, 7.3612751 ], [ 149.1945451, 7.3612166 ], [ 149.1943842, 7.361182 ], [ 149.1941589, 7.3612113 ], [ 149.193968500000011, 7.3613629 ], [ 149.1938639, 7.361488 ], [ 149.1937888, 7.3616316 ], [ 149.1938049, 7.3617779 ], [ 149.193861199999986, 7.3619215 ], [ 149.1939846, 7.3620758 ], [ 149.1943708, 7.3624137 ], [ 149.1951191, 7.3630202 ], [ 149.1958702, 7.3637038 ], [ 149.1963154, 7.36418 ], [ 149.196669, 7.3646147 ], [ 149.1968062, 7.3648822 ], [ 149.196892100000014, 7.3651349 ], [ 149.1970289, 7.3655446 ], [ 149.1971898, 7.3658532 ], [ 149.197323899999986, 7.3660207 ], [ 149.1974419, 7.3660899 ], [ 149.1976082, 7.3661165 ], [ 149.1978523, 7.3661032 ], [ 149.198160800000011, 7.3660048 ], [ 149.1989547, 7.3658026 ], [ 149.1995636, 7.3655818 ], [ 149.1999954, 7.3653823 ], [ 149.200577399999986, 7.3649886 ], [ 149.2012748, 7.3645471 ], [ 149.20183, 7.3642278 ], [ 149.2020822, 7.3640204 ], [ 149.202406700000012, 7.3637038 ], [ 149.2026454, 7.3633979 ], [ 149.2028439, 7.362943 ], [ 149.203002199999986, 7.3624482 ], [ 149.2031577, 7.3618683 ], [ 149.2032328, 7.361488 ], [ 149.203265, 7.3612273 ], [ 149.2032623, 7.3609746 ], [ 149.2031845, 7.3606607 ], [ 149.2028627, 7.3595035 ], [ 149.202744700000011, 7.3589236 ], [ 149.2026803, 7.3584714 ], [ 149.2026722, 7.3575802 ], [ 149.2027259, 7.356455 ], [ 149.202717799999988, 7.3560055 ], [ 149.2026588, 7.3555851 ], [ 149.202565, 7.3551356 ], [ 149.202463, 7.354811 ], [ 149.20235310000001, 7.3545637 ], [ 149.2022082, 7.3543588 ], [ 149.2020097, 7.3541407 ], [ 149.2016745, 7.3538986 ], [ 149.201355299999989, 7.3537284 ], [ 149.2010307, 7.3536113 ], [ 149.200786599999986, 7.353481 ], [ 149.20064450000001, 7.3533586 ], [ 149.2005318, 7.353199 ], [ 149.2003494, 7.3527308 ], [ 149.200207299999988, 7.3524222 ], [ 149.200051699999989, 7.3521775 ], [ 149.1998586, 7.35197 ], [ 149.19955010000001, 7.3517146 ], [ 149.1990566, 7.3513582 ], [ 149.1985041, 7.3509591 ], [ 149.198066899999986, 7.3507011 ], [ 149.1976297, 7.3503154 ], [ 149.1970503, 7.3497514 ], [ 149.196744599999988, 7.3495439 ], [ 149.1964897, 7.3493896 ], [ 149.1962537, 7.3491795 ], [ 149.1961116, 7.3490146 ], [ 149.1959104, 7.3486847 ], [ 149.1957414, 7.3484985 ], [ 149.195419500000014, 7.3482405 ], [ 149.1949797, 7.348001 ], [ 149.1942635, 7.3476765 ], [ 149.1939792, 7.3475648 ] ] ] ] } },
{ "type": "Feature", "properties": { "FID": 89188, "id": 2357, "left": 145.0, "top": 10.0, "right": 150.0, "bottom": 5.0, "row_index": 16, "col_index": 65, "min_lon": 145.0, "min_lat": 5.0, "tile_id": "145_5" }, "geometry": { "type": "MultiPolygon", "coordinates": [ [ [ [ 146.729859299999987, 8.082347 ], [ 146.729439500000012, 8.0825674 ], [ 146.7292584, 8.0826657 ], [ 146.729186, 8.0826829 ], [ 146.7290197, 8.0827055 ], [ 146.7288025, 8.08274 ], [ 146.7285383, 8.0827984 ], [ 146.728292900000014, 8.082906 ], [ 146.7281051, 8.0830175 ], [ 146.7280045, 8.0831384 ], [ 146.7279227, 8.0833189 ], [ 146.7278878, 8.0834915 ], [ 146.7278878, 8.0835725 ], [ 146.7279254, 8.0836522 ], [ 146.727979, 8.0837505 ], [ 146.7280649, 8.0838527 ], [ 146.728190899999987, 8.0839178 ], [ 146.7283787, 8.0839881 ], [ 146.7285115, 8.0840532 ], [ 146.7286187, 8.0841329 ], [ 146.7287341, 8.0842351 ], [ 146.7289017, 8.0843944 ], [ 146.7290331, 8.0845166 ], [ 146.729169899999988, 8.0846215 ], [ 146.7292584, 8.084664 ], [ 146.7293443, 8.084729 ], [ 146.729466300000013, 8.0848618 ], [ 146.7295589, 8.08498 ], [ 146.7296366, 8.085057 ], [ 146.7297734, 8.0851566 ], [ 146.729973300000012, 8.0853172 ], [ 146.7301141, 8.0854102 ], [ 146.7302415, 8.0854912 ], [ 146.730393, 8.0856147 ], [ 146.7305097, 8.0857381 ], [ 146.7307109, 8.0859413 ], [ 146.730830200000014, 8.0860329 ], [ 146.7309254, 8.0861259 ], [ 146.73109980000001, 8.0863356 ], [ 146.7311575, 8.0863848 ], [ 146.7312406, 8.0864007 ], [ 146.73128890000001, 8.0863821 ], [ 146.7312996, 8.0863383 ], [ 146.7312795, 8.0862533 ], [ 146.7312554, 8.0860661 ], [ 146.7312178, 8.0858776 ], [ 146.731094399999989, 8.0855509 ], [ 146.7309429, 8.0852296 ], [ 146.7308463, 8.0850052 ], [ 146.7308074, 8.0848446 ], [ 146.73079, 8.0847118 ], [ 146.730796700000013, 8.0846361 ], [ 146.7308195, 8.0845724 ], [ 146.7307954, 8.0845232 ], [ 146.7307511, 8.0844701 ], [ 146.7306398, 8.0841302 ], [ 146.7305513, 8.0837544 ], [ 146.7305151, 8.0835672 ], [ 146.7303957, 8.0832273 ], [ 146.7303421, 8.0830056 ], [ 146.730304499999988, 8.082833 ], [ 146.7302884, 8.0826537 ], [ 146.730271, 8.0824692 ], [ 146.7302455, 8.0823404 ], [ 146.73020120000001, 8.0822859 ], [ 146.7301637, 8.0822673 ], [ 146.7300779, 8.0822793 ], [ 146.729859299999987, 8.082347 ] ] ] ] } },
{ "type": "Feature", "properties": { "FID": 89204, "id": 2357, "left": 145.0, "top": 10.0, "right": 150.0, "bottom": 5.0, "row_index": 16, "col_index": 65, "min_lon": 145.0, "min_lat": 5.0, "tile_id": "145_5" }, "geometry": { "type": "MultiPolygon", "coordinates": [ [ [ [ 147.6466135, 8.1026078 ], [ 147.646181, 8.1028899 ], [ 147.6459396, 8.1030971 ], [ 147.6456714, 8.103429 ], [ 147.6453629, 8.1039919 ], [ 147.6451108, 8.1046824 ], [ 147.6450169, 8.1050833 ], [ 147.6450035, 8.105479 ], [ 147.645066500000013, 8.1058331 ], [ 147.6451859, 8.106496 ], [ 147.6457009, 8.1068863 ], [ 147.6461059, 8.1074227 ], [ 147.6462668, 8.1076325 ], [ 147.6465753, 8.1076219 ], [ 147.6468462, 8.1074865 ], [ 147.6466638, 8.1071413 ], [ 147.646639599999986, 8.1070271 ], [ 147.6466691, 8.10682 ], [ 147.646701299999989, 8.1067244 ], [ 147.647146600000013, 8.1062464 ], [ 147.6473853, 8.1058587 ], [ 147.647514, 8.1054737 ], [ 147.6474926, 8.105001 ], [ 147.6475006, 8.1048151 ], [ 147.6475087, 8.1045868 ], [ 147.647626699999989, 8.1042203 ], [ 147.647991499999989, 8.1037795 ], [ 147.6481846, 8.1036228 ], [ 147.6482785, 8.1035352 ], [ 147.6483858, 8.1033785 ], [ 147.6484206, 8.1032006 ], [ 147.648428700000011, 8.1031103 ], [ 147.648366, 8.1030294 ], [ 147.6480309, 8.1030204 ], [ 147.647130800000014, 8.1026071 ], [ 147.6466135, 8.1026078 ] ] ] ] } },
{ "type": "Feature", "properties": { "FID": 89206, "id": 2357, "left": 145.0, "top": 10.0, "right": 150.0, "bottom": 5.0, "row_index": 16, "col_index": 65, "min_lon": 145.0, "min_lat": 5.0, "tile_id": "145_5" }, "geometry": { "type": "MultiPolygon", "coordinates": [ [ [ [ 146.1449773, 7.4526745 ], [ 146.14469840000001, 7.4526325 ], [ 146.1445219, 7.452552 ], [ 146.144271300000014, 7.452419 ], [ 146.144186600000012, 7.452342 ], [ 146.144116, 7.4522231 ], [ 146.1439254, 7.4522336 ], [ 146.1434807, 7.4522756 ], [ 146.143286499999988, 7.4522721 ], [ 146.1431665, 7.4522826 ], [ 146.1430889, 7.452342 ], [ 146.142944199999988, 7.45244 ], [ 146.1427889, 7.4524435 ], [ 146.1426477, 7.452503 ], [ 146.1424959, 7.452657 ], [ 146.1424112, 7.452839 ], [ 146.1424465, 7.4529685 ], [ 146.1425559, 7.4530315 ], [ 146.1427147, 7.452958 ], [ 146.1429583, 7.452902 ], [ 146.1432336, 7.4529125 ], [ 146.1440842, 7.453007 ], [ 146.144709, 7.453084 ], [ 146.1450902, 7.453161 ], [ 146.145386699999989, 7.453182 ], [ 146.145492600000011, 7.4531855 ], [ 146.1455702, 7.4532415 ], [ 146.1456514, 7.4532485 ], [ 146.145662, 7.4531855 ], [ 146.1455702, 7.4531225 ], [ 146.145549100000011, 7.4529545 ], [ 146.1454502, 7.4527935 ], [ 146.145397300000013, 7.4526885 ], [ 146.1451714, 7.4526815 ], [ 146.1449773, 7.4526745 ] ] ] ] } },
{ "type": "Feature", "properties": { "FID": 89211, "id": 2357, "left": 145.0, "top": 10.0, "right": 150.0, "bottom": 5.0, "row_index": 16, "col_index": 65, "min_lon": 145.0, "min_lat": 5.0, "tile_id": "145_5" }, "geometry": { "type": "MultiPolygon", "coordinates": [ [ [ [ 146.1470321, 7.4832735 ], [ 146.1469772, 7.4830458 ], [ 146.1468624, 7.482927 ], [ 146.1467027, 7.4825459 ], [ 146.1465479, 7.4820708 ], [ 146.1463982, 7.4816006 ], [ 146.1463582, 7.4813631 ], [ 146.1462434, 7.4813284 ], [ 146.1461136, 7.4814076 ], [ 146.1460088, 7.4816056 ], [ 146.1459639, 7.4818926 ], [ 146.145978899999989, 7.4821351 ], [ 146.14605370000001, 7.4823876 ], [ 146.1461586, 7.4826152 ], [ 146.1462334, 7.4828676 ], [ 146.146273400000013, 7.4831695 ], [ 146.1463982, 7.483615 ], [ 146.146498, 7.4838723 ], [ 146.1468025, 7.4842336 ], [ 146.1471869, 7.4846444 ], [ 146.147476399999988, 7.484976 ], [ 146.1476987, 7.4851884 ], [ 146.1479706, 7.4854313 ], [ 146.1480953, 7.4854956 ], [ 146.148190199999988, 7.4854907 ], [ 146.148275, 7.4854264 ], [ 146.1482701, 7.4853026 ], [ 146.14814530000001, 7.4851146 ], [ 146.1479706, 7.4848721 ], [ 146.1478557, 7.4845998 ], [ 146.147701, 7.4842039 ], [ 146.1475163, 7.4838228 ], [ 146.1472967, 7.4837238 ], [ 146.147107, 7.4834962 ], [ 146.1470321, 7.4832735 ] ] ] ] } },
{ "type": "Feature", "properties": { "FID": 89236, "id": 2357, "left": 145.0, "top": 10.0, "right": 150.0, "bottom": 5.0, "row_index": 16, "col_index": 65, "min_lon": 145.0, "min_lat": 5.0, "tile_id": "145_5" }, "geometry": { "type": "MultiPolygon", "coordinates": [ [ [ [ 145.8509436, 7.6843873 ], [ 145.8508846, 7.6844804 ], [ 145.8508752, 7.6845428 ], [ 145.8508927, 7.6846027 ], [ 145.850928900000014, 7.6846691 ], [ 145.8510268, 7.6847808 ], [ 145.8511005, 7.6849123 ], [ 145.8511139, 7.685 ], [ 145.8510818, 7.6850785 ], [ 145.8510388, 7.6852645 ], [ 145.85103620000001, 7.68544 ], [ 145.851063, 7.6855928 ], [ 145.851111300000014, 7.6858161 ], [ 145.8511595, 7.6859742 ], [ 145.8511904, 7.6860407 ], [ 145.851291, 7.6861178 ], [ 145.851339200000012, 7.6861869 ], [ 145.8513714, 7.6863384 ], [ 145.8513714, 7.6864195 ], [ 145.85135, 7.6865112 ], [ 145.8512641, 7.6866175 ], [ 145.851193099999989, 7.6867531 ], [ 145.8511662, 7.6868714 ], [ 145.8511904, 7.6869989 ], [ 145.8512776, 7.68708 ], [ 145.851374099999987, 7.6870813 ], [ 145.8514586, 7.6870242 ], [ 145.8515351, 7.686882 ], [ 145.8515511, 7.6867544 ], [ 145.851583299999987, 7.6865444 ], [ 145.8516249, 7.6863889 ], [ 145.8517134, 7.6861709 ], [ 145.851822, 7.6859982 ], [ 145.8519159, 7.6858958 ], [ 145.8520527, 7.6858028 ], [ 145.8521681, 7.685751 ], [ 145.8522499, 7.6856247 ], [ 145.852292799999987, 7.6854971 ], [ 145.8523169, 7.6852885 ], [ 145.8523491, 7.6849987 ], [ 145.8523773, 7.6848113 ], [ 145.8523759, 7.6847183 ], [ 145.8523478, 7.6846465 ], [ 145.852312899999987, 7.6845548 ], [ 145.852292799999987, 7.6844392 ], [ 145.8522525, 7.6843435 ], [ 145.8521681, 7.6842717 ], [ 145.8520742, 7.6842412 ], [ 145.851979, 7.6842159 ], [ 145.8517309, 7.6842159 ], [ 145.8514573, 7.6842146 ], [ 145.85124, 7.6842518 ], [ 145.8510576, 7.6843196 ], [ 145.8509436, 7.6843873 ] ] ] ] } },
{ "type": "Feature", "properties": { "FID": 154285, "id": 2357, "left": 145.0, "top": 10.0, "right": 150.0, "bottom": 5.0, "row_index": 16, "col_index": 65, "min_lon": 145.0, "min_lat": 5.0, "tile_id": "145_5" }, "geometry": { "type": "MultiPolygon", "coordinates": [ [ [ [ 147.0410024, 7.3825011 ], [ 147.0409247, 7.3821819 ], [ 147.0406251, 7.3818297 ], [ 147.0402255, 7.3814444 ], [ 147.0394375, 7.3809712 ], [ 147.038214900000014, 7.3803041 ], [ 147.0371744, 7.3800978 ], [ 147.0360923, 7.3798363 ], [ 147.034885300000013, 7.3794098 ], [ 147.0339696, 7.3788182 ], [ 147.0326459, 7.3779813 ], [ 147.0314361, 7.3772219 ], [ 147.030415, 7.3763303 ], [ 147.028977700000013, 7.374737 ], [ 147.028112, 7.3739775 ], [ 147.0275349, 7.3735593 ], [ 147.026547099999988, 7.3734492 ], [ 147.0260032, 7.3733942 ], [ 147.0255149, 7.3734052 ], [ 147.024864799999989, 7.3734285 ], [ 147.0244813, 7.3737248 ], [ 147.024149599999987, 7.3741966 ], [ 147.0240155, 7.3748813 ], [ 147.0242691, 7.3757056 ], [ 147.024381, 7.3762229 ], [ 147.024435899999986, 7.3768164 ], [ 147.0247871, 7.3776159 ], [ 147.025247400000012, 7.3792401 ], [ 147.0256454, 7.3808412 ], [ 147.0260663, 7.382125 ], [ 147.0268783, 7.3834287 ], [ 147.0277724, 7.3845444 ], [ 147.0288538, 7.3854541 ], [ 147.0296406, 7.385927 ], [ 147.0302834, 7.3861788 ], [ 147.03096, 7.386325 ], [ 147.0317423, 7.3863047 ], [ 147.032328299999989, 7.3863399 ], [ 147.032852100000014, 7.3862518 ], [ 147.033447, 7.3861198 ], [ 147.0344681, 7.3858292 ], [ 147.0361729, 7.3852832 ], [ 147.0377623, 7.3847021 ], [ 147.0392007, 7.3841033 ], [ 147.0399548, 7.3837995 ], [ 147.0404685, 7.3834595 ], [ 147.0409551, 7.3829885 ], [ 147.0410024, 7.3825011 ] ] ] ] } },
{ "type": "Feature", "properties": { "FID": 422018, "id": 2357, "left": 145.0, "top": 10.0, "right": 150.0, "bottom": 5.0, "row_index": 16, "col_index": 65, "min_lon": 145.0, "min_lat": 5.0, "tile_id": "145_5" }, "geometry": { "type": "MultiPolygon", "coordinates": [ [ [ [ 149.1875339, 7.3466869 ], [ 149.18744, 7.3469769 ], [ 149.1874132, 7.3472509 ], [ 149.1874105, 7.3474477 ], [ 149.1874963, 7.3477324 ], [ 149.1876546, 7.3482804 ], [ 149.1878772, 7.3490279 ], [ 149.1880113, 7.3493524 ], [ 149.1881937, 7.3495626 ], [ 149.1883814, 7.3496397 ], [ 149.1884968, 7.3496397 ], [ 149.1886389, 7.3495892 ], [ 149.1887221, 7.3494588 ], [ 149.188765, 7.3492912 ], [ 149.1887757, 7.3491236 ], [ 149.188663100000014, 7.3485224 ], [ 149.1885129, 7.3479505 ], [ 149.188507499999986, 7.3477776 ], [ 149.1886094, 7.3476366 ], [ 149.188877600000012, 7.3474371 ], [ 149.189033200000011, 7.3472509 ], [ 149.1891029, 7.3470673 ], [ 149.1891271, 7.3468891 ], [ 149.1890654, 7.3465805 ], [ 149.18897960000001, 7.3464129 ], [ 149.188899099999986, 7.3463038 ], [ 149.188689900000014, 7.3462214 ], [ 149.188472600000011, 7.3462081 ], [ 149.188298300000014, 7.346216 ], [ 149.1880167, 7.3462932 ], [ 149.18766260000001, 7.3465193 ], [ 149.1875339, 7.3466869 ] ] ] ] } },
{ "type": "Feature", "properties": { "FID": 422019, "id": 2357, "left": 145.0, "top": 10.0, "right": 150.0, "bottom": 5.0, "row_index": 16, "col_index": 65, "min_lon": 145.0, "min_lat": 5.0, "tile_id": "145_5" }, "geometry": { "type": "MultiPolygon", "coordinates": [ [ [ [ 149.186624599999988, 7.368085 ], [ 149.1868633, 7.3681701 ], [ 149.1871262, 7.368218 ], [ 149.187305900000013, 7.3681914 ], [ 149.18749360000001, 7.3680956 ], [ 149.1878155, 7.367944 ], [ 149.188199, 7.3678642 ], [ 149.188453900000013, 7.3678376 ], [ 149.1887006, 7.3677258 ], [ 149.1889957, 7.3675423 ], [ 149.1892236, 7.3673295 ], [ 149.1893417, 7.3672231 ], [ 149.1894409, 7.3671194 ], [ 149.1894972, 7.3670183 ], [ 149.189513299999987, 7.3667895 ], [ 149.18952440000001, 7.365969 ], [ 149.189411400000012, 7.3651004 ], [ 149.189339, 7.364821 ], [ 149.1892451, 7.3646721 ], [ 149.1891271, 7.3645657 ], [ 149.1889849, 7.3645417 ], [ 149.188858900000014, 7.3645524 ], [ 149.1887408, 7.3645843 ], [ 149.188588, 7.3646668 ], [ 149.188365299999987, 7.3649141 ], [ 149.188115900000014, 7.3651323 ], [ 149.1878208, 7.3652786 ], [ 149.1876277, 7.3653291 ], [ 149.187332700000013, 7.3654355 ], [ 149.1870537, 7.3655898 ], [ 149.1868579, 7.3657627 ], [ 149.186646, 7.3660633 ], [ 149.1863832, 7.3665661 ], [ 149.1862276, 7.3669624 ], [ 149.1862088, 7.3673455 ], [ 149.186286599999988, 7.3676514 ], [ 149.1864234, 7.3678828 ], [ 149.186624599999988, 7.368085 ] ] ] ] } },
{ "type": "Feature", "properties": { "FID": 422020, "id": 2357, "left": 145.0, "top": 10.0, "right": 150.0, "bottom": 5.0, "row_index": 16, "col_index": 65, "min_lon": 145.0, "min_lat": 5.0, "tile_id": "145_5" }, "geometry": { "type": "MultiPolygon", "coordinates": [ [ [ [ 149.190438699999987, 7.3659649 ], [ 149.1907981, 7.3665022 ], [ 149.1909805, 7.366707 ], [ 149.1912246, 7.3668321 ], [ 149.1914204, 7.366864 ], [ 149.1916752, 7.366856 ], [ 149.191964899999988, 7.3667789 ], [ 149.1921848, 7.3666246 ], [ 149.192477200000013, 7.3663479 ], [ 149.192579099999989, 7.3661298 ], [ 149.192622, 7.3658824 ], [ 149.19259790000001, 7.3656004 ], [ 149.192477200000013, 7.3650924 ], [ 149.1924047, 7.3643502 ], [ 149.192356499999988, 7.3641693 ], [ 149.1923028, 7.3640603 ], [ 149.19223310000001, 7.3639964 ], [ 149.192099, 7.3639512 ], [ 149.1915759, 7.3638741 ], [ 149.19112, 7.3638209 ], [ 149.190701499999989, 7.3638528 ], [ 149.190492299999988, 7.3638847 ], [ 149.190336800000011, 7.3639406 ], [ 149.190208, 7.3640549 ], [ 149.1901168, 7.3644114 ], [ 149.1900685, 7.3647705 ], [ 149.1900551, 7.3650631 ], [ 149.190082, 7.3653105 ], [ 149.190161100000012, 7.3655566 ], [ 149.190438699999987, 7.3659649 ] ] ] ] } },
{ "type": "Feature", "properties": { "FID": 485892, "id": 2357, "left": 145.0, "top": 10.0, "right": 150.0, "bottom": 5.0, "row_index": 16, "col_index": 65, "min_lon": 145.0, "min_lat": 5.0, "tile_id": "145_5" }, "geometry": { "type": "MultiPolygon", "coordinates": [ [ [ [ 145.3821256, 9.2298475 ], [ 145.3823617, 9.2298872 ], [ 145.3825601, 9.2298952 ], [ 145.3827265, 9.2298925 ], [ 145.3829116, 9.2298634 ], [ 145.3831262, 9.2298237 ], [ 145.3832951, 9.229776 ], [ 145.383442699999989, 9.2297099 ], [ 145.383528399999989, 9.2296755 ], [ 145.383611699999989, 9.2296304 ], [ 145.3837055, 9.2295696 ], [ 145.383812799999987, 9.2294955 ], [ 145.3839523, 9.229363 ], [ 145.3841132, 9.2292677 ], [ 145.3842366, 9.2291963 ], [ 145.384338500000013, 9.2291433 ], [ 145.3844418, 9.2290719 ], [ 145.384567800000013, 9.2289672 ], [ 145.3847194, 9.2288084 ], [ 145.3848548, 9.2286628 ], [ 145.3850828, 9.2283901 ], [ 145.3852344, 9.2281995 ], [ 145.385330900000014, 9.2279705 ], [ 145.3854288, 9.2277666 ], [ 145.3854677, 9.2275416 ], [ 145.385486500000013, 9.2273417 ], [ 145.385459700000013, 9.2270412 ], [ 145.3854624, 9.2268505 ], [ 145.3854087, 9.2266533 ], [ 145.385288, 9.2264852 ], [ 145.3850774, 9.2263555 ], [ 145.384845500000011, 9.2262602 ], [ 145.3846537, 9.226231 ], [ 145.3843157, 9.2262403 ], [ 145.384129300000012, 9.2262668 ], [ 145.3839939, 9.2263489 ], [ 145.383724199999989, 9.2268783 ], [ 145.383507, 9.2273059 ], [ 145.3829598, 9.2279758 ], [ 145.3826406, 9.2284391 ], [ 145.3823993, 9.2288017 ], [ 145.3822571, 9.2290268 ], [ 145.382131, 9.2291804 ], [ 145.382005, 9.2293075 ], [ 145.3818924, 9.2293366 ], [ 145.3818038, 9.2292995 ], [ 145.3817636, 9.2291512 ], [ 145.3816723, 9.2290215 ], [ 145.3815865, 9.2290109 ], [ 145.381455100000011, 9.2290321 ], [ 145.381329, 9.2290771 ], [ 145.3812486, 9.2291513 ], [ 145.381213699999989, 9.2292439 ], [ 145.3813049, 9.2292862 ], [ 145.381431, 9.229281 ], [ 145.38158390000001, 9.2292731 ], [ 145.3817046, 9.2292731 ], [ 145.3817288, 9.2293207 ], [ 145.381685800000014, 9.2294186 ], [ 145.3817072, 9.2295642 ], [ 145.3817984, 9.2296834 ], [ 145.3819245, 9.2297629 ], [ 145.3821256, 9.2298475 ] ] ] ] } }
]
}
