{
"type": "FeatureCollection",
"name": "150_50",
"crs": { "type": "name", "properties": { "name": "urn:ogc:def:crs:OGC:1.3:CRS84" } },
"xy_coordinate_resolution": 1e-15,
"features": [
{ "type": "Feature", "properties": { "FID": 73239, "id": 2384, "left": 150.0, "top": 55.0, "right": 155.0, "bottom": 50.0, "row_index": 7, "col_index": 66, "min_lon": 150.0, "min_lat": 50.0, "tile_id": "150_50" }, "geometry": { "type": "MultiPolygon", "coordinates": [ [ [ [ 154.967911500000014, 50.1856475 ], [ 154.967884700000013, 50.1856372 ], [ 154.967857900000013, 50.1855874 ], [ 154.9678418, 50.1855359 ], [ 154.967879399999987, 50.185462 ], [ 154.967879399999987, 50.1854259 ], [ 154.9678472, 50.1852748 ], [ 154.9677399, 50.1851769 ], [ 154.967662100000013, 50.1851803 ], [ 154.9675843, 50.1851958 ], [ 154.9675226, 50.1852319 ], [ 154.9675173, 50.1852834 ], [ 154.9675575, 50.185328 ], [ 154.9675602, 50.1853796 ], [ 154.9675387, 50.1854294 ], [ 154.9674743, 50.1854002 ], [ 154.967426100000012, 50.1853572 ], [ 154.9672517, 50.1852508 ], [ 154.9669379, 50.1850172 ], [ 154.966852100000011, 50.1850172 ], [ 154.9668038, 50.1850567 ], [ 154.9667796, 50.1851048 ], [ 154.9667689, 50.1851546 ], [ 154.9667394, 50.185201 ], [ 154.9665704, 50.1853401 ], [ 154.9665248, 50.1854895 ], [ 154.9664497, 50.1855994 ], [ 154.96649, 50.1856458 ], [ 154.966433599999988, 50.185644 ], [ 154.9663693, 50.1856114 ], [ 154.966321, 50.1855702 ], [ 154.9662888, 50.1855238 ], [ 154.9662325, 50.1855582 ], [ 154.966224399999987, 50.185608 ], [ 154.9662593, 50.1856544 ], [ 154.9663344, 50.1856767 ], [ 154.9664953, 50.1856904 ], [ 154.966575799999987, 50.1857024 ], [ 154.9666536, 50.1857196 ], [ 154.9667394, 50.1857282 ], [ 154.9668279, 50.1857231 ], [ 154.9668708, 50.1856784 ], [ 154.966954, 50.1856406 ], [ 154.9671042, 50.185675 ], [ 154.9672008, 50.1857574 ], [ 154.96719, 50.1858604 ], [ 154.9671578, 50.1859566 ], [ 154.967088100000012, 50.1860494 ], [ 154.9670398, 50.1861455 ], [ 154.966954, 50.1862348 ], [ 154.9668306, 50.1863035 ], [ 154.966723300000012, 50.1863757 ], [ 154.9666214, 50.1864581 ], [ 154.966487300000011, 50.1865062 ], [ 154.966358500000013, 50.1865715 ], [ 154.9662405, 50.1866436 ], [ 154.9659723, 50.1867432 ], [ 154.965827499999989, 50.1867844 ], [ 154.9656826, 50.1868359 ], [ 154.9655324, 50.18686 ], [ 154.965392900000012, 50.1869081 ], [ 154.965071099999989, 50.1869699 ], [ 154.9647492, 50.1869733 ], [ 154.964582900000011, 50.1869905 ], [ 154.964422, 50.1869871 ], [ 154.9642852, 50.1869424 ], [ 154.9642423, 50.1869063 ], [ 154.9642476, 50.1868273 ], [ 154.9641967, 50.1867741 ], [ 154.964135, 50.1864839 ], [ 154.9640733, 50.1864495 ], [ 154.964025, 50.1863808 ], [ 154.963976699999989, 50.1863533 ], [ 154.9638855, 50.1863499 ], [ 154.9637327, 50.1863636 ], [ 154.963638800000012, 50.186343 ], [ 154.9635288, 50.1863602 ], [ 154.9634886, 50.1864117 ], [ 154.963451, 50.1865199 ], [ 154.963327600000014, 50.1866453 ], [ 154.963266, 50.1867398 ], [ 154.963223, 50.1868445 ], [ 154.9631721, 50.1868874 ], [ 154.9630219, 50.1869304 ], [ 154.9629548, 50.1869613 ], [ 154.9628904, 50.1870523 ], [ 154.9628341, 50.1870884 ], [ 154.962692, 50.1871451 ], [ 154.9625096, 50.1872584 ], [ 154.962405, 50.1873013 ], [ 154.9623272, 50.1873494 ], [ 154.962295, 50.1874078 ], [ 154.9622896, 50.187461 ], [ 154.9623513, 50.1876397 ], [ 154.9623781, 50.1881068 ], [ 154.962464, 50.1881858 ], [ 154.962633, 50.1882373 ], [ 154.9627912, 50.188263 ], [ 154.962944099999987, 50.1883094 ], [ 154.9629816, 50.1883541 ], [ 154.9629816, 50.1884588 ], [ 154.962944099999987, 50.1885584 ], [ 154.9629119, 50.1886082 ], [ 154.9627376, 50.1885567 ], [ 154.962641, 50.1885121 ], [ 154.962525699999986, 50.1884863 ], [ 154.9623889, 50.188476 ], [ 154.9623728, 50.1885086 ], [ 154.9624559, 50.1886907 ], [ 154.9623755, 50.1886941 ], [ 154.9623406, 50.1887405 ], [ 154.9622735, 50.1887679 ], [ 154.9621931, 50.1887714 ], [ 154.9621153, 50.1887937 ], [ 154.9619463, 50.1891921 ], [ 154.96189, 50.1892282 ], [ 154.9618658, 50.1892763 ], [ 154.9618685, 50.1893329 ], [ 154.961965099999986, 50.1894171 ], [ 154.961965099999986, 50.1894686 ], [ 154.9617666, 50.1896317 ], [ 154.961729, 50.1896764 ], [ 154.96167, 50.1898224 ], [ 154.961621799999989, 50.1898601 ], [ 154.9615949, 50.1899082 ], [ 154.961613699999987, 50.189958 ], [ 154.961662, 50.190001 ], [ 154.9616647, 50.1900525 ], [ 154.9616888, 50.190104 ], [ 154.9616244, 50.1901967 ], [ 154.9615815, 50.1902465 ], [ 154.9615225, 50.1902792 ], [ 154.961444699999987, 50.1902929 ], [ 154.9613938, 50.1903358 ], [ 154.9613669, 50.1903891 ], [ 154.9611792, 50.19059 ], [ 154.9610236, 50.1907067 ], [ 154.960892199999989, 50.1907634 ], [ 154.960817100000014, 50.190784 ], [ 154.960768800000011, 50.1908287 ], [ 154.9606186, 50.1908716 ], [ 154.9605703, 50.1909128 ], [ 154.960506, 50.190942 ], [ 154.960398700000013, 50.1909111 ], [ 154.960318199999989, 50.1909128 ], [ 154.9602404, 50.1909403 ], [ 154.9602324, 50.1909918 ], [ 154.960278, 50.1910347 ], [ 154.960398700000013, 50.1911034 ], [ 154.9603879, 50.1911532 ], [ 154.9603343, 50.1911893 ], [ 154.9602538, 50.1911927 ], [ 154.9600902, 50.1911721 ], [ 154.9598488, 50.1911206 ], [ 154.959712, 50.1910691 ], [ 154.959634200000011, 50.1910519 ], [ 154.9595055, 50.1910382 ], [ 154.959358, 50.1910055 ], [ 154.9592802, 50.1910176 ], [ 154.9592078, 50.1909952 ], [ 154.9591273, 50.1909901 ], [ 154.9590495, 50.1910021 ], [ 154.9588108, 50.1909849 ], [ 154.9586847, 50.1910502 ], [ 154.9581966, 50.1910794 ], [ 154.9581215, 50.1910674 ], [ 154.958062500000011, 50.1911 ], [ 154.9580866, 50.1911309 ], [ 154.9581483, 50.1911652 ], [ 154.9581966, 50.1912631 ], [ 154.9581939, 50.1913146 ], [ 154.958124199999986, 50.1913421 ], [ 154.9580517, 50.1913215 ], [ 154.9579927, 50.1912855 ], [ 154.957737900000012, 50.1913129 ], [ 154.9576601, 50.1913318 ], [ 154.9575341, 50.1913919 ], [ 154.9574643, 50.1915413 ], [ 154.9574321, 50.1916959 ], [ 154.9574321, 50.1918487 ], [ 154.9573758, 50.1919294 ], [ 154.9573839, 50.1920307 ], [ 154.9574268, 50.1921269 ], [ 154.957421399999987, 50.1921784 ], [ 154.957354400000014, 50.1922711 ], [ 154.957319500000011, 50.192369 ], [ 154.957357, 50.1924411 ], [ 154.9574992, 50.1924944 ], [ 154.95765750000001, 50.1925373 ], [ 154.957711100000012, 50.1925751 ], [ 154.957737900000012, 50.1926214 ], [ 154.9577916, 50.1926575 ], [ 154.9578747, 50.1926506 ], [ 154.9580383, 50.1926626 ], [ 154.9584648, 50.1926712 ], [ 154.9587089, 50.1926506 ], [ 154.959028100000012, 50.1925871 ], [ 154.9591729, 50.1925407 ], [ 154.9592561, 50.1925356 ], [ 154.9595699, 50.1925253 ], [ 154.95998560000001, 50.1925716 ], [ 154.9600419, 50.1926077 ], [ 154.9600795, 50.1926523 ], [ 154.960074100000014, 50.1927039 ], [ 154.9601787, 50.1927914 ], [ 154.9602109, 50.1928464 ], [ 154.9602619, 50.1928927 ], [ 154.960385300000013, 50.1929649 ], [ 154.960460399999988, 50.1929855 ], [ 154.9605301, 50.1930215 ], [ 154.960621300000014, 50.1931022 ], [ 154.9606374, 50.193152 ], [ 154.9606374, 50.1932568 ], [ 154.960688299999987, 50.193298 ], [ 154.9608359, 50.1933495 ], [ 154.9608332, 50.1934148 ], [ 154.9607742, 50.1935075 ], [ 154.960793, 50.1935556 ], [ 154.960852, 50.1935933 ], [ 154.9608868, 50.1936397 ], [ 154.9608868, 50.1936912 ], [ 154.9609673, 50.1937805 ], [ 154.9610075, 50.1939849 ], [ 154.9609351, 50.1941325 ], [ 154.960870699999987, 50.1943266 ], [ 154.960817100000014, 50.1944227 ], [ 154.960817100000014, 50.1944759 ], [ 154.9607339, 50.1946253 ], [ 154.9606991, 50.1947782 ], [ 154.960607900000014, 50.1948589 ], [ 154.9605784, 50.1949052 ], [ 154.9605623, 50.1950082 ], [ 154.960506, 50.1951319 ], [ 154.9604416, 50.1952229 ], [ 154.9604443, 50.1953259 ], [ 154.9604201, 50.1953723 ], [ 154.9604201, 50.1954719 ], [ 154.960398700000013, 50.1955182 ], [ 154.9603611, 50.1955646 ], [ 154.9602377, 50.1956333 ], [ 154.9602619, 50.1956676 ], [ 154.9602485, 50.1957174 ], [ 154.960176, 50.1958651 ], [ 154.9601036, 50.1959544 ], [ 154.9600285, 50.195975 ], [ 154.959864900000014, 50.195975 ], [ 154.9598139, 50.1960127 ], [ 154.959824700000013, 50.1960625 ], [ 154.9598703, 50.1961055 ], [ 154.9600232, 50.1961484 ], [ 154.9599883, 50.1962566 ], [ 154.9599105, 50.1963441 ], [ 154.9599105, 50.1965004 ], [ 154.95994, 50.1965519 ], [ 154.9599695, 50.1966566 ], [ 154.9599186, 50.1968695 ], [ 154.95994, 50.1971906 ], [ 154.9599749, 50.1972936 ], [ 154.9600151, 50.1973383 ], [ 154.9599776, 50.1974911 ], [ 154.9599293, 50.1975975 ], [ 154.9598139, 50.1977349 ], [ 154.9597523, 50.1977675 ], [ 154.9597147, 50.1978104 ], [ 154.9596047, 50.197886 ], [ 154.9595323, 50.1979839 ], [ 154.959352599999988, 50.1981315 ], [ 154.9592668, 50.1982191 ], [ 154.9592319, 50.1982637 ], [ 154.9592078, 50.198365 ], [ 154.9590254, 50.1984423 ], [ 154.9589583, 50.1985402 ], [ 154.958934199999987, 50.1986415 ], [ 154.958934199999987, 50.1987222 ], [ 154.9588886, 50.1988097 ], [ 154.9588108, 50.1989024 ], [ 154.958765199999988, 50.1990037 ], [ 154.958582799999988, 50.1991737 ], [ 154.9584621, 50.1992458 ], [ 154.958379, 50.1993385 ], [ 154.9582556, 50.1994261 ], [ 154.958224199999989, 50.1994708 ], [ 154.958159, 50.1995703 ], [ 154.958008799999988, 50.1996888 ], [ 154.9579525, 50.1997266 ], [ 154.9578291, 50.1997901 ], [ 154.9577808, 50.1998313 ], [ 154.957711100000012, 50.1998605 ], [ 154.95765750000001, 50.1999017 ], [ 154.9573919, 50.1999566 ], [ 154.9573088, 50.1999498 ], [ 154.9572605, 50.199991 ], [ 154.957231, 50.2000373 ], [ 154.957231, 50.2000888 ], [ 154.9571881, 50.20013 ], [ 154.957043199999987, 50.2001747 ], [ 154.9569467, 50.2002571 ], [ 154.9568716, 50.2002863 ], [ 154.9568635, 50.2003378 ], [ 154.956767, 50.2003412 ], [ 154.9566945, 50.2003635 ], [ 154.956665, 50.2004116 ], [ 154.956603300000012, 50.2004408 ], [ 154.9566275, 50.2005455 ], [ 154.9565819, 50.2006468 ], [ 154.9565551, 50.2008048 ], [ 154.9566543, 50.2009456 ], [ 154.9566892, 50.2010486 ], [ 154.9567643, 50.2011945 ], [ 154.956874199999987, 50.2012735 ], [ 154.9569225, 50.2012666 ], [ 154.9569708, 50.2012237 ], [ 154.957051299999989, 50.2012546 ], [ 154.9570781, 50.2013044 ], [ 154.9571291, 50.2013473 ], [ 154.9572068, 50.2013765 ], [ 154.9572712, 50.2014675 ], [ 154.9573222, 50.2015121 ], [ 154.957467, 50.2015688 ], [ 154.957501900000011, 50.2016169 ], [ 154.957488500000011, 50.2017353 ], [ 154.957536800000014, 50.2017765 ], [ 154.9576145, 50.2018091 ], [ 154.9576548, 50.2018555 ], [ 154.957697700000011, 50.2019534 ], [ 154.9577755, 50.2019705 ], [ 154.957864, 50.2020581 ], [ 154.9580035, 50.2021079 ], [ 154.9580303, 50.2021868 ], [ 154.958041, 50.2022813 ], [ 154.9580973, 50.2023208 ], [ 154.9581939, 50.2025148 ], [ 154.9582288, 50.2026143 ], [ 154.958177799999987, 50.2026538 ], [ 154.9581215, 50.2026744 ], [ 154.9581215, 50.2027276 ], [ 154.9581832, 50.2028186 ], [ 154.958156300000013, 50.202865 ], [ 154.9581188, 50.2028822 ], [ 154.958116100000012, 50.2029319 ], [ 154.958218, 50.203071 ], [ 154.95821, 50.2031225 ], [ 154.9581698, 50.2031431 ], [ 154.9581483, 50.2031929 ], [ 154.9582502, 50.2033938 ], [ 154.9582207, 50.2035122 ], [ 154.9582636, 50.2036101 ], [ 154.9583065, 50.2036547 ], [ 154.95832, 50.2037165 ], [ 154.9582931, 50.2038813 ], [ 154.958379, 50.2040273 ], [ 154.9583843, 50.2040788 ], [ 154.9583629, 50.2041268 ], [ 154.9583682, 50.204235 ], [ 154.958400399999988, 50.2042831 ], [ 154.9584112, 50.2043328 ], [ 154.9583575, 50.2046316 ], [ 154.9583709, 50.2046882 ], [ 154.9584299, 50.2047843 ], [ 154.9584299, 50.2048891 ], [ 154.9583763, 50.2049491 ], [ 154.9583897, 50.2050487 ], [ 154.958379, 50.2050985 ], [ 154.9584031, 50.2051466 ], [ 154.9583817, 50.2051964 ], [ 154.958438, 50.2052959 ], [ 154.9584487, 50.2053509 ], [ 154.958427199999988, 50.2054024 ], [ 154.9584648, 50.2055071 ], [ 154.9584353, 50.2056633 ], [ 154.9583951, 50.2057491 ], [ 154.9584353, 50.2059054 ], [ 154.9583897, 50.2059345 ], [ 154.9583817, 50.2059843 ], [ 154.958440700000011, 50.2060822 ], [ 154.9584836, 50.2061251 ], [ 154.9585453, 50.2061629 ], [ 154.958666, 50.2062126 ], [ 154.9587974, 50.2062847 ], [ 154.958885900000013, 50.2063174 ], [ 154.9589181, 50.2063792 ], [ 154.958885900000013, 50.206489 ], [ 154.9589235, 50.2065989 ], [ 154.9590093, 50.2066298 ], [ 154.959223900000012, 50.2066744 ], [ 154.959352599999988, 50.2067465 ], [ 154.959513500000014, 50.206798 ], [ 154.959717399999988, 50.2067946 ], [ 154.9598354, 50.2067671 ], [ 154.9599963, 50.2068118 ], [ 154.960109, 50.2067843 ], [ 154.9602055, 50.2068152 ], [ 154.9604201, 50.206774 ], [ 154.9606991, 50.2068186 ], [ 154.9608117, 50.2067843 ], [ 154.9609888, 50.2067637 ], [ 154.961187200000012, 50.2068118 ], [ 154.961262299999987, 50.2068427 ], [ 154.9613804, 50.2068083 ], [ 154.9615037, 50.206798 ], [ 154.961713, 50.2068392 ], [ 154.9618792, 50.2068152 ], [ 154.9619812, 50.206853 ], [ 154.9620938, 50.2068461 ], [ 154.962244, 50.2068564 ], [ 154.962335200000012, 50.2068324 ], [ 154.9625015, 50.2068564 ], [ 154.9626249, 50.2069182 ], [ 154.962748299999987, 50.2070075 ], [ 154.9629682, 50.2070796 ], [ 154.963166699999988, 50.2071688 ], [ 154.9633115, 50.2072066 ], [ 154.9634188, 50.2072718 ], [ 154.963692400000014, 50.2072856 ], [ 154.9640518, 50.2074023 ], [ 154.964314699999989, 50.2075122 ], [ 154.964497099999988, 50.2076255 ], [ 154.964658, 50.2077662 ], [ 154.9646902, 50.2078349 ], [ 154.9646366, 50.2079688 ], [ 154.9646419, 50.208034 ], [ 154.964818900000012, 50.2082022 ], [ 154.964818900000012, 50.2083396 ], [ 154.965055, 50.2084391 ], [ 154.9652374, 50.2084529 ], [ 154.9653768, 50.2085181 ], [ 154.9657202, 50.208525 ], [ 154.9659079, 50.2085627 ], [ 154.966101, 50.2086348 ], [ 154.966251199999988, 50.2087481 ], [ 154.9663746, 50.2088717 ], [ 154.966562399999987, 50.2089884 ], [ 154.9668091, 50.209318 ], [ 154.9669111, 50.209397 ], [ 154.967141700000013, 50.2095 ], [ 154.9673778, 50.2095686 ], [ 154.9678123, 50.2098914 ], [ 154.9679357, 50.2100047 ], [ 154.968107300000014, 50.2102862 ], [ 154.9682522, 50.210372 ], [ 154.9685955, 50.2105196 ], [ 154.9688691, 50.2106707 ], [ 154.9690354, 50.2108217 ], [ 154.9692607, 50.2109144 ], [ 154.9694806, 50.2111204 ], [ 154.969936600000011, 50.2114431 ], [ 154.9700171, 50.2115495 ], [ 154.9705535, 50.211886 ], [ 154.9709398, 50.2120988 ], [ 154.9714172, 50.2123185 ], [ 154.9715728, 50.2124318 ], [ 154.971921400000014, 50.2125382 ], [ 154.972361299999989, 50.2127305 ], [ 154.972516899999988, 50.2128506 ], [ 154.9729514, 50.2129193 ], [ 154.973225, 50.2130222 ], [ 154.974668, 50.2133518 ], [ 154.9751133, 50.2134823 ], [ 154.97558, 50.2136024 ], [ 154.9773449, 50.2139251 ], [ 154.9779135, 50.2140075 ], [ 154.9783158, 50.2141139 ], [ 154.9785197, 50.2141379 ], [ 154.978863, 50.2142203 ], [ 154.9790025, 50.2141963 ], [ 154.9791366, 50.2141585 ], [ 154.9793243, 50.2141482 ], [ 154.9796677, 50.2141448 ], [ 154.9798286, 50.2141791 ], [ 154.980300699999987, 50.2142306 ], [ 154.9805313, 50.2142134 ], [ 154.9807566, 50.2141757 ], [ 154.9813574, 50.214186 ], [ 154.981614900000011, 50.2141585 ], [ 154.9818081, 50.2141002 ], [ 154.9823606, 50.2139937 ], [ 154.982580500000012, 50.21398 ], [ 154.98289170000001, 50.2138976 ], [ 154.983465700000011, 50.2138496 ], [ 154.983546100000012, 50.2138187 ], [ 154.9837071, 50.213726 ], [ 154.9839216, 50.2136642 ], [ 154.9841791, 50.2136264 ], [ 154.9845761, 50.213544 ], [ 154.984742399999988, 50.2134651 ], [ 154.9855953, 50.2132111 ], [ 154.9860406, 50.2131355 ], [ 154.9878055, 50.2129948 ], [ 154.988325800000013, 50.2129914 ], [ 154.988932, 50.2129605 ], [ 154.9906915, 50.212703 ], [ 154.9911529, 50.212624 ], [ 154.9916732, 50.2124936 ], [ 154.9919683, 50.2124146 ], [ 154.9921775, 50.2122876 ], [ 154.992477900000011, 50.2119615 ], [ 154.9926495, 50.2118242 ], [ 154.9929392, 50.2116456 ], [ 154.9932772, 50.2114671 ], [ 154.99354, 50.2113435 ], [ 154.9938244, 50.2111479 ], [ 154.994017500000012, 50.2110792 ], [ 154.9941891, 50.2110483 ], [ 154.9946397, 50.2108217 ], [ 154.9947631, 50.2107737 ], [ 154.994988400000011, 50.2107273 ], [ 154.9954793, 50.2103531 ], [ 154.9962223, 50.2101677 ], [ 154.996522700000014, 50.2101437 ], [ 154.9970323, 50.210075 ], [ 154.997764499999988, 50.2099961 ], [ 154.9980864, 50.2099377 ], [ 154.998574600000012, 50.2098158 ], [ 154.9987113, 50.2097643 ], [ 154.99893130000001, 50.2096476 ], [ 154.998998300000011, 50.2096287 ], [ 154.9991566, 50.2096716 ], [ 154.9992129, 50.2096322 ], [ 154.9992344, 50.2095841 ], [ 154.999221, 50.2095154 ], [ 154.9992532, 50.209488 ], [ 154.9995241, 50.209373 ], [ 154.999575, 50.2093249 ], [ 154.999572300000011, 50.2092665 ], [ 154.99971450000001, 50.2091206 ], [ 154.999837899999989, 50.2088992 ], [ 154.9999881, 50.2087653 ], [ 155.0, 50.208756386092467 ], [ 155.0, 50.189408076201921 ], [ 154.9999478, 50.1893784 ], [ 154.9998285, 50.1892694 ], [ 154.9997601, 50.1892385 ], [ 154.9996997, 50.1891775 ], [ 154.999642099999988, 50.1890504 ], [ 154.99953210000001, 50.1889757 ], [ 154.99952, 50.1889371 ], [ 154.999449, 50.1889019 ], [ 154.9992344, 50.1886589 ], [ 154.9990936, 50.1885267 ], [ 154.9990828, 50.1885009 ], [ 154.998979600000013, 50.1884193 ], [ 154.9989608, 50.1883953 ], [ 154.9989487, 50.1883712 ], [ 154.998912499999989, 50.1882433 ], [ 154.99882, 50.1881952 ], [ 154.9987851, 50.1881222 ], [ 154.998730099999989, 50.188081 ], [ 154.9986926, 50.1880046 ], [ 154.9987006, 50.1879505 ], [ 154.99875560000001, 50.187911 ], [ 154.9987784, 50.1878457 ], [ 154.998723399999989, 50.1877212 ], [ 154.9986926, 50.1877032 ], [ 154.998656399999987, 50.1876903 ], [ 154.9985021, 50.1876654 ], [ 154.9984767, 50.1876439 ], [ 154.9984364, 50.1876457 ], [ 154.998439100000013, 50.1876714 ], [ 154.9984163, 50.187692 ], [ 154.9983224, 50.1877401 ], [ 154.998301, 50.1877736 ], [ 154.9982929, 50.1878414 ], [ 154.9983425, 50.1879565 ], [ 154.9983962, 50.1880364 ], [ 154.9983814, 50.1880836 ], [ 154.998331799999988, 50.1881222 ], [ 154.9983197, 50.1881454 ], [ 154.99818830000001, 50.188172 ], [ 154.9980247, 50.1881841 ], [ 154.9979416, 50.1881858 ], [ 154.9977833, 50.1881583 ], [ 154.997716200000013, 50.1881841 ], [ 154.9976867, 50.1881841 ], [ 154.9976599, 50.1881669 ], [ 154.9977136, 50.188148 ], [ 154.997697499999987, 50.1880982 ], [ 154.99762770000001, 50.1880759 ], [ 154.9974507, 50.1880793 ], [ 154.997386299999988, 50.1881016 ], [ 154.9969894, 50.1881051 ], [ 154.9968284, 50.1881222 ], [ 154.9966353, 50.1881875 ], [ 154.996522700000014, 50.1883163 ], [ 154.9963644, 50.1884159 ], [ 154.9962866, 50.1884159 ], [ 154.9961042, 50.1883918 ], [ 154.995833299999987, 50.1883232 ], [ 154.995608, 50.188239 ], [ 154.995414899999986, 50.1881239 ], [ 154.9952432, 50.1879831 ], [ 154.995044799999988, 50.1877702 ], [ 154.9950394, 50.1876774 ], [ 154.995077, 50.1876311 ], [ 154.995085, 50.1875899 ], [ 154.995023300000014, 50.1875349 ], [ 154.9949589, 50.187413 ], [ 154.9948221, 50.1873941 ], [ 154.9947363, 50.1873237 ], [ 154.994213300000013, 50.1871193 ], [ 154.993349599999988, 50.1868153 ], [ 154.992842700000011, 50.186659 ], [ 154.9925235, 50.1865921 ], [ 154.9920166, 50.1865079 ], [ 154.991560600000014, 50.186465 ], [ 154.9885109, 50.1863619 ], [ 154.9880201, 50.1863173 ], [ 154.9870947, 50.1861953 ], [ 154.9862578, 50.1860373 ], [ 154.9853137, 50.1858914 ], [ 154.9845546, 50.1858089 ], [ 154.9840021, 50.1857282 ], [ 154.9835381, 50.1856835 ], [ 154.9831197, 50.1856732 ], [ 154.982210400000014, 50.1856217 ], [ 154.9821192, 50.1855891 ], [ 154.98202, 50.1855049 ], [ 154.9818885, 50.1854483 ], [ 154.98157470000001, 50.1854002 ], [ 154.981462099999987, 50.185359 ], [ 154.9813762, 50.1853607 ], [ 154.981244800000013, 50.1853882 ], [ 154.98118310000001, 50.1853744 ], [ 154.9811348, 50.185395 ], [ 154.9811268, 50.1854362 ], [ 154.98102750000001, 50.185486 ], [ 154.9809524, 50.1854964 ], [ 154.980874699999987, 50.1854878 ], [ 154.9808103, 50.1854586 ], [ 154.980719099999988, 50.1853727 ], [ 154.9806601, 50.1853487 ], [ 154.980593, 50.1853778 ], [ 154.9805877, 50.1853985 ], [ 154.980536699999988, 50.1854397 ], [ 154.980394499999989, 50.1854654 ], [ 154.9803221, 50.1854895 ], [ 154.980239, 50.1854929 ], [ 154.980171899999988, 50.1854689 ], [ 154.980019, 50.1854981 ], [ 154.979949299999987, 50.1855238 ], [ 154.9798688, 50.1855187 ], [ 154.9797991, 50.1854895 ], [ 154.9797213, 50.1854843 ], [ 154.979614, 50.1855582 ], [ 154.9794316, 50.1855135 ], [ 154.9789381, 50.1856183 ], [ 154.9787691, 50.185675 ], [ 154.978653799999989, 50.1857454 ], [ 154.978517, 50.1857969 ], [ 154.9782729, 50.1858416 ], [ 154.9778035, 50.1858725 ], [ 154.977025700000013, 50.1858622 ], [ 154.975290300000012, 50.1860579 ], [ 154.9749577, 50.1860511 ], [ 154.9748611, 50.1860683 ], [ 154.9746197, 50.1860511 ], [ 154.9744561, 50.1860665 ], [ 154.9742281, 50.1861181 ], [ 154.9740592, 50.1861352 ], [ 154.9739116, 50.1861679 ], [ 154.973678299999989, 50.1861541 ], [ 154.973469099999988, 50.1862228 ], [ 154.9731526, 50.1862761 ], [ 154.973048, 50.1863516 ], [ 154.9729755, 50.1863774 ], [ 154.9729112, 50.1863482 ], [ 154.9728897, 50.1862984 ], [ 154.9728361, 50.1862692 ], [ 154.9727958, 50.1862245 ], [ 154.9727207, 50.1862074 ], [ 154.972643, 50.1862194 ], [ 154.9725786, 50.1862486 ], [ 154.9725249, 50.1863465 ], [ 154.9724445, 50.1863568 ], [ 154.9722889, 50.1863207 ], [ 154.9722218, 50.1862881 ], [ 154.972063600000013, 50.1862658 ], [ 154.971983099999989, 50.1862743 ], [ 154.9719751, 50.1862846 ], [ 154.9719992, 50.186386 ], [ 154.9719992, 50.1863997 ], [ 154.9719751, 50.1864182 ], [ 154.9718732, 50.1864066 ], [ 154.97179, 50.1864238 ], [ 154.9717283, 50.1865028 ], [ 154.9716479, 50.1864839 ], [ 154.9715137, 50.1864787 ], [ 154.9714199, 50.1864907 ], [ 154.9712643, 50.1865216 ], [ 154.9711221, 50.1864942 ], [ 154.971047, 50.1865062 ], [ 154.970963899999987, 50.1865028 ], [ 154.9706823, 50.1865028 ], [ 154.9705079, 50.1865199 ], [ 154.9703926, 50.1864856 ], [ 154.97027460000001, 50.1864134 ], [ 154.9702021, 50.1863516 ], [ 154.9701565, 50.1863104 ], [ 154.97006540000001, 50.1862898 ], [ 154.96986960000001, 50.186228 ], [ 154.96970060000001, 50.1861971 ], [ 154.9695879, 50.1861953 ], [ 154.96953160000001, 50.1861387 ], [ 154.969459199999989, 50.1861112 ], [ 154.9693814, 50.1860992 ], [ 154.9692929, 50.1860717 ], [ 154.9692124, 50.18607 ], [ 154.9689281, 50.1860064 ], [ 154.968836900000014, 50.1859635 ], [ 154.9687457, 50.1859274 ], [ 154.9686787, 50.1859274 ], [ 154.968600900000013, 50.1859309 ], [ 154.968289700000014, 50.1858622 ], [ 154.9682683, 50.1858124 ], [ 154.9683166, 50.1857711 ], [ 154.96838360000001, 50.1857402 ], [ 154.968458700000014, 50.1857196 ], [ 154.9685016, 50.1856767 ], [ 154.9685016, 50.1855204 ], [ 154.9685124, 50.1854689 ], [ 154.96855260000001, 50.1853693 ], [ 154.968558, 50.1853177 ], [ 154.9685445, 50.1852662 ], [ 154.9684828, 50.1851649 ], [ 154.968418500000013, 50.1851357 ], [ 154.9683407, 50.1851219 ], [ 154.968262900000013, 50.1851305 ], [ 154.96818780000001, 50.1851546 ], [ 154.9681449, 50.1851975 ], [ 154.9680778, 50.1853452 ], [ 154.968045600000011, 50.1853916 ], [ 154.96803220000001, 50.1854431 ], [ 154.96803220000001, 50.1854946 ], [ 154.9680161, 50.1855427 ], [ 154.9679491, 50.1856389 ], [ 154.967911500000014, 50.1856475 ] ] ] ] } },
{ "type": "Feature", "properties": { "FID": 73250, "id": 2384, "left": 150.0, "top": 55.0, "right": 155.0, "bottom": 50.0, "row_index": 7, "col_index": 66, "min_lon": 150.0, "min_lat": 50.0, "tile_id": "150_50" }, "geometry": { "type": "MultiPolygon", "coordinates": [ [ [ [ 154.9532264, 50.200494 ], [ 154.9533391, 50.2005593 ], [ 154.9534222, 50.2005782 ], [ 154.9535912, 50.2005867 ], [ 154.953749499999986, 50.200585 ], [ 154.953905, 50.200561 ], [ 154.95407130000001, 50.200561 ], [ 154.9541518, 50.2005799 ], [ 154.9542725, 50.2006142 ], [ 154.9543557, 50.2006606 ], [ 154.9545702, 50.200731 ], [ 154.9546051, 50.2007773 ], [ 154.9546722, 50.2008013 ], [ 154.95482770000001, 50.2007687 ], [ 154.954902800000013, 50.2007584 ], [ 154.9549726, 50.2007344 ], [ 154.955160299999989, 50.2006331 ], [ 154.9552971, 50.2005816 ], [ 154.95545, 50.2005472 ], [ 154.9555171, 50.2005215 ], [ 154.9555734, 50.2004803 ], [ 154.95558410000001, 50.2004288 ], [ 154.95558410000001, 50.2003773 ], [ 154.9555787, 50.2003241 ], [ 154.9555439, 50.2002743 ], [ 154.9553803, 50.200082 ], [ 154.955294400000014, 50.1999944 ], [ 154.9552354, 50.1999618 ], [ 154.9551523, 50.1999601 ], [ 154.9549136, 50.200015 ], [ 154.954693600000013, 50.200106 ], [ 154.9546292, 50.2001386 ], [ 154.954484400000013, 50.2001987 ], [ 154.9544066, 50.200221 ], [ 154.954315400000013, 50.2002279 ], [ 154.954235, 50.2002399 ], [ 154.9541572, 50.2002571 ], [ 154.9540821, 50.2002828 ], [ 154.9540231, 50.2003206 ], [ 154.953945299999987, 50.2004133 ], [ 154.9538594, 50.2004099 ], [ 154.9536422, 50.2003378 ], [ 154.9534839, 50.2003 ], [ 154.953398099999987, 50.2002949 ], [ 154.9533176, 50.2002828 ], [ 154.953229099999987, 50.2002828 ], [ 154.953146, 50.2002863 ], [ 154.953087, 50.2003206 ], [ 154.953041399999989, 50.200367 ], [ 154.9530548, 50.2004168 ], [ 154.9530923, 50.2004425 ], [ 154.9532264, 50.200494 ] ] ] ] } },
{ "type": "Feature", "properties": { "FID": 543696, "id": 2384, "left": 150.0, "top": 55.0, "right": 155.0, "bottom": 50.0, "row_index": 7, "col_index": 66, "min_lon": 150.0, "min_lat": 50.0, "tile_id": "150_50" }, "geometry": { "type": "MultiPolygon", "coordinates": [ [ [ [ 154.9811549, 50.1851237 ], [ 154.9812327, 50.1851426 ], [ 154.9813709, 50.1851743 ], [ 154.9814795, 50.1851821 ], [ 154.9815103, 50.1851778 ], [ 154.9815385, 50.1851657 ], [ 154.981562, 50.1851475 ], [ 154.9815673, 50.1851335 ], [ 154.9815693, 50.1851177 ], [ 154.9815264, 50.1850429 ], [ 154.981462099999987, 50.1849725 ], [ 154.981427200000013, 50.1849279 ], [ 154.98139230000001, 50.184903 ], [ 154.9813253, 50.1848669 ], [ 154.9811952, 50.1848212 ], [ 154.9811526, 50.1847961 ], [ 154.9811295, 50.184775 ], [ 154.9811321, 50.184751 ], [ 154.9811549, 50.1847132 ], [ 154.9811952, 50.1846694 ], [ 154.98121660000001, 50.1846247 ], [ 154.9812059, 50.1846076 ], [ 154.981184500000012, 50.184593 ], [ 154.9811254, 50.1845895 ], [ 154.981053, 50.1846351 ], [ 154.9809793, 50.1846909 ], [ 154.9809243, 50.184739 ], [ 154.9809042, 50.1848051 ], [ 154.9808988, 50.1848652 ], [ 154.980928299999988, 50.1849837 ], [ 154.980995400000012, 50.1850636 ], [ 154.981083899999987, 50.1851073 ], [ 154.9811549, 50.1851237 ] ] ] ] } },
{ "type": "Feature", "properties": { "FID": 543697, "id": 2384, "left": 150.0, "top": 55.0, "right": 155.0, "bottom": 50.0, "row_index": 7, "col_index": 66, "min_lon": 150.0, "min_lat": 50.0, "tile_id": "150_50" }, "geometry": { "type": "MultiPolygon", "coordinates": [ [ [ [ 154.9690837, 50.1857368 ], [ 154.9691226, 50.1857428 ], [ 154.9691614, 50.1857385 ], [ 154.969313, 50.1857016 ], [ 154.969349200000011, 50.1856896 ], [ 154.9693814, 50.1856698 ], [ 154.9694082, 50.1856501 ], [ 154.969431, 50.1856269 ], [ 154.9694337, 50.1856003 ], [ 154.969389400000011, 50.1855642 ], [ 154.96938, 50.1855359 ], [ 154.9693599, 50.1854869 ], [ 154.9693412, 50.1854654 ], [ 154.9693304, 50.1854414 ], [ 154.9693009, 50.1854191 ], [ 154.969270099999989, 50.1854027 ], [ 154.9692272, 50.1853572 ], [ 154.9691856, 50.1853624 ], [ 154.9691521, 50.1853761 ], [ 154.9691346, 50.1853993 ], [ 154.9691293, 50.1854268 ], [ 154.9691293, 50.1855333 ], [ 154.9691091, 50.1855831 ], [ 154.969089, 50.1856071 ], [ 154.9690501, 50.1856149 ], [ 154.969018, 50.1856303 ], [ 154.9690354, 50.1856535 ], [ 154.9690421, 50.1856793 ], [ 154.969032700000014, 50.185705 ], [ 154.969052799999986, 50.1857222 ], [ 154.9690837, 50.1857368 ] ] ] ] } },
{ "type": "Feature", "properties": { "FID": 543698, "id": 2384, "left": 150.0, "top": 55.0, "right": 155.0, "bottom": 50.0, "row_index": 7, "col_index": 66, "min_lon": 150.0, "min_lat": 50.0, "tile_id": "150_50" }, "geometry": { "type": "MultiPolygon", "coordinates": [ [ [ [ 154.9543785, 50.2000433 ], [ 154.9544133, 50.2000296 ], [ 154.95444280000001, 50.2000107 ], [ 154.954484400000013, 50.1999678 ], [ 154.954464300000012, 50.1999455 ], [ 154.9544294, 50.1999335 ], [ 154.9543878, 50.199936 ], [ 154.9543516, 50.199948 ], [ 154.954294, 50.199985 ], [ 154.9542899, 50.2000107 ], [ 154.954303399999986, 50.2000356 ], [ 154.9543382, 50.2000442 ], [ 154.9543785, 50.2000433 ] ] ] ] } }
]
}
