{
"type": "FeatureCollection",
"name": "150_-75",
"crs": { "type": "name", "properties": { "name": "urn:ogc:def:crs:OGC:1.3:CRS84" } },
"xy_coordinate_resolution": 1e-15,
"features": [
{ "type": "Feature", "properties": { "FID": 307096, "id": 2409, "left": 150.0, "top": -70.0, "right": 155.0, "bottom": -75.0, "row_index": 32, "col_index": 66, "min_lon": 150.0, "min_lat": -75.0, "tile_id": "150_-75" }, "geometry": { "type": "MultiPolygon", "coordinates": [ [ [ [ 155.0, -70.0 ], [ 155.0, -75.0 ], [ 150.0, -75.0 ], [ 150.0, -70.0 ], [ 155.0, -70.0 ] ] ] ] } }
]
}
