{
"type": "FeatureCollection",
"name": "150_-70",
"crs": { "type": "name", "properties": { "name": "urn:ogc:def:crs:OGC:1.3:CRS84" } },
"xy_coordinate_resolution": 1e-15,
"features": [
{ "type": "Feature", "properties": { "FID": 307096, "id": 2408, "left": 150.0, "top": -65.0, "right": 155.0, "bottom": -70.0, "row_index": 31, "col_index": 66, "min_lon": 150.0, "min_lat": -70.0, "tile_id": "150_-70" }, "geometry": { "type": "MultiPolygon", "coordinates": [ [ [ [ 150.003927299999987, -68.4184857 ], [ 150.0169744, -68.4225581 ], [ 150.0263545, -68.4238995 ], [ 150.0338486, -68.4241898 ], [ 150.0383094, -68.4241611 ], [ 150.0521305, -68.4277426 ], [ 150.061334499999987, -68.4280688 ], [ 150.0742175, -68.4311233 ], [ 150.089876, -68.4318394 ], [ 150.095765, -68.4314612 ], [ 150.10420830000001, -68.4322731 ], [ 150.106364, -68.4302981 ], [ 150.111455299999989, -68.4276341 ], [ 150.1228486, -68.4271202 ], [ 150.1536849, -68.4294138 ], [ 150.1695306, -68.431135 ], [ 150.184431100000012, -68.4323301 ], [ 150.211868399999986, -68.4322703 ], [ 150.224782, -68.4307713 ], [ 150.240636200000012, -68.4302147 ], [ 150.2506038, -68.4300407 ], [ 150.2612272, -68.4316028 ], [ 150.270470499999988, -68.4335619 ], [ 150.273027500000012, -68.4339348 ], [ 150.292408, -68.4362407 ], [ 150.3112629, -68.438574 ], [ 150.321607699999987, -68.4399876 ], [ 150.3224424, -68.4397985 ], [ 150.332459199999988, -68.4374968 ], [ 150.344610100000011, -68.4364773 ], [ 150.3546823, -68.4379383 ], [ 150.3639873, -68.4376177 ], [ 150.3746098, -68.4353045 ], [ 150.3826597, -68.4318049 ], [ 150.3945175, -68.4303975 ], [ 150.4004003, -68.4300079 ], [ 150.4154033, -68.4305521 ], [ 150.4328711, -68.4306379 ], [ 150.4492961, -68.4308279 ], [ 150.466009899999989, -68.4314 ], [ 150.4831898, -68.4310963 ], [ 150.5039625, -68.4295974 ], [ 150.5161005, -68.4285645 ], [ 150.5283813, -68.4240024 ], [ 150.5331876, -68.421444 ], [ 150.5526151, -68.4196615 ], [ 150.5618756, -68.4170588 ], [ 150.5681796, -68.4135182 ], [ 150.5763087, -68.4116504 ], [ 150.586059, -68.4104424 ], [ 150.5983033, -68.4110446 ], [ 150.6143391, -68.4114625 ], [ 150.6257948, -68.4102829 ], [ 150.6328763, -68.4085195 ], [ 150.6351259, -68.4070469 ], [ 150.642122199999989, -68.405912 ], [ 150.6586517, -68.4025517 ], [ 150.66689550000001, -68.4023205 ], [ 150.6764265, -68.4000945 ], [ 150.6910757, -68.3979584 ], [ 150.7087616, -68.3961264 ], [ 150.7201229, -68.395569 ], [ 150.7279385, -68.39331 ], [ 150.737002499999988, -68.3911872 ], [ 150.738269800000012, -68.3908904 ], [ 150.7420608, -68.3876844 ], [ 150.7502141, -68.3840109 ], [ 150.7592517, -68.3798857 ], [ 150.7668718, -68.3762426 ], [ 150.768834199999986, -68.3745299 ], [ 150.7793422, -68.3713144 ], [ 150.7859216, -68.366534 ], [ 150.7889563, -68.36356 ], [ 150.7975169, -68.3608574 ], [ 150.8030814, -68.3587311 ], [ 150.81163810000001, -68.3560278 ], [ 150.8213983, -68.3548494 ], [ 150.8303582, -68.3543169 ], [ 150.8451995, -68.3536333 ], [ 150.8560106, -68.3523902 ], [ 150.860141, -68.3519443 ], [ 150.8746542, -68.349281 ], [ 150.8800228, -68.347962 ], [ 150.8974207, -68.345723 ], [ 150.9059336, -68.3454126 ], [ 150.9144597, -68.3439029 ], [ 150.9209505, -68.3439126 ], [ 150.9312137, -68.343895 ], [ 150.94159, -68.3446952 ], [ 150.9539277, -68.3465793 ], [ 150.969859, -68.3476401 ], [ 150.9826936, -68.3483732 ], [ 150.9971161, -68.3488357 ], [ 151.0036407, -68.3502131 ], [ 151.0155332, -68.352809 ], [ 151.0232318, -68.3541996 ], [ 151.026584500000013, -68.356116 ], [ 151.036982200000011, -68.3579709 ], [ 151.0471959, -68.3619884 ], [ 151.058244, -68.3654374 ], [ 151.0633958, -68.3692504 ], [ 151.0670102, -68.3727569 ], [ 151.0743401, -68.3739964 ], [ 151.0752809, -68.3767499 ], [ 151.0812171, -68.3801974 ], [ 151.0856426, -68.3851605 ], [ 151.0913179, -68.3896911 ], [ 151.094649299999986, -68.3933017 ], [ 151.0961351, -68.4044829 ], [ 151.0976593, -68.4152179 ], [ 151.0970231, -68.4228023 ], [ 151.1011613, -68.4313342 ], [ 151.105675600000012, -68.4354045 ], [ 151.1113302, -68.4403805 ], [ 151.113458799999989, -68.4439771 ], [ 151.113087299999989, -68.4484385 ], [ 151.114956799999987, -68.4551581 ], [ 151.1170875, -68.4587545 ], [ 151.1167533, -68.4627698 ], [ 151.1177078, -68.4659065 ], [ 151.118773800000014, -68.4677047 ], [ 151.1123663, -68.4716518 ], [ 151.102124800000013, -68.477788 ], [ 151.101787699999988, -68.4818033 ], [ 151.0989444, -68.4866833 ], [ 151.0950723, -68.4893188 ], [ 151.089983600000011, -68.4919403 ], [ 151.0871744, -68.496374 ], [ 151.085731399999986, -68.4990369 ], [ 151.084061100000014, -68.5043767 ], [ 151.079005599999988, -68.5065517 ], [ 151.0715539, -68.5082525 ], [ 151.0663437, -68.5122117 ], [ 151.0621951, -68.5179693 ], [ 151.0569808, -68.5219282 ], [ 151.052943699999986, -68.5263472 ], [ 151.0523657, -68.5330391 ], [ 151.0506077, -68.5392707 ], [ 151.0511314, -68.5473151 ], [ 151.0515313, -68.5546014 ], [ 151.0559929, -68.5616616 ], [ 151.0640688, -68.5671136 ], [ 151.0652998, -68.5727746 ], [ 151.0731672, -68.5721037 ], [ 151.085181299999988, -68.5742217 ], [ 151.0933115, -68.5755543 ], [ 151.1042358, -68.5755961 ], [ 151.1093295, -68.5744611 ], [ 151.1219063, -68.5745262 ], [ 151.127223, -68.5743624 ], [ 151.1581725, -68.5790531 ], [ 151.16867640000001, -68.5799319 ], [ 151.182196800000014, -68.5804901 ], [ 151.201782900000012, -68.5831919 ], [ 151.219656, -68.5864726 ], [ 151.240004199999987, -68.5914808 ], [ 151.253742, -68.5963944 ], [ 151.2625203, -68.6012383 ], [ 151.2728334, -68.6073136 ], [ 151.2796706, -68.6117666 ], [ 151.2876411, -68.6149029 ], [ 151.2968062, -68.6161177 ], [ 151.315016899999989, -68.619755 ], [ 151.3261373, -68.6213577 ], [ 151.337025399999987, -68.621988 ], [ 151.3611666, -68.6261832 ], [ 151.3804634, -68.6291007 ], [ 151.397100599999987, -68.6321023 ], [ 151.414628599999986, -68.632813 ], [ 151.431035, -68.6348394 ], [ 151.4485664, -68.6355464 ], [ 151.472137, -68.6356006 ], [ 151.486707700000011, -68.6360241 ], [ 151.506831799999986, -68.633851 ], [ 151.527493, -68.6330136 ], [ 151.5382591, -68.631449 ], [ 151.5461159, -68.6290013 ], [ 151.553536400000013, -68.6240057 ], [ 151.5599217, -68.6231136 ], [ 151.5725827, -68.6225379 ], [ 151.58225, -68.6182941 ], [ 151.5860241, -68.6168858 ], [ 151.6059075, -68.6171189 ], [ 151.61008480000001, -68.6148674 ], [ 151.6173799, -68.6110783 ], [ 151.6219595, -68.6079839 ], [ 151.6284415, -68.6058796 ], [ 151.6344138, -68.6058272 ], [ 151.6448059, -68.6044936 ], [ 151.6601133, -68.6038201 ], [ 151.670502699999986, -68.6024848 ], [ 151.684554, -68.6009476 ], [ 151.6991049, -68.5973569 ], [ 151.7040204, -68.594022 ], [ 151.7041705, -68.592208 ], [ 151.7030665, -68.5895329 ], [ 151.704269399999987, -68.5870044 ], [ 151.709383, -68.5852452 ], [ 151.7166533, -68.5854461 ], [ 151.725178, -68.5865077 ], [ 151.7312431, -68.5852422 ], [ 151.7337954, -68.5823651 ], [ 151.735646, -68.5799644 ], [ 151.7434115, -68.5781119 ], [ 151.7479653, -68.5750142 ], [ 151.7539772, -68.5743526 ], [ 151.7596868, -68.5733244 ], [ 151.774425900000011, -68.5752968 ], [ 151.7753798, -68.5757911 ], [ 151.787259299999988, -68.5762796 ], [ 151.792155799999989, -68.5729422 ], [ 151.804269299999987, -68.5704061 ], [ 151.8120251, -68.5685502 ], [ 151.8211766, -68.5657402 ], [ 151.8332824, -68.5632019 ], [ 151.8458259, -68.559215 ], [ 151.8475702, -68.5580225 ], [ 151.85671210000001, -68.5552105 ], [ 151.8722349, -68.5554872 ], [ 151.8866683, -68.5570829 ], [ 151.894367499999987, -68.5558276 ], [ 151.8997613, -68.5544284 ], [ 151.903590799999989, -68.5518036 ], [ 151.9041154, -68.5491465 ], [ 151.902336600000012, -68.5463457 ], [ 151.9014694, -68.5446431 ], [ 151.9108621, -68.5382003 ], [ 151.911385599999988, -68.5355433 ], [ 151.9109976, -68.5317882 ], [ 151.9166028, -68.5273656 ], [ 151.9185151, -68.523754 ], [ 151.9246809, -68.5206677 ], [ 151.9291955, -68.5175653 ], [ 151.930714200000011, -68.5147969 ], [ 151.9271989, -68.51319 ], [ 151.9042006, -68.5117564 ], [ 151.894566, -68.5126297 ], [ 151.8861516, -68.5103685 ], [ 151.8861162, -68.5063752 ], [ 151.8976999, -68.5058846 ], [ 151.9030807, -68.5044856 ], [ 151.9103687, -68.5040729 ], [ 151.9164424, -68.5021961 ], [ 151.9234693, -68.5008124 ], [ 151.9370437, -68.5000962 ], [ 151.945066, -68.4986001 ], [ 151.949183299999987, -68.4963405 ], [ 151.9483999, -68.4934293 ], [ 151.949221200000011, -68.4911383 ], [ 151.9543337, -68.4887671 ], [ 151.9512526, -68.4857132 ], [ 151.9525476, -68.4813701 ], [ 151.9564422, -68.4775355 ], [ 151.95929670000001, -68.474417 ], [ 151.9576931, -68.4737969 ], [ 151.9544438, -68.4731612 ], [ 151.948941499999989, -68.4717781 ], [ 151.944089600000012, -68.4705219 ], [ 151.9349927, -68.4641438 ], [ 151.9384551, -68.4617575 ], [ 151.941788, -68.4611846 ], [ 151.9480647, -68.4608816 ], [ 151.9554215, -68.459258 ], [ 151.9598335, -68.4573642 ], [ 151.9608216, -68.4526556 ], [ 151.95792130000001, -68.4517813 ], [ 151.9520785, -68.450637 ], [ 151.947402, -68.4469633 ], [ 151.951120800000012, -68.4455472 ], [ 151.95661, -68.4423331 ], [ 151.958204599999988, -68.4383563 ], [ 151.9567734, -68.4353185 ], [ 151.9548695, -68.4343327 ], [ 151.941249199999987, -68.4316624 ], [ 151.9314795, -68.4303586 ], [ 151.9332942, -68.4279569 ], [ 151.9448337, -68.4274629 ], [ 151.9511855, -68.4259511 ], [ 151.95559080000001, -68.4240577 ], [ 151.956754100000012, -68.4215285 ], [ 151.956233, -68.4195882 ], [ 151.9494484, -68.4179511 ], [ 151.9370494, -68.4167436 ], [ 151.926682, -68.414708 ], [ 151.920290099999988, -68.4122267 ], [ 151.9224503, -68.4095867 ], [ 151.92957530000001, -68.4063899 ], [ 151.9358785, -68.4054831 ], [ 151.951032, -68.4047818 ], [ 151.942783, -68.4007114 ], [ 151.93837880000001, -68.398008 ], [ 151.949811899999986, -68.3941263 ], [ 151.9607274, -68.3928998 ], [ 151.9677989, -68.3903058 ], [ 151.9662435, -68.3890816 ], [ 151.9724048, -68.3853904 ], [ 151.976372, -68.3849439 ], [ 151.986426599999987, -68.3866103 ], [ 151.988493, -68.3851782 ], [ 151.9808084, -68.3824457 ], [ 151.9711845, -68.3793316 ], [ 151.9568597, -68.3731488 ], [ 151.9527615, -68.3708119 ], [ 151.9580622, -68.3700158 ], [ 151.966419800000011, -68.3676763 ], [ 151.9708956, -68.3645741 ], [ 151.9747652, -68.3607405 ], [ 151.980667399999987, -68.360675 ], [ 151.9885094, -68.3609902 ], [ 151.9899677, -68.358827 ], [ 151.9816463, -68.3559677 ], [ 151.9666042, -68.3508678 ], [ 151.966772, -68.3484508 ], [ 151.9714622, -68.346923 ], [ 151.9782146, -68.3439633 ], [ 151.9730466, -68.3429472 ], [ 151.9641375, -68.3439513 ], [ 151.9563867, -68.3424265 ], [ 151.9494522, -68.3386114 ], [ 151.94695440000001, -68.3368944 ], [ 151.9413998, -68.3321248 ], [ 151.9354181, -68.3288021 ], [ 151.9328797, -68.3276891 ], [ 151.9366214, -68.3256696 ], [ 151.9426417, -68.3237929 ], [ 151.9514163, -68.3246027 ], [ 151.9624292, -68.3261588 ], [ 151.968842, -68.3280335 ], [ 151.984981800000014, -68.3312084 ], [ 151.996165100000013, -68.3303452 ], [ 152.0032113, -68.3277502 ], [ 152.0114658, -68.3266171 ], [ 152.0289831, -68.3288327 ], [ 152.0381858, -68.3281903 ], [ 152.04309, -68.3282344 ], [ 152.0540449, -68.3257932 ], [ 152.062863599999986, -68.3259924 ], [ 152.0672774, -68.3234921 ], [ 152.0729431, -68.3218492 ], [ 152.083737, -68.3218228 ], [ 152.089932, -68.3221185 ], [ 152.0971534, -68.3216974 ], [ 152.111178099999989, -68.3223015 ], [ 152.1303738, -68.3239153 ], [ 152.1440959, -68.3241511 ], [ 152.1577456, -68.3255942 ], [ 152.1678585, -68.32604 ], [ 152.1809357, -68.3261464 ], [ 152.1981645, -68.3279776 ], [ 152.2100193, -68.3266208 ], [ 152.226401, -68.3261449 ], [ 152.2411133, -68.3262589 ], [ 152.2561326, -68.3267367 ], [ 152.2663147, -68.3259674 ], [ 152.2846039, -68.326467 ], [ 152.295739700000013, -68.3261865 ], [ 152.3040425, -68.3238292 ], [ 152.3162276, -68.3222249 ], [ 152.3249611, -68.3178143 ], [ 152.3267849, -68.3142003 ], [ 152.3292868, -68.3101075 ], [ 152.3330503, -68.3068701 ], [ 152.3399847, -68.3054685 ], [ 152.351047200000011, -68.3063926 ], [ 152.3620798, -68.3079202 ], [ 152.374469299999987, -68.3084892 ], [ 152.385255699999988, -68.3084417 ], [ 152.393820799999986, -68.3070488 ], [ 152.4004132, -68.305884 ], [ 152.4093437, -68.3036464 ], [ 152.4181855, -68.3032211 ], [ 152.429559500000011, -68.3045044 ], [ 152.441638899999987, -68.3047032 ], [ 152.45864610000001, -68.3043278 ], [ 152.471793600000012, -68.3025968 ], [ 152.4886907, -68.3046352 ], [ 152.4994485, -68.3051842 ], [ 152.5216915, -68.3045916 ], [ 152.5403048, -68.3048212 ], [ 152.5511397, -68.3035536 ], [ 152.5568374, -68.3000803 ], [ 152.567406299999988, -68.2972386 ], [ 152.580228799999986, -68.2951339 ], [ 152.5942729, -68.29509 ], [ 152.6044274, -68.2942986 ], [ 152.6204626, -68.2934168 ], [ 152.638418800000011, -68.2935103 ], [ 152.6469162, -68.293312 ], [ 152.6691209, -68.2933026 ], [ 152.6949041, -68.2936698 ], [ 152.7122325, -68.2930264 ], [ 152.726589499999989, -68.2933345 ], [ 152.736423699999989, -68.2921705 ], [ 152.7534542, -68.290554 ], [ 152.7636197, -68.289148 ], [ 152.7770478, -68.2877551 ], [ 152.7891947, -68.2855096 ], [ 152.7993554, -68.2841012 ], [ 152.8130583, -68.2842778 ], [ 152.8245154, -68.2831147 ], [ 152.835005700000011, -68.2814635 ], [ 152.8549004, -68.281902 ], [ 152.868935099999987, -68.2818331 ], [ 152.8895426, -68.2799732 ], [ 152.8993465, -68.279403 ], [ 152.9137264, -68.2784853 ], [ 152.9329846, -68.2781863 ], [ 152.9382105, -68.2779615 ], [ 152.9441697, -68.2742336 ], [ 152.9461603, -68.2727895 ], [ 152.9553506, -68.27028 ], [ 152.962868, -68.269578 ], [ 152.97236, -68.2680354 ], [ 152.9902959, -68.268088 ], [ 153.003364800000014, -68.2669164 ], [ 153.0066621, -68.2651126 ], [ 153.013267500000012, -68.2609007 ], [ 153.0240746, -68.2583917 ], [ 153.031619799999987, -68.2558735 ], [ 153.0417725, -68.2532408 ], [ 153.0522747, -68.249158 ], [ 153.0676071, -68.2481075 ], [ 153.0760821, -68.2478857 ], [ 153.0920425, -68.2481636 ], [ 153.101487100000014, -68.2484261 ], [ 153.1112891, -68.2466341 ], [ 153.116523300000011, -68.2451947 ], [ 153.1266167, -68.2455777 ], [ 153.1271877, -68.2511383 ], [ 153.1278115, -68.2530731 ], [ 153.1365577, -68.2568369 ], [ 153.142739, -68.2576947 ], [ 153.1528147, -68.2598889 ], [ 153.1651654, -68.2628116 ], [ 153.1824177, -68.2651371 ], [ 153.192864500000013, -68.2640661 ], [ 153.2111006, -68.2662691 ], [ 153.219234199999988, -68.2680935 ], [ 153.2244246, -68.2708805 ], [ 153.2221183, -68.2731738 ], [ 153.221449, -68.274865 ], [ 153.236735, -68.2798408 ], [ 153.248791, -68.2817896 ], [ 153.258237400000013, -68.2838555 ], [ 153.268346900000012, -68.2848337 ], [ 153.2794285, -68.2869 ], [ 153.2817169, -68.2864188 ], [ 153.288224, -68.2894468 ], [ 153.3028876, -68.2936904 ], [ 153.309710200000012, -68.2994981 ], [ 153.3083799, -68.3034858 ], [ 153.3057217, -68.3108571 ], [ 153.319773700000013, -68.3107473 ], [ 153.332850400000012, -68.3095476 ], [ 153.345592900000014, -68.3097973 ], [ 153.360290600000013, -68.3116182 ], [ 153.3792384, -68.3139229 ], [ 153.3864156, -68.3194858 ], [ 153.387389899999988, -68.3223873 ], [ 153.386729300000013, -68.3252883 ], [ 153.3854148, -68.3280682 ], [ 153.389656300000013, -68.332784 ], [ 153.392264899999986, -68.336895 ], [ 153.3893157, -68.3390701 ], [ 153.398470300000014, -68.3431828 ], [ 153.4105759, -68.3463283 ], [ 153.4243228, -68.3476597 ], [ 153.43578, -68.348869 ], [ 153.4528075, -68.354429 ], [ 153.4439668, -68.3555179 ], [ 153.432832600000012, -68.3582987 ], [ 153.428574, -68.3614419 ], [ 153.4334873, -68.36386 ], [ 153.4331594, -68.3689378 ], [ 153.4243107, -68.3718391 ], [ 153.4213599, -68.374015 ], [ 153.4066087, -68.3758266 ], [ 153.396115400000014, -68.3781215 ], [ 153.393815, -68.3810226 ], [ 153.3960998, -68.3865849 ], [ 153.4105237, -68.391666 ], [ 153.41052160000001, -68.3934796 ], [ 153.413143600000012, -68.3957773 ], [ 153.4180605, -68.4012189 ], [ 153.4183874, -68.4027909 ], [ 153.4091934, -68.406538 ], [ 153.411161099999987, -68.4081101 ], [ 153.4239653, -68.4059351 ], [ 153.443333599999988, -68.4104092 ], [ 153.4587642, -68.4099239 ], [ 153.4643404, -68.4064164 ], [ 153.47122920000001, -68.4037548 ], [ 153.4771297, -68.400005 ], [ 153.484995700000013, -68.3960126 ], [ 153.494497700000011, -68.3914147 ], [ 153.5079416, -68.389958 ], [ 153.521712900000011, -68.3888628 ], [ 153.5321978, -68.3865594 ], [ 153.5410379, -68.3836518 ], [ 153.5498885, -68.3831619 ], [ 153.5551438, -68.3847297 ], [ 153.560048200000011, -68.3823076 ], [ 153.566590600000012, -68.3798842 ], [ 153.5780407, -68.3762469 ], [ 153.587187300000011, -68.3718857 ], [ 153.5874915, -68.3686211 ], [ 153.5855014, -68.3652378 ], [ 153.57663070000001, -68.3614983 ], [ 153.5703861, -68.3582396 ], [ 153.5684113, -68.3566697 ], [ 153.5719923, -68.3534024 ], [ 153.5821199, -68.350129 ], [ 153.5915889, -68.3467347 ], [ 153.596155, -68.344554 ], [ 153.603007100000013, -68.3418871 ], [ 153.607561, -68.3384972 ], [ 153.6164224, -68.3416302 ], [ 153.628526099999988, -68.3411321 ], [ 153.6373571, -68.3406372 ], [ 153.644563299999987, -68.341353 ], [ 153.6532843, -68.3426794 ], [ 153.663306, -68.3425844 ], [ 153.663335600000011, -68.3425005 ], [ 153.664062300000012, -68.3422048 ], [ 153.664244, -68.3420892 ], [ 153.6643503, -68.3419618 ], [ 153.6646011, -68.3418668 ], [ 153.6651536, -68.341695 ], [ 153.6660315, -68.3414587 ], [ 153.6666587, -68.3413274 ], [ 153.6673489, -68.3412532 ], [ 153.6677095, -68.3412546 ], [ 153.66877310000001, -68.3411783 ], [ 153.6691338, -68.3411877 ], [ 153.6709122, -68.3412995 ], [ 153.6712728, -68.3413009 ], [ 153.671625400000011, -68.3412682 ], [ 153.6719564, -68.3412176 ], [ 153.6725792, -68.3410834 ], [ 153.6731727, -68.340931 ], [ 153.6736851, -68.3407449 ], [ 153.6738775, -68.3406313 ], [ 153.6741289, -68.3401069 ], [ 153.6743315, -68.3398513 ], [ 153.6744895, -68.3397313 ], [ 153.6747143, -68.3396256 ], [ 153.674978, -68.339533 ], [ 153.676440500000012, -68.3391426 ], [ 153.6769864, -68.3389696 ], [ 153.6772187, -68.3388662 ], [ 153.67739610000001, -68.3387499 ], [ 153.67748180000001, -68.3386217 ], [ 153.678584199999989, -68.3382776 ], [ 153.6788403, -68.3381826 ], [ 153.6790511, -68.3380753 ], [ 153.6791982, -68.3379534 ], [ 153.6792769, -68.33769 ], [ 153.6800399, -68.3374049 ], [ 153.680243, -68.3372933 ], [ 153.6803783, -68.3371722 ], [ 153.6803505, -68.3369042 ], [ 153.680495900000011, -68.3366431 ], [ 153.680429800000013, -68.336512 ], [ 153.6804498, -68.3363788 ], [ 153.680894, -68.3361674 ], [ 153.68104, -68.3360482 ], [ 153.681131, -68.3359181 ], [ 153.6811725, -68.3357848 ], [ 153.6811533, -68.3355184 ], [ 153.681184, -68.3353852 ], [ 153.6813376, -68.3352644 ], [ 153.681434, -68.3351383 ], [ 153.6813481, -68.3348716 ], [ 153.6814046, -68.3347411 ], [ 153.6818884, -68.3342393 ], [ 153.681936900000011, -68.3339724 ], [ 153.6822714, -68.3335922 ], [ 153.6821774, -68.3334639 ], [ 153.682136, -68.3333323 ], [ 153.682195799999988, -68.3331994 ], [ 153.6821067, -68.3329352 ], [ 153.6823841, -68.3322767 ], [ 153.6823999, -68.3318778 ], [ 153.6821361, -68.3314894 ], [ 153.682150900000011, -68.3308226 ], [ 153.6822489, -68.3305608 ], [ 153.6820759, -68.330301 ], [ 153.6820797, -68.3301678 ], [ 153.6822537, -68.3297731 ], [ 153.6825311, -68.3293874 ], [ 153.6826635, -68.3291239 ], [ 153.682689900000014, -68.3289899 ], [ 153.682704, -68.3287247 ], [ 153.6826084, -68.3284592 ], [ 153.6826537, -68.3281947 ], [ 153.682347600000014, -68.3279523 ], [ 153.6822654, -68.3278232 ], [ 153.6822692, -68.32769 ], [ 153.6826376, -68.3274628 ], [ 153.6827351, -68.3273318 ], [ 153.682776600000011, -68.3272005 ], [ 153.68281540000001, -68.3269349 ], [ 153.6827058, -68.3266718 ], [ 153.682354800000013, -68.3266394 ], [ 153.6826553, -68.3263967 ], [ 153.6826113, -68.3261308 ], [ 153.682662599999986, -68.3257315 ], [ 153.6824762, -68.3253374 ], [ 153.6825441, -68.3250721 ], [ 153.6827821, -68.3245453 ], [ 153.6827902, -68.3244129 ], [ 153.6825619, -68.324022 ], [ 153.6825259, -68.3238884 ], [ 153.6825375, -68.323224 ], [ 153.6824849, -68.3229565 ], [ 153.6821874, -68.3227137 ], [ 153.6819662, -68.32246 ], [ 153.6817106, -68.3216663 ], [ 153.681725199999988, -68.3215331 ], [ 153.68203, -68.3212913 ], [ 153.6822933, -68.3212849 ], [ 153.6821382, -68.3211643 ], [ 153.6824468, -68.3211642 ], [ 153.6829179, -68.320804 ], [ 153.683021700000012, -68.3206742 ], [ 153.6829219, -68.32041 ], [ 153.6830646, -68.3200145 ], [ 153.683148, -68.319884 ], [ 153.6834182, -68.3196378 ], [ 153.683499500000011, -68.3195069 ], [ 153.6836529, -68.3193862 ], [ 153.684064299999989, -68.3191688 ], [ 153.6843302, -68.3189199 ], [ 153.6844987, -68.3188019 ], [ 153.685183200000012, -68.3184927 ], [ 153.6853797, -68.3183799 ], [ 153.685504, -68.3182568 ], [ 153.685406300000011, -68.317991 ], [ 153.6853682, -68.3175922 ], [ 153.6853183, -68.3174591 ], [ 153.6847835, -68.3169646 ], [ 153.684697, -68.3168347 ], [ 153.6846965, -68.3167007 ], [ 153.684932800000013, -68.3157719 ], [ 153.6849049, -68.315506 ], [ 153.684961499999986, -68.3153755 ], [ 153.6847794, -68.3149802 ], [ 153.6849667, -68.3147238 ], [ 153.685115700000011, -68.3146023 ], [ 153.6859955, -68.314181 ], [ 153.6861381, -68.3140584 ], [ 153.686126800000011, -68.3139244 ], [ 153.6862382, -68.3135262 ], [ 153.6863856, -68.3132656 ], [ 153.6865943, -68.3130112 ], [ 153.686747700000012, -68.3128904 ], [ 153.6874319, -68.3125792 ], [ 153.687621900000011, -68.3124672 ], [ 153.6877537, -68.3123425 ], [ 153.6877479, -68.3122105 ], [ 153.6878075, -68.3120776 ], [ 153.6885727, -68.3117961 ], [ 153.6887983, -68.3116935 ], [ 153.688983900000011, -68.3115787 ], [ 153.689077, -68.3114489 ], [ 153.6893858, -68.3112079 ], [ 153.689492800000011, -68.3110817 ], [ 153.6894225, -68.3109498 ], [ 153.689417600000013, -68.310817 ], [ 153.6896855, -68.3105685 ], [ 153.69026310000001, -68.3097994 ], [ 153.69058050000001, -68.3095599 ], [ 153.69154850000001, -68.3089981 ], [ 153.692361, -68.3087351 ], [ 153.6928174, -68.308528 ], [ 153.692819, -68.3083944 ], [ 153.6926521, -68.3083669 ], [ 153.6931074, -68.3081626 ], [ 153.6941712, -68.3078018 ], [ 153.694416100000012, -68.3077028 ], [ 153.6946362, -68.3075962 ], [ 153.695315, -68.3071283 ], [ 153.6958124, -68.3069367 ], [ 153.696668, -68.3066915 ], [ 153.6971955, -68.3065073 ], [ 153.6974339, -68.3064071 ], [ 153.6978147, -68.3061822 ], [ 153.6980509, -68.3060816 ], [ 153.6988384, -68.3058092 ], [ 153.6993012, -68.3056032 ], [ 153.6999184, -68.3051211 ], [ 153.7002808, -68.3048899 ], [ 153.700890500000014, -68.3044093 ], [ 153.701117, -68.304304 ], [ 153.701927, -68.3040386 ], [ 153.7021675, -68.3039388 ], [ 153.702366, -68.3038283 ], [ 153.7026706, -68.3034457 ], [ 153.7030567, -68.3032188 ], [ 153.7032142, -68.3030989 ], [ 153.703255500000012, -68.3029676 ], [ 153.7035985, -68.3027328 ], [ 153.7036602, -68.3026003 ], [ 153.7036596, -68.3024683 ], [ 153.7035224, -68.3020714 ], [ 153.703539, -68.3019386 ], [ 153.7037678, -68.3016849 ], [ 153.7038042, -68.3014189 ], [ 153.704246500000011, -68.3010535 ], [ 153.704305, -68.3009234 ], [ 153.704803199999986, -68.3007289 ], [ 153.7049984, -68.3006189 ], [ 153.7051214, -68.3004926 ], [ 153.7049934, -68.3002312 ], [ 153.705061, -68.2999659 ], [ 153.7051951, -68.2997029 ], [ 153.705639100000013, -68.2990573 ], [ 153.7059552, -68.2984011 ], [ 153.7060674, -68.2982729 ], [ 153.706365, -68.2980299 ], [ 153.7064633, -68.2979021 ], [ 153.706345, -68.2976395 ], [ 153.706380700000011, -68.2972395 ], [ 153.7062564, -68.2968429 ], [ 153.7063181, -68.2967104 ], [ 153.706311, -68.2965772 ], [ 153.7064504, -68.2965611 ], [ 153.7062717, -68.2964441 ], [ 153.7065498, -68.2964325 ], [ 153.7067667, -68.2961777 ], [ 153.70695280000001, -68.2957853 ], [ 153.7070669, -68.2953868 ], [ 153.707205, -68.2952633 ], [ 153.7072925, -68.2951335 ], [ 153.7071516, -68.2948718 ], [ 153.7071209, -68.2947402 ], [ 153.7071631, -68.2943414 ], [ 153.7074711, -68.2938196 ], [ 153.7075364, -68.2935539 ], [ 153.7074893, -68.2931537 ], [ 153.7075102, -68.2930216 ], [ 153.7077324, -68.2927668 ], [ 153.7077054, -68.2925021 ], [ 153.707356, -68.2924729 ], [ 153.7076342, -68.2922283 ], [ 153.7074216, -68.2919742 ], [ 153.7073555, -68.2918431 ], [ 153.7073613, -68.2917103 ], [ 153.7075208, -68.2915908 ], [ 153.7076308, -68.2914622 ], [ 153.7076403, -68.2911962 ], [ 153.707873299999989, -68.2909433 ], [ 153.707842, -68.2906778 ], [ 153.7079137, -68.2904133 ], [ 153.7076078, -68.2901709 ], [ 153.707523400000014, -68.2900415 ], [ 153.707515300000011, -68.2899091 ], [ 153.707763300000011, -68.289657 ], [ 153.707777099999987, -68.2893918 ], [ 153.708072499999986, -68.2891484 ], [ 153.7082173, -68.2888873 ], [ 153.7083919, -68.2887705 ], [ 153.7084997, -68.2886435 ], [ 153.708317099999988, -68.288385 ], [ 153.708300400000013, -68.2882531 ], [ 153.708428, -68.2879908 ], [ 153.7086975, -68.2877427 ], [ 153.7087957, -68.2876149 ], [ 153.7087789, -68.2874829 ], [ 153.7088277, -68.2873501 ], [ 153.7093535, -68.2871667 ], [ 153.71051, -68.2868497 ], [ 153.7136051, -68.2862826 ], [ 153.7143686, -68.2864177 ], [ 153.7152003, -68.2857795 ], [ 153.716313, -68.2855256 ], [ 153.7188205, -68.284736 ], [ 153.727778199999989, -68.2821903 ], [ 153.7308042, -68.2816677 ], [ 153.730576899999988, -68.2815298 ], [ 153.7306864, -68.2813758 ], [ 153.736949900000013, -68.2805644 ], [ 153.740306299999986, -68.2799205 ], [ 153.745476200000013, -68.2790679 ], [ 153.7500882, -68.2780405 ], [ 153.752173199999987, -68.2779906 ], [ 153.7540865, -68.277766 ], [ 153.7562457, -68.2776602 ], [ 153.756205599999987, -68.2774239 ], [ 153.758398699999987, -68.2768506 ], [ 153.7595618, -68.2764361 ], [ 153.7614538, -68.2761482 ], [ 153.7628679, -68.2755742 ], [ 153.7670984, -68.2750085 ], [ 153.7693808, -68.2743853 ], [ 153.7713628, -68.2738336 ], [ 153.7763684, -68.272825 ], [ 153.7779253, -68.2721406 ], [ 153.7799113, -68.2714562 ], [ 153.7827514, -68.2711559 ], [ 153.7874104, -68.2705221 ], [ 153.7898832, -68.2704203 ], [ 153.7908172, -68.2701865 ], [ 153.792352, -68.2700639 ], [ 153.795067100000011, -68.2696719 ], [ 153.7973169, -68.2697531 ], [ 153.7981843, -68.2699207 ], [ 153.799862600000012, -68.2697663 ], [ 153.8001246, -68.2693893 ], [ 153.8032631, -68.2690866 ], [ 153.8054965, -68.2689123 ], [ 153.805884600000013, -68.2686744 ], [ 153.809707800000012, -68.2681034 ], [ 153.8099485, -68.2676129 ], [ 153.8153752, -68.2675325 ], [ 153.8195178, -68.2682401 ], [ 153.8237892, -68.2685664 ], [ 153.8273426, -68.268248 ], [ 153.831604199999987, -68.268009 ], [ 153.8452696, -68.2708919 ], [ 153.865121499999987, -68.2722573 ], [ 153.88639040000001, -68.2760586 ], [ 153.92906880000001, -68.2865872 ], [ 153.9331506, -68.2894993 ], [ 153.9333306, -68.2939007 ], [ 153.94273960000001, -68.2977608 ], [ 153.9428608, -68.3006951 ], [ 153.951176800000013, -68.3099417 ], [ 153.9618557, -68.3123261 ], [ 153.9791061, -68.3136931 ], [ 153.9872297, -68.3180477 ], [ 153.9980233, -68.322875 ], [ 154.0310907, -68.3226738 ], [ 154.0430844, -68.3245558 ], [ 154.0629262, -68.3244304 ], [ 154.0802612, -68.3272541 ], [ 154.0870625, -68.3311232 ], [ 154.091313, -68.3369655 ], [ 154.0995844, -68.3437595 ], [ 154.0998917, -68.3501166 ], [ 154.106822200000011, -68.3564299 ], [ 154.1217302, -68.3631787 ], [ 154.139224500000012, -68.3684412 ], [ 154.1472258, -68.3693648 ], [ 154.157928199999986, -68.3712476 ], [ 154.1673821, -68.374606 ], [ 154.1767882, -68.3769859 ], [ 154.1901739, -68.3793369 ], [ 154.19963580000001, -68.3826935 ], [ 154.2170846, -68.3864808 ], [ 154.2304007, -68.3873617 ], [ 154.243905399999989, -68.3916643 ], [ 154.2533804, -68.3950178 ], [ 154.2667846, -68.3973627 ], [ 154.277427499999988, -68.3977709 ], [ 154.2842834, -68.4016319 ], [ 154.296479299999987, -68.4059405 ], [ 154.2965352, -68.4069184 ], [ 154.3060525, -68.4107579 ], [ 154.3167593, -68.4121415 ], [ 154.3235977, -68.4155119 ], [ 154.3327324, -68.4192678 ], [ 154.3333245, -68.4227725 ], [ 154.330926, -68.4271944 ], [ 154.3298269, -68.4311166 ], [ 154.330056399999989, -68.4350283 ], [ 154.3344179, -68.4413531 ], [ 154.338431500000013, -68.4422318 ], [ 154.355982, -68.4460718 ], [ 154.373505599999987, -68.4498426 ], [ 154.39230520000001, -68.4526227 ], [ 154.4165221, -68.4568224 ], [ 154.4270043, -68.4567335 ], [ 154.4364766, -68.4566525 ], [ 154.4473066, -68.4594947 ], [ 154.4555096, -68.462848 ], [ 154.4918883, -68.4693772 ], [ 154.501367499999986, -68.4717386 ], [ 154.51893530000001, -68.4754941 ], [ 154.551357200000012, -68.4820465 ], [ 154.5688051, -68.483841 ], [ 154.5771713, -68.4891441 ], [ 154.590802599999989, -68.4934184 ], [ 154.6003368, -68.4962631 ], [ 154.6259715, -68.5004198 ], [ 154.6517945, -68.507017 ], [ 154.656891699999989, -68.5100914 ], [ 154.66090650000001, -68.5121755 ], [ 154.6650524, -68.516028 ], [ 154.6700864, -68.5188097 ], [ 154.6760079, -68.5205206 ], [ 154.6877475, -68.5225269 ], [ 154.6917939, -68.524964 ], [ 154.6988972, -68.5294938 ], [ 154.7031064, -68.5340528 ], [ 154.7043127, -68.5372263 ], [ 154.70458, -68.5407633 ], [ 154.700150799999989, -68.5461177 ], [ 154.6985649, -68.5507353 ], [ 154.698885100000012, -68.5549797 ], [ 154.698212, -68.5588802 ], [ 154.6955781, -68.5624464 ], [ 154.6959513, -68.5673982 ], [ 154.6942833, -68.5709546 ], [ 154.6915942, -68.5738134 ], [ 154.6918604, -68.5773505 ], [ 154.7019904, -68.5832657 ], [ 154.7149489, -68.5880898 ], [ 154.7269177, -68.5925691 ], [ 154.729071800000014, -68.5953788 ], [ 154.7350452, -68.5974411 ], [ 154.7430391, -68.6005444 ], [ 154.750011199999989, -68.6029498 ], [ 154.75413420000001, -68.6060927 ], [ 154.7505624, -68.6100236 ], [ 154.751752, -68.6128431 ], [ 154.757760100000013, -68.6152583 ], [ 154.7588954, -68.6173703 ], [ 154.761111199999988, -68.6208869 ], [ 154.7632169, -68.6229887 ], [ 154.770485799999989, -68.6229987 ], [ 154.777307900000011, -68.6217786 ], [ 154.7822974, -68.6209612 ], [ 154.78463450000001, -68.6201666 ], [ 154.789813400000014, -68.6181855 ], [ 154.7952752, -68.6164923 ], [ 154.8013362, -68.6158587 ], [ 154.806671099999988, -68.6162963 ], [ 154.812984, -68.6154664 ], [ 154.8158879, -68.6152472 ], [ 154.8279808, -68.617561 ], [ 154.832146, -68.616362 ], [ 154.841963600000014, -68.6163712 ], [ 154.8478692, -68.6173832 ], [ 154.8548599, -68.6226457 ], [ 154.860329799999988, -68.6250168 ], [ 154.8672598, -68.6293111 ], [ 154.874344900000011, -68.6319577 ], [ 154.8828258, -68.6355594 ], [ 154.8860508, -68.6361106 ], [ 154.901205800000014, -68.6401338 ], [ 154.9094428, -68.6439302 ], [ 154.91825510000001, -68.6483019 ], [ 154.9255259, -68.6533656 ], [ 154.9292146, -68.6566232 ], [ 154.9408683, -68.6633879 ], [ 154.9440224, -68.6665536 ], [ 154.9526, -68.6711198 ], [ 154.9611457, -68.6752015 ], [ 154.971599200000014, -68.6798455 ], [ 154.9781754, -68.6823962 ], [ 154.983711, -68.6852474 ], [ 154.9851495, -68.6902696 ], [ 154.9806543, -68.6942849 ], [ 154.98216450000001, -68.6966914 ], [ 154.981373, -68.7003798 ], [ 154.976263499999988, -68.7033356 ], [ 154.9687418, -68.706121 ], [ 154.9575858, -68.7066167 ], [ 154.9476555, -68.7056468 ], [ 154.9409282, -68.7047427 ], [ 154.932435199999986, -68.7052111 ], [ 154.9248725, -68.7075105 ], [ 154.9228526, -68.7090793 ], [ 154.9134157, -68.7112989 ], [ 154.9250008, -68.7130302 ], [ 154.9376326, -68.71446 ], [ 154.9482534, -68.7138742 ], [ 154.9538336, -68.7136267 ], [ 154.964922, -68.7121635 ], [ 154.965138700000011, -68.7114833 ], [ 154.9706466, -68.7102675 ], [ 154.9749654, -68.7110002 ], [ 154.9797518, -68.7144404 ], [ 154.9868442, -68.7165986 ], [ 154.9952702, -68.7187432 ], [ 155.0, -68.719544292708619 ], [ 155.0, -70.0 ], [ 150.0, -70.0 ], [ 150.0, -68.4175258 ], [ 150.003927299999987, -68.4184857 ] ] ] ] } }
]
}
