{
"type": "FeatureCollection",
"name": "150_-90",
"crs": { "type": "name", "properties": { "name": "urn:ogc:def:crs:OGC:1.3:CRS84" } },
"xy_coordinate_resolution": 1e-15,
"features": [
{ "type": "Feature", "properties": { "FID": 307096, "id": 2412, "left": 150.0, "top": -85.0, "right": 155.0, "bottom": -90.0, "row_index": 35, "col_index": 66, "min_lon": 150.0, "min_lat": -90.0, "tile_id": "150_-90" }, "geometry": { "type": "MultiPolygon", "coordinates": [ [ [ [ 154.0, -90.0 ], [ 153.0, -90.0 ], [ 152.0, -90.0 ], [ 151.0, -90.0 ], [ 150.0, -90.0 ], [ 150.0, -85.0 ], [ 155.0, -85.0 ], [ 155.0, -90.0 ], [ 154.0, -90.0 ] ] ] ] } }
]
}
