{
"type": "FeatureCollection",
"name": "150_60",
"crs": { "type": "name", "properties": { "name": "urn:ogc:def:crs:OGC:1.3:CRS84" } },
"xy_coordinate_resolution": 1e-15,
"features": [
{ "type": "Feature", "properties": { "FID": 98985, "id": 2382, "left": 150.0, "top": 65.0, "right": 155.0, "bottom": 60.0, "row_index": 5, "col_index": 66, "min_lon": 150.0, "min_lat": 60.0, "tile_id": "150_60" }, "geometry": { "type": "MultiPolygon", "coordinates": [ [ [ [ 154.4148363, 60.0384035 ], [ 154.4158811, 60.0389042 ], [ 154.4158592, 60.0383926 ], [ 154.4148363, 60.0384035 ] ] ] ] } },
{ "type": "Feature", "properties": { "FID": 98988, "id": 2382, "left": 150.0, "top": 65.0, "right": 155.0, "bottom": 60.0, "row_index": 5, "col_index": 66, "min_lon": 150.0, "min_lat": 60.0, "tile_id": "150_60" }, "geometry": { "type": "MultiPolygon", "coordinates": [ [ [ [ 154.4110057, 60.0325576 ], [ 154.4110164, 60.0328135 ], [ 154.4125613, 60.033053 ], [ 154.4120227, 60.0324183 ], [ 154.4110057, 60.0325576 ] ] ] ] } },
{ "type": "Feature", "properties": { "FID": 98990, "id": 2382, "left": 150.0, "top": 65.0, "right": 155.0, "bottom": 60.0, "row_index": 5, "col_index": 66, "min_lon": 150.0, "min_lat": 60.0, "tile_id": "150_60" }, "geometry": { "type": "MultiPolygon", "coordinates": [ [ [ [ 154.4169367, 60.0396608 ], [ 154.416958599999987, 60.0401724 ], [ 154.415424300000012, 60.0401888 ], [ 154.4149567, 60.0412176 ], [ 154.415968600000014, 60.0409509 ], [ 154.4159905, 60.0414625 ], [ 154.4175248, 60.0414461 ], [ 154.4189715, 60.0393829 ], [ 154.4169367, 60.0396608 ] ] ] ] } },
{ "type": "Feature", "properties": { "FID": 123912, "id": 2382, "left": 150.0, "top": 65.0, "right": 155.0, "bottom": 60.0, "row_index": 5, "col_index": 66, "min_lon": 150.0, "min_lat": 60.0, "tile_id": "150_60" }, "geometry": { "type": "MultiPolygon", "coordinates": [ [ [ [ 154.998717, 60.3755361 ], [ 154.9939829, 60.3750638 ], [ 154.989493, 60.3745024 ], [ 154.9855444, 60.3737731 ], [ 154.9789878, 60.3724449 ], [ 154.9754826, 60.37161 ], [ 154.9716023, 60.3705228 ], [ 154.969673300000011, 60.3698957 ], [ 154.9671497, 60.3689423 ], [ 154.962617099999989, 60.3670756 ], [ 154.958369, 60.3651458 ], [ 154.95173410000001, 60.3616718 ], [ 154.947515900000013, 60.3595338 ], [ 154.943087600000013, 60.3569799 ], [ 154.9403706, 60.3553316 ], [ 154.9387944, 60.3545817 ], [ 154.9379238, 60.3542105 ], [ 154.9353719, 60.3529036 ], [ 154.928812, 60.349161 ], [ 154.9230928, 60.3457077 ], [ 154.9154821, 60.3411917 ], [ 154.911444100000011, 60.3388592 ], [ 154.907331, 60.336222 ], [ 154.902362399999987, 60.3333393 ], [ 154.8986246, 60.3312961 ], [ 154.8926351, 60.3281083 ], [ 154.8878316, 60.3255668 ], [ 154.8828028, 60.3229508 ], [ 154.8764381, 60.3194724 ], [ 154.869623, 60.3156144 ], [ 154.8644892, 60.3125441 ], [ 154.8607814, 60.3101352 ], [ 154.8568765, 60.3072979 ], [ 154.8550933, 60.3060202 ], [ 154.8531508, 60.30459 ], [ 154.8519832, 60.3038591 ], [ 154.8511447, 60.3032807 ], [ 154.8497754, 60.3026181 ], [ 154.8485229, 60.3017662 ], [ 154.847419, 60.3011509 ], [ 154.846538, 60.3004883 ], [ 154.843682699999988, 60.2984898 ], [ 154.842143600000014, 60.2973696 ], [ 154.840105599999987, 60.2959758 ], [ 154.8390123, 60.2952499 ], [ 154.8379827, 60.2944452 ], [ 154.8366028, 60.2931722 ], [ 154.8355944, 60.2923043 ], [ 154.83468160000001, 60.291489 ], [ 154.8329302, 60.2901423 ], [ 154.831614, 60.2890638 ], [ 154.8298202, 60.287596 ], [ 154.829236400000013, 60.2870068 ], [ 154.8275911, 60.2856546 ], [ 154.8263598, 60.2846971 ], [ 154.824566, 60.2830344 ], [ 154.8233559, 60.2818557 ], [ 154.8222308, 60.2810191 ], [ 154.8196409, 60.2787352 ], [ 154.8166688, 60.2759565 ], [ 154.81467330000001, 60.2738618 ], [ 154.8127627, 60.2721775 ], [ 154.8085169, 60.2689561 ], [ 154.8012057, 60.2626246 ], [ 154.800072300000011, 60.2616417 ], [ 154.798653800000011, 60.2605173 ], [ 154.7972246, 60.259257 ], [ 154.795686, 60.257764 ], [ 154.7946952, 60.2567623 ], [ 154.7936745, 60.2559282 ], [ 154.792721300000011, 60.2552654 ], [ 154.7914303, 60.2541222 ], [ 154.788976, 60.2516308 ], [ 154.7874148, 60.2500963 ], [ 154.786131399999988, 60.2486885 ], [ 154.7856285, 60.2482937 ], [ 154.785403300000013, 60.2480516 ], [ 154.783166099999988, 60.2458868 ], [ 154.7803729, 60.2429941 ], [ 154.779169700000011, 60.2417703 ], [ 154.7774077, 60.2399474 ], [ 154.7758368, 60.2385723 ], [ 154.7738307, 60.2367017 ], [ 154.772302200000013, 60.2354371 ], [ 154.7708692, 60.2342831 ], [ 154.765753, 60.2307048 ], [ 154.763534600000014, 60.2292344 ], [ 154.762367, 60.2285914 ], [ 154.7605519, 60.2273423 ], [ 154.7582592, 60.2259455 ], [ 154.7560195, 60.2247068 ], [ 154.753334099999989, 60.223331 ], [ 154.751519, 60.2223979 ], [ 154.7495235, 60.2214649 ], [ 154.7479207, 60.2207795 ], [ 154.7461374, 60.2198412 ], [ 154.7444604, 60.218966 ], [ 154.7423268, 60.2180065 ], [ 154.7407347, 60.2174212 ], [ 154.738357, 60.2163668 ], [ 154.7362023, 60.2153122 ], [ 154.7346207, 60.2145319 ], [ 154.7342598, 60.2144159 ], [ 154.7334744, 60.2139941 ], [ 154.73219, 60.2133613 ], [ 154.7310436, 60.2128815 ], [ 154.7303537, 60.2126389 ], [ 154.7294302, 60.2120641 ], [ 154.7271375, 60.2108038 ], [ 154.7242716, 60.2092798 ], [ 154.72297660000001, 60.2087049 ], [ 154.7210872, 60.2077662 ], [ 154.719749799999988, 60.2071491 ], [ 154.718762700000013, 60.2065215 ], [ 154.717142599999988, 60.2059617 ], [ 154.7158253, 60.2054769 ], [ 154.7148156, 60.2049533 ], [ 154.712455299999988, 60.2040897 ], [ 154.7107494, 60.203274 ], [ 154.7091079, 60.2024689 ], [ 154.7081637, 60.2021917 ], [ 154.7071338, 60.2019571 ], [ 154.7063076, 60.2017278 ], [ 154.705739, 60.2014346 ], [ 154.705406399999987, 60.201168 ], [ 154.7042155, 60.2003522 ], [ 154.7030997, 60.1996698 ], [ 154.7022629, 60.1991612 ], [ 154.701923599999986, 60.1990006 ], [ 154.7014649, 60.1988219 ], [ 154.7009526, 60.198654 ], [ 154.7005194, 60.19852 ], [ 154.7001372, 60.1984054 ], [ 154.6999817, 60.198352 ], [ 154.699818, 60.1982594 ], [ 154.699637, 60.1981648 ], [ 154.699364800000012, 60.1980075 ], [ 154.6989946, 60.1976895 ], [ 154.6988203, 60.1975302 ], [ 154.698611, 60.1973702 ], [ 154.6982409, 60.1971529 ], [ 154.6976414, 60.1968343 ], [ 154.6969508, 60.1964711 ], [ 154.696295, 60.1961631 ], [ 154.6955869, 60.1958198 ], [ 154.6950276, 60.1955505 ], [ 154.694581, 60.1952912 ], [ 154.6940057, 60.1949053 ], [ 154.693450500000012, 60.1944813 ], [ 154.6930374, 60.1941167 ], [ 154.6926177, 60.1937054 ], [ 154.692228699999987, 60.1933207 ], [ 154.6917124, 60.1928081 ], [ 154.6912605, 60.1923714 ], [ 154.691005600000011, 60.1921281 ], [ 154.6906865, 60.1918828 ], [ 154.6903767, 60.1916461 ], [ 154.6899958, 60.1914228 ], [ 154.6896243, 60.1912428 ], [ 154.689224700000011, 60.1911088 ], [ 154.688737800000013, 60.1909908 ], [ 154.688312700000012, 60.1909221 ], [ 154.6877012, 60.1908408 ], [ 154.687272, 60.1908414 ], [ 154.686990400000013, 60.1908834 ], [ 154.6868777, 60.1908741 ], [ 154.6867436, 60.1908401 ], [ 154.68655720000001, 60.1907961 ], [ 154.686415, 60.1907721 ], [ 154.686285, 60.1907668 ], [ 154.6848258, 60.1908894 ], [ 154.6836966, 60.1909614 ], [ 154.6834365, 60.1909628 ], [ 154.6831655, 60.1909041 ], [ 154.6822321, 60.1902947 ], [ 154.681400700000012, 60.1896307 ], [ 154.6800757, 60.188812 ], [ 154.67889550000001, 60.1882359 ], [ 154.678085399999986, 60.1877746 ], [ 154.6769214, 60.1872358 ], [ 154.6759772, 60.1867371 ], [ 154.6753764, 60.186393 ], [ 154.67429820000001, 60.1857583 ], [ 154.673225300000013, 60.1850595 ], [ 154.6724743, 60.184582 ], [ 154.6718091, 60.1839499 ], [ 154.6712244, 60.1834671 ], [ 154.670612799999986, 60.1830163 ], [ 154.6700442, 60.1825549 ], [ 154.6695399, 60.1821548 ], [ 154.6688694, 60.1815653 ], [ 154.668467, 60.1811091 ], [ 154.6679628, 60.180709 ], [ 154.666847, 60.179722 ], [ 154.6656883, 60.1787003 ], [ 154.665307399999989, 60.1783695 ], [ 154.6649587, 60.178036 ], [ 154.6637732, 60.1768969 ], [ 154.6628666, 60.1760591 ], [ 154.6618527, 60.1751867 ], [ 154.660919299999989, 60.1743463 ], [ 154.6603507, 60.173754 ], [ 154.6599376, 60.1733724 ], [ 154.6589076, 60.1725426 ], [ 154.657893800000011, 60.1715474 ], [ 154.657008600000012, 60.1707229 ], [ 154.656010900000012, 60.1699277 ], [ 154.6550935, 60.1689404 ], [ 154.6541011, 60.1679397 ], [ 154.6529531, 60.1668028 ], [ 154.6519554, 60.1658661 ], [ 154.6498418, 60.1638191 ], [ 154.6487903, 60.1627355 ], [ 154.646709, 60.160739 ], [ 154.6440428, 60.1583554 ], [ 154.6416557, 60.156671 ], [ 154.6397996, 60.1551333 ], [ 154.6376109, 60.1532859 ], [ 154.6353364, 60.1510432 ], [ 154.6328258, 60.1486295 ], [ 154.630723, 60.1463865 ], [ 154.629575, 60.1452168 ], [ 154.627804700000013, 60.1434703 ], [ 154.626442200000014, 60.1422205 ], [ 154.6247256, 60.1405433 ], [ 154.6231484, 60.1388019 ], [ 154.6222687, 60.1377815 ], [ 154.6216035, 60.1368894 ], [ 154.620198, 60.1352814 ], [ 154.6192217, 60.1341754 ], [ 154.618288299999989, 60.133155 ], [ 154.6173334, 60.1321398 ], [ 154.6149301, 60.129698 ], [ 154.612934599999988, 60.1278011 ], [ 154.61187240000001, 60.1267216 ], [ 154.610703, 60.1256849 ], [ 154.6082568, 60.1233174 ], [ 154.6054244, 60.120752 ], [ 154.6034181, 60.1187129 ], [ 154.6004355, 60.115829 ], [ 154.597946400000012, 60.1133539 ], [ 154.5924425, 60.1081679 ], [ 154.589352600000012, 60.1053981 ], [ 154.5862198, 60.1024034 ], [ 154.5819282, 60.0983763 ], [ 154.576606700000013, 60.0935677 ], [ 154.5734632, 60.0907485 ], [ 154.5710277, 60.0885872 ], [ 154.5681095, 60.0857836 ], [ 154.566586, 60.0844995 ], [ 154.5650089, 60.0828461 ], [ 154.563463899999988, 60.0812033 ], [ 154.5618117, 60.0794534 ], [ 154.558657399999987, 60.0758784 ], [ 154.5561468, 60.0732932 ], [ 154.553293, 60.0705901 ], [ 154.5510614, 60.0685666 ], [ 154.549698799999987, 60.0671961 ], [ 154.547327700000011, 60.0653384 ], [ 154.546018800000013, 60.0641819 ], [ 154.5449352, 60.0635555 ], [ 154.5444095, 60.0631218 ], [ 154.543401, 60.0619599 ], [ 154.542017, 60.0608087 ], [ 154.5408368, 60.059861 ], [ 154.53904510000001, 60.0583295 ], [ 154.5371461, 60.0564016 ], [ 154.5339811, 60.0536543 ], [ 154.5300329, 60.0495783 ], [ 154.5275867, 60.0469857 ], [ 154.521020600000014, 60.0398497 ], [ 154.519465, 60.0382048 ], [ 154.5163536, 60.0346628 ], [ 154.5149481, 60.0328354 ], [ 154.5136714, 60.0310401 ], [ 154.5124859, 60.0295582 ], [ 154.5106566, 60.027567 ], [ 154.50942280000001, 60.0259054 ], [ 154.5088575, 60.0248807 ], [ 154.5080494, 60.023692 ], [ 154.5076268, 60.0218636 ], [ 154.50676820000001, 60.0201173 ], [ 154.5058185, 60.0183974 ], [ 154.5049904, 60.0167686 ], [ 154.5042458, 60.0151586 ], [ 154.503030200000012, 60.0126335 ], [ 154.501981699999988, 60.0102524 ], [ 154.5011307, 60.0080117 ], [ 154.5003614, 60.0063576 ], [ 154.4997167, 60.0034355 ], [ 154.498759096870828, 60.0 ], [ 154.494207598486668, 60.0 ], [ 154.494228600000014, 60.0000651 ], [ 154.4942608, 60.0003338 ], [ 154.4942796, 60.0005889 ], [ 154.4943898, 60.0008978 ], [ 154.4944623, 60.0013397 ], [ 154.494540199999989, 60.0017534 ], [ 154.4945241, 60.0020864 ], [ 154.494430099999988, 60.0025793 ], [ 154.4944112, 60.0027525 ], [ 154.4943304, 60.0029573 ], [ 154.4942582, 60.0029943 ], [ 154.4942354, 60.0030465 ], [ 154.4942696, 60.0031035 ], [ 154.4944595, 60.0033542 ], [ 154.494923, 60.0038214 ], [ 154.495073, 60.0040503 ], [ 154.495428299999986, 60.0046467 ], [ 154.4957264, 60.0053732 ], [ 154.496013799999986, 60.0061736 ], [ 154.4960676, 60.006379 ], [ 154.496312, 60.0070236 ], [ 154.4966344, 60.0078212 ], [ 154.4969395, 60.0087215 ], [ 154.4974523, 60.0098457 ], [ 154.498029800000012, 60.0111008 ], [ 154.4983755, 60.0119286 ], [ 154.4988959, 60.0129691 ], [ 154.4992416, 60.0135045 ], [ 154.4996899, 60.0142317 ], [ 154.500423, 60.0157004 ], [ 154.5005142, 60.0160194 ], [ 154.5005142, 60.0164845 ], [ 154.5004382, 60.016849 ], [ 154.5003926, 60.0168908 ], [ 154.5003888, 60.0169439 ], [ 154.5004724, 60.0171527 ], [ 154.500495199999989, 60.0173559 ], [ 154.500518, 60.0174774 ], [ 154.5006852, 60.0177545 ], [ 154.5007953, 60.0179064 ], [ 154.500833300000011, 60.0181247 ], [ 154.500844699999988, 60.0183241 ], [ 154.5007611, 60.0185557 ], [ 154.5004813, 60.0187095 ], [ 154.5004276, 60.0187712 ], [ 154.500441, 60.0188182 ], [ 154.5005189, 60.0189041 ], [ 154.5006559, 60.0190128 ], [ 154.5009971, 60.0192115 ], [ 154.5013463, 60.0193981 ], [ 154.5014806, 60.019441 ], [ 154.501743800000014, 60.019488 ], [ 154.5018996, 60.0195055 ], [ 154.5019883, 60.0195283 ], [ 154.5020715, 60.0195645 ], [ 154.5024261, 60.0199283 ], [ 154.5026061, 60.0202612 ], [ 154.5027323, 60.0206397 ], [ 154.502915, 60.0209752 ], [ 154.5031433, 60.0213189 ], [ 154.503312599999987, 60.0216034 ], [ 154.5034254, 60.0217604 ], [ 154.503608, 60.0219739 ], [ 154.503801399999986, 60.0222517 ], [ 154.503994799999987, 60.0225778 ], [ 154.5040701, 60.0227443 ], [ 154.504062, 60.0228302 ], [ 154.50402170000001, 60.0228986 ], [ 154.5040405, 60.0229483 ], [ 154.5040808, 60.0229966 ], [ 154.5040889, 60.023057 ], [ 154.5040325, 60.0231469 ], [ 154.503954599999986, 60.0232704 ], [ 154.503933100000012, 60.0234086 ], [ 154.5038417, 60.0234905 ], [ 154.503839, 60.0235482 ], [ 154.5038793, 60.0236274 ], [ 154.503898099999986, 60.0237066 ], [ 154.5039143, 60.0237938 ], [ 154.5040674, 60.0240233 ], [ 154.5043279, 60.0243723 ], [ 154.5044972, 60.024685 ], [ 154.5046906, 60.0251399 ], [ 154.5050688, 60.0259169 ], [ 154.5063865, 60.0280226 ], [ 154.5066869, 60.0287247 ], [ 154.5072448, 60.0289606 ], [ 154.5073199, 60.0292875 ], [ 154.5070732, 60.0295876 ], [ 154.5069981, 60.0298449 ], [ 154.507148300000011, 60.0300914 ], [ 154.507985100000013, 60.0303594 ], [ 154.508349900000013, 60.0309972 ], [ 154.5088541, 60.0312276 ], [ 154.5088649, 60.0317904 ], [ 154.5094335, 60.0321602 ], [ 154.509916299999986, 60.0327925 ], [ 154.5097661, 60.0333552 ], [ 154.5098734, 60.0337625 ], [ 154.5107424, 60.0342716 ], [ 154.511225200000013, 60.0351129 ], [ 154.5117938, 60.0356542 ], [ 154.5125019, 60.0365544 ], [ 154.51362850000001, 60.0375296 ], [ 154.5140254, 60.0381887 ], [ 154.514830100000012, 60.0386817 ], [ 154.5168257, 60.0410552 ], [ 154.51801660000001, 60.0419928 ], [ 154.518510099999986, 60.0425125 ], [ 154.5187354, 60.0431715 ], [ 154.518746099999987, 60.0436054 ], [ 154.519314799999989, 60.0437394 ], [ 154.519583, 60.0439644 ], [ 154.5203233, 60.0449126 ], [ 154.5212138, 60.0461822 ], [ 154.5218682, 60.046675 ], [ 154.5222545, 60.0472054 ], [ 154.522866, 60.0475428 ], [ 154.5235956, 60.0480464 ], [ 154.5244217, 60.0488873 ], [ 154.524807900000013, 60.0490588 ], [ 154.525011799999987, 60.0496051 ], [ 154.525398, 60.0499104 ], [ 154.5255697, 60.0503764 ], [ 154.5262778, 60.0506656 ], [ 154.5270073, 60.0511477 ], [ 154.5273507, 60.0514905 ], [ 154.5277476, 60.0520797 ], [ 154.5293355, 60.0536007 ], [ 154.529818299999988, 60.0542166 ], [ 154.530869700000011, 60.0550467 ], [ 154.5330799, 60.0568461 ], [ 154.534313700000013, 60.0577137 ], [ 154.5346677, 60.0580296 ], [ 154.5363208, 60.0598271 ], [ 154.537264099999987, 60.0604982 ], [ 154.53794, 60.0611621 ], [ 154.5388734, 60.0616601 ], [ 154.5393133, 60.061794 ], [ 154.540429100000011, 60.0626935 ], [ 154.5410836, 60.0631539 ], [ 154.5415985, 60.0636786 ], [ 154.5423925, 60.0647441 ], [ 154.542907500000013, 60.0651724 ], [ 154.542961100000014, 60.0655418 ], [ 154.5435512, 60.0658202 ], [ 154.54427, 60.0665483 ], [ 154.544838700000014, 60.0671747 ], [ 154.545621899999986, 60.0675869 ], [ 154.545965200000012, 60.0678599 ], [ 154.546222699999987, 60.0682079 ], [ 154.546093899999988, 60.0685211 ], [ 154.546212, 60.068869 ], [ 154.546512400000012, 60.0693856 ], [ 154.54730090000001, 60.0700521 ], [ 154.548111, 60.0704776 ], [ 154.5490122, 60.0709674 ], [ 154.5495379, 60.0712297 ], [ 154.5502084, 60.0718587 ], [ 154.550718100000012, 60.0724555 ], [ 154.5513833, 60.0732718 ], [ 154.551656799999989, 60.0736277 ], [ 154.5521665, 60.0740265 ], [ 154.5527726, 60.074452 ], [ 154.5531642, 60.0749578 ], [ 154.5535558, 60.0753298 ], [ 154.5537704, 60.075774 ], [ 154.5543605, 60.0760362 ], [ 154.554607299999986, 60.0762717 ], [ 154.5550632, 60.0767133 ], [ 154.5552832, 60.0769969 ], [ 154.5557177, 60.0772164 ], [ 154.556098600000013, 60.0776873 ], [ 154.5564526, 60.0779014 ], [ 154.5567048, 60.0785409 ], [ 154.5572573, 60.078854 ], [ 154.5573163, 60.0793383 ], [ 154.5575845, 60.0797798 ], [ 154.5578045, 60.0801571 ], [ 154.5581585, 60.0803979 ], [ 154.558239, 60.0806307 ], [ 154.5586628, 60.0808929 ], [ 154.558866599999988, 60.0812354 ], [ 154.5593333, 60.0815698 ], [ 154.559623, 60.0819257 ], [ 154.56028280000001, 60.0824421 ], [ 154.561162599999989, 60.0832474 ], [ 154.5616561, 60.0837878 ], [ 154.5617258, 60.0841008 ], [ 154.5623052, 60.0845155 ], [ 154.5630133, 60.0850426 ], [ 154.5638502, 60.0858371 ], [ 154.564300800000012, 60.0860725 ], [ 154.5643651, 60.0864364 ], [ 154.5650196, 60.0869393 ], [ 154.5652986, 60.0874048 ], [ 154.5659101, 60.0878408 ], [ 154.5664519, 60.0882287 ], [ 154.5665806, 60.0885417 ], [ 154.5665646, 60.088868 ], [ 154.5667094, 60.0891944 ], [ 154.5667952, 60.0893683 ], [ 154.5671332, 60.0896893 ], [ 154.567337, 60.0900932 ], [ 154.5676106, 60.090358 ], [ 154.5679218, 60.090481 ], [ 154.5685172, 60.0909785 ], [ 154.5689893, 60.0912273 ], [ 154.5691663, 60.0913691 ], [ 154.5696384, 60.0918559 ], [ 154.5700085, 60.0922812 ], [ 154.5706361, 60.0928054 ], [ 154.5754695, 60.0976623 ], [ 154.5762044, 60.0982399 ], [ 154.57717, 60.098978 ], [ 154.5775133, 60.0993818 ], [ 154.5785004, 60.1001252 ], [ 154.579879, 60.1015424 ], [ 154.5813274, 60.1025772 ], [ 154.581778, 60.1030666 ], [ 154.5823306, 60.1037564 ], [ 154.582872400000014, 60.1041949 ], [ 154.5835698, 60.1045559 ], [ 154.5841706, 60.1049248 ], [ 154.584546100000011, 60.1052216 ], [ 154.5846963, 60.1054462 ], [ 154.583703899999989, 60.1055104 ], [ 154.5828563, 60.1049997 ], [ 154.5820785, 60.1046842 ], [ 154.5799917, 60.1045719 ], [ 154.5784038, 60.1043901 ], [ 154.5755768, 60.104104 ], [ 154.5728302, 60.1036227 ], [ 154.5420599, 60.0972478 ], [ 154.5329189, 60.0966059 ], [ 154.52802650000001, 60.0960283 ], [ 154.521546300000011, 60.0970552 ], [ 154.5163106, 60.096499 ], [ 154.5123624, 60.0967343 ], [ 154.5072126, 60.0958143 ], [ 154.4979858, 60.0942096 ], [ 154.4923317, 60.0936533 ], [ 154.491505600000011, 60.0932307 ], [ 154.489392, 60.0924818 ], [ 154.4878042, 60.0920699 ], [ 154.48686, 60.0915777 ], [ 154.4851434, 60.0910267 ], [ 154.484134899999987, 60.0907271 ], [ 154.4833839, 60.0903366 ], [ 154.481785300000013, 60.0900316 ], [ 154.4809914, 60.0897642 ], [ 154.4807231, 60.0895234 ], [ 154.4802081, 60.0894164 ], [ 154.4799614, 60.0893843 ], [ 154.4798326, 60.0892078 ], [ 154.473016800000011, 60.0872345 ], [ 154.461593599999986, 60.0822896 ], [ 154.459190299999989, 60.0816474 ], [ 154.457752699999986, 60.0812621 ], [ 154.4563579, 60.0809946 ], [ 154.4553065, 60.0804595 ], [ 154.4545233, 60.0803257 ], [ 154.4537401, 60.080042 ], [ 154.45323590000001, 60.0798119 ], [ 154.453032, 60.0795818 ], [ 154.4518947, 60.0791858 ], [ 154.450779, 60.0787791 ], [ 154.448794099999986, 60.078276 ], [ 154.447903599999989, 60.0781262 ], [ 154.447206200000011, 60.0779282 ], [ 154.446809300000012, 60.0776927 ], [ 154.4458544, 60.0775428 ], [ 154.4452, 60.077318 ], [ 154.4444704, 60.0769969 ], [ 154.443537, 60.0767026 ], [ 154.44276450000001, 60.0764724 ], [ 154.442271, 60.0762209 ], [ 154.4419277, 60.0761246 ], [ 154.441691600000013, 60.0759908 ], [ 154.441638, 60.0757767 ], [ 154.4410264, 60.0755519 ], [ 154.4411015, 60.0753806 ], [ 154.4410801, 60.0752093 ], [ 154.4409513, 60.0750595 ], [ 154.440355899999986, 60.0749872 ], [ 154.4400501, 60.0750006 ], [ 154.4399804, 60.0750729 ], [ 154.4398785, 60.0751424 ], [ 154.439733600000011, 60.0752227 ], [ 154.4396371, 60.0752067 ], [ 154.4395405, 60.0751638 ], [ 154.43952440000001, 60.0750862 ], [ 154.4398463, 60.0750434 ], [ 154.4398785, 60.0750167 ], [ 154.4398731, 60.0749498 ], [ 154.4397712, 60.0748775 ], [ 154.4393581, 60.0748213 ], [ 154.4390631, 60.0748374 ], [ 154.43874120000001, 60.0748748 ], [ 154.438526599999989, 60.0749364 ], [ 154.4383067, 60.0750354 ], [ 154.4381779, 60.0749819 ], [ 154.4381994, 60.0748347 ], [ 154.4380438, 60.074749 ], [ 154.4379419, 60.0746607 ], [ 154.4377273, 60.0746741 ], [ 154.437480599999986, 60.0746233 ], [ 154.437207, 60.0746661 ], [ 154.43703, 60.0745697 ], [ 154.4366813, 60.0743851 ], [ 154.4360053, 60.0738258 ], [ 154.4358283, 60.0736357 ], [ 154.4357479, 60.0736036 ], [ 154.4357747, 60.0735421 ], [ 154.4355601, 60.073435 ], [ 154.4355118, 60.0733708 ], [ 154.435345500000011, 60.0732932 ], [ 154.435023699999988, 60.0730443 ], [ 154.434819800000014, 60.0730256 ], [ 154.434616, 60.0729881 ], [ 154.434557, 60.0729132 ], [ 154.43416, 60.0728489 ], [ 154.4337952, 60.0728329 ], [ 154.4335216, 60.072683 ], [ 154.4334251, 60.0724742 ], [ 154.4330227, 60.0723538 ], [ 154.432384399999989, 60.0722575 ], [ 154.4318801, 60.0720621 ], [ 154.4314563, 60.0719845 ], [ 154.4307804, 60.0717168 ], [ 154.4304424, 60.0716606 ], [ 154.4298202, 60.0715536 ], [ 154.4292998, 60.0713903 ], [ 154.428886799999987, 60.0713448 ], [ 154.4279319, 60.0711548 ], [ 154.4275618, 60.0711307 ], [ 154.427422299999989, 60.0710798 ], [ 154.4258666, 60.0712056 ], [ 154.424289499999986, 60.0704081 ], [ 154.422723, 60.0697336 ], [ 154.4165432, 60.0679349 ], [ 154.4112754, 60.0666179 ], [ 154.410867700000011, 60.0664091 ], [ 154.410556500000013, 60.0660933 ], [ 154.4103098, 60.065681 ], [ 154.4104063, 60.0654936 ], [ 154.4102776, 60.0653116 ], [ 154.4098914, 60.0652259 ], [ 154.409548, 60.064455 ], [ 154.40943, 60.0641766 ], [ 154.4091618, 60.063775 ], [ 154.4087005, 60.063518 ], [ 154.4083786, 60.0630469 ], [ 154.4086575, 60.0628113 ], [ 154.4085288, 60.0625168 ], [ 154.4088614, 60.0622491 ], [ 154.409065199999986, 60.0618529 ], [ 154.4089258, 60.0616547 ], [ 154.409548, 60.0614888 ], [ 154.4097519, 60.0610443 ], [ 154.409514699999988, 60.0607586 ], [ 154.4092798, 60.0601822 ], [ 154.4090223, 60.0599252 ], [ 154.4083679, 60.0599306 ], [ 154.4077241, 60.0599038 ], [ 154.4073057, 60.0596735 ], [ 154.407445200000012, 60.0591327 ], [ 154.4066405, 60.058956 ], [ 154.405868, 60.0588703 ], [ 154.4055247, 60.0587043 ], [ 154.4057393, 60.0582384 ], [ 154.4055569, 60.0577458 ], [ 154.405868, 60.0571621 ], [ 154.4057071, 60.0565784 ], [ 154.405514, 60.0561874 ], [ 154.405642699999987, 60.0557269 ], [ 154.40509560000001, 60.0551913 ], [ 154.4048488, 60.0541202 ], [ 154.405406699999986, 60.0533758 ], [ 154.4056642, 60.0526635 ], [ 154.4054818, 60.0521921 ], [ 154.405868, 60.0518922 ], [ 154.405589099999986, 60.0516833 ], [ 154.40575, 60.051378 ], [ 154.405771499999986, 60.0506871 ], [ 154.4058573, 60.0502104 ], [ 154.406114800000012, 60.0496747 ], [ 154.4057362, 60.0484783 ], [ 154.4046557, 60.0469643 ], [ 154.4050312, 60.0466697 ], [ 154.4061041, 60.0468304 ], [ 154.4067049, 60.0467233 ], [ 154.4067585, 60.0464929 ], [ 154.405953899999986, 60.0464875 ], [ 154.4061041, 60.0463215 ], [ 154.406318700000014, 60.0461715 ], [ 154.4062865, 60.0460161 ], [ 154.4058895, 60.0459197 ], [ 154.4058144, 60.0456572 ], [ 154.406136299999986, 60.0455876 ], [ 154.4065654, 60.045234 ], [ 154.4060826, 60.0449179 ], [ 154.406425899999988, 60.0446929 ], [ 154.4070375, 60.0445751 ], [ 154.407863600000013, 60.0443662 ], [ 154.407209099999989, 60.044259 ], [ 154.4062221, 60.0441197 ], [ 154.406061200000011, 60.0438411 ], [ 154.4064581, 60.0437179 ], [ 154.4073808, 60.0437233 ], [ 154.4083679, 60.0436644 ], [ 154.4081104, 60.0433376 ], [ 154.406839, 60.0428399 ], [ 154.406294800000012, 60.0420779 ], [ 154.408368, 60.0426952 ], [ 154.4119427, 60.0425296 ], [ 154.41191, 60.0417621 ], [ 154.410887, 60.041773 ], [ 154.4113822, 60.0413833 ], [ 154.4134443, 60.0417456 ], [ 154.4148802, 60.0394268 ], [ 154.412334, 60.0397099 ], [ 154.4123559, 60.0402215 ], [ 154.4072198, 60.0397645 ], [ 154.409755100000012, 60.0392255 ], [ 154.4097333, 60.0387139 ], [ 154.410244799999987, 60.0387084 ], [ 154.4102665, 60.0392202 ], [ 154.4143359, 60.0386647 ], [ 154.4143032, 60.0378972 ], [ 154.4153258, 60.0378863 ], [ 154.4157825, 60.0366016 ], [ 154.4137316, 60.0364952 ], [ 154.408656, 60.0374457 ], [ 154.4081773, 60.0382187 ], [ 154.407154600000013, 60.0382295 ], [ 154.4071219, 60.0374619 ], [ 154.4101684, 60.0369176 ], [ 154.409279700000013, 60.0359904 ], [ 154.4111474, 60.0358834 ], [ 154.4116861, 60.0365171 ], [ 154.4121975, 60.0365117 ], [ 154.4141391, 60.0340598 ], [ 154.4131164, 60.0340707 ], [ 154.4131382, 60.0345823 ], [ 154.4106143, 60.0353773 ], [ 154.4105706, 60.0343538 ], [ 154.4095479, 60.0343648 ], [ 154.408922499999989, 60.0358192 ], [ 154.407546200000013, 60.03541 ], [ 154.4074918, 60.0341308 ], [ 154.4085145, 60.0341199 ], [ 154.4085035, 60.0338641 ], [ 154.4074808, 60.0338749 ], [ 154.4074374, 60.0328517 ], [ 154.4084546, 60.0327124 ], [ 154.409439099999986, 60.0318065 ], [ 154.4104615, 60.0317955 ], [ 154.4104398, 60.0312839 ], [ 154.417057, 60.0285542 ], [ 154.4249438, 60.023654 ], [ 154.430437, 60.0199658 ], [ 154.4345569, 60.0164057 ], [ 154.4364452, 60.0124593 ], [ 154.4346428, 60.0072466 ], [ 154.433382099999989, 60.0062892 ], [ 154.4318533, 60.005423 ], [ 154.428548799999987, 60.0037281 ], [ 154.4279909, 60.0023335 ], [ 154.4282054, 60.0011534 ], [ 154.429836062574338, 60.0 ], [ 150.0, 60.0 ], [ 150.0, 65.0 ], [ 155.0, 65.0 ], [ 155.0, 60.375633653671329 ], [ 154.998717, 60.3755361 ] ] ], [ [ [ 154.439835499999987, 60.0008959 ], [ 154.4415522, 60.0045112 ], [ 154.4413805, 60.0049993 ], [ 154.440726, 60.0054337 ], [ 154.4391489, 60.0059915 ], [ 154.439077200000014, 60.0062117 ], [ 154.4390631, 60.0064514 ], [ 154.4390684, 60.0065895 ], [ 154.4390778, 60.006664 ], [ 154.4390931, 60.0067354 ], [ 154.439202, 60.00681 ], [ 154.439443899999986, 60.0068389 ], [ 154.4401628, 60.0066646 ], [ 154.4414644, 60.0063211 ], [ 154.4423042, 60.0060119 ], [ 154.443655, 60.0057126 ], [ 154.446354899999989, 60.004533 ], [ 154.449877040528889, 60.0 ], [ 154.43777157935935, 60.0 ], [ 154.439835499999987, 60.0008959 ] ] ] ] } }
]
}
