{
"type": "FeatureCollection",
"name": "155_-90",
"crs": { "type": "name", "properties": { "name": "urn:ogc:def:crs:OGC:1.3:CRS84" } },
"xy_coordinate_resolution": 1e-15,
"features": [
{ "type": "Feature", "properties": { "FID": 307096, "id": 2448, "left": 155.0, "top": -85.0, "right": 160.0, "bottom": -90.0, "row_index": 35, "col_index": 67, "min_lon": 155.0, "min_lat": -90.0, "tile_id": "155_-90" }, "geometry": { "type": "MultiPolygon", "coordinates": [ [ [ [ 159.0, -90.0 ], [ 158.0, -90.0 ], [ 157.0, -90.0 ], [ 156.0, -90.0 ], [ 155.0, -90.0 ], [ 155.0, -85.0 ], [ 160.0, -85.0 ], [ 160.0, -90.0 ], [ 159.0, -90.0 ] ] ] ] } }
]
}
