{
"type": "FeatureCollection",
"name": "155_-20",
"crs": { "type": "name", "properties": { "name": "urn:ogc:def:crs:OGC:1.3:CRS84" } },
"xy_coordinate_resolution": 1e-15,
"features": [
{ "type": "Feature", "properties": { "FID": 77006, "id": 2434, "left": 155.0, "top": -15.0, "right": 160.0, "bottom": -20.0, "row_index": 21, "col_index": 67, "min_lon": 155.0, "min_lat": -20.0, "tile_id": "155_-20" }, "geometry": { "type": "MultiPolygon", "coordinates": [ [ [ [ 158.3593208, -19.9034646 ], [ 158.359098100000011, -19.9034848 ], [ 158.3588406, -19.903442 ], [ 158.3585778, -19.9033335 ], [ 158.358411499999988, -19.9031923 ], [ 158.358100400000012, -19.9028468 ], [ 158.357958200000013, -19.9027459 ], [ 158.357431100000014, -19.9024357 ], [ 158.357283599999988, -19.9023121 ], [ 158.3572179, -19.9022251 ], [ 158.357179, -19.9021406 ], [ 158.357141500000012, -19.9020347 ], [ 158.3571053, -19.9019212 ], [ 158.357047599999987, -19.901838 ], [ 158.357034199999987, -19.9017875 ], [ 158.3570422, -19.9017245 ], [ 158.357081099999988, -19.9016715 ], [ 158.3571321, -19.9016513 ], [ 158.3571844, -19.9016564 ], [ 158.3573346, -19.9017409 ], [ 158.3575559, -19.901809 ], [ 158.357681899999989, -19.9018581 ], [ 158.3578402, -19.9019086 ], [ 158.3579341, -19.9019086 ], [ 158.3581178, -19.9019199 ], [ 158.358316300000013, -19.9019527 ], [ 158.3590901, -19.9021305 ], [ 158.359841100000011, -19.9023575 ], [ 158.360779900000011, -19.9026147 ], [ 158.3610119, -19.9027131 ], [ 158.3611889, -19.9028669 ], [ 158.361273399999988, -19.9029792 ], [ 158.3613056, -19.9031179 ], [ 158.361280099999988, -19.9032263 ], [ 158.3612292, -19.9033095 ], [ 158.3610535, -19.9033865 ], [ 158.360855, -19.9034394 ], [ 158.360388300000011, -19.9034142 ], [ 158.359996700000011, -19.9034016 ], [ 158.359728499999989, -19.9034218 ], [ 158.3593208, -19.9034646 ] ] ] ] } },
{ "type": "Feature", "properties": { "FID": 77011, "id": 2434, "left": 155.0, "top": -15.0, "right": 160.0, "bottom": -20.0, "row_index": 21, "col_index": 67, "min_lon": 155.0, "min_lat": -20.0, "tile_id": "155_-20" }, "geometry": { "type": "MultiPolygon", "coordinates": [ [ [ [ 158.4784752, -19.9080395 ], [ 158.478190899999987, -19.9080899 ], [ 158.477954899999986, -19.907984 ], [ 158.4778047, -19.9076461 ], [ 158.4777403, -19.9072526 ], [ 158.4778476, -19.9066726 ], [ 158.4780675, -19.9060169 ], [ 158.478351800000013, -19.9057445 ], [ 158.47862, -19.9058908 ], [ 158.4787863, -19.9060522 ], [ 158.4788936, -19.9062893 ], [ 158.478952600000014, -19.9071265 ], [ 158.478872200000012, -19.9075654 ], [ 158.4788078, -19.9078882 ], [ 158.4784752, -19.9080395 ] ] ] ] } },
{ "type": "Feature", "properties": { "FID": 77016, "id": 2434, "left": 155.0, "top": -15.0, "right": 160.0, "bottom": -20.0, "row_index": 21, "col_index": 67, "min_lon": 155.0, "min_lat": -20.0, "tile_id": "155_-20" }, "geometry": { "type": "MultiPolygon", "coordinates": [ [ [ [ 158.4791887, -19.911091 ], [ 158.478974099999988, -19.9110204 ], [ 158.4788829, -19.9104857 ], [ 158.4787273, -19.9102588 ], [ 158.4786844, -19.9100217 ], [ 158.4787488, -19.9098704 ], [ 158.479000899999988, -19.9097594 ], [ 158.4792155, -19.9096081 ], [ 158.4795695, -19.9096333 ], [ 158.47963390000001, -19.9098805 ], [ 158.4794354, -19.9100217 ], [ 158.4793013, -19.9099914 ], [ 158.47924230000001, -19.9100923 ], [ 158.4792316, -19.9103193 ], [ 158.479237, -19.9107581 ], [ 158.4791887, -19.911091 ] ] ] ] } },
{ "type": "Feature", "properties": { "FID": 77019, "id": 2434, "left": 155.0, "top": -15.0, "right": 160.0, "bottom": -20.0, "row_index": 21, "col_index": 67, "min_lon": 155.0, "min_lat": -20.0, "tile_id": "155_-20" }, "geometry": { "type": "MultiPolygon", "coordinates": [ [ [ [ 158.3887365, -19.9145081 ], [ 158.3886909, -19.9145787 ], [ 158.3886319, -19.9145963 ], [ 158.3884442, -19.9145106 ], [ 158.387958700000013, -19.9142635 ], [ 158.3874008, -19.9139154 ], [ 158.3871835, -19.9137843 ], [ 158.387001199999986, -19.9137263 ], [ 158.386676599999987, -19.9136481 ], [ 158.3852148, -19.9132194 ], [ 158.3823298, -19.9123059 ], [ 158.3806797, -19.9119319 ], [ 158.379061799999988, -19.9116584 ], [ 158.3788606, -19.9115525 ], [ 158.378697, -19.9113558 ], [ 158.378643399999987, -19.9112019 ], [ 158.3784959, -19.910864 ], [ 158.3784664, -19.910695 ], [ 158.3784825, -19.9105563 ], [ 158.3784583, -19.9102134 ], [ 158.378426100000013, -19.9099965 ], [ 158.3784181, -19.9097771 ], [ 158.3784932, -19.9096232 ], [ 158.3785924, -19.9095602 ], [ 158.3787319, -19.9095274 ], [ 158.3791718, -19.909419 ], [ 158.37931660000001, -19.9093925 ], [ 158.3794279, -19.9093811 ], [ 158.3796117, -19.9093811 ], [ 158.37988390000001, -19.9094013 ], [ 158.3800368, -19.909448 ], [ 158.3801669, -19.9095249 ], [ 158.380305, -19.9095942 ], [ 158.3804673, -19.9096535 ], [ 158.3805652, -19.9096875 ], [ 158.3806698, -19.9097456 ], [ 158.3807851, -19.9098338 ], [ 158.380932699999988, -19.9099914 ], [ 158.38099840000001, -19.910057 ], [ 158.3811016, -19.9101339 ], [ 158.3812116, -19.9101907 ], [ 158.381324299999989, -19.9102638 ], [ 158.3813806, -19.9103268 ], [ 158.381436900000011, -19.9104075 ], [ 158.3814879, -19.9104971 ], [ 158.3815294, -19.9105576 ], [ 158.3816273, -19.9106333 ], [ 158.3817132, -19.91069 ], [ 158.3817963, -19.9107757 ], [ 158.381841900000012, -19.9108464 ], [ 158.38195730000001, -19.9110519 ], [ 158.3821115, -19.9112221 ], [ 158.3823864, -19.9114793 ], [ 158.382618400000013, -19.9116773 ], [ 158.3829202, -19.9119219 ], [ 158.383024799999987, -19.9119925 ], [ 158.383293, -19.9121136 ], [ 158.383698, -19.9122372 ], [ 158.384333700000013, -19.9124036 ], [ 158.384522800000013, -19.9124818 ], [ 158.384838, -19.9126091 ], [ 158.3850203, -19.9126772 ], [ 158.38521750000001, -19.9127378 ], [ 158.3853516, -19.9127705 ], [ 158.3855729, -19.9128348 ], [ 158.385928299999989, -19.9130051 ], [ 158.38615630000001, -19.9131185 ], [ 158.3862461, -19.9131551 ], [ 158.386440599999986, -19.9132156 ], [ 158.386547900000011, -19.9132472 ], [ 158.3867463, -19.9133581 ], [ 158.3870789, -19.9135397 ], [ 158.3874357, -19.9137414 ], [ 158.3878568, -19.9139987 ], [ 158.388162599999987, -19.9141323 ], [ 158.388519300000013, -19.9143467 ], [ 158.3886588, -19.9144249 ], [ 158.3887365, -19.9145081 ] ] ] ] } },
{ "type": "Feature", "properties": { "FID": 77030, "id": 2434, "left": 155.0, "top": -15.0, "right": 160.0, "bottom": -20.0, "row_index": 21, "col_index": 67, "min_lon": 155.0, "min_lat": -20.0, "tile_id": "155_-20" }, "geometry": { "type": "MultiPolygon", "coordinates": [ [ [ [ 158.3922851, -19.9170576 ], [ 158.3921966, -19.9170627 ], [ 158.3920464, -19.9170021 ], [ 158.391772800000012, -19.9167928 ], [ 158.3907965, -19.9159405 ], [ 158.3904666, -19.9156429 ], [ 158.390450499999986, -19.9154966 ], [ 158.3904827, -19.915363 ], [ 158.390539, -19.9152949 ], [ 158.390619500000014, -19.9152848 ], [ 158.3907187, -19.9153251 ], [ 158.390780400000011, -19.9154462 ], [ 158.3908313, -19.9155471 ], [ 158.3909199, -19.9156227 ], [ 158.3911291, -19.9157551 ], [ 158.3914067, -19.9159594 ], [ 158.3917004, -19.9161876 ], [ 158.3922368, -19.916644 ], [ 158.3924192, -19.9168407 ], [ 158.3924407, -19.916934 ], [ 158.392408499999988, -19.9169996 ], [ 158.3922851, -19.9170576 ] ] ] ] } },
{ "type": "Feature", "properties": { "FID": 77032, "id": 2434, "left": 155.0, "top": -15.0, "right": 160.0, "bottom": -20.0, "row_index": 21, "col_index": 67, "min_lon": 155.0, "min_lat": -20.0, "tile_id": "155_-20" }, "geometry": { "type": "MultiPolygon", "coordinates": [ [ [ [ 158.3980291, -19.9212979 ], [ 158.397673700000013, -19.9211479 ], [ 158.397308900000013, -19.9209537 ], [ 158.3969951, -19.9207167 ], [ 158.3968583, -19.9205805 ], [ 158.396565900000013, -19.9202363 ], [ 158.3962588, -19.9199173 ], [ 158.3958806, -19.9195327 ], [ 158.395486299999988, -19.9191381 ], [ 158.395168500000011, -19.9188506 ], [ 158.3949365, -19.918664 ], [ 158.3947393, -19.9184685 ], [ 158.3946951, -19.9183614 ], [ 158.394717899999989, -19.9183084 ], [ 158.3947742, -19.9182718 ], [ 158.3949338, -19.9182668 ], [ 158.3952463, -19.9184421 ], [ 158.3955413, -19.9186791 ], [ 158.3958766, -19.9190069 ], [ 158.3962548, -19.9193222 ], [ 158.3971345, -19.920061 ], [ 158.3978265, -19.9204922 ], [ 158.398679499999986, -19.9210105 ], [ 158.3987828, -19.9210647 ], [ 158.3988364, -19.9211239 ], [ 158.39889, -19.9212488 ], [ 158.398928899999987, -19.9213181 ], [ 158.3989437, -19.9213862 ], [ 158.39894240000001, -19.9214316 ], [ 158.3989061, -19.9214959 ], [ 158.3988176, -19.9215375 ], [ 158.398666100000014, -19.9215646 ], [ 158.39857760000001, -19.9215451 ], [ 158.398267800000013, -19.921424 ], [ 158.3980291, -19.9212979 ] ] ] ] } },
{ "type": "Feature", "properties": { "FID": 77037, "id": 2434, "left": 155.0, "top": -15.0, "right": 160.0, "bottom": -20.0, "row_index": 21, "col_index": 67, "min_lon": 155.0, "min_lat": -20.0, "tile_id": "155_-20" }, "geometry": { "type": "MultiPolygon", "coordinates": [ [ [ [ 158.402284400000013, -19.9232258 ], [ 158.4020027, -19.9230165 ], [ 158.4016648, -19.9228122 ], [ 158.401506500000011, -19.9227366 ], [ 158.401249, -19.9226458 ], [ 158.4009352, -19.9224869 ], [ 158.400791700000013, -19.9223898 ], [ 158.4007341, -19.9223268 ], [ 158.40070990000001, -19.9222637 ], [ 158.4007274, -19.9221717 ], [ 158.400773, -19.9221023 ], [ 158.4008574, -19.9220784 ], [ 158.40095, -19.9221011 ], [ 158.4014556, -19.9223558 ], [ 158.402190499999989, -19.9228248 ], [ 158.402885199999986, -19.9233745 ], [ 158.4029362, -19.9234754 ], [ 158.4029227, -19.923541 ], [ 158.4028932, -19.9235838 ], [ 158.4028074, -19.923604 ], [ 158.4026867, -19.9235536 ], [ 158.402284400000013, -19.9232258 ] ] ] ] } },
{ "type": "Feature", "properties": { "FID": 77042, "id": 2434, "left": 155.0, "top": -15.0, "right": 160.0, "bottom": -20.0, "row_index": 21, "col_index": 67, "min_lon": 155.0, "min_lat": -20.0, "tile_id": "155_-20" }, "geometry": { "type": "MultiPolygon", "coordinates": [ [ [ [ 158.4077936, -19.9258205 ], [ 158.4076112, -19.9258256 ], [ 158.407445, -19.9257928 ], [ 158.407259900000014, -19.9257172 ], [ 158.407115, -19.9255659 ], [ 158.4070936, -19.9255003 ], [ 158.4070855, -19.9253717 ], [ 158.4072143, -19.92518 ], [ 158.4073243, -19.9250943 ], [ 158.407434200000012, -19.9250943 ], [ 158.4080806, -19.9253137 ], [ 158.4083676, -19.9254574 ], [ 158.4084736, -19.9255217 ], [ 158.4085339, -19.9255823 ], [ 158.4085473, -19.9256604 ], [ 158.4085272, -19.9257046 ], [ 158.408474899999987, -19.9257298 ], [ 158.4081691, -19.9257802 ], [ 158.4077936, -19.9258205 ] ] ] ] } },
{ "type": "Feature", "properties": { "FID": 77043, "id": 2434, "left": 155.0, "top": -15.0, "right": 160.0, "bottom": -20.0, "row_index": 21, "col_index": 67, "min_lon": 155.0, "min_lat": -20.0, "tile_id": "155_-20" }, "geometry": { "type": "MultiPolygon", "coordinates": [ [ [ [ 158.4114897, -19.9287488 ], [ 158.411525899999987, -19.9287658 ], [ 158.4115447, -19.9287891 ], [ 158.4115487, -19.92882 ], [ 158.41153, -19.9288673 ], [ 158.411470900000012, -19.9289146 ], [ 158.4114119, -19.928941 ], [ 158.4113261, -19.9289574 ], [ 158.411241600000011, -19.92896 ], [ 158.411115599999988, -19.9289347 ], [ 158.4110619, -19.9289221 ], [ 158.4109613, -19.928849 ], [ 158.4108051, -19.9287141 ], [ 158.4107079, -19.928605 ], [ 158.410694400000011, -19.9285748 ], [ 158.4106985, -19.9285464 ], [ 158.410736, -19.9285061 ], [ 158.4107964, -19.9284619 ], [ 158.4108386, -19.928455 ], [ 158.410870100000011, -19.9284645 ], [ 158.4109882, -19.9285174 ], [ 158.411108899999988, -19.9285653 ], [ 158.4112926, -19.9286548 ], [ 158.4114347, -19.928733 ], [ 158.4114897, -19.9287488 ] ] ] ] } },
{ "type": "Feature", "properties": { "FID": 77044, "id": 2434, "left": 155.0, "top": -15.0, "right": 160.0, "bottom": -20.0, "row_index": 21, "col_index": 67, "min_lon": 155.0, "min_lat": -20.0, "tile_id": "155_-20" }, "geometry": { "type": "MultiPolygon", "coordinates": [ [ [ [ 158.4151214, -19.9297688 ], [ 158.415132199999988, -19.9298072 ], [ 158.4151328, -19.9298482 ], [ 158.4150919, -19.9298992 ], [ 158.4150369, -19.9299119 ], [ 158.4149511, -19.9299005 ], [ 158.4147982, -19.9298362 ], [ 158.4141505, -19.9295576 ], [ 158.4138568, -19.9294309 ], [ 158.4133592, -19.9291705 ], [ 158.4130213, -19.9290016 ], [ 158.4128872, -19.9289284 ], [ 158.4128523, -19.9288704 ], [ 158.4128523, -19.9288288 ], [ 158.4129073, -19.9287847 ], [ 158.412981, -19.928786 ], [ 158.413179500000012, -19.9288679 ], [ 158.4138139, -19.9291516 ], [ 158.414166599999987, -19.9293168 ], [ 158.4144013, -19.9294088 ], [ 158.4146212, -19.9295008 ], [ 158.41504230000001, -19.9297007 ], [ 158.4151214, -19.9297688 ] ] ] ] } },
{ "type": "Feature", "properties": { "FID": 77050, "id": 2434, "left": 155.0, "top": -15.0, "right": 160.0, "bottom": -20.0, "row_index": 21, "col_index": 67, "min_lon": 155.0, "min_lat": -20.0, "tile_id": "155_-20" }, "geometry": { "type": "MultiPolygon", "coordinates": [ [ [ [ 158.419945399999989, -19.9322834 ], [ 158.4197804, -19.9322102 ], [ 158.4195028, -19.9321283 ], [ 158.4190764, -19.9319934 ], [ 158.4188336, -19.9319165 ], [ 158.4187599, -19.93189 ], [ 158.4187129, -19.9318408 ], [ 158.4186646, -19.9317173 ], [ 158.4186204, -19.9316631 ], [ 158.4185171, -19.9315874 ], [ 158.418337400000013, -19.931484 ], [ 158.417987399999987, -19.9312937 ], [ 158.4178533, -19.9312395 ], [ 158.4177379, -19.9312029 ], [ 158.417707799999988, -19.9311682 ], [ 158.417696400000011, -19.9311335 ], [ 158.4177024, -19.9310989 ], [ 158.417723200000012, -19.9310856 ], [ 158.41778690000001, -19.9310875 ], [ 158.4180169, -19.93116 ], [ 158.418379, -19.9312974 ], [ 158.418857800000012, -19.931479 ], [ 158.419307, -19.9316769 ], [ 158.41978180000001, -19.9319379 ], [ 158.420092899999986, -19.9321069 ], [ 158.4202874, -19.9322304 ], [ 158.4203571, -19.9323124 ], [ 158.4203745, -19.932383 ], [ 158.4203397, -19.932441 ], [ 158.4203008, -19.9324561 ], [ 158.4202592, -19.9324548 ], [ 158.4201975, -19.9324359 ], [ 158.420107699999988, -19.9323666 ], [ 158.419945399999989, -19.9322834 ] ] ] ] } },
{ "type": "Feature", "properties": { "FID": 77051, "id": 2434, "left": 155.0, "top": -15.0, "right": 160.0, "bottom": -20.0, "row_index": 21, "col_index": 67, "min_lon": 155.0, "min_lat": -20.0, "tile_id": "155_-20" }, "geometry": { "type": "MultiPolygon", "coordinates": [ [ [ [ 158.4246057, -19.9352575 ], [ 158.424532, -19.9353193 ], [ 158.424447500000014, -19.935342 ], [ 158.424360299999989, -19.9353369 ], [ 158.4242839, -19.935313 ], [ 158.4241846, -19.9352209 ], [ 158.4239915, -19.9349272 ], [ 158.423873500000013, -19.9347545 ], [ 158.423717900000014, -19.934617 ], [ 158.423563699999988, -19.9345275 ], [ 158.423398100000014, -19.9344531 ], [ 158.423284099999989, -19.9343926 ], [ 158.423219, -19.934339 ], [ 158.4231057, -19.9342224 ], [ 158.423081599999989, -19.9341859 ], [ 158.4230762, -19.9341575 ], [ 158.4230809, -19.9341316 ], [ 158.423095, -19.934119 ], [ 158.4231191, -19.9341146 ], [ 158.423157300000014, -19.9341222 ], [ 158.423200900000012, -19.9341272 ], [ 158.4232807, -19.9341342 ], [ 158.4235275, -19.9341405 ], [ 158.4237742, -19.9341443 ], [ 158.4239298, -19.9341833 ], [ 158.424109499999986, -19.9342792 ], [ 158.4242946, -19.9344317 ], [ 158.4244555, -19.9346624 ], [ 158.424588300000011, -19.9348868 ], [ 158.424636600000014, -19.935018 ], [ 158.4246325, -19.9351339 ], [ 158.4246057, -19.9352575 ] ] ] ] } },
{ "type": "Feature", "properties": { "FID": 77053, "id": 2434, "left": 155.0, "top": -15.0, "right": 160.0, "bottom": -20.0, "row_index": 21, "col_index": 67, "min_lon": 155.0, "min_lat": -20.0, "tile_id": "155_-20" }, "geometry": { "type": "MultiPolygon", "coordinates": [ [ [ [ 158.4311315, -19.9401182 ], [ 158.4311322, -19.9401497 ], [ 158.4311161, -19.9401541 ], [ 158.431092, -19.9401428 ], [ 158.431066499999986, -19.9401107 ], [ 158.4310357, -19.9400602 ], [ 158.4310135, -19.9399865 ], [ 158.4309988, -19.9399096 ], [ 158.4309706, -19.9398346 ], [ 158.4309418, -19.9397722 ], [ 158.4308633, -19.9397091 ], [ 158.4307359, -19.9396587 ], [ 158.430564299999986, -19.9396108 ], [ 158.4305012, -19.9395881 ], [ 158.4304898, -19.9395774 ], [ 158.430492500000014, -19.9395585 ], [ 158.430509300000011, -19.9395433 ], [ 158.4305529, -19.9395364 ], [ 158.43063, -19.9395471 ], [ 158.43076880000001, -19.9395875 ], [ 158.430892199999988, -19.9396215 ], [ 158.4309787, -19.9396675 ], [ 158.4310538, -19.93974 ], [ 158.4310826, -19.9398093 ], [ 158.431094, -19.9398938 ], [ 158.431094699999989, -19.9399896 ], [ 158.431113399999987, -19.9400703 ], [ 158.4311315, -19.9401182 ] ] ] ] } },
{ "type": "Feature", "properties": { "FID": 77060, "id": 2434, "left": 155.0, "top": -15.0, "right": 160.0, "bottom": -20.0, "row_index": 21, "col_index": 67, "min_lon": 155.0, "min_lat": -20.0, "tile_id": "155_-20" }, "geometry": { "type": "MultiPolygon", "coordinates": [ [ [ [ 158.4409645, -19.947664 ], [ 158.4409176, -19.9477195 ], [ 158.44088, -19.9477396 ], [ 158.4408291, -19.9477346 ], [ 158.440784799999989, -19.9476942 ], [ 158.440736500000014, -19.9475783 ], [ 158.4406078, -19.9473967 ], [ 158.440500500000013, -19.9472644 ], [ 158.44027650000001, -19.9470576 ], [ 158.4402363, -19.9470034 ], [ 158.4402256, -19.9469315 ], [ 158.440230899999989, -19.9468534 ], [ 158.440264500000012, -19.9467992 ], [ 158.440304700000013, -19.9467765 ], [ 158.4403677, -19.9467841 ], [ 158.4404053, -19.9468193 ], [ 158.440535399999987, -19.9469605 ], [ 158.4407151, -19.9471635 ], [ 158.440925600000014, -19.9474106 ], [ 158.4409913, -19.9475707 ], [ 158.4409645, -19.947664 ] ] ] ] } },
{ "type": "Feature", "properties": { "FID": 77061, "id": 2434, "left": 155.0, "top": -15.0, "right": 160.0, "bottom": -20.0, "row_index": 21, "col_index": 67, "min_lon": 155.0, "min_lat": -20.0, "tile_id": "155_-20" }, "geometry": { "type": "MultiPolygon", "coordinates": [ [ [ [ 158.4574849, -19.961521 ], [ 158.4575104, -19.9615777 ], [ 158.457540599999987, -19.9616716 ], [ 158.4575439, -19.9617 ], [ 158.4575332, -19.9617063 ], [ 158.4575131, -19.9617 ], [ 158.4575017, -19.9616874 ], [ 158.4574467, -19.9616137 ], [ 158.457398399999988, -19.9615431 ], [ 158.457343400000013, -19.9614945 ], [ 158.4573173, -19.9614788 ], [ 158.457275, -19.9614662 ], [ 158.4572375, -19.9614599 ], [ 158.4571999, -19.9614429 ], [ 158.4571584, -19.9614139 ], [ 158.457077199999986, -19.9613603 ], [ 158.457006799999988, -19.9613401 ], [ 158.4569699, -19.9613231 ], [ 158.4569438, -19.9612884 ], [ 158.4569344, -19.961233 ], [ 158.456953199999987, -19.9611813 ], [ 158.4569907, -19.9611485 ], [ 158.4570564, -19.9611397 ], [ 158.4571436, -19.961151 ], [ 158.4572066, -19.9611889 ], [ 158.4573475, -19.9613313 ], [ 158.4574293, -19.9614447 ], [ 158.4574849, -19.961521 ] ] ] ] } },
{ "type": "Feature", "properties": { "FID": 77067, "id": 2434, "left": 155.0, "top": -15.0, "right": 160.0, "bottom": -20.0, "row_index": 21, "col_index": 67, "min_lon": 155.0, "min_lat": -20.0, "tile_id": "155_-20" }, "geometry": { "type": "MultiPolygon", "coordinates": [ [ [ [ 158.47759640000001, -19.970244 ], [ 158.4768631, -19.9700969 ], [ 158.4752198, -19.969572 ], [ 158.4745591, -19.9692482 ], [ 158.47424, -19.969133 ], [ 158.4739463, -19.9691611 ], [ 158.4737599, -19.9690178 ], [ 158.4738135, -19.9687305 ], [ 158.4740552, -19.9684838 ], [ 158.4747342, -19.9682488 ], [ 158.4757179, -19.9677574 ], [ 158.4761569, -19.9680202 ], [ 158.47678, -19.9686347 ], [ 158.4775075, -19.9689552 ], [ 158.4784108, -19.9691489 ], [ 158.4788024, -19.9690935 ], [ 158.478818600000011, -19.968791 ], [ 158.47906420000001, -19.9690671 ], [ 158.4789848, -19.9692951 ], [ 158.4788293, -19.9694471 ], [ 158.478499199999987, -19.9699799 ], [ 158.4782339, -19.9702499 ], [ 158.47759640000001, -19.970244 ] ] ] ] } },
{ "type": "Feature", "properties": { "FID": 77091, "id": 2434, "left": 155.0, "top": -15.0, "right": 160.0, "bottom": -20.0, "row_index": 21, "col_index": 67, "min_lon": 155.0, "min_lat": -20.0, "tile_id": "155_-20" }, "geometry": { "type": "MultiPolygon", "coordinates": [ [ [ [ 158.9408961, -19.2171812 ], [ 158.9406319, -19.2171976 ], [ 158.9405112, -19.2171736 ], [ 158.9404629, -19.2171305 ], [ 158.9404307, -19.2170824 ], [ 158.9403462, -19.2168076 ], [ 158.9402255, -19.2164644 ], [ 158.9400566, -19.2159768 ], [ 158.9400405, -19.2158071 ], [ 158.9400592, -19.215683 ], [ 158.9401478, -19.215369 ], [ 158.9402711, -19.2148928 ], [ 158.9404508, -19.2139861 ], [ 158.9405715, -19.2131832 ], [ 158.9406145, -19.2130515 ], [ 158.940689600000013, -19.2129147 ], [ 158.94082370000001, -19.2128134 ], [ 158.9410382, -19.212669 ], [ 158.9410838, -19.2125943 ], [ 158.9411201, -19.2125335 ], [ 158.9411992, -19.2124639 ], [ 158.941289, -19.2123258 ], [ 158.9413548, -19.2121827 ], [ 158.9413936, -19.2120523 ], [ 158.9414473, -19.2119877 ], [ 158.9415291, -19.2119484 ], [ 158.9415787, -19.2119383 ], [ 158.9416498, -19.2119624 ], [ 158.9417142, -19.2120434 ], [ 158.9417712, -19.212108 ], [ 158.9418047, -19.2121555 ], [ 158.9418657, -19.2122232 ], [ 158.9419059, -19.2122828 ], [ 158.9420106, -19.2125145 ], [ 158.942127199999987, -19.2127526 ], [ 158.9422734, -19.2129957 ], [ 158.9423753, -19.2132402 ], [ 158.9425014, -19.2136809 ], [ 158.9425233, -19.2138415 ], [ 158.9425336, -19.214309 ], [ 158.9425311, -19.2145805 ], [ 158.9424813, -19.21506 ], [ 158.942336399999988, -19.2156602 ], [ 158.9420924, -19.2163416 ], [ 158.9418054, -19.2168 ], [ 158.941741, -19.2168836 ], [ 158.941623, -19.2170026 ], [ 158.9414352, -19.2170811 ], [ 158.9408961, -19.2171812 ] ] ] ] } },
{ "type": "Feature", "properties": { "FID": 77127, "id": 2434, "left": 155.0, "top": -15.0, "right": 160.0, "bottom": -20.0, "row_index": 21, "col_index": 67, "min_lon": 155.0, "min_lat": -20.0, "tile_id": "155_-20" }, "geometry": { "type": "MultiPolygon", "coordinates": [ [ [ [ 158.2667899, -19.791388 ], [ 158.2666022, -19.7908378 ], [ 158.266532399999988, -19.7901766 ], [ 158.2665968, -19.7895557 ], [ 158.2666826, -19.7893538 ], [ 158.2667577, -19.7892932 ], [ 158.2669187, -19.7892781 ], [ 158.267031300000014, -19.7894649 ], [ 158.267192200000011, -19.7899696 ], [ 158.2673424, -19.7905299 ], [ 158.2674766, -19.7910246 ], [ 158.2674819, -19.7914788 ], [ 158.26734780000001, -19.7916151 ], [ 158.267144, -19.7916202 ], [ 158.2669616, -19.7915747 ], [ 158.2667899, -19.791388 ] ] ] ] } },
{ "type": "Feature", "properties": { "FID": 77133, "id": 2434, "left": 155.0, "top": -15.0, "right": 160.0, "bottom": -20.0, "row_index": 21, "col_index": 67, "min_lon": 155.0, "min_lat": -20.0, "tile_id": "155_-20" }, "geometry": { "type": "MultiPolygon", "coordinates": [ [ [ [ 158.4599814, -19.8622562 ], [ 158.4599981, -19.8623168 ], [ 158.4599881, -19.8623401 ], [ 158.4599666, -19.8623445 ], [ 158.4599505, -19.8623357 ], [ 158.4599076, -19.8622726 ], [ 158.4597976, -19.8620985 ], [ 158.4596582, -19.8619182 ], [ 158.4593403, -19.8615436 ], [ 158.4591714, -19.8613745 ], [ 158.459037200000012, -19.8612358 ], [ 158.4589353, -19.8610163 ], [ 158.4588817, -19.8608296 ], [ 158.458836100000013, -19.8603882 ], [ 158.4588441, -19.8600754 ], [ 158.4588441, -19.8598559 ], [ 158.45878780000001, -19.8594724 ], [ 158.4586778, -19.8591394 ], [ 158.4585625, -19.8588468 ], [ 158.4584123, -19.8584936 ], [ 158.4582715, -19.8582489 ], [ 158.4581454, -19.8579929 ], [ 158.45804480000001, -19.8577671 ], [ 158.4579161, -19.8575867 ], [ 158.45783560000001, -19.8575022 ], [ 158.4577779, -19.8573635 ], [ 158.4577471, -19.8572461 ], [ 158.457708200000013, -19.857067 ], [ 158.4576653, -19.8569169 ], [ 158.4576707, -19.856874 ], [ 158.4576935, -19.8568576 ], [ 158.4577323, -19.8568564 ], [ 158.4577994, -19.8568804 ], [ 158.457890600000013, -19.8569283 ], [ 158.4580421, -19.8569724 ], [ 158.4581172, -19.856985 ], [ 158.4581602, -19.8570077 ], [ 158.4581843, -19.857067 ], [ 158.45820040000001, -19.8572045 ], [ 158.458246, -19.8572802 ], [ 158.4582943, -19.8573471 ], [ 158.4583399, -19.8574013 ], [ 158.458377399999989, -19.8574871 ], [ 158.458436400000011, -19.8576813 ], [ 158.4584539, -19.8578011 ], [ 158.4584606, -19.857892 ], [ 158.4584874, -19.857974 ], [ 158.4585504, -19.8580761 ], [ 158.458773, -19.8584104 ], [ 158.4588937, -19.8586097 ], [ 158.4589393, -19.8587396 ], [ 158.459005100000013, -19.8589666 ], [ 158.4591083, -19.8593097 ], [ 158.459214300000014, -19.859615 ], [ 158.459267899999986, -19.8598332 ], [ 158.4593511, -19.8601082 ], [ 158.4594329, -19.8602974 ], [ 158.4595951, -19.8606985 ], [ 158.4596783, -19.8609457 ], [ 158.459766800000011, -19.8612837 ], [ 158.4598339, -19.8614729 ], [ 158.4598795, -19.8617101 ], [ 158.4599036, -19.8619245 ], [ 158.4599814, -19.8622562 ] ] ] ] } },
{ "type": "Feature", "properties": { "FID": 77161, "id": 2434, "left": 155.0, "top": -15.0, "right": 160.0, "bottom": -20.0, "row_index": 21, "col_index": 67, "min_lon": 155.0, "min_lat": -20.0, "tile_id": "155_-20" }, "geometry": { "type": "MultiPolygon", "coordinates": [ [ [ [ 158.3268204, -19.8849647 ], [ 158.3262143, -19.8845435 ], [ 158.3258119, -19.8841727 ], [ 158.3253828, -19.8838171 ], [ 158.3250019, -19.8834387 ], [ 158.3247203, -19.8831159 ], [ 158.324291100000011, -19.8827628 ], [ 158.3239102, -19.8824803 ], [ 158.3234864, -19.8821372 ], [ 158.3232075, -19.8818446 ], [ 158.323009, -19.8815571 ], [ 158.322853400000014, -19.8812241 ], [ 158.3227032, -19.8809467 ], [ 158.3223492, -19.8805734 ], [ 158.321861, -19.8801244 ], [ 158.321300400000013, -19.8796653 ], [ 158.320694300000014, -19.8791457 ], [ 158.3198279, -19.8784899 ], [ 158.3193451, -19.8781418 ], [ 158.3189481, -19.8778088 ], [ 158.3184063, -19.8773094 ], [ 158.317864500000013, -19.8768201 ], [ 158.317285199999986, -19.8762803 ], [ 158.3167487, -19.8757758 ], [ 158.3161211, -19.8752713 ], [ 158.3138519, -19.8731978 ], [ 158.3131224, -19.8725823 ], [ 158.312349899999987, -19.871987 ], [ 158.3118403, -19.8714573 ], [ 158.3104241, -19.8697874 ], [ 158.3096194, -19.8689499 ], [ 158.30919560000001, -19.8684404 ], [ 158.308669900000012, -19.8680166 ], [ 158.3077902, -19.8672497 ], [ 158.3072215, -19.8668562 ], [ 158.3067012, -19.8664829 ], [ 158.3062452, -19.8661549 ], [ 158.3053547, -19.8653754 ], [ 158.3046439, -19.8646994 ], [ 158.304255, -19.8643185 ], [ 158.303871500000014, -19.8638921 ], [ 158.3038124, -19.8637786 ], [ 158.3038151, -19.8636903 ], [ 158.3038607, -19.8636298 ], [ 158.3040029, -19.8635491 ], [ 158.3042175, -19.8635339 ], [ 158.3046117, -19.8636348 ], [ 158.3049551, -19.8637055 ], [ 158.3051428, -19.8637256 ], [ 158.30539490000001, -19.8637256 ], [ 158.305665800000014, -19.8637105 ], [ 158.305869699999988, -19.8637105 ], [ 158.306032, -19.8637458 ], [ 158.306146, -19.8637849 ], [ 158.3062452, -19.8638455 ], [ 158.306403499999988, -19.8639287 ], [ 158.3065, -19.8639489 ], [ 158.306632799999988, -19.8639502 ], [ 158.306733400000013, -19.8639325 ], [ 158.3068527, -19.8639603 ], [ 158.306927800000011, -19.8640132 ], [ 158.3071411, -19.8642705 ], [ 158.3076024, -19.8648053 ], [ 158.308082500000012, -19.865436 ], [ 158.308289, -19.8657463 ], [ 158.3085948, -19.8660338 ], [ 158.309032, -19.866503 ], [ 158.3093351, -19.8667074 ], [ 158.3102685, -19.8672094 ], [ 158.3104885, -19.8673431 ], [ 158.3107889, -19.8675348 ], [ 158.3109418, -19.8676861 ], [ 158.311134900000013, -19.8679258 ], [ 158.3114272, -19.8682966 ], [ 158.3118135, -19.8687254 ], [ 158.3123258, -19.8692097 ], [ 158.312505499999986, -19.8694317 ], [ 158.312626200000011, -19.8696537 ], [ 158.3127308, -19.8699211 ], [ 158.3129936, -19.870355 ], [ 158.3135408, -19.8711294 ], [ 158.3141175, -19.8717348 ], [ 158.315150100000011, -19.8725067 ], [ 158.3157161, -19.8729052 ], [ 158.315954799999986, -19.8731474 ], [ 158.3161265, -19.8734021 ], [ 158.31651, -19.8738966 ], [ 158.3167756, -19.8741589 ], [ 158.3173013, -19.8747971 ], [ 158.317534599999988, -19.875183 ], [ 158.3178323, -19.8756093 ], [ 158.318215900000013, -19.876197 ], [ 158.3186102, -19.8767368 ], [ 158.3189079, -19.8771127 ], [ 158.319283399999989, -19.8774708 ], [ 158.3198118, -19.878056 ], [ 158.3203751, -19.8785151 ], [ 158.321281699999986, -19.8792895 ], [ 158.3218986, -19.8797208 ], [ 158.322309, -19.8800588 ], [ 158.3229929, -19.8805961 ], [ 158.3236822, -19.8811308 ], [ 158.3244976, -19.8819102 ], [ 158.3250663, -19.8824777 ], [ 158.325500799999986, -19.8829318 ], [ 158.3261177, -19.8835321 ], [ 158.3267453, -19.8841349 ], [ 158.3271557, -19.8846242 ], [ 158.3275849, -19.8851615 ], [ 158.3276774, -19.885333 ], [ 158.3276573, -19.8854301 ], [ 158.327592900000013, -19.8854742 ], [ 158.3275138, -19.8854843 ], [ 158.3274266, -19.8854515 ], [ 158.3268204, -19.8849647 ] ] ] ] } },
{ "type": "Feature", "properties": { "FID": 77168, "id": 2434, "left": 155.0, "top": -15.0, "right": 160.0, "bottom": -20.0, "row_index": 21, "col_index": 67, "min_lon": 155.0, "min_lat": -20.0, "tile_id": "155_-20" }, "geometry": { "type": "MultiPolygon", "coordinates": [ [ [ [ 158.4646625, -19.8746596 ], [ 158.4646736, -19.8746848 ], [ 158.4646706, -19.874699 ], [ 158.464662800000013, -19.8747075 ], [ 158.4646464, -19.87471 ], [ 158.464629, -19.8747034 ], [ 158.4646052, -19.8746668 ], [ 158.464574, -19.8745795 ], [ 158.464517699999988, -19.8744578 ], [ 158.46444120000001, -19.8742598 ], [ 158.464412399999986, -19.8741551 ], [ 158.464397600000012, -19.8740536 ], [ 158.4643997, -19.8739785 ], [ 158.464415699999989, -19.8739243 ], [ 158.46445460000001, -19.8738682 ], [ 158.46449290000001, -19.8738404 ], [ 158.464517699999988, -19.8738404 ], [ 158.4645371, -19.8738518 ], [ 158.464539800000011, -19.8738783 ], [ 158.4645143, -19.873952 ], [ 158.464504299999987, -19.8740044 ], [ 158.4645002, -19.8740668 ], [ 158.4645143, -19.87421 ], [ 158.4645458, -19.8743632 ], [ 158.464629, -19.8745842 ], [ 158.4646625, -19.8746596 ] ] ] ] } },
{ "type": "Feature", "properties": { "FID": 77173, "id": 2434, "left": 155.0, "top": -15.0, "right": 160.0, "bottom": -20.0, "row_index": 21, "col_index": 67, "min_lon": 155.0, "min_lat": -20.0, "tile_id": "155_-20" }, "geometry": { "type": "MultiPolygon", "coordinates": [ [ [ [ 158.465351199999986, -19.8735787 ], [ 158.465337799999986, -19.8737048 ], [ 158.4652278, -19.8737906 ], [ 158.4651017, -19.8737931 ], [ 158.4649461, -19.8736872 ], [ 158.4646296, -19.8728699 ], [ 158.4642917, -19.8721132 ], [ 158.464082499999989, -19.8717524 ], [ 158.4638491, -19.8714296 ], [ 158.4636882, -19.8711849 ], [ 158.4634615, -19.8708797 ], [ 158.46335830000001, -19.8707308 ], [ 158.463277799999986, -19.8705694 ], [ 158.463251, -19.8704697 ], [ 158.4631906, -19.8702705 ], [ 158.463082, -19.8700838 ], [ 158.462858, -19.869742 ], [ 158.4627159, -19.86952 ], [ 158.4625308, -19.8692324 ], [ 158.4623377, -19.86896 ], [ 158.4622036, -19.8686787 ], [ 158.4620775, -19.8682827 ], [ 158.4619984, -19.8680935 ], [ 158.4619085, -19.8679169 ], [ 158.4618495, -19.8678261 ], [ 158.46182, -19.8677366 ], [ 158.461812, -19.8676546 ], [ 158.4617919, -19.8675386 ], [ 158.4616739, -19.8672459 ], [ 158.46147, -19.8668146 ], [ 158.461145499999986, -19.8662281 ], [ 158.4610932, -19.8661083 ], [ 158.4611052, -19.8660578 ], [ 158.461158899999987, -19.8660225 ], [ 158.4612139, -19.8660162 ], [ 158.4612581, -19.8660452 ], [ 158.4613962, -19.8663706 ], [ 158.4616551, -19.8668688 ], [ 158.4619582, -19.8673557 ], [ 158.4630579, -19.8692728 ], [ 158.463717699999989, -19.8705492 ], [ 158.4642541, -19.8714018 ], [ 158.465195599999987, -19.8731449 ], [ 158.465351199999986, -19.8735787 ] ] ] ] } },
{ "type": "Feature", "properties": { "FID": 77178, "id": 2434, "left": 155.0, "top": -15.0, "right": 160.0, "bottom": -20.0, "row_index": 21, "col_index": 67, "min_lon": 155.0, "min_lat": -20.0, "tile_id": "155_-20" }, "geometry": { "type": "MultiPolygon", "coordinates": [ [ [ [ 158.477643699999987, -19.9024811 ], [ 158.4776223, -19.9027181 ], [ 158.4775311, -19.9029653 ], [ 158.4774332, -19.9031834 ], [ 158.477441199999987, -19.9033449 ], [ 158.477405, -19.9034634 ], [ 158.4773621, -19.903476 ], [ 158.4773219, -19.9034609 ], [ 158.4773111, -19.9034205 ], [ 158.477319200000011, -19.9033499 ], [ 158.4772964, -19.9032642 ], [ 158.477190400000012, -19.9029678 ], [ 158.4771757, -19.9028341 ], [ 158.4771797, -19.9027181 ], [ 158.4772025, -19.9024659 ], [ 158.4771945, -19.9023058 ], [ 158.477177, -19.902162 ], [ 158.4771448, -19.9019905 ], [ 158.477057699999989, -19.9017976 ], [ 158.4768994, -19.9014609 ], [ 158.4768082, -19.9012957 ], [ 158.4766352, -19.9010776 ], [ 158.476548, -19.9009061 ], [ 158.4764475, -19.9006072 ], [ 158.4763187, -19.900181 ], [ 158.4762222, -19.8997245 ], [ 158.476139, -19.8989073 ], [ 158.4760585, -19.8984382 ], [ 158.47598210000001, -19.8981129 ], [ 158.4759338, -19.8979351 ], [ 158.4759392, -19.8978014 ], [ 158.4759486, -19.8977081 ], [ 158.4759285, -19.8975088 ], [ 158.475889599999988, -19.8973121 ], [ 158.4757984, -19.8970082 ], [ 158.4756696, -19.8968291 ], [ 158.4755462, -19.8967131 ], [ 158.4752485, -19.8964861 ], [ 158.4750058, -19.8963373 ], [ 158.4747322, -19.8961797 ], [ 158.4746638, -19.8961166 ], [ 158.474646400000012, -19.8960662 ], [ 158.4746356, -19.8959994 ], [ 158.4745806, -19.8956967 ], [ 158.4745297, -19.8954735 ], [ 158.4744868, -19.8952743 ], [ 158.4744747, -19.8951784 ], [ 158.474464, -19.8949981 ], [ 158.4744412, -19.8948959 ], [ 158.474348600000013, -19.8946841 ], [ 158.474227899999988, -19.8944293 ], [ 158.4740885, -19.8941431 ], [ 158.4740415, -19.8940712 ], [ 158.4739731, -19.8939779 ], [ 158.4738886, -19.8938682 ], [ 158.4737881, -19.8936727 ], [ 158.473727700000012, -19.8934949 ], [ 158.4736097, -19.8931847 ], [ 158.4735346, -19.8929829 ], [ 158.4734622, -19.8926777 ], [ 158.4733736, -19.8924356 ], [ 158.4733146, -19.8921935 ], [ 158.4732905, -19.8920497 ], [ 158.473295900000011, -19.8917849 ], [ 158.473255599999987, -19.8915427 ], [ 158.473215399999987, -19.8913712 ], [ 158.4731792, -19.8912111 ], [ 158.4731309, -19.89109 ], [ 158.4730826, -19.8909967 ], [ 158.4729525, -19.8907886 ], [ 158.472864, -19.890607 ], [ 158.4727581, -19.8904645 ], [ 158.4726937, -19.8903838 ], [ 158.4726535, -19.890269 ], [ 158.4726173, -19.890148 ], [ 158.472573, -19.8900723 ], [ 158.4724697, -19.8899512 ], [ 158.4722994, -19.8898352 ], [ 158.472189500000013, -19.8897545 ], [ 158.4720835, -19.8896435 ], [ 158.4719735, -19.8894909 ], [ 158.471926599999989, -19.889409 ], [ 158.471889, -19.889332 ], [ 158.4718126, -19.8891908 ], [ 158.471759, -19.8890836 ], [ 158.4717067, -19.8890231 ], [ 158.471662400000014, -19.8889575 ], [ 158.4716517, -19.8888894 ], [ 158.4716611, -19.8888049 ], [ 158.4717053, -19.8885943 ], [ 158.4717402, -19.8883774 ], [ 158.4717911, -19.8881201 ], [ 158.471823300000011, -19.8877998 ], [ 158.4718287, -19.887598 ], [ 158.4718341, -19.8871667 ], [ 158.47178310000001, -19.8868892 ], [ 158.4716785, -19.8865866 ], [ 158.471466600000014, -19.8860771 ], [ 158.4711273, -19.8854478 ], [ 158.4709825, -19.8852687 ], [ 158.47078, -19.8851287 ], [ 158.4705976, -19.8850127 ], [ 158.470442, -19.8849433 ], [ 158.4701744, -19.8848412 ], [ 158.4700645, -19.8847939 ], [ 158.469953800000013, -19.8846942 ], [ 158.469779499999987, -19.8844325 ], [ 158.4696199, -19.8842169 ], [ 158.4695233, -19.884058 ], [ 158.4694388, -19.8838587 ], [ 158.469386500000013, -19.8836746 ], [ 158.4693383, -19.8834501 ], [ 158.469292700000011, -19.8830352 ], [ 158.4692766, -19.8828775 ], [ 158.4692162, -19.8825938 ], [ 158.4691679, -19.8823693 ], [ 158.469117, -19.8820843 ], [ 158.468974800000012, -19.8816555 ], [ 158.468835399999989, -19.8813023 ], [ 158.46851620000001, -19.8805179 ], [ 158.4683445, -19.8801748 ], [ 158.4682023, -19.8799352 ], [ 158.467990500000013, -19.8796174 ], [ 158.4675801, -19.8792138 ], [ 158.4674272, -19.8790019 ], [ 158.4673199, -19.8787976 ], [ 158.4671429, -19.8782427 ], [ 158.4670088, -19.8778517 ], [ 158.466829100000012, -19.8771782 ], [ 158.4667781, -19.8768907 ], [ 158.4667164, -19.8766334 ], [ 158.4666359, -19.8764846 ], [ 158.466552799999988, -19.8763736 ], [ 158.4664535, -19.8762071 ], [ 158.4663811, -19.876086 ], [ 158.4662202, -19.8758338 ], [ 158.4661022, -19.8756774 ], [ 158.466019, -19.8755437 ], [ 158.4658393, -19.8751426 ], [ 158.465694500000012, -19.8748652 ], [ 158.4657186, -19.8747744 ], [ 158.465775, -19.8747264 ], [ 158.4658554, -19.8747037 ], [ 158.46596, -19.8747517 ], [ 158.466201399999989, -19.8752435 ], [ 158.466585, -19.8759044 ], [ 158.4669927, -19.8766511 ], [ 158.467301099999986, -19.8774759 ], [ 158.4675613, -19.8782351 ], [ 158.4676498, -19.8784596 ], [ 158.4678563, -19.8788733 ], [ 158.4682345, -19.8793727 ], [ 158.468484, -19.8798368 ], [ 158.468685099999988, -19.8802303 ], [ 158.468961400000012, -19.8807071 ], [ 158.4691384, -19.8811081 ], [ 158.4693155, -19.8814865 ], [ 158.4694898, -19.8817639 ], [ 158.4696051, -19.8819506 ], [ 158.4698144, -19.8822406 ], [ 158.470037, -19.8825912 ], [ 158.47028370000001, -19.8830377 ], [ 158.4706137, -19.8836229 ], [ 158.4710026, -19.8842484 ], [ 158.4712386, -19.8846873 ], [ 158.4714612, -19.8851186 ], [ 158.471702599999986, -19.8857492 ], [ 158.4719735, -19.8864024 ], [ 158.4721452, -19.886922 ], [ 158.4724268, -19.8878653 ], [ 158.472689699999989, -19.8885489 ], [ 158.4729016, -19.8892904 ], [ 158.4731215, -19.8897999 ], [ 158.4731913, -19.890037 ], [ 158.4732449, -19.8902968 ], [ 158.473295900000011, -19.8906095 ], [ 158.4734863, -19.8912628 ], [ 158.473687500000011, -19.8921657 ], [ 158.4737572, -19.8925516 ], [ 158.473802799999987, -19.8926802 ], [ 158.4739342, -19.8929224 ], [ 158.474092500000012, -19.8930712 ], [ 158.4742856, -19.8932048 ], [ 158.4744412, -19.8932603 ], [ 158.4746182, -19.8933486 ], [ 158.4747764, -19.8934823 ], [ 158.474924, -19.893679 ], [ 158.4749883, -19.8938278 ], [ 158.4750742, -19.8942667 ], [ 158.4751815, -19.8948922 ], [ 158.4752566, -19.8952528 ], [ 158.475449700000013, -19.8958026 ], [ 158.4756133, -19.8961103 ], [ 158.475725899999986, -19.8962919 ], [ 158.47597, -19.8967434 ], [ 158.4761551, -19.8971242 ], [ 158.476334799999989, -19.897664 ], [ 158.476455499999986, -19.8980927 ], [ 158.476517199999989, -19.8984962 ], [ 158.4766889, -19.8990864 ], [ 158.4768444, -19.8996211 ], [ 158.476994600000012, -19.8999136 ], [ 158.4771931, -19.9001154 ], [ 158.477305800000011, -19.9003121 ], [ 158.477380900000014, -19.900761 ], [ 158.4775042, -19.9016034 ], [ 158.4776062, -19.9021028 ], [ 158.477643699999987, -19.9024811 ] ] ] ] } },
{ "type": "Feature", "properties": { "FID": 77192, "id": 2434, "left": 155.0, "top": -15.0, "right": 160.0, "bottom": -20.0, "row_index": 21, "col_index": 67, "min_lon": 155.0, "min_lat": -20.0, "tile_id": "155_-20" }, "geometry": { "type": "MultiPolygon", "coordinates": [ [ [ [ 158.3353391, -19.8916588 ], [ 158.3351326, -19.8915604 ], [ 158.3349663, -19.8914595 ], [ 158.334792, -19.8912855 ], [ 158.3347142, -19.8911392 ], [ 158.334722199999987, -19.891003 ], [ 158.3347732, -19.890834 ], [ 158.334722199999987, -19.8906726 ], [ 158.3346659, -19.8905994 ], [ 158.334019500000011, -19.8901202 ], [ 158.3332685, -19.8896713 ], [ 158.332893, -19.88953 ], [ 158.3325496, -19.8894064 ], [ 158.3320722, -19.8891845 ], [ 158.3316565, -19.8889146 ], [ 158.3313775, -19.8887229 ], [ 158.3309698, -19.8883824 ], [ 158.3306345, -19.8881251 ], [ 158.330479, -19.8879814 ], [ 158.330401200000011, -19.88783 ], [ 158.3302832, -19.8875211 ], [ 158.3302134, -19.8873748 ], [ 158.3301008, -19.8871894 ], [ 158.3299988, -19.887091 ], [ 158.3299586, -19.8870053 ], [ 158.329949199999987, -19.8869611 ], [ 158.3299653, -19.8869195 ], [ 158.3300216, -19.8868842 ], [ 158.3301169, -19.8868728 ], [ 158.3303368, -19.8868539 ], [ 158.3305353, -19.8868514 ], [ 158.3306962, -19.8868766 ], [ 158.3309591, -19.8869775 ], [ 158.3312085, -19.8871768 ], [ 158.3317289, -19.887603 ], [ 158.3322144, -19.8878906 ], [ 158.3325791, -19.8881302 ], [ 158.333778099999989, -19.8889827 ], [ 158.3346176, -19.8894922 ], [ 158.3354679, -19.8900773 ], [ 158.336347600000011, -19.8905843 ], [ 158.3370128, -19.891061 ], [ 158.3374634, -19.8914318 ], [ 158.337530500000014, -19.8915982 ], [ 158.3374929, -19.8917193 ], [ 158.337409799999989, -19.8918 ], [ 158.3371979, -19.8919084 ], [ 158.3369645, -19.8919236 ], [ 158.3367982, -19.8919639 ], [ 158.336680199999989, -19.8920043 ], [ 158.3364496, -19.8920043 ], [ 158.3361277, -19.8919589 ], [ 158.3359158, -19.8918958 ], [ 158.3353391, -19.8916588 ] ] ] ] } },
{ "type": "Feature", "properties": { "FID": 77362, "id": 2434, "left": 155.0, "top": -15.0, "right": 160.0, "bottom": -20.0, "row_index": 21, "col_index": 67, "min_lon": 155.0, "min_lat": -20.0, "tile_id": "155_-20" }, "geometry": { "type": "MultiPolygon", "coordinates": [ [ [ [ 158.827505699999989, -19.072324 ], [ 158.827334, -19.0724203 ], [ 158.8271195, -19.072324 ], [ 158.8267844, -19.0719344 ], [ 158.826811600000013, -19.0716271 ], [ 158.827039, -19.0715584 ], [ 158.8274149, -19.0717637 ], [ 158.8275133, -19.0721312 ], [ 158.827505699999989, -19.072324 ] ] ] ] } },
{ "type": "Feature", "properties": { "FID": 77414, "id": 2434, "left": 155.0, "top": -15.0, "right": 160.0, "bottom": -20.0, "row_index": 21, "col_index": 67, "min_lon": 155.0, "min_lat": -20.0, "tile_id": "155_-20" }, "geometry": { "type": "MultiPolygon", "coordinates": [ [ [ [ 158.6036753, -19.1231323 ], [ 158.6028072, -19.1230481 ], [ 158.6023367, -19.1225599 ], [ 158.602154500000012, -19.1220082 ], [ 158.6022806, -19.1211455 ], [ 158.603053100000011, -19.12074 ], [ 158.603645, -19.1209497 ], [ 158.604351799999989, -19.1211608 ], [ 158.6048509, -19.121527 ], [ 158.605025500000011, -19.122092 ], [ 158.6049907, -19.1224767 ], [ 158.6043794, -19.1226967 ], [ 158.6036753, -19.1231323 ] ] ] ] } },
{ "type": "Feature", "properties": { "FID": 77420, "id": 2434, "left": 155.0, "top": -15.0, "right": 160.0, "bottom": -20.0, "row_index": 21, "col_index": 67, "min_lon": 155.0, "min_lat": -20.0, "tile_id": "155_-20" }, "geometry": { "type": "MultiPolygon", "coordinates": [ [ [ [ 158.5599875, -19.1229194 ], [ 158.5599446, -19.1221997 ], [ 158.5601163, -19.1219666 ], [ 158.5603978, -19.1220945 ], [ 158.560507800000011, -19.1222675 ], [ 158.5605627, -19.1225876 ], [ 158.5606138, -19.1227898 ], [ 158.5605157, -19.1231527 ], [ 158.560217200000011, -19.1231753 ], [ 158.5599875, -19.1229194 ] ] ] ] } },
{ "type": "Feature", "properties": { "FID": 77425, "id": 2434, "left": 155.0, "top": -15.0, "right": 160.0, "bottom": -20.0, "row_index": 21, "col_index": 67, "min_lon": 155.0, "min_lat": -20.0, "tile_id": "155_-20" }, "geometry": { "type": "MultiPolygon", "coordinates": [ [ [ [ 159.0283066, -19.1232083 ], [ 159.028143, -19.1232235 ], [ 159.0278748, -19.1232539 ], [ 159.0276065, -19.122927 ], [ 159.027491199999986, -19.1226559 ], [ 159.0274054, -19.1225063 ], [ 159.027282, -19.121926 ], [ 159.02720690000001, -19.1215763 ], [ 159.0272766, -19.1212164 ], [ 159.0274, -19.1210847 ], [ 159.0275556, -19.1210897 ], [ 159.027695099999988, -19.12148 ], [ 159.0278184, -19.1218044 ], [ 159.0280813, -19.1223011 ], [ 159.028354900000011, -19.1228561 ], [ 159.0284193, -19.1229372 ], [ 159.028719700000011, -19.1231146 ], [ 159.028821599999986, -19.1233198 ], [ 159.0287653, -19.1234415 ], [ 159.0283066, -19.1232083 ] ] ] ] } },
{ "type": "Feature", "properties": { "FID": 77431, "id": 2434, "left": 155.0, "top": -15.0, "right": 160.0, "bottom": -20.0, "row_index": 21, "col_index": 67, "min_lon": 155.0, "min_lat": -20.0, "tile_id": "155_-20" }, "geometry": { "type": "MultiPolygon", "coordinates": [ [ [ [ 159.0291837, -19.125076 ], [ 159.0291622, -19.1249594 ], [ 159.0291756, -19.1248378 ], [ 159.029181, -19.1247542 ], [ 159.0291327, -19.1246528 ], [ 159.0291756, -19.1246047 ], [ 159.0292963, -19.1246477 ], [ 159.0293312, -19.1248479 ], [ 159.0293017, -19.1250887 ], [ 159.0291837, -19.125076 ] ] ] ] } },
{ "type": "Feature", "properties": { "FID": 77442, "id": 2434, "left": 155.0, "top": -15.0, "right": 160.0, "bottom": -20.0, "row_index": 21, "col_index": 67, "min_lon": 155.0, "min_lat": -20.0, "tile_id": "155_-20" }, "geometry": { "type": "MultiPolygon", "coordinates": [ [ [ [ 159.0226927, -19.1107244 ], [ 159.0226686, -19.110509 ], [ 159.022631, -19.110324 ], [ 159.022555899999986, -19.1102049 ], [ 159.02242720000001, -19.1100452 ], [ 159.02223140000001, -19.1099109 ], [ 159.0220678, -19.109812 ], [ 159.0219873, -19.1096752 ], [ 159.022049, -19.1096245 ], [ 159.022159, -19.1097157 ], [ 159.0225989, -19.1099286 ], [ 159.0227678, -19.1102758 ], [ 159.022859, -19.1105546 ], [ 159.0229234, -19.1108942 ], [ 159.0228912, -19.1110691 ], [ 159.0226927, -19.1107244 ] ] ] ] } },
{ "type": "Feature", "properties": { "FID": 77448, "id": 2434, "left": 155.0, "top": -15.0, "right": 160.0, "bottom": -20.0, "row_index": 21, "col_index": 67, "min_lon": 155.0, "min_lat": -20.0, "tile_id": "155_-20" }, "geometry": { "type": "MultiPolygon", "coordinates": [ [ [ [ 159.0267321, -19.1184947 ], [ 159.0267402, -19.1186442 ], [ 159.026721400000014, -19.1188723 ], [ 159.0266919, -19.1190142 ], [ 159.0266088, -19.1191257 ], [ 159.026458600000012, -19.119146 ], [ 159.026431699999989, -19.1190446 ], [ 159.0265551, -19.1189559 ], [ 159.026573899999988, -19.1188216 ], [ 159.0265578, -19.1186568 ], [ 159.0264398, -19.1183325 ], [ 159.026311, -19.1180562 ], [ 159.0261528, -19.1177775 ], [ 159.026075, -19.1175367 ], [ 159.0260428, -19.117377 ], [ 159.026013299999988, -19.1169513 ], [ 159.0259221, -19.1166649 ], [ 159.0256512, -19.1160541 ], [ 159.0252355, -19.1151646 ], [ 159.024878699999988, -19.1145665 ], [ 159.024117, -19.1130129 ], [ 159.0237951, -19.1127367 ], [ 159.023650300000014, -19.1126911 ], [ 159.0236074, -19.1125644 ], [ 159.023663699999986, -19.1125213 ], [ 159.0237683, -19.1124985 ], [ 159.0238917, -19.1125593 ], [ 159.0240365, -19.1126657 ], [ 159.0242833, -19.1129699 ], [ 159.0251791, -19.1144423 ], [ 159.025581499999987, -19.115309 ], [ 159.025830899999988, -19.1158615 ], [ 159.026093800000012, -19.1165357 ], [ 159.0262386, -19.116931 ], [ 159.0264022, -19.1175798 ], [ 159.0264478, -19.1177699 ], [ 159.026512200000013, -19.1180081 ], [ 159.02659, -19.1182032 ], [ 159.026708, -19.1183857 ], [ 159.0267321, -19.1184947 ] ] ] ] } },
{ "type": "Feature", "properties": { "FID": 77463, "id": 2434, "left": 155.0, "top": -15.0, "right": 160.0, "bottom": -20.0, "row_index": 21, "col_index": 67, "min_lon": 155.0, "min_lat": -20.0, "tile_id": "155_-20" }, "geometry": { "type": "MultiPolygon", "coordinates": [ [ [ [ 159.0108212, -19.095719 ], [ 159.0102587, -19.0949644 ], [ 159.0070278, -19.090525 ], [ 159.0070278, -19.0900098 ], [ 159.0072988, -19.0900098 ], [ 159.0117306, -19.0964286 ], [ 159.0108212, -19.095719 ] ] ] ] } },
{ "type": "Feature", "properties": { "FID": 77545, "id": 2434, "left": 155.0, "top": -15.0, "right": 160.0, "bottom": -20.0, "row_index": 21, "col_index": 67, "min_lon": 155.0, "min_lat": -20.0, "tile_id": "155_-20" }, "geometry": { "type": "MultiPolygon", "coordinates": [ [ [ [ 158.2360411, -19.5316018 ], [ 158.2359874, -19.5311974 ], [ 158.2360411, -19.5308434 ], [ 158.2362946, -19.530328 ], [ 158.237230399999987, -19.5298086 ], [ 158.237662, -19.5298818 ], [ 158.2379847, -19.5301451 ], [ 158.2381208, -19.530417 ], [ 158.2381948, -19.5305937 ], [ 158.2381875, -19.530969 ], [ 158.2378855, -19.5315184 ], [ 158.2372963, -19.531986 ], [ 158.236652600000014, -19.5320467 ], [ 158.2362872, -19.5318732 ], [ 158.2360411, -19.5316018 ] ] ] ] } },
{ "type": "Feature", "properties": { "FID": 77567, "id": 2434, "left": 155.0, "top": -15.0, "right": 160.0, "bottom": -20.0, "row_index": 21, "col_index": 67, "min_lon": 155.0, "min_lat": -20.0, "tile_id": "155_-20" }, "geometry": { "type": "MultiPolygon", "coordinates": [ [ [ [ 158.8775611, -19.0343888 ], [ 158.877352, -19.0342945 ], [ 158.877400200000011, -19.0341099 ], [ 158.87755150000001, -19.0340818 ], [ 158.8776427, -19.0341695 ], [ 158.877703200000013, -19.0343142 ], [ 158.8775611, -19.0343888 ] ] ] ] } },
{ "type": "Feature", "properties": { "FID": 77621, "id": 2434, "left": 155.0, "top": -15.0, "right": 160.0, "bottom": -20.0, "row_index": 21, "col_index": 67, "min_lon": 155.0, "min_lat": -20.0, "tile_id": "155_-20" }, "geometry": { "type": "MultiPolygon", "coordinates": [ [ [ [ 158.9825703, -19.0581205 ], [ 158.9815395, -19.0576505 ], [ 158.981558400000011, -19.0575698 ], [ 158.981647, -19.0575003 ], [ 158.9823816, -19.0578535 ], [ 158.9825468, -19.0579998 ], [ 158.9828027, -19.0582265 ], [ 158.9825703, -19.0581205 ] ] ] ] } },
{ "type": "Feature", "properties": { "FID": 77658, "id": 2434, "left": 155.0, "top": -15.0, "right": 160.0, "bottom": -20.0, "row_index": 21, "col_index": 67, "min_lon": 155.0, "min_lat": -20.0, "tile_id": "155_-20" }, "geometry": { "type": "MultiPolygon", "coordinates": [ [ [ [ 158.9798898, -19.0565851 ], [ 158.9797412, -19.0562606 ], [ 158.9792797, -19.055959 ], [ 158.978421, -19.0552075 ], [ 158.9779177, -19.0549421 ], [ 158.9776277, -19.0546111 ], [ 158.9770369, -19.0545047 ], [ 158.9767874, -19.0543524 ], [ 158.977134, -19.0544555 ], [ 158.9775498, -19.0544264 ], [ 158.9786245, -19.0551201 ], [ 158.979292, -19.0558146 ], [ 158.9796668, -19.0560579 ], [ 158.9799413, -19.0564112 ], [ 158.9798898, -19.0565851 ] ] ] ] } },
{ "type": "Feature", "properties": { "FID": 77670, "id": 2434, "left": 155.0, "top": -15.0, "right": 160.0, "bottom": -20.0, "row_index": 21, "col_index": 67, "min_lon": 155.0, "min_lat": -20.0, "tile_id": "155_-20" }, "geometry": { "type": "MultiPolygon", "coordinates": [ [ [ [ 158.24974180000001, -19.5123181 ], [ 158.2491685, -19.5120007 ], [ 158.2489669, -19.5116272 ], [ 158.248930699999988, -19.5112755 ], [ 158.249124, -19.5106029 ], [ 158.2494814, -19.5100883 ], [ 158.249885400000011, -19.509691 ], [ 158.250261599999988, -19.5097199 ], [ 158.250644599999987, -19.5100142 ], [ 158.2509971, -19.5105382 ], [ 158.2510936, -19.5111652 ], [ 158.2508646, -19.5118008 ], [ 158.2505033, -19.5122303 ], [ 158.24974180000001, -19.5123181 ] ] ] ] } },
{ "type": "Feature", "properties": { "FID": 77715, "id": 2434, "left": 155.0, "top": -15.0, "right": 160.0, "bottom": -20.0, "row_index": 21, "col_index": 67, "min_lon": 155.0, "min_lat": -20.0, "tile_id": "155_-20" }, "geometry": { "type": "MultiPolygon", "coordinates": [ [ [ [ 158.881431, -19.4406692 ], [ 158.881621200000012, -19.4402071 ], [ 158.882441699999987, -19.4397541 ], [ 158.8832567, -19.4397889 ], [ 158.8831514, -19.4400315 ], [ 158.8824538, -19.4403489 ], [ 158.8817477, -19.4405032 ], [ 158.881431, -19.4406692 ] ] ] ] } },
{ "type": "Feature", "properties": { "FID": 269812, "id": 2434, "left": 155.0, "top": -15.0, "right": 160.0, "bottom": -20.0, "row_index": 21, "col_index": 67, "min_lon": 155.0, "min_lat": -20.0, "tile_id": "155_-20" }, "geometry": { "type": "MultiPolygon", "coordinates": [ [ [ [ 155.868608, -17.398687 ], [ 155.8686351, -17.398686 ], [ 155.868704, -17.3986834 ], [ 155.8688328, -17.3987281 ], [ 155.8689166, -17.3987867 ], [ 155.8690201, -17.398888 ], [ 155.869278900000012, -17.3992817 ], [ 155.869431100000014, -17.3995405 ], [ 155.8695205, -17.3997203 ], [ 155.869766, -17.4003 ], [ 155.869905499999987, -17.4005672 ], [ 155.870010400000012, -17.4007379 ], [ 155.870134, -17.400908 ], [ 155.8703332, -17.4011312 ], [ 155.870578, -17.401364 ], [ 155.870886399999989, -17.4016239 ], [ 155.8710257, -17.4017653 ], [ 155.871172800000011, -17.4019702 ], [ 155.871266, -17.402166 ], [ 155.871298700000011, -17.4022596 ], [ 155.871340800000013, -17.4024552 ], [ 155.8713598, -17.4026568 ], [ 155.8713703, -17.4029374 ], [ 155.8713381, -17.4034868 ], [ 155.871289, -17.403907 ], [ 155.8711832, -17.4042005 ], [ 155.871138, -17.4042884 ], [ 155.8710816, -17.4043649 ], [ 155.87099, -17.4044439 ], [ 155.8709025, -17.4044944 ], [ 155.870807, -17.4045328 ], [ 155.870566200000013, -17.4045852 ], [ 155.870464199999986, -17.404592 ], [ 155.870362699999987, -17.4045858 ], [ 155.8702642, -17.4045656 ], [ 155.870129600000013, -17.404521 ], [ 155.8700369, -17.4044737 ], [ 155.8699555, -17.4044133 ], [ 155.869896, -17.404348 ], [ 155.869853299999988, -17.4042687 ], [ 155.869829399999986, -17.4041774 ], [ 155.869819299999989, -17.4040772 ], [ 155.869821, -17.403742 ], [ 155.8695083, -17.4021855 ], [ 155.869371300000012, -17.4013976 ], [ 155.8692102, -17.4003905 ], [ 155.8691413, -17.4000537 ], [ 155.8690929, -17.3998589 ], [ 155.869021, -17.399646 ], [ 155.8689309, -17.3994688 ], [ 155.8686411, -17.398972 ], [ 155.868606699999987, -17.3988794 ], [ 155.8685844, -17.3987588 ], [ 155.868608, -17.398687 ] ] ] ] } }
]
}
