{
"type": "FeatureCollection",
"name": "155_75",
"crs": { "type": "name", "properties": { "name": "urn:ogc:def:crs:OGC:1.3:CRS84" } },
"xy_coordinate_resolution": 1e-15,
"features": [
{ "type": "Feature", "properties": { "FID": 348161, "id": 2415, "left": 155.0, "top": 80.0, "right": 160.0, "bottom": 75.0, "row_index": 2, "col_index": 67, "min_lon": 155.0, "min_lat": 75.0, "tile_id": "155_75" }, "geometry": { "type": "MultiPolygon", "coordinates": [ [ [ [ 156.6373269, 77.0845192 ], [ 156.6377005, 77.0843536 ], [ 156.6392514, 77.0835973 ], [ 156.6394563, 77.0834354 ], [ 156.6396947, 77.0831543 ], [ 156.640353, 77.0817956 ], [ 156.6404571, 77.0806753 ], [ 156.6406041, 77.0802161 ], [ 156.6407103, 77.0800306 ], [ 156.6410938, 77.0796715 ], [ 156.6418931, 77.0790519 ], [ 156.642033, 77.0786927 ], [ 156.6418368, 77.0784277 ], [ 156.6416069, 77.0783363 ], [ 156.64114, 77.0782538 ], [ 156.6396071, 77.0781562 ], [ 156.6382648, 77.078097 ], [ 156.637265, 77.078007 ], [ 156.6362918, 77.0778433 ], [ 156.6350297, 77.0775633 ], [ 156.632506, 77.0769487 ], [ 156.6295025, 77.0762883 ], [ 156.62891110000001, 77.0761469 ], [ 156.6286944, 77.0760732 ], [ 156.6283197, 77.0760054 ], [ 156.627603, 77.0759139 ], [ 156.6230586, 77.0755283 ], [ 156.621506900000014, 77.0753497 ], [ 156.620632699999987, 77.0752095 ], [ 156.619791099999986, 77.0751136 ], [ 156.619317599999988, 77.0750766 ], [ 156.618245300000012, 77.0750527 ], [ 156.612810200000013, 77.0751083 ], [ 156.6100993, 77.0751177 ], [ 156.607388899999989, 77.0750725 ], [ 156.6067509, 77.0750325 ], [ 156.604455300000012, 77.0749448 ], [ 156.6019753, 77.074882 ], [ 156.6011665, 77.0748302 ], [ 156.600496, 77.074746 ], [ 156.599123100000014, 77.074479 ], [ 156.5981372, 77.074352 ], [ 156.5960531, 77.0741657 ], [ 156.59404760000001, 77.0740309 ], [ 156.5923575, 77.0739389 ], [ 156.59093, 77.073928 ], [ 156.590127200000012, 77.0739394 ], [ 156.587132700000012, 77.0740588 ], [ 156.5849474, 77.0741756 ], [ 156.5838282, 77.0742531 ], [ 156.581918800000011, 77.0744142 ], [ 156.580082299999987, 77.074509 ], [ 156.57512, 77.0746553 ], [ 156.5723102, 77.0746951 ], [ 156.5695269, 77.0747158 ], [ 156.5669676, 77.0747101 ], [ 156.5634286, 77.0746405 ], [ 156.561968, 77.0746397 ], [ 156.5612901, 77.0746555 ], [ 156.560152499999987, 77.0745975 ], [ 156.559101, 77.0744909 ], [ 156.5584302, 77.0744611 ], [ 156.5577724, 77.074449 ], [ 156.5561668, 77.0744716 ], [ 156.555390499999987, 77.0744638 ], [ 156.5536347, 77.0743922 ], [ 156.5524045, 77.0743738 ], [ 156.5518452, 77.0743852 ], [ 156.550758800000011, 77.0744523 ], [ 156.5496058, 77.0745945 ], [ 156.5485122, 77.0747072 ], [ 156.54764990000001, 77.0747479 ], [ 156.54653110000001, 77.0747708 ], [ 156.5396882, 77.0747857 ], [ 156.5355698, 77.0747551 ], [ 156.5296626, 77.074663 ], [ 156.5244931, 77.0745255 ], [ 156.5227301, 77.0744993 ], [ 156.519808899999987, 77.0744972 ], [ 156.5142357, 77.0745286 ], [ 156.5127291, 77.0745201 ], [ 156.5122294, 77.0745021 ], [ 156.5111516, 77.0744145 ], [ 156.510395499999987, 77.0743786 ], [ 156.507383299999987, 77.0743071 ], [ 156.5060944, 77.0742635 ], [ 156.504707200000013, 77.0741962 ], [ 156.5033071, 77.0741112 ], [ 156.500908399999986, 77.0739356 ], [ 156.5000282, 77.0738407 ], [ 156.4993392, 77.0737298 ], [ 156.4988686, 77.0735292 ], [ 156.4985054, 77.0731977 ], [ 156.4982636, 77.0730885 ], [ 156.497962300000012, 77.0730088 ], [ 156.497555299999988, 77.0729511 ], [ 156.4962859, 77.0729339 ], [ 156.4936131, 77.0730495 ], [ 156.4919084, 77.0731026 ], [ 156.491000899999989, 77.0730813 ], [ 156.4904947, 77.0730544 ], [ 156.4889966, 77.0729457 ], [ 156.4886879, 77.0729116 ], [ 156.4883407, 77.0728244 ], [ 156.488262600000013, 77.0727728 ], [ 156.488259699999986, 77.0725461 ], [ 156.488156800000013, 77.0724047 ], [ 156.4879731, 77.0723751 ], [ 156.4871905, 77.0723582 ], [ 156.4867046, 77.0723034 ], [ 156.4853535, 77.0720623 ], [ 156.484782200000012, 77.0720014 ], [ 156.4841448, 77.0719612 ], [ 156.4834808, 77.07194 ], [ 156.4817899, 77.0719562 ], [ 156.4807567, 77.0719848 ], [ 156.479927300000014, 77.072015 ], [ 156.4786038, 77.0720904 ], [ 156.478030600000011, 77.0721385 ], [ 156.476982600000014, 77.0722583 ], [ 156.475821599999989, 77.0724458 ], [ 156.4742967, 77.0727463 ], [ 156.4728103, 77.0730998 ], [ 156.471706, 77.0734212 ], [ 156.471388100000013, 77.0735416 ], [ 156.4712815, 77.0736181 ], [ 156.471213400000011, 77.0737476 ], [ 156.470257299999986, 77.074608 ], [ 156.470064900000011, 77.0750686 ], [ 156.4694725, 77.075816 ], [ 156.469331399999987, 77.0763473 ], [ 156.469328100000013, 77.0769009 ], [ 156.469524400000012, 77.0773383 ], [ 156.469569299999989, 77.0774002 ], [ 156.4698109, 77.0775093 ], [ 156.470223299999986, 77.0776304 ], [ 156.47075430000001, 77.0777472 ], [ 156.4719615, 77.0779573 ], [ 156.47225, 77.0780194 ], [ 156.4724199, 77.0780858 ], [ 156.4724502, 77.0782389 ], [ 156.4721366, 77.0784772 ], [ 156.4720216, 77.0786537 ], [ 156.4721299, 77.0788585 ], [ 156.4724615, 77.0790914 ], [ 156.472997099999986, 77.0793259 ], [ 156.4737036, 77.0795724 ], [ 156.4745747, 77.079822 ], [ 156.475603799999988, 77.0800658 ], [ 156.477683399999989, 77.080471 ], [ 156.480430399999989, 77.081124 ], [ 156.4812364, 77.0813397 ], [ 156.4818651, 77.0815345 ], [ 156.4823099, 77.0816998 ], [ 156.482596699999988, 77.0818708 ], [ 156.4828853, 77.0819329 ], [ 156.483777800000013, 77.0821 ], [ 156.4844148, 77.0821947 ], [ 156.48829760000001, 77.0826794 ], [ 156.4890661, 77.0827875 ], [ 156.489624099999986, 77.0828851 ], [ 156.4905546, 77.0831597 ], [ 156.491476799999987, 77.0835344 ], [ 156.4922539, 77.0839325 ], [ 156.492735900000014, 77.0842597 ], [ 156.4928261, 77.0843834 ], [ 156.4928686, 77.0846087 ], [ 156.4927547, 77.0847308 ], [ 156.4917163, 77.0854219 ], [ 156.4910897, 77.0858984 ], [ 156.490808500000014, 77.0861809 ], [ 156.4904228, 77.086821 ], [ 156.490048699999988, 77.0871431 ], [ 156.4893291, 77.0876592 ], [ 156.4884762, 77.0886611 ], [ 156.4881959, 77.0888891 ], [ 156.4880415, 77.0890671 ], [ 156.488025, 77.0892673 ], [ 156.4881732, 77.0894706 ], [ 156.488446399999987, 77.0896784 ], [ 156.48884480000001, 77.0898907 ], [ 156.48934890000001, 77.090081 ], [ 156.4899716, 77.090267 ], [ 156.491422300000011, 77.0905862 ], [ 156.491986200000014, 77.0907471 ], [ 156.4923589, 77.0909241 ], [ 156.4925467, 77.0911259 ], [ 156.4925432, 77.0913438 ], [ 156.492367699999988, 77.0916043 ], [ 156.4920267, 77.0919161 ], [ 156.4907414, 77.0927704 ], [ 156.4904123, 77.0931544 ], [ 156.4904023, 77.0933634 ], [ 156.490709399999986, 77.0943412 ], [ 156.490989500000012, 77.094948 ], [ 156.491402099999988, 77.0955137 ], [ 156.4917087, 77.0957112 ], [ 156.4921081, 77.095869 ], [ 156.492284, 77.0959987 ], [ 156.4924129, 77.0961755 ], [ 156.4925015, 77.0964082 ], [ 156.49251, 77.0966982 ], [ 156.492212, 77.0980156 ], [ 156.4921517, 77.0984896 ], [ 156.492217399999987, 77.0989137 ], [ 156.492402700000014, 77.0992789 ], [ 156.4927601, 77.0996016 ], [ 156.49325, 77.0998832 ], [ 156.493918400000013, 77.1001311 ], [ 156.4947194, 77.1003378 ], [ 156.496731, 77.1007001 ], [ 156.4974933, 77.1008538 ], [ 156.499338599999987, 77.1013219 ], [ 156.5001599, 77.1015007 ], [ 156.5010411, 77.1016501 ], [ 156.501586300000014, 77.1017844 ], [ 156.5016517, 77.1018184 ], [ 156.5019869, 77.1018878 ], [ 156.502427899999986, 77.1019353 ], [ 156.5030539, 77.1019578 ], [ 156.503739700000011, 77.101951 ], [ 156.504491699999988, 77.1019236 ], [ 156.505263899999989, 77.1018682 ], [ 156.50602330000001, 77.1017952 ], [ 156.5077939, 77.1015492 ], [ 156.5087648, 77.1014321 ], [ 156.509721899999988, 77.1013518 ], [ 156.5106985, 77.1012981 ], [ 156.511707300000012, 77.1012885 ], [ 156.5127751, 77.101304 ], [ 156.513948, 77.101352 ], [ 156.5152194, 77.1014235 ], [ 156.5165562, 77.101529 ], [ 156.5185774, 77.1017365 ], [ 156.5196962, 77.1018772 ], [ 156.5209921, 77.102093 ], [ 156.522624, 77.1023238 ], [ 156.5256255, 77.1027042 ], [ 156.52906680000001, 77.1032409 ], [ 156.5327574, 77.1038955 ], [ 156.5360461, 77.1045557 ], [ 156.5399515, 77.1055018 ], [ 156.5415037, 77.1058443 ], [ 156.542017, 77.1059344 ], [ 156.54236610000001, 77.105967 ], [ 156.5426958, 77.1059731 ], [ 156.5434415, 77.1059368 ], [ 156.5439821, 77.1059533 ], [ 156.5446278, 77.1060022 ], [ 156.545326100000011, 77.1060674 ], [ 156.5467812, 77.1062774 ], [ 156.5484394, 77.1065978 ], [ 156.5494656, 77.1068325 ], [ 156.551038299999988, 77.107147 ], [ 156.5517621, 77.107302 ], [ 156.5524657, 77.1074849 ], [ 156.5537933, 77.1079082 ], [ 156.5543581, 77.1081234 ], [ 156.5548373, 77.1083328 ], [ 156.555184700000012, 77.1085288 ], [ 156.5553873, 77.1086938 ], [ 156.5554056, 77.1088292 ], [ 156.555250699999988, 77.1091162 ], [ 156.5550437, 77.1093325 ], [ 156.554471400000011, 77.1097709 ], [ 156.5543437, 77.1099843 ], [ 156.5544353, 77.1100535 ], [ 156.554599599999989, 77.110111 ], [ 156.5551657, 77.1102174 ], [ 156.555686400000013, 77.1102618 ], [ 156.5565239, 77.1102947 ], [ 156.558628, 77.1103356 ], [ 156.5607723, 77.1103205 ], [ 156.5615708, 77.1103004 ], [ 156.5624952, 77.1102302 ], [ 156.5629834, 77.1102305 ], [ 156.5635703, 77.1102543 ], [ 156.564124099999987, 77.1102885 ], [ 156.5652773, 77.1104186 ], [ 156.5657448, 77.1105013 ], [ 156.5663897, 77.1106592 ], [ 156.567338400000011, 77.1107877 ], [ 156.5685844, 77.1108782 ], [ 156.569831, 77.1109141 ], [ 156.5705964, 77.1109042 ], [ 156.5713548, 77.1109399 ], [ 156.5724229, 77.1110097 ], [ 156.574334599999986, 77.1111755 ], [ 156.5756399, 77.1112909 ], [ 156.5767477, 77.1113592 ], [ 156.577671, 77.1113979 ], [ 156.5785948, 77.1113821 ], [ 156.5794926, 77.111331 ], [ 156.580470100000014, 77.1112226 ], [ 156.5846786, 77.110587 ], [ 156.5853457, 77.110499 ], [ 156.58592010000001, 77.1104507 ], [ 156.586428399999988, 77.1104229 ], [ 156.586877, 77.1104246 ], [ 156.587299, 77.1104454 ], [ 156.5883868, 77.1105415 ], [ 156.5891717, 77.1105581 ], [ 156.5900955, 77.1105423 ], [ 156.591045799999989, 77.1105073 ], [ 156.5920227, 77.1104533 ], [ 156.592946899999987, 77.110383 ], [ 156.5938184, 77.1102965 ], [ 156.5949019, 77.1101115 ], [ 156.5958, 77.1100058 ], [ 156.5973773, 77.1099387 ], [ 156.6030183, 77.1098673 ], [ 156.604318, 77.1098649 ], [ 156.6056241, 77.1098712 ], [ 156.6072797, 77.1099101 ], [ 156.6088296, 77.109971 ], [ 156.609647599999988, 77.1099772 ], [ 156.6107231, 77.1099467 ], [ 156.6115019, 77.1098998 ], [ 156.6117264, 77.1098734 ], [ 156.612037, 77.1097984 ], [ 156.6121104, 77.1096777 ], [ 156.612085, 77.1095335 ], [ 156.6122179, 77.1093833 ], [ 156.6125027, 77.1092186 ], [ 156.612866700000012, 77.1090509 ], [ 156.6141761, 77.1085669 ], [ 156.61501, 77.108155 ], [ 156.6153081, 77.1079534 ], [ 156.6156404, 77.1075781 ], [ 156.6157283, 77.1072572 ], [ 156.6158547, 77.1070983 ], [ 156.6160667, 77.1069452 ], [ 156.616668800000014, 77.1066598 ], [ 156.6173889, 77.106479 ], [ 156.6178773, 77.1064247 ], [ 156.61867, 77.1062321 ], [ 156.6198791, 77.105888 ], [ 156.6212667, 77.1054556 ], [ 156.6223962, 77.1051689 ], [ 156.6239612, 77.1048116 ], [ 156.626146299999988, 77.1044133 ], [ 156.6276913, 77.1040839 ], [ 156.6290713, 77.1037516 ], [ 156.6301743, 77.1034295 ], [ 156.6310463, 77.103125 ], [ 156.6316809, 77.1028293 ], [ 156.631979, 77.1025732 ], [ 156.6320067, 77.1023362 ], [ 156.63191470000001, 77.102267 ], [ 156.6313688, 77.1020239 ], [ 156.630006900000012, 77.1015024 ], [ 156.6265393, 77.1003325 ], [ 156.624724, 77.0996371 ], [ 156.6233499, 77.0990434 ], [ 156.622496, 77.0985485 ], [ 156.6222146, 77.0982231 ], [ 156.622065600000013, 77.097802 ], [ 156.6221477, 77.0973088 ], [ 156.6223223, 77.096776 ], [ 156.6226751, 77.0962093 ], [ 156.623153, 77.095647 ], [ 156.6237691, 77.0951069 ], [ 156.6244509, 77.0946007 ], [ 156.627373799999987, 77.0927864 ], [ 156.6282596, 77.0922817 ], [ 156.628721899999988, 77.0920831 ], [ 156.6292374, 77.0917917 ], [ 156.630282599999987, 77.0910088 ], [ 156.6305418, 77.0905908 ], [ 156.6306593, 77.0895971 ], [ 156.6310983, 77.0888185 ], [ 156.631226700000013, 77.0882237 ], [ 156.6312356, 77.0877968 ], [ 156.631335799999988, 77.087548 ], [ 156.6315212, 77.0873596 ], [ 156.632438799999989, 77.0869536 ], [ 156.633079400000014, 77.0866122 ], [ 156.63371380000001, 77.0862075 ], [ 156.6350409, 77.0855321 ], [ 156.635645, 77.0852615 ], [ 156.6364858, 77.0848919 ], [ 156.6373269, 77.0845192 ] ] ] ] } },
{ "type": "Feature", "properties": { "FID": 348162, "id": 2415, "left": 155.0, "top": 80.0, "right": 160.0, "bottom": 75.0, "row_index": 2, "col_index": 67, "min_lon": 155.0, "min_lat": 75.0, "tile_id": "155_75" }, "geometry": { "type": "MultiPolygon", "coordinates": [ [ [ [ 158.112835499999989, 76.7943614 ], [ 158.114616899999987, 76.7943929 ], [ 158.115494500000011, 76.7943454 ], [ 158.1159726, 76.7942972 ], [ 158.1190133, 76.7939273 ], [ 158.1195995, 76.7938652 ], [ 158.12009230000001, 76.7938345 ], [ 158.120561400000014, 76.7938231 ], [ 158.1210525, 76.7938381 ], [ 158.1234756, 76.7939691 ], [ 158.1239209, 76.7939769 ], [ 158.1244284, 76.7939639 ], [ 158.125829900000014, 76.7938752 ], [ 158.130345299999988, 76.7935044 ], [ 158.1316313, 76.7934207 ], [ 158.1320234, 76.7934127 ], [ 158.1325751, 76.7934523 ], [ 158.133576299999987, 76.7935999 ], [ 158.1352742, 76.7938173 ], [ 158.1377917, 76.7941081 ], [ 158.1381748, 76.7941369 ], [ 158.1386971, 76.7941414 ], [ 158.140027300000014, 76.7941104 ], [ 158.1407968, 76.7940767 ], [ 158.142236700000012, 76.7939863 ], [ 158.1428612, 76.7939224 ], [ 158.1432475, 76.7938599 ], [ 158.1436428, 76.7937606 ], [ 158.1437909, 76.7936994 ], [ 158.1441745, 76.7934911 ], [ 158.1443258, 76.7933387 ], [ 158.144369, 76.7932 ], [ 158.1441566, 76.7928994 ], [ 158.1438626, 76.7927391 ], [ 158.143014099999988, 76.7923934 ], [ 158.1418818, 76.792042 ], [ 158.1414044, 76.7918532 ], [ 158.1407763, 76.7915799 ], [ 158.140353800000014, 76.7913614 ], [ 158.1394802, 76.7910807 ], [ 158.1385192, 76.7908858 ], [ 158.1375377, 76.7906188 ], [ 158.136097, 76.7900894 ], [ 158.1333232, 76.7892538 ], [ 158.1327159, 76.7890525 ], [ 158.131848, 76.7887283 ], [ 158.130684699999989, 76.7882938 ], [ 158.1285964, 76.787419 ], [ 158.128174199999989, 76.7872005 ], [ 158.128100499999988, 76.7871125 ], [ 158.1281185, 76.7870388 ], [ 158.1282061, 76.786953 ], [ 158.128690400000011, 76.7867221 ], [ 158.128980899999988, 76.7865453 ], [ 158.129194399999989, 76.7863719 ], [ 158.129222199999987, 76.7860243 ], [ 158.128766399999989, 76.7856705 ], [ 158.1283427, 76.7854977 ], [ 158.126641, 76.7849888 ], [ 158.124223, 76.7843381 ], [ 158.1231106, 76.7841042 ], [ 158.120109899999989, 76.7836951 ], [ 158.1190617, 76.7835522 ], [ 158.116771699999987, 76.7831967 ], [ 158.1151941, 76.7828829 ], [ 158.114677300000011, 76.7827414 ], [ 158.113874399999986, 76.7824484 ], [ 158.1126724, 76.7821546 ], [ 158.1119635, 76.7820215 ], [ 158.1104817, 76.781822 ], [ 158.109762, 76.7817714 ], [ 158.109102900000011, 76.7817456 ], [ 158.1086268, 76.7817482 ], [ 158.108174600000012, 76.7817315 ], [ 158.1078377, 76.7817098 ], [ 158.1075629, 76.7816671 ], [ 158.1073102, 76.7816508 ], [ 158.1064735, 76.7816509 ], [ 158.1055747, 76.781672 ], [ 158.1051682, 76.7816624 ], [ 158.1049997, 76.7816515 ], [ 158.1043513, 76.7815431 ], [ 158.1037397, 76.7814787 ], [ 158.1020167, 76.7813717 ], [ 158.1009511, 76.7813363 ], [ 158.0984813, 76.7812892 ], [ 158.095026600000011, 76.7813034 ], [ 158.093313099999989, 76.7813509 ], [ 158.0915905, 76.7814352 ], [ 158.0894358, 76.7815748 ], [ 158.087449600000014, 76.7817253 ], [ 158.0855, 76.7819197 ], [ 158.0841857, 76.7821594 ], [ 158.0830575, 76.7824337 ], [ 158.082195899999988, 76.7825925 ], [ 158.080310200000014, 76.7829117 ], [ 158.078104, 76.783181 ], [ 158.0745281, 76.7835283 ], [ 158.0736327, 76.7836493 ], [ 158.0730523, 76.7837658 ], [ 158.0729278, 76.7838076 ], [ 158.0720708, 76.783927 ], [ 158.071268800000013, 76.7840166 ], [ 158.0695585, 76.784164 ], [ 158.068578800000012, 76.7842796 ], [ 158.0665553, 76.7845774 ], [ 158.0656506, 76.7847352 ], [ 158.064907, 76.7848952 ], [ 158.0643796, 76.7850275 ], [ 158.064114, 76.7851393 ], [ 158.063919700000014, 76.7853847 ], [ 158.0638097, 76.7856356 ], [ 158.0634489, 76.7858245 ], [ 158.0630294, 76.785943 ], [ 158.062170400000014, 76.7861079 ], [ 158.0616044, 76.7862419 ], [ 158.0610218, 76.786404 ], [ 158.0594298, 76.7870292 ], [ 158.058832599999988, 76.7871736 ], [ 158.0579916, 76.7874563 ], [ 158.0575116, 76.7875501 ], [ 158.0569089, 76.7876401 ], [ 158.05559, 76.7877795 ], [ 158.0543772, 76.7879507 ], [ 158.0535803, 76.7880947 ], [ 158.051636300000013, 76.7884891 ], [ 158.05094, 76.7886104 ], [ 158.050520400000011, 76.7887289 ], [ 158.0497138, 76.7891012 ], [ 158.0493711, 76.7892163 ], [ 158.0490064, 76.7893051 ], [ 158.048473199999989, 76.7893829 ], [ 158.0475753, 76.7895495 ], [ 158.046457299999986, 76.789835 ], [ 158.0457444, 76.7899845 ], [ 158.0449472, 76.7901285 ], [ 158.04244940000001, 76.7905286 ], [ 158.0418684, 76.7906449 ], [ 158.041518200000013, 76.7907513 ], [ 158.0412835, 76.7908526 ], [ 158.04121, 76.790956 ], [ 158.0412666, 76.791072 ], [ 158.0416105, 76.791294 ], [ 158.0416763, 76.7913732 ], [ 158.0416725, 76.7914645 ], [ 158.04155320000001, 76.7915608 ], [ 158.0409809, 76.7918317 ], [ 158.0392407, 76.7924722 ], [ 158.0380668, 76.7929788 ], [ 158.037655699999988, 76.7932518 ], [ 158.0371705, 76.7938197 ], [ 158.0366951, 76.7941592 ], [ 158.036027100000013, 76.7945072 ], [ 158.0352676, 76.7948408 ], [ 158.034401800000012, 76.7951427 ], [ 158.0335306, 76.7953901 ], [ 158.0327237, 76.7955709 ], [ 158.0319519, 76.7956499 ], [ 158.03108850000001, 76.7957147 ], [ 158.030617299999989, 76.7957716 ], [ 158.030129499999987, 76.7958565 ], [ 158.0280808, 76.7963189 ], [ 158.0262318, 76.7967818 ], [ 158.0249933, 76.7971636 ], [ 158.0245785, 76.7973364 ], [ 158.0241192, 76.7976479 ], [ 158.024082, 76.7977954 ], [ 158.0241604, 76.7979378 ], [ 158.0243323, 76.7980488 ], [ 158.0246436, 76.7981355 ], [ 158.025079799999986, 76.7981804 ], [ 158.0256095, 76.7981939 ], [ 158.0262328, 76.798176 ], [ 158.0269039, 76.7981196 ], [ 158.0276686, 76.7980317 ], [ 158.0294567, 76.7977355 ], [ 158.030632200000014, 76.7975661 ], [ 158.033081900000013, 76.7972503 ], [ 158.0354361, 76.7970115 ], [ 158.036415, 76.7969417 ], [ 158.0377239, 76.7968849 ], [ 158.0388529, 76.7968997 ], [ 158.039388, 76.7969676 ], [ 158.0404854, 76.7971842 ], [ 158.041203700000011, 76.7972806 ], [ 158.043095, 76.7974446 ], [ 158.044106699999986, 76.79751 ], [ 158.045058, 76.7975507 ], [ 158.0458791, 76.7975789 ], [ 158.0465097, 76.7975697 ], [ 158.047127499999988, 76.7974973 ], [ 158.04795630000001, 76.7973429 ], [ 158.048919, 76.7971097 ], [ 158.0509635, 76.796547 ], [ 158.0526706, 76.7959625 ], [ 158.0532905, 76.795653 ], [ 158.0540312, 76.795393 ], [ 158.055415399999987, 76.7949956 ], [ 158.0563393, 76.7947641 ], [ 158.056711400000012, 76.7946841 ], [ 158.0573455, 76.7945837 ], [ 158.057954, 76.7945481 ], [ 158.058514800000012, 76.794551 ], [ 158.059015100000011, 76.7945293 ], [ 158.0595007, 76.7944899 ], [ 158.059926, 76.7944259 ], [ 158.060607800000014, 76.7942869 ], [ 158.0610165, 76.7942509 ], [ 158.0615076, 76.794266 ], [ 158.0627628, 76.7943845 ], [ 158.063598399999989, 76.7944302 ], [ 158.0644744, 76.7944285 ], [ 158.0650113, 76.7944507 ], [ 158.0651758, 76.794467 ], [ 158.0663582, 76.7945835 ], [ 158.067664799999989, 76.7947636 ], [ 158.0680937, 76.7947996 ], [ 158.0685848, 76.7948147 ], [ 158.069176700000014, 76.7948072 ], [ 158.0723783, 76.7946769 ], [ 158.0748963, 76.7945399 ], [ 158.076699499999989, 76.7944067 ], [ 158.0775185, 76.794289 ], [ 158.0786363, 76.7941948 ], [ 158.0797138, 76.7941478 ], [ 158.082675099999989, 76.7940644 ], [ 158.083791100000013, 76.7940157 ], [ 158.084608300000014, 76.7939436 ], [ 158.0859916, 76.7937375 ], [ 158.086885700000011, 76.7936621 ], [ 158.0901711, 76.793537 ], [ 158.0932312, 76.7934765 ], [ 158.09482, 76.7935165 ], [ 158.0956942, 76.7935604 ], [ 158.100001, 76.7938464 ], [ 158.1016651, 76.7939287 ], [ 158.1024018, 76.7939512 ], [ 158.1037689, 76.7939645 ], [ 158.1056289, 76.793947 ], [ 158.1067266, 76.793972 ], [ 158.107723600000014, 76.7940196 ], [ 158.1101669, 76.7942228 ], [ 158.1118458, 76.7943226 ], [ 158.112835499999989, 76.7943614 ] ] ] ] } }
]
}
