{
"type": "FeatureCollection",
"name": "155_45",
"crs": { "type": "name", "properties": { "name": "urn:ogc:def:crs:OGC:1.3:CRS84" } },
"xy_coordinate_resolution": 1e-15,
"features": [
{ "type": "Feature", "properties": { "FID": 73242, "id": 2421, "left": 155.0, "top": 50.0, "right": 160.0, "bottom": 45.0, "row_index": 8, "col_index": 67, "min_lon": 155.0, "min_lat": 45.0, "tile_id": "155_45" }, "geometry": { "type": "MultiPolygon", "coordinates": [ [ [ [ 155.383871199999987, 49.9944224 ], [ 155.3833938, 49.9944259 ], [ 155.382884100000012, 49.9944328 ], [ 155.3827983, 49.9945742 ], [ 155.382852, 49.9947776 ], [ 155.383280899999988, 49.9948788 ], [ 155.3839087, 49.9949328 ], [ 155.384343300000012, 49.9947983 ], [ 155.384396900000013, 49.9946569 ], [ 155.3842789, 49.9945259 ], [ 155.383871199999987, 49.9944224 ] ] ] ] } },
{ "type": "Feature", "properties": { "FID": 538281, "id": 2421, "left": 155.0, "top": 50.0, "right": 160.0, "bottom": 45.0, "row_index": 8, "col_index": 67, "min_lon": 155.0, "min_lat": 45.0, "tile_id": "155_45" }, "geometry": { "type": "MultiPolygon", "coordinates": [ [ [ [ 155.3935084, 49.9999131 ], [ 155.3925361, 49.9996847 ], [ 155.3916925, 49.9995614 ], [ 155.3915638, 49.9995528 ], [ 155.3914337, 49.9995709 ], [ 155.390582099999989, 49.999864 ], [ 155.390206111695903, 50.0 ], [ 155.393829643175735, 50.0 ], [ 155.3935084, 49.9999131 ] ] ], [ [ [ 155.389191399999987, 49.9999804 ], [ 155.3890908, 49.9999976 ], [ 155.389088075362309, 50.0 ], [ 155.389311358506234, 50.0 ], [ 155.389191399999987, 49.9999804 ] ] ] ] } },
{ "type": "Feature", "properties": { "FID": 672259, "id": 2421, "left": 155.0, "top": 50.0, "right": 160.0, "bottom": 45.0, "row_index": 8, "col_index": 67, "min_lon": 155.0, "min_lat": 45.0, "tile_id": "155_45" }, "geometry": { "type": "MultiPolygon", "coordinates": [ [ [ [ 155.38359220000001, 49.9940672 ], [ 155.383715599999988, 49.9940224 ], [ 155.3836191, 49.9939603 ], [ 155.3833938, 49.9939396 ], [ 155.3831577, 49.9939845 ], [ 155.382857300000012, 49.9940465 ], [ 155.3827393, 49.9941569 ], [ 155.38297, 49.9942086 ], [ 155.3833079, 49.9941948 ], [ 155.38359220000001, 49.9940672 ] ] ] ] } }
]
}
