{
"type": "FeatureCollection",
"name": "155_-60",
"crs": { "type": "name", "properties": { "name": "urn:ogc:def:crs:OGC:1.3:CRS84" } },
"xy_coordinate_resolution": 1e-15,
"features": [
{ "type": "Feature", "properties": { "FID": 533154, "id": 2442, "left": 155.0, "top": -55.0, "right": 160.0, "bottom": -60.0, "row_index": 29, "col_index": 67, "min_lon": 155.0, "min_lat": -60.0, "tile_id": "155_-60" }, "geometry": { "type": "MultiPolygon", "coordinates": [ [ [ [ 158.6862203, -55.1129129 ], [ 158.686244499999987, -55.1129735 ], [ 158.686426899999987, -55.1131637 ], [ 158.6861479, -55.113176 ], [ 158.6858636, -55.1132036 ], [ 158.6856329, -55.1131269 ], [ 158.6856919, -55.1129673 ], [ 158.6858958, -55.1129796 ], [ 158.686105, -55.1129489 ], [ 158.686135900000011, -55.1128753 ], [ 158.6862552, -55.1128446 ], [ 158.6862203, -55.1129129 ] ] ] ] } },
{ "type": "Feature", "properties": { "FID": 533155, "id": 2442, "left": 155.0, "top": -55.0, "right": 160.0, "bottom": -60.0, "row_index": 29, "col_index": 67, "min_lon": 155.0, "min_lat": -60.0, "tile_id": "155_-60" }, "geometry": { "type": "MultiPolygon", "coordinates": [ [ [ [ 158.6855793, -55.1142437 ], [ 158.6863088, -55.1144155 ], [ 158.6860513, -55.1148696 ], [ 158.685193, -55.1157164 ], [ 158.6838841, -55.11579 ], [ 158.682961400000011, -55.1151641 ], [ 158.683218900000014, -55.1147591 ], [ 158.6836266, -55.11444 ], [ 158.6843776, -55.11444 ], [ 158.6855793, -55.1142437 ] ] ] ] } },
{ "type": "Feature", "properties": { "FID": 533156, "id": 2442, "left": 155.0, "top": -55.0, "right": 160.0, "bottom": -60.0, "row_index": 29, "col_index": 67, "min_lon": 155.0, "min_lat": -60.0, "tile_id": "155_-60" }, "geometry": { "type": "MultiPolygon", "coordinates": [ [ [ [ 158.6906218, -55.1129428 ], [ 158.6909437, -55.1134091 ], [ 158.6912012, -55.1139246 ], [ 158.6903858, -55.1144032 ], [ 158.6904073, -55.1150414 ], [ 158.6897635, -55.1155936 ], [ 158.6886477, -55.1154955 ], [ 158.6880255, -55.1149432 ], [ 158.68789670000001, -55.1147714 ], [ 158.6875748, -55.1146119 ], [ 158.688175699999988, -55.1135932 ], [ 158.6885404, -55.1132005 ], [ 158.688991, -55.112906 ], [ 158.689956599999988, -55.1129305 ], [ 158.6906218, -55.1129428 ] ] ] ] } }
]
}
