{
"type": "FeatureCollection",
"name": "15_-20",
"crs": { "type": "name", "properties": { "name": "urn:ogc:def:crs:OGC:1.3:CRS84" } },
"xy_coordinate_resolution": 1e-15,
"features": [
{ "type": "Feature", "properties": { "FID": 660342, "id": 1426, "left": 15.0, "top": -15.0, "right": 20.0, "bottom": -20.0, "row_index": 21, "col_index": 39, "min_lon": 15.0, "min_lat": -20.0, "tile_id": "15_-20" }, "geometry": { "type": "MultiPolygon", "coordinates": [ [ [ [ 20.0, -15.0 ], [ 20.0, -20.0 ], [ 15.0, -20.0 ], [ 15.0, -15.0 ], [ 20.0, -15.0 ] ] ] ] } }
]
}
