{
"type": "FeatureCollection",
"name": "15_-75",
"crs": { "type": "name", "properties": { "name": "urn:ogc:def:crs:OGC:1.3:CRS84" } },
"xy_coordinate_resolution": 1e-15,
"features": [
{ "type": "Feature", "properties": { "FID": 307096, "id": 1437, "left": 15.0, "top": -70.0, "right": 20.0, "bottom": -75.0, "row_index": 32, "col_index": 39, "min_lon": 15.0, "min_lat": -75.0, "tile_id": "15_-75" }, "geometry": { "type": "MultiPolygon", "coordinates": [ [ [ [ 20.0, -70.0 ], [ 20.0, -75.0 ], [ 15.0, -75.0 ], [ 15.0, -70.0 ], [ 20.0, -70.0 ] ] ] ] } }
]
}
