{
"type": "FeatureCollection",
"name": "15_25",
"crs": { "type": "name", "properties": { "name": "urn:ogc:def:crs:OGC:1.3:CRS84" } },
"xy_coordinate_resolution": 1e-15,
"features": [
{ "type": "Feature", "properties": { "FID": 660342, "id": 1417, "left": 15.0, "top": 30.0, "right": 20.0, "bottom": 25.0, "row_index": 12, "col_index": 39, "min_lon": 15.0, "min_lat": 25.0, "tile_id": "15_25" }, "geometry": { "type": "MultiPolygon", "coordinates": [ [ [ [ 20.0, 30.0 ], [ 20.0, 25.0 ], [ 15.0, 25.0 ], [ 15.0, 30.0 ], [ 20.0, 30.0 ] ] ] ] } }
]
}
