{
"type": "FeatureCollection",
"name": "160_10",
"crs": { "type": "name", "properties": { "name": "urn:ogc:def:crs:OGC:1.3:CRS84" } },
"xy_coordinate_resolution": 1e-15,
"features": [
{ "type": "Feature", "properties": { "FID": 90382, "id": 2464, "left": 160.0, "top": 15.0, "right": 165.0, "bottom": 10.0, "row_index": 15, "col_index": 68, "min_lon": 160.0, "min_lat": 10.0, "tile_id": "160_10" }, "geometry": { "type": "MultiPolygon", "coordinates": [ [ [ [ 162.323541400000011, 11.6127159 ], [ 162.323525600000011, 11.6125687 ], [ 162.323428, 11.6124938 ], [ 162.323285700000014, 11.6124783 ], [ 162.322964, 11.6125583 ], [ 162.3224973, 11.6127572 ], [ 162.3219832, 11.6131575 ], [ 162.3216246, 11.613501 ], [ 162.321198399999986, 11.6139306 ], [ 162.3206465, 11.6143361 ], [ 162.3201469, 11.6145716 ], [ 162.3193638, 11.614946 ], [ 162.3186591, 11.6153222 ], [ 162.3180457, 11.6158499 ], [ 162.3176561, 11.6160673 ], [ 162.3169887, 11.6164215 ], [ 162.3165655, 11.6167393 ], [ 162.315886799999987, 11.6173145 ], [ 162.315143, 11.6178222 ], [ 162.314337599999988, 11.6183171 ], [ 162.3140784, 11.6185326 ], [ 162.313998199999986, 11.6187389 ], [ 162.313974, 11.6189581 ], [ 162.313912499999986, 11.6190585 ], [ 162.3136328, 11.6193324 ], [ 162.3131388, 11.6197287 ], [ 162.3122047, 11.6203806 ], [ 162.3117685, 11.6207166 ], [ 162.311140200000011, 11.6210326 ], [ 162.3105511, 11.6214124 ], [ 162.3101297, 11.6216498 ], [ 162.309699099999989, 11.621858 ], [ 162.3094064, 11.6219255 ], [ 162.3091454, 11.6219456 ], [ 162.308953300000013, 11.622057 ], [ 162.308815399999986, 11.6221976 ], [ 162.308573, 11.6225574 ], [ 162.308271, 11.6228915 ], [ 162.3078832, 11.6231929 ], [ 162.3076595, 11.6232933 ], [ 162.307614699999988, 11.6233499 ], [ 162.3075924, 11.6233974 ], [ 162.307624, 11.6234704 ], [ 162.307773200000014, 11.6235782 ], [ 162.3079876, 11.6236713 ], [ 162.308302700000013, 11.6237224 ], [ 162.3086606, 11.6235928 ], [ 162.309067, 11.6233828 ], [ 162.3093523, 11.623107 ], [ 162.3095816, 11.6228587 ], [ 162.309816500000011, 11.6227893 ], [ 162.3105548, 11.6225373 ], [ 162.31138820000001, 11.6223565 ], [ 162.31228680000001, 11.62211 ], [ 162.312909499999989, 11.6219767 ], [ 162.3134445, 11.6219091 ], [ 162.314016900000013, 11.6219109 ], [ 162.314348700000011, 11.6219566 ], [ 162.3146396, 11.622099 ], [ 162.314785, 11.622278 ], [ 162.3150982, 11.6224515 ], [ 162.3156687, 11.6226615 ], [ 162.3160006, 11.6228075 ], [ 162.3166027, 11.6232221 ], [ 162.317052, 11.6235197 ], [ 162.317262699999986, 11.6236603 ], [ 162.3175051, 11.6236932 ], [ 162.3180159, 11.6236476 ], [ 162.3182023, 11.6235672 ], [ 162.3182993, 11.6234229 ], [ 162.3183273, 11.623286 ], [ 162.3182956, 11.6231709 ], [ 162.318217299999986, 11.6230157 ], [ 162.3181856, 11.6228715 ], [ 162.3181882, 11.6225977 ], [ 162.3182328, 11.6221491 ], [ 162.318322099999989, 11.6218306 ], [ 162.318327399999987, 11.6215516 ], [ 162.3183345, 11.6213122 ], [ 162.3183886, 11.6210967 ], [ 162.3184221, 11.6209634 ], [ 162.318610400000011, 11.6205197 ], [ 162.3186216, 11.6203151 ], [ 162.3188271, 11.6197828 ], [ 162.318922, 11.6193928 ], [ 162.3188667, 11.618928 ], [ 162.3187955, 11.6187291 ], [ 162.318668, 11.6185353 ], [ 162.318494, 11.6183829 ], [ 162.31833850000001, 11.6180679 ], [ 162.3181935, 11.6178638 ], [ 162.318177600000013, 11.6176753 ], [ 162.3182093, 11.6172828 ], [ 162.3182567, 11.617102 ], [ 162.318472899999989, 11.6168153 ], [ 162.3188236, 11.6166449 ], [ 162.3192876, 11.6163608 ], [ 162.3194564, 11.6163479 ], [ 162.319604, 11.6164228 ], [ 162.319730600000014, 11.6165932 ], [ 162.3199969, 11.6169367 ], [ 162.320479400000011, 11.6172466 ], [ 162.32068240000001, 11.617448 ], [ 162.320917, 11.6176779 ], [ 162.321186, 11.6177218 ], [ 162.32194, 11.6176237 ], [ 162.3226493, 11.6174842 ], [ 162.3228312, 11.6174842 ], [ 162.3230711, 11.6175643 ], [ 162.3232952, 11.6175849 ], [ 162.323493, 11.6175359 ], [ 162.3236169, 11.6174403 ], [ 162.323643299999986, 11.6172027 ], [ 162.323609, 11.6170038 ], [ 162.323440299999987, 11.6165596 ], [ 162.323440299999987, 11.6162162 ], [ 162.323477200000013, 11.6158468 ], [ 162.3236195, 11.6154388 ], [ 162.323711800000012, 11.6150411 ], [ 162.32373290000001, 11.6148939 ], [ 162.3236775, 11.6146356 ], [ 162.323706499999986, 11.6142766 ], [ 162.3236828, 11.6140933 ], [ 162.3235853, 11.6138273 ], [ 162.323540400000013, 11.6135432 ], [ 162.3235273, 11.6132772 ], [ 162.323541400000011, 11.6127159 ] ] ] ] } },
{ "type": "Feature", "properties": { "FID": 90384, "id": 2464, "left": 160.0, "top": 15.0, "right": 165.0, "bottom": 10.0, "row_index": 15, "col_index": 68, "min_lon": 160.0, "min_lat": 10.0, "tile_id": "160_10" }, "geometry": { "type": "MultiPolygon", "coordinates": [ [ [ [ 162.1743003, 11.3628507 ], [ 162.174162200000012, 11.3628361 ], [ 162.173947700000014, 11.362847 ], [ 162.1736474, 11.3629714 ], [ 162.1732725, 11.3632749 ], [ 162.17297, 11.3635666 ], [ 162.1725687, 11.3639217 ], [ 162.1724391, 11.3641522 ], [ 162.1723582, 11.3644084 ], [ 162.1723872, 11.3646024 ], [ 162.172475600000013, 11.3647227 ], [ 162.172643099999988, 11.3648158 ], [ 162.1727921, 11.3648404 ], [ 162.1730401, 11.364777 ], [ 162.1732883, 11.3646524 ], [ 162.1737341, 11.3643783 ], [ 162.1742643, 11.3638274 ], [ 162.1745703, 11.3633878 ], [ 162.1746362, 11.3632275 ], [ 162.1746362, 11.3631292 ], [ 162.174541299999987, 11.363018 ], [ 162.1744243, 11.3629145 ], [ 162.1743003, 11.3628507 ] ] ] ] } },
{ "type": "Feature", "properties": { "FID": 90386, "id": 2464, "left": 160.0, "top": 15.0, "right": 165.0, "bottom": 10.0, "row_index": 15, "col_index": 68, "min_lon": 160.0, "min_lat": 10.0, "tile_id": "160_10" }, "geometry": { "type": "MultiPolygon", "coordinates": [ [ [ [ 162.3841706, 11.4217941 ], [ 162.3838313, 11.4216479 ], [ 162.383611300000013, 11.4215675 ], [ 162.3831974, 11.4215419 ], [ 162.382906600000013, 11.4215529 ], [ 162.3824368, 11.4217868 ], [ 162.3821907, 11.421922 ], [ 162.3819968, 11.4219293 ], [ 162.381724600000013, 11.4220097 ], [ 162.38145990000001, 11.4222509 ], [ 162.3811653, 11.422642 ], [ 162.380863299999987, 11.4230623 ], [ 162.3805985, 11.4232341 ], [ 162.3799386, 11.4235923 ], [ 162.3797596, 11.4236873 ], [ 162.3796328, 11.4238737 ], [ 162.3796216, 11.4241149 ], [ 162.3799348, 11.4246997 ], [ 162.3801958, 11.4250944 ], [ 162.3804941, 11.4259423 ], [ 162.381019900000013, 11.4266294 ], [ 162.3813927, 11.4270314 ], [ 162.3815605, 11.4272726 ], [ 162.3822168, 11.4279342 ], [ 162.3824741, 11.4280767 ], [ 162.382832, 11.4281352 ], [ 162.3831639, 11.4281279 ], [ 162.383611300000013, 11.4279597 ], [ 162.38385, 11.4276345 ], [ 162.3840662, 11.4272178 ], [ 162.3843123, 11.4266952 ], [ 162.38461430000001, 11.4261981 ], [ 162.3849909, 11.4258034 ], [ 162.3853116, 11.4255914 ], [ 162.3856285, 11.4252662 ], [ 162.385766499999988, 11.4248568 ], [ 162.385774, 11.4244913 ], [ 162.385718, 11.4240528 ], [ 162.3856285, 11.4237129 ], [ 162.3852296, 11.4230513 ], [ 162.3847299, 11.4222984 ], [ 162.384424200000012, 11.4219805 ], [ 162.3841706, 11.4217941 ] ] ] ] } },
{ "type": "Feature", "properties": { "FID": 90387, "id": 2464, "left": 160.0, "top": 15.0, "right": 165.0, "bottom": 10.0, "row_index": 15, "col_index": 68, "min_lon": 160.0, "min_lat": 10.0, "tile_id": "160_10" }, "geometry": { "type": "MultiPolygon", "coordinates": [ [ [ [ 162.2483373, 11.6491598 ], [ 162.248147100000011, 11.6491964 ], [ 162.2478524, 11.6494265 ], [ 162.247703199999989, 11.6494996 ], [ 162.247304, 11.6496421 ], [ 162.2470652, 11.6498321 ], [ 162.2466101, 11.6502925 ], [ 162.2462595, 11.650877 ], [ 162.2460273, 11.6512576 ], [ 162.245855, 11.6514667 ], [ 162.2458402, 11.6516806 ], [ 162.2461098, 11.6521106 ], [ 162.2463314, 11.6522677 ], [ 162.2465846, 11.6521234 ], [ 162.2468594, 11.6521456 ], [ 162.2470578, 11.6521996 ], [ 162.2472965, 11.6522471 ], [ 162.2475502, 11.6521521 ], [ 162.248091100000011, 11.6518927 ], [ 162.2482963, 11.651626 ], [ 162.248505200000011, 11.6513483 ], [ 162.248635799999988, 11.6510488 ], [ 162.2486768, 11.6507528 ], [ 162.2486432, 11.6502925 ], [ 162.2486745, 11.6498862 ], [ 162.2487797, 11.6495586 ], [ 162.2491272, 11.6491065 ], [ 162.2486135, 11.6490447 ], [ 162.2483373, 11.6491598 ] ] ] ] } },
{ "type": "Feature", "properties": { "FID": 90393, "id": 2464, "left": 160.0, "top": 15.0, "right": 165.0, "bottom": 10.0, "row_index": 15, "col_index": 68, "min_lon": 160.0, "min_lat": 10.0, "tile_id": "160_10" }, "geometry": { "type": "MultiPolygon", "coordinates": [ [ [ [ 162.350712499999986, 11.3629485 ], [ 162.3506123, 11.3629614 ], [ 162.350433, 11.3630519 ], [ 162.3501746, 11.3631682 ], [ 162.3499294, 11.3631941 ], [ 162.349668400000013, 11.3631553 ], [ 162.3494153, 11.3630338 ], [ 162.349288699999988, 11.3629485 ], [ 162.3492149, 11.3629175 ], [ 162.349180600000011, 11.3629227 ], [ 162.349154199999987, 11.3629718 ], [ 162.349207, 11.363132 ], [ 162.3492544, 11.3632509 ], [ 162.3493388, 11.363406 ], [ 162.349594599999989, 11.3635715 ], [ 162.3500612, 11.3638222 ], [ 162.3504409, 11.3640652 ], [ 162.3507731, 11.3643133 ], [ 162.350936600000011, 11.364409 ], [ 162.351044699999989, 11.3644219 ], [ 162.3511317, 11.3643754 ], [ 162.3512002, 11.3642384 ], [ 162.351253, 11.3639618 ], [ 162.3513241, 11.3637912 ], [ 162.3513953, 11.3636258 ], [ 162.3514032, 11.3634164 ], [ 162.3513347, 11.3632458 ], [ 162.35113960000001, 11.3631269 ], [ 162.350839, 11.3629692 ], [ 162.350712499999986, 11.3629485 ] ] ] ] } },
{ "type": "Feature", "properties": { "FID": 90394, "id": 2464, "left": 160.0, "top": 15.0, "right": 165.0, "bottom": 10.0, "row_index": 15, "col_index": 68, "min_lon": 160.0, "min_lat": 10.0, "tile_id": "160_10" }, "geometry": { "type": "MultiPolygon", "coordinates": [ [ [ [ 162.156656700000013, 11.647267 ], [ 162.1561494, 11.6468907 ], [ 162.155269, 11.6464669 ], [ 162.1544297, 11.6462148 ], [ 162.1541834, 11.6462404 ], [ 162.1540305, 11.6467738 ], [ 162.153941, 11.6473803 ], [ 162.1539559, 11.6477712 ], [ 162.154176, 11.6483266 ], [ 162.1546423, 11.6488381 ], [ 162.1552637, 11.6492409 ], [ 162.1558334, 11.6495561 ], [ 162.15631350000001, 11.6496594 ], [ 162.157110100000011, 11.6496129 ], [ 162.1575638, 11.6496129 ], [ 162.158102, 11.6499126 ], [ 162.1585135, 11.6501658 ], [ 162.1588195, 11.6502019 ], [ 162.1589725, 11.6501554 ], [ 162.1590147, 11.6500469 ], [ 162.158983, 11.6498919 ], [ 162.1585662, 11.6495199 ], [ 162.157890900000012, 11.6488637 ], [ 162.157395, 11.6482901 ], [ 162.1571154, 11.6478096 ], [ 162.156878, 11.6475409 ], [ 162.156656700000013, 11.647267 ] ] ] ] } },
{ "type": "Feature", "properties": { "FID": 90401, "id": 2464, "left": 160.0, "top": 15.0, "right": 165.0, "bottom": 10.0, "row_index": 15, "col_index": 68, "min_lon": 160.0, "min_lat": 10.0, "tile_id": "160_10" }, "geometry": { "type": "MultiPolygon", "coordinates": [ [ [ [ 162.3667505, 11.4225671 ], [ 162.3664552, 11.4225568 ], [ 162.3662074, 11.4226059 ], [ 162.3660888, 11.4226808 ], [ 162.365946400000013, 11.4230814 ], [ 162.3658409, 11.423407 ], [ 162.3657987, 11.4239161 ], [ 162.3657856, 11.424066 ], [ 162.3657117, 11.4242159 ], [ 162.3653189, 11.4246682 ], [ 162.3651343, 11.4249085 ], [ 162.365073700000011, 11.4251204 ], [ 162.36512110000001, 11.4252832 ], [ 162.365250300000014, 11.4252574 ], [ 162.3654876, 11.424924 ], [ 162.365732799999989, 11.4246733 ], [ 162.3658673, 11.4245338 ], [ 162.366094, 11.4239471 ], [ 162.366310199999987, 11.4235285 ], [ 162.3666345, 11.4231873 ], [ 162.366953599999988, 11.4229702 ], [ 162.367291, 11.4229651 ], [ 162.3676786, 11.4229987 ], [ 162.3679607, 11.422947 ], [ 162.3680741, 11.422841 ], [ 162.3681479, 11.4226446 ], [ 162.3681005, 11.4225232 ], [ 162.3678579, 11.4224921 ], [ 162.367515200000014, 11.4225335 ], [ 162.3672884, 11.4225335 ], [ 162.3669984, 11.4225542 ], [ 162.3667505, 11.4225671 ] ] ] ] } },
{ "type": "Feature", "properties": { "FID": 90402, "id": 2464, "left": 160.0, "top": 15.0, "right": 165.0, "bottom": 10.0, "row_index": 15, "col_index": 68, "min_lon": 160.0, "min_lat": 10.0, "tile_id": "160_10" }, "geometry": { "type": "MultiPolygon", "coordinates": [ [ [ [ 162.2544203, 11.6441496 ], [ 162.2542487, 11.6441533 ], [ 162.25390920000001, 11.644219 ], [ 162.2535026, 11.6444017 ], [ 162.253159399999987, 11.6445954 ], [ 162.2528236, 11.6448511 ], [ 162.2523014, 11.6454065 ], [ 162.2518164, 11.6458815 ], [ 162.251413500000012, 11.6461738 ], [ 162.2511113, 11.6465282 ], [ 162.2510144, 11.6467401 ], [ 162.2509696, 11.6469922 ], [ 162.2510591, 11.6472662 ], [ 162.2512606, 11.6473685 ], [ 162.2516224, 11.647405 ], [ 162.252096200000011, 11.6473795 ], [ 162.2527229, 11.6474562 ], [ 162.2531706, 11.6472881 ], [ 162.2534466, 11.6470799 ], [ 162.2537189, 11.646583 ], [ 162.2538831, 11.6462541 ], [ 162.254106900000011, 11.6456513 ], [ 162.2543643, 11.6450082 ], [ 162.2545508, 11.6445954 ], [ 162.254562, 11.6443652 ], [ 162.2544911, 11.6441825 ], [ 162.2544203, 11.6441496 ] ] ] ] } },
{ "type": "Feature", "properties": { "FID": 90404, "id": 2464, "left": 160.0, "top": 15.0, "right": 165.0, "bottom": 10.0, "row_index": 15, "col_index": 68, "min_lon": 160.0, "min_lat": 10.0, "tile_id": "160_10" }, "geometry": { "type": "MultiPolygon", "coordinates": [ [ [ [ 162.3036625, 11.6240452 ], [ 162.303416, 11.6242286 ], [ 162.3032776, 11.624368 ], [ 162.303285499999987, 11.624492 ], [ 162.3033158, 11.6245423 ], [ 162.3035768, 11.6245565 ], [ 162.3038603, 11.6245372 ], [ 162.3039235, 11.6245062 ], [ 162.3039723, 11.6244016 ], [ 162.3040303, 11.6243383 ], [ 162.304232, 11.6242092 ], [ 162.304329599999988, 11.6241279 ], [ 162.3043849, 11.624022 ], [ 162.3043902, 11.6239367 ], [ 162.3043638, 11.6238593 ], [ 162.304275499999989, 11.6238309 ], [ 162.3040461, 11.6238657 ], [ 162.3039559, 11.6239043 ], [ 162.3036625, 11.6240452 ] ] ] ] } },
{ "type": "Feature", "properties": { "FID": 90411, "id": 2464, "left": 160.0, "top": 15.0, "right": 165.0, "bottom": 10.0, "row_index": 15, "col_index": 68, "min_lon": 160.0, "min_lat": 10.0, "tile_id": "160_10" }, "geometry": { "type": "MultiPolygon", "coordinates": [ [ [ [ 162.3906258, 11.4780145 ], [ 162.390558700000014, 11.4779962 ], [ 162.3904785, 11.4780327 ], [ 162.3903331, 11.4785571 ], [ 162.3902909, 11.4790367 ], [ 162.3901459, 11.4794475 ], [ 162.3900009, 11.4797679 ], [ 162.3900299, 11.4798377 ], [ 162.3901749, 11.4798377 ], [ 162.390327899999988, 11.4796465 ], [ 162.3905019, 11.4794604 ], [ 162.390697, 11.4792615 ], [ 162.3908051, 11.4788817 ], [ 162.3908499, 11.4785587 ], [ 162.3908156, 11.4783235 ], [ 162.390702299999987, 11.4781065 ], [ 162.3906258, 11.4780145 ] ] ] ] } },
{ "type": "Feature", "properties": { "FID": 90417, "id": 2464, "left": 160.0, "top": 15.0, "right": 165.0, "bottom": 10.0, "row_index": 15, "col_index": 68, "min_lon": 160.0, "min_lat": 10.0, "tile_id": "160_10" }, "geometry": { "type": "MultiPolygon", "coordinates": [ [ [ [ 162.1447072, 11.6410496 ], [ 162.144408700000014, 11.6410934 ], [ 162.1438119, 11.6409473 ], [ 162.1432001, 11.6406842 ], [ 162.142883, 11.6406038 ], [ 162.142756100000014, 11.640655 ], [ 162.142703899999987, 11.6408925 ], [ 162.1427972, 11.6412944 ], [ 162.143293300000011, 11.6420763 ], [ 162.1436328, 11.6424124 ], [ 162.1438044, 11.6425403 ], [ 162.14417370000001, 11.6425549 ], [ 162.1445617, 11.6424563 ], [ 162.1449608, 11.642427 ], [ 162.1453563, 11.6425549 ], [ 162.1458673, 11.6428362 ], [ 162.146274, 11.6430408 ], [ 162.1467515, 11.6430555 ], [ 162.147143199999988, 11.6429532 ], [ 162.147568400000011, 11.6427449 ], [ 162.1478967, 11.6426937 ], [ 162.148344400000013, 11.6427851 ], [ 162.148862900000012, 11.6430701 ], [ 162.148937499999988, 11.6431285 ], [ 162.149008400000014, 11.6431395 ], [ 162.148993499999989, 11.6430555 ], [ 162.148598, 11.6427084 ], [ 162.148378, 11.6425257 ], [ 162.147878100000014, 11.6422553 ], [ 162.1472551, 11.6419301 ], [ 162.1462702, 11.6415501 ], [ 162.1455129, 11.6412359 ], [ 162.1451026, 11.6411482 ], [ 162.1447072, 11.6410496 ] ] ] ] } },
{ "type": "Feature", "properties": { "FID": 90419, "id": 2464, "left": 160.0, "top": 15.0, "right": 165.0, "bottom": 10.0, "row_index": 15, "col_index": 68, "min_lon": 160.0, "min_lat": 10.0, "tile_id": "160_10" }, "geometry": { "type": "MultiPolygon", "coordinates": [ [ [ [ 162.328111, 11.5880688 ], [ 162.3281608, 11.5887204 ], [ 162.32869310000001, 11.5894936 ], [ 162.3289628, 11.5901395 ], [ 162.3289469, 11.5908983 ], [ 162.328818899999987, 11.5910691 ], [ 162.3287726, 11.5912851 ], [ 162.3288377, 11.5915206 ], [ 162.3289622, 11.5915946 ], [ 162.329139, 11.5916196 ], [ 162.3296761, 11.5913513 ], [ 162.3307998, 11.5910849 ], [ 162.3311248, 11.5908975 ], [ 162.3311582, 11.5907381 ], [ 162.331160899999986, 11.5905798 ], [ 162.3310591, 11.5904195 ], [ 162.330713, 11.5902353 ], [ 162.329875500000014, 11.5897354 ], [ 162.329077, 11.5878915 ], [ 162.3286932, 11.587446 ], [ 162.3284947, 11.5874222 ], [ 162.328278899999987, 11.5875417 ], [ 162.328111, 11.5880688 ] ] ] ] } },
{ "type": "Feature", "properties": { "FID": 90422, "id": 2464, "left": 160.0, "top": 15.0, "right": 165.0, "bottom": 10.0, "row_index": 15, "col_index": 68, "min_lon": 160.0, "min_lat": 10.0, "tile_id": "160_10" }, "geometry": { "type": "MultiPolygon", "coordinates": [ [ [ [ 162.3850831, 11.4917701 ], [ 162.385092500000013, 11.491569 ], [ 162.385085800000013, 11.4915125 ], [ 162.3850737, 11.491477 ], [ 162.385052300000012, 11.491435 ], [ 162.384916800000013, 11.4912615 ], [ 162.3848873, 11.4912036 ], [ 162.3848538, 11.4911222 ], [ 162.3848256, 11.4908725 ], [ 162.38484170000001, 11.4906175 ], [ 162.3848793, 11.4903652 ], [ 162.3848873, 11.4902784 ], [ 162.384903400000013, 11.4901864 ], [ 162.3849463, 11.4900156 ], [ 162.3849839, 11.4899262 ], [ 162.3850107, 11.4898789 ], [ 162.3850778, 11.4897738 ], [ 162.3851636, 11.4896923 ], [ 162.385214600000012, 11.4896555 ], [ 162.385303099999987, 11.4896082 ], [ 162.38542910000001, 11.489553 ], [ 162.3855284, 11.4895188 ], [ 162.3855472, 11.4895057 ], [ 162.3855633, 11.4894846 ], [ 162.3855633, 11.4894636 ], [ 162.3855445, 11.4894005 ], [ 162.385515, 11.4893453 ], [ 162.385490800000014, 11.4893138 ], [ 162.3854426, 11.4892717 ], [ 162.3853782, 11.4892297 ], [ 162.3853326, 11.4892113 ], [ 162.3853138, 11.4892087 ], [ 162.3852655, 11.4892139 ], [ 162.3852307, 11.4892376 ], [ 162.385174299999989, 11.4893112 ], [ 162.3851529, 11.4893506 ], [ 162.3850965, 11.4894242 ], [ 162.3850778, 11.4894426 ], [ 162.385067, 11.4894636 ], [ 162.38502410000001, 11.4895136 ], [ 162.3849866, 11.4895425 ], [ 162.3849195, 11.4896108 ], [ 162.3848659, 11.4896897 ], [ 162.3848256, 11.4897685 ], [ 162.384782699999988, 11.4898737 ], [ 162.3847264, 11.4899578 ], [ 162.3846969, 11.4900156 ], [ 162.384654, 11.490076 ], [ 162.3846352, 11.4900944 ], [ 162.3845628, 11.4902101 ], [ 162.384546699999987, 11.4902548 ], [ 162.384511800000013, 11.4904598 ], [ 162.3845011, 11.4905439 ], [ 162.384478300000012, 11.4906241 ], [ 162.38443, 11.490745 ], [ 162.384422, 11.4907844 ], [ 162.3843871, 11.4908738 ], [ 162.384317399999986, 11.4909999 ], [ 162.384275800000012, 11.4911077 ], [ 162.3841591, 11.4913508 ], [ 162.384139, 11.4914126 ], [ 162.3841242, 11.4914415 ], [ 162.3841028, 11.4915007 ], [ 162.3840787, 11.4915848 ], [ 162.3840438, 11.4916295 ], [ 162.383915, 11.4917425 ], [ 162.3838694, 11.4918042 ], [ 162.3838533, 11.4918358 ], [ 162.3838024, 11.491983 ], [ 162.3837461, 11.492075 ], [ 162.3837072, 11.4921617 ], [ 162.3836401, 11.4922905 ], [ 162.3835999, 11.4924272 ], [ 162.3835798, 11.4924706 ], [ 162.383534200000014, 11.4925126 ], [ 162.3834819, 11.4925428 ], [ 162.383412099999987, 11.492577 ], [ 162.383357100000012, 11.4926269 ], [ 162.3833156, 11.4926729 ], [ 162.3832391, 11.492736 ], [ 162.3831841, 11.4927636 ], [ 162.3831667, 11.4927768 ], [ 162.383156, 11.4927952 ], [ 162.383168, 11.4928136 ], [ 162.3832525, 11.4928504 ], [ 162.383350400000012, 11.4928661 ], [ 162.3834497, 11.4928635 ], [ 162.383479200000011, 11.4928556 ], [ 162.3835033, 11.4928412 ], [ 162.383532800000012, 11.4928162 ], [ 162.3835771, 11.4927676 ], [ 162.3836119, 11.4927373 ], [ 162.3836535, 11.4927084 ], [ 162.3837098, 11.4926795 ], [ 162.3837461, 11.4926769 ], [ 162.383890900000011, 11.4926808 ], [ 162.3839499, 11.4926913 ], [ 162.3840652, 11.4927019 ], [ 162.384168499999987, 11.492694 ], [ 162.384282500000012, 11.4926979 ], [ 162.3843616, 11.4926821 ], [ 162.3845226, 11.4926283 ], [ 162.3846245, 11.4925665 ], [ 162.384827, 11.492489 ], [ 162.384876600000013, 11.4924653 ], [ 162.3849061, 11.4924443 ], [ 162.3849758, 11.4923549 ], [ 162.385005400000011, 11.4922971 ], [ 162.3850335, 11.4921946 ], [ 162.385052300000012, 11.4920815 ], [ 162.3850831, 11.4917701 ] ] ] ] } },
{ "type": "Feature", "properties": { "FID": 90463, "id": 2464, "left": 160.0, "top": 15.0, "right": 165.0, "bottom": 10.0, "row_index": 15, "col_index": 68, "min_lon": 160.0, "min_lat": 10.0, "tile_id": "160_10" }, "geometry": { "type": "MultiPolygon", "coordinates": [ [ [ [ 162.19110950000001, 11.3536805 ], [ 162.191033, 11.3536132 ], [ 162.1908194, 11.3535848 ], [ 162.190389399999987, 11.3536107 ], [ 162.190167800000012, 11.3536236 ], [ 162.1898223, 11.3536184 ], [ 162.189453, 11.3537115 ], [ 162.1888753, 11.3540296 ], [ 162.18848220000001, 11.3541486 ], [ 162.1877041, 11.3545158 ], [ 162.1872425, 11.3547589 ], [ 162.1868389, 11.3549969 ], [ 162.18622160000001, 11.3551908 ], [ 162.1858655, 11.3555193 ], [ 162.185694, 11.3558219 ], [ 162.18569930000001, 11.3559822 ], [ 162.185812700000014, 11.3561089 ], [ 162.186071199999986, 11.3562357 ], [ 162.186416799999989, 11.3563701 ], [ 162.1868178, 11.3564736 ], [ 162.186954899999989, 11.3564426 ], [ 162.1873031, 11.3561632 ], [ 162.1878228, 11.3557469 ], [ 162.188424199999986, 11.3555193 ], [ 162.1889333, 11.3552839 ], [ 162.189210300000013, 11.3551882 ], [ 162.1894609, 11.3551184 ], [ 162.1901441, 11.3547589 ], [ 162.1907745, 11.3542469 ], [ 162.1910805, 11.3539158 ], [ 162.1911174, 11.3537917 ], [ 162.19110950000001, 11.3536805 ] ] ] ] } },
{ "type": "Feature", "properties": { "FID": 90471, "id": 2464, "left": 160.0, "top": 15.0, "right": 165.0, "bottom": 10.0, "row_index": 15, "col_index": 68, "min_lon": 160.0, "min_lat": 10.0, "tile_id": "160_10" }, "geometry": { "type": "MultiPolygon", "coordinates": [ [ [ [ 162.271643899999987, 11.6347031 ], [ 162.27142, 11.6346811 ], [ 162.2710395, 11.6347286 ], [ 162.270614200000011, 11.6348419 ], [ 162.269379500000014, 11.635284 ], [ 162.268611, 11.6356384 ], [ 162.2681596, 11.635865 ], [ 162.2680066, 11.6359965 ], [ 162.267961899999989, 11.6361682 ], [ 162.2680738, 11.6362961 ], [ 162.2682566, 11.6363802 ], [ 162.2685811, 11.6364715 ], [ 162.2689355, 11.6364605 ], [ 162.2693832, 11.6363217 ], [ 162.269939, 11.6362048 ], [ 162.27023, 11.6361134 ], [ 162.2707411, 11.6357809 ], [ 162.2711328, 11.6354265 ], [ 162.271494600000011, 11.6351452 ], [ 162.271655, 11.6349186 ], [ 162.271733399999988, 11.6347761 ], [ 162.271643899999987, 11.6347031 ] ] ] ] } },
{ "type": "Feature", "properties": { "FID": 90499, "id": 2464, "left": 160.0, "top": 15.0, "right": 165.0, "bottom": 10.0, "row_index": 15, "col_index": 68, "min_lon": 160.0, "min_lat": 10.0, "tile_id": "160_10" }, "geometry": { "type": "MultiPolygon", "coordinates": [ [ [ [ 162.3674792, 11.3903952 ], [ 162.367192100000011, 11.3898944 ], [ 162.3669423, 11.3895728 ], [ 162.366610400000013, 11.3891634 ], [ 162.3663755, 11.3887723 ], [ 162.36604, 11.3885785 ], [ 162.365868400000011, 11.3885237 ], [ 162.365641, 11.3886041 ], [ 162.3655925, 11.3887028 ], [ 162.3657006, 11.3888856 ], [ 162.3660772, 11.3895216 ], [ 162.3665284, 11.3909508 ], [ 162.3669721, 11.3925445 ], [ 162.3674009, 11.3934254 ], [ 162.3676102, 11.3945621 ], [ 162.3676629, 11.3963351 ], [ 162.3677103, 11.3983666 ], [ 162.3677208, 11.3998063 ], [ 162.3680215, 11.4010494 ], [ 162.368312, 11.4027335 ], [ 162.3685207, 11.40361 ], [ 162.3685334, 11.4043299 ], [ 162.3685739, 11.4045115 ], [ 162.3687357, 11.4050687 ], [ 162.368625400000013, 11.4061711 ], [ 162.3685695, 11.4064379 ], [ 162.3686664, 11.407052 ], [ 162.3687605, 11.4076461 ], [ 162.36912670000001, 11.4079782 ], [ 162.369470400000012, 11.4085143 ], [ 162.3700302, 11.4089145 ], [ 162.3701964, 11.4091058 ], [ 162.3704658, 11.4095044 ], [ 162.370738499999987, 11.4096214 ], [ 162.3710321, 11.4096989 ], [ 162.371196700000013, 11.4097875 ], [ 162.3714532, 11.4102508 ], [ 162.3716614, 11.4104691 ], [ 162.371867900000012, 11.4105545 ], [ 162.3724277, 11.4104643 ], [ 162.372667299999989, 11.4102794 ], [ 162.373117799999989, 11.4098852 ], [ 162.373528599999986, 11.4095411 ], [ 162.3737859, 11.4093437 ], [ 162.3739462, 11.4090769 ], [ 162.374032, 11.4087333 ], [ 162.37395, 11.4083751 ], [ 162.3738344, 11.4081375 ], [ 162.3737188, 11.4078488 ], [ 162.373722500000014, 11.4075966 ], [ 162.373793400000011, 11.40684 ], [ 162.373774700000013, 11.4065257 ], [ 162.37359570000001, 11.4060432 ], [ 162.3732937, 11.4052537 ], [ 162.3730103, 11.4040548 ], [ 162.3728276, 11.4036235 ], [ 162.3725741, 11.4024831 ], [ 162.3723765, 11.4018143 ], [ 162.372171400000013, 11.4007689 ], [ 162.3718656, 11.399793 ], [ 162.3715823, 11.3987842 ], [ 162.3713511, 11.3979764 ], [ 162.3711385, 11.3971467 ], [ 162.3707209, 11.396072 ], [ 162.370404, 11.3951363 ], [ 162.3700162, 11.3943212 ], [ 162.369561299999987, 11.393528 ], [ 162.3690766, 11.3926215 ], [ 162.3687969, 11.3922012 ], [ 162.368431500000014, 11.3914592 ], [ 162.3681556, 11.3909657 ], [ 162.367864700000013, 11.3907025 ], [ 162.3674792, 11.3903952 ] ] ] ] } },
{ "type": "Feature", "properties": { "FID": 90504, "id": 2464, "left": 160.0, "top": 15.0, "right": 165.0, "bottom": 10.0, "row_index": 15, "col_index": 68, "min_lon": 160.0, "min_lat": 10.0, "tile_id": "160_10" }, "geometry": { "type": "MultiPolygon", "coordinates": [ [ [ [ 162.28101860000001, 11.6311039 ], [ 162.280878800000011, 11.6311039 ], [ 162.280749500000013, 11.6311323 ], [ 162.280367, 11.6313339 ], [ 162.2800478, 11.6315328 ], [ 162.2797076, 11.6317705 ], [ 162.279203700000011, 11.6320625 ], [ 162.278628700000013, 11.6323441 ], [ 162.2780404, 11.6325017 ], [ 162.27736250000001, 11.6325947 ], [ 162.27719110000001, 11.6326851 ], [ 162.2771277, 11.6328376 ], [ 162.2771462, 11.6329254 ], [ 162.2772438, 11.6329874 ], [ 162.2773493, 11.6330313 ], [ 162.2775393, 11.6330365 ], [ 162.2778743, 11.63299 ], [ 162.278209299999986, 11.6329693 ], [ 162.27882120000001, 11.6329771 ], [ 162.2796812, 11.6327291 ], [ 162.280586, 11.632326 ], [ 162.2809948, 11.6320676 ], [ 162.2811874, 11.6318454 ], [ 162.281277100000011, 11.6315819 ], [ 162.2813404, 11.6313442 ], [ 162.2813219, 11.6312383 ], [ 162.2811979, 11.6311453 ], [ 162.28101860000001, 11.6311039 ] ] ] ] } },
{ "type": "Feature", "properties": { "FID": 90509, "id": 2464, "left": 160.0, "top": 15.0, "right": 165.0, "bottom": 10.0, "row_index": 15, "col_index": 68, "min_lon": 160.0, "min_lat": 10.0, "tile_id": "160_10" }, "geometry": { "type": "MultiPolygon", "coordinates": [ [ [ [ 162.222431699999987, 11.3449844 ], [ 162.2226038, 11.3450441 ], [ 162.2227791, 11.3450112 ], [ 162.2230738, 11.3448137 ], [ 162.2235364, 11.3446491 ], [ 162.2240102, 11.3445686 ], [ 162.224424199999987, 11.344543 ], [ 162.224909200000013, 11.3443638 ], [ 162.2254911, 11.3442321 ], [ 162.225812, 11.3442321 ], [ 162.2261067, 11.3443235 ], [ 162.2263902, 11.3443674 ], [ 162.2265842, 11.3443382 ], [ 162.2267707, 11.3441882 ], [ 162.2269087, 11.3439614 ], [ 162.2272743, 11.3437566 ], [ 162.2276175, 11.343753 ], [ 162.227819, 11.3436944 ], [ 162.2280838, 11.3435445 ], [ 162.2283002, 11.3432226 ], [ 162.2285464, 11.3428898 ], [ 162.2286844, 11.3427069 ], [ 162.228736700000013, 11.3425277 ], [ 162.2285762, 11.3423082 ], [ 162.228307699999988, 11.3421875 ], [ 162.2278786, 11.3422277 ], [ 162.2274011, 11.3423923 ], [ 162.226919900000013, 11.3424472 ], [ 162.2256366, 11.3426191 ], [ 162.2248682, 11.3428788 ], [ 162.2237565, 11.3430543 ], [ 162.2230638, 11.3432443 ], [ 162.2227341, 11.343402 ], [ 162.222478200000012, 11.3437072 ], [ 162.2222777, 11.344165 ], [ 162.222140599999989, 11.3442814 ], [ 162.2218135, 11.3443926 ], [ 162.221394, 11.3444107 ], [ 162.2210696, 11.3443331 ], [ 162.220874400000014, 11.3441908 ], [ 162.220718799999986, 11.3440279 ], [ 162.2204286, 11.3439814 ], [ 162.2200013, 11.3440176 ], [ 162.2193629, 11.34424 ], [ 162.2190358, 11.3442865 ], [ 162.218774700000012, 11.3444184 ], [ 162.218634900000012, 11.3445788 ], [ 162.2184581, 11.3449305 ], [ 162.2183315, 11.3451012 ], [ 162.2182075, 11.345215 ], [ 162.2181943, 11.3452771 ], [ 162.2182497, 11.3453262 ], [ 162.218510900000012, 11.345528 ], [ 162.2188353, 11.3457012 ], [ 162.2189382, 11.3457297 ], [ 162.2190939, 11.345678 ], [ 162.2197507, 11.3453831 ], [ 162.220528800000011, 11.3450521 ], [ 162.2210749, 11.3447288 ], [ 162.2214046, 11.3446098 ], [ 162.2217595, 11.3445163 ], [ 162.221936199999988, 11.3445111 ], [ 162.222065500000014, 11.3445551 ], [ 162.2222343, 11.3447025 ], [ 162.2223266, 11.3448758 ], [ 162.222431699999987, 11.3449844 ] ] ] ] } },
{ "type": "Feature", "properties": { "FID": 90517, "id": 2464, "left": 160.0, "top": 15.0, "right": 165.0, "bottom": 10.0, "row_index": 15, "col_index": 68, "min_lon": 160.0, "min_lat": 10.0, "tile_id": "160_10" }, "geometry": { "type": "MultiPolygon", "coordinates": [ [ [ [ 162.275252, 11.6342811 ], [ 162.2750265, 11.6343658 ], [ 162.274770600000011, 11.6345389 ], [ 162.2746598, 11.6346578 ], [ 162.274625500000013, 11.6347766 ], [ 162.274673, 11.6348722 ], [ 162.274889300000012, 11.6349911 ], [ 162.2752006, 11.6351177 ], [ 162.2753641, 11.6351306 ], [ 162.2754433, 11.6351047 ], [ 162.2755831, 11.6349316 ], [ 162.2756991, 11.6347534 ], [ 162.2757809, 11.6346268 ], [ 162.275802, 11.6344769 ], [ 162.275767699999989, 11.6343762 ], [ 162.275654300000014, 11.6343245 ], [ 162.2754697, 11.6342935 ], [ 162.275252, 11.6342811 ] ] ] ] } },
{ "type": "Feature", "properties": { "FID": 90528, "id": 2464, "left": 160.0, "top": 15.0, "right": 165.0, "bottom": 10.0, "row_index": 15, "col_index": 68, "min_lon": 160.0, "min_lat": 10.0, "tile_id": "160_10" }, "geometry": { "type": "MultiPolygon", "coordinates": [ [ [ [ 162.3210402, 11.3360852 ], [ 162.3201042, 11.3359311 ], [ 162.3194272, 11.3358932 ], [ 162.318781800000011, 11.3357877 ], [ 162.3183623, 11.3356772 ], [ 162.3175893, 11.3357519 ], [ 162.3173185, 11.3364778 ], [ 162.3175521, 11.3373264 ], [ 162.318254700000011, 11.3385257 ], [ 162.318297, 11.3389384 ], [ 162.3190129, 11.3398158 ], [ 162.319400300000012, 11.3408893 ], [ 162.3195715, 11.341231 ], [ 162.319624, 11.3416061 ], [ 162.3197088, 11.3416742 ], [ 162.3197203, 11.3417752 ], [ 162.319912, 11.3417949 ], [ 162.3201008, 11.3419295 ], [ 162.320597, 11.341996 ], [ 162.3210564, 11.3422521 ], [ 162.3215639, 11.3426238 ], [ 162.3218559, 11.3424023 ], [ 162.3218905, 11.3423297 ], [ 162.3223501, 11.3423782 ], [ 162.322508, 11.3423515 ], [ 162.322829, 11.3423719 ], [ 162.323131100000012, 11.3425156 ], [ 162.323435499999988, 11.3425964 ], [ 162.323755299999988, 11.3427936 ], [ 162.323916200000014, 11.3429195 ], [ 162.3242219, 11.3429274 ], [ 162.3244622, 11.3429927 ], [ 162.324657800000011, 11.3431327 ], [ 162.324802, 11.3431866 ], [ 162.324881, 11.3431404 ], [ 162.3253651, 11.3433504 ], [ 162.325914399999988, 11.3434626 ], [ 162.3267574, 11.3435714 ], [ 162.3270794, 11.3436982 ], [ 162.328286100000014, 11.3439232 ], [ 162.3287622, 11.3441187 ], [ 162.329405, 11.3442256 ], [ 162.330004699999989, 11.344522 ], [ 162.330629499999986, 11.3448579 ], [ 162.3310598, 11.3450829 ], [ 162.3318467, 11.3453422 ], [ 162.3324806, 11.345555 ], [ 162.333020800000014, 11.34571 ], [ 162.3335858, 11.3458864 ], [ 162.3336737, 11.3459738 ], [ 162.333902599999988, 11.3460726 ], [ 162.3340445, 11.3462409 ], [ 162.3345412, 11.346407 ], [ 162.334970199999987, 11.3466288 ], [ 162.3359269, 11.3471227 ], [ 162.336720899999989, 11.3477343 ], [ 162.3370056, 11.3480191 ], [ 162.337634799999989, 11.3485626 ], [ 162.33800020000001, 11.3490035 ], [ 162.3386261, 11.3495963 ], [ 162.339280300000013, 11.3501438 ], [ 162.3392385, 11.3501879 ], [ 162.3393911, 11.3503268 ], [ 162.3394524, 11.3502922 ], [ 162.3403016, 11.3513751 ], [ 162.3408016, 11.3520549 ], [ 162.341227800000013, 11.3525787 ], [ 162.341535, 11.3529506 ], [ 162.3418585, 11.353262 ], [ 162.3429042, 11.3544055 ], [ 162.343034499999987, 11.3544458 ], [ 162.343283500000013, 11.3545995 ], [ 162.3440924, 11.355464 ], [ 162.3443246, 11.3559292 ], [ 162.3444694, 11.3560681 ], [ 162.344651699999986, 11.3560989 ], [ 162.3447109, 11.356165 ], [ 162.3447366, 11.3563782 ], [ 162.344758500000012, 11.3564221 ], [ 162.3447396, 11.356659 ], [ 162.344833, 11.3566726 ], [ 162.3449512, 11.3566896 ], [ 162.3451229, 11.3567906 ], [ 162.3451459, 11.3569299 ], [ 162.345257299999986, 11.3570133 ], [ 162.345257299999986, 11.3571457 ], [ 162.3454176, 11.3572843 ], [ 162.3457655, 11.357608 ], [ 162.3457907, 11.3577561 ], [ 162.3462439, 11.358436 ], [ 162.34638480000001, 11.3588367 ], [ 162.3464557, 11.3590189 ], [ 162.3466146, 11.3593102 ], [ 162.3467096, 11.3596541 ], [ 162.346798299999989, 11.3598816 ], [ 162.3470361, 11.3603223 ], [ 162.3472706, 11.3604944 ], [ 162.3474948, 11.3604801 ], [ 162.3476053, 11.3600927 ], [ 162.3475168, 11.359573 ], [ 162.3476541, 11.3591213 ], [ 162.3475625, 11.358824 ], [ 162.347591200000011, 11.3585211 ], [ 162.347368, 11.3582265 ], [ 162.347309, 11.3578626 ], [ 162.3471877, 11.3577104 ], [ 162.3471505, 11.3575028 ], [ 162.346946800000012, 11.3572161 ], [ 162.3465966, 11.356535 ], [ 162.3461294, 11.3558551 ], [ 162.3456217, 11.3552427 ], [ 162.3448898, 11.3543046 ], [ 162.3443971, 11.3536071 ], [ 162.3440458, 11.3531711 ], [ 162.3437251, 11.3527223 ], [ 162.3432721, 11.3522314 ], [ 162.342780800000014, 11.3517344 ], [ 162.342244099999988, 11.3512168 ], [ 162.3415654, 11.3505187 ], [ 162.3410408, 11.3500058 ], [ 162.34061410000001, 11.3495787 ], [ 162.3401656, 11.3491155 ], [ 162.3394275, 11.3484564 ], [ 162.339099299999987, 11.3480723 ], [ 162.3387574, 11.347687 ], [ 162.3384623, 11.3474109 ], [ 162.3381914, 11.3471473 ], [ 162.3381673, 11.3471105 ], [ 162.338150500000012, 11.3470769 ], [ 162.3381391, 11.3470381 ], [ 162.3381405, 11.3469961 ], [ 162.3381747, 11.3468961 ], [ 162.3383074, 11.3466187 ], [ 162.336329299999989, 11.3455687 ], [ 162.3362133, 11.3454787 ], [ 162.3361643, 11.345434 ], [ 162.3360195, 11.3452597 ], [ 162.3359927, 11.3452282 ], [ 162.335951099999988, 11.3451868 ], [ 162.3357995, 11.3450544 ], [ 162.3353394, 11.3447086 ], [ 162.3348944, 11.344203 ], [ 162.3345123, 11.3439281 ], [ 162.3334491, 11.3430627 ], [ 162.3331497, 11.3428931 ], [ 162.3327104, 11.34249 ], [ 162.332098, 11.3421125 ], [ 162.331613299999987, 11.3416927 ], [ 162.33080910000001, 11.3412199 ], [ 162.3303773, 11.3410011 ], [ 162.3299518, 11.3407202 ], [ 162.3290203, 11.3401598 ], [ 162.3285004, 11.3397847 ], [ 162.327224, 11.3390455 ], [ 162.3263992, 11.3385055 ], [ 162.325781799999987, 11.3380568 ], [ 162.324753500000014, 11.3374619 ], [ 162.3241698, 11.3372555 ], [ 162.3236006, 11.3369612 ], [ 162.322424899999987, 11.33654 ], [ 162.3210402, 11.3360852 ] ] ] ] } },
{ "type": "Feature", "properties": { "FID": 90534, "id": 2464, "left": 160.0, "top": 15.0, "right": 165.0, "bottom": 10.0, "row_index": 15, "col_index": 68, "min_lon": 160.0, "min_lat": 10.0, "tile_id": "160_10" }, "geometry": { "type": "MultiPolygon", "coordinates": [ [ [ [ 162.3032742, 11.6278046 ], [ 162.3031512, 11.6277389 ], [ 162.3030487, 11.6277425 ], [ 162.3029871, 11.6277772 ], [ 162.302961, 11.6279361 ], [ 162.3030281, 11.6280895 ], [ 162.3031158, 11.628252 ], [ 162.3032556, 11.6283853 ], [ 162.3035073, 11.6284583 ], [ 162.303593, 11.6284072 ], [ 162.3036303, 11.6283287 ], [ 162.303652699999986, 11.6281716 ], [ 162.3036482, 11.6280467 ], [ 162.3035968, 11.6279757 ], [ 162.3034439, 11.6278685 ], [ 162.3032742, 11.6278046 ] ] ] ] } },
{ "type": "Feature", "properties": { "FID": 90537, "id": 2464, "left": 160.0, "top": 15.0, "right": 165.0, "bottom": 10.0, "row_index": 15, "col_index": 68, "min_lon": 160.0, "min_lat": 10.0, "tile_id": "160_10" }, "geometry": { "type": "MultiPolygon", "coordinates": [ [ [ [ 162.2132121, 11.6711903 ], [ 162.212779899999987, 11.6710143 ], [ 162.211918200000014, 11.6708227 ], [ 162.2114635, 11.671198 ], [ 162.2112266, 11.6714158 ], [ 162.2112248, 11.6716754 ], [ 162.2111505, 11.6720996 ], [ 162.210909, 11.6724519 ], [ 162.21067930000001, 11.6730014 ], [ 162.2103534, 11.6729963 ], [ 162.2099776, 11.6724968 ], [ 162.209420099999988, 11.6724681 ], [ 162.2087967, 11.6727458 ], [ 162.2085639, 11.6729219 ], [ 162.20843880000001, 11.6731536 ], [ 162.208580399999988, 11.6736741 ], [ 162.2091011, 11.674102 ], [ 162.2094088, 11.6743173 ], [ 162.2097494, 11.6744149 ], [ 162.211141700000013, 11.6743175 ], [ 162.2118355, 11.6742883 ], [ 162.2127519, 11.6742216 ], [ 162.2133301, 11.6741255 ], [ 162.2137903, 11.6738718 ], [ 162.2146845, 11.6736897 ], [ 162.2149704, 11.6736769 ], [ 162.2161815, 11.672984 ], [ 162.2165508, 11.6729402 ], [ 162.216993300000013, 11.6731391 ], [ 162.2170917, 11.6733573 ], [ 162.217324499999989, 11.6735832 ], [ 162.217883699999987, 11.6736094 ], [ 162.218101, 11.6734053 ], [ 162.2176072, 11.672998 ], [ 162.217177600000014, 11.6727466 ], [ 162.2168829, 11.6725639 ], [ 162.2163382, 11.6723155 ], [ 162.2157301, 11.6721328 ], [ 162.2153907, 11.6720123 ], [ 162.2145662, 11.6716689 ], [ 162.214211799999987, 11.6715118 ], [ 162.2132121, 11.6711903 ] ] ] ] } },
{ "type": "Feature", "properties": { "FID": 90539, "id": 2464, "left": 160.0, "top": 15.0, "right": 165.0, "bottom": 10.0, "row_index": 15, "col_index": 68, "min_lon": 160.0, "min_lat": 10.0, "tile_id": "160_10" }, "geometry": { "type": "MultiPolygon", "coordinates": [ [ [ [ 162.0931632, 11.4595946 ], [ 162.093232300000011, 11.4595648 ], [ 162.0932977, 11.4595243 ], [ 162.093344699999989, 11.459477 ], [ 162.093357200000014, 11.4594347 ], [ 162.0933525, 11.4594072 ], [ 162.093333199999989, 11.4593637 ], [ 162.0933171, 11.4593089 ], [ 162.0932889, 11.4592564 ], [ 162.0932443, 11.4592147 ], [ 162.093183399999987, 11.4591961 ], [ 162.0931041, 11.4591704 ], [ 162.093011499999989, 11.4591813 ], [ 162.092931599999986, 11.4592227 ], [ 162.092885700000011, 11.4592865 ], [ 162.0928453, 11.4593468 ], [ 162.0928174, 11.4594175 ], [ 162.092799899999989, 11.4594708 ], [ 162.092758300000014, 11.4595081 ], [ 162.0927203, 11.4595222 ], [ 162.0926632, 11.4595016 ], [ 162.092585, 11.4594843 ], [ 162.092527600000011, 11.4594721 ], [ 162.0924095, 11.4594606 ], [ 162.0923195, 11.4594674 ], [ 162.0922635, 11.4594725 ], [ 162.09222, 11.4594948 ], [ 162.09220830000001, 11.4595202 ], [ 162.092220700000013, 11.4595615 ], [ 162.092256099999986, 11.4595929 ], [ 162.0922957, 11.4596158 ], [ 162.0923465, 11.4596308 ], [ 162.0923938, 11.459614 ], [ 162.092437499999988, 11.4596079 ], [ 162.0924593, 11.4596136 ], [ 162.0924684, 11.4596394 ], [ 162.0924662, 11.4596658 ], [ 162.0924516, 11.4596825 ], [ 162.092433, 11.4597038 ], [ 162.0923922, 11.4597653 ], [ 162.092392600000011, 11.4598116 ], [ 162.0924295, 11.4598293 ], [ 162.092473, 11.4598001 ], [ 162.092509400000012, 11.4597605 ], [ 162.0925805, 11.4597657 ], [ 162.0925959, 11.4597862 ], [ 162.0926643, 11.4597566 ], [ 162.092800899999986, 11.459732 ], [ 162.0929155, 11.4596896 ], [ 162.0929803, 11.4596397 ], [ 162.0930616, 11.4596148 ], [ 162.0931632, 11.4595946 ] ] ] ] } },
{ "type": "Feature", "properties": { "FID": 90545, "id": 2464, "left": 160.0, "top": 15.0, "right": 165.0, "bottom": 10.0, "row_index": 15, "col_index": 68, "min_lon": 160.0, "min_lat": 10.0, "tile_id": "160_10" }, "geometry": { "type": "MultiPolygon", "coordinates": [ [ [ [ 162.3424574, 11.5549018 ], [ 162.342766, 11.5548133 ], [ 162.3436595, 11.5541125 ], [ 162.3444881, 11.5534464 ], [ 162.3450158, 11.5531834 ], [ 162.3456457, 11.552953 ], [ 162.3463391, 11.5527541 ], [ 162.3464803, 11.5527682 ], [ 162.346691, 11.5530241 ], [ 162.346952, 11.5531863 ], [ 162.3472332, 11.5532281 ], [ 162.347538500000013, 11.5531574 ], [ 162.3477471, 11.5530172 ], [ 162.3478609, 11.5528309 ], [ 162.348367, 11.5522486 ], [ 162.3486169, 11.5520797 ], [ 162.348778399999986, 11.5517154 ], [ 162.3495768, 11.5508307 ], [ 162.349743100000012, 11.5507696 ], [ 162.3498081, 11.5506108 ], [ 162.3501681, 11.5501658 ], [ 162.351251600000012, 11.5488487 ], [ 162.3520186, 11.5478632 ], [ 162.352563300000014, 11.5470778 ], [ 162.3529407, 11.5464865 ], [ 162.3533069, 11.5458426 ], [ 162.3537385, 11.5450997 ], [ 162.354006700000014, 11.5446159 ], [ 162.3548822, 11.543277 ], [ 162.3554428, 11.5425395 ], [ 162.3559381, 11.5421094 ], [ 162.3564121, 11.541808 ], [ 162.356953299999986, 11.5416406 ], [ 162.3571275, 11.5416818 ], [ 162.357497599999988, 11.5422874 ], [ 162.357623600000011, 11.5422935 ], [ 162.3577137, 11.5422241 ], [ 162.3577008, 11.5420421 ], [ 162.3574887, 11.5416705 ], [ 162.357201300000014, 11.5414154 ], [ 162.3573413, 11.5411547 ], [ 162.3574549, 11.5407995 ], [ 162.3578128, 11.5404549 ], [ 162.3583537, 11.5401263 ], [ 162.358343100000013, 11.5398043 ], [ 162.3581256, 11.5395676 ], [ 162.3575141, 11.5391239 ], [ 162.3573413, 11.5389181 ], [ 162.3572806, 11.5383692 ], [ 162.357313299999987, 11.5380719 ], [ 162.3578097, 11.5373814 ], [ 162.3581274, 11.5369091 ], [ 162.3588019, 11.5363498 ], [ 162.3596681, 11.5357009 ], [ 162.359830100000011, 11.5356445 ], [ 162.3600715, 11.5356419 ], [ 162.360162699999989, 11.5355788 ], [ 162.3602378, 11.5354211 ], [ 162.360312, 11.5353779 ], [ 162.3604014, 11.5353949 ], [ 162.360634800000014, 11.535542 ], [ 162.360734, 11.5355683 ], [ 162.36088620000001, 11.5355612 ], [ 162.3610424, 11.5354041 ], [ 162.3610337, 11.535253 ], [ 162.3609309, 11.535219 ], [ 162.3608288, 11.5346788 ], [ 162.3606394, 11.5340065 ], [ 162.360536200000013, 11.5334754 ], [ 162.360401, 11.5332526 ], [ 162.3602425, 11.5332405 ], [ 162.360181, 11.5335611 ], [ 162.359743, 11.5344911 ], [ 162.3594788, 11.5348351 ], [ 162.358875, 11.5354916 ], [ 162.358227199999988, 11.5361594 ], [ 162.357647500000013, 11.5367803 ], [ 162.3567103, 11.5378183 ], [ 162.356409500000012, 11.5382279 ], [ 162.355862800000011, 11.5399032 ], [ 162.355515, 11.540693 ], [ 162.3549002, 11.5413456 ], [ 162.3542363, 11.5421501 ], [ 162.3538907, 11.5428321 ], [ 162.3533692, 11.543611 ], [ 162.3530491, 11.5440892 ], [ 162.351902200000012, 11.5453162 ], [ 162.351463099999989, 11.5458631 ], [ 162.350943, 11.5465118 ], [ 162.3505419, 11.547179 ], [ 162.349547199999989, 11.5480731 ], [ 162.348692699999987, 11.5488852 ], [ 162.34763860000001, 11.5499056 ], [ 162.3474603, 11.5502956 ], [ 162.3473873, 11.5504554 ], [ 162.347300100000012, 11.5506461 ], [ 162.3471626, 11.5509787 ], [ 162.3469342, 11.5512731 ], [ 162.3464672, 11.5516822 ], [ 162.3455392, 11.5522608 ], [ 162.344904899999989, 11.5526566 ], [ 162.3439816, 11.553194 ], [ 162.343466799999987, 11.5536412 ], [ 162.3421965, 11.5546897 ], [ 162.3424574, 11.5549018 ] ] ] ] } },
{ "type": "Feature", "properties": { "FID": 90549, "id": 2464, "left": 160.0, "top": 15.0, "right": 165.0, "bottom": 10.0, "row_index": 15, "col_index": 68, "min_lon": 160.0, "min_lat": 10.0, "tile_id": "160_10" }, "geometry": { "type": "MultiPolygon", "coordinates": [ [ [ [ 162.163338399999986, 11.3693512 ], [ 162.1630997, 11.3693293 ], [ 162.162528900000012, 11.3694024 ], [ 162.161309, 11.3698742 ], [ 162.1609733, 11.3700352 ], [ 162.1598318, 11.3704338 ], [ 162.159462499999989, 11.3707739 ], [ 162.1592274, 11.3712018 ], [ 162.1591379, 11.3717285 ], [ 162.1591491, 11.3721125 ], [ 162.159242400000011, 11.3722514 ], [ 162.1595594, 11.3723685 ], [ 162.15994, 11.3723758 ], [ 162.16048090000001, 11.3723173 ], [ 162.1607644, 11.3721125 ], [ 162.1617455, 11.3714103 ], [ 162.1624095, 11.3707812 ], [ 162.163122, 11.3701705 ], [ 162.1633794, 11.3697206 ], [ 162.1634391, 11.3694281 ], [ 162.163338399999986, 11.3693512 ] ] ] ] } },
{ "type": "Feature", "properties": { "FID": 90567, "id": 2464, "left": 160.0, "top": 15.0, "right": 165.0, "bottom": 10.0, "row_index": 15, "col_index": 68, "min_lon": 160.0, "min_lat": 10.0, "tile_id": "160_10" }, "geometry": { "type": "MultiPolygon", "coordinates": [ [ [ [ 162.1779797, 11.6615631 ], [ 162.1781818, 11.661613 ], [ 162.1782926, 11.6618016 ], [ 162.1782557, 11.6620057 ], [ 162.178113200000013, 11.6622304 ], [ 162.17784420000001, 11.6626851 ], [ 162.177709599999986, 11.6631346 ], [ 162.177435300000013, 11.6637055 ], [ 162.1772718, 11.6642299 ], [ 162.177258599999988, 11.6646484 ], [ 162.1773588, 11.665023 ], [ 162.1774485, 11.6651315 ], [ 162.177575100000013, 11.665067 ], [ 162.177683300000012, 11.6649119 ], [ 162.1777993, 11.6646381 ], [ 162.1777888, 11.6643126 ], [ 162.1777756, 11.6636332 ], [ 162.1779233, 11.6629693 ], [ 162.178060499999987, 11.6626902 ], [ 162.1784403, 11.6621038 ], [ 162.178614399999987, 11.6617525 ], [ 162.1786698, 11.6615768 ], [ 162.1785353, 11.6614089 ], [ 162.1783638, 11.6612875 ], [ 162.1781291, 11.6611841 ], [ 162.177941800000013, 11.6612642 ], [ 162.177899599999989, 11.6614011 ], [ 162.1779797, 11.6615631 ] ] ] ] } },
{ "type": "Feature", "properties": { "FID": 90576, "id": 2464, "left": 160.0, "top": 15.0, "right": 165.0, "bottom": 10.0, "row_index": 15, "col_index": 68, "min_lon": 160.0, "min_lat": 10.0, "tile_id": "160_10" }, "geometry": { "type": "MultiPolygon", "coordinates": [ [ [ [ 162.174065500000012, 11.6584866 ], [ 162.1733955, 11.6580164 ], [ 162.1727756, 11.6576858 ], [ 162.1724274, 11.6572595 ], [ 162.1721636, 11.6571355 ], [ 162.1720264, 11.6571846 ], [ 162.1719156, 11.6572879 ], [ 162.1718998, 11.6575954 ], [ 162.172068599999989, 11.6580164 ], [ 162.1721557, 11.6584091 ], [ 162.172124, 11.6589051 ], [ 162.1720106, 11.6593598 ], [ 162.1720238, 11.6598713 ], [ 162.1722612, 11.6602899 ], [ 162.1725566, 11.6605379 ], [ 162.1727861, 11.6606283 ], [ 162.1731818, 11.6606128 ], [ 162.1743234, 11.6604149 ], [ 162.1754575, 11.6603272 ], [ 162.1758231, 11.6603126 ], [ 162.176651, 11.6605292 ], [ 162.1769236, 11.6604467 ], [ 162.1763617, 11.660301 ], [ 162.175849199999988, 11.6599692 ], [ 162.1754948, 11.6596732 ], [ 162.174894200000011, 11.659191 ], [ 162.174554699999987, 11.658906 ], [ 162.174065500000012, 11.6584866 ] ] ] ] } },
{ "type": "Feature", "properties": { "FID": 90577, "id": 2464, "left": 160.0, "top": 15.0, "right": 165.0, "bottom": 10.0, "row_index": 15, "col_index": 68, "min_lon": 160.0, "min_lat": 10.0, "tile_id": "160_10" }, "geometry": { "type": "MultiPolygon", "coordinates": [ [ [ [ 162.3307565, 11.5991324 ], [ 162.3305551, 11.5990484 ], [ 162.330320199999989, 11.5990703 ], [ 162.3301562, 11.5991908 ], [ 162.330007, 11.5994575 ], [ 162.32998090000001, 11.5999286 ], [ 162.3297609, 11.6012545 ], [ 162.329440299999987, 11.602153 ], [ 162.329119600000013, 11.6028251 ], [ 162.3288959, 11.603267 ], [ 162.328746700000011, 11.6037492 ], [ 162.328746700000011, 11.6040633 ], [ 162.32894060000001, 11.604297 ], [ 162.3291867, 11.6043957 ], [ 162.32955960000001, 11.6043372 ], [ 162.3299697, 11.6041509 ], [ 162.330439500000011, 11.6040596 ], [ 162.3312561, 11.6037565 ], [ 162.3319012, 11.6033876 ], [ 162.3320727, 11.6032634 ], [ 162.3322565, 11.6028891 ], [ 162.3323567, 11.6023054 ], [ 162.3323751, 11.6021014 ], [ 162.332243299999988, 11.6016287 ], [ 162.3321958, 11.6012207 ], [ 162.3321536, 11.6011251 ], [ 162.331884699999989, 11.6007635 ], [ 162.331687, 11.6005233 ], [ 162.3313521, 11.6001307 ], [ 162.3311421, 11.5997455 ], [ 162.330855, 11.5992487 ], [ 162.3307565, 11.5991324 ] ] ] ] } },
{ "type": "Feature", "properties": { "FID": 90580, "id": 2464, "left": 160.0, "top": 15.0, "right": 165.0, "bottom": 10.0, "row_index": 15, "col_index": 68, "min_lon": 160.0, "min_lat": 10.0, "tile_id": "160_10" }, "geometry": { "type": "MultiPolygon", "coordinates": [ [ [ [ 162.28900920000001, 11.6275781 ], [ 162.288508, 11.6277047 ], [ 162.2881888, 11.6277564 ], [ 162.287743, 11.6277719 ], [ 162.2874713, 11.6278675 ], [ 162.287022900000011, 11.628007 ], [ 162.2860574, 11.6281879 ], [ 162.28539, 11.6284488 ], [ 162.285121, 11.6285134 ], [ 162.284786, 11.6285237 ], [ 162.284545900000012, 11.6286219 ], [ 162.2844246, 11.6287537 ], [ 162.2842584, 11.6290611 ], [ 162.2841661, 11.6292756 ], [ 162.2841846, 11.6294642 ], [ 162.2842742, 11.6296296 ], [ 162.2843771, 11.6299189 ], [ 162.284414, 11.6301489 ], [ 162.284685700000011, 11.6305158 ], [ 162.285036600000012, 11.6308646 ], [ 162.2855008, 11.6311126 ], [ 162.285957200000013, 11.6313141 ], [ 162.286192, 11.6313322 ], [ 162.2866235, 11.63132 ], [ 162.2869326, 11.6311773 ], [ 162.28719, 11.6309691 ], [ 162.2874064, 11.6307206 ], [ 162.28771230000001, 11.6303918 ], [ 162.2879398, 11.6301141 ], [ 162.2881002, 11.6298729 ], [ 162.2882607, 11.6296062 ], [ 162.288450899999987, 11.6292846 ], [ 162.289062699999988, 11.6286781 ], [ 162.2896447, 11.6282761 ], [ 162.2900438, 11.6279181 ], [ 162.290152, 11.6277354 ], [ 162.290152, 11.6276367 ], [ 162.2900737, 11.62756 ], [ 162.289779, 11.6275381 ], [ 162.2894843, 11.627549 ], [ 162.28900920000001, 11.6275781 ] ] ] ] } },
{ "type": "Feature", "properties": { "FID": 90591, "id": 2464, "left": 160.0, "top": 15.0, "right": 165.0, "bottom": 10.0, "row_index": 15, "col_index": 68, "min_lon": 160.0, "min_lat": 10.0, "tile_id": "160_10" }, "geometry": { "type": "MultiPolygon", "coordinates": [ [ [ [ 162.0884447, 11.4557175 ], [ 162.0884011, 11.4558163 ], [ 162.088379300000014, 11.4558975 ], [ 162.0883575, 11.4560484 ], [ 162.088334800000013, 11.456061 ], [ 162.0883146, 11.4561949 ], [ 162.0883015, 11.456256 ], [ 162.0882861, 11.456304 ], [ 162.088257700000014, 11.456354 ], [ 162.0882066, 11.4564109 ], [ 162.0881425, 11.4564394 ], [ 162.088072, 11.4564942 ], [ 162.0880414, 11.4565179 ], [ 162.0880334, 11.4565652 ], [ 162.0880291, 11.4565984 ], [ 162.0880554, 11.4566037 ], [ 162.0880819, 11.4565846 ], [ 162.0881387, 11.4565833 ], [ 162.0881877, 11.4565796 ], [ 162.0882382, 11.4566244 ], [ 162.0883082, 11.4567152 ], [ 162.088392199999987, 11.4568176 ], [ 162.0884046, 11.4568746 ], [ 162.088396, 11.4569321 ], [ 162.0883815, 11.4569954 ], [ 162.0883294, 11.457093 ], [ 162.088216, 11.4572491 ], [ 162.0881209, 11.4573474 ], [ 162.088049500000011, 11.45744 ], [ 162.088045599999987, 11.45752 ], [ 162.0880525, 11.4576035 ], [ 162.0880797, 11.4576916 ], [ 162.0881317, 11.4577444 ], [ 162.08822570000001, 11.4577824 ], [ 162.0883733, 11.4578158 ], [ 162.0886274, 11.4578493 ], [ 162.0887773, 11.4578848 ], [ 162.0889214, 11.4579377 ], [ 162.0891771, 11.4579437 ], [ 162.0894145, 11.4579333 ], [ 162.089606300000014, 11.4579094 ], [ 162.089749500000011, 11.4578627 ], [ 162.0898163, 11.4578148 ], [ 162.0899009, 11.45779 ], [ 162.0900021, 11.4577464 ], [ 162.0901355, 11.457675 ], [ 162.09020670000001, 11.4575804 ], [ 162.0903123, 11.457426 ], [ 162.090458500000011, 11.4572409 ], [ 162.090564199999989, 11.4571967 ], [ 162.0906314, 11.4571293 ], [ 162.09064570000001, 11.4570298 ], [ 162.0906216, 11.45691 ], [ 162.0905333, 11.4566831 ], [ 162.0904152, 11.4565286 ], [ 162.090290399999986, 11.4563934 ], [ 162.090112299999987, 11.4562175 ], [ 162.0899121, 11.4560853 ], [ 162.089717799999988, 11.4559763 ], [ 162.089359699999989, 11.455787 ], [ 162.089016500000014, 11.4556092 ], [ 162.0888615, 11.4555722 ], [ 162.0887707, 11.4555652 ], [ 162.088662199999987, 11.4556076 ], [ 162.0885527, 11.4556624 ], [ 162.08850240000001, 11.4556708 ], [ 162.0884447, 11.4557175 ] ] ] ] } },
{ "type": "Feature", "properties": { "FID": 90603, "id": 2464, "left": 160.0, "top": 15.0, "right": 165.0, "bottom": 10.0, "row_index": 15, "col_index": 68, "min_lon": 160.0, "min_lat": 10.0, "tile_id": "160_10" }, "geometry": { "type": "MultiPolygon", "coordinates": [ [ [ [ 162.2432593, 11.6578434 ], [ 162.2432145, 11.6570104 ], [ 162.2432705, 11.6564295 ], [ 162.2434682, 11.6556951 ], [ 162.243658399999987, 11.6553005 ], [ 162.2437629, 11.6551544 ], [ 162.2437591, 11.6550996 ], [ 162.2435987, 11.6550996 ], [ 162.2433749, 11.6551507 ], [ 162.2430989, 11.6551909 ], [ 162.2427706, 11.6552896 ], [ 162.242528099999987, 11.6554613 ], [ 162.2422259, 11.6557024 ], [ 162.241879, 11.6562139 ], [ 162.2414425, 11.6568898 ], [ 162.2410023, 11.6573721 ], [ 162.2401854, 11.6581357 ], [ 162.2394318, 11.6590271 ], [ 162.2386894, 11.659703 ], [ 162.2382045, 11.6600465 ], [ 162.2377792, 11.6604045 ], [ 162.2374509, 11.6608429 ], [ 162.2367645, 11.6613106 ], [ 162.236257200000011, 11.6617015 ], [ 162.2361042, 11.6619353 ], [ 162.2357461, 11.6622093 ], [ 162.23553720000001, 11.6623555 ], [ 162.2352947, 11.6625126 ], [ 162.2350298, 11.6628268 ], [ 162.2346646, 11.6630202 ], [ 162.2344008, 11.6632011 ], [ 162.2341476, 11.6635601 ], [ 162.2339603, 11.6637332 ], [ 162.2337229, 11.6637642 ], [ 162.2335409, 11.6637461 ], [ 162.2334142, 11.6637926 ], [ 162.233364099999989, 11.6638934 ], [ 162.2333773, 11.6639632 ], [ 162.2333727, 11.6640111 ], [ 162.2333055, 11.6641207 ], [ 162.2329064, 11.6643582 ], [ 162.2325035, 11.6646614 ], [ 162.2322498, 11.6650487 ], [ 162.2321192, 11.6655748 ], [ 162.232078199999989, 11.6659182 ], [ 162.2320707, 11.6661228 ], [ 162.2319625, 11.6663151 ], [ 162.231766599999986, 11.666472 ], [ 162.2317778, 11.6665341 ], [ 162.231822599999987, 11.666556 ], [ 162.232205, 11.6663091 ], [ 162.232455, 11.6661885 ], [ 162.2327982, 11.666163 ], [ 162.2331227, 11.6660753 ], [ 162.2338054, 11.6659036 ], [ 162.2340927, 11.6659109 ], [ 162.234409699999986, 11.6660424 ], [ 162.234555199999988, 11.6661337 ], [ 162.2346336, 11.6661776 ], [ 162.2349395, 11.6661922 ], [ 162.235327399999989, 11.6662762 ], [ 162.2368681, 11.6664333 ], [ 162.237662699999987, 11.6665575 ], [ 162.238047, 11.6667256 ], [ 162.2382969, 11.6669338 ], [ 162.2387072, 11.6673759 ], [ 162.238796799999989, 11.6677339 ], [ 162.238830400000012, 11.6678472 ], [ 162.2389684, 11.6679275 ], [ 162.2393787, 11.6680627 ], [ 162.2397033, 11.6682856 ], [ 162.239818899999989, 11.6684646 ], [ 162.2399681, 11.6685486 ], [ 162.2401174, 11.6688372 ], [ 162.2404755, 11.669166 ], [ 162.2405949, 11.66944 ], [ 162.240732900000012, 11.6695569 ], [ 162.2409903, 11.6696519 ], [ 162.241292499999986, 11.6696739 ], [ 162.2417476, 11.6696885 ], [ 162.242143, 11.6695971 ], [ 162.2425571, 11.66944 ], [ 162.2428406, 11.6694035 ], [ 162.2430309, 11.6692903 ], [ 162.24317640000001, 11.6691185 ], [ 162.243236, 11.6688117 ], [ 162.2433069, 11.668545 ], [ 162.2436128, 11.6679239 ], [ 162.2437792, 11.6673683 ], [ 162.2440114, 11.6667586 ], [ 162.2440166, 11.6663608 ], [ 162.243937499999987, 11.6660715 ], [ 162.243942800000013, 11.6657046 ], [ 162.244043, 11.6650019 ], [ 162.2440325, 11.6646713 ], [ 162.2438425, 11.6641649 ], [ 162.2437687, 11.6639583 ], [ 162.2437845, 11.6635398 ], [ 162.243832, 11.6632091 ], [ 162.2438689, 11.6625116 ], [ 162.2440114, 11.6618296 ], [ 162.2440856, 11.6612095 ], [ 162.2440296, 11.6609319 ], [ 162.2439588, 11.6607857 ], [ 162.2438933, 11.6604892 ], [ 162.243745600000011, 11.6599467 ], [ 162.243529200000012, 11.6594558 ], [ 162.243513400000012, 11.659151 ], [ 162.243513400000012, 11.6587686 ], [ 162.243455399999988, 11.6584431 ], [ 162.2432593, 11.6578434 ] ] ] ] } },
{ "type": "Feature", "properties": { "FID": 90604, "id": 2464, "left": 160.0, "top": 15.0, "right": 165.0, "bottom": 10.0, "row_index": 15, "col_index": 68, "min_lon": 160.0, "min_lat": 10.0, "tile_id": "160_10" }, "geometry": { "type": "MultiPolygon", "coordinates": [ [ [ [ 162.299359399999986, 11.6247594 ], [ 162.299124400000011, 11.6247375 ], [ 162.298650900000013, 11.6248033 ], [ 162.2972116, 11.6250187 ], [ 162.2964547, 11.6252123 ], [ 162.295929, 11.6255118 ], [ 162.2953846, 11.6259026 ], [ 162.2949893, 11.6260523 ], [ 162.293960199999987, 11.6264321 ], [ 162.2933748, 11.6267353 ], [ 162.2929124, 11.6271589 ], [ 162.2927372, 11.6272283 ], [ 162.2926924, 11.6273598 ], [ 162.292793100000011, 11.6275497 ], [ 162.2929236, 11.6276337 ], [ 162.2931958, 11.6277396 ], [ 162.293867, 11.6279953 ], [ 162.2944971, 11.6282728 ], [ 162.2950453, 11.6285066 ], [ 162.2955561, 11.6285358 ], [ 162.296615, 11.6284774 ], [ 162.2974092, 11.628324 ], [ 162.2978269, 11.6281231 ], [ 162.2981848, 11.6276885 ], [ 162.298721699999987, 11.6271443 ], [ 162.2989455, 11.6266987 ], [ 162.29924, 11.626308 ], [ 162.2995085, 11.6259172 ], [ 162.2997546, 11.6256287 ], [ 162.3001237, 11.6253109 ], [ 162.300205799999986, 11.6251575 ], [ 162.3001722, 11.6250407 ], [ 162.300045399999988, 11.624964 ], [ 162.299818, 11.6249055 ], [ 162.2995756, 11.6248142 ], [ 162.299359399999986, 11.6247594 ] ] ] ] } },
{ "type": "Feature", "properties": { "FID": 90609, "id": 2464, "left": 160.0, "top": 15.0, "right": 165.0, "bottom": 10.0, "row_index": 15, "col_index": 68, "min_lon": 160.0, "min_lat": 10.0, "tile_id": "160_10" }, "geometry": { "type": "MultiPolygon", "coordinates": [ [ [ [ 162.1693793, 11.654963 ], [ 162.168719, 11.654616 ], [ 162.168484, 11.6546013 ], [ 162.1681557, 11.6546525 ], [ 162.168002699999988, 11.6547877 ], [ 162.167999, 11.6549375 ], [ 162.168275099999988, 11.655153 ], [ 162.1686145, 11.6553065 ], [ 162.1692636, 11.655522 ], [ 162.170103, 11.6559312 ], [ 162.1707633, 11.6564281 ], [ 162.170927400000011, 11.6565121 ], [ 162.1711774, 11.6565195 ], [ 162.1713005, 11.6563989 ], [ 162.171293, 11.6562601 ], [ 162.1711401, 11.656092 ], [ 162.170897599999989, 11.6558984 ], [ 162.170032099999986, 11.6552773 ], [ 162.1693793, 11.654963 ] ] ] ] } },
{ "type": "Feature", "properties": { "FID": 90614, "id": 2464, "left": 160.0, "top": 15.0, "right": 165.0, "bottom": 10.0, "row_index": 15, "col_index": 68, "min_lon": 160.0, "min_lat": 10.0, "tile_id": "160_10" }, "geometry": { "type": "MultiPolygon", "coordinates": [ [ [ [ 162.3281959, 11.6098886 ], [ 162.328169800000012, 11.609527 ], [ 162.3281474, 11.6093407 ], [ 162.328084, 11.609275 ], [ 162.3278789, 11.6092202 ], [ 162.3276962, 11.6091289 ], [ 162.3275583, 11.6090924 ], [ 162.327163, 11.6091472 ], [ 162.3268946, 11.6092458 ], [ 162.3265403, 11.6096585 ], [ 162.326107799999988, 11.6099178 ], [ 162.325611900000013, 11.6101917 ], [ 162.3251109, 11.6106385 ], [ 162.324681199999986, 11.6110698 ], [ 162.324581, 11.611261 ], [ 162.324509799999987, 11.6115786 ], [ 162.3246232, 11.611886 ], [ 162.32485650000001, 11.6122558 ], [ 162.3253823, 11.612621 ], [ 162.3258372, 11.6128328 ], [ 162.3263331, 11.6130264 ], [ 162.3269483, 11.6133916 ], [ 162.327593400000012, 11.6135779 ], [ 162.3282049, 11.6135341 ], [ 162.3285256, 11.6132346 ], [ 162.328835, 11.6127233 ], [ 162.3289618, 11.6122412 ], [ 162.3289767, 11.6117736 ], [ 162.3289184, 11.6113853 ], [ 162.328789199999989, 11.6111373 ], [ 162.3286837, 11.6110211 ], [ 162.3285914, 11.6108455 ], [ 162.328541300000012, 11.6106079 ], [ 162.328322500000013, 11.6102334 ], [ 162.3281959, 11.6098886 ] ] ] ] } },
{ "type": "Feature", "properties": { "FID": 90615, "id": 2464, "left": 160.0, "top": 15.0, "right": 165.0, "bottom": 10.0, "row_index": 15, "col_index": 68, "min_lon": 160.0, "min_lat": 10.0, "tile_id": "160_10" }, "geometry": { "type": "MultiPolygon", "coordinates": [ [ [ [ 162.1989015, 11.3516753 ], [ 162.1991253, 11.3516936 ], [ 162.199427500000013, 11.351679 ], [ 162.2001251, 11.3515071 ], [ 162.200934600000011, 11.3511267 ], [ 162.201759, 11.3506768 ], [ 162.202438, 11.3503038 ], [ 162.2032251, 11.34996 ], [ 162.204251, 11.3495137 ], [ 162.2055044, 11.3489029 ], [ 162.206112499999989, 11.3486176 ], [ 162.2065489, 11.3484823 ], [ 162.2068026, 11.3482994 ], [ 162.2068921, 11.3479959 ], [ 162.206806300000011, 11.3478752 ], [ 162.2065862, 11.3478093 ], [ 162.206377300000014, 11.3478496 ], [ 162.2060155, 11.3480324 ], [ 162.2057618, 11.3484961 ], [ 162.205434700000012, 11.3487599 ], [ 162.2048385, 11.3489565 ], [ 162.2040261, 11.3493186 ], [ 162.2034405, 11.3496031 ], [ 162.2030184, 11.3497996 ], [ 162.2027546, 11.3497944 ], [ 162.2024908, 11.349572 ], [ 162.2019549, 11.3492702 ], [ 162.2008768, 11.3493872 ], [ 162.1997054, 11.3498261 ], [ 162.1990377, 11.3501444 ], [ 162.1981312, 11.350532 ], [ 162.1978104, 11.3507186 ], [ 162.1976574, 11.3509563 ], [ 162.1976425, 11.3513404 ], [ 162.1976723, 11.351611 ], [ 162.1977507, 11.3517207 ], [ 162.1978514, 11.351739 ], [ 162.1980044, 11.3517061 ], [ 162.1981834, 11.3515525 ], [ 162.1985453, 11.3515086 ], [ 162.1986908, 11.3515854 ], [ 162.1989015, 11.3516753 ] ] ] ] } },
{ "type": "Feature", "properties": { "FID": 272710, "id": 2464, "left": 160.0, "top": 15.0, "right": 165.0, "bottom": 10.0, "row_index": 15, "col_index": 68, "min_lon": 160.0, "min_lat": 10.0, "tile_id": "160_10" }, "geometry": { "type": "MultiPolygon", "coordinates": [ [ [ [ 162.32114820000001, 11.6200241 ], [ 162.3210032, 11.6196677 ], [ 162.320866099999989, 11.6193811 ], [ 162.3207079, 11.6193139 ], [ 162.320591900000011, 11.6193294 ], [ 162.3205313, 11.619363 ], [ 162.320481199999989, 11.6194792 ], [ 162.320523400000013, 11.6196677 ], [ 162.3205524, 11.6197607 ], [ 162.3205313, 11.6198898 ], [ 162.320518099999987, 11.620068 ], [ 162.3206262, 11.6203134 ], [ 162.3207765, 11.6205071 ], [ 162.3208951, 11.6207705 ], [ 162.3210507, 11.6210985 ], [ 162.3211772, 11.6212018 ], [ 162.3213882, 11.6212586 ], [ 162.3215727, 11.6212069 ], [ 162.3217388, 11.6210442 ], [ 162.3218206, 11.6209022 ], [ 162.321823200000011, 11.6207756 ], [ 162.321759899999989, 11.6206233 ], [ 162.321549, 11.6203934 ], [ 162.321346, 11.6202617 ], [ 162.32114820000001, 11.6200241 ] ] ] ] } },
{ "type": "Feature", "properties": { "FID": 358755, "id": 2464, "left": 160.0, "top": 15.0, "right": 165.0, "bottom": 10.0, "row_index": 15, "col_index": 68, "min_lon": 160.0, "min_lat": 10.0, "tile_id": "160_10" }, "geometry": { "type": "MultiPolygon", "coordinates": [ [ [ [ 162.392708699999986, 11.4707547 ], [ 162.392895900000013, 11.4707237 ], [ 162.3929776, 11.4706074 ], [ 162.3929671, 11.4705324 ], [ 162.3927693, 11.4704446 ], [ 162.392547799999988, 11.4704291 ], [ 162.3924635, 11.4704782 ], [ 162.3924503, 11.4705738 ], [ 162.3924476, 11.4706255 ], [ 162.3925083, 11.4707004 ], [ 162.392708699999986, 11.4707547 ] ] ] ] } },
{ "type": "Feature", "properties": { "FID": 358756, "id": 2464, "left": 160.0, "top": 15.0, "right": 165.0, "bottom": 10.0, "row_index": 15, "col_index": 68, "min_lon": 160.0, "min_lat": 10.0, "tile_id": "160_10" }, "geometry": { "type": "MultiPolygon", "coordinates": [ [ [ [ 162.3935545, 11.4648989 ], [ 162.3939579, 11.4650979 ], [ 162.3940844, 11.4651315 ], [ 162.394200399999988, 11.4650178 ], [ 162.394258400000012, 11.4648627 ], [ 162.394211, 11.4647025 ], [ 162.394029, 11.464625 ], [ 162.3938102, 11.4645992 ], [ 162.3933147, 11.4644855 ], [ 162.3930593, 11.4644471 ], [ 162.3929848, 11.4645001 ], [ 162.3929661, 11.4645823 ], [ 162.3930948, 11.4646865 ], [ 162.3935545, 11.4648989 ] ] ] ] } },
{ "type": "Feature", "properties": { "FID": 358757, "id": 2464, "left": 160.0, "top": 15.0, "right": 165.0, "bottom": 10.0, "row_index": 15, "col_index": 68, "min_lon": 160.0, "min_lat": 10.0, "tile_id": "160_10" }, "geometry": { "type": "MultiPolygon", "coordinates": [ [ [ [ 162.3745372, 11.507719 ], [ 162.3744701, 11.507825 ], [ 162.3742613, 11.5082982 ], [ 162.3741681, 11.5084754 ], [ 162.3741848, 11.508521 ], [ 162.3742184, 11.5085375 ], [ 162.3743321, 11.5084991 ], [ 162.374481300000014, 11.5084315 ], [ 162.3746267, 11.5082762 ], [ 162.374705, 11.5080917 ], [ 162.374708700000014, 11.5079036 ], [ 162.374658399999987, 11.5077903 ], [ 162.374604299999987, 11.5077318 ], [ 162.3745372, 11.507719 ] ] ] ] } },
{ "type": "Feature", "properties": { "FID": 358758, "id": 2464, "left": 160.0, "top": 15.0, "right": 165.0, "bottom": 10.0, "row_index": 15, "col_index": 68, "min_lon": 160.0, "min_lat": 10.0, "tile_id": "160_10" }, "geometry": { "type": "MultiPolygon", "coordinates": [ [ [ [ 162.3764242, 11.5044882 ], [ 162.376360799999986, 11.504448 ], [ 162.3762825, 11.504459 ], [ 162.376200399999988, 11.5045284 ], [ 162.3760364, 11.5048938 ], [ 162.375883499999986, 11.5052226 ], [ 162.375876, 11.5052993 ], [ 162.3759394, 11.5053505 ], [ 162.3761035, 11.505387 ], [ 162.3763533, 11.5053066 ], [ 162.3765733, 11.5051166 ], [ 162.3766516, 11.5049047 ], [ 162.3766292, 11.5047805 ], [ 162.3764577, 11.504554 ], [ 162.3764242, 11.5044882 ] ] ] ] } },
{ "type": "Feature", "properties": { "FID": 358759, "id": 2464, "left": 160.0, "top": 15.0, "right": 165.0, "bottom": 10.0, "row_index": 15, "col_index": 68, "min_lon": 160.0, "min_lat": 10.0, "tile_id": "160_10" }, "geometry": { "type": "MultiPolygon", "coordinates": [ [ [ [ 162.3788571, 11.5003462 ], [ 162.3788571, 11.5002219 ], [ 162.378789899999987, 11.5001233 ], [ 162.3787079, 11.5001416 ], [ 162.378629600000011, 11.5002146 ], [ 162.3784394, 11.5007116 ], [ 162.3780778, 11.5014423 ], [ 162.3777907, 11.502016 ], [ 162.3778354, 11.5021219 ], [ 162.3780293, 11.5021731 ], [ 162.3783761, 11.5021402 ], [ 162.37859610000001, 11.5019319 ], [ 162.3786781, 11.5016579 ], [ 162.3788198, 11.5013327 ], [ 162.3788533, 11.5010733 ], [ 162.3787974, 11.500781 ], [ 162.3788571, 11.5003462 ] ] ] ] } },
{ "type": "Feature", "properties": { "FID": 358760, "id": 2464, "left": 160.0, "top": 15.0, "right": 165.0, "bottom": 10.0, "row_index": 15, "col_index": 68, "min_lon": 160.0, "min_lat": 10.0, "tile_id": "160_10" }, "geometry": { "type": "MultiPolygon", "coordinates": [ [ [ [ 162.388805100000013, 11.4450319 ], [ 162.3887307, 11.445032 ], [ 162.3886305, 11.4450578 ], [ 162.3885488, 11.4451534 ], [ 162.3885646, 11.445293 ], [ 162.3888028, 11.4458329 ], [ 162.3887537, 11.446087 ], [ 162.3889359, 11.4463936 ], [ 162.3889662, 11.4465607 ], [ 162.3892534, 11.4465744 ], [ 162.3894496, 11.4465721 ], [ 162.389589699999988, 11.446135 ], [ 162.3896037, 11.4458878 ], [ 162.38947060000001, 11.4452974 ], [ 162.3892534, 11.4452585 ], [ 162.3890853, 11.4451395 ], [ 162.3889172, 11.4450525 ], [ 162.388805100000013, 11.4450319 ] ] ] ] } },
{ "type": "Feature", "properties": { "FID": 358761, "id": 2464, "left": 160.0, "top": 15.0, "right": 165.0, "bottom": 10.0, "row_index": 15, "col_index": 68, "min_lon": 160.0, "min_lat": 10.0, "tile_id": "160_10" }, "geometry": { "type": "MultiPolygon", "coordinates": [ [ [ [ 162.3930394, 11.4656241 ], [ 162.3929015, 11.4653318 ], [ 162.3927933, 11.4647581 ], [ 162.392666600000013, 11.4643159 ], [ 162.392666600000013, 11.4637787 ], [ 162.392633, 11.4630771 ], [ 162.3924615, 11.4624632 ], [ 162.3924391, 11.4616629 ], [ 162.3923011, 11.4612828 ], [ 162.392189300000013, 11.4610124 ], [ 162.3920625, 11.4609941 ], [ 162.391976699999987, 11.4610636 ], [ 162.3921281, 11.4615549 ], [ 162.3921756, 11.4626453 ], [ 162.3923135, 11.4637964 ], [ 162.3924776, 11.4649293 ], [ 162.392664, 11.4655688 ], [ 162.3928244, 11.466106 ], [ 162.392783400000013, 11.4666358 ], [ 162.39272, 11.4672022 ], [ 162.392447800000014, 11.468156 ], [ 162.39228, 11.4684849 ], [ 162.3919519, 11.4690294 ], [ 162.3917654, 11.4695702 ], [ 162.3917729, 11.4699064 ], [ 162.3918586, 11.4699502 ], [ 162.3919295, 11.46991 ], [ 162.392041400000011, 11.4696944 ], [ 162.3921905, 11.4694788 ], [ 162.392362, 11.4693034 ], [ 162.3929027, 11.4691865 ], [ 162.3936037, 11.469128 ], [ 162.3938908, 11.4690038 ], [ 162.3940474, 11.4687553 ], [ 162.3942487, 11.4685543 ], [ 162.394509699999986, 11.4683278 ], [ 162.394580600000012, 11.4680975 ], [ 162.3946253, 11.4677248 ], [ 162.3945321, 11.4673411 ], [ 162.3944501, 11.4668843 ], [ 162.3943009, 11.4665993 ], [ 162.394088399999987, 11.4664056 ], [ 162.3939243, 11.4661425 ], [ 162.393808799999988, 11.4659342 ], [ 162.3935888, 11.4658136 ], [ 162.3931972, 11.4657332 ], [ 162.3930394, 11.4656241 ] ] ] ] } },
{ "type": "Feature", "properties": { "FID": 358762, "id": 2464, "left": 160.0, "top": 15.0, "right": 165.0, "bottom": 10.0, "row_index": 15, "col_index": 68, "min_lon": 160.0, "min_lat": 10.0, "tile_id": "160_10" }, "geometry": { "type": "MultiPolygon", "coordinates": [ [ [ [ 162.392895900000013, 11.4699201 ], [ 162.3930171, 11.4698606 ], [ 162.393062, 11.4697702 ], [ 162.3930356, 11.4697237 ], [ 162.392909, 11.4697133 ], [ 162.392761400000012, 11.469765 ], [ 162.3926638, 11.4698684 ], [ 162.3926823, 11.4699149 ], [ 162.3927904, 11.4699175 ], [ 162.392895900000013, 11.4699201 ] ] ] ] } },
{ "type": "Feature", "properties": { "FID": 358763, "id": 2464, "left": 160.0, "top": 15.0, "right": 165.0, "bottom": 10.0, "row_index": 15, "col_index": 68, "min_lon": 160.0, "min_lat": 10.0, "tile_id": "160_10" }, "geometry": { "type": "MultiPolygon", "coordinates": [ [ [ [ 162.2165709, 11.3459212 ], [ 162.216656699999987, 11.3459322 ], [ 162.21683010000001, 11.34587 ], [ 162.2170745, 11.3457237 ], [ 162.217164, 11.3455938 ], [ 162.217158399999988, 11.3455079 ], [ 162.2171099, 11.3454219 ], [ 162.2169141, 11.3453597 ], [ 162.2167294, 11.3453579 ], [ 162.2166044, 11.3454109 ], [ 162.2165429, 11.3455024 ], [ 162.2164907, 11.3456395 ], [ 162.2164907, 11.3458133 ], [ 162.2165242, 11.3459047 ], [ 162.2165709, 11.3459212 ] ] ] ] } },
{ "type": "Feature", "properties": { "FID": 358764, "id": 2464, "left": 160.0, "top": 15.0, "right": 165.0, "bottom": 10.0, "row_index": 15, "col_index": 68, "min_lon": 160.0, "min_lat": 10.0, "tile_id": "160_10" }, "geometry": { "type": "MultiPolygon", "coordinates": [ [ [ [ 162.214661400000011, 11.3465423 ], [ 162.2146969, 11.3465551 ], [ 162.2148517, 11.3465533 ], [ 162.2150699, 11.3464472 ], [ 162.2154075, 11.3462241 ], [ 162.2156444, 11.3461674 ], [ 162.215782499999989, 11.3461125 ], [ 162.215775, 11.3460449 ], [ 162.2157358, 11.346012 ], [ 162.2156295, 11.3460156 ], [ 162.215359, 11.3460266 ], [ 162.2151781, 11.3460211 ], [ 162.215060599999987, 11.3459918 ], [ 162.2149114, 11.3459754 ], [ 162.214823700000011, 11.3460156 ], [ 162.2147118, 11.346193 ], [ 162.2146185, 11.3463978 ], [ 162.2146036, 11.3464856 ], [ 162.214661400000011, 11.3465423 ] ] ] ] } }
]
}
