{
"type": "FeatureCollection",
"name": "160_-70",
"crs": { "type": "name", "properties": { "name": "urn:ogc:def:crs:OGC:1.3:CRS84" } },
"xy_coordinate_resolution": 1e-15,
"features": [
{ "type": "Feature", "properties": { "FID": 307096, "id": 2480, "left": 160.0, "top": -65.0, "right": 165.0, "bottom": -70.0, "row_index": 31, "col_index": 68, "min_lon": 160.0, "min_lat": -70.0, "tile_id": "160_-70" }, "geometry": { "type": "MultiPolygon", "coordinates": [ [ [ [ 160.005520100000012, -69.6521551 ], [ 160.010593699999987, -69.6560156 ], [ 160.018358799999987, -69.6576725 ], [ 160.0219918, -69.6605687 ], [ 160.029783, -69.6627112 ], [ 160.036853400000012, -69.6643713 ], [ 160.0487564, -69.6647868 ], [ 160.0523829, -69.6674393 ], [ 160.0489484, -69.6686754 ], [ 160.0434884, -69.6713821 ], [ 160.044366700000012, -69.6750235 ], [ 160.0486934, -69.6776719 ], [ 160.0495489, -69.6808272 ], [ 160.0609929, -69.6858637 ], [ 160.07597770000001, -69.6916073 ], [ 160.083872500000012, -69.6954486 ], [ 160.0889831, -69.6995498 ], [ 160.090570500000013, -69.7031866 ], [ 160.1012858, -69.7072527 ], [ 160.1098278, -69.7098733 ], [ 160.114883099999986, -69.7127587 ], [ 160.13765140000001, -69.7207731 ], [ 160.139376199999987, -69.7211509 ], [ 160.143236300000012, -69.722264 ], [ 160.1472794, -69.7232953 ], [ 160.150183, -69.7241792 ], [ 160.1507861, -69.7243458 ], [ 160.151422, -69.7244976 ], [ 160.1521366, -69.7245984 ], [ 160.153613299999989, -69.7247577 ], [ 160.1551105, -69.7248872 ], [ 160.155494800000014, -69.7248764 ], [ 160.155872100000011, -69.7248458 ], [ 160.158085699999987, -69.7246092 ], [ 160.1592115, -69.7245138 ], [ 160.1611009, -69.7243781 ], [ 160.1618709, -69.7243567 ], [ 160.1626238, -69.7244139 ], [ 160.1644455, -69.7246361 ], [ 160.1667045, -69.7251503 ], [ 160.1670455, -69.7252138 ], [ 160.168148800000012, -69.7253357 ], [ 160.171158, -69.7255791 ], [ 160.177321400000011, -69.725729 ], [ 160.1784552, -69.72581 ], [ 160.1807076, -69.7260013 ], [ 160.181821, -69.726112 ], [ 160.1825341, -69.7262125 ], [ 160.1841796, -69.7265633 ], [ 160.185133799999988, -69.7267908 ], [ 160.185726, -69.7269635 ], [ 160.190013099999987, -69.7283153 ], [ 160.190498600000012, -69.7285231 ], [ 160.1927832, -69.7296028 ], [ 160.1966889, -69.731087 ], [ 160.1971762, -69.731295 ], [ 160.2015322, -69.733343 ], [ 160.2021961, -69.7336726 ], [ 160.2047542, -69.7353252 ], [ 160.205374799999987, -69.7356636 ], [ 160.208580399999988, -69.737005 ], [ 160.214504, -69.7391178 ], [ 160.2149422, -69.7393385 ], [ 160.216152099999988, -69.7400246 ], [ 160.2165654, -69.7403997 ], [ 160.217423599999989, -69.7412897 ], [ 160.2184028, -69.7425856 ], [ 160.2190034, -69.7441788 ], [ 160.220075799999989, -69.7458802 ], [ 160.2202742, -69.7470826 ], [ 160.2203202, -69.7472165 ], [ 160.2205732, -69.7474691 ], [ 160.221543, -69.7481992 ], [ 160.223350399999987, -69.7492291 ], [ 160.2256731, -69.7503003 ], [ 160.227354600000012, -69.7510345 ], [ 160.227776799999987, -69.7512579 ], [ 160.2290917, -69.7522282 ], [ 160.2304355, -69.7537667 ], [ 160.2318266, -69.7550169 ], [ 160.2339912, -69.7565883 ], [ 160.2377358, -69.7596761 ], [ 160.2402375, -69.7613395 ], [ 160.243710600000014, -69.7635828 ], [ 160.245876, -69.7653019 ], [ 160.2478772, -69.7664483 ], [ 160.2485499, -69.7667758 ], [ 160.2506123, -69.7677476 ], [ 160.2517283, -69.7681187 ], [ 160.2528986, -69.7684691 ], [ 160.2558306, -69.7691198 ], [ 160.2593582, -69.7699451 ], [ 160.2616533, -69.7704436 ], [ 160.2622256, -69.7706238 ], [ 160.263861100000014, -69.771195 ], [ 160.2644521, -69.771367 ], [ 160.2661603, -69.7716815 ], [ 160.266810099999987, -69.7718267 ], [ 160.2672911, -69.7720354 ], [ 160.2678814, -69.7723819 ], [ 160.2682341, -69.7726202 ], [ 160.26913110000001, -69.7736461 ], [ 160.2701629, -69.7746565 ], [ 160.2705353, -69.7748906 ], [ 160.2717494, -69.7755763 ], [ 160.27237550000001, -69.7759149 ], [ 160.27261390000001, -69.7760204 ], [ 160.2732254, -69.7761845 ], [ 160.2748766, -69.7765345 ], [ 160.27689620000001, -69.7769311 ], [ 160.277542, -69.7770786 ], [ 160.279419499999989, -69.7777545 ], [ 160.2803113, -69.7780121 ], [ 160.280943400000012, -69.7781664 ], [ 160.2816743, -69.7782551 ], [ 160.2835441, -69.7784271 ], [ 160.283906, -69.7784749 ], [ 160.28671460000001, -69.7789274 ], [ 160.287388, -69.7790602 ], [ 160.287682100000012, -69.7791469 ], [ 160.288751100000013, -69.7795346 ], [ 160.2890574, -69.7796162 ], [ 160.2894101, -69.7796713 ], [ 160.2909013, -69.7798153 ], [ 160.291884, -69.78003 ], [ 160.2927914, -69.7802809 ], [ 160.2938521, -69.7806704 ], [ 160.2943199, -69.7808839 ], [ 160.2973668, -69.7825951 ], [ 160.2982116, -69.7830441 ], [ 160.301055, -69.7841409 ], [ 160.3031664, -69.7851005 ], [ 160.305696899999987, -69.7862865 ], [ 160.3062076, -69.7864872 ], [ 160.3079172, -69.7870318 ], [ 160.3115272, -69.7880448 ], [ 160.3120348, -69.788247 ], [ 160.3134733, -69.7888784 ], [ 160.3137346, -69.7889771 ], [ 160.314038, -69.7890602 ], [ 160.3160078, -69.7894878 ], [ 160.3166809, -69.7896195 ], [ 160.319579, -69.7899988 ], [ 160.3202455, -69.7901352 ], [ 160.3212036, -69.7903628 ], [ 160.3215232, -69.7904383 ], [ 160.3228172, -69.790734 ], [ 160.324507, -69.7910614 ], [ 160.3251562, -69.7912081 ], [ 160.325740200000013, -69.7913827 ], [ 160.3317333, -69.7940146 ], [ 160.3338192, -69.7949808 ], [ 160.3342562, -69.7952017 ], [ 160.3346205, -69.7954383 ], [ 160.337657299999989, -69.7976088 ], [ 160.338763699999987, -69.7984663 ], [ 160.3413454, -69.7999611 ], [ 160.3416178, -69.8002119 ], [ 160.3424124, -69.8011076 ], [ 160.343116400000014, -69.8021524 ], [ 160.3434249, -69.802677 ], [ 160.3434701, -69.8030781 ], [ 160.3434158, -69.8034792 ], [ 160.343029699999988, -69.8041362 ], [ 160.34291970000001, -69.8053414 ], [ 160.3426987, -69.8060065 ], [ 160.3428604, -69.8062683 ], [ 160.3434299, -69.8067663 ], [ 160.3443967, -69.8074974 ], [ 160.3455504, -69.8081955 ], [ 160.3458765, -69.8084377 ], [ 160.3465771, -69.8092042 ], [ 160.3466708, -69.8093343 ], [ 160.3468024, -69.8098674 ], [ 160.346908500000012, -69.8099972 ], [ 160.3472112, -69.8102441 ], [ 160.3480424, -69.8108493 ], [ 160.3494341, -69.8116545 ], [ 160.349797200000012, -69.8118908 ], [ 160.3505489, -69.8126512 ], [ 160.350844599999988, -69.8128982 ], [ 160.351060100000012, -69.8130102 ], [ 160.3520562, -69.8134213 ], [ 160.3525176, -69.8136356 ], [ 160.353923900000012, -69.8144387 ], [ 160.355022100000014, -69.8152959 ], [ 160.3560488, -69.8161641 ], [ 160.3564796, -69.8165377 ], [ 160.3566853, -69.8167954 ], [ 160.3565327, -69.8171939 ], [ 160.3561788, -69.8175761 ], [ 160.3554552, -69.8180503 ], [ 160.3550088, -69.8185633 ], [ 160.353780300000011, -69.8195472 ], [ 160.352973100000014, -69.8203012 ], [ 160.3523902, -69.8207985 ], [ 160.35204920000001, -69.8210372 ], [ 160.3508589, -69.8217298 ], [ 160.3498745, -69.8224573 ], [ 160.3484286, -69.8237008 ], [ 160.3474812, -69.8245799 ], [ 160.347313500000013, -69.8247006 ], [ 160.3460149, -69.825524 ], [ 160.34421660000001, -69.8265581 ], [ 160.3439798, -69.8268135 ], [ 160.3434934, -69.8274611 ], [ 160.3423352, -69.8283095 ], [ 160.3414224, -69.8291929 ], [ 160.3406982, -69.8299573 ], [ 160.340193199999987, -69.8310143 ], [ 160.339938, -69.8314068 ], [ 160.339642199999986, -69.8317953 ], [ 160.338893399999989, -69.8325567 ], [ 160.338605300000012, -69.8329461 ], [ 160.3383091, -69.8334711 ], [ 160.3384196, -69.8337361 ], [ 160.338937499999986, -69.8343823 ], [ 160.3396702, -69.8355616 ], [ 160.3399619, -69.8358091 ], [ 160.3414305, -69.8369035 ], [ 160.3427848, -69.8380151 ], [ 160.3430539, -69.8382664 ], [ 160.3434234, -69.8389238 ], [ 160.343579799999986, -69.8390464 ], [ 160.3445893, -69.8396185 ], [ 160.3451734, -69.8397948 ], [ 160.3473391, -69.8403623 ], [ 160.349083799999988, -69.8406559 ], [ 160.349664, -69.8408345 ], [ 160.350411400000013, -69.8411419 ], [ 160.3506025, -69.8412593 ], [ 160.3512196, -69.8417507 ], [ 160.3514544, -69.8420054 ], [ 160.3514805, -69.8421395 ], [ 160.3514501, -69.8426754 ], [ 160.3515167, -69.8428069 ], [ 160.3524739, -69.8439662 ], [ 160.352622700000012, -69.8442293 ], [ 160.3531743, -69.8463649 ], [ 160.3532258, -69.8467668 ], [ 160.353098100000011, -69.8468933 ], [ 160.3513008, -69.8479269 ], [ 160.3509837, -69.8481715 ], [ 160.350468, -69.8488175 ], [ 160.3501003, -69.849199 ], [ 160.3499051, -69.8493145 ], [ 160.3490094, -69.8497524 ], [ 160.3489071, -69.8498074 ], [ 160.3498209, -69.8518872 ], [ 160.348676399999988, -69.854284 ], [ 160.341722, -69.8571194 ], [ 160.3368017, -69.8592823 ], [ 160.328825200000011, -69.8624532 ], [ 160.3241145, -69.8644111 ], [ 160.3198277, -69.8659597 ], [ 160.3244493, -69.8686059 ], [ 160.3275025, -69.8708278 ], [ 160.3334001, -69.8722461 ], [ 160.3433737, -69.8723197 ], [ 160.3461323, -69.8696596 ], [ 160.349484100000012, -69.8670726 ], [ 160.3550847, -69.8668386 ], [ 160.359541400000012, -69.8690014 ], [ 160.358567, -69.8718808 ], [ 160.356234, -69.8741318 ], [ 160.3530097, -69.8778884 ], [ 160.36642710000001, -69.8804597 ], [ 160.3718609, -69.8797427 ], [ 160.3781831, -69.87752 ], [ 160.388241599999986, -69.8762169 ], [ 160.3958801, -69.8753086 ], [ 160.4029638, -69.8736401 ], [ 160.4074171, -69.8725715 ], [ 160.4129675, -69.8697923 ], [ 160.4186479, -69.8681823 ], [ 160.425053600000012, -69.867814 ], [ 160.4295179, -69.8699749 ], [ 160.4291483, -69.8729276 ], [ 160.429412899999988, -69.875266 ], [ 160.427299, -69.8773132 ], [ 160.429003599999987, -69.8789056 ], [ 160.430748099999988, -69.879811 ], [ 160.4398261, -69.8781545 ], [ 160.443128, -69.8762524 ], [ 160.452586700000012, -69.8748728 ], [ 160.4644226, -69.8737832 ], [ 160.472499199999987, -69.8756919 ], [ 160.475645899999989, -69.8765372 ], [ 160.481232, -69.8802162 ], [ 160.489190900000011, -69.8770377 ], [ 160.4965153, -69.8744735 ], [ 160.5025746, -69.8731378 ], [ 160.510417, -69.8720194 ], [ 160.5238511, -69.874578 ], [ 160.5291691, -69.875917 ], [ 160.534595700000011, -69.8751947 ], [ 160.544746, -69.8757384 ], [ 160.5474753, -69.8769921 ], [ 160.5501011, -69.8763896 ], [ 160.5623176, -69.8755702 ], [ 160.5677428, -69.874847 ], [ 160.5802744, -69.8756775 ], [ 160.5817471, -69.8781602 ], [ 160.5848306, -69.8803776 ], [ 160.582698, -69.8831139 ], [ 160.5809849, -69.8854403 ], [ 160.5805306, -69.8865373 ], [ 160.585577699999988, -69.8894534 ], [ 160.5822872, -69.8913582 ], [ 160.5821158, -69.8947935 ], [ 160.5806457, -69.8962281 ], [ 160.5817002, -69.8991208 ], [ 160.5768646, -69.8999169 ], [ 160.5789202, -69.9033468 ], [ 160.575186800000012, -69.9054738 ], [ 160.5640395, -69.9085 ], [ 160.5624971, -69.9113086 ], [ 160.5715831, -69.9174799 ], [ 160.575060799999989, -69.9238926 ], [ 160.5752741, -69.9276054 ], [ 160.578647600000011, -69.9321618 ], [ 160.5806527, -69.9360913 ], [ 160.5852916, -69.9394179 ], [ 160.584557499999988, -69.9420942 ], [ 160.5793976, -69.9451569 ], [ 160.5706156, -69.944555 ], [ 160.5586377, -69.9437958 ], [ 160.558321400000011, -69.9460623 ], [ 160.5472909, -69.946339 ], [ 160.5472222, -69.9437954 ], [ 160.5400936, -69.9422395 ], [ 160.5295233, -69.9414182 ], [ 160.520773100000014, -69.9440444 ], [ 160.5146933, -69.945381 ], [ 160.508539, -69.9480917 ], [ 160.503365699999989, -69.9511521 ], [ 160.50113970000001, -69.9552623 ], [ 160.4963117, -69.959287 ], [ 160.487972500000012, -69.961502 ], [ 160.4804566, -69.9596661 ], [ 160.4719594, -69.9574797 ], [ 160.4682027, -69.9565614 ], [ 160.462577900000014, -69.9567994 ], [ 160.4478236, -69.9554641 ], [ 160.444375, -69.9561971 ], [ 160.4355132, -69.9569623 ], [ 160.424342200000012, -69.9560614 ], [ 160.4191018, -69.9565755 ], [ 160.4148023, -69.958127 ], [ 160.4024378, -69.957079 ], [ 160.394939599999987, -69.9584702 ], [ 160.390480700000012, -69.9660007 ], [ 160.388524499999988, -69.9685305 ], [ 160.3824282, -69.9698624 ], [ 160.37829450000001, -69.9718955 ], [ 160.3696818, -69.9749964 ], [ 160.3691301, -69.9774674 ], [ 160.3614083, -69.9790618 ], [ 160.3581637, -69.9763573 ], [ 160.3626399, -69.9720585 ], [ 160.3669851, -69.9665901 ], [ 160.3697081, -69.9613851 ], [ 160.3655684, -69.9569558 ], [ 160.3543132, -69.9509627 ], [ 160.3607098, -69.9577457 ], [ 160.3622479, -69.9620876 ], [ 160.3597781, -69.9664008 ], [ 160.3544498, -69.9715182 ], [ 160.3476253, -69.9748372 ], [ 160.3393055, -69.9763576 ], [ 160.3285118, -69.9757281 ], [ 160.3256092, -69.9772191 ], [ 160.3276549, -69.9797779 ], [ 160.3302119, -69.9837843 ], [ 160.3299956, -69.9872202 ], [ 160.3267909, -69.9902902 ], [ 160.3243966, -69.9932288 ], [ 160.32578388559611, -70.0 ], [ 160.0, -70.0 ], [ 160.0, -69.6482405 ], [ 160.005520100000012, -69.6521551 ] ] ] ] } },
{ "type": "Feature", "properties": { "FID": 322791, "id": 2480, "left": 160.0, "top": -65.0, "right": 165.0, "bottom": -70.0, "row_index": 31, "col_index": 68, "min_lon": 160.0, "min_lat": -70.0, "tile_id": "160_-70" }, "geometry": { "type": "MultiPolygon", "coordinates": [ [ [ [ 162.2461088, -66.226429 ], [ 162.251744699999989, -66.2266152 ], [ 162.2533893, -66.2269009 ], [ 162.2509107, -66.2279652 ], [ 162.2490449, -66.2288206 ], [ 162.24479, -66.2302784 ], [ 162.2424493, -66.230655 ], [ 162.2428467, -66.2286084 ], [ 162.242464899999987, -66.2276775 ], [ 162.243681400000014, -66.2272584 ], [ 162.2461088, -66.226429 ] ] ] ] } },
{ "type": "Feature", "properties": { "FID": 322795, "id": 2480, "left": 160.0, "top": -65.0, "right": 165.0, "bottom": -70.0, "row_index": 31, "col_index": 68, "min_lon": 160.0, "min_lat": -70.0, "tile_id": "160_-70" }, "geometry": { "type": "MultiPolygon", "coordinates": [ [ [ [ 163.3210339, -66.8699945 ], [ 163.3197542, -66.8689657 ], [ 163.32045260000001, -66.8681576 ], [ 163.322199, -66.8678433 ], [ 163.3225026, -66.8679772 ], [ 163.324355200000014, -66.8680236 ], [ 163.324540399999989, -66.8682169 ], [ 163.323082, -66.8684328 ], [ 163.322292, -66.8690085 ], [ 163.3217108, -66.8697471 ], [ 163.3215634, -66.8699073 ], [ 163.3210339, -66.8699945 ] ] ] ] } },
{ "type": "Feature", "properties": { "FID": 322796, "id": 2480, "left": 160.0, "top": -65.0, "right": 165.0, "bottom": -70.0, "row_index": 31, "col_index": 68, "min_lon": 160.0, "min_lat": -70.0, "tile_id": "160_-70" }, "geometry": { "type": "MultiPolygon", "coordinates": [ [ [ [ 162.6657812, -66.538451 ], [ 162.6675764, -66.5380436 ], [ 162.669729100000012, -66.5388007 ], [ 162.6706634, -66.5399717 ], [ 162.66944, -66.5403943 ], [ 162.663179, -66.5401934 ], [ 162.662686, -66.539725 ], [ 162.662767300000013, -66.5392721 ], [ 162.6623236, -66.5385691 ], [ 162.6629369, -66.5383581 ], [ 162.6640724, -66.5383968 ], [ 162.6657812, -66.538451 ] ] ] ] } },
{ "type": "Feature", "properties": { "FID": 322798, "id": 2480, "left": 160.0, "top": -65.0, "right": 165.0, "bottom": -70.0, "row_index": 31, "col_index": 68, "min_lon": 160.0, "min_lat": -70.0, "tile_id": "160_-70" }, "geometry": { "type": "MultiPolygon", "coordinates": [ [ [ [ 164.811573, -67.5732453 ], [ 164.808278300000012, -67.5731789 ], [ 164.8045349, -67.5724922 ], [ 164.7985225, -67.5715476 ], [ 164.7913805, -67.5710689 ], [ 164.7854935, -67.5707402 ], [ 164.77981, -67.5698686 ], [ 164.7735768, -67.5687219 ], [ 164.7676564, -67.5685687 ], [ 164.7650098, -67.5689718 ], [ 164.7598628, -67.5693543 ], [ 164.7576713, -67.5698888 ], [ 164.754128799999989, -67.5699222 ], [ 164.75217090000001, -67.569913 ], [ 164.74715710000001, -67.570642 ], [ 164.7462344, -67.5709818 ], [ 164.7428047, -67.5715888 ], [ 164.740805599999987, -67.5716899 ], [ 164.7375011, -67.5722793 ], [ 164.735769299999987, -67.572822 ], [ 164.732091700000012, -67.5725835 ], [ 164.729261400000013, -67.5728033 ], [ 164.7283672, -67.5730993 ], [ 164.725270200000011, -67.5730325 ], [ 164.720704, -67.5727537 ], [ 164.7160863, -67.5725577 ], [ 164.7087764, -67.5717745 ], [ 164.7038766, -67.5708098 ], [ 164.702053, -67.5703636 ], [ 164.699553900000012, -67.5687163 ], [ 164.6974188, -67.5679137 ], [ 164.694725, -67.5669218 ], [ 164.6940279, -67.5664335 ], [ 164.6943712, -67.5659094 ], [ 164.69389910000001, -67.5651888 ], [ 164.6924945, -67.5645806 ], [ 164.6908521, -67.5644354 ], [ 164.689318500000013, -67.5650793 ], [ 164.6859751, -67.5646875 ], [ 164.6835999, -67.5640503 ], [ 164.679921900000011, -67.5620116 ], [ 164.6752525, -67.559567 ], [ 164.6740619, -67.5583517 ], [ 164.6730517, -67.556728 ], [ 164.6712693, -67.5546627 ], [ 164.6682623, -67.5521399 ], [ 164.665584, -67.5499531 ], [ 164.6645603, -67.5484063 ], [ 164.662430699999987, -67.5464383 ], [ 164.6610403, -67.5442016 ], [ 164.6584742, -67.5424957 ], [ 164.6550607, -67.541183 ], [ 164.653505700000011, -67.5404473 ], [ 164.6520137, -67.5399042 ], [ 164.6508979, -67.5391828 ], [ 164.6499109, -67.538199 ], [ 164.6484619, -67.5386223 ], [ 164.647893900000014, -67.5383302 ], [ 164.648151399999989, -67.5376579 ], [ 164.647765099999987, -67.5365429 ], [ 164.6466546, -67.5345929 ], [ 164.6480826, -67.5342987 ], [ 164.6514893, -67.5333969 ], [ 164.653849900000012, -67.531898 ], [ 164.6563272, -67.5302867 ], [ 164.6577091, -67.5287836 ], [ 164.6592121, -67.5270719 ], [ 164.6585878, -67.5259815 ], [ 164.6570777, -67.525193 ], [ 164.6565551, -67.5240416 ], [ 164.6529205, -67.5218729 ], [ 164.653901600000012, -67.5201615 ], [ 164.6521648, -67.5173163 ], [ 164.651809, -67.5158096 ], [ 164.65053, -67.5124616 ], [ 164.6484111, -67.5117089 ], [ 164.6472829, -67.5100002 ], [ 164.6430973, -67.5096495 ], [ 164.6446368, -67.5069573 ], [ 164.6422068, -67.5056748 ], [ 164.6410703, -67.5016886 ], [ 164.6405196, -67.4969659 ], [ 164.637370800000014, -67.4952206 ], [ 164.6380662, -67.4943469 ], [ 164.637761500000011, -67.4926383 ], [ 164.632423, -67.4910162 ], [ 164.6321868, -67.489977 ], [ 164.6301698, -67.4900098 ], [ 164.6301185, -67.4889446 ], [ 164.627037, -67.489024 ], [ 164.6230239, -67.488235 ], [ 164.6224451, -67.4864936 ], [ 164.623346199999986, -67.4847845 ], [ 164.625011, -67.4829424 ], [ 164.6287399, -67.4812783 ], [ 164.6391128, -67.4780179 ], [ 164.642829799999987, -67.4766978 ], [ 164.6476049, -67.4760389 ], [ 164.6542977, -67.4749979 ], [ 164.6592071, -67.4754471 ], [ 164.661284200000011, -67.4710443 ], [ 164.664996, -67.4671441 ], [ 164.6646308, -67.4662403 ], [ 164.6631884, -67.4652133 ], [ 164.6642875, -67.4631482 ], [ 164.6636828, -67.4621645 ], [ 164.6550178, -67.4617664 ], [ 164.6527003, -67.4607136 ], [ 164.649042, -67.4596444 ], [ 164.6478938, -67.4581473 ], [ 164.6466064, -67.4581473 ], [ 164.6460055, -67.4549225 ], [ 164.650102299999986, -67.4531914 ], [ 164.6520906, -67.4515992 ], [ 164.6534371, -67.4483354 ], [ 164.6535185, -67.4461839 ], [ 164.654542600000013, -67.4454101 ], [ 164.65353540000001, -67.442208 ], [ 164.6520995, -67.4408665 ], [ 164.6490096, -67.4400103 ], [ 164.643846700000012, -67.43798 ], [ 164.643773900000014, -67.4356962 ], [ 164.644087500000012, -67.4340185 ], [ 164.6468639, -67.4333907 ], [ 164.6486808, -67.4325728 ], [ 164.651327, -67.430459 ], [ 164.6525287, -67.4281859 ], [ 164.654846099999986, -67.4264727 ], [ 164.6553611, -67.4250229 ], [ 164.6569919, -67.4231118 ], [ 164.655879, -67.4211339 ], [ 164.6570777, -67.4188605 ], [ 164.6573349, -67.4165532 ], [ 164.660612, -67.4145078 ], [ 164.6605108, -67.4116415 ], [ 164.657280500000013, -67.4106804 ], [ 164.655446899999987, -67.4098942 ], [ 164.6550178, -67.4083775 ], [ 164.6526145, -67.4073553 ], [ 164.652405, -67.4048404 ], [ 164.6540539, -67.4038513 ], [ 164.653987699999988, -67.4026065 ], [ 164.6520609, -67.4016918 ], [ 164.6501723, -67.4005271 ], [ 164.6488621, -67.3992262 ], [ 164.650274599999989, -67.3982515 ], [ 164.6500944, -67.3973795 ], [ 164.6519104, -67.3957165 ], [ 164.65352630000001, -67.3942549 ], [ 164.6559574, -67.3934782 ], [ 164.658519500000011, -67.3922811 ], [ 164.6620456, -67.3913853 ], [ 164.6690117, -67.3908512 ], [ 164.6690082, -67.3889156 ], [ 164.667008900000013, -67.3856524 ], [ 164.666261600000013, -67.3847738 ], [ 164.6664762, -67.383305 ], [ 164.6661786, -67.3819839 ], [ 164.666047099999986, -67.3794924 ], [ 164.6618413, -67.3792118 ], [ 164.6582156, -67.3778892 ], [ 164.6576356, -67.3769008 ], [ 164.657850200000013, -67.3760588 ], [ 164.656348400000013, -67.3739033 ], [ 164.650640399999986, -67.3735163 ], [ 164.6460687, -67.3729263 ], [ 164.6433878, -67.3712378 ], [ 164.6426298, -67.3697934 ], [ 164.6423149, -67.3692728 ], [ 164.6429157, -67.3684306 ], [ 164.6424965, -67.3673602 ], [ 164.6366746, -67.3660953 ], [ 164.6344614, -67.364533 ], [ 164.632724200000013, -67.3620606 ], [ 164.6330452, -67.3606347 ], [ 164.632015200000012, -67.3593131 ], [ 164.6272516, -67.3591479 ], [ 164.6218287, -67.3588708 ], [ 164.6179819, -67.3583714 ], [ 164.6163511, -67.3576775 ], [ 164.6109438, -67.3568349 ], [ 164.6083688, -67.3568349 ], [ 164.60787830000001, -67.3558268 ], [ 164.6083688, -67.3555627 ], [ 164.606781, -67.3541747 ], [ 164.6056222, -67.353679 ], [ 164.6040994, -67.3537864 ], [ 164.6018028, -67.3519604 ], [ 164.601244900000012, -67.3512498 ], [ 164.601502399999987, -67.3505723 ], [ 164.60110130000001, -67.3487352 ], [ 164.599227899999988, -67.3467048 ], [ 164.599227899999988, -67.3460106 ], [ 164.5977193, -67.3447828 ], [ 164.5980691, -67.3412992 ], [ 164.601029399999987, -67.3398822 ], [ 164.6067812, -67.339173 ], [ 164.6073212, -67.3373725 ], [ 164.6068668, -67.3362893 ], [ 164.606190700000013, -67.3344799 ], [ 164.605236, -67.3326675 ], [ 164.6042113, -67.3305809 ], [ 164.6029615, -67.3292107 ], [ 164.6010252, -67.3276371 ], [ 164.599099099999989, -67.3264978 ], [ 164.5960239, -67.3255535 ], [ 164.5931339, -67.3256293 ], [ 164.5874047, -67.3256045 ], [ 164.583456500000011, -67.3250255 ], [ 164.5786929, -67.3240328 ], [ 164.5767188, -67.3229822 ], [ 164.5696949, -67.3206776 ], [ 164.567000299999989, -67.3190035 ], [ 164.565145199999989, -67.3170671 ], [ 164.564709, -67.3153906 ], [ 164.5652222, -67.3121192 ], [ 164.565665599999988, -67.3087324 ], [ 164.5682875, -67.3045913 ], [ 164.5715882, -67.302052 ], [ 164.5752228, -67.2993681 ], [ 164.580096, -67.2985442 ], [ 164.5821622, -67.2955612 ], [ 164.582943199999988, -67.2928666 ], [ 164.5818725, -67.2911014 ], [ 164.5795961, -67.2908493 ], [ 164.5765506, -67.2894363 ], [ 164.57420110000001, -67.2883823 ], [ 164.573432, -67.2870227 ], [ 164.5700694, -67.2833692 ], [ 164.5686581, -67.2814546 ], [ 164.5701312, -67.2808951 ], [ 164.5706001, -67.2797027 ], [ 164.5693362, -67.2794413 ], [ 164.57306650000001, -67.2752727 ], [ 164.572711700000013, -67.2744536 ], [ 164.574627, -67.2729454 ], [ 164.5788738, -67.2708594 ], [ 164.584224, -67.26898 ], [ 164.587943599999988, -67.2681059 ], [ 164.590411, -67.2678378 ], [ 164.5919869, -67.2660634 ], [ 164.5967836, -67.2645573 ], [ 164.600975799999986, -67.2638055 ], [ 164.608758599999987, -67.2643948 ], [ 164.6120166, -67.2630874 ], [ 164.6132926, -67.2622493 ], [ 164.6176814, -67.2613624 ], [ 164.620395300000013, -67.2604629 ], [ 164.623896, -67.2590247 ], [ 164.6276465, -67.2576549 ], [ 164.6307103, -67.2569372 ], [ 164.6366227, -67.2545224 ], [ 164.6377971, -67.2540427 ], [ 164.6367349, -67.250953 ], [ 164.6388378, -67.2485757 ], [ 164.641564, -67.2469815 ], [ 164.6442864, -67.2456643 ], [ 164.6489411, -67.2445475 ], [ 164.654406, -67.2438442 ], [ 164.6616515, -67.2434522 ], [ 164.6677282, -67.2436707 ], [ 164.675693599999988, -67.2447066 ], [ 164.679921900000011, -67.2461432 ], [ 164.6811533, -67.2470593 ], [ 164.682019200000013, -67.2483331 ], [ 164.681855399999989, -67.2500821 ], [ 164.6848869, -67.2503122 ], [ 164.690924099999989, -67.249976 ], [ 164.6989136, -67.2508239 ], [ 164.701237600000013, -67.2498144 ], [ 164.7038803, -67.249544 ], [ 164.7071707, -67.2503771 ], [ 164.7105336, -67.2513551 ], [ 164.7133929, -67.2522535 ], [ 164.715874, -67.2532545 ], [ 164.7198545, -67.2551203 ], [ 164.7244728, -67.2574902 ], [ 164.7262141, -67.2583296 ], [ 164.728545700000012, -67.2594263 ], [ 164.7312286, -67.2608698 ], [ 164.7336314, -67.2625898 ], [ 164.734604499999989, -67.2637995 ], [ 164.7356761, -67.2653684 ], [ 164.736824399999989, -67.2669853 ], [ 164.7378444, -67.2679469 ], [ 164.7400824, -67.2690846 ], [ 164.7442461, -67.2708029 ], [ 164.747701400000011, -67.273103 ], [ 164.7508001, -67.2754292 ], [ 164.75270230000001, -67.2778707 ], [ 164.754840800000011, -67.2806429 ], [ 164.7549612, -67.2845103 ], [ 164.754583200000013, -67.2879936 ], [ 164.754601799999989, -67.2894529 ], [ 164.7556114, -67.2902247 ], [ 164.7583136, -67.2911132 ], [ 164.7599887, -67.2924281 ], [ 164.761378400000012, -67.2939881 ], [ 164.760392599999989, -67.2952218 ], [ 164.762381, -67.296587 ], [ 164.7647107, -67.2967942 ], [ 164.7675964, -67.2991017 ], [ 164.7665977, -67.3003125 ], [ 164.765096199999988, -67.3011259 ], [ 164.765996800000011, -67.3022997 ], [ 164.7685016, -67.3033792 ], [ 164.7762107, -67.3039225 ], [ 164.778582300000011, -67.3049507 ], [ 164.783935500000013, -67.3049491 ], [ 164.7855759, -67.3056011 ], [ 164.789686100000011, -67.3059592 ], [ 164.790673199999986, -67.3061082 ], [ 164.790329899999989, -67.3066711 ], [ 164.7919426, -67.3077639 ], [ 164.7937202, -67.3079956 ], [ 164.7954288, -67.3092685 ], [ 164.7956084, -67.3101478 ], [ 164.7975825, -67.3109423 ], [ 164.8034166, -67.3122541 ], [ 164.808981, -67.3151982 ], [ 164.8106718, -67.315759 ], [ 164.8110692, -67.3171284 ], [ 164.814497, -67.3193224 ], [ 164.8179217, -67.3213434 ], [ 164.8227719, -67.3228479 ], [ 164.8239326, -67.3234537 ], [ 164.825206400000013, -67.3254001 ], [ 164.8283639, -67.328371 ], [ 164.829487699999987, -67.3300584 ], [ 164.831152800000012, -67.3313268 ], [ 164.8346936, -67.3316414 ], [ 164.836335100000014, -67.3322872 ], [ 164.8377513, -67.3321548 ], [ 164.8400832, -67.3329976 ], [ 164.8387813, -67.3342221 ], [ 164.836911, -67.3350049 ], [ 164.8380215, -67.3375653 ], [ 164.8391442, -67.3402555 ], [ 164.8394099, -67.3432378 ], [ 164.839481799999987, -67.3455201 ], [ 164.8390627, -67.3475116 ], [ 164.8380682, -67.3494744 ], [ 164.8366553, -67.3511486 ], [ 164.8334596, -67.3523621 ], [ 164.8324728, -67.3528528 ], [ 164.8315102, -67.3537199 ], [ 164.83043570000001, -67.3546197 ], [ 164.8281175, -67.3553784 ], [ 164.826979599999987, -67.3556123 ], [ 164.826765, -67.3566532 ], [ 164.8275375, -67.3574462 ], [ 164.8290395, -67.3580575 ], [ 164.8314552, -67.3585466 ], [ 164.8356206, -67.3598345 ], [ 164.840041899999989, -67.3634258 ], [ 164.840068800000012, -67.3641035 ], [ 164.8407125, -67.3647642 ], [ 164.8416996, -67.3653092 ], [ 164.8434591, -67.3656065 ], [ 164.8496707, -67.3681427 ], [ 164.852127200000012, -67.36989 ], [ 164.8541021, -67.3699498 ], [ 164.854488300000014, -67.3704782 ], [ 164.853887500000013, -67.3705443 ], [ 164.8532009, -67.3716176 ], [ 164.853415399999989, -67.3726082 ], [ 164.85466, -67.3734503 ], [ 164.8564882, -67.3737994 ], [ 164.8579106, -67.3747396 ], [ 164.8594828, -67.3762767 ], [ 164.860907700000013, -67.3780893 ], [ 164.860527, -67.3788632 ], [ 164.8615351, -67.380311 ], [ 164.8611577, -67.3809466 ], [ 164.861011499999989, -67.3824964 ], [ 164.8618698, -67.3833381 ], [ 164.863096899999988, -67.3838752 ], [ 164.8644447, -67.3843118 ], [ 164.8658259, -67.3847609 ], [ 164.8689508, -67.385698 ], [ 164.8709249, -67.3867046 ], [ 164.872984800000012, -67.3870181 ], [ 164.874401, -67.3874306 ], [ 164.873371100000014, -67.3878266 ], [ 164.873929, -67.3880576 ], [ 164.8768901, -67.3883217 ], [ 164.8799371, -67.3881731 ], [ 164.8843836, -67.388614 ], [ 164.8898163, -67.3902026 ], [ 164.897747, -67.3924134 ], [ 164.90412760000001, -67.3946141 ], [ 164.9056434, -67.3956631 ], [ 164.9079681, -67.3969274 ], [ 164.910621600000013, -67.3982692 ], [ 164.9153686, -67.4013494 ], [ 164.914226500000012, -67.4025571 ], [ 164.914686, -67.4043505 ], [ 164.9171447, -67.4062342 ], [ 164.9202941, -67.40744 ], [ 164.9203355, -67.4091069 ], [ 164.9193334, -67.4115097 ], [ 164.919426499999986, -67.4123821 ], [ 164.9216079, -67.413224 ], [ 164.920706700000011, -67.4144767 ], [ 164.920706700000011, -67.4152349 ], [ 164.921951299999989, -67.4160589 ], [ 164.9186468, -67.4178718 ], [ 164.9152871, -67.4222642 ], [ 164.9127684, -67.4242189 ], [ 164.9113706, -67.4258029 ], [ 164.90851, -67.4284228 ], [ 164.9085187, -67.4297837 ], [ 164.910730699999988, -67.4331773 ], [ 164.910621600000013, -67.4346752 ], [ 164.9118772, -67.437903 ], [ 164.911952, -67.438265 ], [ 164.910922, -67.4385614 ], [ 164.909995400000014, -67.4390645 ], [ 164.908544799999987, -67.4439576 ], [ 164.9079179, -67.4451632 ], [ 164.907035, -67.4464001 ], [ 164.9062013, -67.4467598 ], [ 164.9063301, -67.4472536 ], [ 164.9077892, -67.4474018 ], [ 164.910922, -67.4474182 ], [ 164.913024900000011, -67.4480766 ], [ 164.9143982, -67.448702 ], [ 164.915986, -67.449278 ], [ 164.91877550000001, -67.4490476 ], [ 164.921565, -67.4485703 ], [ 164.9256891, -67.446972 ], [ 164.9283886, -67.4489818 ], [ 164.9253807, -67.4515381 ], [ 164.9226378, -67.4532112 ], [ 164.9259853, -67.4545441 ], [ 164.9244833, -67.4553339 ], [ 164.9258346, -67.4562283 ], [ 164.9280881, -67.4575221 ], [ 164.9288177, -67.4583776 ], [ 164.9280023, -67.461421 ], [ 164.9255991, -67.4619803 ], [ 164.9247576, -67.462662 ], [ 164.926123, -67.4639976 ], [ 164.924440299999986, -67.4644147 ], [ 164.922637900000012, -67.4646614 ], [ 164.9186468, -67.4652864 ], [ 164.9165208, -67.4662625 ], [ 164.9126918, -67.4700291 ], [ 164.91031430000001, -67.4713855 ], [ 164.9050019, -67.4758102 ], [ 164.9031972, -67.4777006 ], [ 164.9004521, -67.481354 ], [ 164.897505200000012, -67.4839325 ], [ 164.8980238, -67.4846696 ], [ 164.8982899, -67.4852898 ], [ 164.8986233, -67.486894 ], [ 164.8937239, -67.4883405 ], [ 164.8915223, -67.4893045 ], [ 164.891308400000014, -67.492111 ], [ 164.887790599999988, -67.4940184 ], [ 164.8877477, -67.4951518 ], [ 164.8863225, -67.4967192 ], [ 164.8873615, -67.4978127 ], [ 164.8873615, -67.4997836 ], [ 164.8869464, -67.5011799 ], [ 164.887189799999987, -67.5019021 ], [ 164.885044099999988, -67.502444 ], [ 164.885044099999988, -67.5037905 ], [ 164.887200299999989, -67.5042838 ], [ 164.8887777, -67.5049235 ], [ 164.8898077, -67.5056623 ], [ 164.8907613, -67.5066511 ], [ 164.890923500000014, -67.5082236 ], [ 164.88986890000001, -67.5092858 ], [ 164.8888206, -67.5097996 ], [ 164.887661900000012, -67.5103742 ], [ 164.887318599999986, -67.5109815 ], [ 164.888134, -67.5117695 ], [ 164.8891786, -67.5121471 ], [ 164.888863500000014, -67.5133781 ], [ 164.887790599999988, -67.5145434 ], [ 164.8862886, -67.5177601 ], [ 164.887120900000014, -67.5188291 ], [ 164.8866748, -67.5222234 ], [ 164.8879847, -67.5232835 ], [ 164.887804100000011, -67.5261712 ], [ 164.8868545, -67.5277591 ], [ 164.8836278, -67.5305242 ], [ 164.88225460000001, -67.5320495 ], [ 164.8804763, -67.5331735 ], [ 164.8790592, -67.5335677 ], [ 164.877785100000011, -67.5366851 ], [ 164.8754739, -67.539937 ], [ 164.8743581, -67.5406584 ], [ 164.8715211, -67.5410984 ], [ 164.8699808, -67.541806 ], [ 164.8694658, -67.5428224 ], [ 164.8747873, -67.5454616 ], [ 164.8749546, -67.5464337 ], [ 164.876967799999989, -67.5484806 ], [ 164.8778319, -67.5514074 ], [ 164.877491, -67.5528039 ], [ 164.876246400000014, -67.5542458 ], [ 164.8752025, -67.5558301 ], [ 164.8729419, -67.5572442 ], [ 164.8695516, -67.5583418 ], [ 164.8700237, -67.5598654 ], [ 164.8699718, -67.5630407 ], [ 164.8694658, -67.5634854 ], [ 164.870095, -67.5639157 ], [ 164.8689937, -67.5648121 ], [ 164.8668805, -67.5648466 ], [ 164.8632431, -67.5653526 ], [ 164.8591216, -67.5657262 ], [ 164.8561785, -67.5667208 ], [ 164.8483085, -67.5679728 ], [ 164.8476126, -67.5684299 ], [ 164.8444242, -67.5689309 ], [ 164.8396825, -67.5697578 ], [ 164.8368501, -67.5705601 ], [ 164.8337642, -67.5700362 ], [ 164.827674, -67.5713166 ], [ 164.8206165, -67.5727215 ], [ 164.8148888, -67.5738226 ], [ 164.811573, -67.5732453 ] ] ] ] } },
{ "type": "Feature", "properties": { "FID": 322800, "id": 2480, "left": 160.0, "top": -65.0, "right": 165.0, "bottom": -70.0, "row_index": 31, "col_index": 68, "min_lon": 160.0, "min_lat": -70.0, "tile_id": "160_-70" }, "geometry": { "type": "MultiPolygon", "coordinates": [ [ [ [ 162.2430406, -66.273649 ], [ 162.2452178, -66.2730254 ], [ 162.246650499999987, -66.2698285 ], [ 162.2461136, -66.2688686 ], [ 162.2495767, -66.2668897 ], [ 162.251515500000011, -66.264568 ], [ 162.2546187, -66.2619548 ], [ 162.257474, -66.2585384 ], [ 162.256871499999988, -66.2563463 ], [ 162.25788750000001, -66.2542716 ], [ 162.2599121, -66.252374 ], [ 162.2611413, -66.2509856 ], [ 162.263083200000011, -66.2504385 ], [ 162.2639872, -66.2494571 ], [ 162.264933500000012, -66.2480914 ], [ 162.2669076, -66.2464493 ], [ 162.2683333, -66.2438365 ], [ 162.2694711, -66.241426 ], [ 162.2722025, -66.2381064 ], [ 162.2733775, -66.2371128 ], [ 162.275840100000011, -66.2360252 ], [ 162.2789285, -66.235532 ], [ 162.281286599999987, -66.2356424 ], [ 162.2848387, -66.2356123 ], [ 162.2886106, -66.2350246 ], [ 162.2900931, -66.2350811 ], [ 162.293850099999986, -66.2349915 ], [ 162.2969301, -66.2355839 ], [ 162.299305, -66.2357116 ], [ 162.3021185, -66.2356505 ], [ 162.3040584, -66.235746 ], [ 162.3049031, -66.2360447 ], [ 162.3048019, -66.2366978 ], [ 162.3040294, -66.2370264 ], [ 162.30364320000001, -66.2379948 ], [ 162.303511, -66.2388879 ], [ 162.304205700000011, -66.2400583 ], [ 162.3054593, -66.2410679 ], [ 162.3068371, -66.2418651 ], [ 162.3079153, -66.2424962 ], [ 162.3089424, -66.2428797 ], [ 162.3096084, -66.2430782 ], [ 162.3104667, -66.2435623 ], [ 162.3122263, -66.2438043 ], [ 162.314243299999987, -66.2448934 ], [ 162.3154308, -66.2456676 ], [ 162.316223400000013, -66.2467361 ], [ 162.3168182, -66.247642 ], [ 162.3174318, -66.2487019 ], [ 162.3185897, -66.2501258 ], [ 162.3190069, -66.251168 ], [ 162.3197422, -66.2517251 ], [ 162.3224004, -66.2525091 ], [ 162.323126699999989, -66.2533283 ], [ 162.323856299999989, -66.2538813 ], [ 162.3254871, -66.2543134 ], [ 162.327032, -66.2550219 ], [ 162.327461199999988, -66.2554539 ], [ 162.3284483, -66.2560414 ], [ 162.3296738, -66.2564028 ], [ 162.3302507, -66.256819 ], [ 162.3319244, -66.2572683 ], [ 162.3319244, -66.2576311 ], [ 162.332396499999987, -66.2581149 ], [ 162.3331689, -66.2582704 ], [ 162.333641, -66.2585987 ], [ 162.334327699999989, -66.2587715 ], [ 162.335271799999987, -66.259238 ], [ 162.3354697, -66.259746 ], [ 162.3358297, -66.260361 ], [ 162.3357897, -66.2616377 ], [ 162.3368664, -66.2625371 ], [ 162.337843099999986, -66.2633306 ], [ 162.341022400000014, -66.2650081 ], [ 162.3425674, -66.266459 ], [ 162.3444557, -66.2677026 ], [ 162.3467573, -66.2684713 ], [ 162.3479747, -66.2693779 ], [ 162.3486435, -66.2703715 ], [ 162.3484407, -66.2707668 ], [ 162.3500347, -66.2714676 ], [ 162.35063550000001, -66.2719166 ], [ 162.3509851, -66.2725746 ], [ 162.353807499999988, -66.2743295 ], [ 162.354369100000014, -66.2761644 ], [ 162.3557424, -66.2774076 ], [ 162.3577594, -66.2767515 ], [ 162.360016800000011, -66.2766185 ], [ 162.3629951, -66.2763198 ], [ 162.3654841, -66.2769205 ], [ 162.3685312, -66.2776838 ], [ 162.3703765, -66.2790822 ], [ 162.3723081, -66.2808274 ], [ 162.3719644, -66.2822068 ], [ 162.370677, -66.2835014 ], [ 162.370677, -66.2842609 ], [ 162.3727185, -66.2850338 ], [ 162.3730802, -66.2862458 ], [ 162.3724365, -66.2881097 ], [ 162.3720502, -66.288662 ], [ 162.372837299999986, -66.2913653 ], [ 162.374196, -66.2922513 ], [ 162.3773179, -66.2938967 ], [ 162.3776292, -66.2946496 ], [ 162.377202, -66.2953252 ], [ 162.3775301, -66.2963498 ], [ 162.3779726, -66.297686 ], [ 162.378530500000011, -66.2992213 ], [ 162.379989599999988, -66.3009291 ], [ 162.3787021, -66.3019295 ], [ 162.3785734, -66.3026367 ], [ 162.3794207, -66.3035215 ], [ 162.3801183, -66.3042924 ], [ 162.3806333, -66.3057411 ], [ 162.381783500000012, -66.3070588 ], [ 162.3844099, -66.3078622 ], [ 162.3853985, -66.3087058 ], [ 162.3859119, -66.3098625 ], [ 162.387371, -66.3106729 ], [ 162.3894101, -66.312234 ], [ 162.389602599999989, -66.3142936 ], [ 162.3890792, -66.3153246 ], [ 162.387199399999986, -66.3165691 ], [ 162.3859548, -66.3173965 ], [ 162.3856973, -66.3178447 ], [ 162.385867100000013, -66.3183645 ], [ 162.3882293, -66.3187411 ], [ 162.3910904, -66.3195742 ], [ 162.393336299999987, -66.3212748 ], [ 162.3943233, -66.3228948 ], [ 162.394495, -66.3247215 ], [ 162.39269250000001, -66.3252902 ], [ 162.3945808, -66.325497 ], [ 162.4003314, -66.3246526 ], [ 162.4048376, -66.3252041 ], [ 162.4053446, -66.3259364 ], [ 162.4083566, -66.3270996 ], [ 162.408099099999987, -66.3283574 ], [ 162.407155, -66.3296841 ], [ 162.4105882, -66.3297875 ], [ 162.4126052, -66.3300459 ], [ 162.414107300000012, -66.3305455 ], [ 162.4166822, -66.3296669 ], [ 162.419171299999988, -66.3292189 ], [ 162.423023199999989, -66.3288323 ], [ 162.4264669, -66.3292017 ], [ 162.4319975, -66.3290382 ], [ 162.4354473, -66.3293914 ], [ 162.4369059, -66.3300298 ], [ 162.4383091, -66.3308467 ], [ 162.4404299, -66.3327841 ], [ 162.441001199999988, -66.334071 ], [ 162.441520200000014, -66.335514 ], [ 162.4422928, -66.3367744 ], [ 162.4427739, -66.3385223 ], [ 162.4420762, -66.3404207 ], [ 162.4404144, -66.341914 ], [ 162.4389123, -66.3429816 ], [ 162.4374961, -66.3440837 ], [ 162.4377331, -66.3449075 ], [ 162.4418527, -66.3454316 ], [ 162.4434185, -66.3462016 ], [ 162.4440913, -66.3472802 ], [ 162.4442668, -66.3492607 ], [ 162.4441947, -66.3504174 ], [ 162.443908, -66.3518315 ], [ 162.4433235, -66.3530422 ], [ 162.4433756, -66.3540174 ], [ 162.443352, -66.3559269 ], [ 162.448051, -66.355607 ], [ 162.45183560000001, -66.3558381 ], [ 162.456336, -66.3567368 ], [ 162.459278399999988, -66.3576942 ], [ 162.4612712, -66.3591118 ], [ 162.4626874, -66.3599034 ], [ 162.4639963, -66.361831 ], [ 162.46337410000001, -66.363517 ], [ 162.461915, -66.3646182 ], [ 162.46001720000001, -66.3651588 ], [ 162.4576664, -66.3660634 ], [ 162.454876899999988, -66.3685407 ], [ 162.4566364, -66.3715682 ], [ 162.459082599999988, -66.3747157 ], [ 162.460995, -66.3758644 ], [ 162.4629878, -66.3758851 ], [ 162.464447, -66.3751972 ], [ 162.4697256, -66.3746641 ], [ 162.4741694, -66.3746992 ], [ 162.481099300000011, -66.3755109 ], [ 162.4847888, -66.3761259 ], [ 162.488733700000012, -66.3771056 ], [ 162.4959063, -66.3786506 ], [ 162.5014342, -66.3801056 ], [ 162.5036292, -66.3816233 ], [ 162.5052499, -66.3822835 ], [ 162.5058419, -66.384098 ], [ 162.5090114, -66.3854628 ], [ 162.5078703, -66.3862276 ], [ 162.5068473, -66.3871299 ], [ 162.5056842, -66.3888062 ], [ 162.5042675, -66.3935579 ], [ 162.5022554, -66.3947439 ], [ 162.5013113, -66.3954313 ], [ 162.50247, -66.3970809 ], [ 162.505216600000011, -66.3971668 ], [ 162.5104653, -66.3979627 ], [ 162.511696699999987, -66.3985071 ], [ 162.511482199999989, -66.3993318 ], [ 162.5126195, -66.4000706 ], [ 162.514783, -66.3999343 ], [ 162.5181753, -66.4002697 ], [ 162.5204944, -66.401445 ], [ 162.521481, -66.4029205 ], [ 162.520966499999986, -66.4037127 ], [ 162.5215244, -66.4042281 ], [ 162.524099299999989, -66.4058084 ], [ 162.526373799999988, -66.4069936 ], [ 162.527879899999988, -66.4081054 ], [ 162.529034599999989, -66.4088314 ], [ 162.529721200000012, -66.4104802 ], [ 162.530063, -66.4119752 ], [ 162.52985, -66.41364 ], [ 162.5324249, -66.4148591 ], [ 162.5356574, -66.4149817 ], [ 162.5370168, -66.415649 ], [ 162.536716399999989, -66.4163701 ], [ 162.5378322, -66.4171942 ], [ 162.541453100000012, -66.4178513 ], [ 162.5440978, -66.4186021 ], [ 162.545660199999986, -66.4197194 ], [ 162.5459003, -66.4203875 ], [ 162.5446145, -66.4219921 ], [ 162.5428104, -66.4228938 ], [ 162.5437116, -66.4239237 ], [ 162.5438701, -66.4245169 ], [ 162.5443565, -66.4260548 ], [ 162.547273600000011, -66.4280944 ], [ 162.5493764, -66.4293815 ], [ 162.5512218, -66.4309088 ], [ 162.556672099999986, -66.4331052 ], [ 162.56349560000001, -66.4356959 ], [ 162.5664138, -66.4374115 ], [ 162.5675296, -66.4382178 ], [ 162.5687742, -66.4388697 ], [ 162.570233300000012, -66.439573 ], [ 162.570490799999988, -66.4402935 ], [ 162.5719499, -66.4409796 ], [ 162.5791168, -66.4440155 ], [ 162.5811338, -66.4463308 ], [ 162.583107899999987, -66.4475312 ], [ 162.5846537, -66.4486902 ], [ 162.585511200000013, -66.450069 ], [ 162.5854682, -66.4512693 ], [ 162.5854253, -66.4520923 ], [ 162.58739940000001, -66.4529324 ], [ 162.5880201, -66.4543395 ], [ 162.5872278, -66.455024 ], [ 162.586776, -66.4553232 ], [ 162.588968599999987, -66.4561203 ], [ 162.59366510000001, -66.4568754 ], [ 162.5966692, -66.4580239 ], [ 162.598257, -66.4600807 ], [ 162.5973558, -66.4622574 ], [ 162.597785, -66.4631314 ], [ 162.598345599999988, -66.463859 ], [ 162.601699700000012, -66.4645411 ], [ 162.6095008, -66.4655135 ], [ 162.615551900000014, -66.465582 ], [ 162.6179122, -66.4652736 ], [ 162.6197478, -66.4644239 ], [ 162.6210848, -66.4635638 ], [ 162.6226409, -66.4618661 ], [ 162.6238023, -66.4618938 ], [ 162.6250837, -66.4624931 ], [ 162.6269245, -66.4629772 ], [ 162.6270465, -66.4635272 ], [ 162.6279544, -66.4645024 ], [ 162.627228300000013, -66.4653124 ], [ 162.6257228, -66.466079 ], [ 162.6246845, -66.4678783 ], [ 162.6251054, -66.4695791 ], [ 162.6258516, -66.4709964 ], [ 162.6247208, -66.4718913 ], [ 162.6253795, -66.473412 ], [ 162.6258516, -66.4742685 ], [ 162.6267695, -66.4752029 ], [ 162.6282426, -66.4756188 ], [ 162.627315900000013, -66.4770332 ], [ 162.6252129, -66.476919 ], [ 162.6224722, -66.4768092 ], [ 162.619470799999988, -66.4781066 ], [ 162.6150677, -66.4791506 ], [ 162.6146679, -66.479818 ], [ 162.613749500000011, -66.4801948 ], [ 162.615672100000012, -66.4813634 ], [ 162.6151832, -66.4823969 ], [ 162.6139613, -66.4834909 ], [ 162.612418100000014, -66.485609 ], [ 162.610142, -66.4866573 ], [ 162.6061205, -66.4877535 ], [ 162.601865, -66.4888975 ], [ 162.5954657, -66.4921568 ], [ 162.591308700000013, -66.4939566 ], [ 162.5881028, -66.4948714 ], [ 162.5843983, -66.4957281 ], [ 162.5820601, -66.4971711 ], [ 162.578707, -66.4978538 ], [ 162.576335699999987, -66.4981605 ], [ 162.5746413, -66.4990197 ], [ 162.5729799, -66.4994029 ], [ 162.571928, -66.5004063 ], [ 162.5727224, -66.5009943 ], [ 162.5716066, -66.501405 ], [ 162.5700575, -66.5031397 ], [ 162.5701046, -66.5040742 ], [ 162.571148599999987, -66.5047115 ], [ 162.5725018, -66.5053639 ], [ 162.5726345, -66.5062781 ], [ 162.5722074, -66.5066748 ], [ 162.5701046, -66.5076328 ], [ 162.569632500000012, -66.5082486 ], [ 162.5697667, -66.5090596 ], [ 162.5693321, -66.5124566 ], [ 162.571022, -66.5130577 ], [ 162.5722932, -66.5144918 ], [ 162.5751898, -66.5159023 ], [ 162.5752544, -66.5164927 ], [ 162.577343500000012, -66.5169304 ], [ 162.5777864, -66.5175872 ], [ 162.5792026, -66.5183738 ], [ 162.5805599, -66.5183234 ], [ 162.5812196, -66.51875 ], [ 162.5815648, -66.5207501 ], [ 162.5808763, -66.5216909 ], [ 162.5808333, -66.5250589 ], [ 162.579775899999987, -66.5269863 ], [ 162.57858490000001, -66.5281206 ], [ 162.5770756, -66.5291496 ], [ 162.574954, -66.5303921 ], [ 162.5741835, -66.5314056 ], [ 162.5733232, -66.5328531 ], [ 162.5716357, -66.5346618 ], [ 162.5701118, -66.535863 ], [ 162.5683879, -66.5367322 ], [ 162.5666118, -66.5375718 ], [ 162.565813, -66.5385776 ], [ 162.5632842, -66.5397335 ], [ 162.5615215, -66.5415162 ], [ 162.5607061, -66.5423875 ], [ 162.558196900000013, -66.5432988 ], [ 162.554955400000011, -66.5436687 ], [ 162.5506476, -66.5439999 ], [ 162.548792099999986, -66.5438174 ], [ 162.547020800000013, -66.5429597 ], [ 162.5438404, -66.5413454 ], [ 162.544298199999986, -66.5392365 ], [ 162.5434214, -66.536092 ], [ 162.540636299999989, -66.534403 ], [ 162.5359439, -66.5329044 ], [ 162.5341166, -66.5319719 ], [ 162.533026, -66.5313198 ], [ 162.5310859, -66.5300805 ], [ 162.5309658, -66.5295204 ], [ 162.5332832, -66.5287 ], [ 162.5366735, -66.5268368 ], [ 162.535858100000013, -66.5253154 ], [ 162.5312662, -66.5236742 ], [ 162.5226831, -66.5217422 ], [ 162.5210865, -66.5205411 ], [ 162.5174045, -66.5197588 ], [ 162.5141418, -66.5196034 ], [ 162.5090789, -66.5186132 ], [ 162.5053024, -66.5174504 ], [ 162.5027704, -66.5159797 ], [ 162.4997234, -66.514526 ], [ 162.4953031, -66.5126105 ], [ 162.487707699999987, -66.5097946 ], [ 162.4797678, -66.5075301 ], [ 162.478051099999988, -66.5061615 ], [ 162.4759288, -66.5053148 ], [ 162.4688243, -66.5048955 ], [ 162.460419, -66.5040854 ], [ 162.455821, -66.502483 ], [ 162.4532374, -66.5009012 ], [ 162.4459034, -66.4964312 ], [ 162.437207300000011, -66.4908037 ], [ 162.4335624, -66.4867222 ], [ 162.4330496, -66.4851482 ], [ 162.433118799999988, -66.4840136 ], [ 162.4338329, -66.4831835 ], [ 162.4370241, -66.4819587 ], [ 162.4358224, -66.4807086 ], [ 162.434062899999986, -66.4802462 ], [ 162.4268102, -66.4793556 ], [ 162.4239349, -66.4790987 ], [ 162.4212737, -66.4800578 ], [ 162.4166822, -66.4799379 ], [ 162.4093957, -66.4794135 ], [ 162.405567100000013, -66.4780711 ], [ 162.4025096, -66.476312 ], [ 162.402992399999988, -66.4749339 ], [ 162.4025512, -66.473226 ], [ 162.3999442, -66.4714118 ], [ 162.3950958, -66.4682208 ], [ 162.391748400000012, -66.4652564 ], [ 162.3893756, -66.4636305 ], [ 162.382736200000011, -66.4643311 ], [ 162.3785705, -66.4639326 ], [ 162.3751772, -66.4630915 ], [ 162.3718642, -66.4612541 ], [ 162.3701733, -66.4592673 ], [ 162.3704276, -66.4565545 ], [ 162.3739814, -66.4546982 ], [ 162.3772218, -66.4544298 ], [ 162.376987, -66.4530621 ], [ 162.374925600000012, -66.4520237 ], [ 162.372264800000011, -66.4509949 ], [ 162.369518199999987, -66.4496747 ], [ 162.3664959, -66.4479632 ], [ 162.3653554, -66.4446672 ], [ 162.3648689, -66.4407237 ], [ 162.3610209, -66.4408424 ], [ 162.357240100000013, -66.4406326 ], [ 162.353247900000014, -66.4391971 ], [ 162.3522663, -66.437789 ], [ 162.3517565, -66.43682 ], [ 162.3537254, -66.4348724 ], [ 162.354927, -66.4337572 ], [ 162.3538442, -66.4332787 ], [ 162.3525919, -66.4318113 ], [ 162.3514113, -66.4298347 ], [ 162.3509788, -66.4287122 ], [ 162.3496456, -66.4282609 ], [ 162.3481464, -66.4263782 ], [ 162.3460591, -66.424775 ], [ 162.3409737, -66.4219869 ], [ 162.3365302, -66.4199361 ], [ 162.3338293, -66.4180471 ], [ 162.3336497, -66.416496 ], [ 162.334586, -66.414989 ], [ 162.336292, -66.4142462 ], [ 162.3393246, -66.4135256 ], [ 162.3404788, -66.4119865 ], [ 162.3386692, -66.4095298 ], [ 162.337675100000013, -66.4092093 ], [ 162.3373747, -66.4081616 ], [ 162.337074199999989, -66.4073715 ], [ 162.334561900000011, -66.4060531 ], [ 162.333683900000011, -66.40519 ], [ 162.332136100000014, -66.4050281 ], [ 162.3269666, -66.4047971 ], [ 162.3239592, -66.4039136 ], [ 162.3223252, -66.4031403 ], [ 162.3209842, -66.4020703 ], [ 162.320981, -66.400651 ], [ 162.322782, -66.3990643 ], [ 162.3219238, -66.3980141 ], [ 162.3197835, -66.3982357 ], [ 162.3151398, -66.3986369 ], [ 162.310509599999989, -66.3984555 ], [ 162.305099899999988, -66.3975072 ], [ 162.299952499999989, -66.3967029 ], [ 162.2973002, -66.3965174 ], [ 162.2923051, -66.3949121 ], [ 162.2908115, -66.3924239 ], [ 162.2913322, -66.3900863 ], [ 162.2917985, -66.3877315 ], [ 162.2936439, -66.3853593 ], [ 162.2959065, -66.384128 ], [ 162.2985792, -66.3832275 ], [ 162.3019822, -66.3826143 ], [ 162.301605599999988, -66.3814379 ], [ 162.2997808, -66.380786 ], [ 162.2980679, -66.3797558 ], [ 162.2975921, -66.3776908 ], [ 162.2968196, -66.3765559 ], [ 162.297157700000014, -66.3756654 ], [ 162.2972488, -66.3742685 ], [ 162.2968626, -66.3730302 ], [ 162.296690899999987, -66.3714134 ], [ 162.2962617, -66.3701061 ], [ 162.295877, -66.3690621 ], [ 162.2950907, -66.36783 ], [ 162.2929675, -66.3670588 ], [ 162.291541099999989, -66.3655472 ], [ 162.2841944, -66.3638448 ], [ 162.2820998, -66.3622135 ], [ 162.281413, -66.3609531 ], [ 162.279058, -66.3592905 ], [ 162.277379, -66.3589741 ], [ 162.2752176, -66.3576145 ], [ 162.275056, -66.3564498 ], [ 162.2710275, -66.3544649 ], [ 162.268452599999989, -66.3532256 ], [ 162.2681259, -66.351794 ], [ 162.26866720000001, -66.350368 ], [ 162.269525499999986, -66.3491802 ], [ 162.268924700000014, -66.3474241 ], [ 162.2680297, -66.346263 ], [ 162.2683609, -66.3452387 ], [ 162.2701692, -66.3441698 ], [ 162.2730445, -66.3431194 ], [ 162.2747612, -66.3426889 ], [ 162.2772502, -66.3424478 ], [ 162.2795248, -66.3417073 ], [ 162.281069699999989, -66.3408462 ], [ 162.2803596, -66.340205 ], [ 162.2819265, -66.3384827 ], [ 162.2807693, -66.3378839 ], [ 162.2782373, -66.3375911 ], [ 162.2774573, -66.3369118 ], [ 162.2758526, -66.3355861 ], [ 162.2760915, -66.3344389 ], [ 162.2777223, -66.3329747 ], [ 162.2810268, -66.3322167 ], [ 162.2817134, -66.3311658 ], [ 162.2807264, -66.3306145 ], [ 162.280211400000013, -66.3298908 ], [ 162.2820568, -66.3289949 ], [ 162.2803831, -66.3268583 ], [ 162.2768211, -66.3269272 ], [ 162.273602399999987, -66.3260312 ], [ 162.2734624, -66.324661 ], [ 162.2700404, -66.3243079 ], [ 162.26800990000001, -66.3237713 ], [ 162.2660064, -66.3226363 ], [ 162.2652769, -66.3213092 ], [ 162.2660064, -66.3199304 ], [ 162.2670793, -66.3187411 ], [ 162.2655773, -66.3171552 ], [ 162.265716, -66.3160697 ], [ 162.2676801, -66.3155348 ], [ 162.267766, -66.3148452 ], [ 162.2659635, -66.3140177 ], [ 162.2640323, -66.3146211 ], [ 162.2597562, -66.3144172 ], [ 162.255535, -66.3133108 ], [ 162.253313600000013, -66.3119263 ], [ 162.2527902, -66.3095409 ], [ 162.2531485, -66.3068795 ], [ 162.2542118, -66.3053805 ], [ 162.251371400000011, -66.3030621 ], [ 162.250367899999986, -66.301463 ], [ 162.2492694, -66.3012395 ], [ 162.247863700000011, -66.300463 ], [ 162.2466087, -66.2996181 ], [ 162.2463483, -66.2979423 ], [ 162.2451067, -66.296996 ], [ 162.2433471, -66.2932348 ], [ 162.2419309, -66.2926826 ], [ 162.2412525, -66.290756 ], [ 162.240858, -66.289266 ], [ 162.242231299999986, -66.288265 ], [ 162.2418793, -66.2867669 ], [ 162.2408222, -66.2852004 ], [ 162.241158399999989, -66.2843817 ], [ 162.2424459, -66.2837776 ], [ 162.242174, -66.2813791 ], [ 162.2422192, -66.2796803 ], [ 162.2446577, -66.2778554 ], [ 162.24339, -66.276268 ], [ 162.2430406, -66.273649 ] ] ] ] } },
{ "type": "Feature", "properties": { "FID": 322802, "id": 2480, "left": 160.0, "top": -65.0, "right": 165.0, "bottom": -70.0, "row_index": 31, "col_index": 68, "min_lon": 160.0, "min_lat": -70.0, "tile_id": "160_-70" }, "geometry": { "type": "MultiPolygon", "coordinates": [ [ [ [ 162.7576373, -66.5576116 ], [ 162.760047899999989, -66.5602844 ], [ 162.760798099999988, -66.56069 ], [ 162.7613221, -66.5615709 ], [ 162.759404100000012, -66.5621792 ], [ 162.7588892, -66.5632375 ], [ 162.7587604, -66.5642957 ], [ 162.7589141, -66.5648938 ], [ 162.759447099999988, -66.5658489 ], [ 162.7572423, -66.5666227 ], [ 162.7555034, -66.5673364 ], [ 162.754920199999987, -66.5679415 ], [ 162.7523771, -66.5685289 ], [ 162.7500393, -66.568826 ], [ 162.745203800000013, -66.5687938 ], [ 162.7407789, -66.5681614 ], [ 162.739939099999987, -66.5665617 ], [ 162.738072, -66.5651895 ], [ 162.7343764, -66.5637932 ], [ 162.7302646, -66.5629223 ], [ 162.7270236, -66.5627292 ], [ 162.726528699999989, -66.5617702 ], [ 162.7266612, -66.5607993 ], [ 162.727711199999987, -66.5602289 ], [ 162.7296887, -66.5598394 ], [ 162.7309072, -66.5589238 ], [ 162.7295018, -66.5572876 ], [ 162.7262413, -66.5559351 ], [ 162.7225444, -66.5548541 ], [ 162.721928100000014, -66.5536632 ], [ 162.720659899999987, -66.5518959 ], [ 162.7197918, -66.551384 ], [ 162.7180338, -66.5504832 ], [ 162.7153145, -66.5486133 ], [ 162.713219900000013, -66.5474297 ], [ 162.711049800000012, -66.5458782 ], [ 162.7081727, -66.5444018 ], [ 162.7026744, -66.5426746 ], [ 162.7019405, -66.5422508 ], [ 162.7020693, -66.5417981 ], [ 162.70256280000001, -66.5414137 ], [ 162.7023053, -66.5407731 ], [ 162.7015328, -66.5405894 ], [ 162.6997733, -66.5406534 ], [ 162.697852899999987, -66.5404015 ], [ 162.6954603, -66.5401495 ], [ 162.693612, -66.5399553 ], [ 162.6930471, -66.5395963 ], [ 162.6957607, -66.5395429 ], [ 162.699794700000012, -66.5392439 ], [ 162.7021709, -66.5388408 ], [ 162.706060400000013, -66.5384067 ], [ 162.7097862, -66.5382123 ], [ 162.7116593, -66.5381619 ], [ 162.719267699999989, -66.5382721 ], [ 162.7220249, -66.5385776 ], [ 162.725415199999986, -66.5390371 ], [ 162.730025500000011, -66.5394665 ], [ 162.732839500000011, -66.5396027 ], [ 162.7351191, -66.5394938 ], [ 162.736807, -66.5393363 ], [ 162.739827, -66.5395306 ], [ 162.741050300000012, -66.5397821 ], [ 162.741293899999988, -66.5399615 ], [ 162.7438259, -66.5399957 ], [ 162.7447271, -66.5402007 ], [ 162.7460348, -66.5401683 ], [ 162.746787, -66.5395515 ], [ 162.7489846, -66.5393971 ], [ 162.75152940000001, -66.5392833 ], [ 162.75211, -66.5395521 ], [ 162.7522778, -66.5400317 ], [ 162.7509468, -66.5406258 ], [ 162.748586, -66.5414997 ], [ 162.7498541, -66.5425528 ], [ 162.7515587, -66.5437237 ], [ 162.7539855, -66.5445983 ], [ 162.755413, -66.5448815 ], [ 162.7561205, -66.546593 ], [ 162.757570500000014, -66.547061 ], [ 162.758149300000014, -66.5479694 ], [ 162.7572749, -66.5491729 ], [ 162.757665300000014, -66.5511195 ], [ 162.7578375, -66.5532214 ], [ 162.7578641, -66.5559467 ], [ 162.7577784, -66.5566458 ], [ 162.7576373, -66.5576116 ] ] ] ] } },
{ "type": "Feature", "properties": { "FID": 322806, "id": 2480, "left": 160.0, "top": -65.0, "right": 165.0, "bottom": -70.0, "row_index": 31, "col_index": 68, "min_lon": 160.0, "min_lat": -70.0, "tile_id": "160_-70" }, "geometry": { "type": "MultiPolygon", "coordinates": [ [ [ [ 162.2224268, -66.2435018 ], [ 162.2187553, -66.2445017 ], [ 162.216413, -66.2448779 ], [ 162.210598, -66.2455962 ], [ 162.2096055, -66.2448742 ], [ 162.208658500000013, -66.243926 ], [ 162.208318100000014, -66.242768 ], [ 162.208633099999986, -66.2411746 ], [ 162.2092849, -66.2407385 ], [ 162.2116723, -66.2401362 ], [ 162.21363070000001, -66.2388287 ], [ 162.2149733, -66.2385564 ], [ 162.2150306, -66.2385448 ], [ 162.2165812, -66.2382431 ], [ 162.220051399999988, -66.2379008 ], [ 162.2223502, -66.2377511 ], [ 162.2252115, -66.2376181 ], [ 162.2286331, -66.2375106 ], [ 162.2302357, -66.2380232 ], [ 162.22953960000001, -66.2386856 ], [ 162.228755400000011, -66.2398008 ], [ 162.2279208, -66.2411508 ], [ 162.2266143, -66.2420224 ], [ 162.224745399999989, -66.2428775 ], [ 162.222458499999988, -66.243493 ], [ 162.2224268, -66.2435018 ] ] ] ] } },
{ "type": "Feature", "properties": { "FID": 322807, "id": 2480, "left": 160.0, "top": -65.0, "right": 165.0, "bottom": -70.0, "row_index": 31, "col_index": 68, "min_lon": 160.0, "min_lat": -70.0, "tile_id": "160_-70" }, "geometry": { "type": "MultiPolygon", "coordinates": [ [ [ [ 162.2768988, -66.2283983 ], [ 162.2750395, -66.2292454 ], [ 162.274388, -66.2296815 ], [ 162.2718678, -66.2309729 ], [ 162.269571, -66.2311235 ], [ 162.2685788, -66.2304021 ], [ 162.268278900000013, -66.2290179 ], [ 162.2685552, -66.2280604 ], [ 162.2691963, -66.2272146 ], [ 162.2715622, -66.2267203 ], [ 162.2738323, -66.2266869 ], [ 162.2771668, -66.2270314 ], [ 162.2782461, -66.2272998 ], [ 162.2775934, -66.2277357 ], [ 162.2768988, -66.2283983 ] ] ] ] } },
{ "type": "Feature", "properties": { "FID": 322808, "id": 2480, "left": 160.0, "top": -65.0, "right": 165.0, "bottom": -70.0, "row_index": 31, "col_index": 68, "min_lon": 160.0, "min_lat": -70.0, "tile_id": "160_-70" }, "geometry": { "type": "MultiPolygon", "coordinates": [ [ [ [ 163.09367180000001, -66.6882084 ], [ 163.0966319, -66.6871247 ], [ 163.1023849, -66.6860149 ], [ 163.10482970000001, -66.6862892 ], [ 163.1080169, -66.6868686 ], [ 163.113498600000014, -66.6873762 ], [ 163.1190451, -66.6884938 ], [ 163.1277355, -66.6893846 ], [ 163.1333536, -66.6891897 ], [ 163.138045799999986, -66.6890737 ], [ 163.1421475, -66.6893735 ], [ 163.146010499999988, -66.6903558 ], [ 163.1479316, -66.6909842 ], [ 163.15088990000001, -66.6936256 ], [ 163.1541728, -66.6950543 ], [ 163.157987600000013, -66.6968283 ], [ 163.1598605, -66.6974544 ], [ 163.1601479, -66.6982886 ], [ 163.164597500000013, -66.6999348 ], [ 163.167126599999989, -66.7019669 ], [ 163.1721804, -66.7021405 ], [ 163.1794305, -66.7029843 ], [ 163.1839497, -66.702413 ], [ 163.185843, -66.7030123 ], [ 163.1893148, -66.7007589 ], [ 163.192152, -66.6998678 ], [ 163.1959484, -66.6997495 ], [ 163.198728499999987, -66.7001107 ], [ 163.2007649, -66.7004777 ], [ 163.201842, -66.7010757 ], [ 163.2025133, -66.7018437 ], [ 163.204744, -66.7016746 ], [ 163.2068395, -66.7014177 ], [ 163.2079124, -66.7001107 ], [ 163.2067107, -66.6996014 ], [ 163.207555, -66.6985335 ], [ 163.2162899, -66.6991682 ], [ 163.2173967, -66.7004162 ], [ 163.2185168, -66.7010523 ], [ 163.2153796, -66.7031151 ], [ 163.2157659, -66.703743 ], [ 163.2202279, -66.7047199 ], [ 163.2211141, -66.7060593 ], [ 163.221580499999988, -66.7075512 ], [ 163.224933, -66.7088501 ], [ 163.2288206, -66.7117089 ], [ 163.228769199999988, -66.7133136 ], [ 163.2275448, -66.7144067 ], [ 163.2291813, -66.7147207 ], [ 163.23291660000001, -66.7149108 ], [ 163.237619, -66.7158678 ], [ 163.244380400000011, -66.714101 ], [ 163.2476196, -66.7149648 ], [ 163.254153300000013, -66.7144653 ], [ 163.2584187, -66.7144482 ], [ 163.2611473, -66.7150963 ], [ 163.261589500000014, -66.7160281 ], [ 163.261426300000011, -66.7178621 ], [ 163.260712, -66.7192102 ], [ 163.2590985, -66.7205337 ], [ 163.255228, -66.7209758 ], [ 163.254209800000012, -66.7218788 ], [ 163.2511451, -66.7220579 ], [ 163.2520078, -66.7235609 ], [ 163.2513429, -66.7247328 ], [ 163.250132900000011, -66.7258622 ], [ 163.2498836, -66.7272217 ], [ 163.2508741, -66.7280041 ], [ 163.249491400000011, -66.7293941 ], [ 163.247225899999989, -66.7301007 ], [ 163.2469779, -66.731109 ], [ 163.2490253, -66.7318333 ], [ 163.2505884, -66.7329499 ], [ 163.251309, -66.7346949 ], [ 163.2520883, -66.7373155 ], [ 163.2555142, -66.7400642 ], [ 163.2590717, -66.7408418 ], [ 163.2613917, -66.7414165 ], [ 163.262999400000012, -66.7431019 ], [ 163.2616732, -66.7452334 ], [ 163.258593600000012, -66.7458749 ], [ 163.258013, -66.7464704 ], [ 163.260601400000013, -66.7485111 ], [ 163.2665107, -66.7483318 ], [ 163.2737833, -66.7495337 ], [ 163.2742175, -66.7508682 ], [ 163.273487, -66.7522025 ], [ 163.274038, -66.7535342 ], [ 163.2749461, -66.754269 ], [ 163.2752036, -66.7554207 ], [ 163.2765769, -66.7558695 ], [ 163.2764052, -66.7568095 ], [ 163.2765769, -66.7578934 ], [ 163.2770094, -66.7593185 ], [ 163.275593, -66.7604415 ], [ 163.2736638, -66.7604352 ], [ 163.271684599999986, -66.7611447 ], [ 163.2613591, -66.7628862 ], [ 163.2618106, -66.7653371 ], [ 163.26591, -66.767868 ], [ 163.268680499999988, -66.768831 ], [ 163.272794299999987, -66.7686878 ], [ 163.2740878, -66.7694404 ], [ 163.2765781, -66.7697027 ], [ 163.2799197, -66.7715169 ], [ 163.2791234, -66.7738514 ], [ 163.2838035, -66.7752329 ], [ 163.291067, -66.7745841 ], [ 163.2951557, -66.775337 ], [ 163.2949447, -66.7761427 ], [ 163.2936129, -66.7774495 ], [ 163.2923453, -66.7781258 ], [ 163.293645, -66.7787164 ], [ 163.2955455, -66.7781056 ], [ 163.2988892, -66.7779142 ], [ 163.2990989, -66.7793239 ], [ 163.301607, -66.7794534 ], [ 163.301111, -66.7774509 ], [ 163.306226, -66.776754 ], [ 163.30996, -66.7771328 ], [ 163.3103942, -66.7783087 ], [ 163.3126847, -66.7796213 ], [ 163.3139991, -66.7804745 ], [ 163.3168626, -66.7819004 ], [ 163.315613500000012, -66.7836812 ], [ 163.3169173, -66.7844672 ], [ 163.3173212, -66.7858689 ], [ 163.3146786, -66.7866401 ], [ 163.3147955, -66.786079 ], [ 163.311844900000011, -66.7859403 ], [ 163.304702099999986, -66.7866955 ], [ 163.302035600000011, -66.7860692 ], [ 163.299784100000011, -66.7869893 ], [ 163.301467800000012, -66.7883239 ], [ 163.3016362, -66.7900108 ], [ 163.2982921, -66.7909624 ], [ 163.297104600000011, -66.7928702 ], [ 163.2953738, -66.7938711 ], [ 163.2929706, -66.7941417 ], [ 163.2920264, -66.7948857 ], [ 163.2898186, -66.7955947 ], [ 163.288679, -66.7971515 ], [ 163.2890224, -66.7988761 ], [ 163.28979480000001, -66.801412 ], [ 163.2916389, -66.8024376 ], [ 163.294154, -66.80602 ], [ 163.2974888, -66.8063564 ], [ 163.3031688, -66.8072401 ], [ 163.3084352, -66.808897 ], [ 163.3107972, -66.8109145 ], [ 163.309453100000013, -66.812599 ], [ 163.3073043, -66.8136821 ], [ 163.3064234, -66.8145384 ], [ 163.305330199999986, -66.8153717 ], [ 163.3083196, -66.8155072 ], [ 163.309385, -66.8165932 ], [ 163.3133971, -66.8168593 ], [ 163.3154582, -66.8182438 ], [ 163.3157029, -66.8201303 ], [ 163.315726899999987, -66.8224312 ], [ 163.3142239, -66.8235547 ], [ 163.310995, -66.8248989 ], [ 163.3076168, -66.8257412 ], [ 163.3063602, -66.8264865 ], [ 163.3043002, -66.8269931 ], [ 163.3032524, -66.8274129 ], [ 163.304128600000013, -66.8284116 ], [ 163.3038903, -66.8302226 ], [ 163.3010435, -66.8308083 ], [ 163.302326099999988, -66.8321939 ], [ 163.3059773, -66.8330786 ], [ 163.3080768, -66.8338823 ], [ 163.3081508, -66.8352685 ], [ 163.307269600000012, -66.8371764 ], [ 163.3055019, -66.8380013 ], [ 163.303197899999986, -66.8390158 ], [ 163.2982376, -66.8398412 ], [ 163.292136699999986, -66.8398375 ], [ 163.2880595, -66.839702 ], [ 163.2882777, -66.8405682 ], [ 163.289110599999987, -66.8410743 ], [ 163.2887349, -66.8434868 ], [ 163.2892688, -66.8450487 ], [ 163.2913338, -66.8457079 ], [ 163.2980513, -66.8463371 ], [ 163.2971763, -66.8471823 ], [ 163.2949447, -66.8477898 ], [ 163.2924832, -66.8505294 ], [ 163.2932281, -66.8524463 ], [ 163.2908248, -66.8543694 ], [ 163.292967299999987, -66.8568143 ], [ 163.2915114, -66.8585525 ], [ 163.2929172, -66.8618026 ], [ 163.292455600000011, -66.863578 ], [ 163.2907928, -66.8645016 ], [ 163.28979480000001, -66.8657026 ], [ 163.2893721, -66.8679739 ], [ 163.2910406, -66.8688659 ], [ 163.29156230000001, -66.8703865 ], [ 163.289709, -66.8757833 ], [ 163.2871921, -66.8771181 ], [ 163.286447399999986, -66.8787832 ], [ 163.2866866, -66.8805503 ], [ 163.286447399999986, -66.8817489 ], [ 163.2873916, -66.8837034 ], [ 163.289194, -66.8840067 ], [ 163.2915463, -66.8859917 ], [ 163.2950248, -66.8858464 ], [ 163.2982921, -66.886955 ], [ 163.301596600000011, -66.8865338 ], [ 163.3063602, -66.886736 ], [ 163.3069181, -66.8875446 ], [ 163.3042144, -66.8890438 ], [ 163.2959485, -66.8886156 ], [ 163.291059600000011, -66.8896543 ], [ 163.289249500000011, -66.8918471 ], [ 163.2878208, -66.8937431 ], [ 163.286983099999986, -66.8950555 ], [ 163.2858467, -66.8967239 ], [ 163.28516, -66.8974143 ], [ 163.282851599999987, -66.8988381 ], [ 163.2812118, -66.9002599 ], [ 163.280096, -66.9009334 ], [ 163.280233, -66.9019274 ], [ 163.2771349, -66.9024823 ], [ 163.2754612, -66.9024486 ], [ 163.2732067, -66.90279 ], [ 163.2682912, -66.9026909 ], [ 163.2663631, -66.9013375 ], [ 163.2639529, -66.9003071 ], [ 163.2569375, -66.8986003 ], [ 163.2527656, -66.897637 ], [ 163.2463033, -66.8956172 ], [ 163.2380401, -66.8933049 ], [ 163.2320436, -66.8922392 ], [ 163.2285374, -66.8916599 ], [ 163.225035600000012, -66.8911157 ], [ 163.21956, -66.8909497 ], [ 163.2133163, -66.8911019 ], [ 163.2108306, -66.8920252 ], [ 163.210487300000011, -66.8928336 ], [ 163.209117, -66.8933969 ], [ 163.2081699, -66.8923452 ], [ 163.2097578, -66.891621 ], [ 163.2095861, -66.8912167 ], [ 163.210363699999988, -66.8901271 ], [ 163.2135772, -66.8900208 ], [ 163.2151796, -66.8887579 ], [ 163.2166832, -66.8869548 ], [ 163.2175254, -66.8860116 ], [ 163.2168427, -66.8853377 ], [ 163.2145251, -66.8848314 ], [ 163.2116177, -66.8836708 ], [ 163.2081823, -66.8821097 ], [ 163.2031103, -66.8809046 ], [ 163.2015326, -66.8796806 ], [ 163.2004047, -66.8783484 ], [ 163.2000697, -66.8767963 ], [ 163.2010527, -66.8754578 ], [ 163.2030364, -66.8743938 ], [ 163.203228599999989, -66.8736908 ], [ 163.2004854, -66.8702671 ], [ 163.197180800000012, -66.8690854 ], [ 163.1936073, -66.8693903 ], [ 163.1908412, -66.8684493 ], [ 163.1877805, -66.8671088 ], [ 163.1877532, -66.8657722 ], [ 163.1867981, -66.8643537 ], [ 163.1839324, -66.8640335 ], [ 163.1814439, -66.863846 ], [ 163.1781043, -66.8626295 ], [ 163.17619160000001, -66.8610825 ], [ 163.175183299999986, -66.858506 ], [ 163.1752751, -66.856432 ], [ 163.176877499999989, -66.8548091 ], [ 163.179769, -66.853541 ], [ 163.1831502, -66.8528681 ], [ 163.1835576, -66.8523919 ], [ 163.179373700000014, -66.8507255 ], [ 163.17932540000001, -66.8496304 ], [ 163.1781604, -66.847075 ], [ 163.17667, -66.8454443 ], [ 163.1730361, -66.8451722 ], [ 163.167559899999986, -66.8445103 ], [ 163.1642574, -66.8434921 ], [ 163.1616827, -66.8416357 ], [ 163.1605333, -66.8391045 ], [ 163.16092660000001, -66.83686 ], [ 163.1644354, -66.835058 ], [ 163.1636667, -66.8324303 ], [ 163.1641817, -66.8307925 ], [ 163.1652517, -66.829419 ], [ 163.1644392, -66.8278206 ], [ 163.1634092, -66.8267229 ], [ 163.16037080000001, -66.8260584 ], [ 163.1569227, -66.8246037 ], [ 163.1558225, -66.8228385 ], [ 163.156761, -66.8212976 ], [ 163.1603065, -66.8199182 ], [ 163.1588701, -66.8167733 ], [ 163.1568861, -66.8157772 ], [ 163.15565620000001, -66.8141819 ], [ 163.1554285, -66.8134429 ], [ 163.1519638, -66.8120241 ], [ 163.1521261, -66.8078106 ], [ 163.1481512, -66.8067438 ], [ 163.146329900000012, -66.8052976 ], [ 163.1464581, -66.803265 ], [ 163.148860899999988, -66.8022234 ], [ 163.1498315, -66.8012273 ], [ 163.149547500000011, -66.7997214 ], [ 163.1483744, -66.7981413 ], [ 163.1471339, -66.7968137 ], [ 163.145985599999989, -66.7958158 ], [ 163.144697799999989, -66.7950791 ], [ 163.1441831, -66.7942263 ], [ 163.1452418, -66.7935424 ], [ 163.143529, -66.7907851 ], [ 163.1408357, -66.7892203 ], [ 163.1386041, -66.7886114 ], [ 163.1353868, -66.7875582 ], [ 163.1361211, -66.7852912 ], [ 163.1339693, -66.7845856 ], [ 163.1321278, -66.7832591 ], [ 163.1321484, -66.777713 ], [ 163.1299352, -66.7767688 ], [ 163.128019599999988, -66.7760145 ], [ 163.1280585, -66.7731014 ], [ 163.1273603, -66.7713531 ], [ 163.1259441, -66.7699482 ], [ 163.1225512, -66.767512 ], [ 163.118631, -66.7664338 ], [ 163.1176185, -66.7649204 ], [ 163.117331799999988, -66.763262 ], [ 163.1190776, -66.7623638 ], [ 163.119319600000011, -66.7608212 ], [ 163.1180048, -66.7597392 ], [ 163.1174885, -66.758305 ], [ 163.118562700000012, -66.7565046 ], [ 163.1191206, -66.7551836 ], [ 163.1165627, -66.753702 ], [ 163.113561800000014, -66.7523298 ], [ 163.1107997, -66.7508393 ], [ 163.1098203, -66.7485843 ], [ 163.111146, -66.7475498 ], [ 163.112897800000013, -66.7464256 ], [ 163.1139637, -66.7451733 ], [ 163.113674300000014, -66.7439376 ], [ 163.112210299999987, -66.7429584 ], [ 163.1090872, -66.7419242 ], [ 163.1048447, -66.7402662 ], [ 163.100881500000014, -66.7374611 ], [ 163.100093500000014, -66.7359879 ], [ 163.100624, -66.733732 ], [ 163.1014961, -66.7320683 ], [ 163.0976803, -66.7294384 ], [ 163.0977916, -66.7287816 ], [ 163.0985641, -66.7276286 ], [ 163.097484, -66.7254548 ], [ 163.0988216, -66.7243898 ], [ 163.098478300000011, -66.7234401 ], [ 163.0952694, -66.7224015 ], [ 163.0949201, -66.720416 ], [ 163.0956459, -66.7188099 ], [ 163.0952287, -66.7176316 ], [ 163.094167199999987, -66.7161153 ], [ 163.092614, -66.7140592 ], [ 163.0911827, -66.7138905 ], [ 163.0905045, -66.7130169 ], [ 163.08740610000001, -66.7113964 ], [ 163.086621, -66.7089381 ], [ 163.0876654, -66.7051597 ], [ 163.0863951, -66.7039579 ], [ 163.086118699999986, -66.7027756 ], [ 163.0865063, -66.70135 ], [ 163.0831397, -66.7007698 ], [ 163.0810774, -66.6994733 ], [ 163.0804967, -66.6983792 ], [ 163.081196299999988, -66.6975291 ], [ 163.082728300000014, -66.6967155 ], [ 163.083785400000011, -66.6960808 ], [ 163.085131600000011, -66.6948988 ], [ 163.0860156, -66.6935444 ], [ 163.0870199, -66.6916897 ], [ 163.088006900000011, -66.690501 ], [ 163.089436299999988, -66.6896738 ], [ 163.09367180000001, -66.6882084 ] ] ] ] } },
{ "type": "Feature", "properties": { "FID": 322815, "id": 2480, "left": 160.0, "top": -65.0, "right": 165.0, "bottom": -70.0, "row_index": 31, "col_index": 68, "min_lon": 160.0, "min_lat": -70.0, "tile_id": "160_-70" }, "geometry": { "type": "MultiPolygon", "coordinates": [ [ [ [ 162.634606, -66.4872812 ], [ 162.6361942, -66.4872326 ], [ 162.637875, -66.4873679 ], [ 162.6399278, -66.4870443 ], [ 162.6422509, -66.48692 ], [ 162.645704599999988, -66.4870621 ], [ 162.6483337, -66.4878622 ], [ 162.6502762, -66.4879769 ], [ 162.6517885, -66.488658 ], [ 162.6533603, -66.4890132 ], [ 162.6539955, -66.4893153 ], [ 162.6563215, -66.4897151 ], [ 162.658081, -66.4900061 ], [ 162.6587288, -66.4907909 ], [ 162.6578673, -66.4913362 ], [ 162.6576248, -66.492249 ], [ 162.6576805, -66.493146 ], [ 162.656168799999989, -66.4941328 ], [ 162.653451499999989, -66.495456 ], [ 162.651755900000012, -66.4963965 ], [ 162.6497125, -66.4968187 ], [ 162.6485428, -66.4968026 ], [ 162.6439042, -66.4961329 ], [ 162.6397001, -66.4953632 ], [ 162.639327, -66.4947306 ], [ 162.638511599999987, -66.4942342 ], [ 162.63619, -66.4937132 ], [ 162.6336593, -66.4933856 ], [ 162.630525299999988, -66.4926775 ], [ 162.629015900000013, -66.4917743 ], [ 162.629241900000011, -66.4910675 ], [ 162.6318168, -66.4902972 ], [ 162.632615, -66.4899444 ], [ 162.6335046, -66.4880216 ], [ 162.634606, -66.4872812 ] ] ] ] } },
{ "type": "Feature", "properties": { "FID": 322821, "id": 2480, "left": 160.0, "top": -65.0, "right": 165.0, "bottom": -70.0, "row_index": 31, "col_index": 68, "min_lon": 160.0, "min_lat": -70.0, "tile_id": "160_-70" }, "geometry": { "type": "MultiPolygon", "coordinates": [ [ [ [ 162.6638236, -66.5429582 ], [ 162.6665069, -66.5439568 ], [ 162.6658151, -66.5446212 ], [ 162.665201599999989, -66.5448322 ], [ 162.6617847, -66.5447241 ], [ 162.660230899999988, -66.5438281 ], [ 162.660276, -66.5435374 ], [ 162.6621132, -66.5429038 ], [ 162.6638236, -66.5429582 ] ] ] ] } },
{ "type": "Feature", "properties": { "FID": 322822, "id": 2480, "left": 160.0, "top": -65.0, "right": 165.0, "bottom": -70.0, "row_index": 31, "col_index": 68, "min_lon": 160.0, "min_lat": -70.0, "tile_id": "160_-70" }, "geometry": { "type": "MultiPolygon", "coordinates": [ [ [ [ 162.67352, -66.5336596 ], [ 162.6769381, -66.5337677 ], [ 162.677914, -66.5347124 ], [ 162.6765296, -66.5360409 ], [ 162.6753517, -66.5362284 ], [ 162.673111299999988, -66.5359326 ], [ 162.672137, -66.5349882 ], [ 162.6722154, -66.534535 ], [ 162.67352, -66.5336596 ] ] ] ] } },
{ "type": "Feature", "properties": { "FID": 457230, "id": 2480, "left": 160.0, "top": -65.0, "right": 165.0, "bottom": -70.0, "row_index": 31, "col_index": 68, "min_lon": 160.0, "min_lat": -70.0, "tile_id": "160_-70" }, "geometry": { "type": "MultiPolygon", "coordinates": [ [ [ [ 163.3147502, -66.9124428 ], [ 163.3147502, -66.9121104 ], [ 163.3150077, -66.9118327 ], [ 163.315233, -66.911534 ], [ 163.3183551, -66.911677 ], [ 163.3185911, -66.9121524 ], [ 163.318462399999987, -66.9126068 ], [ 163.318913, -66.9129602 ], [ 163.318773599999986, -66.9132799 ], [ 163.315801599999986, -66.9133388 ], [ 163.3119929, -66.9127877 ], [ 163.31279760000001, -66.9124301 ], [ 163.3147502, -66.9124428 ] ] ] ] } },
{ "type": "Feature", "properties": { "FID": 457231, "id": 2480, "left": 160.0, "top": -65.0, "right": 165.0, "bottom": -70.0, "row_index": 31, "col_index": 68, "min_lon": 160.0, "min_lat": -70.0, "tile_id": "160_-70" }, "geometry": { "type": "MultiPolygon", "coordinates": [ [ [ [ 163.310287, -66.9148365 ], [ 163.3114457, -66.9150215 ], [ 163.313312599999989, -66.9155768 ], [ 163.3148789, -66.9175875 ], [ 163.313568, -66.9205088 ], [ 163.312819, -66.9213477 ], [ 163.3125719, -66.9215157 ], [ 163.311982699999987, -66.9218539 ], [ 163.3118524, -66.9216336 ], [ 163.3117265, -66.9215106 ], [ 163.3114923, -66.9208392 ], [ 163.3110134, -66.920188 ], [ 163.310855299999986, -66.9195709 ], [ 163.3095682, -66.9190329 ], [ 163.3078408, -66.9188578 ], [ 163.303527800000012, -66.918841 ], [ 163.301875599999988, -66.9174698 ], [ 163.30196140000001, -66.916923 ], [ 163.3034635, -66.9153918 ], [ 163.3076048, -66.9148196 ], [ 163.310287, -66.9148365 ] ] ] ] } },
{ "type": "Feature", "properties": { "FID": 716883, "id": 2480, "left": 160.0, "top": -65.0, "right": 165.0, "bottom": -70.0, "row_index": 31, "col_index": 68, "min_lon": 160.0, "min_lat": -70.0, "tile_id": "160_-70" }, "geometry": { "type": "MultiPolygon", "coordinates": [ [ [ [ 163.312088, -66.9232778 ], [ 163.3129366, -66.9235815 ], [ 163.312475400000011, -66.9240877 ], [ 163.3116637, -66.9245794 ], [ 163.3118666, -66.9250349 ], [ 163.3120696, -66.9259459 ], [ 163.311331599999988, -66.9259315 ], [ 163.310298499999988, -66.9253747 ], [ 163.310464599999989, -66.9248975 ], [ 163.3102801, -66.9244926 ], [ 163.3090994, -66.9247384 ], [ 163.3074021, -66.9247746 ], [ 163.3078633, -66.9242034 ], [ 163.3089149, -66.9237334 ], [ 163.3102432, -66.9234152 ], [ 163.310649, -66.9232055 ], [ 163.310483, -66.922721 ], [ 163.3117375, -66.922316 ], [ 163.312088, -66.9232778 ] ] ] ] } }
]
}
