{
"type": "FeatureCollection",
"name": "165_-30",
"crs": { "type": "name", "properties": { "name": "urn:ogc:def:crs:OGC:1.3:CRS84" } },
"xy_coordinate_resolution": 1e-15,
"features": [
{ "type": "Feature", "properties": { "FID": 61411, "id": 2508, "left": 165.0, "top": -25.0, "right": 170.0, "bottom": -30.0, "row_index": 23, "col_index": 69, "min_lon": 165.0, "min_lat": -30.0, "tile_id": "165_-30" }, "geometry": { "type": "MultiPolygon", "coordinates": [ [ [ [ 167.9483272, -29.0035369 ], [ 167.9483969, -29.0032927 ], [ 167.9485219, -29.0028801 ], [ 167.948558600000013, -29.0026536 ], [ 167.948606899999987, -29.0025175 ], [ 167.9487169, -29.00248 ], [ 167.9488134, -29.0025879 ], [ 167.9488322, -29.0027779 ], [ 167.9490307, -29.0029179 ], [ 167.9488633, -29.0031339 ], [ 167.9488512, -29.0032541 ], [ 167.9487667, -29.003528 ], [ 167.948619, -29.0035981 ], [ 167.9483272, -29.0035369 ] ] ] ] } },
{ "type": "Feature", "properties": { "FID": 61412, "id": 2508, "left": 165.0, "top": -25.0, "right": 170.0, "bottom": -30.0, "row_index": 23, "col_index": 69, "min_lon": 165.0, "min_lat": -30.0, "tile_id": "165_-30" }, "geometry": { "type": "MultiPolygon", "coordinates": [ [ [ [ 167.9454433, -29.0006759 ], [ 167.945416200000011, -29.0004779 ], [ 167.945658900000012, -29.0004878 ], [ 167.94562160000001, -29.0002373 ], [ 167.9457074, -29.0000496 ], [ 167.945741, -28.9999617 ], [ 167.9457271, -28.9998537 ], [ 167.9456994, -28.9997423 ], [ 167.9458075, -28.9997145 ], [ 167.9459314, -28.9998373 ], [ 167.9460642, -28.999869 ], [ 167.946099, -28.9998385 ], [ 167.9462197, -28.9997599 ], [ 167.9462734, -28.9997928 ], [ 167.946285499999988, -28.9998573 ], [ 167.9463887, -28.999937 ], [ 167.946441, -29.0002999 ], [ 167.9463297, -29.0006154 ], [ 167.9461576, -29.0008962 ], [ 167.9460272, -29.0011388 ], [ 167.9456855, -29.0009818 ], [ 167.9454433, -29.0006759 ] ] ] ] } },
{ "type": "Feature", "properties": { "FID": 61413, "id": 2508, "left": 165.0, "top": -25.0, "right": 170.0, "bottom": -30.0, "row_index": 23, "col_index": 69, "min_lon": 165.0, "min_lat": -30.0, "tile_id": "165_-30" }, "geometry": { "type": "MultiPolygon", "coordinates": [ [ [ [ 167.9573325, -29.0054351 ], [ 167.9570907, -29.0052648 ], [ 167.956626199999988, -29.0051197 ], [ 167.9564647, -29.0049382 ], [ 167.95681, -29.0046791 ], [ 167.956961, -29.0044429 ], [ 167.9573459, -29.004372 ], [ 167.957675200000011, -29.0042909 ], [ 167.9580843, -29.004155 ], [ 167.9581198, -29.0042369 ], [ 167.9580388, -29.0043262 ], [ 167.9580407, -29.0045152 ], [ 167.9580742, -29.0049857 ], [ 167.9582101, -29.005231 ], [ 167.9579561, -29.0053266 ], [ 167.957737900000012, -29.0055319 ], [ 167.957412299999987, -29.005622 ], [ 167.9573325, -29.0054351 ] ] ] ] } },
{ "type": "Feature", "properties": { "FID": 61414, "id": 2508, "left": 165.0, "top": -25.0, "right": 170.0, "bottom": -30.0, "row_index": 23, "col_index": 69, "min_lon": 165.0, "min_lat": -30.0, "tile_id": "165_-30" }, "geometry": { "type": "MultiPolygon", "coordinates": [ [ [ [ 167.9468018, -29.0024565 ], [ 167.946659399999987, -29.0022293 ], [ 167.946557399999989, -29.0020295 ], [ 167.9465413, -29.0018453 ], [ 167.94661450000001, -29.0017276 ], [ 167.9467133, -29.0015807 ], [ 167.9469091, -29.0014525 ], [ 167.947075399999989, -29.0015792 ], [ 167.9470502, -29.0017496 ], [ 167.9470614, -29.0020881 ], [ 167.9468018, -29.0024565 ] ] ] ] } },
{ "type": "Feature", "properties": { "FID": 61415, "id": 2508, "left": 165.0, "top": -25.0, "right": 170.0, "bottom": -30.0, "row_index": 23, "col_index": 69, "min_lon": 165.0, "min_lat": -30.0, "tile_id": "165_-30" }, "geometry": { "type": "MultiPolygon", "coordinates": [ [ [ [ 167.9632858, -29.0744338 ], [ 167.963321799999989, -29.0743758 ], [ 167.9631929, -29.0742647 ], [ 167.96299, -29.0743476 ], [ 167.9628231, -29.0743426 ], [ 167.9626524, -29.0745233 ], [ 167.9626316, -29.0747653 ], [ 167.9626651, -29.0749119 ], [ 167.96250950000001, -29.0749822 ], [ 167.9624398, -29.0751568 ], [ 167.9623004, -29.0750865 ], [ 167.962169, -29.0751779 ], [ 167.962080500000013, -29.0751803 ], [ 167.962093900000013, -29.0752611 ], [ 167.9620885, -29.0753209 ], [ 167.961882, -29.0753479 ], [ 167.9618404, -29.0752752 ], [ 167.9619155, -29.0750771 ], [ 167.961951699999986, -29.0747806 ], [ 167.9623781, -29.0745791 ], [ 167.9626705, -29.0741337 ], [ 167.9629677, -29.0738228 ], [ 167.963039400000014, -29.0735858 ], [ 167.962920200000013, -29.073212 ], [ 167.9631137, -29.0729072 ], [ 167.963152400000013, -29.0727934 ], [ 167.9628162, -29.0724182 ], [ 167.962678899999986, -29.0723552 ], [ 167.9624191, -29.0725111 ], [ 167.9621268, -29.0726072 ], [ 167.9621022, -29.0727485 ], [ 167.9617715, -29.0726921 ], [ 167.961480599999987, -29.0724355 ], [ 167.9615126, -29.0720142 ], [ 167.9617829, -29.0718953 ], [ 167.9619119, -29.0715919 ], [ 167.961944100000011, -29.0714312 ], [ 167.962022499999989, -29.0713553 ], [ 167.9623085, -29.0713158 ], [ 167.9624751, -29.0712372 ], [ 167.9625092, -29.0711527 ], [ 167.96238, -29.0711204 ], [ 167.9623934, -29.0709447 ], [ 167.9624766, -29.0708157 ], [ 167.9628118, -29.07079 ], [ 167.96284940000001, -29.0706962 ], [ 167.9631254, -29.0704504 ], [ 167.9638138, -29.070225 ], [ 167.9639134, -29.0702582 ], [ 167.9639219, -29.0703245 ], [ 167.9639996, -29.0703427 ], [ 167.9640025, -29.0702971 ], [ 167.964041400000013, -29.0701786 ], [ 167.9641077, -29.0701173 ], [ 167.964262100000013, -29.0700537 ], [ 167.964733200000012, -29.070065 ], [ 167.9654276, -29.0701753 ], [ 167.9656553, -29.0703234 ], [ 167.9657877, -29.0703394 ], [ 167.9659893, -29.0704163 ], [ 167.965974499999987, -29.0704977 ], [ 167.9659992, -29.0705739 ], [ 167.9660845, -29.0705043 ], [ 167.966204, -29.0705259 ], [ 167.9663251, -29.0705821 ], [ 167.9661769, -29.070683 ], [ 167.965995600000014, -29.0707821 ], [ 167.9659005, -29.0707562 ], [ 167.965895, -29.0708138 ], [ 167.965810800000014, -29.0708747 ], [ 167.9657051, -29.071036 ], [ 167.965820900000011, -29.07128 ], [ 167.966018100000014, -29.0714838 ], [ 167.9662381, -29.0716761 ], [ 167.9662399, -29.0718314 ], [ 167.9661888, -29.0718982 ], [ 167.966001, -29.0718302 ], [ 167.965830399999987, -29.0718866 ], [ 167.9658038, -29.0719479 ], [ 167.9656597, -29.072044 ], [ 167.965485300000012, -29.0719579 ], [ 167.965271, -29.0716976 ], [ 167.96516170000001, -29.0716889 ], [ 167.965100299999989, -29.0718816 ], [ 167.965140100000013, -29.0720755 ], [ 167.965284200000013, -29.0721667 ], [ 167.9654322, -29.0721949 ], [ 167.96552890000001, -29.0723457 ], [ 167.9652577, -29.0723904 ], [ 167.9651306, -29.0723424 ], [ 167.965043400000013, -29.0722396 ], [ 167.964954299999988, -29.0720772 ], [ 167.9648671, -29.0721186 ], [ 167.9648177, -29.0722827 ], [ 167.9647267, -29.0723291 ], [ 167.9646543, -29.0725318 ], [ 167.9647172, -29.0726225 ], [ 167.964808299999987, -29.0726192 ], [ 167.9648652, -29.0725446 ], [ 167.9649865, -29.072465 ], [ 167.9650775, -29.072528 ], [ 167.9650904, -29.0726594 ], [ 167.9650169, -29.0728412 ], [ 167.964963399999988, -29.0729826 ], [ 167.9648196, -29.0729788 ], [ 167.9646391, -29.0730373 ], [ 167.964362599999987, -29.0733617 ], [ 167.964227599999987, -29.0734947 ], [ 167.964364499999988, -29.0735208 ], [ 167.9645538, -29.0736588 ], [ 167.9646414, -29.0737893 ], [ 167.9647821, -29.0739224 ], [ 167.9649717, -29.0739814 ], [ 167.9650843, -29.0739778 ], [ 167.9651634, -29.0740212 ], [ 167.9652251, -29.07403 ], [ 167.9652423, -29.0741326 ], [ 167.9652036, -29.0741525 ], [ 167.9651178, -29.0741103 ], [ 167.9650494, -29.0741079 ], [ 167.9650159, -29.0741419 ], [ 167.9647623, -29.0740845 ], [ 167.9647316, -29.0741583 ], [ 167.964692500000012, -29.0742392 ], [ 167.9647354, -29.0744068 ], [ 167.9648523, -29.0744232 ], [ 167.9650197, -29.0745674 ], [ 167.964926100000014, -29.0746798 ], [ 167.9648403, -29.0747162 ], [ 167.9647826, -29.0747935 ], [ 167.964841299999989, -29.0748951 ], [ 167.9647115, -29.0748158 ], [ 167.9646016, -29.0748041 ], [ 167.964346799999987, -29.0747654 ], [ 167.9642288, -29.0747232 ], [ 167.964149099999986, -29.0746522 ], [ 167.9640947, -29.0744994 ], [ 167.96405, -29.074452 ], [ 167.964084, -29.0743915 ], [ 167.9640546, -29.0743145 ], [ 167.9639995, -29.0742493 ], [ 167.9638706, -29.0743032 ], [ 167.963861400000013, -29.0743974 ], [ 167.9637937, -29.0745657 ], [ 167.9636334, -29.0746283 ], [ 167.963487, -29.0746136 ], [ 167.9632858, -29.0744338 ] ] ] ] } },
{ "type": "Feature", "properties": { "FID": 61416, "id": 2508, "left": 165.0, "top": -25.0, "right": 170.0, "bottom": -30.0, "row_index": 23, "col_index": 69, "min_lon": 165.0, "min_lat": -30.0, "tile_id": "165_-30" }, "geometry": { "type": "MultiPolygon", "coordinates": [ [ [ [ 167.9359619, -29.0007941 ], [ 167.93572, -29.0007425 ], [ 167.9358753, -29.0004185 ], [ 167.9361269, -29.00042 ], [ 167.936295800000011, -29.0003264 ], [ 167.9366349, -29.0003076 ], [ 167.936574, -29.0004889 ], [ 167.9364109, -29.00072 ], [ 167.9362017, -29.0008701 ], [ 167.9359619, -29.0007941 ] ] ] ] } },
{ "type": "Feature", "properties": { "FID": 371513, "id": 2508, "left": 165.0, "top": -25.0, "right": 170.0, "bottom": -30.0, "row_index": 23, "col_index": 69, "min_lon": 165.0, "min_lat": -30.0, "tile_id": "165_-30" }, "geometry": { "type": "MultiPolygon", "coordinates": [ [ [ [ 167.9461499, -29.0029678 ], [ 167.9461346, -29.0028965 ], [ 167.9461982, -29.0028435 ], [ 167.9462232, -29.0027464 ], [ 167.946287500000011, -29.0026455 ], [ 167.946386, -29.0027075 ], [ 167.946410899999989, -29.0028426 ], [ 167.946349199999986, -29.0029575 ], [ 167.9462063, -29.0030124 ], [ 167.9461499, -29.0029678 ] ] ] ] } },
{ "type": "Feature", "properties": { "FID": 371514, "id": 2508, "left": 165.0, "top": -25.0, "right": 170.0, "bottom": -30.0, "row_index": 23, "col_index": 69, "min_lon": 165.0, "min_lat": -30.0, "tile_id": "165_-30" }, "geometry": { "type": "MultiPolygon", "coordinates": [ [ [ [ 167.9380102, -29.0019981 ], [ 167.9379719, -29.0019474 ], [ 167.9379075, -29.0018723 ], [ 167.937912899999986, -29.0017785 ], [ 167.9380309, -29.0016284 ], [ 167.9379719, -29.0014501 ], [ 167.938020200000011, -29.0013844 ], [ 167.938100600000013, -29.0015392 ], [ 167.9382401, -29.0016706 ], [ 167.9382034, -29.0019042 ], [ 167.9380577, -29.0019943 ], [ 167.9380102, -29.0019981 ] ] ] ] } },
{ "type": "Feature", "properties": { "FID": 371515, "id": 2508, "left": 165.0, "top": -25.0, "right": 170.0, "bottom": -30.0, "row_index": 23, "col_index": 69, "min_lon": 165.0, "min_lat": -30.0, "tile_id": "165_-30" }, "geometry": { "type": "MultiPolygon", "coordinates": [ [ [ [ 167.9170667, -29.0093695 ], [ 167.9169943, -29.0094258 ], [ 167.9169468, -29.009331 ], [ 167.916924599999987, -29.0092639 ], [ 167.9170104, -29.0091959 ], [ 167.9171687, -29.0091161 ], [ 167.9172446, -29.0091973 ], [ 167.9172625, -29.0092756 ], [ 167.9172438, -29.0093319 ], [ 167.9171016, -29.0093437 ], [ 167.9170667, -29.0093695 ] ] ] ] } },
{ "type": "Feature", "properties": { "FID": 371516, "id": 2508, "left": 165.0, "top": -25.0, "right": 170.0, "bottom": -30.0, "row_index": 23, "col_index": 69, "min_lon": 165.0, "min_lat": -30.0, "tile_id": "165_-30" }, "geometry": { "type": "MultiPolygon", "coordinates": [ [ [ [ 167.9492854, -29.0015345 ], [ 167.9493659, -29.0015486 ], [ 167.949355200000014, -29.0016612 ], [ 167.949274699999989, -29.0016518 ], [ 167.9492854, -29.0015345 ] ] ] ] } },
{ "type": "Feature", "properties": { "FID": 371517, "id": 2508, "left": 165.0, "top": -25.0, "right": 170.0, "bottom": -30.0, "row_index": 23, "col_index": 69, "min_lon": 165.0, "min_lat": -30.0, "tile_id": "165_-30" }, "geometry": { "type": "MultiPolygon", "coordinates": [ [ [ [ 167.9563437, -29.0055963 ], [ 167.9563445, -29.0055438 ], [ 167.956441, -29.0054828 ], [ 167.956544799999989, -29.0054298 ], [ 167.9565877, -29.0054697 ], [ 167.9565945, -29.0054955 ], [ 167.9565261, -29.0055776 ], [ 167.9564, -29.0056174 ], [ 167.9563437, -29.0055963 ] ] ] ] } },
{ "type": "Feature", "properties": { "FID": 371518, "id": 2508, "left": 165.0, "top": -25.0, "right": 170.0, "bottom": -30.0, "row_index": 23, "col_index": 69, "min_lon": 165.0, "min_lat": -30.0, "tile_id": "165_-30" }, "geometry": { "type": "MultiPolygon", "coordinates": [ [ [ [ 167.9554545, -29.0059611 ], [ 167.9554465, -29.0058954 ], [ 167.955484, -29.0058204 ], [ 167.955585899999988, -29.0058649 ], [ 167.9555806, -29.0060479 ], [ 167.9555296, -29.0060409 ], [ 167.9554545, -29.0059611 ] ] ] ] } },
{ "type": "Feature", "properties": { "FID": 371519, "id": 2508, "left": 165.0, "top": -25.0, "right": 170.0, "bottom": -30.0, "row_index": 23, "col_index": 69, "min_lon": 165.0, "min_lat": -30.0, "tile_id": "165_-30" }, "geometry": { "type": "MultiPolygon", "coordinates": [ [ [ [ 167.9549878, -29.0049829 ], [ 167.9550468, -29.005058 ], [ 167.95501010000001, -29.0051509 ], [ 167.9549073, -29.0050298 ], [ 167.9549878, -29.0049829 ] ] ] ] } },
{ "type": "Feature", "properties": { "FID": 371520, "id": 2508, "left": 165.0, "top": -25.0, "right": 170.0, "bottom": -30.0, "row_index": 23, "col_index": 69, "min_lon": 165.0, "min_lat": -30.0, "tile_id": "165_-30" }, "geometry": { "type": "MultiPolygon", "coordinates": [ [ [ [ 167.922609, -28.9949462 ], [ 167.922383700000012, -28.99504 ], [ 167.9224481, -28.9951432 ], [ 167.922613500000011, -28.9951019 ], [ 167.922786, -28.9949696 ], [ 167.922844199999986, -28.9950034 ], [ 167.9228558, -28.9951291 ], [ 167.9226404, -28.9952239 ], [ 167.9223024, -28.9952427 ], [ 167.9221039, -28.9951348 ], [ 167.9219752, -28.9951066 ], [ 167.9219108, -28.9952052 ], [ 167.9218151, -28.9952089 ], [ 167.921546799999987, -28.9951104 ], [ 167.921487, -28.9950738 ], [ 167.9215254, -28.9949508 ], [ 167.9218472, -28.9950025 ], [ 167.9220243, -28.9950025 ], [ 167.9223622, -28.9949321 ], [ 167.922586700000011, -28.9948532 ], [ 167.9227477, -28.994872 ], [ 167.922609, -28.9949462 ] ] ] ] } },
{ "type": "Feature", "properties": { "FID": 371521, "id": 2508, "left": 165.0, "top": -25.0, "right": 170.0, "bottom": -30.0, "row_index": 23, "col_index": 69, "min_lon": 165.0, "min_lat": -30.0, "tile_id": "165_-30" }, "geometry": { "type": "MultiPolygon", "coordinates": [ [ [ [ 167.9218043, -28.9957297 ], [ 167.9218419, -28.9958283 ], [ 167.9217928, -28.9958386 ], [ 167.9218043, -28.9957297 ] ] ] ] } },
{ "type": "Feature", "properties": { "FID": 371522, "id": 2508, "left": 165.0, "top": -25.0, "right": 170.0, "bottom": -30.0, "row_index": 23, "col_index": 69, "min_lon": 165.0, "min_lat": -30.0, "tile_id": "165_-30" }, "geometry": { "type": "MultiPolygon", "coordinates": [ [ [ [ 167.9220717, -28.9944638 ], [ 167.9219323, -28.9945154 ], [ 167.9217552, -28.9945342 ], [ 167.921615800000012, -28.9945483 ], [ 167.9215192, -28.9945248 ], [ 167.9215629, -28.9943456 ], [ 167.921702399999987, -28.994294 ], [ 167.9218955, -28.9942611 ], [ 167.9221468, -28.994323 ], [ 167.9222059, -28.9944075 ], [ 167.9220717, -28.9944638 ] ] ] ] } },
{ "type": "Feature", "properties": { "FID": 371523, "id": 2508, "left": 165.0, "top": -25.0, "right": 170.0, "bottom": -30.0, "row_index": 23, "col_index": 69, "min_lon": 165.0, "min_lat": -30.0, "tile_id": "165_-30" }, "geometry": { "type": "MultiPolygon", "coordinates": [ [ [ [ 167.9163675, -29.00927 ], [ 167.916390799999988, -29.0092334 ], [ 167.91642920000001, -29.0092137 ], [ 167.916457900000012, -29.0092991 ], [ 167.9163828, -29.0093085 ], [ 167.9163675, -29.00927 ] ] ] ] } },
{ "type": "Feature", "properties": { "FID": 371524, "id": 2508, "left": 165.0, "top": -25.0, "right": 170.0, "bottom": -30.0, "row_index": 23, "col_index": 69, "min_lon": 165.0, "min_lat": -30.0, "tile_id": "165_-30" }, "geometry": { "type": "MultiPolygon", "coordinates": [ [ [ [ 167.9436509, -29.0010058 ], [ 167.9436206, -29.0009739 ], [ 167.943609900000013, -29.0008894 ], [ 167.9436402, -29.0007899 ], [ 167.9437306, -29.0007393 ], [ 167.943795, -29.0006619 ], [ 167.9438486, -29.0006619 ], [ 167.9438467, -29.0007735 ], [ 167.94378420000001, -29.0008659 ], [ 167.9437654, -29.0009527 ], [ 167.9437038, -29.0010184 ], [ 167.9436509, -29.0010058 ] ] ] ] } },
{ "type": "Feature", "properties": { "FID": 371525, "id": 2508, "left": 165.0, "top": -25.0, "right": 170.0, "bottom": -30.0, "row_index": 23, "col_index": 69, "min_lon": 165.0, "min_lat": -30.0, "tile_id": "165_-30" }, "geometry": { "type": "MultiPolygon", "coordinates": [ [ [ [ 167.939759, -29.0009049 ], [ 167.939667, -29.0007791 ], [ 167.9396947, -29.0006328 ], [ 167.9398449, -29.000675 ], [ 167.9399031, -29.0008448 ], [ 167.9398878, -29.0010738 ], [ 167.9398387, -29.0010935 ], [ 167.939759, -29.0009049 ] ] ] ] } },
{ "type": "Feature", "properties": { "FID": 371526, "id": 2508, "left": 165.0, "top": -25.0, "right": 170.0, "bottom": -30.0, "row_index": 23, "col_index": 69, "min_lon": 165.0, "min_lat": -30.0, "tile_id": "165_-30" }, "geometry": { "type": "MultiPolygon", "coordinates": [ [ [ [ 167.9514151, -29.0043542 ], [ 167.9515117, -29.0042135 ], [ 167.9516788, -29.004053 ], [ 167.951865700000013, -29.0039414 ], [ 167.951829, -29.0041797 ], [ 167.951678, -29.0043261 ], [ 167.951507099999986, -29.0045363 ], [ 167.9513507, -29.0045654 ], [ 167.9514151, -29.0043542 ] ] ] ] } },
{ "type": "Feature", "properties": { "FID": 371527, "id": 2508, "left": 165.0, "top": -25.0, "right": 170.0, "bottom": -30.0, "row_index": 23, "col_index": 69, "min_lon": 165.0, "min_lat": -30.0, "tile_id": "165_-30" }, "geometry": { "type": "MultiPolygon", "coordinates": [ [ [ [ 167.938911499999989, -29.0014867 ], [ 167.9388892, -29.0014313 ], [ 167.9389383, -29.0013506 ], [ 167.9390402, -29.0013225 ], [ 167.939179700000011, -29.0012615 ], [ 167.939221800000013, -29.0013375 ], [ 167.9391475, -29.0014069 ], [ 167.9389643, -29.0015251 ], [ 167.938911499999989, -29.0014867 ] ] ] ] } },
{ "type": "Feature", "properties": { "FID": 371528, "id": 2508, "left": 165.0, "top": -25.0, "right": 170.0, "bottom": -30.0, "row_index": 23, "col_index": 69, "min_lon": 165.0, "min_lat": -30.0, "tile_id": "165_-30" }, "geometry": { "type": "MultiPolygon", "coordinates": [ [ [ [ 167.9539847, -29.0050017 ], [ 167.9541831, -29.0050439 ], [ 167.9542376, -29.0050477 ], [ 167.9541571, -29.0051509 ], [ 167.954000799999989, -29.0051753 ], [ 167.9539847, -29.0050017 ] ] ] ] } },
{ "type": "Feature", "properties": { "FID": 371529, "id": 2508, "left": 165.0, "top": -25.0, "right": 170.0, "bottom": -30.0, "row_index": 23, "col_index": 69, "min_lon": 165.0, "min_lat": -30.0, "tile_id": "165_-30" }, "geometry": { "type": "MultiPolygon", "coordinates": [ [ [ [ 167.9416036, -29.0021585 ], [ 167.9415821, -29.0020553 ], [ 167.9416572, -29.0020412 ], [ 167.941732300000012, -29.0020694 ], [ 167.9418235, -29.0021445 ], [ 167.941834300000011, -29.0022195 ], [ 167.9417331, -29.0022843 ], [ 167.9416411, -29.0022336 ], [ 167.9416036, -29.0021585 ] ] ] ] } },
{ "type": "Feature", "properties": { "FID": 371530, "id": 2508, "left": 165.0, "top": -25.0, "right": 170.0, "bottom": -30.0, "row_index": 23, "col_index": 69, "min_lon": 165.0, "min_lat": -30.0, "tile_id": "165_-30" }, "geometry": { "type": "MultiPolygon", "coordinates": [ [ [ [ 167.9376983, -29.0015908 ], [ 167.937742, -29.0015054 ], [ 167.937810899999988, -29.0015111 ], [ 167.93787, -29.0016331 ], [ 167.9378332, -29.0017635 ], [ 167.9377474, -29.0017916 ], [ 167.937655400000011, -29.0017269 ], [ 167.9376983, -29.0015908 ] ] ] ] } },
{ "type": "Feature", "properties": { "FID": 371531, "id": 2508, "left": 165.0, "top": -25.0, "right": 170.0, "bottom": -30.0, "row_index": 23, "col_index": 69, "min_lon": 165.0, "min_lat": -30.0, "tile_id": "165_-30" }, "geometry": { "type": "MultiPolygon", "coordinates": [ [ [ [ 167.9430841, -29.000697 ], [ 167.943097599999987, -29.000636 ], [ 167.9431788, -29.0006374 ], [ 167.9432129, -29.0007017 ], [ 167.9431807, -29.0007674 ], [ 167.943111, -29.0007486 ], [ 167.9430841, -29.000697 ] ] ] ] } },
{ "type": "Feature", "properties": { "FID": 371532, "id": 2508, "left": 165.0, "top": -25.0, "right": 170.0, "bottom": -30.0, "row_index": 23, "col_index": 69, "min_lon": 165.0, "min_lat": -30.0, "tile_id": "165_-30" }, "geometry": { "type": "MultiPolygon", "coordinates": [ [ [ [ 167.9220717, -28.9957963 ], [ 167.922147599999988, -28.9956969 ], [ 167.9222327, -28.9957354 ], [ 167.922179, -28.9958996 ], [ 167.922109299999988, -28.9958902 ], [ 167.9220717, -28.9957963 ] ] ] ] } },
{ "type": "Feature", "properties": { "FID": 371533, "id": 2508, "left": 165.0, "top": -25.0, "right": 170.0, "bottom": -30.0, "row_index": 23, "col_index": 69, "min_lon": 165.0, "min_lat": -30.0, "tile_id": "165_-30" }, "geometry": { "type": "MultiPolygon", "coordinates": [ [ [ [ 167.9419791, -29.0021257 ], [ 167.9420979, -29.0021388 ], [ 167.9421025, -29.0022571 ], [ 167.941996, -29.0022702 ], [ 167.941936199999986, -29.0022101 ], [ 167.9419791, -29.0021257 ] ] ] ] } },
{ "type": "Feature", "properties": { "FID": 371534, "id": 2508, "left": 165.0, "top": -25.0, "right": 170.0, "bottom": -30.0, "row_index": 23, "col_index": 69, "min_lon": 165.0, "min_lat": -30.0, "tile_id": "165_-30" }, "geometry": { "type": "MultiPolygon", "coordinates": [ [ [ [ 167.9519891, -29.0049501 ], [ 167.952081099999987, -29.0049069 ], [ 167.952081099999987, -29.0048318 ], [ 167.952134699999988, -29.0047427 ], [ 167.9522895, -29.0047483 ], [ 167.9523163, -29.0048609 ], [ 167.952209, -29.0050204 ], [ 167.9519891, -29.0050439 ], [ 167.9519891, -29.0049501 ] ] ] ] } },
{ "type": "Feature", "properties": { "FID": 371535, "id": 2508, "left": 165.0, "top": -25.0, "right": 170.0, "bottom": -30.0, "row_index": 23, "col_index": 69, "min_lon": 165.0, "min_lat": -30.0, "tile_id": "165_-30" }, "geometry": { "type": "MultiPolygon", "coordinates": [ [ [ [ 167.975901099999987, -29.0215043 ], [ 167.9757985, -29.0215025 ], [ 167.975775700000014, -29.0214867 ], [ 167.9757736, -29.0214609 ], [ 167.9758165, -29.0213869 ], [ 167.9758407, -29.0213436 ], [ 167.9758608, -29.0212978 ], [ 167.975934599999988, -29.0212293 ], [ 167.9760058, -29.0212189 ], [ 167.976068700000013, -29.0212645 ], [ 167.9760847, -29.0213353 ], [ 167.976085500000011, -29.0213555 ], [ 167.975986799999987, -29.0214831 ], [ 167.975901099999987, -29.0215043 ] ] ] ] } },
{ "type": "Feature", "properties": { "FID": 371536, "id": 2508, "left": 165.0, "top": -25.0, "right": 170.0, "bottom": -30.0, "row_index": 23, "col_index": 69, "min_lon": 165.0, "min_lat": -30.0, "tile_id": "165_-30" }, "geometry": { "type": "MultiPolygon", "coordinates": [ [ [ [ 167.976776199999989, -29.0212558 ], [ 167.9768378, -29.0212231 ], [ 167.976898799999987, -29.0212263 ], [ 167.9769497, -29.0212404 ], [ 167.97696590000001, -29.0212838 ], [ 167.976921, -29.0213685 ], [ 167.976873399999988, -29.0214058 ], [ 167.976810199999989, -29.0214116 ], [ 167.976752, -29.0213952 ], [ 167.9767325, -29.0213459 ], [ 167.976776199999989, -29.0212558 ] ] ] ] } },
{ "type": "Feature", "properties": { "FID": 371537, "id": 2508, "left": 165.0, "top": -25.0, "right": 170.0, "bottom": -30.0, "row_index": 23, "col_index": 69, "min_lon": 165.0, "min_lat": -30.0, "tile_id": "165_-30" }, "geometry": { "type": "MultiPolygon", "coordinates": [ [ [ [ 167.9203712, -29.0222184 ], [ 167.920237899999989, -29.0221612 ], [ 167.9202486, -29.0220814 ], [ 167.920291600000013, -29.0218938 ], [ 167.9202264, -29.0218431 ], [ 167.920323700000012, -29.0217437 ], [ 167.9204302, -29.0217306 ], [ 167.92049, -29.0218281 ], [ 167.9207046, -29.0218281 ], [ 167.9208226, -29.0218891 ], [ 167.9209085, -29.0220251 ], [ 167.920494600000012, -29.0222325 ], [ 167.9203712, -29.0222184 ] ] ] ] } },
{ "type": "Feature", "properties": { "FID": 371538, "id": 2508, "left": 165.0, "top": -25.0, "right": 170.0, "bottom": -30.0, "row_index": 23, "col_index": 69, "min_lon": 165.0, "min_lat": -30.0, "tile_id": "165_-30" }, "geometry": { "type": "MultiPolygon", "coordinates": [ [ [ [ 167.920028699999989, -29.018704 ], [ 167.920022499999988, -29.0186393 ], [ 167.9202057, -29.0187368 ], [ 167.9201459, -29.0187987 ], [ 167.920044, -29.01878 ], [ 167.920028699999989, -29.018704 ] ] ] ] } },
{ "type": "Feature", "properties": { "FID": 371539, "id": 2508, "left": 165.0, "top": -25.0, "right": 170.0, "bottom": -30.0, "row_index": 23, "col_index": 69, "min_lon": 165.0, "min_lat": -30.0, "tile_id": "165_-30" }, "geometry": { "type": "MultiPolygon", "coordinates": [ [ [ [ 167.918745800000011, -29.0512036 ], [ 167.9187834, -29.051152 ], [ 167.9189236, -29.0511839 ], [ 167.9190408, -29.0512786 ], [ 167.9190202, -29.0513621 ], [ 167.9188638, -29.0513302 ], [ 167.9187243, -29.0513208 ], [ 167.918745800000011, -29.0512036 ] ] ] ] } },
{ "type": "Feature", "properties": { "FID": 371540, "id": 2508, "left": 165.0, "top": -25.0, "right": 170.0, "bottom": -30.0, "row_index": 23, "col_index": 69, "min_lon": 165.0, "min_lat": -30.0, "tile_id": "165_-30" }, "geometry": { "type": "MultiPolygon", "coordinates": [ [ [ [ 167.9196334, -29.0231578 ], [ 167.9196216, -29.0231458 ], [ 167.9196149, -29.0231235 ], [ 167.919623, -29.0231118 ], [ 167.919651499999986, -29.0230936 ], [ 167.9197681, -29.023042 ], [ 167.9197939, -29.0230402 ], [ 167.9198127, -29.0230449 ], [ 167.9198235, -29.0230619 ], [ 167.9198245, -29.0230786 ], [ 167.9198204, -29.0230889 ], [ 167.9198115, -29.023104 ], [ 167.919698399999987, -29.023161 ], [ 167.9196588, -29.0231651 ], [ 167.9196334, -29.0231578 ] ] ] ] } },
{ "type": "Feature", "properties": { "FID": 371541, "id": 2508, "left": 165.0, "top": -25.0, "right": 170.0, "bottom": -30.0, "row_index": 23, "col_index": 69, "min_lon": 165.0, "min_lat": -30.0, "tile_id": "165_-30" }, "geometry": { "type": "MultiPolygon", "coordinates": [ [ [ [ 167.9200394, -29.052164 ], [ 167.920018, -29.052103 ], [ 167.919980399999986, -29.0519905 ], [ 167.9200976, -29.0518554 ], [ 167.9202478, -29.0519586 ], [ 167.9202264, -29.05224 ], [ 167.9200869, -29.0522775 ], [ 167.9200394, -29.052164 ] ] ] ] } },
{ "type": "Feature", "properties": { "FID": 371542, "id": 2508, "left": 165.0, "top": -25.0, "right": 170.0, "bottom": -30.0, "row_index": 23, "col_index": 69, "min_lon": 165.0, "min_lat": -30.0, "tile_id": "165_-30" }, "geometry": { "type": "MultiPolygon", "coordinates": [ [ [ [ 167.9652912, -29.0748965 ], [ 167.9653341, -29.0748778 ], [ 167.9654227, -29.0748754 ], [ 167.965461800000014, -29.0749461 ], [ 167.965394800000013, -29.074993 ], [ 167.965300899999988, -29.0749766 ], [ 167.9652912, -29.0748965 ] ] ] ] } },
{ "type": "Feature", "properties": { "FID": 412868, "id": 2508, "left": 165.0, "top": -25.0, "right": 170.0, "bottom": -30.0, "row_index": 23, "col_index": 69, "min_lon": 165.0, "min_lat": -30.0, "tile_id": "165_-30" }, "geometry": { "type": "MultiPolygon", "coordinates": [ [ [ [ 167.9529679, -29.1142323 ], [ 167.95303770000001, -29.1141761 ], [ 167.953402399999987, -29.1140823 ], [ 167.9535419, -29.1140823 ], [ 167.9535741, -29.1141292 ], [ 167.953531199999986, -29.1142042 ], [ 167.9531557, -29.114326 ], [ 167.9528445, -29.1143776 ], [ 167.9527694, -29.1143401 ], [ 167.9527641, -29.1142604 ], [ 167.952823099999989, -29.1142135 ], [ 167.9529679, -29.1142323 ] ] ] ] } },
{ "type": "Feature", "properties": { "FID": 412869, "id": 2508, "left": 165.0, "top": -25.0, "right": 170.0, "bottom": -30.0, "row_index": 23, "col_index": 69, "min_lon": 165.0, "min_lat": -30.0, "tile_id": "165_-30" }, "geometry": { "type": "MultiPolygon", "coordinates": [ [ [ [ 167.953246900000011, -29.113234 ], [ 167.953482900000012, -29.1130841 ], [ 167.954132, -29.1130231 ], [ 167.9544807, -29.1130466 ], [ 167.95460940000001, -29.1130653 ], [ 167.9545558, -29.1131778 ], [ 167.9545397, -29.1133325 ], [ 167.9545075, -29.1134684 ], [ 167.9542768, -29.1135293 ], [ 167.953778, -29.113684 ], [ 167.953091300000011, -29.1138527 ], [ 167.9527373, -29.1138433 ], [ 167.952689, -29.1137964 ], [ 167.9526943, -29.1137027 ], [ 167.9528714, -29.113534 ], [ 167.9530269, -29.1133746 ], [ 167.9530752, -29.113295 ], [ 167.953246900000011, -29.113234 ] ] ] ] } },
{ "type": "Feature", "properties": { "FID": 412870, "id": 2508, "left": 165.0, "top": -25.0, "right": 170.0, "bottom": -30.0, "row_index": 23, "col_index": 69, "min_lon": 165.0, "min_lat": -30.0, "tile_id": "165_-30" }, "geometry": { "type": "MultiPolygon", "coordinates": [ [ [ [ 167.949554, -29.1133748 ], [ 167.9494574, -29.1133466 ], [ 167.949401099999989, -29.1132599 ], [ 167.9493931, -29.1131545 ], [ 167.949414499999989, -29.1130725 ], [ 167.9495191, -29.1130162 ], [ 167.9496318, -29.1130069 ], [ 167.9497552, -29.1130303 ], [ 167.9497874, -29.1130842 ], [ 167.9498088, -29.1130819 ], [ 167.94982490000001, -29.1131147 ], [ 167.94979, -29.1131334 ], [ 167.9497766, -29.1132318 ], [ 167.9497283, -29.1133232 ], [ 167.9496801, -29.1133888 ], [ 167.949554, -29.1133748 ] ] ] ] } },
{ "type": "Feature", "properties": { "FID": 412871, "id": 2508, "left": 165.0, "top": -25.0, "right": 170.0, "bottom": -30.0, "row_index": 23, "col_index": 69, "min_lon": 165.0, "min_lat": -30.0, "tile_id": "165_-30" }, "geometry": { "type": "MultiPolygon", "coordinates": [ [ [ [ 167.9509095, -29.1109096 ], [ 167.9509095, -29.1108322 ], [ 167.950931, -29.110783 ], [ 167.9509337, -29.1107033 ], [ 167.9510249, -29.1105252 ], [ 167.9510141, -29.1104268 ], [ 167.9510115, -29.1102839 ], [ 167.9510517, -29.110237 ], [ 167.951102600000013, -29.110237 ], [ 167.951137499999987, -29.1102886 ], [ 167.9512099, -29.110394 ], [ 167.9513306, -29.1105112 ], [ 167.951277, -29.1105698 ], [ 167.9512368, -29.110633 ], [ 167.9510812, -29.1107877 ], [ 167.951057100000014, -29.1108533 ], [ 167.9510034, -29.1108978 ], [ 167.9509203, -29.1109353 ], [ 167.9509095, -29.1109096 ] ] ] ] } },
{ "type": "Feature", "properties": { "FID": 473822, "id": 2508, "left": 165.0, "top": -25.0, "right": 170.0, "bottom": -30.0, "row_index": 23, "col_index": 69, "min_lon": 165.0, "min_lat": -30.0, "tile_id": "165_-30" }, "geometry": { "type": "MultiPolygon", "coordinates": [ [ [ [ 167.9491783, -29.1151792 ], [ 167.949374, -29.1152424 ], [ 167.9495164, -29.1152953 ], [ 167.950332, -29.1149098 ], [ 167.9504382, -29.1147375 ], [ 167.9507092, -29.1144906 ], [ 167.9510602, -29.1141311 ], [ 167.9511929, -29.1142107 ], [ 167.951447, -29.1141079 ], [ 167.9514925, -29.1142471 ], [ 167.9513029, -29.1145089 ], [ 167.9515835, -29.1145354 ], [ 167.951761800000014, -29.11432 ], [ 167.9520956, -29.114103 ], [ 167.9521771, -29.1141494 ], [ 167.9522833, -29.1142653 ], [ 167.9524149, -29.1144356 ], [ 167.952586700000012, -29.1143714 ], [ 167.952727, -29.1144641 ], [ 167.952838899999989, -29.1144658 ], [ 167.9529205, -29.1145122 ], [ 167.95282370000001, -29.1146911 ], [ 167.952734600000014, -29.1148833 ], [ 167.952647399999989, -29.1149065 ], [ 167.95248620000001, -29.1148833 ], [ 167.9524824, -29.1149413 ], [ 167.9525788, -29.1150016 ], [ 167.9527953, -29.11543 ], [ 167.9531639, -29.1158521 ], [ 167.9537776, -29.1162882 ], [ 167.954134399999987, -29.1164915 ], [ 167.9548168, -29.1165665 ], [ 167.9553326, -29.1165665 ], [ 167.955979899999988, -29.1164505 ], [ 167.9565197, -29.116487 ], [ 167.9567125, -29.1166225 ], [ 167.957282, -29.1164836 ], [ 167.9575274, -29.1163879 ], [ 167.957820700000013, -29.1160004 ], [ 167.9579874, -29.1157646 ], [ 167.9583264, -29.1155905 ], [ 167.9586359, -29.1155857 ], [ 167.9587784, -29.1157453 ], [ 167.9587459, -29.115927 ], [ 167.9585655, -29.1161563 ], [ 167.9586587, -29.1162484 ], [ 167.958874900000012, -29.1163312 ], [ 167.9591349, -29.116335 ], [ 167.9591657, -29.1161228 ], [ 167.959409599999987, -29.1158375 ], [ 167.9597168, -29.1159303 ], [ 167.9598648, -29.1159336 ], [ 167.9600869, -29.1155796 ], [ 167.960099899999989, -29.1153935 ], [ 167.960384299999987, -29.115208 ], [ 167.9605689, -29.1151739 ], [ 167.9606991, -29.1155327 ], [ 167.9611143, -29.1158052 ], [ 167.961510800000013, -29.1160463 ], [ 167.9619204, -29.1162277 ], [ 167.962576500000011, -29.1162716 ], [ 167.962587899999988, -29.1167785 ], [ 167.962694699999986, -29.1172402 ], [ 167.9630733, -29.1169442 ], [ 167.9634374, -29.1169078 ], [ 167.963657399999988, -29.1169475 ], [ 167.9638999, -29.1168295 ], [ 167.9644159, -29.1167686 ], [ 167.9648293, -29.1170436 ], [ 167.965257900000012, -29.1171099 ], [ 167.965589, -29.1171779 ], [ 167.9655826, -29.1173267 ], [ 167.9650038, -29.1173849 ], [ 167.9647117, -29.1173352 ], [ 167.964192200000014, -29.1171563 ], [ 167.9639282, -29.1173291 ], [ 167.963931800000012, -29.1174552 ], [ 167.9640568, -29.1175156 ], [ 167.964201, -29.1175305 ], [ 167.9643155, -29.1175821 ], [ 167.964339700000011, -29.1177078 ], [ 167.964404300000012, -29.1178146 ], [ 167.964459, -29.1179306 ], [ 167.964564, -29.1180095 ], [ 167.9645779, -29.1181354 ], [ 167.964591500000012, -29.1182524 ], [ 167.9646665, -29.118359 ], [ 167.9646598, -29.1184854 ], [ 167.9645908, -29.1185861 ], [ 167.964532600000013, -29.1187047 ], [ 167.9645775, -29.118839 ], [ 167.964622, -29.1189552 ], [ 167.964584300000013, -29.1190733 ], [ 167.964463200000012, -29.1191482 ], [ 167.9643628, -29.1192316 ], [ 167.9643146, -29.1193409 ], [ 167.9642146, -29.1194333 ], [ 167.9641771, -29.1195604 ], [ 167.9641292, -29.1196787 ], [ 167.964060100000012, -29.1197794 ], [ 167.9639917, -29.1198982 ], [ 167.963922599999989, -29.1199989 ], [ 167.9637789, -29.1200021 ], [ 167.9636557, -29.1200048 ], [ 167.9635128, -29.1200351 ], [ 167.9633801, -29.120065 ], [ 167.9632796, -29.1201394 ], [ 167.9632827, -29.1202476 ], [ 167.9633681, -29.120363 ], [ 167.963422799999989, -29.120479 ], [ 167.9635278, -29.1205578 ], [ 167.9635725, -29.1206831 ], [ 167.9636372, -29.1207899 ], [ 167.9637119, -29.1208875 ], [ 167.963776599999989, -29.1209943 ], [ 167.963780500000013, -29.1211295 ], [ 167.9636907, -29.1212217 ], [ 167.9636111, -29.1213136 ], [ 167.9634677, -29.1213258 ], [ 167.963332900000012, -29.1212837 ], [ 167.9632282, -29.1212139 ], [ 167.963103499999988, -29.1211625 ], [ 167.9629787, -29.1211112 ], [ 167.962893799999989, -29.1210138 ], [ 167.962749800000012, -29.121008 ], [ 167.962639200000012, -29.1210916 ], [ 167.962581300000011, -29.1212192 ], [ 167.9625328, -29.1213194 ], [ 167.9625977, -29.1214353 ], [ 167.9627125, -29.1214959 ], [ 167.962837400000012, -29.1215562 ], [ 167.9629224, -29.1216536 ], [ 167.9629358, -29.1217615 ], [ 167.962856499999987, -29.1218625 ], [ 167.9627243, -29.1219105 ], [ 167.962613, -29.1219671 ], [ 167.9625547, -29.1220856 ], [ 167.962517, -29.1222037 ], [ 167.962438, -29.1223137 ], [ 167.9623801, -29.1224412 ], [ 167.962279700000011, -29.1225246 ], [ 167.9621468, -29.1225456 ], [ 167.9620136, -29.1225576 ], [ 167.961879900000014, -29.1225515 ], [ 167.9617467, -29.1225635 ], [ 167.9616146, -29.1226115 ], [ 167.9615661, -29.1227118 ], [ 167.961569700000013, -29.122838 ], [ 167.961437, -29.122868 ], [ 167.9612838, -29.1228984 ], [ 167.9611724, -29.122955 ], [ 167.961041099999989, -29.12303 ], [ 167.9609615, -29.123122 ], [ 167.9608609, -29.1231964 ], [ 167.960729, -29.1232534 ], [ 167.9606077, -29.1233192 ], [ 167.9605071, -29.1233936 ], [ 167.9603849, -29.1234324 ], [ 167.9602504, -29.1233993 ], [ 167.960095200000012, -29.1233576 ], [ 167.9599904, -29.1232878 ], [ 167.9599057, -29.1231994 ], [ 167.959821, -29.1231111 ], [ 167.9597258, -29.123014 ], [ 167.959601099999986, -29.1229626 ], [ 167.959466099999986, -29.1229115 ], [ 167.9593511, -29.1228419 ], [ 167.9594093, -29.1227234 ], [ 167.9595194, -29.1226217 ], [ 167.9595471, -29.1225129 ], [ 167.959432099999987, -29.1224433 ], [ 167.959336900000011, -29.1223461 ], [ 167.959323, -29.1222202 ], [ 167.9592683, -29.1221041 ], [ 167.9591336, -29.122062 ], [ 167.9590186, -29.1219924 ], [ 167.9588939, -29.121941 ], [ 167.9587991, -29.121862 ], [ 167.9587042, -29.1217739 ], [ 167.9585989, -29.121686 ], [ 167.958504, -29.1215979 ], [ 167.958409, -29.1215098 ], [ 167.9582743, -29.1214677 ], [ 167.95814, -29.1214436 ], [ 167.9580061, -29.1214285 ], [ 167.9578847, -29.1214943 ], [ 167.957836500000013, -29.1216036 ], [ 167.957768, -29.1217224 ], [ 167.9577095, -29.1218319 ], [ 167.957672, -29.121959 ], [ 167.9576343, -29.1220771 ], [ 167.957576100000011, -29.1221956 ], [ 167.9575489, -29.1223225 ], [ 167.9574696, -29.1224235 ], [ 167.957400299999989, -29.1225152 ], [ 167.9572782, -29.122554 ], [ 167.957135, -29.1225752 ], [ 167.95700020000001, -29.122533 ], [ 167.9568955, -29.1224632 ], [ 167.9568006, -29.1223751 ], [ 167.9567356, -29.1222593 ], [ 167.956732, -29.1221331 ], [ 167.9567697, -29.122015 ], [ 167.9567256, -29.1219077 ], [ 167.9566103, -29.1218291 ], [ 167.9564758, -29.121796 ], [ 167.9563426, -29.121808 ], [ 167.95621, -29.1218379 ], [ 167.956088099999988, -29.1218857 ], [ 167.9559544, -29.1218797 ], [ 167.9558204, -29.1218646 ], [ 167.9557054, -29.121795 ], [ 167.955701800000014, -29.1216688 ], [ 167.9556471, -29.1215527 ], [ 167.9555522, -29.1214646 ], [ 167.955518, -29.1213481 ], [ 167.9555249, -29.1212307 ], [ 167.95543, -29.1211426 ], [ 167.9552955, -29.1211095 ], [ 167.955161299999986, -29.1210854 ], [ 167.955037, -29.1210521 ], [ 167.9549039, -29.121064 ], [ 167.954793, -29.1211386 ], [ 167.954714, -29.1212486 ], [ 167.9546655, -29.1213489 ], [ 167.9546791, -29.1214658 ], [ 167.9547138, -29.1216004 ], [ 167.9547885, -29.1216979 ], [ 167.954842899999989, -29.121805 ], [ 167.9548465, -29.1219312 ], [ 167.9548088, -29.1220492 ], [ 167.954729500000013, -29.1221502 ], [ 167.9545966, -29.1221712 ], [ 167.954462299999989, -29.1221471 ], [ 167.954367600000012, -29.122068 ], [ 167.9543132, -29.121961 ], [ 167.9541887, -29.1219186 ], [ 167.9540558, -29.1219396 ], [ 167.9539126, -29.1219608 ], [ 167.9537899, -29.1219815 ], [ 167.9536896, -29.1220649 ], [ 167.9536414, -29.1221742 ], [ 167.953509700000012, -29.1222402 ], [ 167.953387600000013, -29.122279 ], [ 167.9532551, -29.122318 ], [ 167.9531438, -29.1223746 ], [ 167.9530858, -29.1225021 ], [ 167.9530689, -29.1226288 ], [ 167.953113300000012, -29.1227451 ], [ 167.9532082, -29.1228332 ], [ 167.953333500000014, -29.1229026 ], [ 167.953478, -29.1229264 ], [ 167.9536022, -29.1229598 ], [ 167.9537369, -29.1230019 ], [ 167.9538719, -29.123053 ], [ 167.9539867, -29.1231136 ], [ 167.9540413, -29.1232297 ], [ 167.953983099999988, -29.1233482 ], [ 167.9539148, -29.123476 ], [ 167.953845800000011, -29.1235767 ], [ 167.9537981, -29.1237041 ], [ 167.9537396, -29.1238136 ], [ 167.9536501, -29.1239148 ], [ 167.953571, -29.1240247 ], [ 167.953512499999988, -29.1241343 ], [ 167.953444, -29.124253 ], [ 167.953375, -29.1243538 ], [ 167.953296200000011, -29.1244728 ], [ 167.9531638, -29.1245118 ], [ 167.9530311, -29.1245417 ], [ 167.9528992, -29.1245988 ], [ 167.9528204, -29.1247178 ], [ 167.9528243, -29.124853 ], [ 167.9527761, -29.1249623 ], [ 167.952675699999986, -29.1250456 ], [ 167.9525428, -29.1250666 ], [ 167.9524314, -29.1251232 ], [ 167.9523103, -29.125198 ], [ 167.952166799999986, -29.1252102 ], [ 167.9520331, -29.1252041 ], [ 167.951901, -29.1252521 ], [ 167.951800600000013, -29.1253355 ], [ 167.951689499999986, -29.1254011 ], [ 167.9515466, -29.1254313 ], [ 167.951425699999987, -29.1255151 ], [ 167.9513882, -29.1256422 ], [ 167.951361, -29.1257691 ], [ 167.9513952, -29.1258856 ], [ 167.9513475, -29.1260129 ], [ 167.9513097, -29.126131 ], [ 167.9513031, -29.1262574 ], [ 167.9512761, -29.1263933 ], [ 167.9512282, -29.1265116 ], [ 167.9511702, -29.1266392 ], [ 167.951153, -29.1267568 ], [ 167.951146599999987, -29.1268923 ], [ 167.9511507, -29.1270365 ], [ 167.951164299999988, -29.1271534 ], [ 167.951249600000011, -29.1272598 ], [ 167.951253400000013, -29.127395 ], [ 167.9512976, -29.1275022 ], [ 167.9514323, -29.1275444 ], [ 167.951566, -29.1275505 ], [ 167.95163070000001, -29.1276573 ], [ 167.9516135, -29.1277749 ], [ 167.9515964, -29.1278925 ], [ 167.9516205, -29.1280183 ], [ 167.9517057, -29.1281246 ], [ 167.9518402, -29.1281577 ], [ 167.951884400000012, -29.128265 ], [ 167.951918799999987, -29.1283905 ], [ 167.951943199999988, -29.1285253 ], [ 167.951947, -29.1286605 ], [ 167.9519506, -29.1287867 ], [ 167.951974799999988, -29.1289124 ], [ 167.9520092, -29.1290379 ], [ 167.952053299999989, -29.1291452 ], [ 167.9520877, -29.1292707 ], [ 167.9521121, -29.1294054 ], [ 167.952126, -29.1295314 ], [ 167.9521399, -29.1296574 ], [ 167.9521332, -29.1297838 ], [ 167.952126099999987, -29.1298922 ], [ 167.952129899999989, -29.1300274 ], [ 167.9521335, -29.1301536 ], [ 167.9521374, -29.1302888 ], [ 167.952141, -29.130415 ], [ 167.9520933, -29.1305423 ], [ 167.9519927, -29.1306167 ], [ 167.9518605, -29.1306647 ], [ 167.9517286, -29.1307217 ], [ 167.951649, -29.1308137 ], [ 167.9515911, -29.1309412 ], [ 167.9515744, -29.1310769 ], [ 167.9515777, -29.1311941 ], [ 167.9515921, -29.131338 ], [ 167.9515647, -29.1314559 ], [ 167.9514749, -29.1315481 ], [ 167.951352899999989, -29.1315959 ], [ 167.9512095, -29.131608 ], [ 167.951076300000011, -29.13162 ], [ 167.9509426, -29.1316139 ], [ 167.95081780000001, -29.1315626 ], [ 167.9507328, -29.1314652 ], [ 167.95075, -29.1313476 ], [ 167.9507054, -29.1312223 ], [ 167.9506307, -29.1311247 ], [ 167.9505354, -29.1310276 ], [ 167.9504004, -29.1309765 ], [ 167.9502847, -29.1308798 ], [ 167.950198699999987, -29.1307464 ], [ 167.9501337, -29.1306306 ], [ 167.9500793, -29.1305235 ], [ 167.9500046, -29.130426 ], [ 167.949950199999989, -29.1303189 ], [ 167.949865, -29.1302126 ], [ 167.9497505, -29.130161 ], [ 167.9496062, -29.1301461 ], [ 167.949491, -29.1300675 ], [ 167.949376, -29.1299979 ], [ 167.9492323, -29.130001 ], [ 167.949099600000011, -29.130031 ], [ 167.9489667, -29.130052 ], [ 167.9488424, -29.1300186 ], [ 167.9487177, -29.1299673 ], [ 167.9486628, -29.1298422 ], [ 167.948649100000011, -29.1297253 ], [ 167.9486145, -29.1295907 ], [ 167.9485703, -29.1294835 ], [ 167.9484553, -29.1294138 ], [ 167.9483209, -29.1293807 ], [ 167.9481869, -29.1293656 ], [ 167.9480424, -29.1293418 ], [ 167.9479179, -29.1292994 ], [ 167.947822699999989, -29.1292023 ], [ 167.9477372, -29.1290869 ], [ 167.947682500000013, -29.1289709 ], [ 167.9476574, -29.1288091 ], [ 167.9476946, -29.1286729 ], [ 167.9477633, -29.1285632 ], [ 167.947841899999986, -29.1284352 ], [ 167.9479006, -29.1283347 ], [ 167.947948599999989, -29.1282164 ], [ 167.9480064, -29.1280798 ], [ 167.948023, -29.1279442 ], [ 167.9480194, -29.127818 ], [ 167.9480361, -29.1276823 ], [ 167.9480017, -29.1275568 ], [ 167.9479373, -29.127459 ], [ 167.947943900000013, -29.1273326 ], [ 167.9480443, -29.1272492 ], [ 167.9481772, -29.1272282 ], [ 167.9482989, -29.1271714 ], [ 167.94838870000001, -29.1270793 ], [ 167.9484051, -29.1269346 ], [ 167.9483812, -29.1268179 ], [ 167.9483466, -29.1266833 ], [ 167.9483224, -29.1265576 ], [ 167.948257500000011, -29.1264418 ], [ 167.9481625, -29.1263537 ], [ 167.9480778, -29.1262653 ], [ 167.948022900000012, -29.1261403 ], [ 167.9479682, -29.1260242 ], [ 167.9479033, -29.1259084 ], [ 167.9478383, -29.1257926 ], [ 167.9477737, -29.1256858 ], [ 167.9476784, -29.1255886 ], [ 167.947564, -29.125537 ], [ 167.9474788, -29.1254307 ], [ 167.9474859, -29.1253223 ], [ 167.947451, -29.1251788 ], [ 167.947376100000014, -29.1250722 ], [ 167.9472608, -29.1249935 ], [ 167.9471461, -29.1249329 ], [ 167.9470411, -29.124854 ], [ 167.9469154, -29.1247666 ], [ 167.9467817, -29.1247605 ], [ 167.9464745, -29.1244487 ], [ 167.9464653, -29.124305 ], [ 167.9461446, -29.1242566 ], [ 167.9459301, -29.1242706 ], [ 167.945733499999989, -29.1243562 ], [ 167.9453547, -29.1246976 ], [ 167.9451458, -29.1248196 ], [ 167.945026399999989, -29.1250774 ], [ 167.944501, -29.1248793 ], [ 167.944774099999989, -29.1245513 ], [ 167.9448272, -29.1243624 ], [ 167.9446414, -29.124167 ], [ 167.9442204, -29.1240311 ], [ 167.9443181, -29.1239192 ], [ 167.9446092, -29.1237813 ], [ 167.9446024, -29.1236497 ], [ 167.9442783, -29.1232752 ], [ 167.944125899999989, -29.1232393 ], [ 167.9439104, -29.1231108 ], [ 167.9436533, -29.1230994 ], [ 167.9434115, -29.1229093 ], [ 167.942726099999987, -29.1227688 ], [ 167.9426497, -29.1227171 ], [ 167.942713, -29.1225677 ], [ 167.942692599999987, -29.1223586 ], [ 167.9428294, -29.1222696 ], [ 167.9431255, -29.1222617 ], [ 167.943333700000011, -29.1220798 ], [ 167.9434061, -29.121801 ], [ 167.9432854, -29.1216088 ], [ 167.9428843, -29.1215823 ], [ 167.942834800000014, -29.1215057 ], [ 167.9428858, -29.1213464 ], [ 167.942800299999988, -29.1209487 ], [ 167.942962200000011, -29.1207325 ], [ 167.943130700000012, -29.1205546 ], [ 167.943262, -29.1203796 ], [ 167.9432768, -29.1202654 ], [ 167.9432208, -29.1201825 ], [ 167.943141700000012, -29.1201023 ], [ 167.943000399999988, -29.1200087 ], [ 167.9429951, -29.1198279 ], [ 167.9429088, -29.1197014 ], [ 167.9430864, -29.1193264 ], [ 167.9433405, -29.1191839 ], [ 167.9435262, -29.1188421 ], [ 167.9437484, -29.1185272 ], [ 167.94395750000001, -29.1182103 ], [ 167.944036399999987, -29.1181198 ], [ 167.9440123, -29.1179652 ], [ 167.943913, -29.1179136 ], [ 167.9438084, -29.1181222 ], [ 167.9435885, -29.118244 ], [ 167.9434946, -29.1183682 ], [ 167.943178100000011, -29.1183354 ], [ 167.943191500000012, -29.1181901 ], [ 167.9435188, -29.1180776 ], [ 167.9435134, -29.1179652 ], [ 167.9431001, -29.1181251 ], [ 167.9428835, -29.1177445 ], [ 167.9429188, -29.1174743 ], [ 167.9429877, -29.1173184 ], [ 167.942700699999989, -29.1171896 ], [ 167.942687400000011, -29.1170205 ], [ 167.9429347, -29.1168944 ], [ 167.9430902, -29.1169342 ], [ 167.943359500000014, -29.116901 ], [ 167.9435643, -29.1167354 ], [ 167.9436667, -29.1164902 ], [ 167.9438563, -29.1163311 ], [ 167.9445885, -29.1161735 ], [ 167.9448765, -29.1162118 ], [ 167.944941, -29.11597 ], [ 167.945298799999989, -29.1157245 ], [ 167.9454618, -29.1158145 ], [ 167.945550700000013, -29.1162409 ], [ 167.9457224, -29.1163276 ], [ 167.945894, -29.1162737 ], [ 167.9465269, -29.1163487 ], [ 167.9467146, -29.1164752 ], [ 167.9468702, -29.1164588 ], [ 167.9469345, -29.116337 ], [ 167.9469774, -29.1161823 ], [ 167.9466261, -29.1158332 ], [ 167.946526799999987, -29.1155868 ], [ 167.946511500000014, -29.1149038 ], [ 167.9466045, -29.1148252 ], [ 167.9467922, -29.1147109 ], [ 167.9470748, -29.114633 ], [ 167.9474256, -29.1145369 ], [ 167.947692600000011, -29.114481 ], [ 167.9478588, -29.1145442 ], [ 167.947982200000013, -29.1144716 ], [ 167.9481753, -29.1144716 ], [ 167.948507799999987, -29.114413 ], [ 167.9486321, -29.1145208 ], [ 167.9486321, -29.1146716 ], [ 167.9485714, -29.114882 ], [ 167.9485903, -29.1150377 ], [ 167.9486662, -29.1150178 ], [ 167.948725, -29.1150559 ], [ 167.9487766, -29.1151851 ], [ 167.948812800000013, -29.1152167 ], [ 167.9491783, -29.1151792 ] ] ] ] } },
{ "type": "Feature", "properties": { "FID": 527278, "id": 2508, "left": 165.0, "top": -25.0, "right": 170.0, "bottom": -30.0, "row_index": 23, "col_index": 69, "min_lon": 165.0, "min_lat": -30.0, "tile_id": "165_-30" }, "geometry": { "type": "MultiPolygon", "coordinates": [ [ [ [ 167.9470995, -29.1365102 ], [ 167.946992200000011, -29.1366226 ], [ 167.946775, -29.1366039 ], [ 167.9466784, -29.1365219 ], [ 167.9467052, -29.1363555 ], [ 167.9468876, -29.1362337 ], [ 167.9469976, -29.1361353 ], [ 167.9471424, -29.1360791 ], [ 167.947284599999989, -29.1361424 ], [ 167.9472068, -29.1362876 ], [ 167.947102199999989, -29.1364001 ], [ 167.9470995, -29.1365102 ] ] ] ] } },
{ "type": "Feature", "properties": { "FID": 527279, "id": 2508, "left": 165.0, "top": -25.0, "right": 170.0, "bottom": -30.0, "row_index": 23, "col_index": 69, "min_lon": 165.0, "min_lat": -30.0, "tile_id": "165_-30" }, "geometry": { "type": "MultiPolygon", "coordinates": [ [ [ [ 167.9504389, -29.1321267 ], [ 167.950454900000011, -29.1319674 ], [ 167.950637300000011, -29.1318783 ], [ 167.950819700000011, -29.1320377 ], [ 167.9507554, -29.1322063 ], [ 167.9509056, -29.1323797 ], [ 167.9510182, -29.132525 ], [ 167.9509807, -29.1326093 ], [ 167.9507446, -29.1326327 ], [ 167.9505891, -29.1325625 ], [ 167.950514, -29.1323657 ], [ 167.9504389, -29.1321267 ] ] ] ] } },
{ "type": "Feature", "properties": { "FID": 527280, "id": 2508, "left": 165.0, "top": -25.0, "right": 170.0, "bottom": -30.0, "row_index": 23, "col_index": 69, "min_lon": 165.0, "min_lat": -30.0, "tile_id": "165_-30" }, "geometry": { "type": "MultiPolygon", "coordinates": [ [ [ [ 167.9490173, -29.1150712 ], [ 167.9489341, -29.1150923 ], [ 167.948798900000014, -29.1150708 ], [ 167.9488041, -29.115013 ], [ 167.948827599999987, -29.1149207 ], [ 167.9487595, -29.1148525 ], [ 167.9487629, -29.1147875 ], [ 167.948797, -29.1146451 ], [ 167.948898899999989, -29.1145937 ], [ 167.948912799999988, -29.1144107 ], [ 167.9489848, -29.1143802 ], [ 167.9490987, -29.1143731 ], [ 167.9492024, -29.1143334 ], [ 167.9492225, -29.1142479 ], [ 167.949277099999989, -29.1141787 ], [ 167.9493884, -29.1141154 ], [ 167.9495779, -29.1140546 ], [ 167.9496569, -29.1141079 ], [ 167.9496341, -29.1142504 ], [ 167.949592200000012, -29.1143052 ], [ 167.9495734, -29.1144083 ], [ 167.949505, -29.1144282 ], [ 167.9495037, -29.1145044 ], [ 167.9494822, -29.1146259 ], [ 167.9495345, -29.114741 ], [ 167.949458099999987, -29.1148511 ], [ 167.94945, -29.1149109 ], [ 167.9494089, -29.1150035 ], [ 167.9492051, -29.1150082 ], [ 167.949179500000014, -29.1150538 ], [ 167.9490173, -29.1150712 ] ] ] ] } },
{ "type": "Feature", "properties": { "FID": 527281, "id": 2508, "left": 165.0, "top": -25.0, "right": 170.0, "bottom": -30.0, "row_index": 23, "col_index": 69, "min_lon": 165.0, "min_lat": -30.0, "tile_id": "165_-30" }, "geometry": { "type": "MultiPolygon", "coordinates": [ [ [ [ 167.9571927, -29.1158305 ], [ 167.9571149, -29.1158656 ], [ 167.9569969, -29.1158234 ], [ 167.9570425, -29.1157133 ], [ 167.9570907, -29.1156407 ], [ 167.957131, -29.1155446 ], [ 167.957179200000013, -29.1154321 ], [ 167.957240899999988, -29.1153571 ], [ 167.9573268, -29.115397 ], [ 167.9573053, -29.1155048 ], [ 167.9572704, -29.1156008 ], [ 167.9572758, -29.1157156 ], [ 167.9571927, -29.1158305 ] ] ] ] } },
{ "type": "Feature", "properties": { "FID": 532847, "id": 2508, "left": 165.0, "top": -25.0, "right": 170.0, "bottom": -30.0, "row_index": 23, "col_index": 69, "min_lon": 165.0, "min_lat": -30.0, "tile_id": "165_-30" }, "geometry": { "type": "MultiPolygon", "coordinates": [ [ [ [ 167.937301100000013, -29.002006 ], [ 167.937632400000012, -29.0021221 ], [ 167.9380817, -29.0021733 ], [ 167.9384011, -29.0021824 ], [ 167.9394126, -29.002243 ], [ 167.939777099999986, -29.0022899 ], [ 167.940127600000011, -29.002257 ], [ 167.9407716, -29.0023666 ], [ 167.9413389, -29.0024128 ], [ 167.9422554, -29.0024612 ], [ 167.942740500000014, -29.0023149 ], [ 167.943144, -29.0022718 ], [ 167.943292, -29.0022662 ], [ 167.9433369, -29.0020675 ], [ 167.9432674, -29.0018416 ], [ 167.94320780000001, -29.0014885 ], [ 167.9433433, -29.0012223 ], [ 167.94336340000001, -29.0010747 ], [ 167.9435061, -29.0012145 ], [ 167.9434444, -29.0015711 ], [ 167.9436207, -29.001525 ], [ 167.943981900000011, -29.0013708 ], [ 167.9444202, -29.0014576 ], [ 167.945085, -29.0016061 ], [ 167.9452235, -29.0019122 ], [ 167.9452684, -29.0020723 ], [ 167.945756499999987, -29.0025694 ], [ 167.9459827, -29.0029449 ], [ 167.946069099999988, -29.0030579 ], [ 167.9464051, -29.0033758 ], [ 167.9467708, -29.0036441 ], [ 167.947116099999988, -29.0038846 ], [ 167.947369900000012, -29.0041494 ], [ 167.9475171, -29.0043326 ], [ 167.9479039, -29.004726 ], [ 167.9483247, -29.0049331 ], [ 167.9487861, -29.0049564 ], [ 167.9490725, -29.0051501 ], [ 167.9494881, -29.0053294 ], [ 167.9499131, -29.0053383 ], [ 167.9500008, -29.0053354 ], [ 167.950247100000013, -29.0051726 ], [ 167.950399800000014, -29.0049144 ], [ 167.9504521, -29.0049668 ], [ 167.950467, -29.005002 ], [ 167.9505706, -29.0051214 ], [ 167.9506111, -29.005342 ], [ 167.950872299999986, -29.0054068 ], [ 167.951112599999988, -29.0053429 ], [ 167.9512747, -29.0052371 ], [ 167.951375899999988, -29.0051926 ], [ 167.951403, -29.0052718 ], [ 167.9514527, -29.0053639 ], [ 167.9513202, -29.0055372 ], [ 167.9515418, -29.0056786 ], [ 167.95192320000001, -29.0058475 ], [ 167.9521566, -29.0055976 ], [ 167.9521571, -29.0055979 ], [ 167.9524511, -29.0053873 ], [ 167.9524515, -29.0053877 ], [ 167.9526222, -29.0052532 ], [ 167.952766700000012, -29.0050942 ], [ 167.9528176, -29.0051531 ], [ 167.9527491, -29.0052669 ], [ 167.9525913, -29.0055982 ], [ 167.952854699999989, -29.0058058 ], [ 167.953021299999989, -29.0056226 ], [ 167.95313920000001, -29.0055045 ], [ 167.9532189, -29.0055687 ], [ 167.9532007, -29.0056599 ], [ 167.9532032, -29.0058279 ], [ 167.9536687, -29.0059296 ], [ 167.9541908, -29.0060427 ], [ 167.9542518, -29.0060119 ], [ 167.954253200000011, -29.0060118 ], [ 167.954264, -29.0058549 ], [ 167.954265099999986, -29.0058529 ], [ 167.954273699999987, -29.0056986 ], [ 167.9542755, -29.0056977 ], [ 167.9543363, -29.0056279 ], [ 167.954338299999989, -29.0056289 ], [ 167.954454199999986, -29.0055744 ], [ 167.9545354, -29.0055379 ], [ 167.9546531, -29.0056458 ], [ 167.9547288, -29.0057375 ], [ 167.9547991, -29.0060464 ], [ 167.954866399999986, -29.0062672 ], [ 167.9549992, -29.0062186 ], [ 167.9550796, -29.006049 ], [ 167.95516760000001, -29.0060213 ], [ 167.955255, -29.006092 ], [ 167.955346, -29.0063174 ], [ 167.9558298, -29.0064905 ], [ 167.9559429, -29.0066965 ], [ 167.956008200000014, -29.0068154 ], [ 167.956261, -29.0070992 ], [ 167.9565418, -29.0074144 ], [ 167.9574249, -29.0085055 ], [ 167.9579474, -29.0082507 ], [ 167.958080200000012, -29.0082153 ], [ 167.958145699999989, -29.0083063 ], [ 167.9580982, -29.0084281 ], [ 167.9579238, -29.0085655 ], [ 167.9576682, -29.0089115 ], [ 167.957953300000014, -29.0093516 ], [ 167.9583613, -29.0096716 ], [ 167.9585617, -29.0096578 ], [ 167.958661, -29.0095916 ], [ 167.9585212, -29.0095354 ], [ 167.9586917, -29.009327 ], [ 167.9587838, -29.0093757 ], [ 167.9589195, -29.0093938 ], [ 167.9591455, -29.0093923 ], [ 167.9592573, -29.00942 ], [ 167.9592486, -29.0095601 ], [ 167.9591538, -29.0096484 ], [ 167.9590133, -29.0096723 ], [ 167.9587816, -29.0096301 ], [ 167.9587125, -29.0097546 ], [ 167.9587191, -29.0098655 ], [ 167.9587122, -29.0099565 ], [ 167.958840400000014, -29.0100222 ], [ 167.9590095, -29.0100688 ], [ 167.959146299999986, -29.010072 ], [ 167.959312399999988, -29.0100295 ], [ 167.959413899999987, -29.0100533 ], [ 167.959509, -29.0100541 ], [ 167.9597271, -29.0099556 ], [ 167.959803, -29.0097748 ], [ 167.959733300000011, -29.0095658 ], [ 167.9598497, -29.0093277 ], [ 167.96016, -29.0090096 ], [ 167.9604376, -29.0087309 ], [ 167.9606929, -29.0086291 ], [ 167.9609126, -29.0085911 ], [ 167.9610955, -29.0086756 ], [ 167.961135, -29.0088376 ], [ 167.9610835, -29.009022 ], [ 167.9608043, -29.0091449 ], [ 167.9604864, -29.0092967 ], [ 167.9604094, -29.0093718 ], [ 167.9604534, -29.0094949 ], [ 167.9602936, -29.009661 ], [ 167.960176600000011, -29.0097424 ], [ 167.960568200000012, -29.0098873 ], [ 167.961157, -29.0098357 ], [ 167.961514, -29.0098585 ], [ 167.9616977, -29.0102101 ], [ 167.961602199999987, -29.0104081 ], [ 167.961247899999989, -29.0105871 ], [ 167.9615598, -29.0109202 ], [ 167.9616746, -29.0109787 ], [ 167.961891400000013, -29.0110365 ], [ 167.962477, -29.0112787 ], [ 167.9630416, -29.011534 ], [ 167.9631479, -29.0115716 ], [ 167.963227, -29.0115544 ], [ 167.9632595, -29.0115819 ], [ 167.963379300000014, -29.0115731 ], [ 167.963457, -29.0115232 ], [ 167.96359480000001, -29.0115144 ], [ 167.9636226, -29.0115797 ], [ 167.9635773, -29.0116107 ], [ 167.9635757, -29.0116674 ], [ 167.9634796, -29.011725 ], [ 167.963427599999989, -29.0117863 ], [ 167.9631166, -29.0123394 ], [ 167.963123700000011, -29.0124768 ], [ 167.9631882, -29.0129094 ], [ 167.9632062, -29.0133866 ], [ 167.9635546, -29.0144881 ], [ 167.9640298, -29.0152123 ], [ 167.9643845, -29.0157449 ], [ 167.9645502, -29.0156726 ], [ 167.9647278, -29.0156951 ], [ 167.9647678, -29.0158497 ], [ 167.9646693, -29.0159998 ], [ 167.9645722, -29.0161492 ], [ 167.965231, -29.0167921 ], [ 167.9659919, -29.0179177 ], [ 167.9668041, -29.0185931 ], [ 167.9669499, -29.0186687 ], [ 167.9670485, -29.018829 ], [ 167.96716, -29.0190036 ], [ 167.9673048, -29.019122 ], [ 167.9674296, -29.0192057 ], [ 167.96756160000001, -29.0192159 ], [ 167.9676971, -29.0192976 ], [ 167.9678185, -29.0192813 ], [ 167.968005299999987, -29.0193711 ], [ 167.9681874, -29.0194242 ], [ 167.9683509, -29.0194773 ], [ 167.9685294, -29.0194803 ], [ 167.968648800000011, -29.019516 ], [ 167.9687997, -29.0195339 ], [ 167.9689907, -29.0196161 ], [ 167.9691494, -29.019706 ], [ 167.9692672, -29.0198333 ], [ 167.97029710000001, -29.0209439 ], [ 167.971806500000014, -29.0219526 ], [ 167.9720414, -29.0220203 ], [ 167.9733422, -29.0220012 ], [ 167.97340890000001, -29.0219948 ], [ 167.973477, -29.0219736 ], [ 167.973523300000011, -29.0219587 ], [ 167.9736742, -29.021922 ], [ 167.974682300000012, -29.0219845 ], [ 167.9753953, -29.0218013 ], [ 167.9761875, -29.0216527 ], [ 167.9776377, -29.0216635 ], [ 167.9781786, -29.0218157 ], [ 167.9794295, -29.0222282 ], [ 167.9810962, -29.0228207 ], [ 167.981981600000012, -29.0231871 ], [ 167.982285, -29.0232278 ], [ 167.98286490000001, -29.0232039 ], [ 167.9837173, -29.0231204 ], [ 167.984662500000013, -29.0231422 ], [ 167.9858572, -29.0234406 ], [ 167.9865969, -29.02382 ], [ 167.987350600000013, -29.0243454 ], [ 167.987982, -29.0248231 ], [ 167.9886045, -29.0251177 ], [ 167.9896688, -29.0254892 ], [ 167.99034420000001, -29.0257662 ], [ 167.990813300000013, -29.0261874 ], [ 167.9910877, -29.0265303 ], [ 167.991421699999989, -29.0268397 ], [ 167.9916346, -29.026831 ], [ 167.991807599999987, -29.0267644 ], [ 167.9921821, -29.0266283 ], [ 167.99259, -29.0266584 ], [ 167.9929166, -29.026843 ], [ 167.9932035, -29.0270385 ], [ 167.9933585, -29.0273333 ], [ 167.9935192, -29.0274635 ], [ 167.9938467, -29.027516 ], [ 167.9941605, -29.0274384 ], [ 167.9943155, -29.027376 ], [ 167.9941658, -29.0271659 ], [ 167.994116, -29.0268078 ], [ 167.9941916, -29.0267313 ], [ 167.994437299999987, -29.0267177 ], [ 167.9947374, -29.026629 ], [ 167.9948962, -29.0266842 ], [ 167.9948847, -29.0268565 ], [ 167.9949171, -29.0270069 ], [ 167.9946022, -29.0274963 ], [ 167.9945985, -29.0276682 ], [ 167.9950031, -29.0278475 ], [ 167.9955922, -29.0279577 ], [ 167.9962663, -29.0279962 ], [ 167.9962931, -29.0279709 ], [ 167.9963353, -29.0279566 ], [ 167.996366200000011, -29.0279205 ], [ 167.9964051, -29.0278879 ], [ 167.9964541, -29.0278892 ], [ 167.996559, -29.0279332 ], [ 167.99663480000001, -29.0280279 ], [ 167.9965956, -29.0280753 ], [ 167.9965899, -29.0281179 ], [ 167.9965532, -29.0281519 ], [ 167.9965622, -29.028243 ], [ 167.996558, -29.0282986 ], [ 167.9965857, -29.0283782 ], [ 167.9965568, -29.0286755 ], [ 167.9964532, -29.0289176 ], [ 167.996240300000011, -29.0290264 ], [ 167.995968299999987, -29.0290794 ], [ 167.9956751, -29.0293456 ], [ 167.995358900000014, -29.0295918 ], [ 167.9950054, -29.029737 ], [ 167.994840399999987, -29.0298977 ], [ 167.994689099999988, -29.0302114 ], [ 167.9944295, -29.0309415 ], [ 167.994352, -29.0313568 ], [ 167.9943989, -29.0317508 ], [ 167.9945204, -29.0319708 ], [ 167.994742, -29.0320231 ], [ 167.9948501, -29.0321226 ], [ 167.9948114, -29.0323231 ], [ 167.994757, -29.0326526 ], [ 167.994698, -29.0329652 ], [ 167.994757, -29.0331997 ], [ 167.994878, -29.0333219 ], [ 167.9949289, -29.0335988 ], [ 167.9949311, -29.0339464 ], [ 167.9951596, -29.0344044 ], [ 167.9952073, -29.0349299 ], [ 167.9952432, -29.0353537 ], [ 167.9956081, -29.0361015 ], [ 167.9958476, -29.0364467 ], [ 167.9958259, -29.0368771 ], [ 167.9957239, -29.0370682 ], [ 167.995543700000013, -29.0371937 ], [ 167.9956885, -29.0373829 ], [ 167.9958417, -29.0375255 ], [ 167.995778699999988, -29.0376387 ], [ 167.995556, -29.0375231 ], [ 167.9952999, -29.0373869 ], [ 167.9951926, -29.0374401 ], [ 167.995033, -29.0378859 ], [ 167.994984499999987, -29.0384046 ], [ 167.9950217, -29.0389227 ], [ 167.9951773, -29.0392721 ], [ 167.995321100000012, -29.0397988 ], [ 167.9950311, -29.04079 ], [ 167.994839899999988, -29.0415125 ], [ 167.9948221, -29.0415856 ], [ 167.994845, -29.0416811 ], [ 167.994875, -29.0417894 ], [ 167.994972100000012, -29.0418959 ], [ 167.9948176, -29.0419751 ], [ 167.9945411, -29.0420349 ], [ 167.9944595, -29.0422461 ], [ 167.9944266, -29.042511 ], [ 167.994626899999986, -29.0426885 ], [ 167.9946462, -29.042839 ], [ 167.99433, -29.0430627 ], [ 167.9944064, -29.0433922 ], [ 167.994346799999988, -29.0438391 ], [ 167.994482299999987, -29.0440287 ], [ 167.9948436, -29.0440829 ], [ 167.9954243, -29.0441763 ], [ 167.995366, -29.0446369 ], [ 167.9952495, -29.0447103 ], [ 167.9951003, -29.0445867 ], [ 167.994944, -29.0445581 ], [ 167.994873399999989, -29.0447839 ], [ 167.9948377, -29.0449408 ], [ 167.9944188, -29.0450149 ], [ 167.9939875, -29.0449853 ], [ 167.99393950000001, -29.0450768 ], [ 167.9939266, -29.04519 ], [ 167.9938756, -29.0453042 ], [ 167.9938118, -29.0453776 ], [ 167.993813100000011, -29.0454473 ], [ 167.9939336, -29.0455497 ], [ 167.9940186, -29.0456426 ], [ 167.9939915, -29.045712 ], [ 167.9939762, -29.0457877 ], [ 167.9941269, -29.0457568 ], [ 167.994303699999989, -29.0457563 ], [ 167.9944204, -29.0456302 ], [ 167.9945845, -29.0455765 ], [ 167.994747600000011, -29.045685 ], [ 167.9949507, -29.0459263 ], [ 167.994972100000012, -29.0461158 ], [ 167.994808, -29.046146 ], [ 167.9945, -29.0461357 ], [ 167.9944241, -29.0463456 ], [ 167.993939399999988, -29.046606 ], [ 167.9934538, -29.046807 ], [ 167.993011, -29.0470625 ], [ 167.992389300000013, -29.047496 ], [ 167.9914416, -29.0475008 ], [ 167.9912483, -29.0477075 ], [ 167.9908672, -29.047716 ], [ 167.990848, -29.0475244 ], [ 167.990507400000013, -29.0475202 ], [ 167.9903232, -29.0477539 ], [ 167.990183800000011, -29.0478736 ], [ 167.9900135, -29.0478821 ], [ 167.9896899, -29.0476735 ], [ 167.9895005, -29.0477309 ], [ 167.989311, -29.0475372 ], [ 167.989001800000011, -29.0474293 ], [ 167.9885765, -29.0472392 ], [ 167.9880401, -29.0470369 ], [ 167.9873327, -29.046826 ], [ 167.9869522, -29.0466729 ], [ 167.9862923, -29.046658 ], [ 167.9856553, -29.0468171 ], [ 167.9851363, -29.0469156 ], [ 167.9846832, -29.0470371 ], [ 167.9840426, -29.0473064 ], [ 167.9836228, -29.0476316 ], [ 167.9831871, -29.0480737 ], [ 167.982839899999988, -29.0485845 ], [ 167.982707, -29.0492536 ], [ 167.9827194, -29.0499304 ], [ 167.9828025, -29.0502635 ], [ 167.983182199999987, -29.0507271 ], [ 167.984146399999986, -29.0517524 ], [ 167.984989, -29.0522181 ], [ 167.9852495, -29.0524589 ], [ 167.9858064, -29.0528559 ], [ 167.9862731, -29.0529977 ], [ 167.986714, -29.0532771 ], [ 167.986761699999988, -29.0537758 ], [ 167.9867202, -29.0541601 ], [ 167.986853200000013, -29.0541968 ], [ 167.9869373, -29.0543155 ], [ 167.987171600000011, -29.0544203 ], [ 167.9869027, -29.054747 ], [ 167.9866819, -29.0548222 ], [ 167.98638170000001, -29.054918 ], [ 167.9862827, -29.0550837 ], [ 167.986228399999987, -29.0552458 ], [ 167.9862731, -29.0554097 ], [ 167.9863348, -29.0554928 ], [ 167.986457800000011, -29.0555263 ], [ 167.9865499, -29.0554821 ], [ 167.986643500000014, -29.0554885 ], [ 167.986761199999989, -29.0557397 ], [ 167.986552, -29.0558057 ], [ 167.986362500000013, -29.0557802 ], [ 167.9862603, -29.0559398 ], [ 167.9862837, -29.056145 ], [ 167.9862603, -29.0563848 ], [ 167.986107, -29.0565651 ], [ 167.985936, -29.0565217 ], [ 167.9856768, -29.0563482 ], [ 167.9854641, -29.0561825 ], [ 167.9851804, -29.0557166 ], [ 167.985047400000013, -29.0557359 ], [ 167.9849211, -29.0557933 ], [ 167.984757699999989, -29.0560642 ], [ 167.984604100000013, -29.0561634 ], [ 167.9844579, -29.055977 ], [ 167.9842539, -29.0558902 ], [ 167.9840332, -29.0559577 ], [ 167.983956, -29.0561071 ], [ 167.9834779, -29.0563528 ], [ 167.9834013, -29.0565721 ], [ 167.9833246, -29.0565913 ], [ 167.9832302, -29.056716 ], [ 167.9833064, -29.0569553 ], [ 167.983276600000011, -29.0572278 ], [ 167.983157299999988, -29.0573513 ], [ 167.983080699999988, -29.0572491 ], [ 167.982961499999988, -29.0569869 ], [ 167.982838, -29.0569766 ], [ 167.9825442, -29.0568957 ], [ 167.9822079, -29.0568744 ], [ 167.9818162, -29.0568063 ], [ 167.9812627, -29.0567041 ], [ 167.9809731, -29.0567552 ], [ 167.9806538, -29.0568999 ], [ 167.980436700000013, -29.0570106 ], [ 167.980147100000011, -29.0568616 ], [ 167.9799002, -29.0567807 ], [ 167.979782, -29.0568403 ], [ 167.979559599999988, -29.057215 ], [ 167.9793637, -29.0572576 ], [ 167.9791056, -29.0570239 ], [ 167.978788900000012, -29.0570277 ], [ 167.978593100000012, -29.0571852 ], [ 167.9784866, -29.0573683 ], [ 167.978465300000011, -29.0573385 ], [ 167.978354599999989, -29.0572363 ], [ 167.978129, -29.0572022 ], [ 167.977776299999988, -29.0573065 ], [ 167.9775329, -29.0574705 ], [ 167.9772221, -29.0574322 ], [ 167.9767622, -29.0573938 ], [ 167.975987300000014, -29.0572022 ], [ 167.9755786, -29.0569425 ], [ 167.9751252, -29.0567237 ], [ 167.9743144, -29.0566113 ], [ 167.9735349, -29.0564529 ], [ 167.9729601, -29.0564018 ], [ 167.9723257, -29.0563762 ], [ 167.9721295, -29.0563872 ], [ 167.971712599999989, -29.0565508 ], [ 167.9712187, -29.056802 ], [ 167.9708823, -29.0570873 ], [ 167.970140500000014, -29.0570831 ], [ 167.9699201, -29.0571682 ], [ 167.969761, -29.0571172 ], [ 167.969641599999989, -29.0570316 ], [ 167.969561, -29.0570475 ], [ 167.9695204, -29.057079 ], [ 167.969436300000012, -29.0571223 ], [ 167.9693868, -29.0571933 ], [ 167.9693962, -29.0574165 ], [ 167.969286899999986, -29.0574746 ], [ 167.969192, -29.0575613 ], [ 167.9690717, -29.0576272 ], [ 167.9690072, -29.0577107 ], [ 167.9688903, -29.0577499 ], [ 167.968718599999988, -29.0578781 ], [ 167.9686089, -29.0580064 ], [ 167.968475, -29.0582389 ], [ 167.9683622, -29.0585524 ], [ 167.967955499999988, -29.0592562 ], [ 167.9676958, -29.0597516 ], [ 167.9676102, -29.0599322 ], [ 167.9675631, -29.0601421 ], [ 167.9675207, -29.060298 ], [ 167.9674272, -29.060492 ], [ 167.9673941, -29.0613527 ], [ 167.9660126, -29.0618978 ], [ 167.96538240000001, -29.0623448 ], [ 167.9650474, -29.0626048 ], [ 167.96479690000001, -29.0625017 ], [ 167.9642312, -29.0625017 ], [ 167.9637203, -29.0626304 ], [ 167.9631956, -29.0626217 ], [ 167.962662099999989, -29.0626609 ], [ 167.9623679, -29.0626787 ], [ 167.962173400000012, -29.0626084 ], [ 167.9618108, -29.0624152 ], [ 167.961514200000011, -29.0623765 ], [ 167.961422700000014, -29.0622004 ], [ 167.9617352, -29.0618797 ], [ 167.962253800000013, -29.0616844 ], [ 167.962656, -29.0616796 ], [ 167.9629765, -29.0616757 ], [ 167.9631828, -29.0614452 ], [ 167.963225099999988, -29.0612427 ], [ 167.963206899999989, -29.0609489 ], [ 167.9630218, -29.0605663 ], [ 167.962729200000012, -29.0602008 ], [ 167.9620104, -29.059787 ], [ 167.9617615, -29.0597358 ], [ 167.9616475, -29.0598355 ], [ 167.9613723, -29.0598542 ], [ 167.96137250000001, -29.0601103 ], [ 167.9613357, -29.0602769 ], [ 167.961233099999987, -29.0603413 ], [ 167.960967, -29.0603433 ], [ 167.9607404, -29.060325 ], [ 167.960664900000012, -29.0601581 ], [ 167.960659, -29.0599285 ], [ 167.960604499999988, -29.0598713 ], [ 167.9603697, -29.0597517 ], [ 167.9602295, -29.0596356 ], [ 167.9600739, -29.0594905 ], [ 167.9600274, -29.0594176 ], [ 167.9599565, -29.0593467 ], [ 167.9597149, -29.0592233 ], [ 167.95962, -29.0591654 ], [ 167.959378, -29.0590712 ], [ 167.959023300000013, -29.0589352 ], [ 167.9566106, -29.0584276 ], [ 167.9562039, -29.0583643 ], [ 167.955513200000013, -29.0583178 ], [ 167.9546123, -29.0579737 ], [ 167.9544479, -29.0580031 ], [ 167.9542796, -29.0580607 ], [ 167.9540944, -29.0581426 ], [ 167.9538952, -29.0582593 ], [ 167.953703100000013, -29.0583983 ], [ 167.953464, -29.0584996 ], [ 167.9533289, -29.0585125 ], [ 167.953295, -29.0584196 ], [ 167.9534313, -29.0583695 ], [ 167.953544099999988, -29.0583281 ], [ 167.953586, -29.0583111 ], [ 167.9535783, -29.0582951 ], [ 167.9537961, -29.0581758 ], [ 167.953897899999987, -29.0581135 ], [ 167.9541716, -29.0578991 ], [ 167.9542023, -29.0578996 ], [ 167.9542425, -29.0578672 ], [ 167.9542178, -29.0578439 ], [ 167.9542047, -29.0578315 ], [ 167.954327400000011, -29.0577062 ], [ 167.9544492, -29.0576086 ], [ 167.9545124, -29.0575207 ], [ 167.9544201, -29.0574461 ], [ 167.954007100000013, -29.0571583 ], [ 167.9538986, -29.0571504 ], [ 167.9538809, -29.0572278 ], [ 167.9537263, -29.0573229 ], [ 167.9536344, -29.0572773 ], [ 167.953625499999987, -29.0571831 ], [ 167.9534514, -29.0570825 ], [ 167.9533127, -29.0571367 ], [ 167.9531016, -29.0570077 ], [ 167.9528522, -29.0569819 ], [ 167.9527205, -29.0570811 ], [ 167.9524116, -29.0572015 ], [ 167.9520461, -29.0572135 ], [ 167.9513514, -29.0572563 ], [ 167.9509214, -29.0571176 ], [ 167.9506264, -29.0569875 ], [ 167.9502191, -29.0568766 ], [ 167.950045, -29.0567992 ], [ 167.9500774, -29.056714 ], [ 167.94998, -29.0565386 ], [ 167.9498472, -29.0565076 ], [ 167.949779299999989, -29.0565592 ], [ 167.9495255, -29.0564586 ], [ 167.9493632, -29.0564328 ], [ 167.9491506, -29.0566005 ], [ 167.948991299999989, -29.056647 ], [ 167.948822400000012, -29.0566418 ], [ 167.9484385, -29.0564621 ], [ 167.9480632, -29.0563411 ], [ 167.9478645, -29.0562007 ], [ 167.9476938, -29.05616 ], [ 167.947604399999989, -29.0562124 ], [ 167.9475649, -29.0563051 ], [ 167.9475339, -29.0565186 ], [ 167.9474031, -29.056864 ], [ 167.947257, -29.0572429 ], [ 167.9469824, -29.0574929 ], [ 167.9468138, -29.0575813 ], [ 167.9465453, -29.0576126 ], [ 167.946062, -29.0576886 ], [ 167.945926, -29.0577801 ], [ 167.9459211, -29.0580016 ], [ 167.9459052, -29.0580395 ], [ 167.9458555, -29.0580733 ], [ 167.9457559, -29.0580727 ], [ 167.9455893, -29.0581268 ], [ 167.9453991, -29.0579285 ], [ 167.9450046, -29.0578786 ], [ 167.944821600000012, -29.0578648 ], [ 167.944722500000012, -29.0578876 ], [ 167.9446381, -29.0579384 ], [ 167.9444993, -29.0579616 ], [ 167.9443641, -29.0580454 ], [ 167.944357700000012, -29.0581344 ], [ 167.944255, -29.0581343 ], [ 167.9441704, -29.058228 ], [ 167.9439299, -29.0582275 ], [ 167.943792800000011, -29.0581251 ], [ 167.9436542, -29.057835 ], [ 167.943534199999988, -29.0574958 ], [ 167.9433779, -29.0573701 ], [ 167.942812, -29.0573737 ], [ 167.942421700000011, -29.0575354 ], [ 167.942246, -29.0577676 ], [ 167.942438, -29.0591668 ], [ 167.942815700000011, -29.0594971 ], [ 167.9431858, -29.0598188 ], [ 167.9429404, -29.0600769 ], [ 167.9426805, -29.0600523 ], [ 167.9422774, -29.0600108 ], [ 167.941833, -29.0597921 ], [ 167.9416077, -29.0598296 ], [ 167.9414065, -29.0599304 ], [ 167.94124020000001, -29.0601367 ], [ 167.9409564, -29.0609507 ], [ 167.9408665, -29.060961 ], [ 167.940625899999986, -29.0607901 ], [ 167.9403226, -29.0609982 ], [ 167.9377651, -29.0613505 ], [ 167.937581200000011, -29.0613068 ], [ 167.93748, -29.0613262 ], [ 167.937346100000013, -29.0614116 ], [ 167.9372845, -29.0614531 ], [ 167.937061300000011, -29.0615219 ], [ 167.9370045, -29.061516 ], [ 167.936965, -29.0614902 ], [ 167.9369341, -29.0615145 ], [ 167.9369303, -29.0615856 ], [ 167.9370741, -29.0616293 ], [ 167.9372167, -29.0618744 ], [ 167.9371839, -29.0620538 ], [ 167.9373114, -29.0621136 ], [ 167.9374283, -29.0623728 ], [ 167.937395, -29.0624124 ], [ 167.9372754, -29.0623689 ], [ 167.9371641, -29.0622993 ], [ 167.9370826, -29.0623756 ], [ 167.9369787, -29.0624182 ], [ 167.9367249, -29.0626411 ], [ 167.9365156, -29.0625029 ], [ 167.9364213, -29.0622972 ], [ 167.9359627, -29.062138 ], [ 167.935823699999986, -29.0621098 ], [ 167.9359361, -29.0617769 ], [ 167.935912699999989, -29.0615097 ], [ 167.935905, -29.0611303 ], [ 167.9356271, -29.0610897 ], [ 167.9355721, -29.0613798 ], [ 167.9351102, -29.0611516 ], [ 167.934941, -29.0609648 ], [ 167.9348794, -29.0607956 ], [ 167.934922300000011, -29.06054 ], [ 167.934971, -29.0604647 ], [ 167.935056800000012, -29.0603249 ], [ 167.9352173, -29.0603548 ], [ 167.9352039, -29.0605095 ], [ 167.9353999, -29.0604994 ], [ 167.9355875, -29.0601508 ], [ 167.9356331, -29.0599 ], [ 167.9355386, -29.0597705 ], [ 167.93537280000001, -29.0596748 ], [ 167.9351556, -29.0596866 ], [ 167.9351369, -29.059492 ], [ 167.934989300000012, -29.059417 ], [ 167.934992, -29.0592646 ], [ 167.9348594, -29.059015 ], [ 167.9351534, -29.0585961 ], [ 167.9350885, -29.0576646 ], [ 167.934868599999987, -29.0568156 ], [ 167.934813100000014, -29.0566333 ], [ 167.9346458, -29.0565442 ], [ 167.9345554, -29.0564145 ], [ 167.934395, -29.0563806 ], [ 167.9342079, -29.056337 ], [ 167.9341856, -29.0562072 ], [ 167.93421, -29.0561074 ], [ 167.934279800000013, -29.0560711 ], [ 167.934343500000011, -29.0560433 ], [ 167.9343585, -29.0559881 ], [ 167.9343247, -29.0558166 ], [ 167.9341722, -29.0554728 ], [ 167.9341411, -29.0553155 ], [ 167.9341322, -29.0552292 ], [ 167.934094499999986, -29.0551627 ], [ 167.9340202, -29.0551295 ], [ 167.9337569, -29.0551788 ], [ 167.93343680000001, -29.0551802 ], [ 167.9333366, -29.0552157 ], [ 167.9332621, -29.0552238 ], [ 167.9331699, -29.0551893 ], [ 167.9330573, -29.0551155 ], [ 167.9330153, -29.0549665 ], [ 167.933050900000012, -29.054862 ], [ 167.9331958, -29.054734 ], [ 167.9333747, -29.0546398 ], [ 167.9334211, -29.0545224 ], [ 167.933326, -29.0543577 ], [ 167.9331201, -29.0541388 ], [ 167.932975199999987, -29.0540009 ], [ 167.932932599999987, -29.0539904 ], [ 167.932506499999988, -29.0540748 ], [ 167.93229310000001, -29.0540759 ], [ 167.932159899999988, -29.054123 ], [ 167.9319447, -29.0541446 ], [ 167.9317605, -29.0541061 ], [ 167.9316488, -29.054132 ], [ 167.9315327, -29.0542355 ], [ 167.931496, -29.0543713 ], [ 167.9314329, -29.0543838 ], [ 167.931360899999987, -29.0543555 ], [ 167.931315899999987, -29.0542994 ], [ 167.9312621, -29.0541773 ], [ 167.931226400000014, -29.0541037 ], [ 167.930679199999986, -29.0538988 ], [ 167.9303759, -29.0537195 ], [ 167.930055399999986, -29.0532647 ], [ 167.9297966, -29.053104 ], [ 167.9297973, -29.0530006 ], [ 167.929929499999986, -29.0528934 ], [ 167.929493400000013, -29.0526693 ], [ 167.9289704, -29.0524088 ], [ 167.9285418, -29.0524752 ], [ 167.927216499999986, -29.0523219 ], [ 167.9268525, -29.0521905 ], [ 167.926557, -29.0521771 ], [ 167.9260583, -29.0518758 ], [ 167.925697, -29.0515797 ], [ 167.9253776, -29.0513731 ], [ 167.9247996, -29.0513725 ], [ 167.9246788, -29.0514083 ], [ 167.9239906, -29.0513862 ], [ 167.9237929, -29.051798 ], [ 167.92366770000001, -29.0518062 ], [ 167.9236194, -29.0516247 ], [ 167.92273560000001, -29.0518775 ], [ 167.9220202, -29.0519036 ], [ 167.9217823, -29.0519596 ], [ 167.921836, -29.0522478 ], [ 167.9217188, -29.052414 ], [ 167.9214825, -29.0524283 ], [ 167.9212958, -29.0519845 ], [ 167.9211464, -29.0518018 ], [ 167.9209635, -29.051768 ], [ 167.9207819, -29.0518116 ], [ 167.920723900000013, -29.0518832 ], [ 167.920721, -29.0520131 ], [ 167.9206086, -29.0520644 ], [ 167.9204128, -29.0519816 ], [ 167.9203712, -29.0517319 ], [ 167.919978, -29.0516391 ], [ 167.9201405, -29.0511331 ], [ 167.9202505, -29.050866 ], [ 167.9202511, -29.0507342 ], [ 167.9201639, -29.0505724 ], [ 167.9200941, -29.050477 ], [ 167.920163300000013, -29.0503363 ], [ 167.9204369, -29.0503 ], [ 167.9206656, -29.0502209 ], [ 167.92139130000001, -29.0498735 ], [ 167.9222115, -29.0494118 ], [ 167.9222643, -29.0492303 ], [ 167.9219915, -29.0491813 ], [ 167.9219325, -29.048937 ], [ 167.921749299999988, -29.0488087 ], [ 167.921491800000013, -29.0486223 ], [ 167.9217654, -29.048611 ], [ 167.9220503, -29.0483869 ], [ 167.922469, -29.0482366 ], [ 167.9226801, -29.0480963 ], [ 167.9228584, -29.0479104 ], [ 167.9229866, -29.0476818 ], [ 167.922937, -29.0474421 ], [ 167.9230569, -29.0471748 ], [ 167.923180300000013, -29.0470135 ], [ 167.923264, -29.0468388 ], [ 167.923163100000011, -29.0466468 ], [ 167.9228968, -29.0462882 ], [ 167.9227678, -29.0460052 ], [ 167.9229282, -29.0457454 ], [ 167.9227431, -29.045604 ], [ 167.9227487, -29.045283 ], [ 167.9225583, -29.0450304 ], [ 167.9220894, -29.0451367 ], [ 167.921906299999989, -29.0451383 ], [ 167.9215025, -29.0450588 ], [ 167.921328499999987, -29.0448566 ], [ 167.9214025, -29.0447101 ], [ 167.9211928, -29.044613 ], [ 167.9207752, -29.0445452 ], [ 167.920736, -29.044352 ], [ 167.9211555, -29.0443164 ], [ 167.921463100000011, -29.0437768 ], [ 167.9216935, -29.0435008 ], [ 167.9217013, -29.0433986 ], [ 167.921631100000013, -29.0432966 ], [ 167.9214795, -29.0433195 ], [ 167.921454, -29.0435594 ], [ 167.921068600000012, -29.043989 ], [ 167.920888100000013, -29.0440108 ], [ 167.9206606, -29.0438741 ], [ 167.920676500000013, -29.0436685 ], [ 167.9210147, -29.0434384 ], [ 167.9208916, -29.0433282 ], [ 167.9203891, -29.0431043 ], [ 167.9202664, -29.0429058 ], [ 167.920238500000011, -29.0427196 ], [ 167.9203276, -29.0425392 ], [ 167.920478300000013, -29.0425081 ], [ 167.9208176, -29.0425039 ], [ 167.9207877, -29.0423301 ], [ 167.9204541, -29.0423416 ], [ 167.9203903, -29.0423052 ], [ 167.9203616, -29.042166 ], [ 167.9204535, -29.0419839 ], [ 167.920583099999988, -29.0417774 ], [ 167.920635, -29.0417333 ], [ 167.9205934, -29.0415649 ], [ 167.9203956, -29.0415707 ], [ 167.9197696, -29.0414302 ], [ 167.9194364, -29.0413923 ], [ 167.9193213, -29.0412551 ], [ 167.9193893, -29.0410852 ], [ 167.9195023, -29.0410279 ], [ 167.919812400000012, -29.0410403 ], [ 167.9203311, -29.0410606 ], [ 167.920526099999989, -29.0410341 ], [ 167.9206494, -29.0408324 ], [ 167.9206821, -29.0406133 ], [ 167.92052480000001, -29.0402507 ], [ 167.9203319, -29.0400788 ], [ 167.920116400000012, -29.0399787 ], [ 167.919882800000011, -29.040002 ], [ 167.9195162, -29.0400385 ], [ 167.9191485, -29.0399473 ], [ 167.9190644, -29.039747 ], [ 167.9192155, -29.0396187 ], [ 167.919476, -29.0394791 ], [ 167.9196441, -29.0392835 ], [ 167.920114399999989, -29.0390647 ], [ 167.920481700000011, -29.0386545 ], [ 167.9202851, -29.0372338 ], [ 167.9195776, -29.036307 ], [ 167.9195708, -29.0359691 ], [ 167.9193535, -29.0353287 ], [ 167.9185621, -29.0344987 ], [ 167.9185829, -29.0338523 ], [ 167.91885, -29.0334433 ], [ 167.9194233, -29.0329705 ], [ 167.9198175, -29.0323595 ], [ 167.9203678, -29.0320126 ], [ 167.920464399999986, -29.0313937 ], [ 167.920772699999986, -29.0309317 ], [ 167.9214355, -29.0302771 ], [ 167.9215079, -29.0299268 ], [ 167.9211357, -29.0291114 ], [ 167.9210793, -29.0289974 ], [ 167.9210989, -29.0287675 ], [ 167.921311300000013, -29.0282917 ], [ 167.921004399999987, -29.0273667 ], [ 167.9208572, -29.0270824 ], [ 167.920731600000011, -29.0269175 ], [ 167.9206268, -29.02693 ], [ 167.9206, -29.0267778 ], [ 167.9200672, -29.0260452 ], [ 167.920317, -29.0257365 ], [ 167.920254, -29.0254679 ], [ 167.9200978, -29.0250178 ], [ 167.919949300000013, -29.02453 ], [ 167.9200802, -29.0241963 ], [ 167.91965, -29.0241822 ], [ 167.919164200000012, -29.0240572 ], [ 167.9189059, -29.023923 ], [ 167.919024799999988, -29.0236528 ], [ 167.9193764, -29.0234861 ], [ 167.9196154, -29.0234131 ], [ 167.9198423, -29.0234312 ], [ 167.9199112, -29.0233123 ], [ 167.9202473, -29.023267 ], [ 167.9203028, -29.0233411 ], [ 167.9208521, -29.0230396 ], [ 167.9209104, -29.0229408 ], [ 167.9209868, -29.0227215 ], [ 167.921186299999988, -29.0222097 ], [ 167.9213915, -29.0219813 ], [ 167.9216184, -29.0213021 ], [ 167.9213781, -29.0212047 ], [ 167.92124, -29.0212657 ], [ 167.921108800000013, -29.0212331 ], [ 167.92099540000001, -29.0212035 ], [ 167.921008199999989, -29.0210912 ], [ 167.921330899999987, -29.0210054 ], [ 167.9212751, -29.0209362 ], [ 167.921293600000013, -29.0208362 ], [ 167.9211668, -29.0207668 ], [ 167.9211697, -29.020661 ], [ 167.921248600000013, -29.0204157 ], [ 167.921635900000012, -29.0203402 ], [ 167.9215887, -29.0201643 ], [ 167.9211472, -29.020145 ], [ 167.9203771, -29.0202311 ], [ 167.9204377, -29.0199912 ], [ 167.9202505, -29.0200266 ], [ 167.920176, -29.020077 ], [ 167.919871300000011, -29.0201021 ], [ 167.9198734, -29.0200318 ], [ 167.9200587, -29.0198693 ], [ 167.920344699999987, -29.0196874 ], [ 167.921064800000011, -29.0195796 ], [ 167.9210419, -29.0194933 ], [ 167.920554399999986, -29.019553 ], [ 167.9205112, -29.0194649 ], [ 167.920977, -29.0192488 ], [ 167.9210962, -29.0192545 ], [ 167.921155700000014, -29.0189706 ], [ 167.9209916, -29.0188621 ], [ 167.9212274, -29.0186282 ], [ 167.9213512, -29.017927 ], [ 167.9214925, -29.0177363 ], [ 167.9217593, -29.0172952 ], [ 167.9218641, -29.0170781 ], [ 167.9217648, -29.0168611 ], [ 167.921582300000011, -29.0166024 ], [ 167.9213512, -29.0163306 ], [ 167.9212386, -29.0161678 ], [ 167.9209979, -29.0161644 ], [ 167.920956100000012, -29.0159818 ], [ 167.9217284, -29.0150693 ], [ 167.9226114, -29.0131785 ], [ 167.922876300000013, -29.0118022 ], [ 167.922994, -29.011204 ], [ 167.9229702, -29.0107808 ], [ 167.922772900000012, -29.0101285 ], [ 167.9223762, -29.0094401 ], [ 167.9222801, -29.0091618 ], [ 167.9221226, -29.0090933 ], [ 167.921937899999989, -29.0092151 ], [ 167.921807800000011, -29.0091691 ], [ 167.9219019, -29.0089972 ], [ 167.9213877, -29.0089754 ], [ 167.92069810000001, -29.0090256 ], [ 167.920379700000012, -29.0091292 ], [ 167.92013510000001, -29.00927 ], [ 167.919533800000011, -29.0094417 ], [ 167.9189903, -29.0095198 ], [ 167.9184512, -29.0095418 ], [ 167.918187, -29.0094731 ], [ 167.918124299999988, -29.0093389 ], [ 167.9182415, -29.0089263 ], [ 167.9182232, -29.0087605 ], [ 167.9181017, -29.008627 ], [ 167.9178324, -29.0085822 ], [ 167.9176329, -29.0086559 ], [ 167.9172834, -29.0086378 ], [ 167.9169991, -29.0085756 ], [ 167.91687970000001, -29.0085794 ], [ 167.9167579, -29.008662 ], [ 167.9166064, -29.008681 ], [ 167.9164549, -29.0086418 ], [ 167.916299, -29.008468 ], [ 167.9161123, -29.0081304 ], [ 167.91592510000001, -29.0079456 ], [ 167.915799600000014, -29.0078825 ], [ 167.915562, -29.0079185 ], [ 167.915383, -29.0081279 ], [ 167.9152348, -29.008419 ], [ 167.915010700000011, -29.0084088 ], [ 167.9148889, -29.0083312 ], [ 167.9147984, -29.0081165 ], [ 167.9147193, -29.0079659 ], [ 167.914834500000012, -29.007929 ], [ 167.9150795, -29.0078505 ], [ 167.915733, -29.007539 ], [ 167.915870899999987, -29.0076613 ], [ 167.916033700000014, -29.007579 ], [ 167.916361200000011, -29.0074524 ], [ 167.916932800000012, -29.007366 ], [ 167.9171925, -29.0073584 ], [ 167.917682, -29.0074851 ], [ 167.918063499999988, -29.0074853 ], [ 167.918247, -29.0073962 ], [ 167.9184047, -29.0072137 ], [ 167.9185584, -29.0070073 ], [ 167.918667, -29.006779 ], [ 167.918719900000013, -29.0066606 ], [ 167.9188561, -29.0065187 ], [ 167.918991799999986, -29.0062564 ], [ 167.9190404, -29.0059848 ], [ 167.9190849, -29.0056753 ], [ 167.9190372, -29.0054544 ], [ 167.9191171, -29.0052008 ], [ 167.919202899999988, -29.0048951 ], [ 167.919294, -29.0046472 ], [ 167.919244099999986, -29.00425 ], [ 167.919051200000013, -29.003729 ], [ 167.918911799999989, -29.0034445 ], [ 167.9189319, -29.0032749 ], [ 167.9190944, -29.0030473 ], [ 167.919141200000013, -29.0026286 ], [ 167.9191954, -29.0023011 ], [ 167.9192582, -29.0019427 ], [ 167.9194003, -29.0016003 ], [ 167.919369, -29.0015017 ], [ 167.9190806, -29.0013295 ], [ 167.9188121, -29.0011648 ], [ 167.9188202, -29.0010231 ], [ 167.9190452, -29.000903 ], [ 167.9193478, -29.0008664 ], [ 167.9196382, -29.0006972 ], [ 167.9198515, -29.0004486 ], [ 167.9200803, -29.0000531 ], [ 167.9202187, -28.9997516 ], [ 167.9202058, -28.9995095 ], [ 167.9202192, -28.9992634 ], [ 167.9203796, -28.9990847 ], [ 167.920589400000011, -28.9988311 ], [ 167.9207511, -28.9986026 ], [ 167.9208189, -28.9983424 ], [ 167.920905, -28.9980114 ], [ 167.9211733, -28.9977292 ], [ 167.921438, -28.9974474 ], [ 167.9215174, -28.9972642 ], [ 167.9212159, -28.9970498 ], [ 167.9211108, -28.9969733 ], [ 167.9211655, -28.9967624 ], [ 167.9210711, -28.9965276 ], [ 167.9209367, -28.9963849 ], [ 167.920611400000013, -28.9962636 ], [ 167.9203413, -28.9961731 ], [ 167.9200256, -28.9959164 ], [ 167.919817200000011, -28.9956365 ], [ 167.9199525, -28.9954548 ], [ 167.9201884, -28.9953994 ], [ 167.9205025, -28.9955124 ], [ 167.920956499999988, -28.995565 ], [ 167.9212368, -28.995525 ], [ 167.921315600000014, -28.9956842 ], [ 167.921399900000011, -28.9957252 ], [ 167.921422799999988, -28.9956097 ], [ 167.9215844, -28.995611 ], [ 167.9216738, -28.9957291 ], [ 167.9216854, -28.995887 ], [ 167.9216903, -28.9960086 ], [ 167.921795, -28.9961857 ], [ 167.9219919, -28.9962092 ], [ 167.9223068, -28.996133 ], [ 167.9226372, -28.9959537 ], [ 167.9230157, -28.9958043 ], [ 167.923330600000014, -28.9956652 ], [ 167.9236004, -28.9956107 ], [ 167.9237536, -28.9955113 ], [ 167.9238863, -28.9954151 ], [ 167.9241039, -28.9954209 ], [ 167.9243042, -28.9956114 ], [ 167.92455720000001, -28.9956384 ], [ 167.924756699999989, -28.9956323 ], [ 167.925063599999987, -28.9955099 ], [ 167.9252155, -28.9953496 ], [ 167.9253798, -28.9953081 ], [ 167.9255187, -28.9953208 ], [ 167.92564, -28.9954524 ], [ 167.925796, -28.9955886 ], [ 167.926045, -28.9958613 ], [ 167.926228400000014, -28.9961942 ], [ 167.9265955, -28.9969288 ], [ 167.926619499999987, -28.997006 ], [ 167.9267102, -28.9970454 ], [ 167.9268089, -28.9970148 ], [ 167.926982400000014, -28.9970712 ], [ 167.927108299999986, -28.9971462 ], [ 167.927206500000011, -28.9972983 ], [ 167.9272387, -28.9974715 ], [ 167.9272264, -28.9976257 ], [ 167.9271627, -28.997879 ], [ 167.9270032, -28.9980418 ], [ 167.9268213, -28.9982265 ], [ 167.9267944, -28.9984692 ], [ 167.9268023, -28.998693 ], [ 167.9267896, -28.9989477 ], [ 167.926661599999989, -28.9993455 ], [ 167.9267525, -28.9996609 ], [ 167.9267906, -28.9998976 ], [ 167.927088, -28.9999511 ], [ 167.927607, -29.0001313 ], [ 167.928001099999989, -29.0002483 ], [ 167.9284154, -29.0002935 ], [ 167.92872460000001, -29.0003242 ], [ 167.9290387, -29.0003315 ], [ 167.929376100000013, -29.0003568 ], [ 167.9297221, -29.0003945 ], [ 167.9300967, -29.0004785 ], [ 167.93031160000001, -29.0006213 ], [ 167.9304905, -29.000829 ], [ 167.9306712, -29.0011223 ], [ 167.9310269, -29.001432 ], [ 167.931561499999987, -29.0016519 ], [ 167.932204399999989, -29.0018413 ], [ 167.9329055, -29.001968 ], [ 167.9333948, -29.0019333 ], [ 167.9340819, -29.0018885 ], [ 167.934756, -29.001789 ], [ 167.9355483, -29.0015244 ], [ 167.936008, -29.0014432 ], [ 167.9364927, -29.0016218 ], [ 167.9371164, -29.0019182 ], [ 167.937301100000013, -29.002006 ] ] ] ] } },
{ "type": "Feature", "properties": { "FID": 544366, "id": 2508, "left": 165.0, "top": -25.0, "right": 170.0, "bottom": -30.0, "row_index": 23, "col_index": 69, "min_lon": 165.0, "min_lat": -30.0, "tile_id": "165_-30" }, "geometry": { "type": "MultiPolygon", "coordinates": [ [ [ [ 167.967412200000012, -29.0181337 ], [ 167.9674729, -29.0180807 ], [ 167.9675243, -29.0180276 ], [ 167.9676364, -29.0180276 ], [ 167.967627, -29.018097 ], [ 167.9675803, -29.0181582 ], [ 167.9675803, -29.0182236 ], [ 167.96750560000001, -29.0182522 ], [ 167.967412200000012, -29.0182358 ], [ 167.967412200000012, -29.0181337 ] ] ] ] } }
]
}
