{
"type": "FeatureCollection",
"name": "165_-90",
"crs": { "type": "name", "properties": { "name": "urn:ogc:def:crs:OGC:1.3:CRS84" } },
"xy_coordinate_resolution": 1e-15,
"features": [
{ "type": "Feature", "properties": { "FID": 307096, "id": 2520, "left": 165.0, "top": -85.0, "right": 170.0, "bottom": -90.0, "row_index": 35, "col_index": 69, "min_lon": 165.0, "min_lat": -90.0, "tile_id": "165_-90" }, "geometry": { "type": "MultiPolygon", "coordinates": [ [ [ [ 169.0, -90.0 ], [ 168.0, -90.0 ], [ 167.0, -90.0 ], [ 166.0, -90.0 ], [ 165.0, -90.0 ], [ 165.0, -85.0 ], [ 170.0, -85.0 ], [ 170.0, -90.0 ], [ 169.0, -90.0 ] ] ] ] } }
]
}
