{
"type": "FeatureCollection",
"name": "165_-5",
"crs": { "type": "name", "properties": { "name": "urn:ogc:def:crs:OGC:1.3:CRS84" } },
"xy_coordinate_resolution": 1e-15,
"features": [
{ "type": "Feature", "properties": { "FID": 117890, "id": 2503, "left": 165.0, "top": 0.0, "right": 170.0, "bottom": -5.0, "row_index": 18, "col_index": 69, "min_lon": 165.0, "min_lat": -5.0, "tile_id": "165_-5" }, "geometry": { "type": "MultiPolygon", "coordinates": [ [ [ [ 166.9507738, -0.5426666 ], [ 166.9508089, -0.5428688 ], [ 166.95083, -0.5430673 ], [ 166.9507745, -0.5433287 ], [ 166.9507719, -0.5434324 ], [ 166.950730600000014, -0.5435065 ], [ 166.9506525, -0.5436124 ], [ 166.9505576, -0.5438006 ], [ 166.9504317, -0.5441518 ], [ 166.950305899999989, -0.5444496 ], [ 166.9500672, -0.5448602 ], [ 166.9499336, -0.5450417 ], [ 166.9496364, -0.5454449 ], [ 166.9490342, -0.5460535 ], [ 166.9464369, -0.5477104 ], [ 166.945794, -0.5481742 ], [ 166.9455384, -0.5481662 ], [ 166.9453331, -0.5480035 ], [ 166.945164, -0.5480446 ], [ 166.942935299999988, -0.5492832 ], [ 166.9422568, -0.5497154 ], [ 166.9411787, -0.5504121 ], [ 166.93947270000001, -0.551624 ], [ 166.939066700000012, -0.5518563 ], [ 166.9384025, -0.5521945 ], [ 166.9377062, -0.5525606 ], [ 166.9372463, -0.5527675 ], [ 166.9365675, -0.553031 ], [ 166.935903700000011, -0.5532551 ], [ 166.9352907, -0.5534334 ], [ 166.934611499999988, -0.553593 ], [ 166.9341039, -0.5536811 ], [ 166.9337994, -0.5537175 ], [ 166.9334705, -0.5537692 ], [ 166.9332382, -0.5538157 ], [ 166.933095, -0.5538458 ], [ 166.9330352, -0.5538668 ], [ 166.9329501, -0.5539096 ], [ 166.9328813, -0.5539326 ], [ 166.9327858, -0.553929 ], [ 166.9327591, -0.553929 ], [ 166.9327375, -0.5539291 ], [ 166.9327075, -0.5539291 ], [ 166.9326035, -0.5539093 ], [ 166.932501699999989, -0.5538751 ], [ 166.9323815, -0.5538068 ], [ 166.9323027, -0.5537672 ], [ 166.932212099999987, -0.5537482 ], [ 166.9319921, -0.5538047 ], [ 166.931837, -0.5538073 ], [ 166.9316948, -0.5538214 ], [ 166.9315737, -0.5538493 ], [ 166.9314642, -0.5538047 ], [ 166.9314092, -0.5537932 ], [ 166.93134, -0.5537881 ], [ 166.9311068, -0.5537355 ], [ 166.930850600000014, -0.5536856 ], [ 166.930719900000014, -0.553692 ], [ 166.9304701, -0.5536561 ], [ 166.9303548, -0.553692 ], [ 166.9301811, -0.5536757 ], [ 166.9283422, -0.5534155 ], [ 166.928210799999988, -0.5533961 ], [ 166.9278237, -0.553339 ], [ 166.927251899999987, -0.5533308 ], [ 166.926971, -0.5536367 ], [ 166.9266279, -0.5540134 ], [ 166.92654060000001, -0.5540769 ], [ 166.9265049, -0.5540839 ], [ 166.926447599999989, -0.5540694 ], [ 166.9263803, -0.554103 ], [ 166.9263003, -0.5541323 ], [ 166.9262095, -0.5541334 ], [ 166.9260839, -0.5540919 ], [ 166.9253409, -0.5537956 ], [ 166.9253002, -0.5538205 ], [ 166.9252414, -0.5538341 ], [ 166.9251721, -0.5538255 ], [ 166.9250897, -0.5537744 ], [ 166.923686300000014, -0.5525725 ], [ 166.9222887, -0.551376 ], [ 166.9220043, -0.5511079 ], [ 166.9217983, -0.550906 ], [ 166.9216001, -0.5508027 ], [ 166.9212221, -0.550652 ], [ 166.920910099999986, -0.5504997 ], [ 166.9208271, -0.5504591 ], [ 166.920628599999986, -0.5503532 ], [ 166.9205854, -0.5503035 ], [ 166.920555400000012, -0.5502624 ], [ 166.9203963, -0.5501863 ], [ 166.92033, -0.5501807 ], [ 166.920276300000012, -0.5501743 ], [ 166.920018700000014, -0.5500295 ], [ 166.9199223, -0.5499751 ], [ 166.9198259, -0.549916 ], [ 166.9194803, -0.5496873 ], [ 166.918508800000012, -0.5491329 ], [ 166.9175988, -0.5485833 ], [ 166.9169838, -0.5482095 ], [ 166.916381300000012, -0.5478228 ], [ 166.9161482, -0.5476493 ], [ 166.9160731, -0.5475634 ], [ 166.9160051, -0.5474453 ], [ 166.9159693, -0.547406 ], [ 166.9158942, -0.5473452 ], [ 166.9157904, -0.5473022 ], [ 166.915579, -0.5471586 ], [ 166.915414700000014, -0.547041 ], [ 166.9150816, -0.5467651 ], [ 166.9148518, -0.5465392 ], [ 166.914795700000013, -0.546484 ], [ 166.9145162, -0.546158 ], [ 166.914362899999986, -0.5459684 ], [ 166.914044100000012, -0.5456082 ], [ 166.9137864, -0.5453493 ], [ 166.913219, -0.5447415 ], [ 166.91295070000001, -0.5444445 ], [ 166.9126286, -0.5440295 ], [ 166.912101799999988, -0.5432063 ], [ 166.9118655, -0.5428464 ], [ 166.9116869, -0.5425316 ], [ 166.9114825, -0.542069 ], [ 166.9113712, -0.541812 ], [ 166.9113027, -0.5416813 ], [ 166.9112067, -0.5414269 ], [ 166.91112480000001, -0.5411274 ], [ 166.9110891, -0.5408506 ], [ 166.9110356, -0.5407119 ], [ 166.9110101, -0.5406139 ], [ 166.9109971, -0.5405903 ], [ 166.9109805, -0.5405424 ], [ 166.9109599, -0.5404119 ], [ 166.91091990000001, -0.5402882 ], [ 166.9108095, -0.5401542 ], [ 166.9106343, -0.5398324 ], [ 166.9104616, -0.5394874 ], [ 166.9103436, -0.5391655 ], [ 166.9102307, -0.538777 ], [ 166.9101369, -0.5383666 ], [ 166.910044, -0.5379902 ], [ 166.9099591, -0.5377477 ], [ 166.9099076, -0.5377351 ], [ 166.9097152, -0.5378358 ], [ 166.909611399999989, -0.5378752 ], [ 166.9095367, -0.5379377 ], [ 166.909454, -0.5379467 ], [ 166.9093618, -0.5379077 ], [ 166.9092161, -0.537846 ], [ 166.9091924, -0.5377384 ], [ 166.9091895, -0.5376842 ], [ 166.9092099, -0.5376166 ], [ 166.9093612, -0.5375087 ], [ 166.9094862, -0.5374923 ], [ 166.909547, -0.5375281 ], [ 166.9096983, -0.5375321 ], [ 166.9097861, -0.5375162 ], [ 166.9098567, -0.537448 ], [ 166.909891499999986, -0.5373572 ], [ 166.909913499999988, -0.5372475 ], [ 166.9099253, -0.5371662 ], [ 166.9099219, -0.5370301 ], [ 166.9098947, -0.5366702 ], [ 166.9098467, -0.5365683 ], [ 166.9098292, -0.5364515 ], [ 166.9098252, -0.5361262 ], [ 166.909768500000013, -0.5345545 ], [ 166.9097677, -0.5342986 ], [ 166.9097554, -0.5333653 ], [ 166.909716300000014, -0.5331099 ], [ 166.909672300000011, -0.5325741 ], [ 166.9096709, -0.532381 ], [ 166.9096836, -0.5321948 ], [ 166.9096874, -0.5321071 ], [ 166.9096826, -0.5319045 ], [ 166.909635, -0.5317769 ], [ 166.9096279, -0.5316941 ], [ 166.9096417, -0.5316165 ], [ 166.9096083, -0.5315416 ], [ 166.909591, -0.5314689 ], [ 166.9096743, -0.5313465 ], [ 166.909754600000014, -0.5312027 ], [ 166.9098042, -0.5310294 ], [ 166.9099238, -0.5303706 ], [ 166.9099962, -0.5301064 ], [ 166.910002600000013, -0.530011 ], [ 166.909937500000012, -0.5298851 ], [ 166.9096781, -0.5296639 ], [ 166.9091736, -0.5293934 ], [ 166.9089861, -0.5293737 ], [ 166.9089793, -0.5292814 ], [ 166.9090047, -0.5291796 ], [ 166.909166, -0.5290828 ], [ 166.909279700000013, -0.5290944 ], [ 166.909421, -0.5291703 ], [ 166.9094218, -0.5291245 ], [ 166.909476899999987, -0.5290587 ], [ 166.909565500000014, -0.5290106 ], [ 166.909604300000012, -0.5288896 ], [ 166.9096142, -0.5288201 ], [ 166.9099431, -0.5289267 ], [ 166.9100077, -0.5289593 ], [ 166.9099991, -0.5290013 ], [ 166.9099357, -0.5290016 ], [ 166.909650699999986, -0.5289163 ], [ 166.909607599999987, -0.5290314 ], [ 166.9096078, -0.5291127 ], [ 166.9096346, -0.5292009 ], [ 166.9096992, -0.5292699 ], [ 166.9101068, -0.5293447 ], [ 166.9103019, -0.528663 ], [ 166.9102811, -0.5286252 ], [ 166.9097859, -0.5284779 ], [ 166.9097495, -0.5285268 ], [ 166.9097112, -0.528597 ], [ 166.909660300000013, -0.5286553 ], [ 166.9095137, -0.5286327 ], [ 166.909208299999989, -0.5285276 ], [ 166.9092178, -0.5284474 ], [ 166.909023100000013, -0.5285398 ], [ 166.9089893, -0.5284745 ], [ 166.9091838, -0.5283717 ], [ 166.910355900000013, -0.5277873 ], [ 166.9104235, -0.527749 ], [ 166.9104701, -0.5276851 ], [ 166.9105721, -0.5276576 ], [ 166.9106773, -0.527357 ], [ 166.9106156, -0.5271694 ], [ 166.9092683, -0.5275407 ], [ 166.9092115, -0.5274917 ], [ 166.9093838, -0.5272025 ], [ 166.9096251, -0.5270898 ], [ 166.909630099999987, -0.5269134 ], [ 166.909728800000011, -0.5268109 ], [ 166.9098606, -0.5267242 ], [ 166.9100335, -0.5264912 ], [ 166.910181, -0.5261922 ], [ 166.9104089, -0.5260023 ], [ 166.9105218, -0.5258469 ], [ 166.910657, -0.5257647 ], [ 166.9106155, -0.5255599 ], [ 166.910687200000012, -0.5254265 ], [ 166.910811099999989, -0.5253606 ], [ 166.9109574, -0.5254061 ], [ 166.911195, -0.5254968 ], [ 166.911258299999986, -0.5253632 ], [ 166.911373700000013, -0.5251117 ], [ 166.9114703, -0.5248819 ], [ 166.911556, -0.5246481 ], [ 166.9117324, -0.5243554 ], [ 166.912008, -0.5239522 ], [ 166.9122966, -0.5235916 ], [ 166.9126863, -0.5230308 ], [ 166.912738, -0.5229342 ], [ 166.912994200000014, -0.5226248 ], [ 166.913534, -0.5221227 ], [ 166.9139379, -0.5217436 ], [ 166.914351, -0.5213478 ], [ 166.9148471, -0.5208909 ], [ 166.915301, -0.5204631 ], [ 166.915648299999987, -0.5201795 ], [ 166.915943199999987, -0.5199615 ], [ 166.916598, -0.5194179 ], [ 166.91666140000001, -0.5193651 ], [ 166.9169607, -0.5191356 ], [ 166.9177297, -0.5185724 ], [ 166.918537, -0.5179417 ], [ 166.919114900000011, -0.5174972 ], [ 166.9196174, -0.5170756 ], [ 166.920437099999987, -0.5164099 ], [ 166.920945499999988, -0.5159385 ], [ 166.921251399999989, -0.5156741 ], [ 166.921692, -0.515272 ], [ 166.9220953, -0.5148751 ], [ 166.922471800000011, -0.5145279 ], [ 166.922830299999987, -0.5142065 ], [ 166.9233762, -0.5136683 ], [ 166.92371, -0.5133344 ], [ 166.923937599999988, -0.5131055 ], [ 166.9242088, -0.5128421 ], [ 166.924621300000013, -0.5124208 ], [ 166.9260572, -0.5109946 ], [ 166.926332300000013, -0.5107237 ], [ 166.9267084, -0.5103269 ], [ 166.9270999, -0.509934 ], [ 166.92731950000001, -0.5097116 ], [ 166.9275528, -0.5094819 ], [ 166.9279378, -0.5090833 ], [ 166.928322799999989, -0.5086465 ], [ 166.9287276, -0.5082215 ], [ 166.9291724, -0.5076924 ], [ 166.9294399, -0.5073959 ], [ 166.9297153, -0.5071079 ], [ 166.92993340000001, -0.5068564 ], [ 166.9301729, -0.5065919 ], [ 166.930883599999987, -0.5058622 ], [ 166.9309867, -0.5057495 ], [ 166.9313454, -0.505369 ], [ 166.9314837, -0.5051848 ], [ 166.9316316, -0.5048565 ], [ 166.9318151, -0.5046152 ], [ 166.932120700000013, -0.5042984 ], [ 166.9323257, -0.5041476 ], [ 166.9328281, -0.5038659 ], [ 166.933280700000012, -0.5036262 ], [ 166.9337233, -0.503352 ], [ 166.9341705, -0.5031135 ], [ 166.934619, -0.5028884 ], [ 166.935074899999989, -0.5027757 ], [ 166.9356168, -0.5026979 ], [ 166.936121, -0.5026523 ], [ 166.9367996, -0.5025906 ], [ 166.937261, -0.5026067 ], [ 166.937794700000012, -0.5026389 ], [ 166.9383741, -0.502714 ], [ 166.9393478, -0.5028991 ], [ 166.939996799999989, -0.5030305 ], [ 166.9407237, -0.5031539 ], [ 166.9412092, -0.5031888 ], [ 166.9418538, -0.5031941 ], [ 166.9424752, -0.503178 ], [ 166.9431645, -0.5031539 ], [ 166.9438002, -0.5030546 ], [ 166.9440416, -0.5030359 ], [ 166.94459950000001, -0.5030573 ], [ 166.9447792, -0.5030734 ], [ 166.9456, -0.5032826 ], [ 166.9465548, -0.503575 ], [ 166.9476492, -0.5039424 ], [ 166.948752399999989, -0.5044286 ], [ 166.9492512, -0.5046891 ], [ 166.9500703, -0.5051926 ], [ 166.9509966, -0.5057448 ], [ 166.9520856, -0.5065333 ], [ 166.952445, -0.5067962 ], [ 166.953080699999987, -0.5074399 ], [ 166.953716500000013, -0.5080062 ], [ 166.953799800000013, -0.5080204 ], [ 166.9538691, -0.5080323 ], [ 166.9541356, -0.5083515 ], [ 166.955126799999988, -0.5094792 ], [ 166.9555753, -0.5101253 ], [ 166.9558965, -0.5108114 ], [ 166.9568018, -0.5115857 ], [ 166.9571958, -0.5121616 ], [ 166.957580299999989, -0.513156 ], [ 166.9578986, -0.5140564 ], [ 166.95796, -0.5142301 ], [ 166.958474599999988, -0.5159072 ], [ 166.9587658, -0.5170934 ], [ 166.9589291, -0.5182997 ], [ 166.9589683, -0.5188716 ], [ 166.9589825, -0.5193369 ], [ 166.958947200000011, -0.519972 ], [ 166.9589427, -0.5200537 ], [ 166.958807400000012, -0.5205291 ], [ 166.9586084, -0.5210755 ], [ 166.9583565, -0.5215938 ], [ 166.9579089, -0.5221599 ], [ 166.957490299999989, -0.5225875 ], [ 166.956964699999986, -0.5230745 ], [ 166.9569107, -0.5231305 ], [ 166.9568169, -0.5232277 ], [ 166.956524699999989, -0.5235145 ], [ 166.9563353, -0.523763 ], [ 166.9562486, -0.5238767 ], [ 166.956107, -0.5240624 ], [ 166.9554626, -0.5250986 ], [ 166.9545728, -0.5256009 ], [ 166.9543655, -0.5257179 ], [ 166.9532245, -0.5273597 ], [ 166.9522609, -0.5293565 ], [ 166.951627, -0.5313406 ], [ 166.9505198, -0.5353651 ], [ 166.950627200000014, -0.5356286 ], [ 166.9507712, -0.5357018 ], [ 166.9508258, -0.5359253 ], [ 166.9506888, -0.5361773 ], [ 166.9510067, -0.5363655 ], [ 166.9509804, -0.5363865 ], [ 166.950668900000011, -0.5362051 ], [ 166.9505256, -0.5363109 ], [ 166.9504914, -0.536635 ], [ 166.950290099999989, -0.5366725 ], [ 166.9503072, -0.5373106 ], [ 166.950733, -0.5372954 ], [ 166.950835500000011, -0.5368072 ], [ 166.9508505, -0.5367328 ], [ 166.950865099999987, -0.5366606 ], [ 166.95088530000001, -0.5366717 ], [ 166.950820599999986, -0.5372196 ], [ 166.9507648, -0.5375148 ], [ 166.9503206, -0.537563 ], [ 166.9502521, -0.5380823 ], [ 166.9503212, -0.5385768 ], [ 166.9503193, -0.5399802 ], [ 166.95051, -0.5411705 ], [ 166.9505878, -0.5415353 ], [ 166.9506709, -0.5419953 ], [ 166.950691, -0.5421508 ], [ 166.9507219, -0.5423399 ], [ 166.950727300000011, -0.5424901 ], [ 166.9507738, -0.5426666 ] ] ] ] } },
{ "type": "Feature", "properties": { "FID": 645942, "id": 2503, "left": 165.0, "top": 0.0, "right": 170.0, "bottom": -5.0, "row_index": 18, "col_index": 69, "min_lon": 165.0, "min_lat": -5.0, "tile_id": "165_-5" }, "geometry": { "type": "MultiPolygon", "coordinates": [ [ [ [ 169.5399354, -0.8693825 ], [ 169.5400165, -0.8693209 ], [ 169.54005140000001, -0.8692827 ], [ 169.54006480000001, -0.8692344 ], [ 169.5400688, -0.8691955 ], [ 169.540047499999986, -0.8691452 ], [ 169.5399354, -0.8689468 ], [ 169.5399146, -0.8689327 ], [ 169.5398884, -0.8689329 ], [ 169.539864200000011, -0.868931 ], [ 169.5398485, -0.8689098 ], [ 169.539744899999988, -0.8687362 ], [ 169.539702299999988, -0.8686584 ], [ 169.5396828, -0.8686493 ], [ 169.539664499999986, -0.8686514 ], [ 169.5396038, -0.8686759 ], [ 169.5395478, -0.8687178 ], [ 169.5395096, -0.8687423 ], [ 169.539476, -0.8687533 ], [ 169.5394573, -0.8687523 ], [ 169.539425099999988, -0.8687376 ], [ 169.539407, -0.8687181 ], [ 169.539390200000014, -0.868699 ], [ 169.5393812, -0.8686782 ], [ 169.5393813, -0.8686545 ], [ 169.539399300000014, -0.8686333 ], [ 169.539478699999989, -0.8685894 ], [ 169.5396155, -0.8685176 ], [ 169.5396289, -0.8685049 ], [ 169.539632899999987, -0.8684851 ], [ 169.5396266, -0.8684556 ], [ 169.539559200000014, -0.8683856 ], [ 169.53947740000001, -0.8683319 ], [ 169.539409, -0.8683078 ], [ 169.539328500000011, -0.868289 ], [ 169.5392453, -0.8682635 ], [ 169.5392132, -0.8682488 ], [ 169.5385011, -0.8675649 ], [ 169.5379767, -0.8671921 ], [ 169.537884100000014, -0.8670889 ], [ 169.537776900000011, -0.8669343 ], [ 169.537752399999988, -0.8668901 ], [ 169.5377326, -0.8668693 ], [ 169.5377091, -0.8668576 ], [ 169.537668200000013, -0.8668495 ], [ 169.5376384, -0.8668307 ], [ 169.537612599999989, -0.8667939 ], [ 169.5376039, -0.8667677 ], [ 169.537594, -0.8667468 ], [ 169.5375723, -0.8667281 ], [ 169.5375388, -0.8667214 ], [ 169.5374946, -0.8667208 ], [ 169.537450299999989, -0.8667181 ], [ 169.537410099999988, -0.8667081 ], [ 169.5373893, -0.8666732 ], [ 169.5373732, -0.866643 ], [ 169.5373246, -0.8666028 ], [ 169.53730680000001, -0.866593 ], [ 169.5372827, -0.866582 ], [ 169.537255499999986, -0.8665743 ], [ 169.53723, -0.8665726 ], [ 169.5371982, -0.8665651 ], [ 169.537177, -0.8665434 ], [ 169.537164, -0.8665123 ], [ 169.537142499999987, -0.8664985 ], [ 169.537113799999986, -0.8664918 ], [ 169.537087500000013, -0.8664901 ], [ 169.537062, -0.8664908 ], [ 169.5370064, -0.8664841 ], [ 169.536975500000011, -0.8664687 ], [ 169.536948099999989, -0.8664378 ], [ 169.5368978, -0.8663755 ], [ 169.5367268, -0.8662695 ], [ 169.5365927, -0.8662065 ], [ 169.536421, -0.8661556 ], [ 169.53604150000001, -0.8660483 ], [ 169.5350879, -0.8656648 ], [ 169.5348988, -0.8655843 ], [ 169.534699, -0.8654985 ], [ 169.5345126, -0.8654502 ], [ 169.5342632, -0.8654113 ], [ 169.5340828, -0.8653792 ], [ 169.5340251, -0.865353 ], [ 169.53397480000001, -0.8653282 ], [ 169.533939299999986, -0.865294 ], [ 169.5338944, -0.8652585 ], [ 169.5338659, -0.8652501 ], [ 169.533835399999987, -0.8652498 ], [ 169.5337978, -0.8652625 ], [ 169.5337408, -0.8652759 ], [ 169.5336825, -0.8652772 ], [ 169.5335222, -0.8652551 ], [ 169.5333673, -0.8652115 ], [ 169.5332721, -0.8651592 ], [ 169.5332003, -0.8651203 ], [ 169.5331541, -0.8650902 ], [ 169.5330964, -0.8650727 ], [ 169.5330716, -0.8650768 ], [ 169.533037400000012, -0.8650895 ], [ 169.532965600000011, -0.8651036 ], [ 169.532903299999987, -0.8651083 ], [ 169.532814800000011, -0.8650976 ], [ 169.5327222, -0.8650895 ], [ 169.5326143, -0.8650815 ], [ 169.5324936, -0.8650727 ], [ 169.532396299999988, -0.865062 ], [ 169.5323052, -0.8650607 ], [ 169.5322629, -0.8650691 ], [ 169.532226400000013, -0.8650751 ], [ 169.5321576, -0.8650681 ], [ 169.5320798, -0.8650332 ], [ 169.5319249, -0.8649742 ], [ 169.5318284, -0.8649521 ], [ 169.53177, -0.8649541 ], [ 169.5317211, -0.86495 ], [ 169.5315789, -0.8649547 ], [ 169.5312537, -0.8649554 ], [ 169.5309211, -0.8649795 ], [ 169.530669, -0.8649836 ], [ 169.5304947, -0.8649863 ], [ 169.5304289, -0.8649943 ], [ 169.5303787, -0.8650044 ], [ 169.530319600000013, -0.8650198 ], [ 169.530262, -0.8650318 ], [ 169.5301996, -0.8650674 ], [ 169.5301681, -0.8650868 ], [ 169.5301332, -0.8650989 ], [ 169.530097, -0.8650892 ], [ 169.530075900000014, -0.8650768 ], [ 169.5300427, -0.8650727 ], [ 169.5299743, -0.8650768 ], [ 169.529892499999988, -0.8650962 ], [ 169.5298664, -0.8651157 ], [ 169.5298489, -0.8651411 ], [ 169.5298154, -0.8651505 ], [ 169.5297879, -0.8651472 ], [ 169.5297718, -0.8651351 ], [ 169.529751, -0.8651183 ], [ 169.5297262, -0.865119 ], [ 169.529698, -0.8651291 ], [ 169.529684, -0.8651431 ], [ 169.529675200000014, -0.8651639 ], [ 169.5296739, -0.8651894 ], [ 169.5296605, -0.8652035 ], [ 169.5296243, -0.8652142 ], [ 169.529591399999987, -0.8652028 ], [ 169.5295203, -0.8652075 ], [ 169.529423799999989, -0.8652209 ], [ 169.5293648, -0.8652397 ], [ 169.5293105, -0.8652739 ], [ 169.5292394, -0.8653456 ], [ 169.5291861, -0.8653879 ], [ 169.529162899999989, -0.8654107 ], [ 169.5291375, -0.8654412 ], [ 169.5291187, -0.8654569 ], [ 169.5290852, -0.865469 ], [ 169.529027500000012, -0.8654623 ], [ 169.528996299999989, -0.8654703 ], [ 169.528966, -0.8654918 ], [ 169.5289443, -0.8655158 ], [ 169.5289326, -0.8655427 ], [ 169.5289175, -0.8655602 ], [ 169.5288914, -0.8655796 ], [ 169.5288344, -0.8656044 ], [ 169.5287995, -0.8656152 ], [ 169.528767, -0.8656138 ], [ 169.5287267, -0.8655997 ], [ 169.528697599999987, -0.8656048 ], [ 169.528680799999989, -0.8656188 ], [ 169.5286681, -0.8656433 ], [ 169.528649300000012, -0.8656809 ], [ 169.528609100000011, -0.865705 ], [ 169.5285769, -0.8657077 ], [ 169.5285467, -0.8656936 ], [ 169.5285165, -0.8656809 ], [ 169.528501799999987, -0.8656923 ], [ 169.5284964, -0.8657104 ], [ 169.5284957, -0.8657365 ], [ 169.5285045, -0.8657855 ], [ 169.528481699999986, -0.8658652 ], [ 169.528462600000012, -0.8658877 ], [ 169.528433400000011, -0.8659041 ], [ 169.528383100000013, -0.8659021 ], [ 169.5283375, -0.8658847 ], [ 169.5282975, -0.8658947 ], [ 169.5282812, -0.8659189 ], [ 169.5282704, -0.8659584 ], [ 169.528244300000011, -0.8659812 ], [ 169.5282067, -0.8659933 ], [ 169.5281531, -0.8659987 ], [ 169.528088, -0.8659906 ], [ 169.5280559, -0.8659765 ], [ 169.5279928, -0.8659457 ], [ 169.5279673, -0.8659363 ], [ 169.5279352, -0.8659417 ], [ 169.5279171, -0.8659591 ], [ 169.527909, -0.8659873 ], [ 169.527909, -0.8660295 ], [ 169.5279191, -0.8660798 ], [ 169.527901, -0.866114 ], [ 169.527877499999988, -0.8661214 ], [ 169.527822500000013, -0.8661348 ], [ 169.5277836, -0.8661241 ], [ 169.527745399999986, -0.8661019 ], [ 169.5277226, -0.8660684 ], [ 169.527697100000012, -0.8660396 ], [ 169.527660200000014, -0.8660389 ], [ 169.5276113, -0.8660557 ], [ 169.527532799999989, -0.8660785 ], [ 169.5274732, -0.8660744 ], [ 169.5274421, -0.8660615 ], [ 169.5274249, -0.8660436 ], [ 169.5274211, -0.8660258 ], [ 169.5274182, -0.866004 ], [ 169.5274083, -0.8659729 ], [ 169.527388800000011, -0.8659641 ], [ 169.5273498, -0.8659648 ], [ 169.527304500000014, -0.8659631 ], [ 169.527263299999987, -0.8659477 ], [ 169.527204899999987, -0.8658941 ], [ 169.5271352, -0.8657888 ], [ 169.5270802, -0.8657271 ], [ 169.527038, -0.8656973 ], [ 169.526985700000012, -0.8656581 ], [ 169.52690960000001, -0.8655863 ], [ 169.5269015, -0.8655669 ], [ 169.526899500000013, -0.8655411 ], [ 169.5268988, -0.8654992 ], [ 169.526884599999988, -0.8654638 ], [ 169.5268321, -0.8654221 ], [ 169.5267905, -0.8653812 ], [ 169.526758300000012, -0.8653215 ], [ 169.5267355, -0.8652508 ], [ 169.526731399999989, -0.8652129 ], [ 169.5267213, -0.8651894 ], [ 169.526703199999986, -0.865174 ], [ 169.5266762, -0.8651639 ], [ 169.526637, -0.8651398 ], [ 169.5266001, -0.8650908 ], [ 169.5265599, -0.8650184 ], [ 169.5265008, -0.8649031 ], [ 169.526476, -0.8648505 ], [ 169.526425100000012, -0.8647992 ], [ 169.52636, -0.8647543 ], [ 169.5262802, -0.8646892 ], [ 169.526232, -0.8646611 ], [ 169.526192400000014, -0.8646296 ], [ 169.5261683, -0.864591 ], [ 169.526150199999989, -0.8645451 ], [ 169.5261126, -0.8644733 ], [ 169.526085099999989, -0.8644324 ], [ 169.5260321, -0.8643842 ], [ 169.5259805, -0.8643346 ], [ 169.5259202, -0.8642742 ], [ 169.5258632, -0.8642005 ], [ 169.525817600000011, -0.8641026 ], [ 169.5257854, -0.8640087 ], [ 169.5257619, -0.8639249 ], [ 169.5257344, -0.8638605 ], [ 169.5256982, -0.8638096 ], [ 169.5256627, -0.863768 ], [ 169.5256412, -0.8637244 ], [ 169.525613, -0.8636735 ], [ 169.525533200000012, -0.8635568 ], [ 169.5254682, -0.8634636 ], [ 169.5254333, -0.8634173 ], [ 169.5254065, -0.863357 ], [ 169.52538770000001, -0.8632876 ], [ 169.5253787, -0.8632537 ], [ 169.525369, -0.8632239 ], [ 169.5253468, -0.8631921 ], [ 169.5253126, -0.8631639 ], [ 169.525280400000014, -0.8631277 ], [ 169.5252027, -0.8629547 ], [ 169.525051100000013, -0.8626329 ], [ 169.5250069, -0.8625337 ], [ 169.5249881, -0.8624519 ], [ 169.524967299999986, -0.8623741 ], [ 169.5249425, -0.8622836 ], [ 169.524910299999988, -0.8622024 ], [ 169.5248808, -0.8621387 ], [ 169.524856699999987, -0.8620697 ], [ 169.5247628, -0.8618069 ], [ 169.5246488, -0.8615333 ], [ 169.5242639, -0.8609768 ], [ 169.5241821, -0.8608789 ], [ 169.5241479, -0.860838 ], [ 169.524119, -0.8607743 ], [ 169.524112300000013, -0.8607006 ], [ 169.524092200000013, -0.8606369 ], [ 169.5240641, -0.8605846 ], [ 169.5239997, -0.8605464 ], [ 169.5239662, -0.8605048 ], [ 169.523959499999989, -0.8604753 ], [ 169.5239742, -0.8604056 ], [ 169.523951399999987, -0.8602674 ], [ 169.5239004, -0.8601696 ], [ 169.5237744, -0.8599295 ], [ 169.5236818, -0.8598316 ], [ 169.5236175, -0.8597498 ], [ 169.523588, -0.8596426 ], [ 169.5235625, -0.8595232 ], [ 169.5235223, -0.859428 ], [ 169.523471300000011, -0.8593543 ], [ 169.5234203, -0.8592684 ], [ 169.523350599999986, -0.8591276 ], [ 169.523302300000012, -0.8590002 ], [ 169.5232594, -0.8588541 ], [ 169.523205100000013, -0.8587528 ], [ 169.5231588, -0.8587025 ], [ 169.5231119, -0.8586663 ], [ 169.5231025, -0.8586489 ], [ 169.5231018, -0.8586308 ], [ 169.523134700000014, -0.8585886 ], [ 169.5231461, -0.8585557 ], [ 169.523141399999986, -0.8585215 ], [ 169.5231159, -0.8584491 ], [ 169.5230938, -0.8583767 ], [ 169.523019299999987, -0.8582446 ], [ 169.5229617, -0.8581507 ], [ 169.522896, -0.8580864 ], [ 169.522867100000013, -0.8580689 ], [ 169.52285710000001, -0.8580515 ], [ 169.5228584, -0.8580247 ], [ 169.5228641, -0.8579815 ], [ 169.5228624, -0.8579382 ], [ 169.522849, -0.8578752 ], [ 169.522749800000014, -0.8576754 ], [ 169.5227176, -0.857603 ], [ 169.5227002, -0.8575413 ], [ 169.522684700000013, -0.857491 ], [ 169.5226572, -0.8574229 ], [ 169.522629099999989, -0.8573763 ], [ 169.5225647, -0.8572798 ], [ 169.522505700000011, -0.8571511 ], [ 169.522470199999987, -0.8569861 ], [ 169.5224641, -0.856852 ], [ 169.5224306, -0.8567407 ], [ 169.5223877, -0.8566469 ], [ 169.522334, -0.856553 ], [ 169.5222415, -0.856311 ], [ 169.5221872, -0.8561789 ], [ 169.5221114, -0.8560099 ], [ 169.5219022, -0.8555446 ], [ 169.5217882, -0.8552228 ], [ 169.52170910000001, -0.8549814 ], [ 169.521663499999988, -0.8547588 ], [ 169.521623299999987, -0.854032 ], [ 169.5216715, -0.8533508 ], [ 169.52187, -0.8523612 ], [ 169.5220242, -0.8517591 ], [ 169.522149, -0.8513823 ], [ 169.5222402, -0.8511503 ], [ 169.5223057, -0.8509958 ], [ 169.5223206, -0.8509607 ], [ 169.522429499999987, -0.8507039 ], [ 169.5227873, -0.8498603 ], [ 169.5228745, -0.849686 ], [ 169.5230784, -0.8494553 ], [ 169.5232131, -0.8493427 ], [ 169.5232292, -0.8493142 ], [ 169.5232292, -0.8492696 ], [ 169.5232232, -0.8492146 ], [ 169.5232306, -0.8491697 ], [ 169.5232607, -0.8491248 ], [ 169.5233164, -0.8490638 ], [ 169.5234901, -0.8489216 ], [ 169.5235451, -0.8488874 ], [ 169.5235863, -0.8488707 ], [ 169.5236181, -0.8488459 ], [ 169.5236349, -0.8488133 ], [ 169.523643600000014, -0.8487225 ], [ 169.5236544, -0.848687 ], [ 169.5236892, -0.8486574 ], [ 169.523735499999987, -0.8486568 ], [ 169.5237838, -0.8486796 ], [ 169.5238139, -0.8486796 ], [ 169.5238535, -0.8486689 ], [ 169.5238656, -0.8486387 ], [ 169.5238522, -0.8485857 ], [ 169.5238468, -0.8485408 ], [ 169.5238589, -0.8485039 ], [ 169.5238904, -0.8484784 ], [ 169.5239219, -0.8484704 ], [ 169.5239437, -0.8484731 ], [ 169.5239769, -0.8484922 ], [ 169.5240057, -0.8484851 ], [ 169.5240144, -0.848468 ], [ 169.5240101, -0.8483966 ], [ 169.524022800000012, -0.8483658 ], [ 169.52405490000001, -0.8483405 ], [ 169.5240882, -0.8483366 ], [ 169.5241154, -0.848343 ], [ 169.5241447, -0.8483424 ], [ 169.524160599999988, -0.8483236 ], [ 169.524149200000011, -0.8482692 ], [ 169.524142500000011, -0.848233 ], [ 169.5241526, -0.8481962 ], [ 169.524170700000013, -0.8481687 ], [ 169.5242096, -0.8481479 ], [ 169.524267900000012, -0.8481519 ], [ 169.5243202, -0.8481962 ], [ 169.5243739, -0.8482307 ], [ 169.5243993, -0.848227 ], [ 169.524414799999988, -0.8482129 ], [ 169.5244174, -0.8481928 ], [ 169.524410100000011, -0.8481439 ], [ 169.52442210000001, -0.848101 ], [ 169.524436900000012, -0.8480761 ], [ 169.524485199999987, -0.8480446 ], [ 169.5245241, -0.8480265 ], [ 169.5245744, -0.8480198 ], [ 169.524615899999986, -0.8480104 ], [ 169.5246454, -0.847985 ], [ 169.5246723, -0.8479474 ], [ 169.5246823, -0.8479025 ], [ 169.5246917, -0.8478576 ], [ 169.5247111, -0.8478194 ], [ 169.524771500000014, -0.847755 ], [ 169.524805, -0.8477409 ], [ 169.52484530000001, -0.8477335 ], [ 169.5248929, -0.8477322 ], [ 169.5249418, -0.8477282 ], [ 169.5249861, -0.8477121 ], [ 169.5251443, -0.8475921 ], [ 169.5252006, -0.8475639 ], [ 169.525223399999987, -0.8475559 ], [ 169.5252462, -0.8475532 ], [ 169.5252784, -0.8475616 ], [ 169.5253036, -0.8475562 ], [ 169.525317699999988, -0.8475433 ], [ 169.5253314, -0.84752 ], [ 169.5253478, -0.8474479 ], [ 169.525362300000012, -0.8474338 ], [ 169.52538, -0.8474234 ], [ 169.5254038, -0.8474204 ], [ 169.525434, -0.8474285 ], [ 169.5254635, -0.8474248 ], [ 169.5254856, -0.8474104 ], [ 169.5255862, -0.8473105 ], [ 169.525656, -0.8472146 ], [ 169.5256962, -0.8471636 ], [ 169.5257612, -0.8471221 ], [ 169.525894, -0.8470476 ], [ 169.5259872, -0.8469859 ], [ 169.5260221, -0.8469665 ], [ 169.5260683, -0.8469611 ], [ 169.5261669, -0.8469685 ], [ 169.5262018, -0.8469618 ], [ 169.5262279, -0.8469383 ], [ 169.5262548, -0.8468901 ], [ 169.5262816, -0.846824 ], [ 169.5263094, -0.8467922 ], [ 169.526337899999987, -0.8467841 ], [ 169.526381500000014, -0.8468016 ], [ 169.5264113, -0.8467942 ], [ 169.5264392, -0.84676 ], [ 169.526456599999989, -0.8467231 ], [ 169.526478700000013, -0.8466983 ], [ 169.526502, -0.8466948 ], [ 169.526535700000011, -0.8467171 ], [ 169.5265525, -0.8467265 ], [ 169.526587400000011, -0.8467278 ], [ 169.5266403, -0.8467057 ], [ 169.5266792, -0.8466849 ], [ 169.5267067, -0.8466561 ], [ 169.526722799999988, -0.8466125 ], [ 169.5267409, -0.8465575 ], [ 169.5267536, -0.8465146 ], [ 169.5267637, -0.846473 ], [ 169.526782200000014, -0.8464492 ], [ 169.5268164, -0.8464526 ], [ 169.5268455, -0.8464489 ], [ 169.526870300000013, -0.8464335 ], [ 169.52688040000001, -0.8464147 ], [ 169.5268992, -0.8463879 ], [ 169.526920600000011, -0.8463725 ], [ 169.5269381, -0.8463678 ], [ 169.5269776, -0.8463617 ], [ 169.5270071, -0.8463537 ], [ 169.5270514, -0.8463235 ], [ 169.52726530000001, -0.8461217 ], [ 169.527380599999987, -0.8460359 ], [ 169.5274732, -0.8459621 ], [ 169.527555, -0.8459125 ], [ 169.527591199999989, -0.8459031 ], [ 169.52763010000001, -0.8459058 ], [ 169.527728, -0.845938 ], [ 169.5277977, -0.8459474 ], [ 169.5278554, -0.8459326 ], [ 169.5279305, -0.8458736 ], [ 169.5281685, -0.8456436 ], [ 169.528244300000011, -0.8455826 ], [ 169.528314, -0.8455277 ], [ 169.5283626, -0.8455008 ], [ 169.5284012, -0.8454978 ], [ 169.5284347, -0.8455075 ], [ 169.5284766, -0.8455277 ], [ 169.52850380000001, -0.8455235 ], [ 169.5285185, -0.8454606 ], [ 169.5285279, -0.8454338 ], [ 169.528552100000013, -0.8454113 ], [ 169.5285906, -0.8453996 ], [ 169.52862780000001, -0.8454096 ], [ 169.528667399999989, -0.8454311 ], [ 169.52869960000001, -0.8454324 ], [ 169.5287207, -0.8454187 ], [ 169.5287459, -0.8453869 ], [ 169.5287673, -0.8453563 ], [ 169.528791500000011, -0.8453272 ], [ 169.5288065, -0.8453014 ], [ 169.5288189, -0.8452722 ], [ 169.528829300000012, -0.8452544 ], [ 169.5288506, -0.8452501 ], [ 169.5289109, -0.8453019 ], [ 169.5289286, -0.845293 ], [ 169.5289309, -0.8452407 ], [ 169.5289402, -0.845214 ], [ 169.5289564, -0.8451988 ], [ 169.5289759, -0.8451958 ], [ 169.529024099999987, -0.8451917 ], [ 169.5290818, -0.8451978 ], [ 169.529137100000014, -0.8452424 ], [ 169.529166300000014, -0.8452712 ], [ 169.529188799999986, -0.8452826 ], [ 169.52921280000001, -0.8452716 ], [ 169.5292216, -0.8452279 ], [ 169.5292288, -0.845209 ], [ 169.5292454, -0.8451814 ], [ 169.5292749, -0.8451689 ], [ 169.5293091, -0.8451683 ], [ 169.5293292, -0.8451716 ], [ 169.529346, -0.8451884 ], [ 169.5293547, -0.8452139 ], [ 169.5293584, -0.8452756 ], [ 169.5293715, -0.8452896 ], [ 169.5293916, -0.8452883 ], [ 169.529407, -0.8452782 ], [ 169.5294855, -0.8451716 ], [ 169.5295639, -0.8450999 ], [ 169.5297275, -0.8450027 ], [ 169.5298818, -0.8448867 ], [ 169.5299824, -0.8448203 ], [ 169.5300172, -0.8448096 ], [ 169.5300474, -0.8448176 ], [ 169.530074899999988, -0.8448672 ], [ 169.5301024, -0.8448733 ], [ 169.530125199999986, -0.8448679 ], [ 169.5301366, -0.8448471 ], [ 169.5301312, -0.8448102 ], [ 169.5301393, -0.8447821 ], [ 169.530162100000013, -0.84477 ], [ 169.5302881, -0.8447392 ], [ 169.5304061, -0.8447231 ], [ 169.5305349, -0.8447499 ], [ 169.530616, -0.8448116 ], [ 169.530679099999986, -0.8448444 ], [ 169.530728, -0.8448397 ], [ 169.5307857, -0.8448149 ], [ 169.530866800000013, -0.8447559 ], [ 169.5309144, -0.8447291 ], [ 169.530968699999988, -0.8447177 ], [ 169.53128190000001, -0.8447298 ], [ 169.531652, -0.8447231 ], [ 169.532357499999989, -0.8446453 ], [ 169.5327558, -0.8445957 ], [ 169.532903299999987, -0.844585 ], [ 169.53302930000001, -0.844585 ], [ 169.5331407, -0.8445943 ], [ 169.5333646, -0.8446064 ], [ 169.533530899999988, -0.8446252 ], [ 169.5342082, -0.8447123 ], [ 169.5349206, -0.844884 ], [ 169.5370781, -0.845355 ], [ 169.5391273, -0.8458052 ], [ 169.539607499999988, -0.8459648 ], [ 169.540004399999987, -0.8460627 ], [ 169.540188199999989, -0.8461217 ], [ 169.5402968, -0.8461432 ], [ 169.540451, -0.8461914 ], [ 169.5406441, -0.8462652 ], [ 169.5415816, -0.846756 ], [ 169.5428914, -0.8473697 ], [ 169.5450242, -0.848935 ], [ 169.5453367, -0.8491791 ], [ 169.5456853, -0.8495519 ], [ 169.5461038, -0.8499367 ], [ 169.5464189, -0.850276 ], [ 169.54649, -0.8503913 ], [ 169.5465718, -0.8505133 ], [ 169.5472652, -0.8518851 ], [ 169.5476353, -0.8524711 ], [ 169.5478553, -0.8530544 ], [ 169.5483085, -0.8542063 ], [ 169.5485258, -0.8551128 ], [ 169.5486841, -0.8561427 ], [ 169.5487592, -0.8568721 ], [ 169.54884770000001, -0.8575587 ], [ 169.5488437, -0.8585457 ], [ 169.5488316, -0.8589573 ], [ 169.5487699, -0.8595809 ], [ 169.5486431, -0.8606963 ], [ 169.5484789, -0.8616848 ], [ 169.5481916, -0.8627213 ], [ 169.5478344, -0.8640422 ], [ 169.5474596, -0.8652451 ], [ 169.5473121, -0.865697 ], [ 169.5470908, -0.8662669 ], [ 169.5469259, -0.8666611 ], [ 169.546726, -0.8670875 ], [ 169.5463921, -0.8677593 ], [ 169.5462781, -0.8679203 ], [ 169.546221800000012, -0.8679793 ], [ 169.546143300000011, -0.8680463 ], [ 169.546093, -0.8680879 ], [ 169.5460622, -0.8681294 ], [ 169.5460421, -0.8681757 ], [ 169.546026, -0.8682434 ], [ 169.5459985, -0.8683085 ], [ 169.545952199999988, -0.8683762 ], [ 169.5458423, -0.8684922 ], [ 169.5457537, -0.8685974 ], [ 169.5452347, -0.8695468 ], [ 169.5442758, -0.8712646 ], [ 169.5435872, -0.8723791 ], [ 169.5435168, -0.8724688 ], [ 169.543406800000014, -0.8725331 ], [ 169.5432955, -0.8725438 ], [ 169.543203, -0.8725237 ], [ 169.5425807, -0.8723105 ], [ 169.5422307, -0.8721456 ], [ 169.541962399999989, -0.8719525 ], [ 169.541557399999988, -0.8715301 ], [ 169.5411838, -0.8710009 ], [ 169.5409687, -0.870759 ], [ 169.540854700000011, -0.8706732 ], [ 169.5407917, -0.8706343 ], [ 169.5407481, -0.8705914 ], [ 169.540730599999989, -0.8705592 ], [ 169.540717199999989, -0.8704949 ], [ 169.5406978, -0.8704097 ], [ 169.540630099999987, -0.8702468 ], [ 169.540341, -0.8697761 ], [ 169.540164, -0.8695804 ], [ 169.5400943, -0.869524 ], [ 169.5400406, -0.8694912 ], [ 169.5399662, -0.8694342 ], [ 169.5399354, -0.8693825 ] ] ] ] } }
]
}
