{
"type": "FeatureCollection",
"name": "165_15",
"crs": { "type": "name", "properties": { "name": "urn:ogc:def:crs:OGC:1.3:CRS84" } },
"xy_coordinate_resolution": 1e-15,
"features": [
{ "type": "Feature", "properties": { "FID": 90571, "id": 2499, "left": 165.0, "top": 20.0, "right": 170.0, "bottom": 15.0, "row_index": 14, "col_index": 69, "min_lon": 165.0, "min_lat": 15.0, "tile_id": "165_15" }, "geometry": { "type": "MultiPolygon", "coordinates": [ [ [ [ 166.632736200000011, 19.3041283 ], [ 166.6325965, 19.3042117 ], [ 166.6323227, 19.3042254 ], [ 166.6319115, 19.3040472 ], [ 166.6309291, 19.304187 ], [ 166.63015, 19.3044098 ], [ 166.6299952, 19.3047077 ], [ 166.6301935, 19.305074 ], [ 166.630234300000012, 19.3054774 ], [ 166.6301723, 19.3057627 ], [ 166.629877099999987, 19.3057854 ], [ 166.6294933, 19.3057146 ], [ 166.6292243, 19.3057188 ], [ 166.6289108, 19.3056367 ], [ 166.6280252, 19.3056635 ], [ 166.6274527, 19.3054034 ], [ 166.6271472, 19.3049752 ], [ 166.6270074, 19.3049112 ], [ 166.6268465, 19.3048707 ], [ 166.6266561, 19.3049137 ], [ 166.626475, 19.3049707 ], [ 166.6262926, 19.3049137 ], [ 166.625979699999988, 19.304801 ], [ 166.625789700000013, 19.3048684 ], [ 166.6256151, 19.3048772 ], [ 166.6255246, 19.3048272 ], [ 166.6253749, 19.3046918 ], [ 166.6250818, 19.3047036 ], [ 166.62475, 19.3046193 ], [ 166.6241867, 19.3047507 ], [ 166.6236503, 19.3046624 ], [ 166.623213600000014, 19.3047919 ], [ 166.6228955, 19.3048213 ], [ 166.6224683, 19.3047407 ], [ 166.622312599999987, 19.3048277 ], [ 166.6216378, 19.3052046 ], [ 166.6212117, 19.3055194 ], [ 166.6211242, 19.3056475 ], [ 166.6212487, 19.3056757 ], [ 166.6219355, 19.3056864 ], [ 166.6224396, 19.3055288 ], [ 166.6235352, 19.3059456 ], [ 166.624074799999988, 19.3061659 ], [ 166.6243459, 19.3062968 ], [ 166.6247854, 19.30638 ], [ 166.6254829, 19.3059566 ], [ 166.6255555, 19.3060318 ], [ 166.6256406, 19.3061199 ], [ 166.6253456, 19.3062717 ], [ 166.625237199999987, 19.3064579 ], [ 166.6251057, 19.3065616 ], [ 166.625006500000012, 19.3066982 ], [ 166.624711499999989, 19.306997 ], [ 166.6244211, 19.3072953 ], [ 166.6241047, 19.3077431 ], [ 166.6234136, 19.3084974 ], [ 166.623228, 19.3089266 ], [ 166.6231316, 19.3091639 ], [ 166.62296, 19.3093006 ], [ 166.6227132, 19.3093917 ], [ 166.622550499999988, 19.3095737 ], [ 166.622446700000012, 19.3097207 ], [ 166.6223699, 19.309984 ], [ 166.6221836, 19.3102227 ], [ 166.6219568, 19.3104295 ], [ 166.6216804, 19.3106592 ], [ 166.6212639, 19.3115072 ], [ 166.6210273, 19.3124408 ], [ 166.6208749, 19.3130558 ], [ 166.620578099999989, 19.313742 ], [ 166.6203797, 19.314024 ], [ 166.6201705, 19.3142265 ], [ 166.6199267, 19.3143506 ], [ 166.61965, 19.3146681 ], [ 166.6191926, 19.3147903 ], [ 166.6190579, 19.3150494 ], [ 166.618808800000011, 19.3151329 ], [ 166.618432500000011, 19.3150912 ], [ 166.61813810000001, 19.3152505 ], [ 166.6180353, 19.3154478 ], [ 166.6175934, 19.3156963 ], [ 166.6172489, 19.3158206 ], [ 166.617006800000013, 19.3159948 ], [ 166.616773, 19.3162885 ], [ 166.6165919, 19.3164794 ], [ 166.6164032, 19.3166436 ], [ 166.6161233, 19.31662 ], [ 166.615872700000011, 19.3166346 ], [ 166.615428400000013, 19.3168277 ], [ 166.615397, 19.3169894 ], [ 166.6150982, 19.3174923 ], [ 166.6149608, 19.3178191 ], [ 166.614951, 19.3180489 ], [ 166.61468210000001, 19.3182766 ], [ 166.614597, 19.3184004 ], [ 166.6145924, 19.3185019 ], [ 166.6146487, 19.3186042 ], [ 166.614742799999988, 19.3186618 ], [ 166.615222100000011, 19.3186433 ], [ 166.615748700000012, 19.318683 ], [ 166.6160341, 19.318623 ], [ 166.6163019, 19.3184594 ], [ 166.616959400000013, 19.3181676 ], [ 166.6178817, 19.3176061 ], [ 166.6186769, 19.3171589 ], [ 166.6192097, 19.3165081 ], [ 166.6196388, 19.3161201 ], [ 166.620213400000011, 19.3159376 ], [ 166.6207178, 19.3158132 ], [ 166.6209072, 19.3158303 ], [ 166.6210663, 19.3159629 ], [ 166.6212496, 19.3159483 ], [ 166.6214794, 19.3158667 ], [ 166.6218878, 19.3155787 ], [ 166.6229472, 19.3150339 ], [ 166.6242669, 19.3140487 ], [ 166.624764699999986, 19.3137911 ], [ 166.625394300000011, 19.3134232 ], [ 166.6259322, 19.3130698 ], [ 166.6265272, 19.3126078 ], [ 166.6273406, 19.3119643 ], [ 166.627816200000012, 19.3116393 ], [ 166.6287575, 19.311142 ], [ 166.6292518, 19.3108843 ], [ 166.629891, 19.3104934 ], [ 166.6300225, 19.310413 ], [ 166.6305051, 19.3098974 ], [ 166.6311663, 19.3093643 ], [ 166.6314984, 19.3086195 ], [ 166.6316492, 19.3079045 ], [ 166.631843300000014, 19.3071877 ], [ 166.632049200000012, 19.3064877 ], [ 166.6324373, 19.3061002 ], [ 166.632771, 19.3059906 ], [ 166.6331205, 19.3056535 ], [ 166.633394900000013, 19.305339 ], [ 166.633457, 19.3051959 ], [ 166.633492499999988, 19.3050622 ], [ 166.6335398, 19.3049921 ], [ 166.6336004, 19.3050268 ], [ 166.6336564, 19.3048549 ], [ 166.6337014, 19.3047799 ], [ 166.6336312, 19.3046999 ], [ 166.6335526, 19.3047493 ], [ 166.6335388, 19.3048263 ], [ 166.633443699999987, 19.3049445 ], [ 166.6333306, 19.3049266 ], [ 166.6332339, 19.3047691 ], [ 166.6334211, 19.3045835 ], [ 166.633348899999987, 19.3042954 ], [ 166.6332847, 19.3038948 ], [ 166.6331465, 19.3037798 ], [ 166.6329031, 19.3039004 ], [ 166.632736200000011, 19.3041283 ] ] ] ] } },
{ "type": "Feature", "properties": { "FID": 90622, "id": 2499, "left": 165.0, "top": 20.0, "right": 170.0, "bottom": 15.0, "row_index": 14, "col_index": 69, "min_lon": 165.0, "min_lat": 15.0, "tile_id": "165_15" }, "geometry": { "type": "MultiPolygon", "coordinates": [ [ [ [ 166.6140591, 19.2886879 ], [ 166.613959, 19.2887843 ], [ 166.6139612, 19.2888664 ], [ 166.61399080000001, 19.2889395 ], [ 166.6147919, 19.2893917 ], [ 166.615488699999986, 19.2897322 ], [ 166.6164386, 19.2901331 ], [ 166.6174232, 19.2906069 ], [ 166.6175412, 19.2906297 ], [ 166.6176485, 19.2905993 ], [ 166.6180642, 19.2903183 ], [ 166.618873799999989, 19.2897259 ], [ 166.6191706, 19.2893875 ], [ 166.619432100000012, 19.2894867 ], [ 166.619576200000012, 19.2897147 ], [ 166.6188549, 19.2909741 ], [ 166.6186083, 19.2912455 ], [ 166.617680299999989, 19.2918639 ], [ 166.617142300000012, 19.2918006 ], [ 166.6172791, 19.2915563 ], [ 166.6172884, 19.2914601 ], [ 166.6172871, 19.2913689 ], [ 166.6172402, 19.2912626 ], [ 166.617161, 19.2911651 ], [ 166.6169773, 19.2910018 ], [ 166.616587, 19.2907474 ], [ 166.6158955, 19.2903051 ], [ 166.6150528, 19.2898841 ], [ 166.6143447, 19.2896208 ], [ 166.613920900000011, 19.2895525 ], [ 166.6135266, 19.2895677 ], [ 166.612958, 19.2897753 ], [ 166.611971, 19.2903651 ], [ 166.6112655, 19.2908183 ], [ 166.6107398, 19.2912082 ], [ 166.6104475, 19.291436 ], [ 166.61003980000001, 19.2916841 ], [ 166.609607899999986, 19.2920157 ], [ 166.607725, 19.2932208 ], [ 166.607269, 19.293641 ], [ 166.6069043, 19.2939144 ], [ 166.6062847, 19.2943245 ], [ 166.605598, 19.2947347 ], [ 166.6049789, 19.2950971 ], [ 166.60416570000001, 19.2956207 ], [ 166.6034013, 19.2961068 ], [ 166.602709299999987, 19.2964713 ], [ 166.601974399999989, 19.2968156 ], [ 166.6013896, 19.2971751 ], [ 166.600952400000011, 19.2975472 ], [ 166.600332900000012, 19.2980788 ], [ 166.5997294, 19.2986256 ], [ 166.599211700000012, 19.2994509 ], [ 166.599042700000012, 19.2999622 ], [ 166.5990803, 19.300504 ], [ 166.5991768, 19.3008001 ], [ 166.5994374, 19.3013794 ], [ 166.5999339, 19.3021586 ], [ 166.6003374, 19.3029054 ], [ 166.6004469, 19.3030887 ], [ 166.6006126, 19.3032609 ], [ 166.600687, 19.3033175 ], [ 166.600729, 19.3033634 ], [ 166.6007803, 19.3034465 ], [ 166.60083, 19.3034887 ], [ 166.6008967, 19.3035195 ], [ 166.600968599999987, 19.3035326 ], [ 166.6010734, 19.3035407 ], [ 166.6011892, 19.3035424 ], [ 166.6013166, 19.3035384 ], [ 166.601411899999988, 19.3035235 ], [ 166.6014987, 19.3035029 ], [ 166.6015827, 19.3034773 ], [ 166.60166430000001, 19.3034368 ], [ 166.601734599999986, 19.3033885 ], [ 166.601816, 19.3033135 ], [ 166.6018678, 19.3032445 ], [ 166.601919400000014, 19.3031502 ], [ 166.6019786, 19.3030885 ], [ 166.6020681, 19.3030084 ], [ 166.6021676, 19.3029506 ], [ 166.6022859, 19.3028839 ], [ 166.6024061, 19.3027948 ], [ 166.6025141, 19.3027034 ], [ 166.6025955, 19.302612 ], [ 166.6026866, 19.3024839 ], [ 166.6027671, 19.3023362 ], [ 166.6028316, 19.3021658 ], [ 166.6029287, 19.3019119 ], [ 166.6031418, 19.3014369 ], [ 166.603408300000012, 19.3008407 ], [ 166.6035092, 19.3006358 ], [ 166.6036325, 19.3004164 ], [ 166.6037825, 19.3001753 ], [ 166.603942100000012, 19.2999777 ], [ 166.6040492, 19.2998567 ], [ 166.6041443, 19.2997856 ], [ 166.6042227, 19.2997499 ], [ 166.6043055, 19.2997172 ], [ 166.6043802, 19.2996747 ], [ 166.605479, 19.2989162 ], [ 166.6055685, 19.2988615 ], [ 166.6056879, 19.2988067 ], [ 166.60609070000001, 19.2986436 ], [ 166.6063237, 19.2985331 ], [ 166.6065395, 19.2984155 ], [ 166.6072436, 19.2981649 ], [ 166.6075051, 19.2980611 ], [ 166.607596300000012, 19.2979674 ], [ 166.607649900000013, 19.2978003 ], [ 166.6077237, 19.2974042 ], [ 166.6077693, 19.2969751 ], [ 166.6077559, 19.2968789 ], [ 166.607683400000013, 19.2967953 ], [ 166.6075668, 19.2967017 ], [ 166.607462199999986, 19.2966131 ], [ 166.6073991, 19.2964447 ], [ 166.6072543, 19.2963194 ], [ 166.6070263, 19.2961966 ], [ 166.6067876, 19.296065 ], [ 166.6062686, 19.2958308 ], [ 166.605691900000011, 19.2954435 ], [ 166.6056007, 19.2953068 ], [ 166.6056034, 19.2952416 ], [ 166.6056356, 19.2951853 ], [ 166.606172, 19.2948435 ], [ 166.6063035, 19.2948309 ], [ 166.6064376, 19.2948714 ], [ 166.606590399999988, 19.2949726 ], [ 166.6068687, 19.2952609 ], [ 166.6073479, 19.2956048 ], [ 166.608481399999988, 19.296046 ], [ 166.6087925, 19.2961523 ], [ 166.6090232, 19.2961523 ], [ 166.60928340000001, 19.2960599 ], [ 166.6093397, 19.295989 ], [ 166.6093411, 19.2959257 ], [ 166.6093343, 19.2958435 ], [ 166.6093478, 19.2957802 ], [ 166.6094242, 19.2957435 ], [ 166.60949930000001, 19.295746 ], [ 166.6096589, 19.295822 ], [ 166.6099767, 19.2960435 ], [ 166.6102436, 19.2963004 ], [ 166.610385799999989, 19.2964371 ], [ 166.6104475, 19.2964555 ], [ 166.6105192, 19.2964339 ], [ 166.610561499999989, 19.2963713 ], [ 166.6105762, 19.2961105 ], [ 166.61060040000001, 19.2959169 ], [ 166.6107398, 19.2955435 ], [ 166.610891400000014, 19.2952182 ], [ 166.611100599999986, 19.2950536 ], [ 166.6115981, 19.2947739 ], [ 166.612072899999987, 19.2942562 ], [ 166.612652200000014, 19.2937043 ], [ 166.6134006, 19.2932081 ], [ 166.61390750000001, 19.2929246 ], [ 166.614693499999987, 19.2922162 ], [ 166.615042100000011, 19.2919094 ], [ 166.615203, 19.2917069 ], [ 166.615366599999987, 19.2915955 ], [ 166.615543699999989, 19.2915752 ], [ 166.6156892, 19.2916151 ], [ 166.6159983, 19.2917582 ], [ 166.6169625, 19.2920588 ], [ 166.6176438, 19.2921221 ], [ 166.6179094, 19.2920638 ], [ 166.618309, 19.2917854 ], [ 166.6184565, 19.2917474 ], [ 166.6185585, 19.291793 ], [ 166.6186443, 19.2919069 ], [ 166.6186094, 19.2920993 ], [ 166.6186295, 19.2921284 ], [ 166.6187181, 19.2921411 ], [ 166.6188146, 19.2921043 ], [ 166.61884950000001, 19.2920474 ], [ 166.6188723, 19.291979 ], [ 166.6188683, 19.2916018 ], [ 166.6189474, 19.291393 ], [ 166.619558899999987, 19.2903829 ], [ 166.6200095, 19.2895373 ], [ 166.6203046, 19.2889145 ], [ 166.620511099999987, 19.2886816 ], [ 166.6208464, 19.2884588 ], [ 166.6211361, 19.2883069 ], [ 166.6212916, 19.2882132 ], [ 166.6216162, 19.2880968 ], [ 166.6218308, 19.2880715 ], [ 166.621962200000013, 19.2881272 ], [ 166.6220668, 19.2882715 ], [ 166.622098599999987, 19.2886047 ], [ 166.6221161, 19.2886294 ], [ 166.622163699999987, 19.2886367 ], [ 166.622191500000014, 19.2886139 ], [ 166.6222136, 19.2885765 ], [ 166.6222304, 19.288355 ], [ 166.622278, 19.2881708 ], [ 166.622310199999987, 19.2881449 ], [ 166.6223484, 19.2881411 ], [ 166.6224825, 19.2881632 ], [ 166.6225033, 19.2882006 ], [ 166.622514099999989, 19.2882626 ], [ 166.6224939, 19.2886512 ], [ 166.6225047, 19.2886772 ], [ 166.6225389, 19.2886879 ], [ 166.6225804, 19.2886683 ], [ 166.6226079, 19.2886417 ], [ 166.6226938, 19.28855 ], [ 166.622854, 19.2883601 ], [ 166.6229533, 19.2882677 ], [ 166.6230696, 19.2881699 ], [ 166.623186, 19.2881273 ], [ 166.6232606, 19.2881062 ], [ 166.6234282, 19.2880673 ], [ 166.623749299999986, 19.2879502 ], [ 166.623949, 19.2878795 ], [ 166.6240377, 19.2878429 ], [ 166.6241292, 19.2878376 ], [ 166.6242124, 19.2878795 ], [ 166.62430950000001, 19.2879423 ], [ 166.6244237, 19.2880033 ], [ 166.624573, 19.2880601 ], [ 166.6246055, 19.2880778 ], [ 166.624626799999987, 19.2881039 ], [ 166.6246368, 19.2881596 ], [ 166.6246367, 19.2882104 ], [ 166.624658899999986, 19.2882957 ], [ 166.6247442, 19.2884089 ], [ 166.6247861, 19.2884328 ], [ 166.6248448, 19.2884397 ], [ 166.6249973, 19.2884999 ], [ 166.6250999, 19.288568 ], [ 166.625197, 19.2885758 ], [ 166.6252857, 19.2885994 ], [ 166.6253523, 19.2886413 ], [ 166.6256324, 19.2886282 ], [ 166.625695799999988, 19.2885917 ], [ 166.6257933, 19.2885418 ], [ 166.6258886, 19.2885561 ], [ 166.6259919, 19.2885674 ], [ 166.626350699999989, 19.2885366 ], [ 166.626380899999987, 19.2884213 ], [ 166.6264117, 19.2883036 ], [ 166.6264368, 19.2881943 ], [ 166.626467600000012, 19.2881632 ], [ 166.626505900000012, 19.2881822 ], [ 166.626531, 19.2882145 ], [ 166.6265444, 19.2882484 ], [ 166.6265508, 19.2883481 ], [ 166.6265709, 19.2884433 ], [ 166.62661030000001, 19.2884942 ], [ 166.626711300000011, 19.2885078 ], [ 166.6269026, 19.2885078 ], [ 166.627011399999986, 19.2885425 ], [ 166.6271023, 19.2887381 ], [ 166.6271145, 19.2889376 ], [ 166.627193799999986, 19.2889214 ], [ 166.6273103, 19.2889057 ], [ 166.6274527, 19.2890043 ], [ 166.6273602, 19.2887983 ], [ 166.627327, 19.2886256 ], [ 166.6273658, 19.2885235 ], [ 166.6274601, 19.2884633 ], [ 166.6275544, 19.2884528 ], [ 166.627543300000013, 19.288335 ], [ 166.6274062, 19.2879517 ], [ 166.6280566, 19.2866972 ], [ 166.6283478, 19.2864367 ], [ 166.628428, 19.286365 ], [ 166.6285667, 19.2862393 ], [ 166.6288717, 19.2860404 ], [ 166.629476399999987, 19.2858886 ], [ 166.6298036, 19.285721 ], [ 166.6300465, 19.2856836 ], [ 166.630913, 19.285365 ], [ 166.6315674, 19.2852492 ], [ 166.6323185, 19.2850756 ], [ 166.6331506, 19.2849217 ], [ 166.6341769, 19.2846839 ], [ 166.6373032, 19.2840631 ], [ 166.6380072, 19.2839043 ], [ 166.638557, 19.2839651 ], [ 166.639211499999988, 19.2839752 ], [ 166.6396111, 19.2840106 ], [ 166.6399571, 19.2839853 ], [ 166.6403702, 19.2838309 ], [ 166.641032700000011, 19.2835018 ], [ 166.641263400000014, 19.2833904 ], [ 166.642038500000012, 19.2832283 ], [ 166.6426634, 19.2830899 ], [ 166.6431704, 19.2829347 ], [ 166.643430599999988, 19.2829043 ], [ 166.643543200000011, 19.2829347 ], [ 166.643773900000014, 19.2831676 ], [ 166.6438866, 19.283203 ], [ 166.6442835, 19.283203 ], [ 166.6446134, 19.283103 ], [ 166.644692600000013, 19.2830461 ], [ 166.644712700000014, 19.282998 ], [ 166.6447432, 19.2829195 ], [ 166.644758599999989, 19.2828802 ], [ 166.6447777, 19.2828704 ], [ 166.644830399999989, 19.2828761 ], [ 166.6448652, 19.2829138 ], [ 166.6449323, 19.2829464 ], [ 166.6449849, 19.2829454 ], [ 166.645014800000013, 19.2829299 ], [ 166.6452641, 19.2827796 ], [ 166.64563960000001, 19.2824197 ], [ 166.6462436, 19.2823456 ], [ 166.6466341, 19.2828164 ], [ 166.646673, 19.2830749 ], [ 166.6470382, 19.2833283 ], [ 166.6470546, 19.2833511 ], [ 166.6470573, 19.2833733 ], [ 166.6470194, 19.2834236 ], [ 166.646983799999987, 19.283453 ], [ 166.646947, 19.2834587 ], [ 166.646904, 19.2834309 ], [ 166.64660520000001, 19.2830809 ], [ 166.646110099999987, 19.2824853 ], [ 166.6460256, 19.2824384 ], [ 166.645972, 19.2824321 ], [ 166.6457011, 19.2824802 ], [ 166.6456126, 19.2825157 ], [ 166.64557640000001, 19.2825574 ], [ 166.6452679, 19.2830929 ], [ 166.6452692, 19.2831676 ], [ 166.6452974, 19.2832043 ], [ 166.645427500000011, 19.2832473 ], [ 166.645508, 19.2833473 ], [ 166.6455254, 19.2834119 ], [ 166.6453966, 19.2835714 ], [ 166.6453591, 19.2836651 ], [ 166.6453966, 19.2838208 ], [ 166.6455522, 19.2840106 ], [ 166.6461416, 19.2841796 ], [ 166.646180500000014, 19.2842379 ], [ 166.646188599999988, 19.2842929 ], [ 166.646111499999989, 19.2844524 ], [ 166.6461128, 19.2845372 ], [ 166.6462027, 19.2847638 ], [ 166.6463099, 19.2848069 ], [ 166.6464373, 19.2848056 ], [ 166.646649200000013, 19.2847221 ], [ 166.6467029, 19.2846727 ], [ 166.646719, 19.2846385 ], [ 166.646550499999989, 19.2840937 ], [ 166.6458359, 19.283035 ], [ 166.6456756, 19.2828441 ], [ 166.6456736, 19.2828226 ], [ 166.645682599999986, 19.2828005 ], [ 166.645705099999986, 19.2828008 ], [ 166.6457316, 19.2828128 ], [ 166.6460784, 19.2831359 ], [ 166.646466800000013, 19.2837246 ], [ 166.6467592, 19.2844385 ], [ 166.6468209, 19.2845828 ], [ 166.6469282, 19.2846765 ], [ 166.6475424, 19.2848081 ], [ 166.647601400000013, 19.284798 ], [ 166.647628200000014, 19.2847322 ], [ 166.6472206, 19.2839056 ], [ 166.647211199999987, 19.2838448 ], [ 166.6472326, 19.2837752 ], [ 166.6473238, 19.2836727 ], [ 166.6477114, 19.2842157 ], [ 166.64839, 19.2852183 ], [ 166.648406099999988, 19.2860221 ], [ 166.6483685, 19.2862056 ], [ 166.648316200000011, 19.2862537 ], [ 166.648103600000013, 19.2862597 ], [ 166.6477798, 19.2862765 ], [ 166.647596099999987, 19.2862601 ], [ 166.64751960000001, 19.2862158 ], [ 166.6472286, 19.2857664 ], [ 166.6470838, 19.2856385 ], [ 166.6469416, 19.2853056 ], [ 166.646888, 19.285236 ], [ 166.6467217, 19.2852284 ], [ 166.6462764, 19.2854487 ], [ 166.646190600000011, 19.2855879 ], [ 166.6463267, 19.2865502 ], [ 166.6461651, 19.286717 ], [ 166.6459508, 19.2875437 ], [ 166.6463192, 19.2880227 ], [ 166.6468461, 19.2882022 ], [ 166.64685080000001, 19.2883392 ], [ 166.646262900000011, 19.2882392 ], [ 166.646158899999989, 19.2884523 ], [ 166.6465787, 19.2885784 ], [ 166.64654010000001, 19.2890495 ], [ 166.6460428, 19.289346 ], [ 166.6455756, 19.2896299 ], [ 166.64518480000001, 19.2898946 ], [ 166.6451432, 19.2899249 ], [ 166.6451237, 19.2899506 ], [ 166.6449963, 19.2902455 ], [ 166.644936699999988, 19.2903132 ], [ 166.6448924, 19.290331 ], [ 166.6447657, 19.290324 ], [ 166.6447268, 19.2903373 ], [ 166.644692600000013, 19.2903936 ], [ 166.6446946, 19.2904367 ], [ 166.644803200000013, 19.2905696 ], [ 166.6448086, 19.2906037 ], [ 166.6447978, 19.2906639 ], [ 166.6445885, 19.2909207 ], [ 166.6444391, 19.2910778 ], [ 166.6443466, 19.2913968 ], [ 166.6442768, 19.2917411 ], [ 166.64427950000001, 19.2921702 ], [ 166.6442983, 19.2925132 ], [ 166.6442741, 19.2926562 ], [ 166.643875799999989, 19.2936663 ], [ 166.6438785, 19.2939144 ], [ 166.6439241, 19.2940005 ], [ 166.643991199999988, 19.2940625 ], [ 166.644473299999987, 19.2942872 ], [ 166.6445756, 19.2943287 ], [ 166.644622199999986, 19.2943695 ], [ 166.6446436, 19.294415 ], [ 166.644659, 19.2944593 ], [ 166.6446649, 19.2945684 ], [ 166.644651900000014, 19.2946667 ], [ 166.6446228, 19.2947498 ], [ 166.644594, 19.2947701 ], [ 166.6445444, 19.2947897 ], [ 166.644448899999986, 19.2947846 ], [ 166.6443875, 19.2947543 ], [ 166.6442218, 19.2947239 ], [ 166.6436076, 19.2946979 ], [ 166.6435674, 19.2947131 ], [ 166.6435406, 19.2947701 ], [ 166.6435339, 19.2950296 ], [ 166.643477499999989, 19.2952574 ], [ 166.643390399999987, 19.2954106 ], [ 166.6431503, 19.2958245 ], [ 166.643146300000012, 19.2959283 ], [ 166.643194599999987, 19.2959941 ], [ 166.643543200000011, 19.29617 ], [ 166.643713600000012, 19.2963194 ], [ 166.643795399999988, 19.296489 ], [ 166.643795399999988, 19.2965839 ], [ 166.6437551, 19.2967118 ], [ 166.6435124, 19.2970181 ], [ 166.6433917, 19.2971168 ], [ 166.64332060000001, 19.2971358 ], [ 166.643139600000012, 19.2970991 ], [ 166.642924, 19.2970118 ], [ 166.64287, 19.2970045 ], [ 166.6428204, 19.2970232 ], [ 166.6427654, 19.2970624 ], [ 166.6426903, 19.2971434 ], [ 166.642359, 19.2975143 ], [ 166.6422115, 19.2976396 ], [ 166.6421995, 19.2976953 ], [ 166.6422062, 19.2977408 ], [ 166.642275899999987, 19.2978307 ], [ 166.6422947, 19.2978877 ], [ 166.642275899999987, 19.2979206 ], [ 166.6422088, 19.297951 ], [ 166.6421163, 19.2979586 ], [ 166.6418602, 19.2979649 ], [ 166.6417502, 19.2980623 ], [ 166.641723399999989, 19.298113 ], [ 166.6417314, 19.2981737 ], [ 166.6418528, 19.2984161 ], [ 166.641876200000013, 19.2984813 ], [ 166.641883, 19.2985528 ], [ 166.6418387, 19.2987212 ], [ 166.641805799999986, 19.2987427 ], [ 166.6417716, 19.2987376 ], [ 166.6415678, 19.2986148 ], [ 166.6414753, 19.2986256 ], [ 166.6414317, 19.2986509 ], [ 166.6414196, 19.298737 ], [ 166.6413894, 19.29948 ], [ 166.6414163, 19.2998559 ], [ 166.6415678, 19.3003913 ], [ 166.641659, 19.3005445 ], [ 166.6419674, 19.3008609 ], [ 166.642302300000011, 19.301246 ], [ 166.6428579, 19.3016013 ], [ 166.643375600000013, 19.3018747 ], [ 166.643673299999989, 19.3021038 ], [ 166.6439, 19.3023013 ], [ 166.6440059, 19.3025481 ], [ 166.6440421, 19.3027797 ], [ 166.6440849, 19.3032899 ], [ 166.6440958, 19.3039341 ], [ 166.6440609, 19.3041062 ], [ 166.6438592, 19.3043825 ], [ 166.643389, 19.3045618 ], [ 166.642736500000012, 19.3049091 ], [ 166.6423237, 19.3051461 ], [ 166.6420823, 19.3052492 ], [ 166.6417126, 19.3054187 ], [ 166.6416188, 19.305444 ], [ 166.6415383, 19.3054466 ], [ 166.641459200000014, 19.3054149 ], [ 166.6409784, 19.3051396 ], [ 166.6409133, 19.3051169 ], [ 166.640848299999988, 19.305108 ], [ 166.640492200000011, 19.3051124 ], [ 166.6403152, 19.3050846 ], [ 166.640175699999986, 19.3050377 ], [ 166.6400108, 19.3049251 ], [ 166.63985790000001, 19.3047302 ], [ 166.6397613, 19.3045682 ], [ 166.63967550000001, 19.3044606 ], [ 166.639467200000013, 19.3043058 ], [ 166.638958, 19.3041423 ], [ 166.638763, 19.3040967 ], [ 166.6385554, 19.3040543 ], [ 166.6382942, 19.3039758 ], [ 166.6381735, 19.3039296 ], [ 166.6380896, 19.3038841 ], [ 166.638001800000012, 19.3038341 ], [ 166.6379368, 19.3037784 ], [ 166.63788310000001, 19.3036929 ], [ 166.6377101, 19.3032645 ], [ 166.637665199999986, 19.3029987 ], [ 166.6376511, 19.3029082 ], [ 166.6375961, 19.3027956 ], [ 166.6375244, 19.3027437 ], [ 166.637380900000011, 19.3026608 ], [ 166.6371777, 19.3025177 ], [ 166.6370556, 19.3024 ], [ 166.636867200000012, 19.3022943 ], [ 166.6366956, 19.3022095 ], [ 166.63658430000001, 19.302176 ], [ 166.6363455, 19.3021551 ], [ 166.63603710000001, 19.3021545 ], [ 166.6358319, 19.3021279 ], [ 166.635671, 19.3020557 ], [ 166.635558300000014, 19.3020228 ], [ 166.6354591, 19.3020481 ], [ 166.6352794, 19.3021924 ], [ 166.6349816, 19.3024063 ], [ 166.6347992, 19.3026165 ], [ 166.634572600000013, 19.3031506 ], [ 166.6344492, 19.3035531 ], [ 166.6342898, 19.3040042 ], [ 166.6343086, 19.3043454 ], [ 166.6342594, 19.3046986 ], [ 166.6342109, 19.3049019 ], [ 166.6343235, 19.3053235 ], [ 166.6344493, 19.3056181 ], [ 166.6344906, 19.3058666 ], [ 166.634408799999989, 19.30596 ], [ 166.6343899, 19.3060634 ], [ 166.6340109, 19.3063518 ], [ 166.6339825, 19.3062893 ], [ 166.6340248, 19.306089 ], [ 166.633948299999986, 19.3060325 ], [ 166.6337732, 19.3061088 ], [ 166.6336642, 19.3060622 ], [ 166.6335818, 19.3060514 ], [ 166.6334023, 19.3061152 ], [ 166.6328537, 19.3068474 ], [ 166.6323427, 19.3085001 ], [ 166.632610699999987, 19.3085464 ], [ 166.6328567, 19.308696 ], [ 166.6332535, 19.3085478 ], [ 166.6334522, 19.3085833 ], [ 166.6335952, 19.308424 ], [ 166.63360320000001, 19.3082787 ], [ 166.6338996, 19.3082374 ], [ 166.634415100000012, 19.3076381 ], [ 166.6346043, 19.3077112 ], [ 166.634566, 19.307552 ], [ 166.6347279, 19.3073516 ], [ 166.6360129, 19.3074375 ], [ 166.6365185, 19.3075413 ], [ 166.6369343, 19.3076906 ], [ 166.637240100000014, 19.3078488 ], [ 166.637527, 19.3080336 ], [ 166.6377912, 19.3082741 ], [ 166.6382338, 19.3085576 ], [ 166.6387206, 19.3087918 ], [ 166.63931070000001, 19.3089917 ], [ 166.6412809, 19.3094519 ], [ 166.6430163, 19.3097744 ], [ 166.645328299999989, 19.3097898 ], [ 166.646727, 19.3095296 ], [ 166.6470972, 19.309398 ], [ 166.6473684, 19.3092036 ], [ 166.6477946, 19.3086338 ], [ 166.64809360000001, 19.307699 ], [ 166.64828, 19.3066958 ], [ 166.6482627, 19.3056529 ], [ 166.6481143, 19.3040156 ], [ 166.6480583, 19.3025525 ], [ 166.6482777, 19.301147 ], [ 166.6486009, 19.2997917 ], [ 166.64947, 19.2975577 ], [ 166.6502834, 19.2958354 ], [ 166.651192400000014, 19.294386 ], [ 166.6521067, 19.2927463 ], [ 166.6526292, 19.2918151 ], [ 166.65317060000001, 19.2902931 ], [ 166.653417100000013, 19.2889037 ], [ 166.6535318, 19.2879753 ], [ 166.653609100000011, 19.28575 ], [ 166.6536434, 19.282506 ], [ 166.654079, 19.2782486 ], [ 166.65449670000001, 19.2767955 ], [ 166.6547931, 19.2759483 ], [ 166.6552591, 19.274481 ], [ 166.6556936, 19.2735644 ], [ 166.6562012, 19.272495 ], [ 166.6567809, 19.2707302 ], [ 166.6573506, 19.270462 ], [ 166.6573812, 19.270318 ], [ 166.657293399999986, 19.2701883 ], [ 166.6570959, 19.2701087 ], [ 166.6563052, 19.2700438 ], [ 166.6561496, 19.2699818 ], [ 166.655905499999989, 19.2699881 ], [ 166.6556789, 19.2700464 ], [ 166.654864800000013, 19.270478 ], [ 166.653663200000011, 19.2712072 ], [ 166.6533762, 19.271344 ], [ 166.6529578, 19.2714832 ], [ 166.6524589, 19.2716022 ], [ 166.6520432, 19.2717516 ], [ 166.6514611, 19.2719871 ], [ 166.6502783, 19.272658 ], [ 166.6497767, 19.2728454 ], [ 166.64919470000001, 19.2731416 ], [ 166.6479769, 19.2736936 ], [ 166.6473171, 19.2740025 ], [ 166.6460672, 19.2743936 ], [ 166.6440421, 19.2753114 ], [ 166.6426635, 19.2760735 ], [ 166.6416925, 19.2765672 ], [ 166.640289700000011, 19.2772736 ], [ 166.6386616, 19.278023 ], [ 166.6376933, 19.2784813 ], [ 166.6366392, 19.2790838 ], [ 166.635268599999989, 19.2797041 ], [ 166.634045500000013, 19.2801978 ], [ 166.6328895, 19.2805649 ], [ 166.6320285, 19.2808156 ], [ 166.6309288, 19.2810409 ], [ 166.6297916, 19.2813422 ], [ 166.628280499999988, 19.2819312 ], [ 166.6279404, 19.2822681 ], [ 166.6274735, 19.2825826 ], [ 166.6239577, 19.2835146 ], [ 166.623120300000011, 19.2838571 ], [ 166.622066, 19.2841755 ], [ 166.6210551, 19.2844325 ], [ 166.619139100000012, 19.2851953 ], [ 166.6178864, 19.2860711 ], [ 166.6175986, 19.2865405 ], [ 166.6171994, 19.286776 ], [ 166.6169276, 19.28711 ], [ 166.616320800000011, 19.2876292 ], [ 166.6159154, 19.2878964 ], [ 166.6153649, 19.2883683 ], [ 166.6151176, 19.2886137 ], [ 166.615042100000011, 19.2886885 ], [ 166.6146632, 19.2886642 ], [ 166.6143796, 19.2886588 ], [ 166.6142381, 19.2886541 ], [ 166.6140591, 19.2886879 ] ] ] ] } }
]
}
