{
"type": "FeatureCollection",
"name": "165_-10",
"crs": { "type": "name", "properties": { "name": "urn:ogc:def:crs:OGC:1.3:CRS84" } },
"xy_coordinate_resolution": 1e-15,
"features": [
{ "type": "Feature", "properties": { "FID": 280504, "id": 2504, "left": 165.0, "top": -5.0, "right": 170.0, "bottom": -10.0, "row_index": 19, "col_index": 69, "min_lon": 165.0, "min_lat": -10.0, "tile_id": "165_-10" }, "geometry": { "type": "MultiPolygon", "coordinates": [ [ [ [ 167.087121599999989, -9.7818327 ], [ 167.086681700000014, -9.7819226 ], [ 167.086435, -9.7818063 ], [ 167.0861936, -9.7818961 ], [ 167.0860863, -9.7818063 ], [ 167.08624180000001, -9.7813834 ], [ 167.0860434, -9.7807384 ], [ 167.0854962, -9.7801992 ], [ 167.085034799999988, -9.7800723 ], [ 167.0847398, -9.7797234 ], [ 167.0837742, -9.7791102 ], [ 167.0840746, -9.7787454 ], [ 167.0843911, -9.7782062 ], [ 167.084670100000011, -9.7780952 ], [ 167.0849383, -9.7781216 ], [ 167.0852387, -9.7779049 ], [ 167.085523, -9.7778361 ], [ 167.0857269, -9.7775401 ], [ 167.0863867, -9.7772969 ], [ 167.0863223, -9.776874 ], [ 167.0865154, -9.7767101 ], [ 167.0869553, -9.7766678 ], [ 167.0872396, -9.7767524 ], [ 167.087572200000011, -9.7773498 ], [ 167.0876902, -9.7778467 ], [ 167.0880872, -9.7780159 ], [ 167.0882696, -9.7782855 ], [ 167.0885807, -9.7782538 ], [ 167.0887577, -9.7784652 ], [ 167.088902600000011, -9.7789093 ], [ 167.088977699999987, -9.7791631 ], [ 167.089133299999986, -9.7793269 ], [ 167.0893532, -9.7794432 ], [ 167.0893103, -9.7796864 ], [ 167.089551699999987, -9.7797128 ], [ 167.0896482, -9.7800247 ], [ 167.0903993, -9.7806644 ], [ 167.090544099999988, -9.7811878 ], [ 167.0908445, -9.7810715 ], [ 167.0911395, -9.7811455 ], [ 167.0911127, -9.7813199 ], [ 167.0912683, -9.7813834 ], [ 167.0914668, -9.7812036 ], [ 167.0916116, -9.7813411 ], [ 167.0915526, -9.78169 ], [ 167.091981800000013, -9.7826257 ], [ 167.0923841, -9.7826151 ], [ 167.0924163, -9.7828424 ], [ 167.092013900000012, -9.782964 ], [ 167.09175110000001, -9.7831332 ], [ 167.0912683, -9.7829217 ], [ 167.0901418, -9.7824248 ], [ 167.0895839, -9.7821816 ], [ 167.0889187, -9.7823402 ], [ 167.0884734, -9.7821763 ], [ 167.0884654, -9.7820177 ], [ 167.087121599999989, -9.7818327 ] ] ] ] } },
{ "type": "Feature", "properties": { "FID": 280505, "id": 2504, "left": 165.0, "top": -5.0, "right": 170.0, "bottom": -10.0, "row_index": 19, "col_index": 69, "min_lon": 165.0, "min_lat": -10.0, "tile_id": "165_-10" }, "geometry": { "type": "MultiPolygon", "coordinates": [ [ [ [ 167.0685071, -9.7667502 ], [ 167.067402, -9.7660576 ], [ 167.0668441, -9.7653069 ], [ 167.066431, -9.7645245 ], [ 167.066178900000011, -9.7638478 ], [ 167.0656478, -9.7632874 ], [ 167.0645964, -9.7627984 ], [ 167.0639902, -9.7618547 ], [ 167.063655, -9.7613551 ], [ 167.063435, -9.7607022 ], [ 167.0632607, -9.7603321 ], [ 167.0630917, -9.7601444 ], [ 167.0628369, -9.7597691 ], [ 167.0627457, -9.7597664 ], [ 167.0626035, -9.7596316 ], [ 167.0626277, -9.7593593 ], [ 167.063081, -9.7596395 ], [ 167.0633331, -9.7596607 ], [ 167.0634806, -9.7598378 ], [ 167.0637166, -9.7599515 ], [ 167.0643014, -9.761178 ], [ 167.0646286, -9.7617965 ], [ 167.065057700000011, -9.7620397 ], [ 167.065234800000013, -9.7626213 ], [ 167.065604900000011, -9.7622776 ], [ 167.0659351, -9.7621024 ], [ 167.0661202, -9.7621319 ], [ 167.066280799999987, -9.7619234 ], [ 167.0665383, -9.7618811 ], [ 167.0664898, -9.7621295 ], [ 167.0668656, -9.7622988 ], [ 167.0671391, -9.7622935 ], [ 167.0676488, -9.7624098 ], [ 167.0677882, -9.7623146 ], [ 167.0681262, -9.7623199 ], [ 167.0680618, -9.7624732 ], [ 167.0682549, -9.7625737 ], [ 167.0686465, -9.7624521 ], [ 167.068893300000013, -9.7629226 ], [ 167.069445800000011, -9.7637156 ], [ 167.069413700000013, -9.7639562 ], [ 167.069706, -9.7643289 ], [ 167.0695987, -9.764958 ], [ 167.0696819, -9.7652435 ], [ 167.069639, -9.7654814 ], [ 167.0697463, -9.7654972 ], [ 167.069791900000013, -9.7653307 ], [ 167.0700976, -9.765151 ], [ 167.0703229, -9.7651563 ], [ 167.0704007, -9.7650664 ], [ 167.0705241, -9.7650373 ], [ 167.0705777, -9.7651007 ], [ 167.070797700000014, -9.7653756 ], [ 167.0712644, -9.7653281 ], [ 167.071479, -9.7652223 ], [ 167.071688200000011, -9.7653228 ], [ 167.071715, -9.765603 ], [ 167.0718116, -9.7657721 ], [ 167.0720315, -9.7656506 ], [ 167.0721173, -9.765751 ], [ 167.0721227, -9.7663431 ], [ 167.072348, -9.7665123 ], [ 167.072498200000013, -9.7670832 ], [ 167.0729005, -9.7677494 ], [ 167.073259900000011, -9.767945 ], [ 167.073876899999988, -9.7693142 ], [ 167.0739949, -9.7695257 ], [ 167.074225500000011, -9.7696103 ], [ 167.0744508, -9.7695257 ], [ 167.0745689, -9.7695891 ], [ 167.0747244, -9.7695521 ], [ 167.0751482, -9.7691715 ], [ 167.075513, -9.7691345 ], [ 167.0756739, -9.7691926 ], [ 167.075631, -9.769494 ], [ 167.0756793, -9.7699539 ], [ 167.075947500000012, -9.7703874 ], [ 167.075920700000012, -9.7705989 ], [ 167.0768005, -9.7713866 ], [ 167.07704720000001, -9.7714236 ], [ 167.07725640000001, -9.7715822 ], [ 167.0773691, -9.7714817 ], [ 167.0777553, -9.7714659 ], [ 167.0779914, -9.7713707 ], [ 167.0782113, -9.7715716 ], [ 167.0782596, -9.7718412 ], [ 167.0779645, -9.7723223 ], [ 167.0779914, -9.7727399 ], [ 167.0778894, -9.7732051 ], [ 167.0777339, -9.7735963 ], [ 167.078114699999986, -9.774273 ], [ 167.07801280000001, -9.7744475 ], [ 167.0782542, -9.7748017 ], [ 167.0780236, -9.7749999 ], [ 167.077865300000013, -9.7749497 ], [ 167.077817, -9.7747356 ], [ 167.0776051, -9.7745955 ], [ 167.0771894, -9.7745559 ], [ 167.0770258, -9.7744396 ], [ 167.0768112, -9.7737391 ], [ 167.0765001, -9.7734589 ], [ 167.0760012, -9.7729355 ], [ 167.0757222, -9.7728774 ], [ 167.0755345, -9.7727294 ], [ 167.075443299999989, -9.7724122 ], [ 167.075625699999989, -9.7722641 ], [ 167.075550600000014, -9.7719681 ], [ 167.0730829, -9.7704508 ], [ 167.0710444, -9.7694464 ], [ 167.069333199999988, -9.7687697 ], [ 167.068920100000014, -9.7684472 ], [ 167.068737700000014, -9.7677652 ], [ 167.0686734, -9.7669035 ], [ 167.0685071, -9.7667502 ] ] ] ] } },
{ "type": "Feature", "properties": { "FID": 280506, "id": 2504, "left": 165.0, "top": -5.0, "right": 170.0, "bottom": -10.0, "row_index": 19, "col_index": 69, "min_lon": 165.0, "min_lat": -10.0, "tile_id": "165_-10" }, "geometry": { "type": "MultiPolygon", "coordinates": [ [ [ [ 167.092217799999986, -9.8065194 ], [ 167.090908899999988, -9.8051345 ], [ 167.0894712, -9.8031205 ], [ 167.088452, -9.8016562 ], [ 167.088634399999989, -9.8004034 ], [ 167.0894873, -9.8003981 ], [ 167.0900398, -9.800155 ], [ 167.090388499999989, -9.7988017 ], [ 167.0902973, -9.7984105 ], [ 167.089632099999989, -9.7983048 ], [ 167.0896536, -9.7977603 ], [ 167.089449800000011, -9.7973269 ], [ 167.0896268, -9.797163 ], [ 167.0898253, -9.7975647 ], [ 167.0903778, -9.797644 ], [ 167.0906728, -9.7979454 ], [ 167.090887400000014, -9.7979718 ], [ 167.0910644, -9.7978026 ], [ 167.091509699999989, -9.7979612 ], [ 167.0916116, -9.7982044 ], [ 167.0929313, -9.7979824 ], [ 167.0936233, -9.7973269 ], [ 167.0940846, -9.7973269 ], [ 167.0948142, -9.7975436 ], [ 167.095044800000011, -9.7973004 ], [ 167.0954418, -9.7974167 ], [ 167.0957261, -9.7971471 ], [ 167.0959032, -9.7972661 ], [ 167.0962036, -9.7972449 ], [ 167.0970297, -9.7975277 ], [ 167.0978826, -9.7976916 ], [ 167.0982447, -9.797311 ], [ 167.098523699999987, -9.7971921 ], [ 167.0987141, -9.7968881 ], [ 167.099062800000013, -9.7969357 ], [ 167.0992827, -9.797237 ], [ 167.100312699999989, -9.7972 ], [ 167.1009511, -9.7968881 ], [ 167.101154900000012, -9.797015 ], [ 167.1015036, -9.7969674 ], [ 167.101702100000011, -9.7967454 ], [ 167.1019757, -9.7966027 ], [ 167.1020561, -9.7963013 ], [ 167.102168799999987, -9.7964335 ], [ 167.1022171, -9.7966238 ], [ 167.1026355, -9.7965392 ], [ 167.102329700000013, -9.7968405 ], [ 167.103268500000013, -9.7976176 ], [ 167.10491, -9.7983577 ], [ 167.1054411, -9.7982308 ], [ 167.106192099999987, -9.7973903 ], [ 167.1064764, -9.7971947 ], [ 167.1066266, -9.7972952 ], [ 167.1062618, -9.7982837 ], [ 167.1062484, -9.7986748 ], [ 167.106428099999988, -9.7991189 ], [ 167.1071255, -9.8002184 ], [ 167.1074849, -9.8002554 ], [ 167.1078229, -9.8005779 ], [ 167.108257400000014, -9.8005144 ], [ 167.1083701, -9.8005831 ], [ 167.1088207, -9.8002448 ], [ 167.1089333, -9.8003453 ], [ 167.108531, -9.8008316 ], [ 167.1086812, -9.8008897 ], [ 167.108708, -9.8012333 ], [ 167.1085685, -9.8013708 ], [ 167.108600700000011, -9.8016192 ], [ 167.1084988, -9.8018465 ], [ 167.1085525, -9.8021108 ], [ 167.10836470000001, -9.8021954 ], [ 167.1082413, -9.8023434 ], [ 167.1082896, -9.8025601 ], [ 167.1083727, -9.8027716 ], [ 167.108607, -9.8027257 ], [ 167.10912110000001, -9.8024809 ], [ 167.1092981, -9.802539 ], [ 167.1090835, -9.8030412 ], [ 167.1086115, -9.8031575 ], [ 167.1085632, -9.8033478 ], [ 167.1084022, -9.8034059 ], [ 167.108016, -9.8047539 ], [ 167.107704899999987, -9.8056102 ], [ 167.1077371, -9.8063925 ], [ 167.107147, -9.8073387 ], [ 167.107109400000013, -9.8076665 ], [ 167.1072972, -9.8080841 ], [ 167.1071523, -9.8084224 ], [ 167.1071202, -9.8092893 ], [ 167.1066588, -9.8098443 ], [ 167.1064979, -9.8106478 ], [ 167.1065032, -9.8111182 ], [ 167.1061009, -9.8105103 ], [ 167.1052372, -9.8102725 ], [ 167.1040195, -9.8103888 ], [ 167.10329, -9.8102196 ], [ 167.1019762, -9.8102738 ], [ 167.0996475, -9.8101562 ], [ 167.0987302, -9.8101509 ], [ 167.0978987, -9.8102989 ], [ 167.097024299999987, -9.8105421 ], [ 167.0959461, -9.8105156 ], [ 167.0949215, -9.8111817 ], [ 167.0947713, -9.8109967 ], [ 167.0948464, -9.8106425 ], [ 167.095141399999989, -9.8102725 ], [ 167.095221900000013, -9.8098707 ], [ 167.0951843, -9.8095853 ], [ 167.0950288, -9.809358 ], [ 167.095114599999988, -9.8091994 ], [ 167.0949483, -9.8089827 ], [ 167.092217799999986, -9.8065194 ] ] ] ] } },
{ "type": "Feature", "properties": { "FID": 280507, "id": 2504, "left": 165.0, "top": -5.0, "right": 170.0, "bottom": -10.0, "row_index": 19, "col_index": 69, "min_lon": 165.0, "min_lat": -10.0, "tile_id": "165_-10" }, "geometry": { "type": "MultiPolygon", "coordinates": [ [ [ [ 167.182157600000011, -9.8963434 ], [ 167.18173920000001, -9.8959682 ], [ 167.1816963, -9.8956564 ], [ 167.1808594, -9.8952759 ], [ 167.1804491, -9.8954001 ], [ 167.180154, -9.8954001 ], [ 167.179856300000012, -9.895268 ], [ 167.1795559, -9.8949588 ], [ 167.1793681, -9.89461 ], [ 167.1790476, -9.8946761 ], [ 167.17883710000001, -9.8946206 ], [ 167.178078, -9.8941423 ], [ 167.1779372, -9.8941661 ], [ 167.1774557, -9.8938847 ], [ 167.1773297, -9.8931198 ], [ 167.1769756, -9.8925015 ], [ 167.1765035, -9.891936 ], [ 167.1759188, -9.8913283 ], [ 167.174733300000014, -9.8907707 ], [ 167.1741407, -9.8899641 ], [ 167.1735477, -9.8889237 ], [ 167.17275380000001, -9.8885802 ], [ 167.1720511, -9.8877082 ], [ 167.171026500000011, -9.8859326 ], [ 167.170897700000012, -9.8849549 ], [ 167.1707046, -9.8839613 ], [ 167.1702754, -9.8831052 ], [ 167.170034, -9.8815462 ], [ 167.169932100000011, -9.8811498 ], [ 167.1696585, -9.8808063 ], [ 167.1692616, -9.8800981 ], [ 167.1685374, -9.8796912 ], [ 167.167496699999987, -9.8793741 ], [ 167.1671963, -9.8781322 ], [ 167.166949499999987, -9.8778309 ], [ 167.1661609, -9.8776142 ], [ 167.1662414, -9.8771333 ], [ 167.1663111, -9.8770223 ], [ 167.1662313, -9.8767283 ], [ 167.165882, -9.8762085 ], [ 167.1660805, -9.8751885 ], [ 167.1657157, -9.8740046 ], [ 167.165356300000013, -9.8726358 ], [ 167.1654797, -9.8719699 ], [ 167.1658659, -9.8717427 ], [ 167.1661556, -9.8717532 ], [ 167.1669388, -9.8706487 ], [ 167.1672714, -9.8703369 ], [ 167.1673089, -9.8701043 ], [ 167.1670675, -9.8694437 ], [ 167.1668047, -9.8687989 ], [ 167.16519, -9.8663308 ], [ 167.163451900000013, -9.8640688 ], [ 167.1624112, -9.863646 ], [ 167.1618372, -9.8633289 ], [ 167.1612203, -9.8632813 ], [ 167.1608984, -9.863091 ], [ 167.1608019, -9.8625784 ], [ 167.160973500000011, -9.860718 ], [ 167.1612471, -9.8579538 ], [ 167.161252499999989, -9.8577636 ], [ 167.16110230000001, -9.8576367 ], [ 167.160469299999988, -9.8575099 ], [ 167.1600401, -9.8570236 ], [ 167.1599114, -9.8567118 ], [ 167.1595466, -9.8565268 ], [ 167.1593052, -9.8567964 ], [ 167.159085299999987, -9.8567594 ], [ 167.1589887, -9.8562467 ], [ 167.1587151, -9.8558979 ], [ 167.1587956, -9.8555543 ], [ 167.1591228, -9.8553746 ], [ 167.1592516, -9.8554856 ], [ 167.159401800000012, -9.8556706 ], [ 167.1596271, -9.8555279 ], [ 167.1596217, -9.8551897 ], [ 167.1601957, -9.8546981 ], [ 167.1609145, -9.8547457 ], [ 167.161590499999988, -9.8545131 ], [ 167.1617728, -9.8542964 ], [ 167.1618694, -9.8543704 ], [ 167.1618801, -9.8546876 ], [ 167.1620893, -9.8547193 ], [ 167.16222350000001, -9.8545554 ], [ 167.1623897, -9.8546083 ], [ 167.162507799999986, -9.854973 ], [ 167.1627867, -9.8553746 ], [ 167.1647447, -9.8553535 ], [ 167.1670407, -9.8556548 ], [ 167.167341099999987, -9.8554486 ], [ 167.1677005, -9.8555596 ], [ 167.1680599, -9.8553641 ], [ 167.1681672, -9.8557446 ], [ 167.1695191, -9.8559243 ], [ 167.1710855, -9.8562731 ], [ 167.172904, -9.8566008 ], [ 167.1748191, -9.8576156 ], [ 167.175988499999988, -9.8583872 ], [ 167.1780378, -9.8602952 ], [ 167.1791536, -9.861627 ], [ 167.1798992, -9.8630012 ], [ 167.1809024, -9.8641163 ], [ 167.1820342, -9.8654059 ], [ 167.1828228, -9.866056 ], [ 167.1830749, -9.8658868 ], [ 167.1834934, -9.8659714 ], [ 167.183691900000014, -9.8664101 ], [ 167.183826, -9.8668434 ], [ 167.1845394, -9.8673244 ], [ 167.1853763, -9.8673244 ], [ 167.185494299999988, -9.8672134 ], [ 167.185467499999987, -9.8670126 ], [ 167.1855962, -9.8668804 ], [ 167.1856821, -9.8669861 ], [ 167.185666, -9.867113 ], [ 167.185912699999989, -9.8673614 ], [ 167.1858483, -9.867948 ], [ 167.1874952, -9.8698506 ], [ 167.187902900000012, -9.8695864 ], [ 167.188257, -9.8698031 ], [ 167.1885359, -9.8703633 ], [ 167.1889543, -9.8707227 ], [ 167.1893567, -9.8708759 ], [ 167.1897215, -9.8706117 ], [ 167.189860900000014, -9.8707385 ], [ 167.1899736, -9.8707121 ], [ 167.1902311, -9.8702734 ], [ 167.19054220000001, -9.8700779 ], [ 167.190671, -9.8702523 ], [ 167.1906871, -9.8708231 ], [ 167.1904403, -9.8710239 ], [ 167.190172100000012, -9.8715366 ], [ 167.190354500000012, -9.8727468 ], [ 167.1901023, -9.8733757 ], [ 167.1895015, -9.8741103 ], [ 167.1893728, -9.8748608 ], [ 167.1886915, -9.8751779 ], [ 167.1880692, -9.8758121 ], [ 167.1881926, -9.87735 ], [ 167.188707599999987, -9.8789566 ], [ 167.189388900000012, -9.8807323 ], [ 167.1900219, -9.8816202 ], [ 167.190644099999986, -9.8818633 ], [ 167.1909767, -9.8814299 ], [ 167.1911055, -9.8810336 ], [ 167.191395199999988, -9.8807799 ], [ 167.191658, -9.8808222 ], [ 167.1918029, -9.8810653 ], [ 167.1916795, -9.8813454 ], [ 167.191422, -9.8816307 ], [ 167.19129860000001, -9.8820007 ], [ 167.19129860000001, -9.8825926 ], [ 167.191604399999989, -9.8839878 ], [ 167.191968, -9.8849712 ], [ 167.1921515, -9.8854675 ], [ 167.192317800000012, -9.8856419 ], [ 167.1924359, -9.8863871 ], [ 167.19235, -9.8865667 ], [ 167.1923983, -9.8872062 ], [ 167.192784499999988, -9.8893254 ], [ 167.1930796, -9.8903189 ], [ 167.1930098, -9.8908051 ], [ 167.1923554, -9.8912913 ], [ 167.1920121, -9.8915819 ], [ 167.191894, -9.891862 ], [ 167.1920764, -9.8927921 ], [ 167.192317800000012, -9.8934157 ], [ 167.1925592, -9.8936641 ], [ 167.192183699999987, -9.894071 ], [ 167.191765299999986, -9.8946365 ], [ 167.1915722, -9.8954926 ], [ 167.1914327, -9.8962958 ], [ 167.1912074, -9.8971149 ], [ 167.1905583, -9.8979499 ], [ 167.1900326, -9.898621 ], [ 167.1891421, -9.8990702 ], [ 167.1884286, -9.8994084 ], [ 167.1881282, -9.8997466 ], [ 167.1880263, -9.9003491 ], [ 167.1877581, -9.9005288 ], [ 167.1876347, -9.9007084 ], [ 167.187141200000013, -9.900756 ], [ 167.187007099999988, -9.9010942 ], [ 167.18670130000001, -9.9012792 ], [ 167.186567200000013, -9.9016174 ], [ 167.186223899999987, -9.9016227 ], [ 167.1859181, -9.9014324 ], [ 167.185885899999988, -9.9011682 ], [ 167.1860307, -9.9007983 ], [ 167.1853816, -9.8995775 ], [ 167.185000800000012, -9.8991601 ], [ 167.1848345, -9.8979288 ], [ 167.1843946, -9.8973369 ], [ 167.18418, -9.8970938 ], [ 167.183327100000014, -9.8967186 ], [ 167.182914, -9.8966446 ], [ 167.1826673, -9.8964279 ], [ 167.182157600000011, -9.8963434 ] ] ] ] } },
{ "type": "Feature", "properties": { "FID": 280508, "id": 2504, "left": 165.0, "top": -5.0, "right": 170.0, "bottom": -10.0, "row_index": 19, "col_index": 69, "min_lon": 165.0, "min_lat": -10.0, "tile_id": "165_-10" }, "geometry": { "type": "MultiPolygon", "coordinates": [ [ [ [ 167.1219796, -9.8195334 ], [ 167.122339, -9.8194752 ], [ 167.1224248, -9.8196232 ], [ 167.1228915, -9.8199245 ], [ 167.1230632, -9.8202628 ], [ 167.123251, -9.8202417 ], [ 167.1240985, -9.8210663 ], [ 167.12424870000001, -9.8213253 ], [ 167.124753, -9.8213306 ], [ 167.1246028, -9.8222661 ], [ 167.124753, -9.8222767 ], [ 167.1249139, -9.8223983 ], [ 167.124581299999988, -9.8229216 ], [ 167.1244365, -9.8228 ], [ 167.1245331, -9.8224723 ], [ 167.1242273, -9.8228317 ], [ 167.1237928, -9.8227683 ], [ 167.1232939, -9.8230749 ], [ 167.1232295, -9.8236034 ], [ 167.1228486, -9.8237462 ], [ 167.1226984, -9.8233603 ], [ 167.122778899999986, -9.8231119 ], [ 167.12228540000001, -9.8230749 ], [ 167.1220279, -9.8226784 ], [ 167.1221191, -9.8225674 ], [ 167.1219635, -9.8222556 ], [ 167.1215665, -9.8219966 ], [ 167.120976399999989, -9.8220124 ], [ 167.120778, -9.8221869 ], [ 167.1199465, -9.8215578 ], [ 167.1194744, -9.8208865 ], [ 167.1194851, -9.8205588 ], [ 167.1199948, -9.8201307 ], [ 167.1206009, -9.8199774 ], [ 167.1207565, -9.8201307 ], [ 167.1208531, -9.8201148 ], [ 167.1208638, -9.819914 ], [ 167.1210408, -9.8197237 ], [ 167.121400200000011, -9.8194382 ], [ 167.121942, -9.8193484 ], [ 167.1219796, -9.8195334 ] ] ] ] } },
{ "type": "Feature", "properties": { "FID": 280509, "id": 2504, "left": 165.0, "top": -5.0, "right": 170.0, "bottom": -10.0, "row_index": 19, "col_index": 69, "min_lon": 165.0, "min_lat": -10.0, "tile_id": "165_-10" }, "geometry": { "type": "MultiPolygon", "coordinates": [ [ [ [ 167.0812395, -9.775148 ], [ 167.0814192, -9.7752352 ], [ 167.081523800000014, -9.7751427 ], [ 167.081674, -9.7751215 ], [ 167.0817089, -9.7752643 ], [ 167.0818725, -9.7752748 ], [ 167.0820549, -9.7751215 ], [ 167.0822775, -9.7750739 ], [ 167.0824867, -9.7751717 ], [ 167.08255650000001, -9.7751321 ], [ 167.0825002, -9.7750343 ], [ 167.0825216, -9.7749338 ], [ 167.0826772, -9.7749286 ], [ 167.0827121, -9.775103 ], [ 167.0828649, -9.7751136 ], [ 167.0830286, -9.7750079 ], [ 167.083063399999986, -9.7750475 ], [ 167.0830178, -9.7752563 ], [ 167.0830956, -9.7753092 ], [ 167.0832431, -9.775251 ], [ 167.0835006, -9.7753806 ], [ 167.083637399999986, -9.7751982 ], [ 167.083766200000014, -9.775222 ], [ 167.0838842, -9.7754044 ], [ 167.084088, -9.7755524 ], [ 167.083988799999986, -9.7757348 ], [ 167.0841014, -9.7758141 ], [ 167.0841041, -9.7761233 ], [ 167.0839861, -9.7762026 ], [ 167.0838225, -9.7761075 ], [ 167.083645499999989, -9.776052 ], [ 167.0834389, -9.776126 ], [ 167.0834175, -9.7759647 ], [ 167.083192200000013, -9.7759251 ], [ 167.0830688, -9.7759568 ], [ 167.082915899999989, -9.7758854 ], [ 167.082805900000011, -9.7755682 ], [ 167.0825484, -9.7756607 ], [ 167.0825458, -9.7759039 ], [ 167.082636900000011, -9.7762476 ], [ 167.0826209, -9.7763824 ], [ 167.0824546, -9.7765145 ], [ 167.0823929, -9.7768264 ], [ 167.0822105, -9.7767577 ], [ 167.0819584, -9.7770432 ], [ 167.0815614, -9.7768925 ], [ 167.08143, -9.7767286 ], [ 167.0811027, -9.7767498 ], [ 167.080957899999987, -9.7768396 ], [ 167.0808506, -9.7768185 ], [ 167.0808533, -9.7767471 ], [ 167.080949800000013, -9.7766837 ], [ 167.0810223, -9.7764511 ], [ 167.0810276, -9.7762713 ], [ 167.0808184, -9.7763057 ], [ 167.08069230000001, -9.7761973 ], [ 167.0806682, -9.7760652 ], [ 167.0807675, -9.7759541 ], [ 167.0808104, -9.7757268 ], [ 167.0807433, -9.7756132 ], [ 167.0808077, -9.7753964 ], [ 167.0812395, -9.775148 ] ] ] ] } },
{ "type": "Feature", "properties": { "FID": 342689, "id": 2504, "left": 165.0, "top": -5.0, "right": 170.0, "bottom": -10.0, "row_index": 19, "col_index": 69, "min_lon": 165.0, "min_lat": -10.0, "tile_id": "165_-10" }, "geometry": { "type": "MultiPolygon", "coordinates": [ [ [ [ 167.234676, -9.9149786 ], [ 167.2348604, -9.9149949 ], [ 167.2350778, -9.91506 ], [ 167.2352567, -9.9152633 ], [ 167.2353228, -9.9155154 ], [ 167.235347499999989, -9.9160494 ], [ 167.235509900000011, -9.9162338 ], [ 167.235686, -9.916288 ], [ 167.235675, -9.9164317 ], [ 167.2353943, -9.916635 ], [ 167.235424599999988, -9.9167353 ], [ 167.2355787, -9.916719 ], [ 167.2357934, -9.9166323 ], [ 167.235892400000012, -9.9167109 ], [ 167.2359117, -9.9168492 ], [ 167.2356998, -9.9170335 ], [ 167.2354494, -9.9170308 ], [ 167.2353118, -9.9169549 ], [ 167.2352952, -9.9171935 ], [ 167.235331, -9.9172829 ], [ 167.235336499999988, -9.9174537 ], [ 167.2354549, -9.9175079 ], [ 167.2355071, -9.9176841 ], [ 167.2353833, -9.9178766 ], [ 167.2354824, -9.9180474 ], [ 167.2356503, -9.9181098 ], [ 167.2357383, -9.9181585 ], [ 167.235664, -9.9182914 ], [ 167.2352787, -9.9184974 ], [ 167.2350916, -9.9186818 ], [ 167.235064099999988, -9.9189203 ], [ 167.2349705, -9.9190016 ], [ 167.234711800000014, -9.9191209 ], [ 167.2345219, -9.9192971 ], [ 167.234131100000013, -9.9196496 ], [ 167.2340376, -9.9198339 ], [ 167.2339412, -9.919842 ], [ 167.2337844, -9.9196116 ], [ 167.2337321, -9.9194625 ], [ 167.233803599999987, -9.9192727 ], [ 167.234012799999988, -9.9191535 ], [ 167.2340541, -9.9189284 ], [ 167.2339963, -9.9187278 ], [ 167.233999, -9.918473 ], [ 167.234153099999986, -9.9183022 ], [ 167.234296199999989, -9.9181314 ], [ 167.234244, -9.9177167 ], [ 167.2340678, -9.9173399 ], [ 167.233899900000011, -9.9171718 ], [ 167.2333055, -9.9169441 ], [ 167.2330551, -9.9168085 ], [ 167.2329945, -9.9164859 ], [ 167.2330055, -9.9163016 ], [ 167.2330551, -9.916147 ], [ 167.233090800000014, -9.9161037 ], [ 167.2330881, -9.9160494 ], [ 167.2330661, -9.9159979 ], [ 167.232956, -9.9159356 ], [ 167.2329037, -9.9158353 ], [ 167.2328872, -9.9155235 ], [ 167.232956, -9.9150545 ], [ 167.2331211, -9.9146398 ], [ 167.2333358, -9.9142385 ], [ 167.233377100000013, -9.9136801 ], [ 167.2333853, -9.9131298 ], [ 167.2333578, -9.9129319 ], [ 167.233278, -9.9127529 ], [ 167.233178900000013, -9.9124195 ], [ 167.232978, -9.9121321 ], [ 167.2327551, -9.911739 ], [ 167.232675300000011, -9.9114056 ], [ 167.2327771, -9.911083 ], [ 167.2329147, -9.9109745 ], [ 167.2331596, -9.9109176 ], [ 167.2334761, -9.9109962 ], [ 167.2335835, -9.9111345 ], [ 167.2337651, -9.911308 ], [ 167.2338944, -9.9113812 ], [ 167.2341366, -9.9114896 ], [ 167.234274199999987, -9.9117661 ], [ 167.2345192, -9.9120915 ], [ 167.2346375, -9.9120915 ], [ 167.2348962, -9.9120183 ], [ 167.235149400000012, -9.9119098 ], [ 167.2353228, -9.9119668 ], [ 167.2354659, -9.9122921 ], [ 167.2355704, -9.9125794 ], [ 167.2356998, -9.9127096 ], [ 167.2357796, -9.9128451 ], [ 167.2356613, -9.9129291 ], [ 167.2356613, -9.9129996 ], [ 167.2358401, -9.9131162 ], [ 167.235953, -9.9135201 ], [ 167.2358264, -9.9138726 ], [ 167.235631, -9.9141138 ], [ 167.235523699999987, -9.9142656 ], [ 167.2353695, -9.9142738 ], [ 167.2352182, -9.9142873 ], [ 167.2350118, -9.9146614 ], [ 167.234621, -9.9148756 ], [ 167.234676, -9.9149786 ] ] ] ] } },
{ "type": "Feature", "properties": { "FID": 342690, "id": 2504, "left": 165.0, "top": -5.0, "right": 170.0, "bottom": -10.0, "row_index": 19, "col_index": 69, "min_lon": 165.0, "min_lat": -10.0, "tile_id": "165_-10" }, "geometry": { "type": "MultiPolygon", "coordinates": [ [ [ [ 167.2319042, -9.9102818 ], [ 167.2317804, -9.9101937 ], [ 167.2317157, -9.9099647 ], [ 167.2317722, -9.9098725 ], [ 167.232051500000011, -9.9097695 ], [ 167.2324381, -9.9096692 ], [ 167.23254, -9.909699 ], [ 167.2325744, -9.9097844 ], [ 167.232557899999989, -9.9099023 ], [ 167.232358299999987, -9.9101409 ], [ 167.2320377, -9.9102358 ], [ 167.2319042, -9.9102818 ] ] ] ] } },
{ "type": "Feature", "properties": { "FID": 342691, "id": 2504, "left": 165.0, "top": -5.0, "right": 170.0, "bottom": -10.0, "row_index": 19, "col_index": 69, "min_lon": 165.0, "min_lat": -10.0, "tile_id": "165_-10" }, "geometry": { "type": "MultiPolygon", "coordinates": [ [ [ [ 167.246074, -9.9330864 ], [ 167.246170400000011, -9.9329074 ], [ 167.2461621, -9.9327611 ], [ 167.246074, -9.9325903 ], [ 167.2458401, -9.9324683 ], [ 167.2455704, -9.9326228 ], [ 167.2453998, -9.9328126 ], [ 167.2453365, -9.9329454 ], [ 167.245262200000013, -9.9331324 ], [ 167.2451246, -9.9332463 ], [ 167.2450475, -9.9333493 ], [ 167.2448301, -9.9333845 ], [ 167.2446045, -9.9331108 ], [ 167.2442687, -9.932818 ], [ 167.24395770000001, -9.9324222 ], [ 167.2434734, -9.9315602 ], [ 167.2434376, -9.9310451 ], [ 167.2434954, -9.9305734 ], [ 167.243773299999987, -9.9301316 ], [ 167.244032, -9.9296274 ], [ 167.2442715, -9.9291747 ], [ 167.24431, -9.9289388 ], [ 167.2442357, -9.9280307 ], [ 167.2443072, -9.9278843 ], [ 167.2445467, -9.9278708 ], [ 167.2447861, -9.9279765 ], [ 167.2448274, -9.9281527 ], [ 167.2448852, -9.9284102 ], [ 167.2449374, -9.9286108 ], [ 167.2450503, -9.9288331 ], [ 167.2449512, -9.9290554 ], [ 167.2449485, -9.9292316 ], [ 167.244976, -9.9294457 ], [ 167.245174100000014, -9.9295515 ], [ 167.245394299999987, -9.9295813 ], [ 167.2457576, -9.9297358 ], [ 167.2460107, -9.9299798 ], [ 167.2461208, -9.9303024 ], [ 167.246445599999987, -9.9308906 ], [ 167.246596899999986, -9.9312593 ], [ 167.2466437, -9.9315114 ], [ 167.246472899999986, -9.9319113 ], [ 167.2462363, -9.932139 ], [ 167.2462528, -9.9322745 ], [ 167.2463381, -9.9323775 ], [ 167.2466766, -9.9323829 ], [ 167.2469078, -9.9322203 ], [ 167.2471775, -9.9322474 ], [ 167.2474059, -9.9323965 ], [ 167.2475545, -9.9325998 ], [ 167.2475765, -9.9327624 ], [ 167.2474967, -9.9329007 ], [ 167.2474554, -9.9330091 ], [ 167.2474637, -9.9331474 ], [ 167.2474527, -9.9332883 ], [ 167.2472765, -9.9334266 ], [ 167.246839, -9.9334781 ], [ 167.2465197, -9.9334971 ], [ 167.2461291, -9.9332815 ], [ 167.246074, -9.9330864 ] ] ] ] } },
{ "type": "Feature", "properties": { "FID": 342692, "id": 2504, "left": 165.0, "top": -5.0, "right": 170.0, "bottom": -10.0, "row_index": 19, "col_index": 69, "min_lon": 165.0, "min_lat": -10.0, "tile_id": "165_-10" }, "geometry": { "type": "MultiPolygon", "coordinates": [ [ [ [ 167.2424947, -9.9215609 ], [ 167.2424369, -9.9216368 ], [ 167.2424452, -9.9217615 ], [ 167.2423681, -9.9218943 ], [ 167.2421865, -9.921954 ], [ 167.241993799999989, -9.9219052 ], [ 167.2416801, -9.9218781 ], [ 167.2414709, -9.9218998 ], [ 167.241435200000012, -9.9219865 ], [ 167.2414434, -9.9222115 ], [ 167.2413333, -9.9223389 ], [ 167.2410113, -9.9225694 ], [ 167.240854500000012, -9.9226805 ], [ 167.240615100000014, -9.9227103 ], [ 167.2403536, -9.9225992 ], [ 167.2399491, -9.9225965 ], [ 167.2398637, -9.922629 ], [ 167.2398637, -9.9227944 ], [ 167.23978120000001, -9.9229922 ], [ 167.2396436, -9.9230682 ], [ 167.23929960000001, -9.9230492 ], [ 167.238807, -9.9227645 ], [ 167.2387051, -9.9226588 ], [ 167.238773900000012, -9.922366 ], [ 167.239005100000014, -9.9219865 ], [ 167.239517, -9.9217208 ], [ 167.2396794, -9.9216504 ], [ 167.239828, -9.9216992 ], [ 167.2399298, -9.9218347 ], [ 167.2401307, -9.9218672 ], [ 167.2404995, -9.9216395 ], [ 167.240865500000012, -9.9214958 ], [ 167.2409921, -9.9215284 ], [ 167.2412205, -9.9216504 ], [ 167.2414297, -9.9216449 ], [ 167.2417021, -9.9214958 ], [ 167.2420654, -9.9211516 ], [ 167.2422971, -9.9207918 ], [ 167.2423762, -9.9206526 ], [ 167.242499400000014, -9.9205661 ], [ 167.242725400000012, -9.9204342 ], [ 167.2432356, -9.9201879 ], [ 167.2435528, -9.9200819 ], [ 167.243912200000011, -9.9200181 ], [ 167.2441503, -9.9201537 ], [ 167.2441998, -9.9201686 ], [ 167.244241100000011, -9.9201496 ], [ 167.244285100000013, -9.920132 ], [ 167.2443498, -9.9201523 ], [ 167.244418599999989, -9.920254 ], [ 167.2444902, -9.9203367 ], [ 167.2446512, -9.9203868 ], [ 167.244786, -9.920437 ], [ 167.2449401, -9.9205766 ], [ 167.2450378, -9.9208179 ], [ 167.2451341, -9.9211255 ], [ 167.2451383, -9.921356 ], [ 167.245172700000012, -9.9214874 ], [ 167.2451424, -9.9215417 ], [ 167.245064, -9.9215661 ], [ 167.2449388, -9.9215498 ], [ 167.244835599999988, -9.921524 ], [ 167.244744700000012, -9.9215593 ], [ 167.2444984, -9.9216745 ], [ 167.2444338, -9.921745 ], [ 167.244395200000014, -9.9218751 ], [ 167.2443429, -9.9219225 ], [ 167.244111800000013, -9.9219917 ], [ 167.244022300000012, -9.9219619 ], [ 167.2439508, -9.9219239 ], [ 167.2438022, -9.921928 ], [ 167.243699, -9.9219375 ], [ 167.2436343, -9.9218941 ], [ 167.2435462, -9.9217802 ], [ 167.243476, -9.9216813 ], [ 167.2433811, -9.921642 ], [ 167.243060500000013, -9.9216162 ], [ 167.242846, -9.9215487 ], [ 167.2425823, -9.9214921 ], [ 167.2424947, -9.9215609 ] ] ] ] } },
{ "type": "Feature", "properties": { "FID": 529680, "id": 2504, "left": 165.0, "top": -5.0, "right": 170.0, "bottom": -10.0, "row_index": 19, "col_index": 69, "min_lon": 165.0, "min_lat": -10.0, "tile_id": "165_-10" }, "geometry": { "type": "MultiPolygon", "coordinates": [ [ [ [ 167.1591496, -9.863605 ], [ 167.1591818, -9.8636275 ], [ 167.1591631, -9.8636909 ], [ 167.159232800000012, -9.8638019 ], [ 167.1592972, -9.8638521 ], [ 167.159299800000014, -9.8639551 ], [ 167.1592623, -9.8640133 ], [ 167.159324, -9.8641005 ], [ 167.159254299999986, -9.8641533 ], [ 167.1591336, -9.8640926 ], [ 167.159010200000012, -9.8637834 ], [ 167.159014899999988, -9.8636572 ], [ 167.1591496, -9.863605 ] ] ] ] } },
{ "type": "Feature", "properties": { "FID": 529681, "id": 2504, "left": 165.0, "top": -5.0, "right": 170.0, "bottom": -10.0, "row_index": 19, "col_index": 69, "min_lon": 165.0, "min_lat": -10.0, "tile_id": "165_-10" }, "geometry": { "type": "MultiPolygon", "coordinates": [ [ [ [ 167.1587259, -9.8629906 ], [ 167.1588466, -9.8629272 ], [ 167.1589646, -9.8629774 ], [ 167.159155, -9.8631412 ], [ 167.1592355, -9.8633209 ], [ 167.1592006, -9.8634874 ], [ 167.1591362, -9.8635825 ], [ 167.159023600000012, -9.8636195 ], [ 167.1589512, -9.863601 ], [ 167.1588922, -9.8634768 ], [ 167.1587285, -9.8634108 ], [ 167.1586266, -9.8631703 ], [ 167.1587259, -9.8629906 ] ] ] ] } },
{ "type": "Feature", "properties": { "FID": 529682, "id": 2504, "left": 165.0, "top": -5.0, "right": 170.0, "bottom": -10.0, "row_index": 19, "col_index": 69, "min_lon": 165.0, "min_lat": -10.0, "tile_id": "165_-10" }, "geometry": { "type": "MultiPolygon", "coordinates": [ [ [ [ 167.193321, -9.8934104 ], [ 167.1935999, -9.8932096 ], [ 167.193884200000014, -9.8931673 ], [ 167.193932499999988, -9.8930299 ], [ 167.1942759, -9.8928291 ], [ 167.1945924, -9.8929031 ], [ 167.1947265, -9.8931145 ], [ 167.195032200000014, -9.8931145 ], [ 167.195214600000014, -9.8935425 ], [ 167.1949679, -9.8938649 ], [ 167.194844499999988, -9.8942084 ], [ 167.194431400000013, -9.8944198 ], [ 167.1943134, -9.8942665 ], [ 167.1941042, -9.8944092 ], [ 167.193836, -9.8943564 ], [ 167.1934819, -9.8940921 ], [ 167.1933424, -9.8936377 ], [ 167.193321, -9.8934104 ] ] ] ] } },
{ "type": "Feature", "properties": { "FID": 529683, "id": 2504, "left": 165.0, "top": -5.0, "right": 170.0, "bottom": -10.0, "row_index": 19, "col_index": 69, "min_lon": 165.0, "min_lat": -10.0, "tile_id": "165_-10" }, "geometry": { "type": "MultiPolygon", "coordinates": [ [ [ [ 167.1749983, -9.8936178 ], [ 167.1750726, -9.8934963 ], [ 167.1753247, -9.8931871 ], [ 167.1754508, -9.8931938 ], [ 167.175529899999987, -9.8931066 ], [ 167.1756251, -9.8931066 ], [ 167.175819600000011, -9.8932043 ], [ 167.1758585, -9.893343 ], [ 167.1759745, -9.8935641 ], [ 167.1758824, -9.8936918 ], [ 167.1759319, -9.8937328 ], [ 167.175989, -9.8936903 ], [ 167.176084800000012, -9.8938345 ], [ 167.1759778, -9.8939006 ], [ 167.176058500000011, -9.894241 ], [ 167.1760569, -9.8943358 ], [ 167.1759734, -9.8944716 ], [ 167.1757772, -9.8945848 ], [ 167.175704700000011, -9.8946098 ], [ 167.175631, -9.8946186 ], [ 167.1755804, -9.8946319 ], [ 167.1755071, -9.8946232 ], [ 167.1753999, -9.8946021 ], [ 167.1752644, -9.8944779 ], [ 167.1750525, -9.8941318 ], [ 167.175091, -9.8940994 ], [ 167.175147900000013, -9.8940324 ], [ 167.1751415, -9.8939537 ], [ 167.1750891, -9.8938962 ], [ 167.175059, -9.893832 ], [ 167.1750227, -9.8937319 ], [ 167.1749983, -9.8936178 ] ] ] ] } },
{ "type": "Feature", "properties": { "FID": 529684, "id": 2504, "left": 165.0, "top": -5.0, "right": 170.0, "bottom": -10.0, "row_index": 19, "col_index": 69, "min_lon": 165.0, "min_lat": -10.0, "tile_id": "165_-10" }, "geometry": { "type": "MultiPolygon", "coordinates": [ [ [ [ 167.061839099999986, -9.7595946 ], [ 167.0617801, -9.7594651 ], [ 167.0616057, -9.7594809 ], [ 167.0614448, -9.7593329 ], [ 167.0614314, -9.7591029 ], [ 167.0616245, -9.7589708 ], [ 167.0620376, -9.7590051 ], [ 167.0624292, -9.7592219 ], [ 167.062461399999989, -9.7596078 ], [ 167.0623031, -9.7596845 ], [ 167.0621261, -9.7596871 ], [ 167.061839099999986, -9.7595946 ] ] ] ] } },
{ "type": "Feature", "properties": { "FID": 769658, "id": 2504, "left": 165.0, "top": -5.0, "right": 170.0, "bottom": -10.0, "row_index": 19, "col_index": 69, "min_lon": 165.0, "min_lat": -10.0, "tile_id": "165_-10" }, "geometry": { "type": "MultiPolygon", "coordinates": [ [ [ [ 167.173687199999989, -9.8908231 ], [ 167.173623099999986, -9.8908115 ], [ 167.173532200000011, -9.8906784 ], [ 167.1735203, -9.8906176 ], [ 167.17355280000001, -9.8905379 ], [ 167.173538400000012, -9.8905131 ], [ 167.1734901, -9.8905012 ], [ 167.1734636, -9.8904789 ], [ 167.173456, -9.8904454 ], [ 167.173469899999986, -9.8904145 ], [ 167.1736416, -9.8902885 ], [ 167.173696799999988, -9.8902758 ], [ 167.1737757, -9.8903044 ], [ 167.1739346, -9.890463 ], [ 167.1739796, -9.890581 ], [ 167.173976900000014, -9.8906697 ], [ 167.1738616, -9.8907205 ], [ 167.173687199999989, -9.8908231 ] ] ] ] } },
{ "type": "Feature", "properties": { "FID": 769659, "id": 2504, "left": 165.0, "top": -5.0, "right": 170.0, "bottom": -10.0, "row_index": 19, "col_index": 69, "min_lon": 165.0, "min_lat": -10.0, "tile_id": "165_-10" }, "geometry": { "type": "MultiPolygon", "coordinates": [ [ [ [ 167.1735726, -9.8900672 ], [ 167.1736589, -9.8901269 ], [ 167.173660500000011, -9.8901665 ], [ 167.1736342, -9.8901967 ], [ 167.173529, -9.8902073 ], [ 167.1734274, -9.8902314 ], [ 167.1733921, -9.8902917 ], [ 167.173358, -9.8903076 ], [ 167.173322399999989, -9.8902951 ], [ 167.1733063, -9.8902641 ], [ 167.1732587, -9.8902614 ], [ 167.1732174, -9.8902272 ], [ 167.173185, -9.8901634 ], [ 167.173183, -9.8901187 ], [ 167.1732135, -9.8900581 ], [ 167.1732633, -9.8900096 ], [ 167.1733562, -9.8899783 ], [ 167.1735276, -9.8899945 ], [ 167.1735726, -9.8900672 ] ] ] ] } },
{ "type": "Feature", "properties": { "FID": 769660, "id": 2504, "left": 165.0, "top": -5.0, "right": 170.0, "bottom": -10.0, "row_index": 19, "col_index": 69, "min_lon": 165.0, "min_lat": -10.0, "tile_id": "165_-10" }, "geometry": { "type": "MultiPolygon", "coordinates": [ [ [ [ 167.0784306, -9.7749761 ], [ 167.0784306, -9.7750059 ], [ 167.078389, -9.7750475 ], [ 167.0784165, -9.7750812 ], [ 167.0784078, -9.7751374 ], [ 167.0783219, -9.7751876 ], [ 167.078270300000014, -9.7751248 ], [ 167.0782951, -9.7750706 ], [ 167.0782884, -9.7750131 ], [ 167.07834410000001, -9.7749702 ], [ 167.0784098, -9.7749524 ], [ 167.0784306, -9.7749761 ] ] ] ] } },
{ "type": "Feature", "properties": { "FID": 769661, "id": 2504, "left": 165.0, "top": -5.0, "right": 170.0, "bottom": -10.0, "row_index": 19, "col_index": 69, "min_lon": 165.0, "min_lat": -10.0, "tile_id": "165_-10" }, "geometry": { "type": "MultiPolygon", "coordinates": [ [ [ [ 167.0804731, -9.7756852 ], [ 167.0804872, -9.775711 ], [ 167.080489199999988, -9.7757539 ], [ 167.080467700000014, -9.775785 ], [ 167.0803893, -9.775816 ], [ 167.080333599999989, -9.7758345 ], [ 167.080265200000014, -9.7758471 ], [ 167.080204900000012, -9.7758193 ], [ 167.0801686, -9.775785 ], [ 167.080164599999989, -9.7757493 ], [ 167.0801961, -9.7757096 ], [ 167.080248399999988, -9.7756806 ], [ 167.080343699999986, -9.7756766 ], [ 167.0804322, -9.7756641 ], [ 167.0804731, -9.7756852 ] ] ] ] } }
]
}
