{
"type": "FeatureCollection",
"name": "165_0",
"crs": { "type": "name", "properties": { "name": "urn:ogc:def:crs:OGC:1.3:CRS84" } },
"xy_coordinate_resolution": 1e-15,
"features": [
{ "type": "Feature", "properties": { "FID": 89634, "id": 2502, "left": 165.0, "top": 5.0, "right": 170.0, "bottom": 0.0, "row_index": 17, "col_index": 69, "min_lon": 165.0, "min_lat": 0.0, "tile_id": "165_0" }, "geometry": { "type": "MultiPolygon", "coordinates": [ [ [ [ 168.6527127, 4.6465671 ], [ 168.6525977, 4.6467621 ], [ 168.652352400000012, 4.6472366 ], [ 168.652151300000014, 4.6477574 ], [ 168.6517044, 4.6480694 ], [ 168.651103799999987, 4.6483311 ], [ 168.6508885, 4.6487058 ], [ 168.6508207, 4.6492069 ], [ 168.6509825, 4.6495383 ], [ 168.6513527, 4.6494413 ], [ 168.65196610000001, 4.6490978 ], [ 168.653019300000011, 4.6485352 ], [ 168.6532578, 4.6481417 ], [ 168.6531737, 4.6478513 ], [ 168.6530478, 4.6472745 ], [ 168.653056600000014, 4.6469681 ], [ 168.653102499999989, 4.6466905 ], [ 168.653156200000012, 4.6464018 ], [ 168.6535424, 4.6464446 ], [ 168.654107399999987, 4.6463538 ], [ 168.6538842, 4.6461479 ], [ 168.6532209, 4.6461567 ], [ 168.6527127, 4.6465671 ] ] ] ] } },
{ "type": "Feature", "properties": { "FID": 89653, "id": 2502, "left": 165.0, "top": 5.0, "right": 170.0, "bottom": 0.0, "row_index": 17, "col_index": 69, "min_lon": 165.0, "min_lat": 0.0, "tile_id": "165_0" }, "geometry": { "type": "MultiPolygon", "coordinates": [ [ [ [ 168.7680298, 4.6316018 ], [ 168.768169300000011, 4.6325535 ], [ 168.7682283, 4.6332272 ], [ 168.7682766, 4.6343982 ], [ 168.7683839, 4.6351788 ], [ 168.768534100000011, 4.6359808 ], [ 168.7687325, 4.6367455 ], [ 168.7689168, 4.6375155 ], [ 168.76921, 4.6390499 ], [ 168.769387, 4.6403599 ], [ 168.769472799999988, 4.6408411 ], [ 168.769623, 4.6415202 ], [ 168.7698483, 4.6424826 ], [ 168.7699878, 4.6426911 ], [ 168.7700978, 4.6427593 ], [ 168.770222499999988, 4.6428048 ], [ 168.770364699999988, 4.6428248 ], [ 168.770492100000013, 4.6428034 ], [ 168.770620799999989, 4.6427419 ], [ 168.7707201, 4.642639 ], [ 168.7707818, 4.6425267 ], [ 168.77081530000001, 4.6423235 ], [ 168.7708314, 4.642145 ], [ 168.7708381, 4.6416084 ], [ 168.7707844, 4.6410497 ], [ 168.7706906, 4.6404802 ], [ 168.7705082, 4.6397263 ], [ 168.7702721, 4.6390687 ], [ 168.7700576, 4.6384965 ], [ 168.769722300000012, 4.6373229 ], [ 168.7695426, 4.6365316 ], [ 168.7693682, 4.6355905 ], [ 168.7692797, 4.6350746 ], [ 168.7692207, 4.6344516 ], [ 168.7691644, 4.6336737 ], [ 168.769121500000011, 4.6330588 ], [ 168.7691, 4.6321418 ], [ 168.7690571, 4.6305885 ], [ 168.768979300000012, 4.6282492 ], [ 168.769014199999987, 4.6269178 ], [ 168.7690598, 4.626188 ], [ 168.7691322, 4.6253753 ], [ 168.7691778, 4.625009 ], [ 168.7692448, 4.6246106 ], [ 168.7692878, 4.6243085 ], [ 168.769263599999988, 4.6241187 ], [ 168.7691858, 4.6238514 ], [ 168.7691322, 4.6236428 ], [ 168.7690839, 4.6234022 ], [ 168.7689981, 4.6231616 ], [ 168.768885399999988, 4.6229665 ], [ 168.7686172, 4.6227071 ], [ 168.768467, 4.6225788 ], [ 168.7682471, 4.6224451 ], [ 168.767986900000011, 4.6223622 ], [ 168.767866199999986, 4.6222981 ], [ 168.767804500000011, 4.6221724 ], [ 168.7677669, 4.6220254 ], [ 168.7677401, 4.6218302 ], [ 168.7676999, 4.621619 ], [ 168.7676382, 4.6214934 ], [ 168.76756850000001, 4.6214533 ], [ 168.7674987, 4.6214533 ], [ 168.7674585, 4.6215335 ], [ 168.7674719, 4.6217019 ], [ 168.76755510000001, 4.6220762 ], [ 168.7676409, 4.622405 ], [ 168.767662300000012, 4.6228114 ], [ 168.7676677, 4.6232365 ], [ 168.7676784, 4.6238888 ], [ 168.7676865, 4.6243005 ], [ 168.7677428, 4.6246374 ], [ 168.767817900000011, 4.6250678 ], [ 168.767844700000012, 4.6256613 ], [ 168.7678367, 4.6270034 ], [ 168.767831300000012, 4.6278803 ], [ 168.7678635, 4.6285968 ], [ 168.767933199999987, 4.6294042 ], [ 168.7679923, 4.6309013 ], [ 168.7680298, 4.6316018 ] ] ] ] } },
{ "type": "Feature", "properties": { "FID": 89671, "id": 2502, "left": 165.0, "top": 5.0, "right": 170.0, "bottom": 0.0, "row_index": 17, "col_index": 69, "min_lon": 165.0, "min_lat": 0.0, "tile_id": "165_0" }, "geometry": { "type": "MultiPolygon", "coordinates": [ [ [ [ 168.768251600000013, 4.6554318 ], [ 168.7679665, 4.6555388 ], [ 168.7679005, 4.6558191 ], [ 168.767727799999989, 4.656305 ], [ 168.76800080000001, 4.6564775 ], [ 168.7683451, 4.6566474 ], [ 168.7685496, 4.6566841 ], [ 168.7687005, 4.6566671 ], [ 168.768925200000012, 4.6564914 ], [ 168.769178, 4.6560864 ], [ 168.7691029, 4.655764 ], [ 168.7688579, 4.6554904 ], [ 168.768560799999989, 4.6554602 ], [ 168.768251600000013, 4.6554318 ] ] ] ] } },
{ "type": "Feature", "properties": { "FID": 89691, "id": 2502, "left": 165.0, "top": 5.0, "right": 170.0, "bottom": 0.0, "row_index": 17, "col_index": 69, "min_lon": 165.0, "min_lat": 0.0, "tile_id": "165_0" }, "geometry": { "type": "MultiPolygon", "coordinates": [ [ [ [ 168.6592206, 4.624493 ], [ 168.6592609, 4.6246106 ], [ 168.6593387, 4.6246427 ], [ 168.6594593, 4.6246053 ], [ 168.6597329, 4.6244449 ], [ 168.659778499999987, 4.6243727 ], [ 168.6597544, 4.6242711 ], [ 168.6596417, 4.6241722 ], [ 168.659467400000011, 4.6240572 ], [ 168.6593547, 4.6240251 ], [ 168.6592823, 4.6240519 ], [ 168.6592099, 4.6241775 ], [ 168.6591938, 4.6243353 ], [ 168.6592206, 4.624493 ] ] ] ] } },
{ "type": "Feature", "properties": { "FID": 89708, "id": 2502, "left": 165.0, "top": 5.0, "right": 170.0, "bottom": 0.0, "row_index": 17, "col_index": 69, "min_lon": 165.0, "min_lat": 0.0, "tile_id": "165_0" }, "geometry": { "type": "MultiPolygon", "coordinates": [ [ [ [ 168.683597600000013, 4.5955893 ], [ 168.683453899999989, 4.5964176 ], [ 168.683695, 4.5972054 ], [ 168.6842268, 4.5979591 ], [ 168.684685699999989, 4.5982076 ], [ 168.68510520000001, 4.598388 ], [ 168.6852763, 4.5988162 ], [ 168.68559590000001, 4.5992794 ], [ 168.685540800000012, 4.5998907 ], [ 168.6854103, 4.6004594 ], [ 168.6856014, 4.600568 ], [ 168.6859753, 4.6007943 ], [ 168.6860969, 4.600706 ], [ 168.6863366, 4.6005957 ], [ 168.6865046, 4.6003323 ], [ 168.687022899999988, 4.5999435 ], [ 168.6871739, 4.59975 ], [ 168.6875502, 4.5990753 ], [ 168.687915800000013, 4.5984543 ], [ 168.6879916, 4.5980464 ], [ 168.6881956, 4.597565 ], [ 168.6881692, 4.5970664 ], [ 168.6868773, 4.5965139 ], [ 168.6859691, 4.5961142 ], [ 168.6853185, 4.5954682 ], [ 168.6846028, 4.5951544 ], [ 168.6841345, 4.5952252 ], [ 168.683597600000013, 4.5955893 ] ] ] ] } },
{ "type": "Feature", "properties": { "FID": 89717, "id": 2502, "left": 165.0, "top": 5.0, "right": 170.0, "bottom": 0.0, "row_index": 17, "col_index": 69, "min_lon": 165.0, "min_lat": 0.0, "tile_id": "165_0" }, "geometry": { "type": "MultiPolygon", "coordinates": [ [ [ [ 168.6868072, 4.6060698 ], [ 168.686930499999988, 4.605749 ], [ 168.6868125, 4.6054389 ], [ 168.6867106, 4.605225 ], [ 168.6863136, 4.604824 ], [ 168.6862868, 4.6046742 ], [ 168.6862868, 4.6044229 ], [ 168.6864263, 4.6041075 ], [ 168.6863726, 4.6037171 ], [ 168.6860733, 4.6034204 ], [ 168.686003199999988, 4.6030035 ], [ 168.686231099999986, 4.6021659 ], [ 168.6862295, 4.601568 ], [ 168.6855304, 4.6011398 ], [ 168.6849468, 4.6013063 ], [ 168.6848175, 4.601435 ], [ 168.68463460000001, 4.6014767 ], [ 168.684580899999986, 4.6019633 ], [ 168.684505800000011, 4.6028348 ], [ 168.684555, 4.6032375 ], [ 168.684736500000014, 4.6038454 ], [ 168.6850637, 4.6045299 ], [ 168.6859059, 4.6048721 ], [ 168.6861956, 4.6059415 ], [ 168.686463800000013, 4.6061126 ], [ 168.6868072, 4.6060698 ] ] ] ] } },
{ "type": "Feature", "properties": { "FID": 89730, "id": 2502, "left": 165.0, "top": 5.0, "right": 170.0, "bottom": 0.0, "row_index": 17, "col_index": 69, "min_lon": 165.0, "min_lat": 0.0, "tile_id": "165_0" }, "geometry": { "type": "MultiPolygon", "coordinates": [ [ [ [ 168.768800199999987, 4.6520569 ], [ 168.768578600000012, 4.6522843 ], [ 168.7686704, 4.6525399 ], [ 168.768873500000012, 4.6526692 ], [ 168.7692587, 4.6527715 ], [ 168.7695827, 4.652642 ], [ 168.7695482, 4.6524023 ], [ 168.769420599999989, 4.6522834 ], [ 168.7691977, 4.6521366 ], [ 168.768800199999987, 4.6520569 ] ] ] ] } },
{ "type": "Feature", "properties": { "FID": 89737, "id": 2502, "left": 165.0, "top": 5.0, "right": 170.0, "bottom": 0.0, "row_index": 17, "col_index": 69, "min_lon": 165.0, "min_lat": 0.0, "tile_id": "165_0" }, "geometry": { "type": "MultiPolygon", "coordinates": [ [ [ [ 168.6577213, 4.6258805 ], [ 168.657611300000013, 4.6258912 ], [ 168.6575013, 4.6259554 ], [ 168.65738060000001, 4.6260864 ], [ 168.6572492, 4.626188 ], [ 168.65697560000001, 4.6262789 ], [ 168.656747599999989, 4.6263698 ], [ 168.656584, 4.6264072 ], [ 168.6564526, 4.6263912 ], [ 168.6563212, 4.6263431 ], [ 168.65612, 4.6262361 ], [ 168.6559483, 4.6262014 ], [ 168.6557928, 4.6262174 ], [ 168.6556292, 4.6263297 ], [ 168.655497700000012, 4.6265676 ], [ 168.6554253, 4.626712 ], [ 168.655350199999987, 4.6268697 ], [ 168.6552268, 4.6270168 ], [ 168.6549666, 4.6272333 ], [ 168.654457, 4.6276531 ], [ 168.653824, 4.6281744 ], [ 168.653579900000011, 4.6283936 ], [ 168.653325099999989, 4.6286476 ], [ 168.653132, 4.6288026 ], [ 168.6530247, 4.6288668 ], [ 168.6528692, 4.628939 ], [ 168.6527619, 4.6289818 ], [ 168.6526868, 4.6290433 ], [ 168.6525902, 4.6291849 ], [ 168.652453400000013, 4.6293667 ], [ 168.6522603, 4.6295779 ], [ 168.6519653, 4.6298934 ], [ 168.651549499999987, 4.6303586 ], [ 168.6510533, 4.6309067 ], [ 168.650726100000014, 4.6312916 ], [ 168.6505115, 4.631583 ], [ 168.650031399999989, 4.6322594 ], [ 168.649578100000014, 4.632869 ], [ 168.6490202, 4.6335988 ], [ 168.6487171, 4.6339063 ], [ 168.648287900000014, 4.6342592 ], [ 168.6479634, 4.6345131 ], [ 168.647663, 4.6347243 ], [ 168.6470032, 4.6351173 ], [ 168.646823500000011, 4.6352964 ], [ 168.6466223, 4.6355772 ], [ 168.646445300000011, 4.6358445 ], [ 168.6461261, 4.636315 ], [ 168.6457667, 4.6369406 ], [ 168.645621799999986, 4.6372614 ], [ 168.6455736, 4.6376223 ], [ 168.645646, 4.63801 ], [ 168.645817599999987, 4.6383041 ], [ 168.6462548, 4.6387238 ], [ 168.6464801, 4.6389323 ], [ 168.6467054, 4.6391168 ], [ 168.6468208, 4.6392745 ], [ 168.646917300000013, 4.6394777 ], [ 168.647046100000011, 4.6396461 ], [ 168.647215100000011, 4.6397664 ], [ 168.647424300000011, 4.639876 ], [ 168.6475986, 4.6400391 ], [ 168.6477596, 4.6402877 ], [ 168.64782120000001, 4.640507 ], [ 168.6478749, 4.6407529 ], [ 168.6479285, 4.640924 ], [ 168.647984900000012, 4.6410096 ], [ 168.6481485, 4.6410898 ], [ 168.6483201, 4.6411646 ], [ 168.648524, 4.6412822 ], [ 168.648741199999989, 4.6413705 ], [ 168.6489531, 4.6414186 ], [ 168.6492187, 4.6414507 ], [ 168.6494681, 4.6415015 ], [ 168.649653199999989, 4.641587 ], [ 168.64979, 4.641726 ], [ 168.649969700000014, 4.6420709 ], [ 168.650254, 4.6425441 ], [ 168.6504042, 4.6428408 ], [ 168.6505678, 4.6432178 ], [ 168.6506832, 4.6434103 ], [ 168.6508521, 4.6435707 ], [ 168.6512142, 4.6437899 ], [ 168.6516139, 4.6439904 ], [ 168.651917, 4.6441562 ], [ 168.6521262, 4.6442444 ], [ 168.652257600000013, 4.6442551 ], [ 168.652389, 4.6442283 ], [ 168.6524856, 4.6441722 ], [ 168.6525714, 4.6440465 ], [ 168.652595600000012, 4.643699 ], [ 168.65258750000001, 4.6430815 ], [ 168.652568800000012, 4.6423783 ], [ 168.65253580000001, 4.6401963 ], [ 168.65258750000001, 4.6394322 ], [ 168.652635800000013, 4.638828 ], [ 168.6527297, 4.6382078 ], [ 168.652839699999987, 4.6376143 ], [ 168.65296570000001, 4.6371465 ], [ 168.6530918, 4.6366786 ], [ 168.6532178, 4.6361306 ], [ 168.6533627, 4.6356734 ], [ 168.6536041, 4.6350371 ], [ 168.653757, 4.634596 ], [ 168.65387770000001, 4.6341843 ], [ 168.654001099999988, 4.6336897 ], [ 168.6541915, 4.6330775 ], [ 168.6543792, 4.6325989 ], [ 168.6544409, 4.6323263 ], [ 168.6545375, 4.6319119 ], [ 168.6546233, 4.6316338 ], [ 168.6547467, 4.6313478 ], [ 168.6549157, 4.6310002 ], [ 168.655189299999989, 4.630511 ], [ 168.6554494, 4.6300966 ], [ 168.655723, 4.6296876 ], [ 168.6560824, 4.6291555 ], [ 168.656369399999988, 4.628701 ], [ 168.6566001, 4.6283963 ], [ 168.6568388, 4.6281289 ], [ 168.6570159, 4.6279204 ], [ 168.6572519, 4.6276049 ], [ 168.6575094, 4.6272868 ], [ 168.657758800000011, 4.6270141 ], [ 168.6579519, 4.6268537 ], [ 168.658212099999986, 4.6266746 ], [ 168.6584173, 4.6265262 ], [ 168.6585139, 4.6264781 ], [ 168.6585782, 4.6264553 ], [ 168.6586654, 4.6264259 ], [ 168.658731100000011, 4.6263912 ], [ 168.6588103, 4.6263203 ], [ 168.6588693, 4.6262535 ], [ 168.6588907, 4.6262 ], [ 168.658886700000011, 4.6261773 ], [ 168.6588773, 4.6261572 ], [ 168.658826299999987, 4.6261359 ], [ 168.6586922, 4.6261479 ], [ 168.6585595, 4.6261679 ], [ 168.6584267, 4.6261773 ], [ 168.6583154, 4.6261506 ], [ 168.6582229, 4.6260917 ], [ 168.658084, 4.6260089 ], [ 168.6578849, 4.625918 ], [ 168.6577213, 4.6258805 ] ] ] ] } },
{ "type": "Feature", "properties": { "FID": 89738, "id": 2502, "left": 165.0, "top": 5.0, "right": 170.0, "bottom": 0.0, "row_index": 17, "col_index": 69, "min_lon": 165.0, "min_lat": 0.0, "tile_id": "165_0" }, "geometry": { "type": "MultiPolygon", "coordinates": [ [ [ [ 168.769553300000013, 4.6477225 ], [ 168.769397700000013, 4.6477973 ], [ 168.769161700000012, 4.6480914 ], [ 168.7690872, 4.649219 ], [ 168.7691241, 4.6496687 ], [ 168.769032900000013, 4.649936 ], [ 168.769084, 4.6502497 ], [ 168.7695372, 4.6503317 ], [ 168.770051, 4.6502751 ], [ 168.770313499999986, 4.6499604 ], [ 168.77044380000001, 4.6496313 ], [ 168.7704277, 4.648979 ], [ 168.7703794, 4.6482358 ], [ 168.7700361, 4.6478829 ], [ 168.769553300000013, 4.6477225 ] ] ] ] } },
{ "type": "Feature", "properties": { "FID": 89748, "id": 2502, "left": 165.0, "top": 5.0, "right": 170.0, "bottom": 0.0, "row_index": 17, "col_index": 69, "min_lon": 165.0, "min_lat": 0.0, "tile_id": "165_0" }, "geometry": { "type": "MultiPolygon", "coordinates": [ [ [ [ 168.7578106, 4.6019071 ], [ 168.7579957, 4.6021798 ], [ 168.7581056, 4.6023696 ], [ 168.7581915, 4.6024686 ], [ 168.7582988, 4.6025301 ], [ 168.7585348, 4.6026236 ], [ 168.758760099999989, 4.6027359 ], [ 168.7588888, 4.6027787 ], [ 168.7591463, 4.6028322 ], [ 168.7593716, 4.6028482 ], [ 168.7595406, 4.6028562 ], [ 168.7596211, 4.6028937 ], [ 168.7596667, 4.6029658 ], [ 168.7596962, 4.6032813 ], [ 168.7597123, 4.6034578 ], [ 168.7596747, 4.603554 ], [ 168.759623800000014, 4.6036449 ], [ 168.759613, 4.6037198 ], [ 168.7596452, 4.6037866 ], [ 168.759723, 4.6038107 ], [ 168.7597632, 4.603784 ], [ 168.759774, 4.6037037 ], [ 168.7597807, 4.6036209 ], [ 168.7597901, 4.6035567 ], [ 168.7598021, 4.6034885 ], [ 168.7597968, 4.6034578 ], [ 168.7597767, 4.6034016 ], [ 168.7597539, 4.6032867 ], [ 168.7597471, 4.6031557 ], [ 168.7597592, 4.6030527 ], [ 168.7598303, 4.6029792 ], [ 168.7599081, 4.6029458 ], [ 168.7600569, 4.6029204 ], [ 168.7602903, 4.602911 ], [ 168.7604593, 4.6029204 ], [ 168.760710100000011, 4.6029645 ], [ 168.760999700000013, 4.6030821 ], [ 168.7613457, 4.6032466 ], [ 168.7616006, 4.6034097 ], [ 168.761799, 4.6035487 ], [ 168.7619546, 4.6037011 ], [ 168.7620538, 4.603792 ], [ 168.7620968, 4.6039203 ], [ 168.7620887, 4.6040486 ], [ 168.7621048, 4.6041743 ], [ 168.762147700000014, 4.6042411 ], [ 168.7622443, 4.6042866 ], [ 168.7625098, 4.6043802 ], [ 168.7630624, 4.604578 ], [ 168.763309099999987, 4.6047143 ], [ 168.7636793, 4.6049256 ], [ 168.764207699999986, 4.6052544 ], [ 168.7647763, 4.6056447 ], [ 168.7652189, 4.6060485 ], [ 168.765760699999987, 4.6065083 ], [ 168.766014500000011, 4.6067592 ], [ 168.766391, 4.6070992 ], [ 168.766557299999988, 4.6072916 ], [ 168.76679870000001, 4.6075911 ], [ 168.7671339, 4.6080376 ], [ 168.7677214, 4.6087247 ], [ 168.7682122, 4.6093663 ], [ 168.7685555, 4.6100026 ], [ 168.768999799999989, 4.6109789 ], [ 168.769486199999989, 4.6120799 ], [ 168.769674, 4.6126093 ], [ 168.76982910000001, 4.6131851 ], [ 168.7699288, 4.6138231 ], [ 168.769961, 4.6142214 ], [ 168.7699771, 4.614553 ], [ 168.7699825, 4.6148925 ], [ 168.769902, 4.6152908 ], [ 168.7697196, 4.6156651 ], [ 168.7694782, 4.6159271 ], [ 168.7691644, 4.616133 ], [ 168.7689686, 4.6162907 ], [ 168.7687513, 4.6165207 ], [ 168.7685314, 4.6169137 ], [ 168.7684965, 4.6171463 ], [ 168.768493799999987, 4.6173735 ], [ 168.76852070000001, 4.6176141 ], [ 168.7687214, 4.6179343 ], [ 168.769081199999988, 4.6182985 ], [ 168.7694514, 4.6185178 ], [ 168.7696364, 4.6186247 ], [ 168.7698054, 4.6186327 ], [ 168.7699369, 4.6185793 ], [ 168.770071, 4.6184269 ], [ 168.770229199999989, 4.6182451 ], [ 168.770344599999987, 4.6181248 ], [ 168.7704545, 4.6179403 ], [ 168.7705216, 4.6177692 ], [ 168.7706959, 4.6171997 ], [ 168.770803199999989, 4.6168335 ], [ 168.77094, 4.6163923 ], [ 168.7710017, 4.6159913 ], [ 168.771058, 4.615625 ], [ 168.7711573, 4.6150181 ], [ 168.771219, 4.6146064 ], [ 168.771235, 4.6141493 ], [ 168.7712109, 4.6138044 ], [ 168.7711573, 4.6134648 ], [ 168.7710634, 4.613136 ], [ 168.770889, 4.6127537 ], [ 168.770553799999988, 4.6120799 ], [ 168.770366, 4.6116682 ], [ 168.770180900000014, 4.6112672 ], [ 168.7698725, 4.6106924 ], [ 168.76953180000001, 4.610163 ], [ 168.768696799999987, 4.6089053 ], [ 168.7678635, 4.607829 ], [ 168.7673002, 4.6071393 ], [ 168.766549199999986, 4.6064227 ], [ 168.765841099999989, 4.6058027 ], [ 168.7652832, 4.6052945 ], [ 168.764728, 4.6048106 ], [ 168.7642318, 4.6043989 ], [ 168.7639314, 4.6041422 ], [ 168.763585400000011, 4.603808 ], [ 168.763167, 4.6034284 ], [ 168.762783399999989, 4.603022 ], [ 168.7622604, 4.6025488 ], [ 168.76185, 4.6022172 ], [ 168.7615898, 4.6020328 ], [ 168.7613431, 4.6018643 ], [ 168.7608951, 4.6016692 ], [ 168.760415, 4.6015622 ], [ 168.7602219, 4.6015355 ], [ 168.759886599999987, 4.6015622 ], [ 168.759521799999987, 4.6015435 ], [ 168.759267, 4.6014954 ], [ 168.7586394, 4.6013056 ], [ 168.757963499999988, 4.6010944 ], [ 168.7568316, 4.6006853 ], [ 168.7561959, 4.6003698 ], [ 168.755292, 4.5999501 ], [ 168.7549084, 4.599795 ], [ 168.7545624, 4.5996132 ], [ 168.754321, 4.5994501 ], [ 168.7533903, 4.5988806 ], [ 168.752878, 4.5985518 ], [ 168.7524784, 4.5983138 ], [ 168.7511802, 4.5974209 ], [ 168.75043, 4.5968789 ], [ 168.7499946, 4.596584 ], [ 168.7497452, 4.5964397 ], [ 168.7495279, 4.5963274 ], [ 168.7493107, 4.5961964 ], [ 168.7489137, 4.5958729 ], [ 168.7484658, 4.5954745 ], [ 168.748052699999988, 4.5951403 ], [ 168.7475538, 4.5946938 ], [ 168.7472749, 4.5944024 ], [ 168.747012, 4.5941404 ], [ 168.7466848, 4.5938195 ], [ 168.746332700000011, 4.5935166 ], [ 168.7456923, 4.592871 ], [ 168.7451264, 4.5922983 ], [ 168.744372700000014, 4.5915898 ], [ 168.7434795, 4.5906914 ], [ 168.7429994, 4.5902129 ], [ 168.7423584, 4.5896354 ], [ 168.741982900000011, 4.5891889 ], [ 168.7415296, 4.5886942 ], [ 168.741105800000014, 4.5882905 ], [ 168.7407866, 4.5879189 ], [ 168.7402233, 4.5872665 ], [ 168.7396789, 4.5866997 ], [ 168.7394294, 4.5864457 ], [ 168.7391371, 4.586157 ], [ 168.7386838, 4.5857854 ], [ 168.7383968, 4.5855608 ], [ 168.7381849, 4.5853576 ], [ 168.7377852, 4.5850474 ], [ 168.7374768, 4.5847507 ], [ 168.737122699999986, 4.584494 ], [ 168.7368974, 4.5843443 ], [ 168.7366587, 4.584224 ], [ 168.7364495, 4.5841143 ], [ 168.736157100000014, 4.5839085 ], [ 168.7358031, 4.5836973 ], [ 168.7354249, 4.5834967 ], [ 168.734990399999987, 4.5833122 ], [ 168.7345719, 4.5831091 ], [ 168.7342018, 4.5829219 ], [ 168.733389100000011, 4.5825422 ], [ 168.7325442, 4.5821706 ], [ 168.7316993, 4.5817696 ], [ 168.7305486, 4.5812161 ], [ 168.7300712, 4.5809488 ], [ 168.729127, 4.5803552 ], [ 168.7282956, 4.5798472 ], [ 168.727676, 4.5794408 ], [ 168.727185100000014, 4.5791227 ], [ 168.7267694, 4.578866 ], [ 168.726428700000014, 4.5786815 ], [ 168.7259513, 4.5784569 ], [ 168.725605300000012, 4.5782617 ], [ 168.7252808, 4.5780826 ], [ 168.7248811, 4.5779382 ], [ 168.724296399999986, 4.5777832 ], [ 168.723966499999989, 4.577719 ], [ 168.723674100000011, 4.5776923 ], [ 168.723352299999988, 4.5776655 ], [ 168.7230492, 4.5775987 ], [ 168.7225637, 4.5774677 ], [ 168.721893099999988, 4.5773046 ], [ 168.7200665, 4.576957 ], [ 168.718146100000013, 4.5765747 ], [ 168.716349, 4.5761602 ], [ 168.714433899999989, 4.5756442 ], [ 168.7117839, 4.5747673 ], [ 168.7101772, 4.5740293 ], [ 168.7097695, 4.5738074 ], [ 168.7094155, 4.573631 ], [ 168.708978300000012, 4.5734518 ], [ 168.708533, 4.5732219 ], [ 168.7080798, 4.5730668 ], [ 168.7076238, 4.5729732 ], [ 168.707277800000014, 4.572901 ], [ 168.7069988, 4.5728823 ], [ 168.7066877, 4.5729064 ], [ 168.7062585, 4.5729599 ], [ 168.7057757, 4.5730428 ], [ 168.7052903, 4.5731604 ], [ 168.7048933, 4.5732566 ], [ 168.704558, 4.5733502 ], [ 168.7042576, 4.5734518 ], [ 168.7040108, 4.573532 ], [ 168.703597800000011, 4.573639 ], [ 168.7033832, 4.5737112 ], [ 168.7032115, 4.5738047 ], [ 168.703023800000011, 4.5739438 ], [ 168.702841400000011, 4.5740481 ], [ 168.7026161, 4.574155 ], [ 168.7024203, 4.5742325 ], [ 168.7019402, 4.574417 ], [ 168.7010846, 4.5747646 ], [ 168.6998802, 4.5752004 ], [ 168.698971, 4.5755266 ], [ 168.6982012, 4.5757619 ], [ 168.6971685, 4.5759998 ], [ 168.6965382, 4.5761522 ], [ 168.6955994, 4.576334 ], [ 168.695044200000012, 4.5764223 ], [ 168.694456800000012, 4.5765212 ], [ 168.6939016, 4.5766335 ], [ 168.6936522, 4.5767083 ], [ 168.6935019, 4.5767752 ], [ 168.6934027, 4.5768607 ], [ 168.693343700000014, 4.5770426 ], [ 168.6933115, 4.5772885 ], [ 168.6932605, 4.5774971 ], [ 168.693188099999986, 4.577596 ], [ 168.6930084, 4.5777243 ], [ 168.6926678, 4.5778794 ], [ 168.6922199, 4.5780372 ], [ 168.6914903, 4.5783687 ], [ 168.69086, 4.5787082 ], [ 168.6904094, 4.5789916 ], [ 168.6900097, 4.5792644 ], [ 168.68959670000001, 4.5795638 ], [ 168.689248, 4.5798766 ], [ 168.688982399999986, 4.5801146 ], [ 168.6887759, 4.5803632 ], [ 168.688674, 4.5805317 ], [ 168.6885828, 4.5807536 ], [ 168.688341400000013, 4.5815958 ], [ 168.688207299999988, 4.5822187 ], [ 168.688132200000013, 4.5828818 ], [ 168.688137500000011, 4.5831893 ], [ 168.6881751, 4.5834245 ], [ 168.6882529, 4.5837186 ], [ 168.688336, 4.584125 ], [ 168.688389699999988, 4.5844432 ], [ 168.6884513, 4.5846945 ], [ 168.6885399, 4.5848255 ], [ 168.688808099999989, 4.5849672 ], [ 168.6893445, 4.5851544 ], [ 168.6896396, 4.5853308 ], [ 168.6898649, 4.5854779 ], [ 168.689969499999989, 4.5856169 ], [ 168.6900178, 4.5858522 ], [ 168.6900097, 4.5862532 ], [ 168.6899507, 4.5868227 ], [ 168.689889, 4.5872879 ], [ 168.6897871, 4.5878307 ], [ 168.6897549, 4.5880847 ], [ 168.6897348, 4.5882437 ], [ 168.6896825, 4.588463 ], [ 168.6895685, 4.5888426 ], [ 168.689543, 4.588999 ], [ 168.6895537, 4.5890405 ], [ 168.6895926, 4.5890726 ], [ 168.6896597, 4.589094 ], [ 168.6897174, 4.589098 ], [ 168.689914499999986, 4.5891153 ], [ 168.6899936, 4.5891381 ], [ 168.690041900000011, 4.5891675 ], [ 168.6900794, 4.5892156 ], [ 168.6900996, 4.5892637 ], [ 168.690137099999987, 4.5893974 ], [ 168.690163899999988, 4.5895779 ], [ 168.6902404, 4.5898907 ], [ 168.6902806, 4.5902209 ], [ 168.6903222, 4.5903907 ], [ 168.6903678, 4.5904602 ], [ 168.690455, 4.5905591 ], [ 168.6905837, 4.5906968 ], [ 168.69064, 4.5907329 ], [ 168.6906937, 4.5907302 ], [ 168.6907205, 4.5906888 ], [ 168.6907218, 4.59065 ], [ 168.690662800000013, 4.5905324 ], [ 168.6905462, 4.5903345 ], [ 168.6905166, 4.590277 ], [ 168.690514, 4.5902102 ], [ 168.6905636, 4.5900925 ], [ 168.6906816, 4.5899442 ], [ 168.690748, 4.5898071 ], [ 168.690868, 4.5894696 ], [ 168.6909726, 4.5892477 ], [ 168.6911577, 4.5890017 ], [ 168.6914232, 4.588606 ], [ 168.6917156, 4.5881916 ], [ 168.6921877, 4.5876195 ], [ 168.6927992, 4.5869109 ], [ 168.6934, 4.5862559 ], [ 168.6942235, 4.5853335 ], [ 168.6947438, 4.5848228 ], [ 168.6957389, 4.5838951 ], [ 168.696921800000013, 4.5826893 ], [ 168.6973482, 4.582307 ], [ 168.697646, 4.5820503 ], [ 168.698088500000011, 4.5817081 ], [ 168.6984211, 4.5814247 ], [ 168.698697399999986, 4.5811413 ], [ 168.6988771, 4.5809488 ], [ 168.699097, 4.5807001 ], [ 168.6993331, 4.5804755 ], [ 168.6995772, 4.5802803 ], [ 168.699864100000013, 4.5800317 ], [ 168.7001458, 4.5797911 ], [ 168.7004301, 4.5795798 ], [ 168.7006742, 4.579398 ], [ 168.7010094, 4.5791841 ], [ 168.7014627, 4.5788794 ], [ 168.701991099999987, 4.57862 ], [ 168.702382699999987, 4.5784596 ], [ 168.702887, 4.5782805 ], [ 168.7032706, 4.578088 ], [ 168.7036166, 4.5778821 ], [ 168.7039465, 4.5776548 ], [ 168.704313899999988, 4.5774329 ], [ 168.7047806, 4.5771361 ], [ 168.7053144, 4.5767886 ], [ 168.705706, 4.5765613 ], [ 168.706143200000014, 4.576334 ], [ 168.70664210000001, 4.5761014 ], [ 168.7069291, 4.5759838 ], [ 168.7071598, 4.5759169 ], [ 168.7073743, 4.5758554 ], [ 168.7077311, 4.5757619 ], [ 168.708074399999987, 4.5756469 ], [ 168.7085384, 4.5755025 ], [ 168.709018500000013, 4.5753795 ], [ 168.709555, 4.5752592 ], [ 168.710010899999986, 4.5751443 ], [ 168.710504500000013, 4.5750427 ], [ 168.7108585, 4.5749785 ], [ 168.7111965, 4.5749758 ], [ 168.7114325, 4.5750239 ], [ 168.7116364, 4.5750854 ], [ 168.7117678, 4.5751389 ], [ 168.7119448, 4.5752699 ], [ 168.7120414, 4.5753261 ], [ 168.7121594, 4.5753448 ], [ 168.7124303, 4.5753448 ], [ 168.71261, 4.5753555 ], [ 168.7127227, 4.5753929 ], [ 168.712905, 4.5755132 ], [ 168.713063299999988, 4.5756629 ], [ 168.7131786, 4.5757244 ], [ 168.7133905, 4.5757752 ], [ 168.71353, 4.5758501 ], [ 168.7136856, 4.575949 ], [ 168.713784800000013, 4.5759945 ], [ 168.71389210000001, 4.5760266 ], [ 168.7141576, 4.5760212 ], [ 168.7143615, 4.5760185 ], [ 168.7144983, 4.576048 ], [ 168.7145653, 4.5760988 ], [ 168.71463510000001, 4.5761683 ], [ 168.7147397, 4.5762137 ], [ 168.714855, 4.5762324 ], [ 168.7149623, 4.5762618 ], [ 168.7150589, 4.5763447 ], [ 168.715201, 4.5765185 ], [ 168.7153137, 4.5765987 ], [ 168.715429, 4.5766335 ], [ 168.7156516, 4.5766495 ], [ 168.7158313, 4.5767003 ], [ 168.7160245, 4.5767886 ], [ 168.7161773, 4.5768554 ], [ 168.7163866, 4.5769089 ], [ 168.7166575, 4.5769222 ], [ 168.7171027, 4.576941 ], [ 168.717451399999987, 4.576957 ], [ 168.717953, 4.5769944 ], [ 168.718199700000014, 4.5770158 ], [ 168.7184009, 4.5770532 ], [ 168.718653, 4.5771388 ], [ 168.718800499999986, 4.5771548 ], [ 168.7189347, 4.5771682 ], [ 168.7190661, 4.577211 ], [ 168.719320900000014, 4.5773447 ], [ 168.7195998, 4.5774944 ], [ 168.719766099999987, 4.5775693 ], [ 168.7199324, 4.5775987 ], [ 168.720238200000011, 4.577604 ], [ 168.7205869, 4.5776174 ], [ 168.7208095, 4.5776388 ], [ 168.7209463, 4.5776655 ], [ 168.721061600000013, 4.5777163 ], [ 168.721163600000011, 4.5778206 ], [ 168.7212467, 4.5779516 ], [ 168.721319099999988, 4.5779984 ], [ 168.721447899999987, 4.5780398 ], [ 168.7215377, 4.5780679 ], [ 168.721608800000013, 4.5780986 ], [ 168.7216598, 4.5781334 ], [ 168.7216866, 4.5781708 ], [ 168.7216933, 4.5782564 ], [ 168.7216853, 4.5783727 ], [ 168.7216732, 4.5784957 ], [ 168.7216665, 4.5785933 ], [ 168.7216718, 4.5786989 ], [ 168.721704, 4.5787457 ], [ 168.7217751, 4.5787898 ], [ 168.7218609, 4.5788072 ], [ 168.721991, 4.5788032 ], [ 168.7220876, 4.5788098 ], [ 168.7222458, 4.5788526 ], [ 168.722385300000013, 4.5788927 ], [ 168.7224618, 4.5788994 ], [ 168.722582499999987, 4.57889 ], [ 168.7227662, 4.5788753 ], [ 168.722932500000013, 4.5788914 ], [ 168.72305990000001, 4.5789275 ], [ 168.723169899999988, 4.5789769 ], [ 168.723257, 4.5790491 ], [ 168.723316, 4.5791374 ], [ 168.7233388, 4.5792042 ], [ 168.723352299999988, 4.5792884 ], [ 168.7233402, 4.5793419 ], [ 168.723283900000013, 4.5793994 ], [ 168.7232275, 4.5794555 ], [ 168.7232074, 4.579501 ], [ 168.723223499999989, 4.5795451 ], [ 168.7232664, 4.5795745 ], [ 168.7233737, 4.5795932 ], [ 168.72345820000001, 4.5796146 ], [ 168.723532, 4.57964 ], [ 168.723608399999989, 4.5796681 ], [ 168.7236661, 4.5796734 ], [ 168.723729100000014, 4.5796614 ], [ 168.7237988, 4.5796347 ], [ 168.7238605, 4.5795785 ], [ 168.7239276, 4.5795277 ], [ 168.7240134, 4.5794903 ], [ 168.7240845, 4.5794729 ], [ 168.7242052, 4.5794622 ], [ 168.72437690000001, 4.5794716 ], [ 168.724633, 4.5795224 ], [ 168.7248543, 4.5795585 ], [ 168.7252942, 4.5795986 ], [ 168.725822599999987, 4.5796306 ], [ 168.726396599999987, 4.5797055 ], [ 168.726806900000014, 4.579783 ], [ 168.7273782, 4.5799862 ], [ 168.728102400000012, 4.5804087 ], [ 168.728907099999986, 4.5808204 ], [ 168.729770800000011, 4.5812322 ], [ 168.7302536, 4.5815236 ], [ 168.7307686, 4.5818471 ], [ 168.7310368, 4.5820931 ], [ 168.7311441, 4.5822321 ], [ 168.7312192, 4.5824995 ], [ 168.731187, 4.5827508 ], [ 168.7310797, 4.5829754 ], [ 168.7310582, 4.5831786 ], [ 168.73110650000001, 4.5832641 ], [ 168.7312353, 4.5833604 ], [ 168.7315518, 4.583462 ], [ 168.7318736, 4.5835422 ], [ 168.732174, 4.5835743 ], [ 168.7323886, 4.5836438 ], [ 168.7327373, 4.5837989 ], [ 168.733064500000012, 4.5839111 ], [ 168.733525899999989, 4.583986 ], [ 168.7343788, 4.5841023 ], [ 168.734739600000012, 4.5841451 ], [ 168.7349702, 4.5842012 ], [ 168.7351888, 4.5842734 ], [ 168.735408799999988, 4.5843149 ], [ 168.7356542, 4.5843844 ], [ 168.73587280000001, 4.5844619 ], [ 168.736082, 4.5845769 ], [ 168.7361947, 4.5846651 ], [ 168.7363006, 4.5847493 ], [ 168.736367699999988, 4.5848055 ], [ 168.7364052, 4.5848937 ], [ 168.73644680000001, 4.5849993 ], [ 168.736488400000013, 4.5850394 ], [ 168.7365957, 4.5850728 ], [ 168.736778, 4.5851169 ], [ 168.736955099999989, 4.5851972 ], [ 168.7371321, 4.5852974 ], [ 168.7373024, 4.5854084 ], [ 168.7375036, 4.5855447 ], [ 168.7376189, 4.5856584 ], [ 168.73769, 4.5857586 ], [ 168.7377745, 4.5859017 ], [ 168.7378483, 4.5860287 ], [ 168.7379475, 4.5861543 ], [ 168.7381205, 4.5863121 ], [ 168.7383123, 4.5864604 ], [ 168.7386999, 4.5867505 ], [ 168.738918500000011, 4.5869537 ], [ 168.73907, 4.5871489 ], [ 168.7392122, 4.5873026 ], [ 168.739479, 4.5875406 ], [ 168.7398317, 4.5878534 ], [ 168.7402032, 4.5882397 ], [ 168.7405197, 4.5885606 ], [ 168.7406914, 4.5886836 ], [ 168.7408805, 4.5887865 ], [ 168.7411045, 4.5888867 ], [ 168.7412721, 4.5890097 ], [ 168.741524199999986, 4.5892103 ], [ 168.7417817, 4.5893854 ], [ 168.741868899999986, 4.5894696 ], [ 168.741909099999987, 4.5895565 ], [ 168.7419413, 4.5896501 ], [ 168.741982900000011, 4.589765 ], [ 168.7420352, 4.589864 ], [ 168.742104899999987, 4.5899869 ], [ 168.742145099999988, 4.5900658 ], [ 168.74215860000001, 4.5901607 ], [ 168.7421465, 4.5903011 ], [ 168.7421545, 4.590396 ], [ 168.7421814, 4.5904628 ], [ 168.7422819, 4.5907142 ], [ 168.742307399999987, 4.5908077 ], [ 168.7423047, 4.5909214 ], [ 168.7422752, 4.5909909 ], [ 168.7422417, 4.5910484 ], [ 168.742205500000011, 4.5911246 ], [ 168.74215190000001, 4.5911647 ], [ 168.7420405, 4.5912368 ], [ 168.741982900000011, 4.5913224 ], [ 168.7419654, 4.5914213 ], [ 168.741999, 4.5914801 ], [ 168.7420794, 4.5915376 ], [ 168.7422243, 4.5915951 ], [ 168.7425274, 4.5917448 ], [ 168.7428492, 4.5918892 ], [ 168.743238100000013, 4.5920282 ], [ 168.7436727, 4.5921753 ], [ 168.7439221, 4.5922902 ], [ 168.7443298, 4.5925202 ], [ 168.74467580000001, 4.5927581 ], [ 168.744960099999986, 4.5929693 ], [ 168.7451211, 4.5931137 ], [ 168.745303400000012, 4.5932768 ], [ 168.7455851, 4.5934693 ], [ 168.7459069, 4.5937099 ], [ 168.7463951, 4.5940762 ], [ 168.746722299999988, 4.594365 ], [ 168.7470013, 4.5946484 ], [ 168.7472883, 4.5949638 ], [ 168.7474358, 4.5951216 ], [ 168.747505499999988, 4.5952526 ], [ 168.7475967, 4.5953301 ], [ 168.7478355, 4.5954772 ], [ 168.7480205, 4.5956055 ], [ 168.7481439, 4.5957445 ], [ 168.7482995, 4.5959985 ], [ 168.7484255, 4.5961563 ], [ 168.748616, 4.5962873 ], [ 168.7492114, 4.5966589 ], [ 168.7496567, 4.5969236 ], [ 168.750177, 4.5972658 ], [ 168.750657100000012, 4.5975492 ], [ 168.750971, 4.5977604 ], [ 168.7513411, 4.5979823 ], [ 168.7518507, 4.5982818 ], [ 168.752601700000014, 4.5987577 ], [ 168.7529236, 4.5990009 ], [ 168.7533259, 4.5992309 ], [ 168.7542057, 4.5997656 ], [ 168.754634900000013, 4.6000624 ], [ 168.7550157, 4.6002709 ], [ 168.7552652, 4.6004206 ], [ 168.7555307, 4.6005623 ], [ 168.7566036, 4.6010329 ], [ 168.7570542, 4.6013002 ], [ 168.7573171, 4.6014874 ], [ 168.75765770000001, 4.6017387 ], [ 168.7578106, 4.6019071 ] ] ] ] } },
{ "type": "Feature", "properties": { "FID": 89788, "id": 2502, "left": 165.0, "top": 5.0, "right": 170.0, "bottom": 0.0, "row_index": 17, "col_index": 69, "min_lon": 165.0, "min_lat": 0.0, "tile_id": "165_0" }, "geometry": { "type": "MultiPolygon", "coordinates": [ [ [ [ 168.7578978, 4.6726651 ], [ 168.757563800000014, 4.6732689 ], [ 168.7571293, 4.6739426 ], [ 168.756984499999987, 4.674258 ], [ 168.7570435, 4.6748996 ], [ 168.7576282, 4.6755626 ], [ 168.757719400000013, 4.6764662 ], [ 168.7579232, 4.6767121 ], [ 168.75817, 4.6767602 ], [ 168.7588566, 4.6767602 ], [ 168.7591746, 4.6764529 ], [ 168.759432299999986, 4.676041 ], [ 168.7595637, 4.6756534 ], [ 168.7595267, 4.6753478 ], [ 168.7595436, 4.674994 ], [ 168.7593728, 4.674603 ], [ 168.75913460000001, 4.6741819 ], [ 168.7589054, 4.6739128 ], [ 168.758552900000012, 4.6736539 ], [ 168.7582487, 4.6734648 ], [ 168.7580538, 4.6731761 ], [ 168.7584113, 4.672704 ], [ 168.7585569, 4.6724999 ], [ 168.7586957, 4.6718307 ], [ 168.758241199999986, 4.6723708 ], [ 168.7578978, 4.6726651 ] ] ] ] } },
{ "type": "Feature", "properties": { "FID": 89823, "id": 2502, "left": 165.0, "top": 5.0, "right": 170.0, "bottom": 0.0, "row_index": 17, "col_index": 69, "min_lon": 165.0, "min_lat": 0.0, "tile_id": "165_0" }, "geometry": { "type": "MultiPolygon", "coordinates": [ [ [ [ 168.6661712, 4.6638413 ], [ 168.6658248, 4.6643503 ], [ 168.665238499999987, 4.6649833 ], [ 168.6649409, 4.6652578 ], [ 168.6648832, 4.6656651 ], [ 168.6651053, 4.6663733 ], [ 168.6657226, 4.6682148 ], [ 168.6658536, 4.6691268 ], [ 168.6660646, 4.6701625 ], [ 168.6664199, 4.6706052 ], [ 168.6673482, 4.6712426 ], [ 168.667672399999987, 4.6716455 ], [ 168.66767680000001, 4.6720084 ], [ 168.667961100000014, 4.6724821 ], [ 168.6682276, 4.6729734 ], [ 168.6686895, 4.673239 ], [ 168.6694001, 4.6733231 ], [ 168.669915300000014, 4.6730531 ], [ 168.6703106, 4.6726813 ], [ 168.6709812, 4.6728274 ], [ 168.6718473, 4.6724865 ], [ 168.6720516, 4.6719332 ], [ 168.671918299999987, 4.6715746 ], [ 168.671341, 4.6715082 ], [ 168.670426, 4.6712559 ], [ 168.6699508, 4.6710921 ], [ 168.669564400000013, 4.670614 ], [ 168.6691336, 4.6698527 ], [ 168.668809399999986, 4.669109 ], [ 168.6684807, 4.6679736 ], [ 168.6677879, 4.6659461 ], [ 168.666855199999986, 4.6638302 ], [ 168.6667086, 4.6636288 ], [ 168.6664688, 4.6636908 ], [ 168.6661712, 4.6638413 ] ] ] ] } },
{ "type": "Feature", "properties": { "FID": 89827, "id": 2502, "left": 165.0, "top": 5.0, "right": 170.0, "bottom": 0.0, "row_index": 17, "col_index": 69, "min_lon": 165.0, "min_lat": 0.0, "tile_id": "165_0" }, "geometry": { "type": "MultiPolygon", "coordinates": [ [ [ [ 168.7625665, 4.6673954 ], [ 168.7623313, 4.667924 ], [ 168.762679, 4.6681762 ], [ 168.76300950000001, 4.6685583 ], [ 168.7633404, 4.6686136 ], [ 168.7637782, 4.6684771 ], [ 168.7640528, 4.6679246 ], [ 168.7642372, 4.6675106 ], [ 168.7643069, 4.6672112 ], [ 168.7641138, 4.6668423 ], [ 168.763883099999987, 4.6668423 ], [ 168.7636042, 4.6668423 ], [ 168.7629819, 4.6669278 ], [ 168.7625665, 4.6673954 ] ] ] ] } },
{ "type": "Feature", "properties": { "FID": 89889, "id": 2502, "left": 165.0, "top": 5.0, "right": 170.0, "bottom": 0.0, "row_index": 17, "col_index": 69, "min_lon": 165.0, "min_lat": 0.0, "tile_id": "165_0" }, "geometry": { "type": "MultiPolygon", "coordinates": [ [ [ [ 168.6776781, 4.6052157 ], [ 168.6775509, 4.6057055 ], [ 168.6774853, 4.6063059 ], [ 168.6774819, 4.6073365 ], [ 168.6777755, 4.6074663 ], [ 168.677865700000012, 4.6075952 ], [ 168.6782173, 4.6075665 ], [ 168.6784869, 4.6073585 ], [ 168.6785438, 4.6067385 ], [ 168.6790844, 4.6064716 ], [ 168.679837099999986, 4.6063314 ], [ 168.6800534, 4.6060568 ], [ 168.6809179, 4.6062811 ], [ 168.6815583, 4.6067552 ], [ 168.6818035, 4.6071526 ], [ 168.6819631, 4.6076526 ], [ 168.681812900000011, 4.607952 ], [ 168.6816359, 4.6081178 ], [ 168.681523199999987, 4.608321 ], [ 168.6813194, 4.6089145 ], [ 168.681131599999986, 4.609123 ], [ 168.6810082, 4.6093743 ], [ 168.6809546, 4.6095668 ], [ 168.6812496, 4.6099144 ], [ 168.6817753, 4.6099144 ], [ 168.6820952, 4.6097984 ], [ 168.6826605, 4.6094866 ], [ 168.683253, 4.608901 ], [ 168.6834598, 4.6085669 ], [ 168.6833847, 4.6082033 ], [ 168.6831218, 4.6078076 ], [ 168.6827892, 4.6075242 ], [ 168.6825854, 4.6072997 ], [ 168.6824834, 4.6067917 ], [ 168.6823082, 4.6062852 ], [ 168.6820309, 4.6057701 ], [ 168.6817337, 4.6050712 ], [ 168.681436, 4.6048109 ], [ 168.680894, 4.6044046 ], [ 168.6803176, 4.6042205 ], [ 168.6801237, 4.6039689 ], [ 168.6799087, 4.603948 ], [ 168.679530699999987, 4.6040851 ], [ 168.6791848, 4.6043221 ], [ 168.6780555, 4.6048116 ], [ 168.6777755, 4.6050422 ], [ 168.6776781, 4.6052157 ] ] ] ] } },
{ "type": "Feature", "properties": { "FID": 89893, "id": 2502, "left": 165.0, "top": 5.0, "right": 170.0, "bottom": 0.0, "row_index": 17, "col_index": 69, "min_lon": 165.0, "min_lat": 0.0, "tile_id": "165_0" }, "geometry": { "type": "MultiPolygon", "coordinates": [ [ [ [ 168.681080900000012, 4.675397 ], [ 168.680961, 4.675698 ], [ 168.6807833, 4.6759725 ], [ 168.6805879, 4.6762912 ], [ 168.6803354, 4.6769036 ], [ 168.68038580000001, 4.677265 ], [ 168.6804191, 4.6776634 ], [ 168.680565699999988, 4.6780286 ], [ 168.6807145, 4.6783252 ], [ 168.6809788, 4.6784204 ], [ 168.6813325, 4.6788267 ], [ 168.6815983, 4.678998 ], [ 168.682073699999989, 4.6791228 ], [ 168.6823258, 4.6791289 ], [ 168.682593, 4.679133 ], [ 168.6827997, 4.6791501 ], [ 168.6829308, 4.6791131 ], [ 168.683417100000014, 4.6786572 ], [ 168.683669, 4.6781931 ], [ 168.683650300000011, 4.6779512 ], [ 168.6830573, 4.6773646 ], [ 168.6823445, 4.6766254 ], [ 168.6816072, 4.67549 ], [ 168.6814651, 4.6751071 ], [ 168.6813163, 4.6750053 ], [ 168.6811808, 4.6750185 ], [ 168.681072, 4.6751137 ], [ 168.681080900000012, 4.675397 ] ] ] ] } },
{ "type": "Feature", "properties": { "FID": 89931, "id": 2502, "left": 165.0, "top": 5.0, "right": 170.0, "bottom": 0.0, "row_index": 17, "col_index": 69, "min_lon": 165.0, "min_lat": 0.0, "tile_id": "165_0" }, "geometry": { "type": "MultiPolygon", "coordinates": [ [ [ [ 168.660787, 4.6213142 ], [ 168.660650299999986, 4.6213784 ], [ 168.660433, 4.6214586 ], [ 168.6603713, 4.6215442 ], [ 168.6603874, 4.6216805 ], [ 168.660452600000013, 4.6219265 ], [ 168.6605778, 4.6223729 ], [ 168.660695800000013, 4.6225547 ], [ 168.660797800000012, 4.6226697 ], [ 168.6609158, 4.6227205 ], [ 168.6610445, 4.6227873 ], [ 168.6611438, 4.6228355 ], [ 168.6612269, 4.6228461 ], [ 168.661371800000012, 4.622774 ], [ 168.6615434, 4.6227205 ], [ 168.6617017, 4.6227045 ], [ 168.661945800000012, 4.6226911 ], [ 168.6621389, 4.6226323 ], [ 168.6622623, 4.6225039 ], [ 168.662342700000011, 4.6221992 ], [ 168.662399099999988, 4.6220281 ], [ 168.6625224, 4.6219051 ], [ 168.66267, 4.6218142 ], [ 168.662705499999987, 4.6217761 ], [ 168.6626968, 4.6217099 ], [ 168.662627, 4.6216805 ], [ 168.6624688, 4.6216645 ], [ 168.6623239, 4.621611 ], [ 168.662074499999989, 4.6215067 ], [ 168.6618465, 4.6214319 ], [ 168.6615837, 4.6213249 ], [ 168.661385200000012, 4.621226 ], [ 168.6612752, 4.6211298 ], [ 168.66119470000001, 4.621095 ], [ 168.661068699999987, 4.6211191 ], [ 168.6609721, 4.6211752 ], [ 168.660787, 4.6213142 ] ] ] ] } },
{ "type": "Feature", "properties": { "FID": 89966, "id": 2502, "left": 165.0, "top": 5.0, "right": 170.0, "bottom": 0.0, "row_index": 17, "col_index": 69, "min_lon": 165.0, "min_lat": 0.0, "tile_id": "165_0" }, "geometry": { "type": "MultiPolygon", "coordinates": [ [ [ [ 168.6698395, 4.6074066 ], [ 168.669796600000012, 4.6070056 ], [ 168.669464, 4.6064174 ], [ 168.6691207, 4.6063158 ], [ 168.6686271, 4.6063051 ], [ 168.668310600000012, 4.6063318 ], [ 168.6677527, 4.6065885 ], [ 168.667506, 4.6070804 ], [ 168.6670929, 4.6074066 ], [ 168.6663848, 4.6078772 ], [ 168.6656678, 4.6085858 ], [ 168.6651939, 4.6094385 ], [ 168.664537700000011, 4.6101989 ], [ 168.663909100000012, 4.6109914 ], [ 168.6635608, 4.6115847 ], [ 168.663357, 4.6122478 ], [ 168.6635728, 4.613071 ], [ 168.6638544, 4.613603 ], [ 168.664500299999986, 4.6140557 ], [ 168.665135600000013, 4.61438 ], [ 168.66539130000001, 4.6146385 ], [ 168.6658991, 4.6150743 ], [ 168.666287399999987, 4.6152858 ], [ 168.6665219, 4.6153418 ], [ 168.6665786, 4.615109 ], [ 168.6665497, 4.6147359 ], [ 168.6668832, 4.6139753 ], [ 168.6674697, 4.6132408 ], [ 168.667883100000012, 4.6126738 ], [ 168.6684811, 4.6119441 ], [ 168.6691046, 4.6111549 ], [ 168.6695981, 4.6107271 ], [ 168.6700266, 4.6104034 ], [ 168.670815800000014, 4.6099037 ], [ 168.6714551, 4.6097394 ], [ 168.6722531, 4.6097903 ], [ 168.6725792, 4.6100006 ], [ 168.6729287, 4.6096836 ], [ 168.672861899999987, 4.60952 ], [ 168.6728963, 4.609442 ], [ 168.672518599999989, 4.6091336 ], [ 168.671828299999987, 4.608992 ], [ 168.671389799999986, 4.6087862 ], [ 168.6711699, 4.6086257 ], [ 168.67016670000001, 4.6081392 ], [ 168.6698395, 4.6074066 ] ] ] ] } },
{ "type": "Feature", "properties": { "FID": 90012, "id": 2502, "left": 165.0, "top": 5.0, "right": 170.0, "bottom": 0.0, "row_index": 17, "col_index": 69, "min_lon": 165.0, "min_lat": 0.0, "tile_id": "165_0" }, "geometry": { "type": "MultiPolygon", "coordinates": [ [ [ [ 168.6625856, 4.6193938 ], [ 168.662583, 4.6197602 ], [ 168.662632300000013, 4.6200042 ], [ 168.662806, 4.6201692 ], [ 168.6630619, 4.6204276 ], [ 168.663515499999988, 4.6204891 ], [ 168.663404500000013, 4.6201717 ], [ 168.663188, 4.6199587 ], [ 168.6630447, 4.6197325 ], [ 168.6629165, 4.6195392 ], [ 168.6626919, 4.619415 ], [ 168.6625856, 4.6193938 ] ] ] ] } },
{ "type": "Feature", "properties": { "FID": 485803, "id": 2502, "left": 165.0, "top": 5.0, "right": 170.0, "bottom": 0.0, "row_index": 17, "col_index": 69, "min_lon": 165.0, "min_lat": 0.0, "tile_id": "165_0" }, "geometry": { "type": "MultiPolygon", "coordinates": [ [ [ [ 168.7694943, 4.6211806 ], [ 168.7693759, 4.6210057 ], [ 168.76912, 4.6207471 ], [ 168.7687862, 4.6206566 ], [ 168.7685502, 4.6206673 ], [ 168.7682819, 4.6206993 ], [ 168.7680781, 4.6207207 ], [ 168.7679815, 4.6206619 ], [ 168.7678367, 4.6206148 ], [ 168.76775090000001, 4.6206886 ], [ 168.76775090000001, 4.6208651 ], [ 168.7678635, 4.6209346 ], [ 168.7679976, 4.6209774 ], [ 168.7682605, 4.6211164 ], [ 168.7683946, 4.6211752 ], [ 168.768754, 4.6212875 ], [ 168.7689364, 4.6213731 ], [ 168.7694276, 4.6212916 ], [ 168.7694943, 4.6211806 ] ] ] ] } },
{ "type": "Feature", "properties": { "FID": 485804, "id": 2502, "left": 165.0, "top": 5.0, "right": 170.0, "bottom": 0.0, "row_index": 17, "col_index": 69, "min_lon": 165.0, "min_lat": 0.0, "tile_id": "165_0" }, "geometry": { "type": "MultiPolygon", "coordinates": [ [ [ [ 168.7683319, 4.619479 ], [ 168.7688441, 4.6198664 ], [ 168.7696148, 4.6197406 ], [ 168.7696156, 4.619483 ], [ 168.7691021, 4.6194813 ], [ 168.7690062, 4.6192451 ], [ 168.7687647, 4.6190311 ], [ 168.7682376, 4.6188771 ], [ 168.7683319, 4.619479 ] ] ] ] } },
{ "type": "Feature", "properties": { "FID": 485805, "id": 2502, "left": 165.0, "top": 5.0, "right": 170.0, "bottom": 0.0, "row_index": 17, "col_index": 69, "min_lon": 165.0, "min_lat": 0.0, "tile_id": "165_0" }, "geometry": { "type": "MultiPolygon", "coordinates": [ [ [ [ 168.673219, 4.6064452 ], [ 168.672818799999988, 4.6065082 ], [ 168.672779600000013, 4.6072939 ], [ 168.6728688, 4.6079816 ], [ 168.6730211, 4.6084664 ], [ 168.673454, 4.6086398 ], [ 168.6737108, 4.6086407 ], [ 168.674097100000012, 4.6081267 ], [ 168.673758, 4.6075818 ], [ 168.673630800000012, 4.6073238 ], [ 168.673531200000014, 4.6070285 ], [ 168.673431, 4.6066577 ], [ 168.673219, 4.6064452 ] ] ] ] } },
{ "type": "Feature", "properties": { "FID": 568967, "id": 2502, "left": 165.0, "top": 5.0, "right": 170.0, "bottom": 0.0, "row_index": 17, "col_index": 69, "min_lon": 165.0, "min_lat": 0.0, "tile_id": "165_0" }, "geometry": { "type": "MultiPolygon", "coordinates": [ [ [ [ 168.759021600000011, 4.603534 ], [ 168.759076599999986, 4.6035407 ], [ 168.759204, 4.6035674 ], [ 168.7592952, 4.6035848 ], [ 168.759320699999989, 4.6035727 ], [ 168.759318, 4.6035447 ], [ 168.7592804, 4.6034965 ], [ 168.7592429, 4.603431 ], [ 168.759218800000014, 4.6033575 ], [ 168.7591825, 4.6033201 ], [ 168.7591477, 4.6033081 ], [ 168.7590779, 4.6033254 ], [ 168.7590659, 4.6033736 ], [ 168.7590726, 4.6034351 ], [ 168.7590712, 4.6034818 ], [ 168.7590578, 4.6034992 ], [ 168.7590109, 4.6035032 ], [ 168.759001500000011, 4.6035193 ], [ 168.759021600000011, 4.603534 ] ] ] ] } },
{ "type": "Feature", "properties": { "FID": 568968, "id": 2502, "left": 165.0, "top": 5.0, "right": 170.0, "bottom": 0.0, "row_index": 17, "col_index": 69, "min_lon": 165.0, "min_lat": 0.0, "tile_id": "165_0" }, "geometry": { "type": "MultiPolygon", "coordinates": [ [ [ [ 168.758100899999988, 4.6033081 ], [ 168.7581492, 4.6033101 ], [ 168.758179399999989, 4.603302 ], [ 168.758189499999986, 4.6032887 ], [ 168.7581868, 4.6032512 ], [ 168.758162, 4.6031904 ], [ 168.7581365, 4.6031463 ], [ 168.7580922, 4.6030875 ], [ 168.7580439, 4.6030541 ], [ 168.757976899999989, 4.6030327 ], [ 168.7579125, 4.6030327 ], [ 168.7577248, 4.6030474 ], [ 168.7576014, 4.6030648 ], [ 168.7574807, 4.6030714 ], [ 168.757413, 4.6030654 ], [ 168.7573667, 4.6030467 ], [ 168.7573224, 4.603032 ], [ 168.757287600000012, 4.6030293 ], [ 168.757242600000012, 4.6030313 ], [ 168.757199, 4.60304 ], [ 168.757125300000013, 4.6030594 ], [ 168.7570462, 4.6030995 ], [ 168.7570207, 4.6031243 ], [ 168.7570173, 4.6031456 ], [ 168.757024699999988, 4.603161 ], [ 168.7570804, 4.6031837 ], [ 168.7571226, 4.6031938 ], [ 168.7571843, 4.6031931 ], [ 168.7572366, 4.6031851 ], [ 168.757290899999987, 4.6031704 ], [ 168.7573553, 4.603169 ], [ 168.7574016, 4.6031777 ], [ 168.7574673, 4.6032071 ], [ 168.7575109, 4.6032238 ], [ 168.757563800000014, 4.6032345 ], [ 168.7577013, 4.6032279 ], [ 168.757769, 4.6032305 ], [ 168.7578294, 4.6032459 ], [ 168.757943399999988, 4.6032766 ], [ 168.7580252, 4.6032947 ], [ 168.758100899999988, 4.6033081 ] ] ] ] } }
]
}
