{
"type": "FeatureCollection",
"name": "170_70",
"crs": { "type": "name", "properties": { "name": "urn:ogc:def:crs:OGC:1.3:CRS84" } },
"xy_coordinate_resolution": 1e-15,
"features": [
{ "type": "Feature", "properties": { "FID": 123912, "id": 2524, "left": 170.0, "top": 75.0, "right": 175.0, "bottom": 70.0, "row_index": 3, "col_index": 70, "min_lon": 170.0, "min_lat": 70.0, "tile_id": "170_70" }, "geometry": { "type": "MultiPolygon", "coordinates": [ [ [ [ 170.5520909, 70.0005141 ], [ 170.551972799999987, 70.0010046 ], [ 170.5520368, 70.0015675 ], [ 170.5517149, 70.0020225 ], [ 170.5515356, 70.0027448 ], [ 170.552305, 70.0035745 ], [ 170.553774800000014, 70.0049172 ], [ 170.5547941, 70.0062232 ], [ 170.556092299999989, 70.0070376 ], [ 170.557047, 70.0082263 ], [ 170.560641299999986, 70.0108815 ], [ 170.564148100000011, 70.0137013 ], [ 170.5676579, 70.0167158 ], [ 170.571609, 70.0207742 ], [ 170.5775499, 70.0278225 ], [ 170.5808544, 70.0323514 ], [ 170.5816805, 70.0340147 ], [ 170.5827105, 70.0360295 ], [ 170.5841374, 70.0398901 ], [ 170.5845129, 70.0410144 ], [ 170.5846631, 70.0429407 ], [ 170.584631, 70.044226 ], [ 170.5845559, 70.0453538 ], [ 170.5847812, 70.0473638 ], [ 170.5847812, 70.0478105 ], [ 170.5846631, 70.0480887 ], [ 170.5844164, 70.0488282 ], [ 170.584309100000013, 70.049769 ], [ 170.5843735, 70.0508636 ], [ 170.5847382, 70.0524156 ], [ 170.5849206, 70.0536344 ], [ 170.5850816, 70.0558596 ], [ 170.5850386, 70.0561743 ], [ 170.5848455, 70.0564305 ], [ 170.58483480000001, 70.0566757 ], [ 170.5848777, 70.0580479 ], [ 170.584909900000014, 70.058337 ], [ 170.584909900000014, 70.05852 ], [ 170.584802599999989, 70.0587176 ], [ 170.5846417, 70.0588896 ], [ 170.583965799999987, 70.0614362 ], [ 170.5834937, 70.0638727 ], [ 170.583086, 70.0652189 ], [ 170.5822277, 70.0671831 ], [ 170.581122599999986, 70.0692606 ], [ 170.580360899999988, 70.0710233 ], [ 170.579974600000014, 70.0717839 ], [ 170.578043400000013, 70.074435 ], [ 170.5763268, 70.0763581 ], [ 170.57549, 70.0771844 ], [ 170.573859199999987, 70.0784493 ], [ 170.5724859, 70.0793632 ], [ 170.571584699999988, 70.0799334 ], [ 170.570662, 70.0804452 ], [ 170.5696749, 70.0810812 ], [ 170.5682158, 70.0817464 ], [ 170.566628, 70.0823897 ], [ 170.5648792, 70.0830367 ], [ 170.5626368, 70.083848 ], [ 170.559622, 70.0847653 ], [ 170.5566287, 70.0854158 ], [ 170.555191, 70.0856899 ], [ 170.5540001, 70.0858544 ], [ 170.5501377, 70.0864244 ], [ 170.5480134, 70.086735 ], [ 170.547241, 70.0868556 ], [ 170.5463934, 70.0869726 ], [ 170.5456316, 70.087053 ], [ 170.54492350000001, 70.0871224 ], [ 170.5443871, 70.0871407 ], [ 170.5429923, 70.0871918 ], [ 170.5408573, 70.0872576 ], [ 170.53972, 70.0873343 ], [ 170.536973499999988, 70.0875572 ], [ 170.5353534, 70.0876851 ], [ 170.53267120000001, 70.087824 ], [ 170.5313945, 70.0879044 ], [ 170.5310404, 70.0878934 ], [ 170.530622, 70.0878642 ], [ 170.5284226, 70.0877765 ], [ 170.527575, 70.0877911 ], [ 170.526684499999988, 70.0878422 ], [ 170.5258584, 70.0879263 ], [ 170.5248928, 70.0880834 ], [ 170.523916500000013, 70.0881711 ], [ 170.5225432, 70.0882332 ], [ 170.5220497, 70.0882332 ], [ 170.5215239, 70.088193 ], [ 170.5199039, 70.0881346 ], [ 170.5189919, 70.0881821 ], [ 170.5178118, 70.0883611 ], [ 170.5172217, 70.088405 ], [ 170.5165136, 70.0884269 ], [ 170.515322700000013, 70.0884123 ], [ 170.5144966, 70.0884671 ], [ 170.513938700000011, 70.0885146 ], [ 170.513262700000013, 70.0885694 ], [ 170.5128121, 70.0885621 ], [ 170.5122006, 70.0885401 ], [ 170.5116641, 70.0885347 ], [ 170.5111116, 70.0885602 ], [ 170.510661, 70.0885694 ], [ 170.5101031, 70.0885694 ], [ 170.5095935, 70.0885822 ], [ 170.509132099999988, 70.0886297 ], [ 170.5085528, 70.0887521 ], [ 170.5080807, 70.0888434 ], [ 170.5061173, 70.0890425 ], [ 170.5058008, 70.0890718 ], [ 170.5055433, 70.0890718 ], [ 170.504663599999986, 70.0890572 ], [ 170.5037892, 70.0890663 ], [ 170.502786, 70.089143 ], [ 170.5024266, 70.0891832 ], [ 170.5021906, 70.0892508 ], [ 170.5014396, 70.0895084 ], [ 170.5008602, 70.0896874 ], [ 170.5004203, 70.0897843 ], [ 170.5000824, 70.0898336 ], [ 170.4983336, 70.0900382 ], [ 170.4947984, 70.0904474 ], [ 170.4924756, 70.0907652 ], [ 170.491161299999987, 70.0908913 ], [ 170.4899543, 70.0910192 ], [ 170.4890853, 70.091147 ], [ 170.48855420000001, 70.0912859 ], [ 170.488366500000012, 70.0913261 ], [ 170.4881251, 70.0913516 ], [ 170.487765700000011, 70.091379 ], [ 170.4874438, 70.0914028 ], [ 170.4870039, 70.0914557 ], [ 170.4863334, 70.0915818 ], [ 170.485807599999987, 70.0916713 ], [ 170.4850674, 70.0917736 ], [ 170.48415, 70.0918923 ], [ 170.4835224, 70.0919782 ], [ 170.482766, 70.0921755 ], [ 170.4822081, 70.0923599 ], [ 170.4818702, 70.092475 ], [ 170.481548299999986, 70.0926339 ], [ 170.4812211, 70.0927106 ], [ 170.4808241, 70.0927801 ], [ 170.4797351, 70.0930266 ], [ 170.4784316, 70.0932623 ], [ 170.477289, 70.093454 ], [ 170.4750895, 70.0938267 ], [ 170.474301, 70.0939527 ], [ 170.473689400000012, 70.0940148 ], [ 170.472900900000013, 70.0940732 ], [ 170.470385, 70.0942504 ], [ 170.4694247, 70.094307 ], [ 170.4681051, 70.0943582 ], [ 170.46749890000001, 70.0943874 ], [ 170.467236, 70.0943782 ], [ 170.4668981, 70.094349 ], [ 170.4664421, 70.0943271 ], [ 170.465900299999987, 70.0943253 ], [ 170.4646289, 70.0943161 ], [ 170.4632503, 70.0943289 ], [ 170.4625207, 70.0943582 ], [ 170.460106700000011, 70.0943947 ], [ 170.4552466, 70.0945645 ], [ 170.453653300000013, 70.0946705 ], [ 170.452044, 70.0948239 ], [ 170.4510999, 70.0949225 ], [ 170.4490721, 70.0951928 ], [ 170.4481602, 70.0953134 ], [ 170.446781499999986, 70.0954923 ], [ 170.4444373, 70.0957572 ], [ 170.4434073, 70.0959252 ], [ 170.4418838, 70.0962156 ], [ 170.440253, 70.0965881 ], [ 170.4398185, 70.0967159 ], [ 170.4388797, 70.0969442 ], [ 170.438187699999986, 70.0970447 ], [ 170.4372758, 70.0971762 ], [ 170.4363531, 70.0973606 ], [ 170.4351139, 70.0976163 ], [ 170.4344916, 70.0977916 ], [ 170.433805, 70.0980783 ], [ 170.4323727, 70.0989237 ], [ 170.431187099999988, 70.0996414 ], [ 170.429722700000013, 70.1007862 ], [ 170.4293203, 70.1010802 ], [ 170.4279363, 70.1019931 ], [ 170.4274213, 70.1023893 ], [ 170.426670300000012, 70.1030903 ], [ 170.4265308, 70.1033532 ], [ 170.426268, 70.104162 ], [ 170.426380599999987, 70.1045435 ], [ 170.426434300000011, 70.1046768 ], [ 170.426445, 70.104821 ], [ 170.426380599999987, 70.1057483 ], [ 170.426375299999989, 70.1066994 ], [ 170.4264718, 70.1070243 ], [ 170.4266059, 70.1071904 ], [ 170.4269922, 70.107738 ], [ 170.4271853, 70.1079314 ], [ 170.4274106, 70.1083038 ], [ 170.4275608, 70.108448 ], [ 170.4278827, 70.1086579 ], [ 170.4281241, 70.1088294 ], [ 170.428944800000011, 70.1093605 ], [ 170.429615399999989, 70.1099373 ], [ 170.4299211, 70.1102512 ], [ 170.4301357, 70.1103862 ], [ 170.4304951, 70.1105468 ], [ 170.4320562, 70.1112677 ], [ 170.4333222, 70.1118407 ], [ 170.4343039, 70.1122075 ], [ 170.434835, 70.1123645 ], [ 170.436487199999988, 70.1128882 ], [ 170.4394752, 70.1137714 ], [ 170.440982600000012, 70.1141746 ], [ 170.445199, 70.1153679 ], [ 170.4471624, 70.1159518 ], [ 170.4488093, 70.1163441 ], [ 170.4496944, 70.1165192 ], [ 170.450252299999988, 70.1166579 ], [ 170.4517329, 70.1171213 ], [ 170.452505300000013, 70.1173256 ], [ 170.453363700000011, 70.1175446 ], [ 170.4558635, 70.1182068 ], [ 170.4582131, 70.1186738 ], [ 170.4594576, 70.1188745 ], [ 170.4607236, 70.1190277 ], [ 170.46313760000001, 70.119181 ], [ 170.465101, 70.1192612 ], [ 170.466946400000012, 70.119316 ], [ 170.4688346, 70.1192977 ], [ 170.4706371, 70.1192248 ], [ 170.4726863, 70.1192029 ], [ 170.4744029, 70.1192394 ], [ 170.4772997, 70.1194656 ], [ 170.4814625, 70.1198268 ], [ 170.4838335, 70.1199763 ], [ 170.4864406, 70.1200457 ], [ 170.491579800000011, 70.1202208 ], [ 170.4939186, 70.1203813 ], [ 170.4952276, 70.120436 ], [ 170.4970729, 70.1204725 ], [ 170.5020082, 70.1205163 ], [ 170.5058062, 70.1206075 ], [ 170.5081236, 70.1206221 ], [ 170.5098724, 70.120706 ], [ 170.5115676, 70.1207899 ], [ 170.512790700000011, 70.1208665 ], [ 170.5136919, 70.1209614 ], [ 170.516084400000011, 70.121235 ], [ 170.5223608, 70.122074 ], [ 170.5259979, 70.1225592 ], [ 170.526845400000013, 70.1227051 ], [ 170.5280793, 70.1228766 ], [ 170.529753, 70.1230079 ], [ 170.5315339, 70.1230772 ], [ 170.5333257, 70.1231392 ], [ 170.5345595, 70.1231502 ], [ 170.5354285, 70.123183 ], [ 170.5362868, 70.1232633 ], [ 170.5372631, 70.1233873 ], [ 170.5380142, 70.1234347 ], [ 170.5389208, 70.1234365 ], [ 170.5395591, 70.1234383 ], [ 170.5398595, 70.1234657 ], [ 170.5402082, 70.1235241 ], [ 170.540632, 70.1235915 ], [ 170.541179199999988, 70.1236572 ], [ 170.5419087, 70.1236809 ], [ 170.542804600000011, 70.1237119 ], [ 170.544215400000013, 70.1236572 ], [ 170.5452615, 70.1235788 ], [ 170.546302200000014, 70.1235022 ], [ 170.5468708, 70.1234146 ], [ 170.5475092, 70.1233417 ], [ 170.5479705, 70.1233307 ], [ 170.548367500000012, 70.1233818 ], [ 170.5487966, 70.1234165 ], [ 170.5492312, 70.123411 ], [ 170.549590599999988, 70.123369 ], [ 170.5498373, 70.123276 ], [ 170.5501002, 70.1231611 ], [ 170.5505991, 70.1230517 ], [ 170.5512804, 70.1229605 ], [ 170.5521709, 70.1227763 ], [ 170.5530882, 70.1225027 ], [ 170.5540806, 70.1221671 ], [ 170.5546439, 70.1220339 ], [ 170.5564517, 70.1216946 ], [ 170.5570739, 70.1215341 ], [ 170.5580181, 70.1212769 ], [ 170.5612743, 70.1205163 ], [ 170.563720499999988, 70.1199399 ], [ 170.565029399999986, 70.1196717 ], [ 170.5655336, 70.1195549 ], [ 170.56670840000001, 70.1192284 ], [ 170.5686986, 70.1187869 ], [ 170.5714506, 70.1181685 ], [ 170.5723625, 70.1180061 ], [ 170.5729526, 70.1178875 ], [ 170.573236900000012, 70.1178036 ], [ 170.5734622, 70.1176978 ], [ 170.5747122, 70.1172107 ], [ 170.5765575, 70.1164171 ], [ 170.5770296, 70.1162492 ], [ 170.5774212, 70.1161562 ], [ 170.578408200000013, 70.1158569 ], [ 170.5835151, 70.114244 ], [ 170.5908966, 70.1118499 ], [ 170.5948555, 70.1106198 ], [ 170.5965507, 70.1100979 ], [ 170.5973554, 70.1099081 ], [ 170.5990505, 70.1096124 ], [ 170.6007564, 70.1093167 ], [ 170.6018937, 70.1090977 ], [ 170.6035566, 70.1087509 ], [ 170.6048763, 70.1085064 ], [ 170.6056112, 70.1083823 ], [ 170.6062335, 70.108249 ], [ 170.60736, 70.1078402 ], [ 170.6078857, 70.1076449 ], [ 170.6084329, 70.1074477 ], [ 170.608808399999987, 70.1073273 ], [ 170.6092375, 70.1072123 ], [ 170.610584, 70.1068563 ], [ 170.6160128, 70.1052171 ], [ 170.621345, 70.1038297 ], [ 170.6259906, 70.1027745 ], [ 170.6314409, 70.1016717 ], [ 170.6344986, 70.1010984 ], [ 170.6377387, 70.1006128 ], [ 170.642352100000011, 70.099897 ], [ 170.644122399999986, 70.0996888 ], [ 170.6460535, 70.0994989 ], [ 170.647856, 70.099309 ], [ 170.6494224, 70.0992177 ], [ 170.6506669, 70.0991703 ], [ 170.652533799999986, 70.0991885 ], [ 170.6532311, 70.0992287 ], [ 170.6537568, 70.0993236 ], [ 170.654207500000012, 70.0994186 ], [ 170.6545722, 70.0994515 ], [ 170.6550765, 70.0994442 ], [ 170.6559724, 70.0993894 ], [ 170.656927200000013, 70.0993419 ], [ 170.6576139, 70.0993036 ], [ 170.659942, 70.0991246 ], [ 170.660687700000011, 70.0990315 ], [ 170.6613475, 70.0989621 ], [ 170.66205020000001, 70.0989146 ], [ 170.6623989, 70.0989146 ], [ 170.6629729, 70.0990041 ], [ 170.6634611, 70.099026 ], [ 170.6642067, 70.0990461 ], [ 170.664630499999987, 70.0990899 ], [ 170.6648827, 70.0991155 ], [ 170.6654566, 70.0991337 ], [ 170.6661379, 70.0991611 ], [ 170.66661, 70.0991611 ], [ 170.667184, 70.0991228 ], [ 170.6675541, 70.0990771 ], [ 170.667865299999988, 70.0990187 ], [ 170.6681496, 70.0990041 ], [ 170.6684554, 70.0990114 ], [ 170.668916700000011, 70.099037 ], [ 170.669356599999986, 70.0990278 ], [ 170.669598, 70.0990187 ], [ 170.6700486, 70.0989603 ], [ 170.6706548, 70.0989292 ], [ 170.6715721, 70.0989037 ], [ 170.67215680000001, 70.0988963 ], [ 170.672527, 70.0989256 ], [ 170.6728971, 70.0989858 ], [ 170.673304800000011, 70.0990096 ], [ 170.673932400000012, 70.0989803 ], [ 170.6746513, 70.0989347 ], [ 170.6753594, 70.0988215 ], [ 170.67578850000001, 70.0987667 ], [ 170.6760567, 70.0987484 ], [ 170.67636250000001, 70.0987594 ], [ 170.6772906, 70.0989055 ], [ 170.6777841, 70.0990333 ], [ 170.678213199999988, 70.0991301 ], [ 170.6784546, 70.0991611 ], [ 170.678921300000013, 70.0991849 ], [ 170.6795275, 70.0991867 ], [ 170.680090799999988, 70.0991849 ], [ 170.6814319, 70.099121 ], [ 170.6821185, 70.0990826 ], [ 170.682703299999986, 70.0990278 ], [ 170.6841356, 70.0989164 ], [ 170.684983100000011, 70.0988069 ], [ 170.6855142, 70.0987375 ], [ 170.686233, 70.0986498 ], [ 170.6870484, 70.098533 ], [ 170.687558, 70.0984252 ], [ 170.687928199999988, 70.0983704 ], [ 170.6883413, 70.0983558 ], [ 170.6892049, 70.0983595 ], [ 170.6899506, 70.0983157 ], [ 170.690766, 70.0982097 ], [ 170.6912166, 70.0981257 ], [ 170.6918925, 70.0979778 ], [ 170.6925845, 70.0979066 ], [ 170.6932926, 70.0978336 ], [ 170.694344, 70.0977459 ], [ 170.696135700000013, 70.0975962 ], [ 170.6971121, 70.0974647 ], [ 170.697777300000013, 70.0973661 ], [ 170.6986463, 70.0972638 ], [ 170.6996763, 70.0972236 ], [ 170.700545299999987, 70.097136 ], [ 170.701253400000013, 70.0969753 ], [ 170.702240499999988, 70.0967452 ], [ 170.7028627, 70.0965078 ], [ 170.703249, 70.0963032 ], [ 170.703731800000014, 70.0960731 ], [ 170.7041395, 70.0959051 ], [ 170.7044989, 70.0958393 ], [ 170.7052338, 70.095748 ], [ 170.7060009, 70.0956476 ], [ 170.7067198, 70.0955599 ], [ 170.707315200000011, 70.0954485 ], [ 170.7082915, 70.095149 ], [ 170.7092142, 70.0948458 ], [ 170.7124543, 70.094002 ], [ 170.719116899999989, 70.0923873 ], [ 170.727056299999987, 70.0905753 ], [ 170.733751, 70.0891905 ], [ 170.740091799999988, 70.0878678 ], [ 170.748648, 70.0862435 ], [ 170.753964200000013, 70.0852642 ], [ 170.7600367, 70.0842847 ], [ 170.764703700000013, 70.0835739 ], [ 170.7684159, 70.0830257 ], [ 170.772975699999989, 70.082419 ], [ 170.774917499999987, 70.0821705 ], [ 170.7803786, 70.0815747 ], [ 170.7853782, 70.0810922 ], [ 170.7904208, 70.0807815 ], [ 170.79618210000001, 70.0804927 ], [ 170.7995832, 70.0803428 ], [ 170.8017611, 70.0803246 ], [ 170.8030271, 70.0803575 ], [ 170.804067800000013, 70.0803319 ], [ 170.805784499999987, 70.0802588 ], [ 170.8070505, 70.080182 ], [ 170.8087027, 70.080171 ], [ 170.810022300000014, 70.0801674 ], [ 170.811106, 70.0801674 ], [ 170.8171141, 70.0800212 ], [ 170.8179188, 70.0800321 ], [ 170.819335, 70.0801016 ], [ 170.820654600000012, 70.0801637 ], [ 170.828433, 70.0800358 ], [ 170.8356857, 70.0800358 ], [ 170.845727900000014, 70.0801564 ], [ 170.854187599999989, 70.0803447 ], [ 170.8595574, 70.080564 ], [ 170.8651257, 70.0808345 ], [ 170.8700287, 70.0811232 ], [ 170.8726144, 70.0813005 ], [ 170.87712590000001, 70.0816094 ], [ 170.8794701, 70.0817903 ], [ 170.882871099999988, 70.0820516 ], [ 170.8878171, 70.0824902 ], [ 170.89073, 70.0827644 ], [ 170.8943832, 70.0831792 ], [ 170.8999193, 70.0838334 ], [ 170.9026658, 70.0840856 ], [ 170.904393199999987, 70.0842646 ], [ 170.9065175, 70.0845168 ], [ 170.90891, 70.0848201 ], [ 170.910873400000014, 70.0850394 ], [ 170.9138292, 70.0853647 ], [ 170.921323300000012, 70.0862125 ], [ 170.9300083, 70.0871388 ], [ 170.932974800000011, 70.0874184 ], [ 170.937910100000011, 70.0879153 ], [ 170.9416491, 70.088162 ], [ 170.9459352, 70.0884269 ], [ 170.9501141, 70.0885986 ], [ 170.9524208, 70.0886589 ], [ 170.9567338, 70.0887356 ], [ 170.959775400000012, 70.0887649 ], [ 170.9616584, 70.0887521 ], [ 170.9640402, 70.08871 ], [ 170.9682029, 70.0885931 ], [ 170.9695762, 70.0885274 ], [ 170.9754288, 70.0882113 ], [ 170.9826869, 70.0878057 ], [ 170.9867102, 70.0875682 ], [ 170.9908676, 70.0873087 ], [ 170.993185, 70.087126 ], [ 170.999102, 70.0866875 ], [ 171.0025781, 70.0864171 ], [ 171.0050297, 70.0862344 ], [ 171.007550900000012, 70.0860298 ], [ 171.0114562, 70.0857137 ], [ 171.014444200000014, 70.0854579 ], [ 171.016649, 70.0852678 ], [ 171.0213965, 70.0848348 ], [ 171.026878900000014, 70.0843414 ], [ 171.031487, 70.0839101 ], [ 171.038997099999989, 70.0831061 ], [ 171.0408425, 70.0828356 ], [ 171.043911, 70.0823514 ], [ 171.0468292, 70.0818707 ], [ 171.0499835, 70.0813517 ], [ 171.052655, 70.080946 ], [ 171.0551011, 70.0805073 ], [ 171.0568929, 70.0801747 ], [ 171.0610235, 70.0793997 ], [ 171.0681152, 70.0779448 ], [ 171.0747456, 70.0765994 ], [ 171.0782754, 70.0760145 ], [ 171.0814297, 70.0755392 ], [ 171.092383899999987, 70.0739158 ], [ 171.1005485, 70.0728005 ], [ 171.1107838, 70.0715645 ], [ 171.119474200000013, 70.0704309 ], [ 171.1407709, 70.0677354 ], [ 171.147766100000013, 70.066843 ], [ 171.1617565, 70.0648092 ], [ 171.1697173, 70.0637922 ], [ 171.1754465, 70.0630605 ], [ 171.185381400000011, 70.061802 ], [ 171.193063200000012, 70.0608215 ], [ 171.1960029, 70.0605654 ], [ 171.2095213, 70.0593067 ], [ 171.2158298, 70.0585749 ], [ 171.2224817, 70.0579748 ], [ 171.2287473, 70.0574625 ], [ 171.231644100000011, 70.0571624 ], [ 171.2355469, 70.056744 ], [ 171.242008199999987, 70.0561451 ], [ 171.2479308, 70.0557442 ], [ 171.261234300000012, 70.0549813 ], [ 171.266407, 70.0547231 ], [ 171.2782073, 70.0543078 ], [ 171.28411650000001, 70.0541823 ], [ 171.2893009, 70.0541175 ], [ 171.2950945, 70.0541249 ], [ 171.2998366, 70.0542346 ], [ 171.3037419, 70.0543444 ], [ 171.3094711, 70.0546738 ], [ 171.316123, 70.055135 ], [ 171.3218951, 70.0556034 ], [ 171.325109200000014, 70.0558356 ], [ 171.3303065, 70.0562695 ], [ 171.339211400000011, 70.0567745 ], [ 171.344296899999989, 70.056855 ], [ 171.3516354, 70.0567452 ], [ 171.3559055, 70.0565403 ], [ 171.3627291, 70.0560499 ], [ 171.3814401, 70.0544762 ], [ 171.3947585, 70.0534636 ], [ 171.4017388, 70.0530932 ], [ 171.408948900000013, 70.052756 ], [ 171.4193558, 70.0522655 ], [ 171.4234543, 70.0520313 ], [ 171.425428399999987, 70.0518629 ], [ 171.4270592, 70.0517018 ], [ 171.427895, 70.0515953 ], [ 171.429977400000013, 70.0512992 ], [ 171.4315009, 70.0510576 ], [ 171.433839799999987, 70.0506696 ], [ 171.436758, 70.050179 ], [ 171.4554262, 70.0473894 ], [ 171.4650178, 70.0458883 ], [ 171.4734292, 70.0444457 ], [ 171.47900820000001, 70.0435229 ], [ 171.483728899999988, 70.0427393 ], [ 171.4890933, 70.0418677 ], [ 171.493556500000011, 70.041084 ], [ 171.4985132, 70.040227 ], [ 171.5050363, 70.0390477 ], [ 171.509242, 70.0383005 ], [ 171.5170312, 70.0368867 ], [ 171.5270304, 70.0350404 ], [ 171.535527699999989, 70.0334065 ], [ 171.5428018, 70.0320729 ], [ 171.54675, 70.0312962 ], [ 171.557607600000011, 70.0292809 ], [ 171.566062, 70.0278371 ], [ 171.5747201, 70.0264628 ], [ 171.5793443, 70.0257958 ], [ 171.583249599999988, 70.0252021 ], [ 171.5864253, 70.0246927 ], [ 171.589483, 70.0243298 ], [ 171.5917361, 70.0241539 ], [ 171.5931952, 70.0240916 ], [ 171.594075, 70.0240183 ], [ 171.595062, 70.0239193 ], [ 171.59668210000001, 70.0236737 ], [ 171.6002226, 70.0232192 ], [ 171.6044497, 70.0226804 ], [ 171.6070139, 70.0223468 ], [ 171.6112089, 70.0217567 ], [ 171.615017599999987, 70.0212178 ], [ 171.6186547, 70.0206753 ], [ 171.6238045, 70.0200448 ], [ 171.631894100000011, 70.0191429 ], [ 171.64318080000001, 70.0180577 ], [ 171.6469252, 70.0177241 ], [ 171.649103200000013, 70.0175738 ], [ 171.651141599999988, 70.0174748 ], [ 171.6542315, 70.0173464 ], [ 171.6574716, 70.0172658 ], [ 171.659832, 70.0171925 ], [ 171.662664400000011, 70.0171485 ], [ 171.665089099999989, 70.0171411 ], [ 171.668275599999987, 70.0171484 ], [ 171.6733074, 70.0172731 ], [ 171.6762256, 70.0172951 ], [ 171.6794228, 70.0172731 ], [ 171.682040699999988, 70.0172273 ], [ 171.6833818, 70.0171741 ], [ 171.6845298, 70.0171099 ], [ 171.685307599999987, 70.0170421 ], [ 171.6861123, 70.0169541 ], [ 171.6868794, 70.0168386 ], [ 171.687367599999988, 70.016758 ], [ 171.688547699999987, 70.0165636 ], [ 171.6917181, 70.0160118 ], [ 171.693874599999987, 70.0156965 ], [ 171.6976297, 70.0152271 ], [ 171.701320399999986, 70.0147431 ], [ 171.7081332, 70.0139327 ], [ 171.7099786, 70.0137237 ], [ 171.7115664, 70.013511 ], [ 171.712929, 70.013324 ], [ 171.7145276, 70.0130709 ], [ 171.716609, 70.0127262 ], [ 171.7185938, 70.0124035 ], [ 171.7210293, 70.0120368 ], [ 171.7235291, 70.0116884 ], [ 171.7275095, 70.0110282 ], [ 171.7327666, 70.0101223 ], [ 171.7382598, 70.0092384 ], [ 171.746617500000013, 70.0080023 ], [ 171.7602646, 70.0061498 ], [ 171.7662406, 70.0053685 ], [ 171.7729783, 70.0044623 ], [ 171.7759824, 70.0040257 ], [ 171.7809498, 70.0032809 ], [ 171.7896724, 70.0020812 ], [ 171.7912393, 70.0018892 ], [ 171.7927301, 70.0016959 ], [ 171.797289799999987, 70.0010501 ], [ 171.8030512, 70.0001511 ], [ 171.803851149530061, 70.0 ], [ 170.552491624967615, 70.0 ], [ 170.5520909, 70.0005141 ] ] ] ] } }
]
}
