{
"type": "FeatureCollection",
"name": "170_55",
"crs": { "type": "name", "properties": { "name": "urn:ogc:def:crs:OGC:1.3:CRS84" } },
"xy_coordinate_resolution": 1e-15,
"features": [
{ "type": "Feature", "properties": { "FID": 123912, "id": 2527, "left": 170.0, "top": 60.0, "right": 175.0, "bottom": 55.0, "row_index": 6, "col_index": 70, "min_lon": 170.0, "min_lat": 55.0, "tile_id": "170_55" }, "geometry": { "type": "MultiPolygon", "coordinates": [ [ [ [ 170.431693700000011, 59.9990325 ], [ 170.4318896, 59.9981751 ], [ 170.431641899999988, 59.9973154 ], [ 170.4318984, 59.9962335 ], [ 170.4316526, 59.9954422 ], [ 170.431905300000011, 59.9945213 ], [ 170.4315478, 59.9940592 ], [ 170.4313396, 59.9939377 ], [ 170.430928599999987, 59.9936978 ], [ 170.430794, 59.9924865 ], [ 170.4305507, 59.9919142 ], [ 170.4304747, 59.9906139 ], [ 170.4305453, 59.9898523 ], [ 170.4298291, 59.9894032 ], [ 170.4293428, 59.9890803 ], [ 170.4280446, 59.9885168 ], [ 170.427551099999988, 59.9880365 ], [ 170.4270093, 59.9876662 ], [ 170.4266767, 59.9871215 ], [ 170.426623, 59.9863595 ], [ 170.4268322, 59.9854337 ], [ 170.4268269, 59.9844113 ], [ 170.426505, 59.9839498 ], [ 170.42669810000001, 59.9834989 ], [ 170.4266605, 59.9833721 ], [ 170.426446, 59.9826483 ], [ 170.426387, 59.9818861 ], [ 170.4260812, 59.9815104 ], [ 170.4255126, 59.9807509 ], [ 170.4253516, 59.9803403 ], [ 170.424734699999988, 59.9792023 ], [ 170.4248206, 59.9788453 ], [ 170.425062, 59.9784159 ], [ 170.4251102, 59.9776241 ], [ 170.425255099999987, 59.9768082 ], [ 170.4255823, 59.9759439 ], [ 170.425534, 59.9754903 ], [ 170.4257862, 59.9748165 ], [ 170.4256681, 59.9745884 ], [ 170.425260400000013, 59.9741374 ], [ 170.424947800000012, 59.9735771 ], [ 170.424889900000011, 59.972946 ], [ 170.4248699, 59.972547 ], [ 170.425027199999988, 59.9723777 ], [ 170.4256785, 59.9721243 ], [ 170.4259161, 59.9721263 ], [ 170.4260016, 59.9720361 ], [ 170.4258529, 59.9719687 ], [ 170.425879, 59.9717784 ], [ 170.4266302, 59.9716856 ], [ 170.4269046, 59.971357 ], [ 170.4265588, 59.9712684 ], [ 170.4266874, 59.9711483 ], [ 170.4267096, 59.9709358 ], [ 170.426792, 59.9709429 ], [ 170.4270951, 59.9710154 ], [ 170.4271407, 59.9709899 ], [ 170.4271259, 59.9709517 ], [ 170.4271407, 59.9709094 ], [ 170.4263377, 59.9706476 ], [ 170.4262626, 59.9703671 ], [ 170.4262572, 59.9701886 ], [ 170.4262063, 59.9699738 ], [ 170.4260113, 59.9699028 ], [ 170.425806599999987, 59.9698409 ], [ 170.4256564, 59.9698396 ], [ 170.4256394, 59.9697176 ], [ 170.4254123, 59.9697026 ], [ 170.4253426, 59.9696624 ], [ 170.425205799999986, 59.9696315 ], [ 170.4249724, 59.9697134 ], [ 170.424876500000011, 59.969667 ], [ 170.4250573, 59.9694641 ], [ 170.424996599999986, 59.9694322 ], [ 170.4249341, 59.9694389 ], [ 170.4245042, 59.9695656 ], [ 170.4240625, 59.9694819 ], [ 170.4239642, 59.969558 ], [ 170.4237263, 59.969677 ], [ 170.42295630000001, 59.9694746 ], [ 170.4224386, 59.9690903 ], [ 170.422324300000014, 59.9686748 ], [ 170.4217797, 59.9682705 ], [ 170.4213564, 59.9681504 ], [ 170.4181571, 59.9653744 ], [ 170.416626, 59.9637241 ], [ 170.4156591, 59.9623116 ], [ 170.4119044, 59.9597028 ], [ 170.4102924, 59.9587985 ], [ 170.4087859, 59.9573853 ], [ 170.407631400000014, 59.95554 ], [ 170.4073707, 59.9545807 ], [ 170.4065281, 59.9538352 ], [ 170.405303300000014, 59.9537904 ], [ 170.4035118, 59.9535337 ], [ 170.401981400000011, 59.9531191 ], [ 170.4008403, 59.9527843 ], [ 170.399745200000012, 59.9522291 ], [ 170.3990924, 59.9517471 ], [ 170.3977916, 59.9510719 ], [ 170.3975519, 59.9507374 ], [ 170.397135600000013, 59.9504285 ], [ 170.395780699999989, 59.9494834 ], [ 170.392761, 59.9460525 ], [ 170.391261899999989, 59.945395 ], [ 170.3886823, 59.9450658 ], [ 170.3873668, 59.9453303 ], [ 170.385619600000012, 59.9460194 ], [ 170.3825567, 59.9461326 ], [ 170.3705328, 59.9440547 ], [ 170.3657001, 59.9438844 ], [ 170.3632269, 59.9432256 ], [ 170.360174, 59.9428274 ], [ 170.3588871, 59.9425542 ], [ 170.3545909, 59.9413921 ], [ 170.3538005, 59.9412684 ], [ 170.3517489, 59.9403943 ], [ 170.3502828, 59.9394048 ], [ 170.3489561, 59.9386898 ], [ 170.34727860000001, 59.9381264 ], [ 170.3388718, 59.9367077 ], [ 170.3351561, 59.9353403 ], [ 170.330169899999987, 59.9333814 ], [ 170.3288856, 59.9328093 ], [ 170.326221800000013, 59.9317813 ], [ 170.3231036, 59.9308374 ], [ 170.318605100000013, 59.9302067 ], [ 170.3108456, 59.9290928 ], [ 170.3081463, 59.9290637 ], [ 170.304286, 59.9284965 ], [ 170.299783600000012, 59.9271597 ], [ 170.294889, 59.9261678 ], [ 170.2902259, 59.9257356 ], [ 170.286066, 59.9258123 ], [ 170.284023, 59.9260876 ], [ 170.281105200000013, 59.9265614 ], [ 170.2795035, 59.9268192 ], [ 170.278455799999989, 59.9268836 ], [ 170.2767973, 59.9267631 ], [ 170.2728172, 59.9270554 ], [ 170.2694559, 59.9275846 ], [ 170.2666436, 59.928009 ], [ 170.264595899999989, 59.928381 ], [ 170.2620325, 59.9290069 ], [ 170.260491800000011, 59.9295102 ], [ 170.257571399999989, 59.9302577 ], [ 170.2558689, 59.9310198 ], [ 170.254832, 59.9317817 ], [ 170.2535693, 59.9347738 ], [ 170.253464799999989, 59.9356287 ], [ 170.252026300000011, 59.9364469 ], [ 170.2483843, 59.9375278 ], [ 170.2472559, 59.9377778 ], [ 170.246567, 59.9379607 ], [ 170.241922, 59.9388739 ], [ 170.24055, 59.9397302 ], [ 170.2396464, 59.9419191 ], [ 170.238527, 59.9434579 ], [ 170.2384298, 59.944227 ], [ 170.2385574, 59.9449366 ], [ 170.238393300000013, 59.9455849 ], [ 170.238238700000011, 59.946113 ], [ 170.2376042, 59.9467787 ], [ 170.2364968, 59.9471724 ], [ 170.235656400000011, 59.9476451 ], [ 170.2346216, 59.9484312 ], [ 170.2336836, 59.9498329 ], [ 170.2329441, 59.9502319 ], [ 170.232359, 59.9504561 ], [ 170.2311475, 59.9508251 ], [ 170.2306824, 59.9516117 ], [ 170.229681199999987, 59.9524485 ], [ 170.228792199999987, 59.9529703 ], [ 170.226733599999989, 59.9538376 ], [ 170.225748900000013, 59.9543913 ], [ 170.2246936, 59.9547618 ], [ 170.2242422, 59.9553102 ], [ 170.2233487, 59.9555962 ], [ 170.222444599999989, 59.9558209 ], [ 170.220604900000012, 59.9564076 ], [ 170.2201939, 59.9567634 ], [ 170.2193998, 59.9574507 ], [ 170.21794, 59.9586776 ], [ 170.2167273, 59.9592938 ], [ 170.2154066, 59.9597315 ], [ 170.214157199999988, 59.9600901 ], [ 170.2120468, 59.9606081 ], [ 170.209996, 59.9610402 ], [ 170.2083285, 59.96128 ], [ 170.197909900000013, 59.9627779 ], [ 170.193271399999986, 59.963209 ], [ 170.1872067, 59.9634354 ], [ 170.181153, 59.9636613 ], [ 170.1701285, 59.9642934 ], [ 170.168753, 59.96422 ], [ 170.16818090000001, 59.9642142 ], [ 170.167328700000013, 59.96427 ], [ 170.1668707, 59.9642827 ], [ 170.1661819, 59.9643019 ], [ 170.1645651, 59.9641454 ], [ 170.1636339, 59.963733 ], [ 170.1628299, 59.9638944 ], [ 170.1621566, 59.9640443 ], [ 170.161278, 59.9640693 ], [ 170.1601798, 59.9639494 ], [ 170.159207400000014, 59.9639218 ], [ 170.1590678, 59.96394 ], [ 170.1590679, 59.9639967 ], [ 170.159231299999988, 59.964039 ], [ 170.159404099999989, 59.9641162 ], [ 170.1593971, 59.9642336 ], [ 170.1592464, 59.9643304 ], [ 170.158244, 59.9647307 ], [ 170.157779, 59.9652041 ], [ 170.1568786, 59.965617 ], [ 170.1563138, 59.9657567 ], [ 170.154842699999989, 59.9660723 ], [ 170.154538699999989, 59.966326 ], [ 170.1532621, 59.9668678 ], [ 170.1522703, 59.9672039 ], [ 170.1495799, 59.9675629 ], [ 170.1490876, 59.967893 ], [ 170.1471594, 59.9685306 ], [ 170.1460783, 59.9684687 ], [ 170.1452205, 59.9686705 ], [ 170.1428757, 59.9690418 ], [ 170.141125, 59.9693191 ], [ 170.1392711, 59.9696679 ], [ 170.1380863, 59.9699712 ], [ 170.1365176, 59.9703749 ], [ 170.1356596, 59.9705823 ], [ 170.1348969, 59.9706042 ], [ 170.1341648, 59.9704858 ], [ 170.1332751, 59.9702942 ], [ 170.1323899, 59.9703581 ], [ 170.1313068, 59.9706388 ], [ 170.12717760000001, 59.9716295 ], [ 170.1268423, 59.9715581 ], [ 170.1265699, 59.9715694 ], [ 170.126477599999987, 59.9717017 ], [ 170.1265673, 59.9717921 ], [ 170.1268667, 59.9718836 ], [ 170.128781300000014, 59.9722499 ], [ 170.1303385, 59.9722041 ], [ 170.1310024, 59.9727218 ], [ 170.131715899999989, 59.9737043 ], [ 170.132058699999988, 59.974724 ], [ 170.1323065, 59.97522 ], [ 170.132488099999989, 59.9766446 ], [ 170.131844300000012, 59.9775743 ], [ 170.1311593, 59.9781386 ], [ 170.13029130000001, 59.9789091 ], [ 170.129621, 59.979411 ], [ 170.1296303, 59.9799689 ], [ 170.129925, 59.9802279 ], [ 170.1300206, 59.9804869 ], [ 170.129829699999988, 59.9809076 ], [ 170.1301252, 59.981208 ], [ 170.1305552, 59.9813435 ], [ 170.1306667, 59.9821682 ], [ 170.1310554, 59.9824251 ], [ 170.1329724, 59.9829795 ], [ 170.1335178, 59.9831323 ], [ 170.134513199999986, 59.9832279 ], [ 170.1355246, 59.9832757 ], [ 170.1366396, 59.9838096 ], [ 170.137635, 59.9842319 ], [ 170.1386464, 59.9844749 ], [ 170.1390446, 59.9848772 ], [ 170.1400267, 59.9855389 ], [ 170.1404681, 59.9856782 ], [ 170.1407158, 59.9858585 ], [ 170.140721500000012, 59.9860725 ], [ 170.1417515, 59.9865642 ], [ 170.143044300000014, 59.9874615 ], [ 170.1436722, 59.9876696 ], [ 170.1445789, 59.9877851 ], [ 170.14534470000001, 59.9883879 ], [ 170.145823400000012, 59.9889456 ], [ 170.146621900000014, 59.9892454 ], [ 170.147102100000012, 59.9899471 ], [ 170.147361100000012, 59.990623 ], [ 170.147841199999988, 59.9912387 ], [ 170.1487546, 59.9919215 ], [ 170.1503109, 59.9923578 ], [ 170.1515771, 59.993003 ], [ 170.152756, 59.9941221 ], [ 170.1535332, 59.995752 ], [ 170.1536796, 59.9965292 ], [ 170.1536796, 59.9973177 ], [ 170.153027400000013, 59.9990773 ], [ 170.152930811631137, 60.0 ], [ 170.431442266805647, 60.0 ], [ 170.431693700000011, 59.9990325 ] ] ] ] } },
{ "type": "Feature", "properties": { "FID": 428510, "id": 2527, "left": 170.0, "top": 60.0, "right": 175.0, "bottom": 55.0, "row_index": 6, "col_index": 70, "min_lon": 170.0, "min_lat": 55.0, "tile_id": "170_55" }, "geometry": { "type": "MultiPolygon", "coordinates": [ [ [ [ 170.1252507, 59.971542 ], [ 170.1249154, 59.9714172 ], [ 170.1243629, 59.9713836 ], [ 170.1243495, 59.9715057 ], [ 170.124564099999986, 59.9716843 ], [ 170.1247009, 59.9717098 ], [ 170.1247679, 59.9716319 ], [ 170.1248296, 59.9716292 ], [ 170.1248108, 59.9718091 ], [ 170.124867200000011, 59.9718373 ], [ 170.125089800000012, 59.9718359 ], [ 170.12524, 59.9718749 ], [ 170.1253848, 59.9717393 ], [ 170.1252507, 59.971542 ] ] ] ] } },
{ "type": "Feature", "properties": { "FID": 444008, "id": 2527, "left": 170.0, "top": 60.0, "right": 175.0, "bottom": 55.0, "row_index": 6, "col_index": 70, "min_lon": 170.0, "min_lat": 55.0, "tile_id": "170_55" }, "geometry": { "type": "MultiPolygon", "coordinates": [ [ [ [ 170.411948599999988, 59.951546 ], [ 170.4116563, 59.9515594 ], [ 170.411583900000011, 59.9516414 ], [ 170.4120345, 59.9517139 ], [ 170.412211500000012, 59.9515903 ], [ 170.411948599999988, 59.951546 ] ] ] ] } },
{ "type": "Feature", "properties": { "FID": 444009, "id": 2527, "left": 170.0, "top": 60.0, "right": 175.0, "bottom": 55.0, "row_index": 6, "col_index": 70, "min_lon": 170.0, "min_lat": 55.0, "tile_id": "170_55" }, "geometry": { "type": "MultiPolygon", "coordinates": [ [ [ [ 170.4284013, 59.9702604 ], [ 170.4283457, 59.9702638 ], [ 170.428332899999987, 59.9702953 ], [ 170.428406, 59.9703107 ], [ 170.4284543, 59.9702846 ], [ 170.4284013, 59.9702604 ] ] ] ] } },
{ "type": "Feature", "properties": { "FID": 444010, "id": 2527, "left": 170.0, "top": 60.0, "right": 175.0, "bottom": 55.0, "row_index": 6, "col_index": 70, "min_lon": 170.0, "min_lat": 55.0, "tile_id": "170_55" }, "geometry": { "type": "MultiPolygon", "coordinates": [ [ [ [ 170.411895, 59.9519086 ], [ 170.411712599999987, 59.9519583 ], [ 170.4117743, 59.9520241 ], [ 170.412015700000012, 59.9520241 ], [ 170.4121793, 59.9519341 ], [ 170.411895, 59.9519086 ] ] ] ] } },
{ "type": "Feature", "properties": { "FID": 444011, "id": 2527, "left": 170.0, "top": 60.0, "right": 175.0, "bottom": 55.0, "row_index": 6, "col_index": 70, "min_lon": 170.0, "min_lat": 55.0, "tile_id": "170_55" }, "geometry": { "type": "MultiPolygon", "coordinates": [ [ [ [ 170.425891799999988, 59.9698045 ], [ 170.4258673, 59.9698223 ], [ 170.4258764, 59.9698444 ], [ 170.4259313, 59.9698505 ], [ 170.4259528, 59.9698391 ], [ 170.4259481, 59.9698203 ], [ 170.425891799999988, 59.9698045 ] ] ] ] } },
{ "type": "Feature", "properties": { "FID": 444012, "id": 2527, "left": 170.0, "top": 60.0, "right": 175.0, "bottom": 55.0, "row_index": 6, "col_index": 70, "min_lon": 170.0, "min_lat": 55.0, "tile_id": "170_55" }, "geometry": { "type": "MultiPolygon", "coordinates": [ [ [ [ 170.411667, 59.9517152 ], [ 170.411280799999986, 59.9517622 ], [ 170.411138599999987, 59.9518334 ], [ 170.4113854, 59.9519435 ], [ 170.411726, 59.9519167 ], [ 170.4119111, 59.9517972 ], [ 170.411667, 59.9517152 ] ] ] ] } },
{ "type": "Feature", "properties": { "FID": 444013, "id": 2527, "left": 170.0, "top": 60.0, "right": 175.0, "bottom": 55.0, "row_index": 6, "col_index": 70, "min_lon": 170.0, "min_lat": 55.0, "tile_id": "170_55" }, "geometry": { "type": "MultiPolygon", "coordinates": [ [ [ [ 170.426619, 59.9703933 ], [ 170.426564, 59.9704141 ], [ 170.426570700000013, 59.9704684 ], [ 170.4266834, 59.9704886 ], [ 170.4267451, 59.9704812 ], [ 170.426719600000013, 59.9704262 ], [ 170.426619, 59.9703933 ] ] ] ] } },
{ "type": "Feature", "properties": { "FID": 444014, "id": 2527, "left": 170.0, "top": 60.0, "right": 175.0, "bottom": 55.0, "row_index": 6, "col_index": 70, "min_lon": 170.0, "min_lat": 55.0, "tile_id": "170_55" }, "geometry": { "type": "MultiPolygon", "coordinates": [ [ [ [ 170.4131717, 59.9515131 ], [ 170.413098, 59.9514822 ], [ 170.413008100000013, 59.9514741 ], [ 170.4129571, 59.951587 ], [ 170.4130725, 59.9516158 ], [ 170.4131784, 59.9516044 ], [ 170.4132146, 59.9515762 ], [ 170.4131717, 59.9515131 ] ] ] ] } },
{ "type": "Feature", "properties": { "FID": 444015, "id": 2527, "left": 170.0, "top": 60.0, "right": 175.0, "bottom": 55.0, "row_index": 6, "col_index": 70, "min_lon": 170.0, "min_lat": 55.0, "tile_id": "170_55" }, "geometry": { "type": "MultiPolygon", "coordinates": [ [ [ [ 170.411212400000011, 59.9512525 ], [ 170.4109415, 59.9512122 ], [ 170.410780499999987, 59.9513439 ], [ 170.4108154, 59.9515185 ], [ 170.4109817, 59.9515749 ], [ 170.4113103, 59.9514245 ], [ 170.411313, 59.9513137 ], [ 170.411212400000011, 59.9512525 ] ] ] ] } },
{ "type": "Feature", "properties": { "FID": 444016, "id": 2527, "left": 170.0, "top": 60.0, "right": 175.0, "bottom": 55.0, "row_index": 6, "col_index": 70, "min_lon": 170.0, "min_lat": 55.0, "tile_id": "170_55" }, "geometry": { "type": "MultiPolygon", "coordinates": [ [ [ [ 170.4256484, 59.9696057 ], [ 170.4256457, 59.9696251 ], [ 170.425661100000013, 59.9696456 ], [ 170.4257644, 59.9696708 ], [ 170.4258073, 59.9696614 ], [ 170.425814699999989, 59.9696496 ], [ 170.4257972, 59.9696228 ], [ 170.425694, 59.9695979 ], [ 170.4256484, 59.9696057 ] ] ] ] } },
{ "type": "Feature", "properties": { "FID": 444017, "id": 2527, "left": 170.0, "top": 60.0, "right": 175.0, "bottom": 55.0, "row_index": 6, "col_index": 70, "min_lon": 170.0, "min_lat": 55.0, "tile_id": "170_55" }, "geometry": { "type": "MultiPolygon", "coordinates": [ [ [ [ 170.4279393, 59.9716809 ], [ 170.427906400000012, 59.9716779 ], [ 170.4278421, 59.9717128 ], [ 170.4278454, 59.9717718 ], [ 170.427870899999988, 59.9717953 ], [ 170.4279333, 59.9718 ], [ 170.4279728, 59.9717503 ], [ 170.427961399999987, 59.9716899 ], [ 170.4279393, 59.9716809 ] ] ] ] } },
{ "type": "Feature", "properties": { "FID": 444018, "id": 2527, "left": 170.0, "top": 60.0, "right": 175.0, "bottom": 55.0, "row_index": 6, "col_index": 70, "min_lon": 170.0, "min_lat": 55.0, "tile_id": "170_55" }, "geometry": { "type": "MultiPolygon", "coordinates": [ [ [ [ 170.428110299999986, 59.9717305 ], [ 170.4281411, 59.9716909 ], [ 170.428113, 59.9716701 ], [ 170.4280312, 59.9716634 ], [ 170.4279876, 59.9716893 ], [ 170.4279869, 59.9717302 ], [ 170.4280144, 59.9717721 ], [ 170.4280882, 59.9717883 ], [ 170.42813910000001, 59.9717742 ], [ 170.428110299999986, 59.9717305 ] ] ] ] } },
{ "type": "Feature", "properties": { "FID": 444146, "id": 2527, "left": 170.0, "top": 60.0, "right": 175.0, "bottom": 55.0, "row_index": 6, "col_index": 70, "min_lon": 170.0, "min_lat": 55.0, "tile_id": "170_55" }, "geometry": { "type": "MultiPolygon", "coordinates": [ [ [ [ 170.4325792, 59.9943126 ], [ 170.432335099999989, 59.9943796 ], [ 170.43256310000001, 59.9946144 ], [ 170.4329306, 59.9945788 ], [ 170.4329172, 59.9944279 ], [ 170.4327891, 59.9943283 ], [ 170.4325792, 59.9943126 ] ] ] ] } },
{ "type": "Feature", "properties": { "FID": 444182, "id": 2527, "left": 170.0, "top": 60.0, "right": 175.0, "bottom": 55.0, "row_index": 6, "col_index": 70, "min_lon": 170.0, "min_lat": 55.0, "tile_id": "170_55" }, "geometry": { "type": "MultiPolygon", "coordinates": [ [ [ [ 170.157671599999986, 59.9631823 ], [ 170.157524, 59.9631555 ], [ 170.157360399999988, 59.9630722 ], [ 170.157288, 59.9631555 ], [ 170.157465, 59.9633005 ], [ 170.157567, 59.9633018 ], [ 170.1577038, 59.9632226 ], [ 170.157671599999986, 59.9631823 ] ] ] ] } }
]
}
