{
"type": "FeatureCollection",
"name": "170_-25",
"crs": { "type": "name", "properties": { "name": "urn:ogc:def:crs:OGC:1.3:CRS84" } },
"xy_coordinate_resolution": 1e-15,
"features": [
{ "type": "Feature", "properties": { "FID": 589886, "id": 2543, "left": 170.0, "top": -20.0, "right": 175.0, "bottom": -25.0, "row_index": 22, "col_index": 70, "min_lon": 170.0, "min_lat": -25.0, "tile_id": "170_-25" }, "geometry": { "type": "MultiPolygon", "coordinates": [ [ [ [ 172.089074, -22.3908751 ], [ 172.0891249, -22.3909049 ], [ 172.0892, -22.3908925 ], [ 172.089269800000011, -22.3908875 ], [ 172.0892939, -22.3909346 ], [ 172.0892993, -22.3909892 ], [ 172.0893314, -22.3910611 ], [ 172.089336800000012, -22.3911157 ], [ 172.0893154, -22.3911851 ], [ 172.089350200000013, -22.3912471 ], [ 172.0894065, -22.3912446 ], [ 172.0894709, -22.3911926 ], [ 172.0895031, -22.3912198 ], [ 172.089487, -22.3913116 ], [ 172.0894629, -22.391381 ], [ 172.089438699999988, -22.3914728 ], [ 172.0893529, -22.3915596 ], [ 172.089251, -22.3916166 ], [ 172.0889908, -22.3916042 ], [ 172.0887548, -22.3915447 ], [ 172.0886233, -22.3914976 ], [ 172.0885643, -22.3914554 ], [ 172.0885187, -22.3913612 ], [ 172.0885375, -22.3912521 ], [ 172.0885965, -22.3911702 ], [ 172.0886797, -22.3910636 ], [ 172.0887387, -22.391009 ], [ 172.0888138, -22.3909619 ], [ 172.0888996, -22.3909346 ], [ 172.088966699999986, -22.3909272 ], [ 172.0890096, -22.3909247 ], [ 172.089074, -22.3908751 ] ] ] ] } },
{ "type": "Feature", "properties": { "FID": 589887, "id": 2543, "left": 170.0, "top": -20.0, "right": 175.0, "bottom": -25.0, "row_index": 22, "col_index": 70, "min_lon": 170.0, "min_lat": -25.0, "tile_id": "170_-25" }, "geometry": { "type": "MultiPolygon", "coordinates": [ [ [ [ 172.084672399999988, -22.3905974 ], [ 172.0846564, -22.3905688 ], [ 172.0847033, -22.3905143 ], [ 172.0847449, -22.3904721 ], [ 172.084786400000013, -22.3904461 ], [ 172.084807899999987, -22.3904498 ], [ 172.0848092, -22.3904957 ], [ 172.0848253, -22.3905093 ], [ 172.0848575, -22.3904734 ], [ 172.0848857, -22.3904374 ], [ 172.0849273, -22.39043 ], [ 172.084915200000012, -22.3904783 ], [ 172.0849165, -22.3905093 ], [ 172.0849326, -22.3905192 ], [ 172.0848857, -22.390554 ], [ 172.0848374, -22.3905788 ], [ 172.0847891, -22.3906011 ], [ 172.084773, -22.3906284 ], [ 172.0847623, -22.3906594 ], [ 172.0847435, -22.3906879 ], [ 172.0847207, -22.3906928 ], [ 172.0847006, -22.3906879 ], [ 172.0846885, -22.3906494 ], [ 172.084672399999988, -22.3905974 ] ] ] ] } },
{ "type": "Feature", "properties": { "FID": 589888, "id": 2543, "left": 170.0, "top": -20.0, "right": 175.0, "bottom": -25.0, "row_index": 22, "col_index": 70, "min_lon": 170.0, "min_lat": -25.0, "tile_id": "170_-25" }, "geometry": { "type": "MultiPolygon", "coordinates": [ [ [ [ 172.085913, -22.390058 ], [ 172.085894200000013, -22.3900356 ], [ 172.0859116, -22.3900096 ], [ 172.0859787, -22.3900108 ], [ 172.0860082, -22.3900381 ], [ 172.086029599999989, -22.3900704 ], [ 172.0860323, -22.3901076 ], [ 172.0860136, -22.3901448 ], [ 172.0859988, -22.3901646 ], [ 172.0859787, -22.3901795 ], [ 172.085972, -22.3901361 ], [ 172.0859371, -22.3901051 ], [ 172.085913, -22.390058 ] ] ] ] } },
{ "type": "Feature", "properties": { "FID": 589889, "id": 2543, "left": 170.0, "top": -20.0, "right": 175.0, "bottom": -25.0, "row_index": 22, "col_index": 70, "min_lon": 170.0, "min_lat": -25.0, "tile_id": "170_-25" }, "geometry": { "type": "MultiPolygon", "coordinates": [ [ [ [ 172.086643900000013, -22.3898261 ], [ 172.0866318, -22.3897864 ], [ 172.086642500000011, -22.389738 ], [ 172.0866948, -22.3897256 ], [ 172.086745799999989, -22.3897616 ], [ 172.0867807, -22.3898062 ], [ 172.0867874, -22.3898583 ], [ 172.08679810000001, -22.3899166 ], [ 172.086782, -22.3899625 ], [ 172.0867378, -22.3899749 ], [ 172.0867069, -22.3899997 ], [ 172.086672, -22.3899538 ], [ 172.086664, -22.3899129 ], [ 172.086664, -22.3898856 ], [ 172.086643900000013, -22.3898261 ] ] ] ] } },
{ "type": "Feature", "properties": { "FID": 589890, "id": 2543, "left": 170.0, "top": -20.0, "right": 175.0, "bottom": -25.0, "row_index": 22, "col_index": 70, "min_lon": 170.0, "min_lat": -25.0, "tile_id": "170_-25" }, "geometry": { "type": "MultiPolygon", "coordinates": [ [ [ [ 172.0859706, -22.3904312 ], [ 172.0859867, -22.3904064 ], [ 172.08604840000001, -22.3903444 ], [ 172.086150300000014, -22.3903295 ], [ 172.0861557, -22.3903742 ], [ 172.0861155, -22.3904262 ], [ 172.086158399999988, -22.3904808 ], [ 172.08621740000001, -22.390451 ], [ 172.086265700000013, -22.390451 ], [ 172.0863113, -22.3904138 ], [ 172.0863435, -22.3903146 ], [ 172.0864695, -22.3903568 ], [ 172.08655, -22.390451 ], [ 172.0865983, -22.3905577 ], [ 172.0866412, -22.3906073 ], [ 172.0867431, -22.3906494 ], [ 172.0868155, -22.3906445 ], [ 172.0868719, -22.3906742 ], [ 172.0868987, -22.3907362 ], [ 172.0868719, -22.390823 ], [ 172.0868102, -22.3908999 ], [ 172.0868611, -22.3909322 ], [ 172.0869175, -22.390952 ], [ 172.0869818, -22.3910115 ], [ 172.087048900000013, -22.3910066 ], [ 172.0870382, -22.3909322 ], [ 172.0870435, -22.3908553 ], [ 172.0870516, -22.3907412 ], [ 172.0870462, -22.3906445 ], [ 172.0870462, -22.3905428 ], [ 172.087097199999988, -22.3904386 ], [ 172.0871481, -22.3903593 ], [ 172.087244700000014, -22.3903791 ], [ 172.087242, -22.3904932 ], [ 172.0872501, -22.3906147 ], [ 172.0873171, -22.3907387 ], [ 172.087311699999987, -22.3906718 ], [ 172.087333199999989, -22.3905924 ], [ 172.087346599999989, -22.3905006 ], [ 172.0873493, -22.3904188 ], [ 172.08737880000001, -22.3903171 ], [ 172.087480699999986, -22.3902576 ], [ 172.087574600000011, -22.3901882 ], [ 172.0875934, -22.3901138 ], [ 172.087663099999986, -22.3899972 ], [ 172.087770400000011, -22.3900245 ], [ 172.0877731, -22.3901187 ], [ 172.0877382, -22.3901857 ], [ 172.0877489, -22.3902353 ], [ 172.087808, -22.3901187 ], [ 172.0878535, -22.3900096 ], [ 172.0879045, -22.3899327 ], [ 172.0880225, -22.389955 ], [ 172.0880601, -22.3900394 ], [ 172.0880976, -22.3902278 ], [ 172.0881325, -22.3904163 ], [ 172.0881566, -22.3905726 ], [ 172.0881861, -22.3904386 ], [ 172.0882049, -22.3903667 ], [ 172.088245199999989, -22.3904337 ], [ 172.0882693, -22.3905304 ], [ 172.0882666, -22.3906246 ], [ 172.088210299999986, -22.3907263 ], [ 172.088089599999989, -22.3910115 ], [ 172.088001100000014, -22.3911554 ], [ 172.087907199999989, -22.3912397 ], [ 172.087770400000011, -22.3913339 ], [ 172.0877194, -22.3914529 ], [ 172.0877275, -22.3915373 ], [ 172.087810600000012, -22.3916166 ], [ 172.087952800000011, -22.3916935 ], [ 172.0880842, -22.3917257 ], [ 172.088202200000012, -22.3917505 ], [ 172.08828, -22.3918125 ], [ 172.0883203, -22.3919167 ], [ 172.0883766, -22.3920581 ], [ 172.088392700000014, -22.3922069 ], [ 172.0884007, -22.3925367 ], [ 172.088473099999987, -22.3927773 ], [ 172.0887145, -22.39305 ], [ 172.0888272, -22.3932782 ], [ 172.0888674, -22.3934642 ], [ 172.0889908, -22.3936676 ], [ 172.0891437, -22.3938362 ], [ 172.089242899999988, -22.3938932 ], [ 172.0893475, -22.3939304 ], [ 172.0894843, -22.39398 ], [ 172.089559400000013, -22.394104 ], [ 172.089554099999987, -22.394233 ], [ 172.0895353, -22.3943272 ], [ 172.0895085, -22.3944289 ], [ 172.0894843, -22.3945107 ], [ 172.0894495, -22.3946446 ], [ 172.0894602, -22.3947141 ], [ 172.089492400000012, -22.3948182 ], [ 172.089572800000013, -22.394853 ], [ 172.0895997, -22.3949373 ], [ 172.089538, -22.3950241 ], [ 172.089538, -22.3950662 ], [ 172.089607699999988, -22.3950985 ], [ 172.0896909, -22.3950985 ], [ 172.0897472, -22.3951183 ], [ 172.0898062, -22.3952026 ], [ 172.0898196, -22.3952497 ], [ 172.0899081, -22.395282 ], [ 172.0899752, -22.3953688 ], [ 172.0899618, -22.3954283 ], [ 172.0899054, -22.3955721 ], [ 172.089884, -22.3956267 ], [ 172.089994, -22.3956118 ], [ 172.09001, -22.3956788 ], [ 172.0899162, -22.3958152 ], [ 172.089830299999988, -22.3959912 ], [ 172.089803499999988, -22.3961053 ], [ 172.0897981, -22.3961995 ], [ 172.089843699999989, -22.3962392 ], [ 172.0898867, -22.3963136 ], [ 172.0898277, -22.396326 ], [ 172.089774, -22.3963583 ], [ 172.0897043, -22.3965839 ], [ 172.0896587, -22.3967104 ], [ 172.0895889, -22.3967922 ], [ 172.089572800000013, -22.396884 ], [ 172.089487, -22.3969981 ], [ 172.089465600000011, -22.3970725 ], [ 172.0894548, -22.3971791 ], [ 172.0894441, -22.3972833 ], [ 172.0894146, -22.3973825 ], [ 172.089344899999986, -22.3974767 ], [ 172.089377, -22.3975312 ], [ 172.0894736, -22.3975784 ], [ 172.0895219, -22.3976627 ], [ 172.0895568, -22.3977718 ], [ 172.089597, -22.3978561 ], [ 172.0896533, -22.3979181 ], [ 172.0896909, -22.3980049 ], [ 172.0896399, -22.3980123 ], [ 172.089559400000013, -22.3980198 ], [ 172.0895863, -22.3981314 ], [ 172.089519200000012, -22.3982578 ], [ 172.0895246, -22.3983372 ], [ 172.08949770000001, -22.3984513 ], [ 172.0894414, -22.3985505 ], [ 172.0894361, -22.398667 ], [ 172.0894548, -22.3987637 ], [ 172.089428, -22.3988257 ], [ 172.0893395, -22.3988728 ], [ 172.0892403, -22.3989497 ], [ 172.089181200000013, -22.3990192 ], [ 172.0891732, -22.3990836 ], [ 172.0891061, -22.3991407 ], [ 172.0889693, -22.3991952 ], [ 172.088905, -22.3992498 ], [ 172.088824499999987, -22.3992423 ], [ 172.0887253, -22.3991779 ], [ 172.0886099, -22.3991655 ], [ 172.0886314, -22.3992151 ], [ 172.088650199999989, -22.3993118 ], [ 172.088628699999987, -22.3994159 ], [ 172.088615299999987, -22.3995002 ], [ 172.088601899999986, -22.3995994 ], [ 172.0885563, -22.3996614 ], [ 172.088449, -22.3996466 ], [ 172.0883954, -22.3995746 ], [ 172.0883632, -22.399463 ], [ 172.0883203, -22.3993862 ], [ 172.08830420000001, -22.3992919 ], [ 172.0883068, -22.3991903 ], [ 172.0882532, -22.3991308 ], [ 172.0882344, -22.3992002 ], [ 172.0882264, -22.3992944 ], [ 172.0881942, -22.3993515 ], [ 172.0881271, -22.3994333 ], [ 172.088081499999987, -22.3994978 ], [ 172.0880172, -22.399463 ], [ 172.087987700000014, -22.3993961 ], [ 172.08793940000001, -22.3993391 ], [ 172.0878616, -22.3992399 ], [ 172.0878026, -22.3991555 ], [ 172.0877489, -22.3991754 ], [ 172.0878401, -22.3993738 ], [ 172.0877892, -22.3993366 ], [ 172.0877248, -22.3993291 ], [ 172.087663099999986, -22.3993911 ], [ 172.0876577, -22.3994432 ], [ 172.0876175, -22.3995126 ], [ 172.0875505, -22.3995027 ], [ 172.087529, -22.3994283 ], [ 172.087507499999987, -22.399344 ], [ 172.0874646, -22.3992944 ], [ 172.087352, -22.3992175 ], [ 172.087236600000011, -22.3991655 ], [ 172.0871669, -22.3991754 ], [ 172.0870864, -22.399163 ], [ 172.087054200000011, -22.399106 ], [ 172.0869818, -22.3990539 ], [ 172.086955, -22.3991159 ], [ 172.0869711, -22.3991952 ], [ 172.0869631, -22.3992696 ], [ 172.086941599999989, -22.3993391 ], [ 172.0869336, -22.3994457 ], [ 172.0869121, -22.3995523 ], [ 172.0868719, -22.3995895 ], [ 172.0867968, -22.3996242 ], [ 172.0867351, -22.3997086 ], [ 172.0867351, -22.399773 ], [ 172.0866814, -22.3998053 ], [ 172.08663580000001, -22.3997482 ], [ 172.0865715, -22.3997755 ], [ 172.0864829, -22.3998053 ], [ 172.0864105, -22.399721 ], [ 172.0863622, -22.3997185 ], [ 172.0863113, -22.3997829 ], [ 172.0862496, -22.3997755 ], [ 172.086225399999989, -22.3997358 ], [ 172.086118199999987, -22.3997334 ], [ 172.086096700000013, -22.3997532 ], [ 172.0860189, -22.3997457 ], [ 172.0859599, -22.3996738 ], [ 172.08587940000001, -22.3996267 ], [ 172.085860700000012, -22.399721 ], [ 172.0858124, -22.399773 ], [ 172.085726599999987, -22.3997581 ], [ 172.0856461, -22.3997309 ], [ 172.08568360000001, -22.3996391 ], [ 172.085638, -22.3996094 ], [ 172.085584399999988, -22.3996738 ], [ 172.0855656, -22.399716 ], [ 172.085469100000012, -22.3998102 ], [ 172.0853993, -22.3997829 ], [ 172.0854208, -22.399721 ], [ 172.0853698, -22.3996441 ], [ 172.0853725, -22.3995622 ], [ 172.0853457, -22.3994606 ], [ 172.0852947, -22.399473 ], [ 172.0852384, -22.3995424 ], [ 172.0852357, -22.3996441 ], [ 172.0851633, -22.3996887 ], [ 172.085157900000013, -22.3996044 ], [ 172.085166, -22.399535 ], [ 172.0851472, -22.3994804 ], [ 172.0850882, -22.39953 ], [ 172.085023799999988, -22.3996317 ], [ 172.084970199999987, -22.3997581 ], [ 172.0849246, -22.3997656 ], [ 172.0848522, -22.399716 ], [ 172.0848763, -22.3996565 ], [ 172.0848736, -22.3995647 ], [ 172.0848066, -22.3995945 ], [ 172.0847341, -22.399659 ], [ 172.0846671, -22.3996366 ], [ 172.0846349, -22.3995746 ], [ 172.084685900000011, -22.3994705 ], [ 172.0846242, -22.3994457 ], [ 172.084605399999987, -22.3995126 ], [ 172.084578599999986, -22.3995846 ], [ 172.0844954, -22.3995895 ], [ 172.084476599999988, -22.39953 ], [ 172.0844793, -22.3994407 ], [ 172.084533, -22.3993862 ], [ 172.084626899999989, -22.3993192 ], [ 172.084597300000013, -22.3992572 ], [ 172.084503500000011, -22.3993267 ], [ 172.0844525, -22.3993887 ], [ 172.0843506, -22.3994184 ], [ 172.0842782, -22.3993291 ], [ 172.0842996, -22.3992547 ], [ 172.0843533, -22.3992027 ], [ 172.084415, -22.3991357 ], [ 172.084415, -22.3990712 ], [ 172.0843667, -22.399039 ], [ 172.0842701, -22.3989993 ], [ 172.0841575, -22.3989497 ], [ 172.0840904, -22.3989224 ], [ 172.0839938, -22.3989373 ], [ 172.0839134, -22.3989572 ], [ 172.0838061, -22.3990167 ], [ 172.0837444, -22.3989869 ], [ 172.083731, -22.3988952 ], [ 172.0837095, -22.3987935 ], [ 172.0836773, -22.3988009 ], [ 172.0836425, -22.3988084 ], [ 172.0836371, -22.3987117 ], [ 172.083674699999989, -22.3986521 ], [ 172.08368, -22.3985653 ], [ 172.0836318, -22.3984786 ], [ 172.0835674, -22.398481 ], [ 172.083492299999989, -22.3985306 ], [ 172.0834386, -22.3985976 ], [ 172.0833635, -22.398605 ], [ 172.0832643, -22.3986323 ], [ 172.083267, -22.3985703 ], [ 172.0832911, -22.3984835 ], [ 172.083269699999988, -22.3984463 ], [ 172.0832241, -22.3984562 ], [ 172.0831516, -22.3984463 ], [ 172.08317310000001, -22.3983992 ], [ 172.083248200000014, -22.3983694 ], [ 172.0833367, -22.3983446 ], [ 172.083422500000012, -22.3983322 ], [ 172.083478899999989, -22.3982628 ], [ 172.0834252, -22.398233 ], [ 172.08335550000001, -22.3981735 ], [ 172.0833877, -22.3981314 ], [ 172.08335550000001, -22.3980917 ], [ 172.083296499999989, -22.3980446 ], [ 172.083267, -22.3979925 ], [ 172.083288399999986, -22.3979553 ], [ 172.08335550000001, -22.3979578 ], [ 172.0834118, -22.3979528 ], [ 172.0834064, -22.3979057 ], [ 172.0833582, -22.3978611 ], [ 172.0834118, -22.397804 ], [ 172.083368900000011, -22.3977396 ], [ 172.0833716, -22.3976974 ], [ 172.0834467, -22.3976875 ], [ 172.0834279, -22.3976379 ], [ 172.0834601, -22.3975932 ], [ 172.083503, -22.3975759 ], [ 172.083551300000011, -22.397566 ], [ 172.0835701, -22.3974965 ], [ 172.0835486, -22.3973949 ], [ 172.083604900000012, -22.3973031 ], [ 172.0836586, -22.3970824 ], [ 172.0837042, -22.397008 ], [ 172.0837793, -22.3969534 ], [ 172.083862399999987, -22.3969113 ], [ 172.0839, -22.3968418 ], [ 172.0839134, -22.3967575 ], [ 172.0839053, -22.3966534 ], [ 172.0838973, -22.3965492 ], [ 172.0838785, -22.3964475 ], [ 172.0838302, -22.3963211 ], [ 172.083795400000014, -22.3962343 ], [ 172.0836559, -22.3960706 ], [ 172.0835566, -22.3958846 ], [ 172.0835325, -22.3957804 ], [ 172.0835325, -22.3956936 ], [ 172.083578100000011, -22.395592 ], [ 172.08353790000001, -22.3955374 ], [ 172.08352450000001, -22.3954705 ], [ 172.0835191, -22.3953911 ], [ 172.083492299999989, -22.3953068 ], [ 172.083492299999989, -22.3952026 ], [ 172.0835352, -22.3951034 ], [ 172.0835701, -22.3950365 ], [ 172.0836022, -22.3949695 ], [ 172.0835888, -22.3948654 ], [ 172.0836022, -22.3947959 ], [ 172.083613, -22.3946992 ], [ 172.0835942, -22.3946099 ], [ 172.08353790000001, -22.3945182 ], [ 172.0835835, -22.3944413 ], [ 172.083578100000011, -22.3943595 ], [ 172.0835218, -22.3943123 ], [ 172.0835459, -22.3942578 ], [ 172.0836022, -22.3942528 ], [ 172.0836478, -22.3942156 ], [ 172.0836988, -22.3941437 ], [ 172.0837766, -22.3940966 ], [ 172.0838517, -22.3940172 ], [ 172.0839, -22.3939131 ], [ 172.083929500000011, -22.3938139 ], [ 172.083942900000011, -22.3937048 ], [ 172.0839322, -22.393608 ], [ 172.083889199999987, -22.393494 ], [ 172.083835599999986, -22.3934196 ], [ 172.0837766, -22.39336 ], [ 172.0836961, -22.3932757 ], [ 172.0836639, -22.3931939 ], [ 172.0836908, -22.3931443 ], [ 172.0837846, -22.3930724 ], [ 172.0837685, -22.3930128 ], [ 172.0836854, -22.3929632 ], [ 172.0835432, -22.3929384 ], [ 172.0834145, -22.3929112 ], [ 172.0832804, -22.392874 ], [ 172.08317310000001, -22.3928219 ], [ 172.0830497, -22.3927301 ], [ 172.0828646, -22.3925689 ], [ 172.0827574, -22.3923457 ], [ 172.082639300000011, -22.3921077 ], [ 172.0826313, -22.392006 ], [ 172.0826635, -22.3919365 ], [ 172.0827386, -22.391882 ], [ 172.08276810000001, -22.39182 ], [ 172.082808300000011, -22.3917257 ], [ 172.082883399999986, -22.3917307 ], [ 172.082929, -22.3917381 ], [ 172.0830336, -22.3917654 ], [ 172.0831087, -22.3918175 ], [ 172.0832106, -22.3918696 ], [ 172.0832857, -22.3919068 ], [ 172.083390400000013, -22.3919341 ], [ 172.0834547, -22.3919514 ], [ 172.0835137, -22.3919737 ], [ 172.0835969, -22.3919985 ], [ 172.0836586, -22.3919886 ], [ 172.083773900000011, -22.3919787 ], [ 172.083822199999986, -22.3919589 ], [ 172.083849, -22.3919117 ], [ 172.0838463, -22.3918522 ], [ 172.083822199999986, -22.3917555 ], [ 172.0838732, -22.391696 ], [ 172.083908, -22.3917853 ], [ 172.0839643, -22.3918696 ], [ 172.084026, -22.3919043 ], [ 172.084085, -22.3919589 ], [ 172.0841548, -22.3920035 ], [ 172.0842084, -22.3919861 ], [ 172.0842165, -22.3918919 ], [ 172.0842031, -22.3918398 ], [ 172.084178900000012, -22.3917828 ], [ 172.0841414, -22.3917257 ], [ 172.084069, -22.3916365 ], [ 172.084031399999986, -22.3915422 ], [ 172.0839858, -22.3913736 ], [ 172.083983100000012, -22.3912794 ], [ 172.0840421, -22.3912025 ], [ 172.0841172, -22.3911901 ], [ 172.0841601, -22.391257 ], [ 172.0841977, -22.3913662 ], [ 172.0842111, -22.3914802 ], [ 172.084227199999987, -22.3915993 ], [ 172.0842567, -22.3917109 ], [ 172.084267399999987, -22.3917977 ], [ 172.0842701, -22.3918646 ], [ 172.0843157, -22.3918944 ], [ 172.0843774, -22.3918373 ], [ 172.084372, -22.3917629 ], [ 172.0843586, -22.3916712 ], [ 172.0843586, -22.391567 ], [ 172.0843935, -22.3914505 ], [ 172.084449799999987, -22.3913711 ], [ 172.0845115, -22.391391 ], [ 172.0845544, -22.3914505 ], [ 172.084597300000013, -22.391448 ], [ 172.0846885, -22.3914282 ], [ 172.084779700000013, -22.3914554 ], [ 172.084774399999986, -22.3915422 ], [ 172.084769, -22.3916017 ], [ 172.0848522, -22.3916439 ], [ 172.084895100000011, -22.3916117 ], [ 172.0849407, -22.3915447 ], [ 172.0849729, -22.3914678 ], [ 172.0849997, -22.3913835 ], [ 172.0849648, -22.3913066 ], [ 172.0849031, -22.3912372 ], [ 172.084854799999988, -22.3911777 ], [ 172.084828, -22.3910735 ], [ 172.0848629, -22.391019 ], [ 172.0849594, -22.3909594 ], [ 172.0850131, -22.3909371 ], [ 172.0851016, -22.390947 ], [ 172.085139199999986, -22.3909694 ], [ 172.0851284, -22.391019 ], [ 172.0851418, -22.3911008 ], [ 172.0851633, -22.391081 ], [ 172.0852035, -22.3910239 ], [ 172.0852384, -22.3909322 ], [ 172.0852652, -22.390885 ], [ 172.085292, -22.3908454 ], [ 172.0853108, -22.3907561 ], [ 172.085335, -22.3906718 ], [ 172.0853913, -22.3906023 ], [ 172.085453, -22.3905254 ], [ 172.0855066, -22.3904882 ], [ 172.0855764, -22.3904659 ], [ 172.0856166, -22.3904411 ], [ 172.0856434, -22.3903866 ], [ 172.0856434, -22.3903593 ], [ 172.0856139, -22.3903295 ], [ 172.0855468, -22.3902874 ], [ 172.0855388, -22.3902378 ], [ 172.0854852, -22.3901658 ], [ 172.08547440000001, -22.390089 ], [ 172.0855013, -22.390027 ], [ 172.0855898, -22.3900096 ], [ 172.085691700000012, -22.3900716 ], [ 172.0857212, -22.3901584 ], [ 172.0857346, -22.3902254 ], [ 172.085726599999987, -22.3903221 ], [ 172.0857024, -22.3903791 ], [ 172.085718500000013, -22.3904386 ], [ 172.085803700000014, -22.3904262 ], [ 172.085941100000014, -22.3904411 ], [ 172.0859706, -22.3904312 ] ] ] ] } },
{ "type": "Feature", "properties": { "FID": 589891, "id": 2543, "left": 170.0, "top": -20.0, "right": 175.0, "bottom": -25.0, "row_index": 22, "col_index": 70, "min_lon": 170.0, "min_lat": -25.0, "tile_id": "170_-25" }, "geometry": { "type": "MultiPolygon", "coordinates": [ [ [ [ 171.3552967, -22.3465507 ], [ 171.3552242, -22.3466176 ], [ 171.3551089, -22.34664 ], [ 171.3550016, -22.3466226 ], [ 171.35483, -22.346568 ], [ 171.354711900000012, -22.3465507 ], [ 171.3545617, -22.346578 ], [ 171.354293500000011, -22.3466003 ], [ 171.3539878, -22.3466152 ], [ 171.353851, -22.34664 ], [ 171.3537383, -22.3466921 ], [ 171.3536015, -22.3467442 ], [ 171.3534915, -22.3467442 ], [ 171.3533869, -22.346759 ], [ 171.353268899999989, -22.3467665 ], [ 171.3531643, -22.3467789 ], [ 171.3530517, -22.3467789 ], [ 171.3529605, -22.3467466 ], [ 171.352877299999989, -22.3467144 ], [ 171.352810299999987, -22.3466821 ], [ 171.352654699999988, -22.3466524 ], [ 171.352437400000014, -22.3466226 ], [ 171.3520029, -22.3465606 ], [ 171.351901, -22.3465358 ], [ 171.351831299999986, -22.3464961 ], [ 171.3517722, -22.3464365 ], [ 171.351715899999988, -22.3463522 ], [ 171.3516569, -22.3462182 ], [ 171.3515845, -22.3460892 ], [ 171.3515711, -22.3460198 ], [ 171.3515389, -22.3459602 ], [ 171.351504, -22.3459205 ], [ 171.351418200000012, -22.3458933 ], [ 171.3514236, -22.3458412 ], [ 171.351439699999986, -22.345794 ], [ 171.3513753, -22.3457221 ], [ 171.3513324, -22.3456427 ], [ 171.351284099999987, -22.3455261 ], [ 171.351324299999987, -22.3454616 ], [ 171.351297499999987, -22.3454269 ], [ 171.3512251, -22.3453822 ], [ 171.3512304, -22.3453152 ], [ 171.3511929, -22.3452582 ], [ 171.3511473, -22.3452582 ], [ 171.3511178, -22.345216 ], [ 171.351099, -22.3450994 ], [ 171.350959499999988, -22.345025 ], [ 171.3508603, -22.3449778 ], [ 171.35079060000001, -22.3449654 ], [ 171.3507825, -22.3448885 ], [ 171.3508281, -22.3448414 ], [ 171.3508335, -22.3447769 ], [ 171.3508067, -22.3447298 ], [ 171.3507691, -22.3446454 ], [ 171.3508603, -22.3445958 ], [ 171.3508603, -22.344509 ], [ 171.350753, -22.3444048 ], [ 171.3507155, -22.3443229 ], [ 171.3507155, -22.3442286 ], [ 171.3507262, -22.3440872 ], [ 171.3507718, -22.3439607 ], [ 171.350745, -22.343864 ], [ 171.350688600000012, -22.3437622 ], [ 171.3506457, -22.3436804 ], [ 171.350621600000011, -22.3435787 ], [ 171.3505706, -22.3434769 ], [ 171.350517, -22.3434248 ], [ 171.350479400000012, -22.3433678 ], [ 171.3504499, -22.3432983 ], [ 171.3504311, -22.3432239 ], [ 171.3503909, -22.343152 ], [ 171.3503963, -22.3430974 ], [ 171.350399, -22.3430403 ], [ 171.350348, -22.3430428 ], [ 171.3502756, -22.3430453 ], [ 171.3502461, -22.3429907 ], [ 171.3502246, -22.3428915 ], [ 171.350238, -22.3427947 ], [ 171.350270200000011, -22.3427501 ], [ 171.3502943, -22.3426335 ], [ 171.3502943, -22.3425665 ], [ 171.3503024, -22.3424573 ], [ 171.3503239, -22.3423556 ], [ 171.350353399999989, -22.3422663 ], [ 171.3503373, -22.3421795 ], [ 171.3503265, -22.3420852 ], [ 171.3503641, -22.341986 ], [ 171.3503507, -22.3419041 ], [ 171.3503265, -22.3418297 ], [ 171.3503507, -22.3417949 ], [ 171.3504177, -22.3417751 ], [ 171.350506200000012, -22.3417627 ], [ 171.3506028, -22.3417453 ], [ 171.350688600000012, -22.3417279 ], [ 171.350753, -22.3417354 ], [ 171.3508335, -22.3417329 ], [ 171.3509569, -22.3417255 ], [ 171.351115099999987, -22.3417577 ], [ 171.351217, -22.3418222 ], [ 171.3512814, -22.3418892 ], [ 171.3513833, -22.3419661 ], [ 171.351471800000013, -22.3419661 ], [ 171.3514879, -22.3418991 ], [ 171.3514021, -22.3418669 ], [ 171.3513163, -22.3418049 ], [ 171.3512412, -22.3417577 ], [ 171.3511473, -22.3416982 ], [ 171.351061499999986, -22.3416287 ], [ 171.350959499999988, -22.3415592 ], [ 171.350844200000012, -22.34146 ], [ 171.350897800000013, -22.341403 ], [ 171.3509086, -22.3413385 ], [ 171.35093, -22.3412615 ], [ 171.3509247, -22.3411598 ], [ 171.3509032, -22.3411003 ], [ 171.3508496, -22.341006 ], [ 171.350812, -22.340877 ], [ 171.3508227, -22.3408001 ], [ 171.3508764, -22.3407356 ], [ 171.350892499999986, -22.3406339 ], [ 171.3509086, -22.3405371 ], [ 171.3509542, -22.340428 ], [ 171.3509971, -22.3403213 ], [ 171.3510695, -22.340227 ], [ 171.3511473, -22.340103 ], [ 171.3512036, -22.3400112 ], [ 171.351289400000013, -22.3399045 ], [ 171.3514236, -22.3397953 ], [ 171.351627400000012, -22.3396763 ], [ 171.3517535, -22.3396366 ], [ 171.351901, -22.3396291 ], [ 171.352040499999987, -22.3396415 ], [ 171.352188, -22.3396663 ], [ 171.3523409, -22.3397358 ], [ 171.3524213, -22.3398077 ], [ 171.3524938, -22.3398722 ], [ 171.3525823, -22.3399566 ], [ 171.3527378, -22.3400782 ], [ 171.35277, -22.3401228 ], [ 171.352823699999988, -22.3403138 ], [ 171.3528827, -22.3403188 ], [ 171.352939, -22.3402791 ], [ 171.352957800000013, -22.3402072 ], [ 171.352957800000013, -22.3401104 ], [ 171.3529658, -22.3400211 ], [ 171.3529766, -22.3399591 ], [ 171.353019499999988, -22.3399144 ], [ 171.353046299999988, -22.3399268 ], [ 171.3530704, -22.3399665 ], [ 171.3531429, -22.3399888 ], [ 171.3532126, -22.3399516 ], [ 171.353277, -22.3398847 ], [ 171.353336, -22.3398053 ], [ 171.353424499999988, -22.3397457 ], [ 171.353523700000011, -22.3397035 ], [ 171.353612199999986, -22.3396812 ], [ 171.353749, -22.3396688 ], [ 171.353808, -22.3397035 ], [ 171.353859, -22.3397011 ], [ 171.3539207, -22.3396738 ], [ 171.35405750000001, -22.3397011 ], [ 171.3541406, -22.3397408 ], [ 171.354293500000011, -22.3397656 ], [ 171.3544115, -22.3397606 ], [ 171.354449100000011, -22.3397631 ], [ 171.354524199999986, -22.3397879 ], [ 171.3545886, -22.339773 ], [ 171.35461, -22.3398276 ], [ 171.3546342, -22.3398722 ], [ 171.3546905, -22.3399243 ], [ 171.3547656, -22.3399268 ], [ 171.3548112, -22.3399144 ], [ 171.3549185, -22.3399194 ], [ 171.3549668, -22.3399566 ], [ 171.3550258, -22.3399913 ], [ 171.355066, -22.3399541 ], [ 171.355076700000012, -22.3399169 ], [ 171.355176, -22.3399268 ], [ 171.355232300000011, -22.3399665 ], [ 171.355272500000012, -22.3399764 ], [ 171.3553154, -22.339969 ], [ 171.3553852, -22.3400459 ], [ 171.3554066, -22.3400831 ], [ 171.3554442, -22.3400707 ], [ 171.3554576, -22.3400409 ], [ 171.3555649, -22.3400459 ], [ 171.3556319, -22.3400509 ], [ 171.3556668, -22.3401055 ], [ 171.355699, -22.3401873 ], [ 171.355739199999988, -22.3402345 ], [ 171.3557821, -22.3402171 ], [ 171.355873300000013, -22.3402766 ], [ 171.3559458, -22.3403138 ], [ 171.3560718, -22.3402791 ], [ 171.3561335, -22.3403089 ], [ 171.3562086, -22.3403461 ], [ 171.356281, -22.3403387 ], [ 171.3563347, -22.340361 ], [ 171.3563776, -22.3403585 ], [ 171.3564017, -22.340418 ], [ 171.3564527, -22.3404553 ], [ 171.3565117, -22.3404429 ], [ 171.3565573, -22.3404701 ], [ 171.356602900000013, -22.3405421 ], [ 171.356629700000013, -22.3406016 ], [ 171.3566753, -22.340614 ], [ 171.356729, -22.3406364 ], [ 171.3567209, -22.3407083 ], [ 171.3566753, -22.3407753 ], [ 171.356656500000014, -22.3408299 ], [ 171.3567021, -22.3408745 ], [ 171.3567531, -22.3408993 ], [ 171.3568041, -22.340944 ], [ 171.3568792, -22.3408969 ], [ 171.3569114, -22.3408175 ], [ 171.356954300000012, -22.3407778 ], [ 171.357029399999988, -22.3407306 ], [ 171.3570642, -22.3407976 ], [ 171.357029399999988, -22.3408596 ], [ 171.3570052, -22.3409093 ], [ 171.357024, -22.3409837 ], [ 171.3570857, -22.3409986 ], [ 171.3570857, -22.3410308 ], [ 171.3570723, -22.3410928 ], [ 171.357176900000013, -22.3410259 ], [ 171.3572574, -22.3409936 ], [ 171.3572949, -22.3410159 ], [ 171.35726, -22.341078 ], [ 171.3572896, -22.3411077 ], [ 171.3574102, -22.3411102 ], [ 171.3574639, -22.341135 ], [ 171.357608699999986, -22.34114 ], [ 171.3577214, -22.3411325 ], [ 171.358134400000012, -22.3410581 ], [ 171.358172, -22.3410407 ], [ 171.358129100000014, -22.3409961 ], [ 171.358102300000013, -22.3409514 ], [ 171.3580781, -22.340882 ], [ 171.3580701, -22.3408398 ], [ 171.358113, -22.3408075 ], [ 171.358164, -22.3407827 ], [ 171.358204199999989, -22.3407356 ], [ 171.3581264, -22.3406959 ], [ 171.3580433, -22.3406438 ], [ 171.358021799999989, -22.3406041 ], [ 171.3580325, -22.3405346 ], [ 171.3580272, -22.3404577 ], [ 171.3580459, -22.3404106 ], [ 171.358113, -22.3403957 ], [ 171.358155900000014, -22.3403833 ], [ 171.358209499999987, -22.3403461 ], [ 171.358298100000013, -22.3403783 ], [ 171.35843220000001, -22.340418 ], [ 171.358518, -22.3404429 ], [ 171.358587699999987, -22.3404875 ], [ 171.3585985, -22.3405719 ], [ 171.35861460000001, -22.3406289 ], [ 171.358555599999988, -22.3406587 ], [ 171.358654800000011, -22.3406537 ], [ 171.358695, -22.3406959 ], [ 171.3587111, -22.3407257 ], [ 171.3587594, -22.3407282 ], [ 171.3587326, -22.3407927 ], [ 171.3587674, -22.3408596 ], [ 171.358751399999989, -22.3409241 ], [ 171.3587379, -22.3409862 ], [ 171.3587058, -22.341073 ], [ 171.3586843, -22.3411474 ], [ 171.358708400000012, -22.341202 ], [ 171.358778199999989, -22.341264 ], [ 171.358797, -22.341326 ], [ 171.3588077, -22.3414104 ], [ 171.358797, -22.3414848 ], [ 171.3587889, -22.341522 ], [ 171.3588211, -22.3415543 ], [ 171.358898900000014, -22.3415096 ], [ 171.358952499999987, -22.3414898 ], [ 171.3590008, -22.3415196 ], [ 171.3590303, -22.3415667 ], [ 171.359092, -22.3415617 ], [ 171.359134899999987, -22.3415617 ], [ 171.3591832, -22.3416486 ], [ 171.3591912, -22.3417528 ], [ 171.3591939, -22.3418346 ], [ 171.3591993, -22.3418942 ], [ 171.3592207, -22.3419611 ], [ 171.3593012, -22.3420008 ], [ 171.3593763, -22.3420381 ], [ 171.3594621, -22.3420753 ], [ 171.3595614, -22.3421547 ], [ 171.3596392, -22.3422216 ], [ 171.3597116, -22.3422787 ], [ 171.359802800000011, -22.3423407 ], [ 171.359856400000012, -22.3424102 ], [ 171.3599074, -22.3424796 ], [ 171.3599798, -22.3425367 ], [ 171.360100499999987, -22.3425789 ], [ 171.3601837, -22.3425962 ], [ 171.3602239, -22.3425615 ], [ 171.3602266, -22.3424747 ], [ 171.360242699999986, -22.34244 ], [ 171.3603714, -22.342373 ], [ 171.3604841, -22.3423358 ], [ 171.3605618, -22.3423382 ], [ 171.3606074, -22.3423606 ], [ 171.3605833, -22.3423879 ], [ 171.360438499999987, -22.34243 ], [ 171.3604814, -22.3424623 ], [ 171.36059130000001, -22.3424275 ], [ 171.3606369, -22.3423804 ], [ 171.360661099999987, -22.3423382 ], [ 171.3607255, -22.3423209 ], [ 171.36077370000001, -22.3423531 ], [ 171.3607496, -22.3423928 ], [ 171.3606906, -22.3424226 ], [ 171.360634299999987, -22.3424722 ], [ 171.360620899999986, -22.3425342 ], [ 171.3607308, -22.3425119 ], [ 171.360814, -22.3424772 ], [ 171.36094270000001, -22.3424697 ], [ 171.3610473, -22.3424796 ], [ 171.3611117, -22.3424375 ], [ 171.3611922, -22.3423829 ], [ 171.3612539, -22.3423655 ], [ 171.3613316, -22.3423482 ], [ 171.361404099999987, -22.3423506 ], [ 171.3614926, -22.3424003 ], [ 171.361538200000012, -22.3424598 ], [ 171.361632, -22.3425243 ], [ 171.3616776, -22.3425491 ], [ 171.36171250000001, -22.3426062 ], [ 171.361760800000013, -22.3426558 ], [ 171.3618547, -22.3426707 ], [ 171.361929800000013, -22.3426583 ], [ 171.3619727, -22.3426955 ], [ 171.361991499999988, -22.3427302 ], [ 171.3620397, -22.3427401 ], [ 171.362004899999988, -22.3427848 ], [ 171.3619271, -22.3428344 ], [ 171.361849299999989, -22.3428766 ], [ 171.3618788, -22.3428989 ], [ 171.3619325, -22.3428791 ], [ 171.3619646, -22.3429262 ], [ 171.362018299999988, -22.3429287 ], [ 171.3620344, -22.3429932 ], [ 171.3620692, -22.343023 ], [ 171.3621283, -22.343013 ], [ 171.3621712, -22.3430626 ], [ 171.3621631, -22.3431172 ], [ 171.362192599999986, -22.3431247 ], [ 171.3622248, -22.3431247 ], [ 171.3622677, -22.3431817 ], [ 171.3622838, -22.3432636 ], [ 171.3623643, -22.3433107 ], [ 171.3624206, -22.3433603 ], [ 171.3624153, -22.3433876 ], [ 171.3623589, -22.3434323 ], [ 171.362388399999986, -22.3435117 ], [ 171.362423299999989, -22.3435638 ], [ 171.3623938, -22.3436283 ], [ 171.3624179, -22.3436804 ], [ 171.3623938, -22.34373 ], [ 171.3623992, -22.3437846 ], [ 171.3624287, -22.343854 ], [ 171.3624716, -22.3439061 ], [ 171.362517200000013, -22.3439161 ], [ 171.36246890000001, -22.3439458 ], [ 171.3624769, -22.3440004 ], [ 171.3623992, -22.3440426 ], [ 171.3623777, -22.3440847 ], [ 171.362321400000013, -22.344117 ], [ 171.3622624, -22.3441617 ], [ 171.3622382, -22.3441741 ], [ 171.362200699999988, -22.3442088 ], [ 171.3621604, -22.344246 ], [ 171.3621095, -22.3442857 ], [ 171.362031699999989, -22.344313 ], [ 171.3619512, -22.3443626 ], [ 171.36186, -22.3444594 ], [ 171.361835899999988, -22.3444792 ], [ 171.361787600000014, -22.3445412 ], [ 171.3617581, -22.3446156 ], [ 171.3617715, -22.3446727 ], [ 171.361835899999988, -22.3447198 ], [ 171.361760800000013, -22.3447595 ], [ 171.361675, -22.344829 ], [ 171.3616455, -22.3449158 ], [ 171.3616562, -22.3450002 ], [ 171.361693699999989, -22.3450746 ], [ 171.3617849, -22.345149 ], [ 171.361774200000013, -22.3452234 ], [ 171.36168570000001, -22.3452929 ], [ 171.3615891, -22.3453177 ], [ 171.3614523, -22.3452979 ], [ 171.3613799, -22.3453549 ], [ 171.3613182, -22.3454641 ], [ 171.361227, -22.3455385 ], [ 171.361166700000012, -22.3455298 ], [ 171.361109, -22.3455472 ], [ 171.361019199999987, -22.3455943 ], [ 171.3609602, -22.345598 ], [ 171.3608743, -22.3455794 ], [ 171.360815300000013, -22.345608 ], [ 171.360761700000012, -22.3455931 ], [ 171.3607121, -22.3455311 ], [ 171.3606732, -22.345469 ], [ 171.360641, -22.3454058 ], [ 171.3605887, -22.3453971 ], [ 171.360485399999988, -22.3454132 ], [ 171.3603687, -22.3454393 ], [ 171.3602923, -22.3454343 ], [ 171.3602185, -22.3453909 ], [ 171.360053599999986, -22.3453822 ], [ 171.360012, -22.3454368 ], [ 171.3599557, -22.3454889 ], [ 171.3598886, -22.345577 ], [ 171.3598685, -22.345536 ], [ 171.359864499999986, -22.3454703 ], [ 171.3598242, -22.3454467 ], [ 171.3597652, -22.3454604 ], [ 171.359647200000012, -22.3454839 ], [ 171.359548, -22.3455174 ], [ 171.3593964, -22.3455894 ], [ 171.359282400000012, -22.3456216 ], [ 171.3591926, -22.3456204 ], [ 171.3590907, -22.3456005 ], [ 171.359019600000011, -22.345634 ], [ 171.358945799999987, -22.3456874 ], [ 171.3588546, -22.3457581 ], [ 171.358791599999989, -22.3458263 ], [ 171.35882380000001, -22.345897 ], [ 171.358843900000011, -22.3459416 ], [ 171.3588761, -22.3459776 ], [ 171.3589337, -22.3459999 ], [ 171.3589914, -22.346057 ], [ 171.3590156, -22.3461277 ], [ 171.3590571, -22.3461872 ], [ 171.3590504, -22.3462294 ], [ 171.3590102, -22.3462592 ], [ 171.358898900000014, -22.3463237 ], [ 171.3588063, -22.3463361 ], [ 171.358813, -22.3463993 ], [ 171.3588023, -22.3464316 ], [ 171.3587661, -22.3464651 ], [ 171.3587004, -22.3465122 ], [ 171.358754, -22.3465469 ], [ 171.3587996, -22.3466363 ], [ 171.35881040000001, -22.3467132 ], [ 171.3588345, -22.3467851 ], [ 171.358868, -22.3468955 ], [ 171.35883050000001, -22.3469625 ], [ 171.358778199999989, -22.3469203 ], [ 171.358736599999986, -22.3468732 ], [ 171.3586521, -22.3468508 ], [ 171.3586132, -22.3468111 ], [ 171.358594399999987, -22.3467442 ], [ 171.3585435, -22.3467144 ], [ 171.358472400000011, -22.3467541 ], [ 171.3583946, -22.3468161 ], [ 171.358398599999987, -22.3468508 ], [ 171.358463, -22.3468732 ], [ 171.358519300000012, -22.346924 ], [ 171.358522, -22.3469898 ], [ 171.3584952, -22.3470977 ], [ 171.3584429, -22.3471039 ], [ 171.3583745, -22.3470753 ], [ 171.3583088, -22.3470443 ], [ 171.3582806, -22.3470096 ], [ 171.3583061, -22.3469501 ], [ 171.3583289, -22.3468868 ], [ 171.3582927, -22.3468856 ], [ 171.3582417, -22.3468781 ], [ 171.358204199999989, -22.3468372 ], [ 171.3581921, -22.3468025 ], [ 171.3582256, -22.3467603 ], [ 171.3582082, -22.3467132 ], [ 171.3580969, -22.3467801 ], [ 171.358058, -22.346795 ], [ 171.3580097, -22.3468099 ], [ 171.357931900000011, -22.3467851 ], [ 171.3578689, -22.3467603 ], [ 171.3578153, -22.3467876 ], [ 171.357767, -22.3467789 ], [ 171.357716, -22.3467417 ], [ 171.3576409, -22.3466995 ], [ 171.3575725, -22.3466611 ], [ 171.3574666, -22.346666 ], [ 171.3574035, -22.3466412 ], [ 171.3574558, -22.3465904 ], [ 171.357476, -22.3465283 ], [ 171.3575229, -22.3464564 ], [ 171.3575578, -22.346377 ], [ 171.357603399999988, -22.3462852 ], [ 171.3576651, -22.3461785 ], [ 171.3576865, -22.3461066 ], [ 171.3576409, -22.3460619 ], [ 171.3574719, -22.3459404 ], [ 171.3573405, -22.3458933 ], [ 171.357193, -22.3458635 ], [ 171.3570374, -22.3458486 ], [ 171.3569355, -22.3458486 ], [ 171.3567933, -22.3458982 ], [ 171.3566673, -22.3459726 ], [ 171.3564903, -22.3460694 ], [ 171.3562086, -22.3462133 ], [ 171.355921599999988, -22.3463944 ], [ 171.3556293, -22.3464539 ], [ 171.3553664, -22.3464911 ], [ 171.3552967, -22.3465507 ] ] ] ] } },
{ "type": "Feature", "properties": { "FID": 704888, "id": 2543, "left": 170.0, "top": -20.0, "right": 175.0, "bottom": -25.0, "row_index": 22, "col_index": 70, "min_lon": 170.0, "min_lat": -25.0, "tile_id": "170_-25" }, "geometry": { "type": "MultiPolygon", "coordinates": [ [ [ [ 174.63382390000001, -21.7356628 ], [ 174.6338356, -21.7357105 ], [ 174.6338216, -21.7357864 ], [ 174.6337772, -21.735871 ], [ 174.6337212, -21.7359231 ], [ 174.6336722, -21.7359773 ], [ 174.6336675, -21.7360228 ], [ 174.633616100000012, -21.7360944 ], [ 174.6335297, -21.7361291 ], [ 174.6334387, -21.7361768 ], [ 174.633371, -21.7362311 ], [ 174.6333266, -21.7362875 ], [ 174.6332519, -21.7363113 ], [ 174.6331538, -21.7363894 ], [ 174.6330347, -21.7364436 ], [ 174.6329623, -21.7364566 ], [ 174.6328993, -21.7365239 ], [ 174.6328129, -21.7365889 ], [ 174.6326728, -21.7366106 ], [ 174.6325023, -21.7365955 ], [ 174.632380899999987, -21.7365955 ], [ 174.6322408, -21.7365998 ], [ 174.6321031, -21.7365889 ], [ 174.632005, -21.736602 ], [ 174.631904600000013, -21.7366627 ], [ 174.6318018, -21.7367082 ], [ 174.6316407, -21.7367082 ], [ 174.631505299999986, -21.7366931 ], [ 174.631430599999987, -21.7366562 ], [ 174.6313839, -21.7366128 ], [ 174.6314049, -21.7365412 ], [ 174.6315333, -21.7364089 ], [ 174.6316361, -21.736281 ], [ 174.631752799999987, -21.736205 ], [ 174.631920900000011, -21.7360814 ], [ 174.6319863, -21.7360012 ], [ 174.6320704, -21.7359209 ], [ 174.6321591, -21.7358862 ], [ 174.6322758, -21.7357691 ], [ 174.6323296, -21.7356953 ], [ 174.6324416, -21.7356476 ], [ 174.6326378, -21.7355478 ], [ 174.6328713, -21.7355045 ], [ 174.6331398, -21.7354806 ], [ 174.6333616, -21.7354914 ], [ 174.6336278, -21.7355543 ], [ 174.633788900000013, -21.7356216 ], [ 174.63382390000001, -21.7356628 ] ] ] ] } }
]
}
