{
"type": "FeatureCollection",
"name": "170_10",
"crs": { "type": "name", "properties": { "name": "urn:ogc:def:crs:OGC:1.3:CRS84" } },
"xy_coordinate_resolution": 1e-15,
"features": [
{ "type": "Feature", "properties": { "FID": 90414, "id": 2536, "left": 170.0, "top": 15.0, "right": 175.0, "bottom": 10.0, "row_index": 15, "col_index": 70, "min_lon": 170.0, "min_lat": 10.0, "tile_id": "170_10" }, "geometry": { "type": "MultiPolygon", "coordinates": [ [ [ [ 170.8726529, 10.2687164 ], [ 170.8717643, 10.2684005 ], [ 170.871082, 10.2682736 ], [ 170.8703023, 10.2682482 ], [ 170.8692503, 10.2682566 ], [ 170.8687573, 10.2683413 ], [ 170.8682499, 10.2685331 ], [ 170.8680263, 10.2685387 ], [ 170.8669858, 10.2686825 ], [ 170.8663695, 10.2688433 ], [ 170.8654493, 10.2690887 ], [ 170.864939099999987, 10.2692918 ], [ 170.864317, 10.2696387 ], [ 170.863735100000014, 10.2700308 ], [ 170.8631389, 10.2705329 ], [ 170.8629812, 10.2707867 ], [ 170.862812100000014, 10.2712634 ], [ 170.862772, 10.2717401 ], [ 170.8627548, 10.2723663 ], [ 170.8629096, 10.2732576 ], [ 170.8631589, 10.2743689 ], [ 170.863282199999986, 10.2754068 ], [ 170.8633797, 10.2758666 ], [ 170.863508700000011, 10.276222 ], [ 170.8637666, 10.2766676 ], [ 170.8641341, 10.2773846 ], [ 170.8642683, 10.2783092 ], [ 170.8643801, 10.2789523 ], [ 170.8644145, 10.2800607 ], [ 170.8643514, 10.2808364 ], [ 170.8642855, 10.2811297 ], [ 170.864225299999987, 10.2814259 ], [ 170.864245399999987, 10.2820069 ], [ 170.8643084, 10.2825258 ], [ 170.864426, 10.2829094 ], [ 170.8645435, 10.2830843 ], [ 170.864930500000014, 10.2833692 ], [ 170.8651827, 10.2835046 ], [ 170.8654837, 10.2835581 ], [ 170.865842, 10.2835666 ], [ 170.8660341, 10.2836174 ], [ 170.8664841, 10.2838797 ], [ 170.8667908, 10.2842351 ], [ 170.8670603, 10.2847653 ], [ 170.867249500000014, 10.2853943 ], [ 170.867324, 10.2858258 ], [ 170.8673326, 10.2864238 ], [ 170.867212200000012, 10.2870358 ], [ 170.8668969, 10.2878001 ], [ 170.8668367, 10.2881358 ], [ 170.866770800000012, 10.2883868 ], [ 170.8666647, 10.2885983 ], [ 170.8664813, 10.2887732 ], [ 170.8662061, 10.288886 ], [ 170.8659395, 10.2891624 ], [ 170.865816200000012, 10.2893091 ], [ 170.865607, 10.2898309 ], [ 170.8654722, 10.290488 ], [ 170.8654608, 10.2910183 ], [ 170.8655439, 10.2926315 ], [ 170.865478, 10.2936271 ], [ 170.8655468, 10.2939233 ], [ 170.8657245, 10.2943068 ], [ 170.8659079, 10.2946312 ], [ 170.8662319, 10.2949217 ], [ 170.866575899999987, 10.2951135 ], [ 170.8671119, 10.295356 ], [ 170.8674473, 10.2954237 ], [ 170.8680779, 10.2955535 ], [ 170.868591, 10.2958693 ], [ 170.8697348, 10.2964673 ], [ 170.8701934, 10.2967324 ], [ 170.8703511, 10.2968875 ], [ 170.871010399999989, 10.2977167 ], [ 170.871686899999986, 10.2984105 ], [ 170.8724264, 10.2990112 ], [ 170.8732549, 10.2995189 ], [ 170.87394, 10.3000096 ], [ 170.874347, 10.3002353 ], [ 170.874705299999988, 10.300286 ], [ 170.874940400000014, 10.3002606 ], [ 170.875227099999989, 10.3001083 ], [ 170.8758233, 10.2996204 ], [ 170.8765113, 10.2990169 ], [ 170.877053, 10.2985318 ], [ 170.8772308, 10.2982441 ], [ 170.8773368, 10.2980156 ], [ 170.8773798, 10.2974431 ], [ 170.8774822, 10.2966913 ], [ 170.877602599999989, 10.2959439 ], [ 170.877800400000012, 10.2949313 ], [ 170.8779494, 10.2943785 ], [ 170.878049800000014, 10.2934986 ], [ 170.8780985, 10.2929232 ], [ 170.8779752, 10.2921956 ], [ 170.8778491, 10.2917499 ], [ 170.8775453, 10.2910674 ], [ 170.8772099, 10.2904751 ], [ 170.8768344, 10.2900097 ], [ 170.876430199999987, 10.2895528 ], [ 170.8758253, 10.2889464 ], [ 170.875226199999986, 10.2882216 ], [ 170.874526800000012, 10.2870624 ], [ 170.8741627, 10.2864334 ], [ 170.873850299999987, 10.2858214 ], [ 170.8736726, 10.2855703 ], [ 170.8734977, 10.2854209 ], [ 170.8733257, 10.2851783 ], [ 170.873176699999988, 10.284806 ], [ 170.8730649, 10.2846198 ], [ 170.8729588, 10.2844478 ], [ 170.87285270000001, 10.2841263 ], [ 170.872640600000011, 10.2833788 ], [ 170.8725259, 10.2825158 ], [ 170.872442799999988, 10.2816019 ], [ 170.872437100000013, 10.2804906 ], [ 170.8725173, 10.2793258 ], [ 170.8727295, 10.2779324 ], [ 170.8729875, 10.2768663 ], [ 170.8732111, 10.2760427 ], [ 170.8735464, 10.2750808 ], [ 170.874045200000012, 10.2739442 ], [ 170.874458, 10.2728413 ], [ 170.8746329, 10.2721869 ], [ 170.8746214, 10.2717723 ], [ 170.8746271, 10.2709741 ], [ 170.874506700000012, 10.2704523 ], [ 170.874283100000014, 10.2699643 ], [ 170.8740058, 10.2696104 ], [ 170.8737443, 10.2693112 ], [ 170.873322699999989, 10.269042 ], [ 170.8726529, 10.2687164 ] ] ] ] } },
{ "type": "Feature", "properties": { "FID": 90560, "id": 2536, "left": 170.0, "top": 15.0, "right": 175.0, "bottom": 10.0, "row_index": 15, "col_index": 70, "min_lon": 170.0, "min_lat": 10.0, "tile_id": "170_10" }, "geometry": { "type": "MultiPolygon", "coordinates": [ [ [ [ 170.118420500000013, 12.2127219 ], [ 170.1183529, 12.2127175 ], [ 170.1182966, 12.2127373 ], [ 170.118175, 12.2128012 ], [ 170.1180781, 12.212821 ], [ 170.1179655, 12.21281 ], [ 170.117825900000014, 12.2127704 ], [ 170.1177313, 12.2127307 ], [ 170.1176299, 12.2126933 ], [ 170.117528600000014, 12.2127043 ], [ 170.1174498, 12.2127594 ], [ 170.1173191, 12.2129002 ], [ 170.1172493, 12.2130213 ], [ 170.1172245, 12.2132414 ], [ 170.1172516, 12.2133119 ], [ 170.117292099999986, 12.2133669 ], [ 170.1173349, 12.2134219 ], [ 170.1173867, 12.2134814 ], [ 170.117490299999986, 12.2135474 ], [ 170.1175579, 12.2135562 ], [ 170.1176412, 12.213543 ], [ 170.1177606, 12.2135254 ], [ 170.1178912, 12.213532 ], [ 170.11797, 12.2135518 ], [ 170.1180579, 12.2135166 ], [ 170.118144, 12.2134572 ], [ 170.118291199999987, 12.2133611 ], [ 170.1185337, 12.2132575 ], [ 170.118791, 12.213172 ], [ 170.1191675, 12.2130275 ], [ 170.119253500000013, 12.2128175 ], [ 170.1187876, 12.2127969 ], [ 170.1185221, 12.2127496 ], [ 170.118420500000013, 12.2127219 ] ] ] ] } },
{ "type": "Feature", "properties": { "FID": 90569, "id": 2536, "left": 170.0, "top": 15.0, "right": 175.0, "bottom": 10.0, "row_index": 15, "col_index": 70, "min_lon": 170.0, "min_lat": 10.0, "tile_id": "170_10" }, "geometry": { "type": "MultiPolygon", "coordinates": [ [ [ [ 170.1104611, 12.1844306 ], [ 170.1103511, 12.1844091 ], [ 170.1102147, 12.1844048 ], [ 170.1101004, 12.1844091 ], [ 170.109968400000014, 12.1843876 ], [ 170.1098892, 12.1843489 ], [ 170.1097485, 12.1843145 ], [ 170.1096561, 12.1843618 ], [ 170.1095681, 12.1845037 ], [ 170.1094493, 12.1846542 ], [ 170.1092118, 12.1848692 ], [ 170.1089567, 12.1850971 ], [ 170.1087411, 12.1853121 ], [ 170.108464, 12.1855873 ], [ 170.10819570000001, 12.1858538 ], [ 170.107940500000012, 12.1860344 ], [ 170.1075993, 12.1863013 ], [ 170.1073926, 12.1864045 ], [ 170.1071814, 12.1866281 ], [ 170.106798700000013, 12.1869076 ], [ 170.1064019, 12.1874941 ], [ 170.1062358, 12.1876152 ], [ 170.1061626, 12.1877115 ], [ 170.1060106, 12.1878546 ], [ 170.1058783, 12.1880252 ], [ 170.105723399999988, 12.1882261 ], [ 170.1056615, 12.1883334 ], [ 170.1056136, 12.1885425 ], [ 170.1054762, 12.1888046 ], [ 170.1053973, 12.1888795 ], [ 170.10537930000001, 12.1889521 ], [ 170.10540180000001, 12.1890842 ], [ 170.1053973, 12.1892229 ], [ 170.1053455, 12.1893594 ], [ 170.105266699999987, 12.1894827 ], [ 170.1052257, 12.1896324 ], [ 170.105264, 12.1897205 ], [ 170.105291, 12.1898217 ], [ 170.1052527, 12.1899472 ], [ 170.105182899999988, 12.1900815 ], [ 170.1049959, 12.1904403 ], [ 170.1048223, 12.1908709 ], [ 170.104645, 12.1913662 ], [ 170.104487299999988, 12.1917184 ], [ 170.104419799999988, 12.1918918 ], [ 170.1043606, 12.1920349 ], [ 170.1042903, 12.1923623 ], [ 170.1043015, 12.1924807 ], [ 170.1043719, 12.1925522 ], [ 170.104585899999989, 12.1926568 ], [ 170.1049715, 12.1927751 ], [ 170.1052728, 12.1927421 ], [ 170.105450100000013, 12.1926623 ], [ 170.1057007, 12.1925302 ], [ 170.1060498, 12.1923155 ], [ 170.1062919, 12.1921422 ], [ 170.106491799999986, 12.1919771 ], [ 170.1066663, 12.1917459 ], [ 170.1069113, 12.1915203 ], [ 170.107195600000011, 12.1912176 ], [ 170.1074068, 12.1909231 ], [ 170.107632, 12.1906425 ], [ 170.107895500000012, 12.1903427 ], [ 170.1079996, 12.1901776 ], [ 170.108208, 12.19004 ], [ 170.1084501, 12.1899106 ], [ 170.1086331, 12.1897042 ], [ 170.1088724, 12.1893658 ], [ 170.1091089, 12.1887246 ], [ 170.10926090000001, 12.1882073 ], [ 170.1093313, 12.1879403 ], [ 170.109334100000012, 12.1876074 ], [ 170.109384799999987, 12.1871753 ], [ 170.109404500000011, 12.1870047 ], [ 170.1094861, 12.1867405 ], [ 170.10961, 12.1864874 ], [ 170.1098211, 12.1861516 ], [ 170.1099883, 12.1859652 ], [ 170.1100942, 12.1858001 ], [ 170.1102338, 12.185657 ], [ 170.110328399999986, 12.1855249 ], [ 170.1104027, 12.185362 ], [ 170.110496, 12.1851999 ], [ 170.1105465, 12.1850943 ], [ 170.1105532, 12.1850453 ], [ 170.1105205, 12.1848998 ], [ 170.1105494, 12.1847378 ], [ 170.1105681, 12.1846533 ], [ 170.1105494, 12.1846195 ], [ 170.1104857, 12.1845369 ], [ 170.1104611, 12.1844306 ] ] ] ] } },
{ "type": "Feature", "properties": { "FID": 231054, "id": 2536, "left": 170.0, "top": 15.0, "right": 175.0, "bottom": 10.0, "row_index": 15, "col_index": 70, "min_lon": 170.0, "min_lat": 10.0, "tile_id": "170_10" }, "geometry": { "type": "MultiPolygon", "coordinates": [ [ [ [ 170.141989599999988, 12.2521671 ], [ 170.1421032, 12.2523784 ], [ 170.142203, 12.2524732 ], [ 170.1423638, 12.252568 ], [ 170.1426327, 12.2526222 ], [ 170.1430535, 12.2527307 ], [ 170.1434754, 12.252736 ], [ 170.143691600000011, 12.2527008 ], [ 170.1439411, 12.2526412 ], [ 170.1440658, 12.2526385 ], [ 170.144196099999988, 12.2526059 ], [ 170.144404, 12.2525409 ], [ 170.144487199999986, 12.2524515 ], [ 170.144512099999986, 12.2523432 ], [ 170.144448399999987, 12.2521806 ], [ 170.144287600000013, 12.2519694 ], [ 170.144154500000013, 12.2518529 ], [ 170.143966, 12.2516687 ], [ 170.1437803, 12.2515657 ], [ 170.143553, 12.2514628 ], [ 170.1434199, 12.2513842 ], [ 170.1431206, 12.2513165 ], [ 170.1429487, 12.2513111 ], [ 170.1427463, 12.2513517 ], [ 170.1425606, 12.2514194 ], [ 170.1423638, 12.2514845 ], [ 170.1422141, 12.2515441 ], [ 170.142081100000013, 12.251628 ], [ 170.1420118, 12.2516903 ], [ 170.1419535, 12.2517662 ], [ 170.141909199999986, 12.2518962 ], [ 170.141989599999988, 12.2521671 ] ] ] ] } },
{ "type": "Feature", "properties": { "FID": 231055, "id": 2536, "left": 170.0, "top": 15.0, "right": 175.0, "bottom": 10.0, "row_index": 15, "col_index": 70, "min_lon": 170.0, "min_lat": 10.0, "tile_id": "170_10" }, "geometry": { "type": "MultiPolygon", "coordinates": [ [ [ [ 170.132761499999987, 12.243604 ], [ 170.132893200000012, 12.243749 ], [ 170.1331357, 12.2439278 ], [ 170.1333201, 12.2439901 ], [ 170.133535, 12.2440412 ], [ 170.1337957, 12.2440891 ], [ 170.1340702, 12.2441523 ], [ 170.134391599999987, 12.2442634 ], [ 170.134622900000011, 12.2443841 ], [ 170.134862, 12.2445603 ], [ 170.135026399999987, 12.2446826 ], [ 170.135089099999988, 12.2447324 ], [ 170.1351459, 12.2447956 ], [ 170.1351989, 12.2448741 ], [ 170.135277300000013, 12.2449182 ], [ 170.135383100000013, 12.2448856 ], [ 170.1354576, 12.2448339 ], [ 170.135502699999989, 12.2447841 ], [ 170.135692799999987, 12.2445849 ], [ 170.1357673, 12.2445542 ], [ 170.135924100000011, 12.244581 ], [ 170.1361828, 12.2446347 ], [ 170.136422, 12.244673 ], [ 170.1366533, 12.2447573 ], [ 170.1368297, 12.2448224 ], [ 170.1370531, 12.2448339 ], [ 170.1374491, 12.2447611 ], [ 170.1377, 12.244696 ], [ 170.1379666, 12.2445236 ], [ 170.1381116, 12.2441788 ], [ 170.13810380000001, 12.244083 ], [ 170.1380567, 12.2440255 ], [ 170.137731300000013, 12.2437574 ], [ 170.1375196, 12.2433474 ], [ 170.1374334, 12.2432133 ], [ 170.1372452, 12.243018 ], [ 170.1371159, 12.2427191 ], [ 170.1368689, 12.242336 ], [ 170.1366807, 12.2421598 ], [ 170.136523899999986, 12.2419567 ], [ 170.1362652, 12.2416426 ], [ 170.1355917, 12.2415298 ], [ 170.1354642, 12.2415975 ], [ 170.13536160000001, 12.2416706 ], [ 170.1351149, 12.2418169 ], [ 170.1349014, 12.2419199 ], [ 170.1346159, 12.2419605 ], [ 170.134212100000013, 12.2419142 ], [ 170.1341525, 12.2419358 ], [ 170.1340735, 12.2419561 ], [ 170.134018, 12.2419981 ], [ 170.13398620000001, 12.2420862 ], [ 170.133954100000011, 12.2422451 ], [ 170.1339097, 12.2423358 ], [ 170.1338585, 12.242413 ], [ 170.1337739, 12.2424902 ], [ 170.133640899999989, 12.2425742 ], [ 170.13353, 12.2426108 ], [ 170.13333320000001, 12.2426663 ], [ 170.1332334, 12.2426839 ], [ 170.1331114, 12.2426839 ], [ 170.1329977, 12.2427124 ], [ 170.1328536, 12.242776 ], [ 170.1326748, 12.2428898 ], [ 170.1325043, 12.2430198 ], [ 170.1324946, 12.2430564 ], [ 170.1325057, 12.2431363 ], [ 170.1325431, 12.2432379 ], [ 170.1326291, 12.2434032 ], [ 170.132726100000014, 12.2435589 ], [ 170.132761499999987, 12.243604 ] ] ] ] } },
{ "type": "Feature", "properties": { "FID": 231056, "id": 2536, "left": 170.0, "top": 15.0, "right": 175.0, "bottom": 10.0, "row_index": 15, "col_index": 70, "min_lon": 170.0, "min_lat": 10.0, "tile_id": "170_10" }, "geometry": { "type": "MultiPolygon", "coordinates": [ [ [ [ 170.1344066, 12.2470102 ], [ 170.134483100000011, 12.2470878 ], [ 170.134583, 12.2471947 ], [ 170.1347389, 12.247297 ], [ 170.134942599999988, 12.2474453 ], [ 170.1355289, 12.2478137 ], [ 170.136146, 12.2483065 ], [ 170.1367916, 12.24885 ], [ 170.137334900000013, 12.2492021 ], [ 170.1378588, 12.2494947 ], [ 170.1381443, 12.2497574 ], [ 170.1384908, 12.2501475 ], [ 170.1389069, 12.2506045 ], [ 170.139059800000013, 12.2507616 ], [ 170.139395, 12.2509972 ], [ 170.1396666, 12.2511287 ], [ 170.1399214, 12.25119 ], [ 170.1403095, 12.2512168 ], [ 170.140564399999988, 12.2512168 ], [ 170.14081920000001, 12.251169 ], [ 170.1410505, 12.251077 ], [ 170.141223, 12.2510828 ], [ 170.1413562, 12.2511096 ], [ 170.141517, 12.2511077 ], [ 170.1415934, 12.2510579 ], [ 170.141613, 12.2509544 ], [ 170.1416189, 12.2508472 ], [ 170.141607099999987, 12.2505905 ], [ 170.1416307, 12.250533 ], [ 170.1417208, 12.250307 ], [ 170.1418031, 12.2499469 ], [ 170.1419443, 12.2497438 ], [ 170.142081499999989, 12.2496136 ], [ 170.1421717, 12.2494374 ], [ 170.142156, 12.2491615 ], [ 170.1419521, 12.2489815 ], [ 170.1416356, 12.2482696 ], [ 170.1414906, 12.2480474 ], [ 170.141165199999989, 12.2476221 ], [ 170.140937799999989, 12.247465 ], [ 170.1406869, 12.2473195 ], [ 170.140377199999989, 12.2472237 ], [ 170.139981299999988, 12.247216 ], [ 170.1395736, 12.2472927 ], [ 170.1391855, 12.2475225 ], [ 170.1389385, 12.2477754 ], [ 170.138845300000014, 12.2480336 ], [ 170.138751, 12.2480512 ], [ 170.1386096, 12.248081 ], [ 170.1382453, 12.2481139 ], [ 170.1381427, 12.2481111 ], [ 170.1380471, 12.2480935 ], [ 170.137951500000014, 12.2480543 ], [ 170.1377755, 12.2478958 ], [ 170.1375343, 12.247568 ], [ 170.137221899999986, 12.247045 ], [ 170.1371925, 12.247022 ], [ 170.137137700000011, 12.2469875 ], [ 170.1370514, 12.2469569 ], [ 170.1369593, 12.2469205 ], [ 170.136828, 12.2468975 ], [ 170.1366908, 12.2468515 ], [ 170.136598600000013, 12.2467807 ], [ 170.1365516, 12.2467424 ], [ 170.136475100000013, 12.2466677 ], [ 170.136385, 12.2465834 ], [ 170.1362595, 12.2464531 ], [ 170.1361008, 12.246388 ], [ 170.135941300000013, 12.2463193 ], [ 170.1358394, 12.2463136 ], [ 170.1357414, 12.2463193 ], [ 170.135631600000011, 12.2463442 ], [ 170.1355355, 12.2463442 ], [ 170.1354454, 12.2463155 ], [ 170.1352435, 12.2461526 ], [ 170.1350984, 12.246009 ], [ 170.135022, 12.2459554 ], [ 170.134943600000014, 12.2459304 ], [ 170.1348534, 12.2459381 ], [ 170.13478090000001, 12.2459707 ], [ 170.134728, 12.2460645 ], [ 170.134677, 12.2461814 ], [ 170.1346221, 12.2464457 ], [ 170.134577, 12.2465645 ], [ 170.1345241, 12.246643 ], [ 170.1344575, 12.246735 ], [ 170.1344202, 12.2468001 ], [ 170.134402599999987, 12.246892 ], [ 170.1343948, 12.2469687 ], [ 170.1344066, 12.2470102 ] ] ] ] } }
]
}
