{
"type": "FeatureCollection",
"name": "175_65",
"crs": { "type": "name", "properties": { "name": "urn:ogc:def:crs:OGC:1.3:CRS84" } },
"xy_coordinate_resolution": 1e-15,
"features": [
{ "type": "Feature", "properties": { "FID": 92298, "id": 2561, "left": 175.0, "top": 70.0, "right": 180.0, "bottom": 65.0, "row_index": 4, "col_index": 71, "min_lon": 175.0, "min_lat": 65.0, "tile_id": "175_65" }, "geometry": { "type": "MultiPolygon", "coordinates": [ [ [ [ 176.4576602, 65.0468358 ], [ 176.455729, 65.0468358 ], [ 176.4540446, 65.046958 ], [ 176.452521100000013, 65.0471346 ], [ 176.4514696, 65.0473111 ], [ 176.450825900000012, 65.0475283 ], [ 176.4504397, 65.0478135 ], [ 176.4500856, 65.0482163 ], [ 176.4494204, 65.0492211 ], [ 176.4490664, 65.0496012 ], [ 176.448969799999986, 65.0500357 ], [ 176.4489269, 65.050443 ], [ 176.449077100000011, 65.0506964 ], [ 176.4493239, 65.0510404 ], [ 176.4493668, 65.0514296 ], [ 176.4493647, 65.0517525 ], [ 176.4493316, 65.0522466 ], [ 176.4491308, 65.0528143 ], [ 176.4493668, 65.0530361 ], [ 176.449753, 65.0531582 ], [ 176.4504397, 65.0532261 ], [ 176.4521456, 65.0533257 ], [ 176.4540982, 65.0533619 ], [ 176.4555037, 65.0533347 ], [ 176.4572632, 65.053199 ], [ 176.458711599999987, 65.0530858 ], [ 176.4596128, 65.0529772 ], [ 176.4604282, 65.0528505 ], [ 176.461554799999988, 65.0526469 ], [ 176.462842200000011, 65.052398 ], [ 176.4637327, 65.0521446 ], [ 176.4644945, 65.0519364 ], [ 176.465621, 65.0516332 ], [ 176.4662754, 65.0514431 ], [ 176.4669299, 65.0511988 ], [ 176.467466300000012, 65.0509091 ], [ 176.4688074, 65.0503706 ], [ 176.470363099999986, 65.0499542 ], [ 176.4719081, 65.0497279 ], [ 176.4724445, 65.0495786 ], [ 176.4727235, 65.0494111 ], [ 176.472841499999987, 65.0492392 ], [ 176.4729166, 65.0490536 ], [ 176.4728522, 65.0488228 ], [ 176.4725625, 65.0485331 ], [ 176.472036800000012, 65.0480353 ], [ 176.471167799999989, 65.0476596 ], [ 176.4700842, 65.0473518 ], [ 176.4685178, 65.0471119 ], [ 176.465449299999989, 65.0469354 ], [ 176.462059, 65.0469128 ], [ 176.459366100000011, 65.0469218 ], [ 176.4576602, 65.0468358 ] ] ] ] } },
{ "type": "Feature", "properties": { "FID": 123912, "id": 2561, "left": 175.0, "top": 70.0, "right": 180.0, "bottom": 65.0, "row_index": 4, "col_index": 71, "min_lon": 175.0, "min_lat": 65.0, "tile_id": "175_65" }, "geometry": { "type": "MultiPolygon", "coordinates": [ [ [ [ 175.0011513, 69.8410823 ], [ 175.0080532, 69.8419759 ], [ 175.0085345, 69.842497 ], [ 175.0092297, 69.842974 ], [ 175.01028070000001, 69.8432888 ], [ 175.011965300000014, 69.8433999 ], [ 175.012526799999989, 69.843305 ], [ 175.0141676, 69.8426374 ], [ 175.0151349, 69.8424329 ], [ 175.0161568, 69.8417949 ], [ 175.0171402, 69.841413 ], [ 175.017886, 69.8408804 ], [ 175.0187307, 69.8405388 ], [ 175.0304947, 69.8391476 ], [ 175.04274430000001, 69.8381917 ], [ 175.081012, 69.8373557 ], [ 175.11345510000001, 69.8372294 ], [ 175.114914199999987, 69.8373034 ], [ 175.1154828, 69.837344 ], [ 175.1158959, 69.8373459 ], [ 175.116566400000011, 69.837333 ], [ 175.11707340000001, 69.8373256 ], [ 175.1174086, 69.8373274 ], [ 175.117741200000012, 69.8373422 ], [ 175.1184279, 69.8373903 ], [ 175.1192862, 69.8373995 ], [ 175.1199219, 69.837394 ], [ 175.1203001, 69.8373986 ], [ 175.1206809, 69.8374254 ], [ 175.1217002, 69.8374716 ], [ 175.1227462, 69.8375789 ], [ 175.1233953, 69.8376085 ], [ 175.1242322, 69.8376122 ], [ 175.1251039, 69.8375632 ], [ 175.125492799999989, 69.8375779 ], [ 175.1262706, 69.8376297 ], [ 175.1268205, 69.8376547 ], [ 175.1307875, 69.8378396 ], [ 175.132364599999988, 69.8380078 ], [ 175.133067399999987, 69.8380652 ], [ 175.134387, 69.8381317 ], [ 175.1357818, 69.8381798 ], [ 175.1408404, 69.8384128 ], [ 175.1420474, 69.8385089 ], [ 175.1431632, 69.838618 ], [ 175.1443702, 69.8387456 ], [ 175.1453358, 69.8388251 ], [ 175.1527011, 69.8391006 ], [ 175.162689699999987, 69.8397625 ], [ 175.16943280000001, 69.8402505 ], [ 175.1728579, 69.8404539 ], [ 175.1757199, 69.8406249 ], [ 175.1793596, 69.8407617 ], [ 175.1801911, 69.840783 ], [ 175.1807705, 69.8408098 ], [ 175.18115130000001, 69.8408468 ], [ 175.182774099999989, 69.8410159 ], [ 175.18345, 69.8410751 ], [ 175.184136599999988, 69.8411065 ], [ 175.1882779, 69.8412304 ], [ 175.1926339, 69.8415576 ], [ 175.1986527, 69.8418441 ], [ 175.203537, 69.8421908 ], [ 175.2062166, 69.842334 ], [ 175.211039199999988, 69.8425864 ], [ 175.212288300000012, 69.8426463 ], [ 175.213429, 69.842737 ], [ 175.2244073, 69.8437056 ], [ 175.231676099999987, 69.8441973 ], [ 175.2383816, 69.8446724 ], [ 175.253750700000012, 69.8458797 ], [ 175.2615666, 69.8466815 ], [ 175.26274140000001, 69.8467979 ], [ 175.2636856, 69.8468755 ], [ 175.2678484, 69.8471029 ], [ 175.273717, 69.8476536 ], [ 175.2742106, 69.8477091 ], [ 175.275610699999987, 69.8479623 ], [ 175.276345600000013, 69.8480621 ], [ 175.277397, 69.8481434 ], [ 175.2798808, 69.848245 ], [ 175.287417799999986, 69.8488918 ], [ 175.2887481, 69.8489935 ], [ 175.290083900000013, 69.8490748 ], [ 175.2949762, 69.8493853 ], [ 175.301209699999987, 69.8496698 ], [ 175.3159032, 69.850464 ], [ 175.3240111, 69.8511426 ], [ 175.32459320000001, 69.8512295 ], [ 175.3249928, 69.8512775 ], [ 175.32543, 69.8512867 ], [ 175.326065699999987, 69.851284 ], [ 175.3272861, 69.8513089 ], [ 175.3298637, 69.8514955 ], [ 175.3303894, 69.851514 ], [ 175.3315911, 69.8515575 ], [ 175.3331119, 69.8516526 ], [ 175.3388464, 69.8521681 ], [ 175.341957799999989, 69.8525081 ], [ 175.344044599999989, 69.8527095 ], [ 175.3459436, 69.852813 ], [ 175.3504121, 69.8531363 ], [ 175.354558700000013, 69.8535916 ], [ 175.3556156, 69.8536925 ], [ 175.3590542, 69.8539253 ], [ 175.36416650000001, 69.8543927 ], [ 175.36510530000001, 69.8545331 ], [ 175.3658563, 69.8545996 ], [ 175.367921599999988, 69.8547474 ], [ 175.372261400000014, 69.8550892 ], [ 175.375732199999987, 69.855274 ], [ 175.3775434, 69.8553869 ], [ 175.383017099999989, 69.8559372 ], [ 175.3865468, 69.856375 ], [ 175.3903234, 69.8568406 ], [ 175.3925711, 69.8571269 ], [ 175.39324160000001, 69.8572063 ], [ 175.393863900000014, 69.8572507 ], [ 175.3950709, 69.8572931 ], [ 175.395897, 69.8572987 ], [ 175.3961438, 69.8573098 ], [ 175.399455499999988, 69.8576331 ], [ 175.4044318, 69.8581632 ], [ 175.4088092, 69.8585788 ], [ 175.4130523, 69.8588702 ], [ 175.416297899999989, 69.8590702 ], [ 175.4193717, 69.8591699 ], [ 175.4252673, 69.8593805 ], [ 175.429338800000011, 69.8594544 ], [ 175.4315597, 69.8593823 ], [ 175.433339100000012, 69.8592619 ], [ 175.4349875, 69.8591182 ], [ 175.435847700000011, 69.859032 ], [ 175.4369187, 69.8588725 ], [ 175.4396549, 69.8582491 ], [ 175.4422906, 69.8586059 ], [ 175.444901, 69.8589593 ], [ 175.444745399999988, 69.8591283 ], [ 175.4446891, 69.8592336 ], [ 175.4446408, 69.8593814 ], [ 175.4446596, 69.8595643 ], [ 175.4447561, 69.8597139 ], [ 175.4449439, 69.8598275 ], [ 175.445298, 69.8599642 ], [ 175.445845100000014, 69.8601424 ], [ 175.4485702, 69.8608359 ], [ 175.4506624, 69.8611906 ], [ 175.45418140000001, 69.861595 ], [ 175.4588807, 69.8621362 ], [ 175.463445799999988, 69.8626385 ], [ 175.4685259, 69.8631593 ], [ 175.4751858, 69.8638011 ], [ 175.480606599999987, 69.8643283 ], [ 175.4841256, 69.8646127 ], [ 175.4854506, 69.8647087 ], [ 175.4905415, 69.8650817 ], [ 175.4949617, 69.8654584 ], [ 175.498572, 69.8657059 ], [ 175.5019194, 69.8659034 ], [ 175.513522599999988, 69.8663503 ], [ 175.5287468, 69.8669929 ], [ 175.5320567, 69.8670833 ], [ 175.5350178, 69.8671332 ], [ 175.543928099999988, 69.8673603 ], [ 175.557307, 69.8676096 ], [ 175.563105900000011, 69.8677776 ], [ 175.5699241, 69.8679881 ], [ 175.5783516, 69.8683555 ], [ 175.5839145, 69.8686527 ], [ 175.587101, 69.8688281 ], [ 175.58904290000001, 69.8689426 ], [ 175.5915803, 69.8691291 ], [ 175.5963063, 69.86943 ], [ 175.598521799999986, 69.8695168 ], [ 175.6024486, 69.8696146 ], [ 175.6070351, 69.869755 ], [ 175.6134725, 69.8699543 ], [ 175.6198507, 69.8701057 ], [ 175.628637700000013, 69.8703919 ], [ 175.6315559, 69.8705211 ], [ 175.63394310000001, 69.8706485 ], [ 175.6367433, 69.8708128 ], [ 175.640911499999987, 69.8710343 ], [ 175.6441623, 69.871182 ], [ 175.648963400000014, 69.8713998 ], [ 175.651050199999986, 69.8715235 ], [ 175.655202300000013, 69.8717451 ], [ 175.65805610000001, 69.8718503 ], [ 175.659804900000012, 69.8719038 ], [ 175.6619346, 69.8720164 ], [ 175.6664944, 69.8722527 ], [ 175.6726581, 69.872609 ], [ 175.6772125, 69.8729099 ], [ 175.6820458, 69.8732569 ], [ 175.6873029, 69.8736224 ], [ 175.690022699999986, 69.8738605 ], [ 175.701073400000013, 69.8748074 ], [ 175.70786480000001, 69.8753519 ], [ 175.7139802, 69.8758428 ], [ 175.717762099999987, 69.8761418 ], [ 175.7215816, 69.8764445 ], [ 175.725441600000011, 69.8766853 ], [ 175.7281691, 69.876845 ], [ 175.7321253, 69.8770978 ], [ 175.7361084, 69.8773267 ], [ 175.7385492, 69.8775241 ], [ 175.740577, 69.8776718 ], [ 175.741794700000014, 69.8777751 ], [ 175.7425672, 69.8778047 ], [ 175.743361099999987, 69.8778047 ], [ 175.7438707, 69.8778194 ], [ 175.7442778, 69.8778434 ], [ 175.7444729, 69.8778573 ], [ 175.744552, 69.8778656 ], [ 175.745474699999988, 69.8779301 ], [ 175.746316900000011, 69.8779468 ], [ 175.7476366, 69.8779597 ], [ 175.7492566, 69.8780501 ], [ 175.749726, 69.8780741 ], [ 175.7506567, 69.8780981 ], [ 175.7517484, 69.8781165 ], [ 175.7543206, 69.8782605 ], [ 175.75543110000001, 69.8783232 ], [ 175.7562196, 69.8783638 ], [ 175.7569492, 69.8783638 ], [ 175.7577431, 69.8783767 ], [ 175.758419, 69.8784229 ], [ 175.758993, 69.8784579 ], [ 175.759738700000014, 69.878493 ], [ 175.7607418, 69.8784967 ], [ 175.761514299999988, 69.8784561 ], [ 175.7633275, 69.8783731 ], [ 175.7642233, 69.8783472 ], [ 175.7649046, 69.8783638 ], [ 175.7657522, 69.8784266 ], [ 175.7663637, 69.8784524 ], [ 175.7672542, 69.8784524 ], [ 175.7687455, 69.8784229 ], [ 175.7721144, 69.8783343 ], [ 175.7761109, 69.8783122 ], [ 175.780499, 69.8782199 ], [ 175.7839215, 69.8780759 ], [ 175.788449, 69.8778379 ], [ 175.792923, 69.8776035 ], [ 175.8010662, 69.8771532 ], [ 175.805239699999987, 69.8768727 ], [ 175.8083725, 69.87669 ], [ 175.8199167, 69.8759609 ], [ 175.826895799999988, 69.8755272 ], [ 175.8322173, 69.8751544 ], [ 175.838048500000014, 69.8747409 ], [ 175.843842, 69.8743404 ], [ 175.851379, 69.8737608 ], [ 175.860225, 69.8730538 ], [ 175.8691782, 69.8721936 ], [ 175.87708, 69.8714202 ], [ 175.88054, 69.8710436 ], [ 175.8854699, 69.8705193 ], [ 175.8912528, 69.8698657 ], [ 175.8981997, 69.8690995 ], [ 175.9034729, 69.8684755 ], [ 175.907480099999987, 69.8680545 ], [ 175.9129465, 69.8675283 ], [ 175.915634, 69.8672754 ], [ 175.9191155, 69.8669689 ], [ 175.9215242, 69.8668285 ], [ 175.9252739, 69.8666273 ], [ 175.9293079, 69.8664962 ], [ 175.9321564, 69.8664334 ], [ 175.9352302, 69.86645 ], [ 175.938175300000012, 69.8664777 ], [ 175.9411687, 69.8665423 ], [ 175.9438562, 69.8666125 ], [ 175.9467101, 69.8667177 ], [ 175.950197, 69.8668433 ], [ 175.9545958, 69.8670335 ], [ 175.959799299999986, 69.8672883 ], [ 175.964809699999989, 69.8675394 ], [ 175.9694767, 69.8678717 ], [ 175.9738165, 69.8681801 ], [ 175.9790468, 69.8685678 ], [ 175.985553900000014, 69.8690608 ], [ 175.990017099999989, 69.8694023 ], [ 175.9954458, 69.8698362 ], [ 176.002746800000011, 69.8704823 ], [ 176.0089159, 69.8710639 ], [ 176.0145593, 69.8716694 ], [ 176.018233900000013, 69.8720773 ], [ 176.019301399999989, 69.8721862 ], [ 176.019848599999989, 69.8722269 ], [ 176.020481600000011, 69.8722638 ], [ 176.020959, 69.8722915 ], [ 176.0214257, 69.8723284 ], [ 176.0274982, 69.8729412 ], [ 176.0330558, 69.8735707 ], [ 176.039289200000013, 69.8742075 ], [ 176.043441300000012, 69.8746763 ], [ 176.05046870000001, 69.8754515 ], [ 176.0606879, 69.876426 ], [ 176.063413, 69.8766475 ], [ 176.067946, 69.8770203 ], [ 176.071019799999988, 69.8772215 ], [ 176.0741365, 69.8773747 ], [ 176.075542, 69.8774042 ], [ 176.0779077, 69.8774042 ], [ 176.080219699999986, 69.8773783 ], [ 176.0825908, 69.8773156 ], [ 176.0857236, 69.8771864 ], [ 176.0887706, 69.8770646 ], [ 176.0908413, 69.8769797 ], [ 176.092364800000013, 69.8768911 ], [ 176.0932982, 69.8768653 ], [ 176.094135, 69.8768653 ], [ 176.0952079, 69.8768579 ], [ 176.0958195, 69.8768155 ], [ 176.0965598, 69.8767472 ], [ 176.0980296, 69.8766364 ], [ 176.0997248, 69.8764703 ], [ 176.101741800000013, 69.8763374 ], [ 176.1034799, 69.8762175 ], [ 176.1049122, 69.876103 ], [ 176.10589920000001, 69.8759923 ], [ 176.106757499999986, 69.8759 ], [ 176.1080825, 69.8757708 ], [ 176.1095148, 69.8756435 ], [ 176.1102927, 69.8755494 ], [ 176.11122610000001, 69.8753722 ], [ 176.1133504, 69.8749329 ], [ 176.1144179, 69.8746856 ], [ 176.1155283, 69.8744511 ], [ 176.117309299999988, 69.8741632 ], [ 176.1193371, 69.8738143 ], [ 176.1231244, 69.8731424 ], [ 176.124545899999987, 69.8728471 ], [ 176.1254257, 69.8726459 ], [ 176.126423499999987, 69.8724022 ], [ 176.1292344, 69.8716749 ], [ 176.1300391, 69.8714645 ], [ 176.1307311, 69.8712485 ], [ 176.131407, 69.8710177 ], [ 176.1325282, 69.8706688 ], [ 176.1341804, 69.8700928 ], [ 176.1357844, 69.8694762 ], [ 176.1370236, 69.8689906 ], [ 176.1380053, 69.8685494 ], [ 176.139738, 69.8677924 ], [ 176.1410093, 69.8672495 ], [ 176.142441600000012, 69.8666033 ], [ 176.143428699999987, 69.8661564 ], [ 176.1442065, 69.8657853 ], [ 176.14523650000001, 69.8652941 ], [ 176.1465025, 69.8646404 ], [ 176.1477899, 69.8639903 ], [ 176.148626799999988, 69.8635471 ], [ 176.149957199999989, 69.8628454 ], [ 176.1513948, 69.8620438 ], [ 176.153444, 69.8609652 ], [ 176.1563408, 69.8593546 ], [ 176.158186199999989, 69.8582722 ], [ 176.1598813, 69.8573486 ], [ 176.161973499999988, 69.8561441 ], [ 176.1640763, 69.8549192 ], [ 176.1651707, 69.8543243 ], [ 176.167048200000011, 69.8533137 ], [ 176.168952600000011, 69.8523049 ], [ 176.1700362, 69.8517136 ], [ 176.1711895, 69.8511204 ], [ 176.173346, 69.8499286 ], [ 176.174553, 69.849267 ], [ 176.1757225, 69.8486276 ], [ 176.1767578, 69.8480676 ], [ 176.177830699999987, 69.8474651 ], [ 176.1794186, 69.8465558 ], [ 176.1821651, 69.8450143 ], [ 176.184439700000013, 69.8437056 ], [ 176.1857915, 69.8429071 ], [ 176.1881143, 69.8416519 ], [ 176.1891818, 69.8410085 ], [ 176.1906195, 69.8401526 ], [ 176.1941814, 69.8380319 ], [ 176.196874400000013, 69.8364343 ], [ 176.1988485, 69.8353433 ], [ 176.201734499999986, 69.8338861 ], [ 176.204030499999988, 69.8327246 ], [ 176.206830700000012, 69.8313079 ], [ 176.2080109, 69.8306901 ], [ 176.209566599999988, 69.8298541 ], [ 176.211347600000011, 69.828796 ], [ 176.2129462, 69.8277416 ], [ 176.214695, 69.8268315 ], [ 176.2165081, 69.825888 ], [ 176.2181926, 69.8250221 ], [ 176.220359800000011, 69.8239601 ], [ 176.2231386, 69.8226242 ], [ 176.2265932, 69.8209292 ], [ 176.2293398, 69.8197005 ], [ 176.23155, 69.8186308 ], [ 176.2395859, 69.8145885 ], [ 176.242010599999986, 69.8135297 ], [ 176.245079, 69.8122857 ], [ 176.2474394, 69.811323 ], [ 176.2566876, 69.8073275 ], [ 176.264004699999987, 69.8042942 ], [ 176.2663436, 69.8032942 ], [ 176.2681675, 69.8025311 ], [ 176.2700343, 69.8018125 ], [ 176.2736606, 69.8003381 ], [ 176.276235500000013, 69.7992786 ], [ 176.2801837, 69.7976188 ], [ 176.2869, 69.7945211 ], [ 176.289839699999987, 69.7931722 ], [ 176.2933802, 69.7914082 ], [ 176.2946892, 69.790741 ], [ 176.2962008, 69.7900021 ], [ 176.2978434, 69.7891992 ], [ 176.3007402, 69.7879241 ], [ 176.3033151, 69.7868194 ], [ 176.305139, 69.7860113 ], [ 176.311833799999988, 69.7830825 ], [ 176.317048, 69.7805537 ], [ 176.3271331, 69.7758662 ], [ 176.3384628, 69.7706731 ], [ 176.3552856, 69.7637718 ], [ 176.3590192, 69.7623467 ], [ 176.3623237, 69.7611739 ], [ 176.3669371, 69.7597932 ], [ 176.3679885, 69.7595705 ], [ 176.370241600000014, 69.7590211 ], [ 176.3743508, 69.7582231 ], [ 176.3754558, 69.758082 ], [ 176.376764799999989, 69.7579373 ], [ 176.3781702, 69.757811 ], [ 176.3796562, 69.757696 ], [ 176.380927500000013, 69.7575141 ], [ 176.382880199999988, 69.7571169 ], [ 176.3842857, 69.7567976 ], [ 176.385895, 69.7563559 ], [ 176.387085899999988, 69.7559401 ], [ 176.3880086, 69.7556134 ], [ 176.389178, 69.7550045 ], [ 176.3901651, 69.7544959 ], [ 176.3909376, 69.7540764 ], [ 176.3916135, 69.7537497 ], [ 176.3921499, 69.753512 ], [ 176.392858, 69.7531853 ], [ 176.3935339, 69.7528623 ], [ 176.394639, 69.7522756 ], [ 176.3967204, 69.7513659 ], [ 176.3978684, 69.7507867 ], [ 176.399048599999986, 69.7502816 ], [ 176.3998425, 69.7499252 ], [ 176.4004648, 69.7496058 ], [ 176.403908699999988, 69.7479904 ], [ 176.4078677, 69.7461742 ], [ 176.4135325, 69.7436485 ], [ 176.4148736, 69.7430616 ], [ 176.416997900000013, 69.7421552 ], [ 176.4188862, 69.7413416 ], [ 176.4194333, 69.741167 ], [ 176.4217186, 69.7404835 ], [ 176.4240145, 69.7396141 ], [ 176.4266002, 69.7384995 ], [ 176.428595800000011, 69.7376598 ], [ 176.4291644, 69.7374331 ], [ 176.4300227, 69.7372325 ], [ 176.4310956, 69.7370096 ], [ 176.431524700000011, 69.7369129 ], [ 176.4322328, 69.7367643 ], [ 176.433219900000012, 69.7365228 ], [ 176.434990199999987, 69.7359468 ], [ 176.4370501, 69.7352854 ], [ 176.4380157, 69.7350624 ], [ 176.4386165, 69.7349287 ], [ 176.4392334, 69.7348153 ], [ 176.439592800000014, 69.7347466 ], [ 176.4400595, 69.7346276 ], [ 176.440504800000014, 69.7344586 ], [ 176.440971499999989, 69.734269 ], [ 176.4420819, 69.7337952 ], [ 176.443197700000013, 69.7334162 ], [ 176.4440668, 69.733182 ], [ 176.445150399999989, 69.732881 ], [ 176.4484548, 69.7321749 ], [ 176.449935399999987, 69.7318924 ], [ 176.451609100000013, 69.7315876 ], [ 176.4532399, 69.7313275 ], [ 176.4545703, 69.7311565 ], [ 176.459763, 69.7306064 ], [ 176.4617371, 69.73048 ], [ 176.464118899999988, 69.7304131 ], [ 176.465621, 69.7303499 ], [ 176.466704600000014, 69.7303276 ], [ 176.469005900000013, 69.7303741 ], [ 176.469783799999988, 69.7303945 ], [ 176.4705133, 69.7303685 ], [ 176.4723801, 69.7301604 ], [ 176.475276900000011, 69.7298184 ], [ 176.4797187, 69.7292386 ], [ 176.4844823, 69.7285472 ], [ 176.487025, 69.7281494 ], [ 176.487754599999988, 69.7280472 ], [ 176.4881583, 69.7279924 ], [ 176.4882924, 69.7279896 ], [ 176.4883769, 69.727997 ], [ 176.4884935, 69.7280282 ], [ 176.4885794, 69.728044 ], [ 176.4887094, 69.7280481 ], [ 176.4889777, 69.7280263 ], [ 176.4896965, 69.7279375 ], [ 176.4902812, 69.7278855 ], [ 176.4916599, 69.727774 ], [ 176.492646900000011, 69.7277034 ], [ 176.493086799999986, 69.7276587 ], [ 176.4934838, 69.7275621 ], [ 176.4938271, 69.7274246 ], [ 176.493998800000014, 69.7272684 ], [ 176.4941919, 69.7271922 ], [ 176.4946854, 69.7270565 ], [ 176.4953399, 69.726919 ], [ 176.497094, 69.7266011 ], [ 176.498832099999987, 69.7262108 ], [ 176.4996368, 69.7261253 ], [ 176.5000498, 69.7260955 ], [ 176.5013319, 69.7259822 ], [ 176.5021205, 69.7258799 ], [ 176.5024531, 69.7258223 ], [ 176.503145100000012, 69.725681 ], [ 176.5038961, 69.7254617 ], [ 176.504851, 69.725088 ], [ 176.5060043, 69.7246252 ], [ 176.506669499999987, 69.7243947 ], [ 176.5075171, 69.7241902 ], [ 176.508579200000014, 69.7239485 ], [ 176.5095878, 69.7237477 ], [ 176.5104139, 69.7235321 ], [ 176.510869899999989, 69.7234187 ], [ 176.5111756, 69.7232607 ], [ 176.5114707, 69.723164 ], [ 176.511932, 69.723045 ], [ 176.5124738, 69.7229111 ], [ 176.5129244, 69.722794 ], [ 176.513305300000013, 69.7226899 ], [ 176.5137345, 69.7225895 ], [ 176.5143621, 69.722491 ], [ 176.5164167, 69.7221396 ], [ 176.5169531, 69.7220336 ], [ 176.517403699999988, 69.7218756 ], [ 176.51764510000001, 69.7217919 ], [ 176.518954, 69.7212993 ], [ 176.5203702, 69.7208233 ], [ 176.5208048, 69.7206745 ], [ 176.5214753, 69.7205072 ], [ 176.5228003, 69.7201818 ], [ 176.5233421, 69.7200368 ], [ 176.5261209, 69.7192354 ], [ 176.5297043, 69.718196 ], [ 176.534854200000012, 69.7168645 ], [ 176.5365064, 69.7163029 ], [ 176.5398753, 69.7150718 ], [ 176.5419459, 69.7144022 ], [ 176.544445700000011, 69.7136397 ], [ 176.5466022, 69.7129292 ], [ 176.5475786, 69.7125795 ], [ 176.548512, 69.7122707 ], [ 176.5488231, 69.7121889 ], [ 176.5491503, 69.7121331 ], [ 176.5496331, 69.7120587 ], [ 176.5500623, 69.7119824 ], [ 176.5507758, 69.7118336 ], [ 176.551044, 69.7117406 ], [ 176.5514195, 69.711629 ], [ 176.551559, 69.7115779 ], [ 176.5519828, 69.7114765 ], [ 176.5521544, 69.7114328 ], [ 176.552259, 69.7113844 ], [ 176.5525031, 69.7112179 ], [ 176.552588899999989, 69.7111863 ], [ 176.5527338, 69.7111528 ], [ 176.553243400000014, 69.7110654 ], [ 176.55355990000001, 69.7110077 ], [ 176.5541124, 69.7108682 ], [ 176.5546113, 69.7106971 ], [ 176.5549976, 69.7105259 ], [ 176.555383799999987, 69.7103753 ], [ 176.5559685, 69.7102544 ], [ 176.5567088, 69.7101018 ], [ 176.5570468, 69.710007 ], [ 176.5573096, 69.7099214 ], [ 176.558210800000012, 69.7094507 ], [ 176.5586078, 69.7093317 ], [ 176.559358800000012, 69.7092163 ], [ 176.559825499999988, 69.7091215 ], [ 176.561805, 69.7084164 ], [ 176.562963700000012, 69.708089 ], [ 176.563929300000012, 69.7078322 ], [ 176.564616, 69.7076908 ], [ 176.565495700000014, 69.7075197 ], [ 176.566042900000014, 69.7074229 ], [ 176.5666759, 69.7072667 ], [ 176.5671372, 69.7071178 ], [ 176.5676039, 69.7070322 ], [ 176.5680331, 69.7069987 ], [ 176.5687895, 69.7069243 ], [ 176.5693152, 69.7068294 ], [ 176.5701359, 69.7066694 ], [ 176.57346720000001, 69.7057336 ], [ 176.5765786, 69.7049819 ], [ 176.5820074, 69.7038915 ], [ 176.5855908, 69.7032402 ], [ 176.5881872, 69.7027564 ], [ 176.5917277, 69.7021758 ], [ 176.5948498, 69.7016399 ], [ 176.596148, 69.7014612 ], [ 176.5976071, 69.70129 ], [ 176.5985191, 69.7011746 ], [ 176.5995383, 69.7010332 ], [ 176.600815, 69.7008582 ], [ 176.6027033, 69.7005642 ], [ 176.603293400000013, 69.7005009 ], [ 176.6035563, 69.7004953 ], [ 176.604178499999989, 69.7005177 ], [ 176.6044253, 69.7005121 ], [ 176.604715, 69.7004693 ], [ 176.605251399999986, 69.7003595 ], [ 176.6057342, 69.7002757 ], [ 176.6062224, 69.7002459 ], [ 176.606946599999986, 69.7001678 ], [ 176.607499100000013, 69.7000989 ], [ 176.6085827, 69.6999705 ], [ 176.6094732, 69.6999035 ], [ 176.6102242, 69.69987 ], [ 176.610841099999988, 69.69987 ], [ 176.612198299999989, 69.6998979 ], [ 176.6146874, 69.6999184 ], [ 176.616194799999988, 69.6999314 ], [ 176.616876100000013, 69.6999649 ], [ 176.6174287, 69.7000301 ], [ 176.61834060000001, 69.7001622 ], [ 176.6188824, 69.7003316 ], [ 176.6195691, 69.7006814 ], [ 176.6201055, 69.7009662 ], [ 176.6202772, 69.7010294 ], [ 176.6208029, 69.7011783 ], [ 176.621264200000013, 69.7012435 ], [ 176.62157, 69.7012435 ], [ 176.6217524, 69.7012286 ], [ 176.6221654, 69.7011299 ], [ 176.6243917, 69.700259 ], [ 176.624944199999987, 69.7000431 ], [ 176.625427, 69.699883 ], [ 176.6266125, 69.6994773 ], [ 176.626955900000013, 69.6993749 ], [ 176.6276425, 69.6992447 ], [ 176.6287905, 69.6990771 ], [ 176.629225, 69.6990409 ], [ 176.629345699999988, 69.6990139 ], [ 176.6295361, 69.698958 ], [ 176.62962730000001, 69.6988947 ], [ 176.6296917, 69.6987719 ], [ 176.630040400000013, 69.6985504 ], [ 176.630662699999988, 69.6983196 ], [ 176.63207890000001, 69.6978878 ], [ 176.634922, 69.6972103 ], [ 176.636467, 69.6967524 ], [ 176.6377008, 69.6964508 ], [ 176.639235, 69.6961419 ], [ 176.6425288, 69.6953377 ], [ 176.6605424, 69.6909106 ], [ 176.6706705, 69.6886166 ], [ 176.689639, 69.6844301 ], [ 176.6995096, 69.6824707 ], [ 176.7047882, 69.6814052 ], [ 176.7282629, 69.6763231 ], [ 176.736695700000013, 69.6743555 ], [ 176.738390900000013, 69.6739977 ], [ 176.740601, 69.6736697 ], [ 176.7432833, 69.673379 ], [ 176.7449784, 69.6731554 ], [ 176.747789399999988, 69.6726187 ], [ 176.758883, 69.6704942 ], [ 176.7656207, 69.6692865 ], [ 176.770749099999989, 69.6682055 ], [ 176.776263699999987, 69.6668411 ], [ 176.7769299, 69.6666925 ], [ 176.7777013, 69.6665204 ], [ 176.7827868, 69.6653796 ], [ 176.7868852, 69.664619 ], [ 176.796112, 69.6629561 ], [ 176.80387970000001, 69.6617256 ], [ 176.80727, 69.661293 ], [ 176.8113899, 69.6605174 ], [ 176.8193292, 69.6588317 ], [ 176.8233203, 69.658056 ], [ 176.832633, 69.6563851 ], [ 176.8422889, 69.6543112 ], [ 176.8472242, 69.6532518 ], [ 176.8511081, 69.6523564 ], [ 176.8543267, 69.6516252 ], [ 176.8571806, 69.650894 ], [ 176.8604421, 69.6501254 ], [ 176.8641543, 69.6492598 ], [ 176.8689823, 69.6483046 ], [ 176.87572, 69.6469986 ], [ 176.8814063, 69.6459314 ], [ 176.8888521, 69.6445954 ], [ 176.8927789, 69.6439236 ], [ 176.898014499999988, 69.6429906 ], [ 176.9020271, 69.6424308 ], [ 176.90760610000001, 69.641632 ], [ 176.9134211, 69.6407661 ], [ 176.9173908, 69.6398553 ], [ 176.918914300000012, 69.6395417 ], [ 176.9196224, 69.6394895 ], [ 176.9205451, 69.6394522 ], [ 176.9218755, 69.6396388 ], [ 176.9230556, 69.639706 ], [ 176.9247722, 69.6395716 ], [ 176.937561, 69.6374662 ], [ 176.961336100000011, 69.6336505 ], [ 176.975176299999987, 69.6317686 ], [ 176.9877505, 69.630118 ], [ 176.9897139, 69.6298603 ], [ 176.991323200000011, 69.6296848 ], [ 176.9930613, 69.6294383 ], [ 176.9945955, 69.6292254 ], [ 176.99662330000001, 69.6289976 ], [ 176.99858660000001, 69.6287885 ], [ 177.0002711, 69.6285644 ], [ 177.002395400000012, 69.6282992 ], [ 177.00485230000001, 69.6279818 ], [ 177.007802700000013, 69.6275149 ], [ 177.0103454, 69.627175 ], [ 177.0112038, 69.627048 ], [ 177.0120889, 69.6269266 ], [ 177.0125878, 69.6269024 ], [ 177.012866699999989, 69.6268949 ], [ 177.0134032, 69.6269304 ], [ 177.0140094, 69.6269658 ], [ 177.014856900000012, 69.6270704 ], [ 177.0158333, 69.6271582 ], [ 177.0173031, 69.62719 ], [ 177.0182151, 69.6271395 ], [ 177.0193309, 69.6269995 ], [ 177.0207953, 69.6267119 ], [ 177.0252371, 69.6257183 ], [ 177.031073600000013, 69.6245417 ], [ 177.0319533, 69.6244296 ], [ 177.0330691, 69.6243512 ], [ 177.0338523, 69.6242765 ], [ 177.034732100000014, 69.6241457 ], [ 177.035359699999987, 69.6240971 ], [ 177.0361268, 69.6240112 ], [ 177.0488755, 69.6229557 ], [ 177.0582626, 69.621823 ], [ 177.061869800000011, 69.6213118 ], [ 177.0680375, 69.6202684 ], [ 177.0720398, 69.6195715 ], [ 177.0771646, 69.618665 ], [ 177.0826614, 69.6176951 ], [ 177.0899963, 69.6165127 ], [ 177.0984077, 69.6152271 ], [ 177.10784910000001, 69.6134482 ], [ 177.1172046, 69.6112505 ], [ 177.1205091, 69.6108318 ], [ 177.1221828, 69.6110561 ], [ 177.124114, 69.6106973 ], [ 177.129006299999986, 69.6103534 ], [ 177.1314954, 69.6096955 ], [ 177.1344995, 69.6092768 ], [ 177.1412372, 69.6080058 ], [ 177.1445417, 69.6077516 ], [ 177.1460866, 69.6074825 ], [ 177.146983299999988, 69.6073436 ], [ 177.1581888, 69.6063459 ], [ 177.171320900000012, 69.6048803 ], [ 177.1850967, 69.6034296 ], [ 177.195224700000011, 69.6026967 ], [ 177.1997308, 69.6024873 ], [ 177.205739, 69.6023078 ], [ 177.221188500000011, 69.601874 ], [ 177.2320032, 69.6016197 ], [ 177.2368097, 69.6017693 ], [ 177.2482604, 69.6020249 ], [ 177.2656917, 69.6023228 ], [ 177.2808408, 69.6025322 ], [ 177.3071909, 69.602951 ], [ 177.327103599999987, 69.6028014 ], [ 177.342998200000011, 69.6020052 ], [ 177.351345400000014, 69.6014753 ], [ 177.356286, 69.6012907 ], [ 177.3600285, 69.6006788 ], [ 177.362540599999988, 69.6003575 ], [ 177.3682911, 69.6001922 ], [ 177.374061, 69.5998812 ], [ 177.3828856, 69.5994141 ], [ 177.4005132, 69.5994252 ], [ 177.405209500000012, 69.5993535 ], [ 177.4065606, 69.5993265 ], [ 177.4100804, 69.5992562 ], [ 177.4109589, 69.5991794 ], [ 177.411503900000014, 69.5991317 ], [ 177.4120187, 69.5990866 ], [ 177.4125393, 69.5990411 ], [ 177.415398, 69.5988464 ], [ 177.419548099999986, 69.598156 ], [ 177.4278361, 69.5970628 ], [ 177.443004, 69.5949426 ], [ 177.4470095, 69.5939621 ], [ 177.451472200000012, 69.5932416 ], [ 177.4554736, 69.5929954 ], [ 177.461816, 69.5926795 ], [ 177.4666905, 69.5925211 ], [ 177.4909973, 69.5890364 ], [ 177.498207, 69.5880486 ], [ 177.5059747, 69.5868062 ], [ 177.5121545, 69.5856836 ], [ 177.518677700000012, 69.5846357 ], [ 177.525157900000011, 69.5832734 ], [ 177.530221899999987, 69.581926 ], [ 177.5354147, 69.5804737 ], [ 177.545371, 69.5778682 ], [ 177.5535678, 69.5758765 ], [ 177.5598764, 69.5737049 ], [ 177.5646829, 69.572252 ], [ 177.5745964, 69.5690164 ], [ 177.581892, 69.5668141 ], [ 177.5900459, 69.5644917 ], [ 177.5956249, 69.563278 ], [ 177.59871480000001, 69.5630232 ], [ 177.603435499999989, 69.5626486 ], [ 177.6066112, 69.5623489 ], [ 177.610516499999989, 69.5617944 ], [ 177.6122331, 69.5612399 ], [ 177.61837, 69.5599511 ], [ 177.6239919, 69.5583923 ], [ 177.6282835, 69.5573132 ], [ 177.632575, 69.5562339 ], [ 177.6348066, 69.5557842 ], [ 177.644290899999987, 69.5525911 ], [ 177.652702299999987, 69.5501472 ], [ 177.663645699999989, 69.5468632 ], [ 177.6692247, 69.5450036 ], [ 177.673440699999986, 69.5437142 ], [ 177.677807800000011, 69.5421389 ], [ 177.6878929, 69.5390637 ], [ 177.697033800000014, 69.5366783 ], [ 177.707076, 69.5339775 ], [ 177.7178049, 69.5310062 ], [ 177.7195644, 69.530706 ], [ 177.7219677, 69.5300006 ], [ 177.7238988, 69.5293253 ], [ 177.7299499, 69.5274191 ], [ 177.7422354, 69.5245722 ], [ 177.745104700000013, 69.5238468 ], [ 177.7501201, 69.5223301 ], [ 177.760849, 69.5198227 ], [ 177.7715349, 69.5172549 ], [ 177.7775001, 69.5155579 ], [ 177.7819633, 69.5145967 ], [ 177.786169, 69.5134702 ], [ 177.8008031, 69.5099703 ], [ 177.807455, 69.5086784 ], [ 177.8124764, 69.507526 ], [ 177.8181507, 69.5061624 ], [ 177.8223466, 69.5056134 ], [ 177.8287736, 69.5041794 ], [ 177.8332901, 69.503089 ], [ 177.8383112, 69.502007 ], [ 177.848610799999989, 69.4999631 ], [ 177.852215699999988, 69.4989111 ], [ 177.8583955, 69.497393 ], [ 177.8667211, 69.4956493 ], [ 177.8766575, 69.4936824 ], [ 177.8855414, 69.491476 ], [ 177.8957131, 69.4892044 ], [ 177.9020834, 69.4880416 ], [ 177.9103896, 69.4864048 ], [ 177.9142713, 69.4856805 ], [ 177.919507, 69.4844774 ], [ 177.925515100000013, 69.4829282 ], [ 177.9310941, 69.4818452 ], [ 177.9347419, 69.481078 ], [ 177.9431533, 69.4791074 ], [ 177.9507064, 69.4778286 ], [ 177.954483, 69.476956 ], [ 177.9566715, 69.4766759 ], [ 177.9763233, 69.4734329 ], [ 177.9859415, 69.472162 ], [ 177.9995012, 69.4696276 ], [ 178.0036211, 69.4691159 ], [ 178.0118639, 69.468339 ], [ 178.0263325, 69.4663378 ], [ 178.0350061, 69.4650084 ], [ 178.0489375, 69.4628268 ], [ 178.0587755, 69.46121 ], [ 178.0663002, 69.4603809 ], [ 178.071341499999988, 69.4600232 ], [ 178.0829516, 69.4586216 ], [ 178.087718700000011, 69.4579192 ], [ 178.090984099999986, 69.4575656 ], [ 178.0969756, 69.4565932 ], [ 178.1075927, 69.4561648 ], [ 178.1111411, 69.4564415 ], [ 178.1139502, 69.456061 ], [ 178.117420399999986, 69.4559578 ], [ 178.1228834, 69.4561245 ], [ 178.1256879, 69.4564068 ], [ 178.128525, 69.4572706 ], [ 178.1331085, 69.4575992 ], [ 178.1416011, 69.4567139 ], [ 178.147396500000013, 69.4557159 ], [ 178.1580258, 69.4542617 ], [ 178.1639318, 69.4542757 ], [ 178.1668888, 69.4539816 ], [ 178.1703879, 69.4540681 ], [ 178.1766962, 69.45348 ], [ 178.18034320000001, 69.453013 ], [ 178.1902, 69.4522865 ], [ 178.1967401, 69.451966 ], [ 178.2015845, 69.4518886 ], [ 178.203558, 69.4519251 ], [ 178.2063961, 69.4520338 ], [ 178.2095933, 69.4521995 ], [ 178.2125254, 69.4527535 ], [ 178.219485600000013, 69.4530224 ], [ 178.2232833, 69.4532237 ], [ 178.229141199999987, 69.4535174 ], [ 178.230274, 69.4536572 ], [ 178.2324457, 69.4537735 ], [ 178.236930300000012, 69.4538638 ], [ 178.2394624, 69.4539542 ], [ 178.2408786, 69.4539693 ], [ 178.2422948, 69.4538412 ], [ 178.245384699999988, 69.4538262 ], [ 178.2478308, 69.4536078 ], [ 178.250277, 69.453668 ], [ 178.2556414, 69.45354 ], [ 178.2595575, 69.4535287 ], [ 178.2599544, 69.4536567 ], [ 178.2632875, 69.4536357 ], [ 178.2664883, 69.4536605 ], [ 178.269835699999987, 69.4537396 ], [ 178.273258199999987, 69.4538525 ], [ 178.2766853, 69.4536667 ], [ 178.2784939, 69.4535325 ], [ 178.28057530000001, 69.4534835 ], [ 178.2837939, 69.4536191 ], [ 178.28556420000001, 69.4538337 ], [ 178.287677800000012, 69.4541952 ], [ 178.2892871, 69.4543835 ], [ 178.2916796, 69.4545793 ], [ 178.29361080000001, 69.4545077 ], [ 178.2947802, 69.4545416 ], [ 178.2959175, 69.4547412 ], [ 178.2969046, 69.4549407 ], [ 178.298835700000012, 69.4551403 ], [ 178.3001533, 69.4551889 ], [ 178.3020866, 69.455208 ], [ 178.3038568, 69.4551742 ], [ 178.3058202, 69.4551967 ], [ 178.3087277, 69.4553624 ], [ 178.3112275, 69.4556071 ], [ 178.3118284, 69.4556599 ], [ 178.3127725, 69.4556636 ], [ 178.314178, 69.4558745 ], [ 178.3155298, 69.4561907 ], [ 178.316570500000012, 69.4563413 ], [ 178.3185446, 69.4565108 ], [ 178.3205187, 69.456699 ], [ 178.3257786, 69.4572864 ], [ 178.3301639, 69.4576666 ], [ 178.3346057, 69.4579527 ], [ 178.337180600000011, 69.4582539 ], [ 178.338639699999987, 69.4584007 ], [ 178.3401632, 69.4583894 ], [ 178.3426201, 69.4582802 ], [ 178.34674, 69.4580619 ], [ 178.3498084, 69.4580092 ], [ 178.353735199999988, 69.457964 ], [ 178.357887299999987, 69.4579301 ], [ 178.3635702, 69.4581518 ], [ 178.3644962, 69.4582539 ], [ 178.3654082, 69.4583969 ], [ 178.366717099999988, 69.4585738 ], [ 178.3683264, 69.458668 ], [ 178.371209099999987, 69.4589645 ], [ 178.3730793, 69.4588637 ], [ 178.3772099, 69.458619 ], [ 178.379623900000013, 69.4585174 ], [ 178.38472010000001, 69.458412 ], [ 178.3882391, 69.4583291 ], [ 178.3906424, 69.4583781 ], [ 178.3919728, 69.4583969 ], [ 178.393389, 69.4582915 ], [ 178.3961892, 69.4580619 ], [ 178.402165200000013, 69.4577946 ], [ 178.4038842, 69.4576503 ], [ 178.4120893, 69.4572901 ], [ 178.4168984, 69.4571299 ], [ 178.4310121, 69.4567264 ], [ 178.438156099999986, 69.456225 ], [ 178.4457669, 69.455565 ], [ 178.4572533, 69.4542437 ], [ 178.46830030000001, 69.4529473 ], [ 178.480636800000013, 69.4514183 ], [ 178.484958, 69.4512716 ], [ 178.4905582, 69.450714 ], [ 178.495898399999987, 69.4498623 ], [ 178.4973836, 69.4496386 ], [ 178.4998727, 69.4492695 ], [ 178.5047093, 69.4484015 ], [ 178.5063821, 69.4481935 ], [ 178.507490100000012, 69.4480267 ], [ 178.5091084, 69.4477535 ], [ 178.5207939, 69.4462639 ], [ 178.5215557, 69.4462413 ], [ 178.5230362, 69.4462451 ], [ 178.5267055, 69.445665 ], [ 178.529122199999989, 69.4455503 ], [ 178.5321942, 69.4453804 ], [ 178.533453900000012, 69.4452996 ], [ 178.536554599999988, 69.4449568 ], [ 178.541711099999986, 69.4441733 ], [ 178.5487747, 69.4429602 ], [ 178.554321499999986, 69.4419242 ], [ 178.564406600000012, 69.4401835 ], [ 178.5716486, 69.4387856 ], [ 178.5739982, 69.4382769 ], [ 178.575822100000011, 69.4379265 ], [ 178.5780215, 69.4374894 ], [ 178.581723, 69.4368864 ], [ 178.588771799999989, 69.4358953 ], [ 178.5926771, 69.435428 ], [ 178.5951018, 69.4351341 ], [ 178.6007452, 69.4344406 ], [ 178.6013031, 69.4344482 ], [ 178.6058329, 69.4337683 ], [ 178.610781300000014, 69.4330562 ], [ 178.622653500000013, 69.4311313 ], [ 178.6270094, 69.4302041 ], [ 178.631159, 69.4293928 ], [ 178.637824, 69.4281005 ], [ 178.6463427, 69.4264869 ], [ 178.655569500000013, 69.4248355 ], [ 178.6600971, 69.4240135 ], [ 178.670740099999989, 69.4220075 ], [ 178.6765337, 69.4207706 ], [ 178.6934669, 69.4175037 ], [ 178.7097502, 69.4142378 ], [ 178.713526699999989, 69.4134532 ], [ 178.7168312, 69.4127741 ], [ 178.7189984, 69.412261 ], [ 178.722496, 69.41168 ], [ 178.724577399999987, 69.4113405 ], [ 178.7279892, 69.410684 ], [ 178.7314868, 69.4100727 ], [ 178.734083199999986, 69.4096426 ], [ 178.735156, 69.4093483 ], [ 178.7380099, 69.4085484 ], [ 178.7412929, 69.4077559 ], [ 178.747172299999988, 69.406971 ], [ 178.7506914, 69.406322 ], [ 178.752579700000013, 69.405854 ], [ 178.753674, 69.4055748 ], [ 178.7554979, 69.4052804 ], [ 178.7606907, 69.4046539 ], [ 178.763501600000012, 69.4040425 ], [ 178.768930399999988, 69.4026158 ], [ 178.772041800000011, 69.4018458 ], [ 178.775796899999989, 69.4007512 ], [ 178.779037, 69.3999132 ], [ 178.7842297, 69.3987883 ], [ 178.7920403, 69.3966741 ], [ 178.7958812, 69.3958662 ], [ 178.8019323, 69.3946051 ], [ 178.804957800000011, 69.3939858 ], [ 178.8075542, 69.3932533 ], [ 178.8120174, 69.3920751 ], [ 178.816545, 69.3910027 ], [ 178.821930900000012, 69.3897866 ], [ 178.8230648, 69.3894412 ], [ 178.8275098, 69.3883364 ], [ 178.8299131, 69.3877774 ], [ 178.8321018, 69.3872637 ], [ 178.8379597, 69.3855941 ], [ 178.8436031, 69.3840983 ], [ 178.8488817, 69.3830178 ], [ 178.8514137, 69.3823076 ], [ 178.8563919, 69.3812875 ], [ 178.8577008, 69.381091 ], [ 178.8597178, 69.3809853 ], [ 178.861584599999986, 69.3807963 ], [ 178.8685798, 69.379285 ], [ 178.879759299999989, 69.3763603 ], [ 178.8870334, 69.3740474 ], [ 178.8940072, 69.3719233 ], [ 178.8991255, 69.3705488 ], [ 178.90977860000001, 69.3675836 ], [ 178.913855500000011, 69.3667822 ], [ 178.9182758, 69.3656177 ], [ 178.9211297, 69.3652623 ], [ 178.9229536, 69.365043 ], [ 178.9241767, 69.3646271 ], [ 178.925528500000013, 69.3642111 ], [ 178.928082, 69.3638557 ], [ 178.9313864, 69.3631222 ], [ 178.947471400000012, 69.3590349 ], [ 178.965933299999989, 69.3532128 ], [ 178.9681649, 69.3526 ], [ 178.9738083, 69.3508975 ], [ 178.9811468, 69.3489376 ], [ 178.9874983, 69.347144 ], [ 178.993919299999988, 69.3456293 ], [ 178.999578899999989, 69.343844 ], [ 179.004364, 69.3424814 ], [ 179.007754299999988, 69.3413535 ], [ 179.008955899999989, 69.3409598 ], [ 179.0105223, 69.3406192 ], [ 179.0116381, 69.3401877 ], [ 179.0140414, 69.339582 ], [ 179.018096899999989, 69.338628 ], [ 179.020500199999987, 69.3379315 ], [ 179.0228605, 69.3375832 ], [ 179.0252208, 69.3370986 ], [ 179.030091700000014, 69.3358492 ], [ 179.0338897, 69.3349254 ], [ 179.0368509, 69.3344483 ], [ 179.0419149, 69.3330473 ], [ 179.0475583, 69.3313206 ], [ 179.052214600000013, 69.3298739 ], [ 179.0553586, 69.3290579 ], [ 179.0607762, 69.3276243 ], [ 179.0648961, 69.3265562 ], [ 179.0673423, 69.3260259 ], [ 179.071333399999986, 69.3253137 ], [ 179.0756678, 69.3240713 ], [ 179.0805387, 69.3229045 ], [ 179.0886712, 69.3206086 ], [ 179.091739600000011, 69.3197523 ], [ 179.0948081, 69.3189036 ], [ 179.096632, 69.3183277 ], [ 179.098649, 69.3178502 ], [ 179.101138099999986, 69.3173652 ], [ 179.103198, 69.3168726 ], [ 179.1074896, 69.3156069 ], [ 179.1101074, 69.3146822 ], [ 179.1134409, 69.3134666 ], [ 179.121146, 69.3110118 ], [ 179.1258359, 69.3097776 ], [ 179.131374099999988, 69.3081595 ], [ 179.13572880000001, 69.3073728 ], [ 179.1427486, 69.3052403 ], [ 179.1546501, 69.302016 ], [ 179.1659984, 69.2990606 ], [ 179.1708903, 69.2974737 ], [ 179.1741338, 69.2964042 ], [ 179.1765112, 69.2958689 ], [ 179.1809781, 69.2948654 ], [ 179.1842706, 69.2939809 ], [ 179.1862845, 69.2932902 ], [ 179.189206500000012, 69.2927674 ], [ 179.1938567, 69.2913168 ], [ 179.197483, 69.2902924 ], [ 179.203459, 69.2886875 ], [ 179.2058194, 69.2880235 ], [ 179.2072892, 69.2875833 ], [ 179.2080939, 69.2873822 ], [ 179.2093491, 69.2869913 ], [ 179.2117202, 69.2864069 ], [ 179.2133188, 69.2860313 ], [ 179.2159259, 69.2854469 ], [ 179.218522299999989, 69.2848017 ], [ 179.222888899999987, 69.2835721 ], [ 179.2265046, 69.2825397 ], [ 179.229519399999987, 69.2816478 ], [ 179.232630699999987, 69.2806723 ], [ 179.2374802, 69.2791805 ], [ 179.2405593, 69.2782391 ], [ 179.2441964, 69.2771458 ], [ 179.2485523, 69.2758018 ], [ 179.2527366, 69.2745451 ], [ 179.254657, 69.2739566 ], [ 179.2599893, 69.2724302 ], [ 179.2619741, 69.2718644 ], [ 179.2658257, 69.2707973 ], [ 179.2676926, 69.2702239 ], [ 179.269988500000011, 69.2695745 ], [ 179.2742586, 69.2683022 ], [ 179.2759752, 69.2677743 ], [ 179.2787754, 69.2670602 ], [ 179.2835069, 69.2657385 ], [ 179.287433600000014, 69.2645571 ], [ 179.2907274, 69.2636265 ], [ 179.294096200000013, 69.2627527 ], [ 179.296188300000011, 69.2623272 ], [ 179.297540199999986, 69.261917 ], [ 179.2995679, 69.2614877 ], [ 179.303602, 69.2602681 ], [ 179.3079471, 69.2592005 ], [ 179.3118417, 69.2581898 ], [ 179.313633399999986, 69.2575476 ], [ 179.317184700000013, 69.2565558 ], [ 179.3190837, 69.2560238 ], [ 179.32155130000001, 69.2551536 ], [ 179.3251455, 69.2540401 ], [ 179.3271106, 69.2534822 ], [ 179.329269399999987, 69.2527554 ], [ 179.331808099999989, 69.2519232 ], [ 179.335302899999988, 69.2508727 ], [ 179.338299, 69.2500189 ], [ 179.3405199, 69.2494981 ], [ 179.343245, 69.2486238 ], [ 179.3456268, 69.2479092 ], [ 179.349521399999986, 69.2468485 ], [ 179.352235799999988, 69.2460121 ], [ 179.3563342, 69.2446776 ], [ 179.3591452, 69.2437955 ], [ 179.360024900000013, 69.2434419 ], [ 179.3612587, 69.2430959 ], [ 179.362921699999987, 69.2424571 ], [ 179.3642843, 69.2419666 ], [ 179.3663013, 69.2413088 ], [ 179.3685329, 69.2405216 ], [ 179.3723631, 69.2391601 ], [ 179.3749809, 69.2383615 ], [ 179.3760431, 69.2379812 ], [ 179.3776953, 69.2373574 ], [ 179.3784463, 69.2370836 ], [ 179.3804848, 69.2364827 ], [ 179.3809891, 69.2362659 ], [ 179.3811929, 69.2361023 ], [ 179.3818474, 69.235817 ], [ 179.3829417, 69.2354519 ], [ 179.3857849, 69.2346987 ], [ 179.3892074, 69.2334891 ], [ 179.390033499999987, 69.2332342 ], [ 179.391760799999986, 69.232812 ], [ 179.3924796, 69.2325609 ], [ 179.395730500000013, 69.2320207 ], [ 179.3984771, 69.2315414 ], [ 179.3991852, 69.2312903 ], [ 179.3991208, 69.2309631 ], [ 179.3996358, 69.2306511 ], [ 179.3997431, 69.2304152 ], [ 179.4010293, 69.2299898 ], [ 179.4022965, 69.2295706 ], [ 179.4035625, 69.2293728 ], [ 179.4055152, 69.2289466 ], [ 179.40942050000001, 69.2275845 ], [ 179.41252990000001, 69.2268342 ], [ 179.4141841, 69.2258949 ], [ 179.4182396, 69.2241292 ], [ 179.4202995, 69.2231778 ], [ 179.421329500000013, 69.2226145 ], [ 179.4225955, 69.2221045 ], [ 179.42454810000001, 69.2212291 ], [ 179.4266295, 69.2202927 ], [ 179.428045700000013, 69.2196685 ], [ 179.428775300000012, 69.2192269 ], [ 179.429976900000014, 69.2187093 ], [ 179.4313502, 69.2181078 ], [ 179.432616200000012, 69.2174759 ], [ 179.4341182, 69.2168363 ], [ 179.441499, 69.2137759 ], [ 179.4483247, 69.2104171 ], [ 179.453542700000014, 69.2085957 ], [ 179.46025130000001, 69.2054438 ], [ 179.4624531, 69.2046322 ], [ 179.466466200000013, 69.2029284 ], [ 179.4688414, 69.2021529 ], [ 179.4706708, 69.2009338 ], [ 179.473588400000011, 69.2001287 ], [ 179.4745331, 69.1995932 ], [ 179.4774256, 69.1985359 ], [ 179.482390400000014, 69.1964175 ], [ 179.48622850000001, 69.1949219 ], [ 179.4892819, 69.1937603 ], [ 179.4954084, 69.1915988 ], [ 179.498038799999989, 69.1903037 ], [ 179.5019191, 69.1890724 ], [ 179.505785300000014, 69.1871268 ], [ 179.5085398, 69.1860637 ], [ 179.5133595, 69.184203 ], [ 179.5161722, 69.1834906 ], [ 179.5195335, 69.1817745 ], [ 179.523979200000014, 69.1802312 ], [ 179.526528, 69.1792615 ], [ 179.5298302, 69.1777969 ], [ 179.533128299999987, 69.1766071 ], [ 179.534694, 69.1759613 ], [ 179.5363798, 69.1751886 ], [ 179.539362399999987, 69.1741507 ], [ 179.5401675, 69.1735785 ], [ 179.5430598, 69.1724334 ], [ 179.5452156, 69.1715356 ], [ 179.547732200000013, 69.1706532 ], [ 179.5504827, 69.1695893 ], [ 179.5541637, 69.167668 ], [ 179.556908099999987, 69.1664534 ], [ 179.562821500000013, 69.1634729 ], [ 179.568860300000011, 69.1608753 ], [ 179.570951400000013, 69.1603325 ], [ 179.5738021, 69.1590021 ], [ 179.5756156, 69.1578836 ], [ 179.577760500000011, 69.1571612 ], [ 179.5805076, 69.1560968 ], [ 179.581558699999988, 69.1551362 ], [ 179.5842532, 69.1536301 ], [ 179.590629400000012, 69.151173 ], [ 179.592028699999986, 69.1502964 ], [ 179.594016900000014, 69.1493475 ], [ 179.5974151, 69.1480141 ], [ 179.6002647, 69.1471027 ], [ 179.601886799999988, 69.1458215 ], [ 179.6049721, 69.1446356 ], [ 179.606269700000013, 69.1439977 ], [ 179.611222199999986, 69.1416428 ], [ 179.6124619, 69.1410346 ], [ 179.6173643, 69.1390435 ], [ 179.6192895, 69.138117 ], [ 179.6199446, 69.1375954 ], [ 179.6212754, 69.1368598 ], [ 179.6226565, 69.136275 ], [ 179.6233114, 69.1357536 ], [ 179.6267393, 69.1344223 ], [ 179.6280797, 69.1336343 ], [ 179.628734400000013, 69.1331129 ], [ 179.63284680000001, 69.1315151 ], [ 179.6335013, 69.1309934 ], [ 179.635557299999988, 69.1301945 ], [ 179.6368971, 69.1294066 ], [ 179.6416934, 69.1275425 ], [ 179.642347699999988, 69.1270208 ], [ 179.6444339, 69.1264771 ], [ 179.646458, 69.1254227 ], [ 179.6477969, 69.1246347 ], [ 179.6511906, 69.1230477 ], [ 179.664853599999986, 69.1174644 ], [ 179.665507, 69.1169428 ], [ 179.67707870000001, 69.1119025 ], [ 179.67773170000001, 69.1113809 ], [ 179.6797842, 69.1105814 ], [ 179.681805200000014, 69.1095266 ], [ 179.685225300000013, 69.1081942 ], [ 179.686562, 69.1074058 ], [ 179.6874865, 69.106673 ], [ 179.6967814, 69.1026274 ], [ 179.703083, 69.1001266 ], [ 179.7080455, 69.0979909 ], [ 179.7125354, 69.0957987 ], [ 179.718364400000013, 69.093241 ], [ 179.7222242, 69.09147 ], [ 179.7251387, 69.0902612 ], [ 179.7289984, 69.0885463 ], [ 179.7368416, 69.0853796 ], [ 179.742205, 69.0833501 ], [ 179.7440239, 69.0825152 ], [ 179.7517919, 69.0790008 ], [ 179.7566655, 69.0770058 ], [ 179.7578996, 69.0763446 ], [ 179.761277799999988, 69.0747553 ], [ 179.7667012, 69.0723656 ], [ 179.7741687, 69.0691751 ], [ 179.7796218, 69.0670404 ], [ 179.7814878, 69.0661817 ], [ 179.7870531, 69.0635939 ], [ 179.792503399999987, 69.0614588 ], [ 179.7965254, 69.0593466 ], [ 179.8019739, 69.057211 ], [ 179.806026800000012, 69.0553539 ], [ 179.810111799999987, 69.0537522 ], [ 179.8142322, 69.0520548 ], [ 179.8262408, 69.0472115 ], [ 179.8273702, 69.0465906 ], [ 179.8311751, 69.0452188 ], [ 179.8338631, 69.0438952 ], [ 179.8352233, 69.0433611 ], [ 179.838624, 69.0420256 ], [ 179.842358600000011, 69.0407522 ], [ 179.8447869, 69.0396179 ], [ 179.8508957, 69.0374726 ], [ 179.857013099999989, 69.0350682 ], [ 179.8596982, 69.0337442 ], [ 179.873205399999989, 69.0280924 ], [ 179.887020299999989, 69.0226066 ], [ 179.8904458, 69.0210719 ], [ 179.900985100000014, 69.0169958 ], [ 179.908003900000011, 69.0140505 ], [ 179.911632200000014, 69.0124555 ], [ 179.919002799999987, 69.0096327 ], [ 179.9220459, 69.0083863 ], [ 179.9247579, 69.0073166 ], [ 179.927179, 69.0059422 ], [ 179.9315025, 69.0043869 ], [ 179.9333981, 69.0034981 ], [ 179.9369939, 69.0018105 ], [ 179.9422214, 68.9997381 ], [ 179.9463413, 68.9979915 ], [ 179.9504634, 68.9963077 ], [ 179.9525076, 68.9955799 ], [ 179.957212, 68.993966 ], [ 179.959717, 68.9928731 ], [ 179.9622202, 68.9916506 ], [ 179.967264199999988, 68.9895281 ], [ 179.969968099999988, 68.9886298 ], [ 179.9738922, 68.9871643 ], [ 179.976135699999986, 68.9861937 ], [ 179.9788589, 68.9851166 ], [ 179.9804631, 68.9845584 ], [ 179.982076400000011, 68.9839451 ], [ 179.982773900000012, 68.9835263 ], [ 179.9841059, 68.9830139 ], [ 179.984829, 68.9827234 ], [ 179.9864375, 68.9821892 ], [ 179.9873395, 68.9818071 ], [ 179.9893476, 68.9812194 ], [ 179.990609799999987, 68.9805629 ], [ 179.9916905, 68.9800616 ], [ 179.9929593, 68.9798167 ], [ 179.9943582, 68.9792676 ], [ 179.995817499999987, 68.9789658 ], [ 179.997025900000011, 68.9786387 ], [ 179.9980204, 68.9779576 ], [ 179.9987432, 68.9776854 ], [ 180.0, 68.9770235 ], [ 180.0, 68.9755272 ], [ 180.0, 68.9699645 ], [ 180.0, 68.9588655 ], [ 180.0, 68.9299148 ], [ 180.0, 68.925129 ], [ 180.0, 68.9111245 ], [ 180.0, 68.748547 ], [ 180.0, 68.6701608 ], [ 180.0, 68.5515438 ], [ 180.0, 68.5133812 ], [ 180.0, 68.3562908 ], [ 180.0, 68.0813401 ], [ 180.0, 68.0656473 ], [ 180.0, 68.0540261 ], [ 180.0, 67.9398216 ], [ 180.0, 67.9305549 ], [ 180.0, 67.9287046 ], [ 180.0, 67.9263985 ], [ 180.0, 67.7629958 ], [ 180.0, 67.7611686 ], [ 180.0, 67.7350896 ], [ 180.0, 67.7252674 ], [ 180.0, 67.7249028 ], [ 180.0, 67.5528469 ], [ 180.0, 67.387575 ], [ 180.0, 67.1683923 ], [ 180.0, 67.0323046 ], [ 180.0, 67.0311606 ], [ 180.0, 67.0033375 ], [ 180.0, 67.0023677 ], [ 180.0, 66.9294937 ], [ 180.0, 66.9125942 ], [ 180.0, 66.8914147 ], [ 180.0, 66.8802082 ], [ 180.0, 66.877573 ], [ 180.0, 66.8575469 ], [ 180.0, 66.8568477 ], [ 180.0, 66.6406653 ], [ 180.0, 66.5798497 ], [ 180.0, 66.4630083 ], [ 180.0, 66.4616876 ], [ 180.0, 66.4025317 ], [ 180.0, 66.3434767 ], [ 180.0, 66.3267974 ], [ 180.0, 66.2269729 ], [ 180.0, 66.1735357 ], [ 180.0, 66.126226 ], [ 180.0, 66.0618232 ], [ 180.0, 66.0030325 ], [ 180.0, 65.9351907 ], [ 180.0, 65.86605 ], [ 180.0, 65.8637902 ], [ 180.0, 65.8506736 ], [ 180.0, 65.8274283 ], [ 180.0, 65.8038098 ], [ 180.0, 65.7913491 ], [ 180.0, 65.7053413 ], [ 180.0, 65.6517289 ], [ 180.0, 65.6470132 ], [ 180.0, 65.6442834 ], [ 180.0, 65.6429338 ], [ 180.0, 65.5634201 ], [ 180.0, 65.5283912 ], [ 180.0, 65.5267534 ], [ 180.0, 65.5107257 ], [ 180.0, 65.5102631 ], [ 180.0, 65.479963 ], [ 180.0, 65.4530428 ], [ 180.0, 65.4494182 ], [ 180.0, 65.4479795 ], [ 180.0, 65.4475336 ], [ 180.0, 65.4464912 ], [ 180.0, 65.4461807 ], [ 180.0, 65.4139016 ], [ 180.0, 65.4137464 ], [ 180.0, 65.4132606 ], [ 180.0, 65.4124839 ], [ 180.0, 65.3862578 ], [ 180.0, 65.3831206 ], [ 180.0, 65.3605107 ], [ 180.0, 65.3315675 ], [ 180.0, 65.330343 ], [ 180.0, 65.3301723 ], [ 180.0, 65.3241385 ], [ 180.0, 65.3120844 ], [ 180.0, 65.3005757 ], [ 180.0, 65.3000272 ], [ 180.0, 65.2758833 ], [ 180.0, 65.2724638 ], [ 180.0, 65.2657714 ], [ 180.0, 65.2635089 ], [ 180.0, 65.1494245 ], [ 180.0, 65.1480628 ], [ 180.0, 65.0388028 ], [ 179.998455, 65.0384564 ], [ 179.9976504, 65.0382798 ], [ 179.9959445, 65.0378316 ], [ 179.9944532, 65.0372747 ], [ 179.9941206, 65.0370347 ], [ 179.9934232, 65.0368445 ], [ 179.992758, 65.0366226 ], [ 179.992253799999986, 65.0364687 ], [ 179.992049900000012, 65.0363872 ], [ 179.991771, 65.0362468 ], [ 179.991771, 65.0361698 ], [ 179.991524199999986, 65.0360476 ], [ 179.9914276, 65.0359163 ], [ 179.991266700000011, 65.0358665 ], [ 179.9908805, 65.0358665 ], [ 179.9906123, 65.03588 ], [ 179.9904406, 65.0358529 ], [ 179.9901616, 65.035631 ], [ 179.9887454, 65.0347933 ], [ 179.9880373, 65.0343676 ], [ 179.987554499999987, 65.0341367 ], [ 179.9871254, 65.0340008 ], [ 179.986878600000011, 65.0340099 ], [ 179.986610399999989, 65.0340778 ], [ 179.9861598, 65.0339782 ], [ 179.9853444, 65.0336793 ], [ 179.9841642, 65.0331359 ], [ 179.9839926, 65.0329457 ], [ 179.983713599999987, 65.0328641 ], [ 179.9834883, 65.032837 ], [ 179.98243690000001, 65.0326196 ], [ 179.981707300000011, 65.032212 ], [ 179.9816108, 65.0321622 ], [ 179.9813318, 65.0320671 ], [ 179.98092410000001, 65.0320626 ], [ 179.980613, 65.032049 ], [ 179.9801946, 65.0319992 ], [ 179.9800658, 65.0320128 ], [ 179.979819, 65.0321848 ], [ 179.9796045, 65.0322528 ], [ 179.9793577, 65.0322165 ], [ 179.9791646, 65.0321214 ], [ 179.978853500000014, 65.0320354 ], [ 179.9785101, 65.0319675 ], [ 179.9780702, 65.0319131 ], [ 179.9776411, 65.0317863 ], [ 179.97708320000001, 65.0316187 ], [ 179.976868599999989, 65.0314738 ], [ 179.9766755, 65.0313878 ], [ 179.9762571, 65.0313787 ], [ 179.9754739, 65.0310662 ], [ 179.974443900000011, 65.0307447 ], [ 179.974401, 65.0307356 ], [ 179.973789399999987, 65.0304865 ], [ 179.9736285, 65.0303597 ], [ 179.9728989, 65.0301242 ], [ 179.9720836, 65.029934 ], [ 179.9716008, 65.0296124 ], [ 179.9712682, 65.0293995 ], [ 179.970549299999988, 65.0291323 ], [ 179.969530099999986, 65.0287337 ], [ 179.9681568, 65.028308 ], [ 179.9666011, 65.0278369 ], [ 179.9644983, 65.0271756 ], [ 179.9632215, 65.0267226 ], [ 179.9625993, 65.0265143 ], [ 179.962427600000012, 65.0263059 ], [ 179.962137899999988, 65.02617 ], [ 179.9618053, 65.0260794 ], [ 179.9613976, 65.0259435 ], [ 179.9603677, 65.0255449 ], [ 179.9595201, 65.025264 ], [ 179.958061, 65.0247884 ], [ 179.956966599999987, 65.0244532 ], [ 179.9560332, 65.0242131 ], [ 179.954981800000013, 65.0240409 ], [ 179.953587, 65.0237782 ], [ 179.9509263, 65.0232572 ], [ 179.9498534, 65.0230398 ], [ 179.9474931, 65.0225686 ], [ 179.9458837, 65.0222877 ], [ 179.9424505, 65.0218075 ], [ 179.93923190000001, 65.0213726 ], [ 179.9381804, 65.0212638 ], [ 179.9343824, 65.0208833 ], [ 179.9323439, 65.0205752 ], [ 179.9303698, 65.0202852 ], [ 179.927816400000012, 65.0200858 ], [ 179.9258208, 65.0201221 ], [ 179.9235248, 65.0201855 ], [ 179.921808199999987, 65.0202399 ], [ 179.918310600000012, 65.0199952 ], [ 179.914727199999987, 65.0195603 ], [ 179.9130106, 65.0192159 ], [ 179.911830400000014, 65.0189169 ], [ 179.909191099999987, 65.0180288 ], [ 179.907968, 65.0176482 ], [ 179.906551799999988, 65.0172313 ], [ 179.9055004, 65.0168597 ], [ 179.904127100000011, 65.0163341 ], [ 179.9022817, 65.0152556 ], [ 179.9008441, 65.0143855 ], [ 179.8989987, 65.0134338 ], [ 179.8971104, 65.0127721 ], [ 179.8947286, 65.0118839 ], [ 179.8932695, 65.011204 ], [ 179.8915314, 65.0104879 ], [ 179.888463, 65.0093276 ], [ 179.8847079, 65.0080312 ], [ 179.881660900000014, 65.0070793 ], [ 179.8800516, 65.0065081 ], [ 179.8794722, 65.0061455 ], [ 179.878056, 65.0057466 ], [ 179.8756313, 65.0050756 ], [ 179.8739362, 65.0046495 ], [ 179.8726058, 65.0045316 ], [ 179.8706746, 65.0042868 ], [ 179.8693228, 65.0041055 ], [ 179.8677993, 65.0038788 ], [ 179.8665976, 65.0036884 ], [ 179.8647523, 65.0032169 ], [ 179.862434799999988, 65.0027363 ], [ 179.860568, 65.0023192 ], [ 179.858100400000012, 65.0018477 ], [ 179.855804400000011, 65.0010588 ], [ 179.85300318127986, 65.0 ], [ 177.226704603496785, 65.0 ], [ 177.2267669, 65.000725 ], [ 177.2267071, 65.0017601 ], [ 177.226348699999988, 65.0027616 ], [ 177.225754599999988, 65.0036754 ], [ 177.2249845, 65.0043857 ], [ 177.2239352, 65.0049892 ], [ 177.222689, 65.0053611 ], [ 177.221372300000013, 65.0057181 ], [ 177.220626, 65.0059858 ], [ 177.2202124, 65.0061761 ], [ 177.2193221, 65.007971 ], [ 177.2185852, 65.0084674 ], [ 177.2177768, 65.0087972 ], [ 177.2173315, 65.0089287 ], [ 177.2168326, 65.0090488 ], [ 177.2158188, 65.009246 ], [ 177.2140431, 65.0095497 ], [ 177.2137079, 65.0095995 ], [ 177.2133565, 65.0096381 ], [ 177.2130266, 65.0096516 ], [ 177.2127691, 65.0096381 ], [ 177.212576, 65.0096188 ], [ 177.2124124, 65.0096211 ], [ 177.2122407, 65.0096347 ], [ 177.2120583, 65.0096652 ], [ 177.211886600000014, 65.0097094 ], [ 177.2116211, 65.0097582 ], [ 177.211267099999986, 65.009799 ], [ 177.2110444, 65.0098216 ], [ 177.21084590000001, 65.0098307 ], [ 177.2105858, 65.0098386 ], [ 177.209437799999989, 65.0098783 ], [ 177.208896, 65.009893 ], [ 177.2085339, 65.0098896 ], [ 177.2083917, 65.009893 ], [ 177.2082978, 65.0099009 ], [ 177.2081101, 65.0099213 ], [ 177.2079277, 65.0099508 ], [ 177.2075978, 65.0099939 ], [ 177.2070774, 65.0100392 ], [ 177.2065786, 65.0100856 ], [ 177.206305, 65.0101026 ], [ 177.2059241, 65.0101219 ], [ 177.2046286, 65.010182 ], [ 177.2041351, 65.0102057 ], [ 177.203791700000011, 65.0102227 ], [ 177.2031668, 65.0102397 ], [ 177.2029603, 65.0102454 ], [ 177.2027832, 65.0102579 ], [ 177.2026974, 65.0102737 ], [ 177.2026223, 65.0103145 ], [ 177.2025284, 65.0103848 ], [ 177.2024184, 65.0104845 ], [ 177.2022387, 65.0105797 ], [ 177.202112699999986, 65.0106669 ], [ 177.2019786, 65.0107859 ], [ 177.201874, 65.0108358 ], [ 177.2017452, 65.0108765 ], [ 177.201528, 65.010923 ], [ 177.2013268, 65.0109604 ], [ 177.2010532, 65.0109887 ], [ 177.200830599999989, 65.0110023 ], [ 177.200457699999987, 65.0110182 ], [ 177.199642399999988, 65.0110386 ], [ 177.1993205, 65.0110601 ], [ 177.1987009, 65.0111145 ], [ 177.1982047, 65.0111711 ], [ 177.1976253, 65.0112935 ], [ 177.197129100000012, 65.0114284 ], [ 177.196869, 65.0115587 ], [ 177.1967, 65.0117094 ], [ 177.1965954, 65.0118533 ], [ 177.1965256, 65.0119836 ], [ 177.1964237, 65.0121093 ], [ 177.19626550000001, 65.0122385 ], [ 177.1960938, 65.0123575 ], [ 177.195847, 65.0125217 ], [ 177.1956137, 65.0126384 ], [ 177.195334699999989, 65.012771 ], [ 177.195155, 65.0129308 ], [ 177.195063800000014, 65.0130599 ], [ 177.195037, 65.0131268 ], [ 177.1950611, 65.0131993 ], [ 177.195050400000014, 65.0133012 ], [ 177.195029, 65.0133783 ], [ 177.1949995, 65.0134293 ], [ 177.1949056, 65.0136015 ], [ 177.1948117, 65.0137839 ], [ 177.1947125, 65.0138927 ], [ 177.1945274, 65.0140252 ], [ 177.1943262, 65.0141238 ], [ 177.193808600000011, 65.0143311 ], [ 177.1930736, 65.0145396 ], [ 177.1921188, 65.014782 ], [ 177.1913356, 65.0149225 ], [ 177.1904826, 65.0150494 ], [ 177.189973, 65.0151083 ], [ 177.189104, 65.0151876 ], [ 177.1883905, 65.0152148 ], [ 177.186421700000011, 65.0152737 ], [ 177.1847373, 65.0153122 ], [ 177.183911200000011, 65.0153462 ], [ 177.183203099999986, 65.0153757 ], [ 177.1822214, 65.0153893 ], [ 177.182039, 65.0153961 ], [ 177.1819425, 65.0154153 ], [ 177.1818137, 65.0154572 ], [ 177.18158840000001, 65.0155309 ], [ 177.1813551, 65.0155966 ], [ 177.1809983, 65.0156566 ], [ 177.180907100000013, 65.0156657 ], [ 177.180846800000012, 65.0156798 ], [ 177.1808119, 65.0157031 ], [ 177.1807958, 65.0157291 ], [ 177.1807945, 65.0158039 ], [ 177.1807301, 65.0159602 ], [ 177.1806335, 65.0160939 ], [ 177.180408199999988, 65.0162865 ], [ 177.1800917, 65.016581 ], [ 177.1798557, 65.0167034 ], [ 177.179158300000012, 65.0168575 ], [ 177.1783429, 65.0169549 ], [ 177.1773666, 65.0170047 ], [ 177.1758699, 65.0170863 ], [ 177.1744645, 65.0171339 ], [ 177.1735632, 65.0171407 ], [ 177.172833700000012, 65.0171248 ], [ 177.1716267, 65.0170772 ], [ 177.1695667, 65.0169571 ], [ 177.168408, 65.0168914 ], [ 177.167598, 65.0168643 ], [ 177.167136699999986, 65.016862 ], [ 177.166627, 65.0168484 ], [ 177.166063799999989, 65.0168144 ], [ 177.1652967, 65.016768 ], [ 177.1648782, 65.0167532 ], [ 177.1642855, 65.0167487 ], [ 177.163754399999988, 65.0167566 ], [ 177.1632689, 65.016768 ], [ 177.1629739, 65.0167985 ], [ 177.162748599999986, 65.0168382 ], [ 177.1624991, 65.0168994 ], [ 177.1619144, 65.0170262 ], [ 177.1613538, 65.0171429 ], [ 177.160790600000013, 65.0171996 ], [ 177.1599913, 65.0172449 ], [ 177.1591812, 65.0173015 ], [ 177.1583497, 65.0173128 ], [ 177.1576926, 65.0173162 ], [ 177.157212500000014, 65.0173196 ], [ 177.1567887, 65.017331 ], [ 177.1562013, 65.0173525 ], [ 177.1556917, 65.0173638 ], [ 177.155334900000014, 65.0173616 ], [ 177.1550962, 65.017365 ], [ 177.1549326, 65.0173797 ], [ 177.1546751, 65.017408 ], [ 177.154355900000013, 65.0174454 ], [ 177.154018, 65.0174805 ], [ 177.1531087, 65.0175496 ], [ 177.15234430000001, 65.0176164 ], [ 177.151636200000013, 65.0176697 ], [ 177.1504319, 65.0177592 ], [ 177.1500054, 65.0177909 ], [ 177.149576200000013, 65.0178226 ], [ 177.1491122, 65.0178521 ], [ 177.1485329, 65.0178906 ], [ 177.1460921, 65.0181794 ], [ 177.1455905, 65.0182349 ], [ 177.1451318, 65.0182938 ], [ 177.144351300000011, 65.0183924 ], [ 177.143973100000011, 65.0184264 ], [ 177.143589600000013, 65.0184592 ], [ 177.143316, 65.0184932 ], [ 177.142919, 65.018551 ], [ 177.142535400000014, 65.0186099 ], [ 177.1421465, 65.0186597 ], [ 177.141704, 65.0186982 ], [ 177.1411756, 65.0187481 ], [ 177.1408027, 65.0187945 ], [ 177.140041, 65.0188648 ], [ 177.139231, 65.0189169 ], [ 177.1356744, 65.0191185 ], [ 177.1316349, 65.0193224 ], [ 177.1285987, 65.0195467 ], [ 177.1267694, 65.0196781 ], [ 177.125160099999988, 65.0198208 ], [ 177.124038899999988, 65.0199726 ], [ 177.123046499999987, 65.020147 ], [ 177.1223062, 65.0203011 ], [ 177.121464, 65.0205163 ], [ 177.1210027, 65.0206612 ], [ 177.1206057, 65.0208787 ], [ 177.1202624, 65.0211687 ], [ 177.1196616, 65.0217803 ], [ 177.1190661, 65.0223058 ], [ 177.118679899999989, 65.0225233 ], [ 177.118266799999986, 65.0226773 ], [ 177.117848400000014, 65.0227725 ], [ 177.1174031, 65.0228495 ], [ 177.117132199999986, 65.0228835 ], [ 177.1168587, 65.0229163 ], [ 177.116646800000012, 65.0229582 ], [ 177.1165609, 65.0229877 ], [ 177.116477800000013, 65.0230228 ], [ 177.1164349, 65.0230601 ], [ 177.1163598, 65.023136 ], [ 177.1162337, 65.023221 ], [ 177.1160942, 65.023281 ], [ 177.1158716, 65.0233399 ], [ 177.1156785, 65.0233716 ], [ 177.1155417, 65.0233976 ], [ 177.115458499999988, 65.0234282 ], [ 177.1153888, 65.0234803 ], [ 177.1152788, 65.0235381 ], [ 177.1151045, 65.0236049 ], [ 177.1148926, 65.0236536 ], [ 177.1145359, 65.0237657 ], [ 177.1141979, 65.0238371 ], [ 177.113615900000013, 65.0239243 ], [ 177.112948, 65.0239639 ], [ 177.1122104, 65.023965 ], [ 177.1114701, 65.0239628 ], [ 177.1110007, 65.0239696 ], [ 177.1107218, 65.0239888 ], [ 177.11030070000001, 65.0240273 ], [ 177.109949300000011, 65.0240489 ], [ 177.1096006, 65.0240613 ], [ 177.109386, 65.0240874 ], [ 177.1092801, 65.0241083 ], [ 177.1092533, 65.0241219 ], [ 177.109246500000012, 65.0241361 ], [ 177.109268, 65.0241576 ], [ 177.1093136, 65.0241649 ], [ 177.1093672, 65.0241632 ], [ 177.10953090000001, 65.0241587 ], [ 177.1097307, 65.0241463 ], [ 177.109876899999989, 65.0241395 ], [ 177.1098849, 65.0241431 ], [ 177.1098876, 65.0241474 ], [ 177.1098806, 65.0241572 ], [ 177.109868799999987, 65.0241638 ], [ 177.1098457, 65.0241712 ], [ 177.109724, 65.0241972 ], [ 177.1095496, 65.0242221 ], [ 177.1093659, 65.024255 ], [ 177.10915, 65.0242793 ], [ 177.10897030000001, 65.0242974 ], [ 177.108856300000014, 65.0243127 ], [ 177.1087463, 65.0243359 ], [ 177.10861220000001, 65.0243739 ], [ 177.108519699999988, 65.0243977 ], [ 177.10839630000001, 65.0244209 ], [ 177.1083678, 65.0244324 ], [ 177.108352, 65.0244458 ], [ 177.1083628, 65.0244554 ], [ 177.108399, 65.0244656 ], [ 177.1085277, 65.0244662 ], [ 177.108742299999989, 65.0244781 ], [ 177.108951499999989, 65.0244781 ], [ 177.1090977, 65.0244622 ], [ 177.109213, 65.0244271 ], [ 177.109329699999989, 65.0243694 ], [ 177.109498699999989, 65.0243161 ], [ 177.1096086, 65.024294 ], [ 177.109699799999987, 65.0242776 ], [ 177.1099654, 65.0242527 ], [ 177.1103033, 65.0242233 ], [ 177.1106279, 65.0241757 ], [ 177.1108586, 65.0241338 ], [ 177.1110758, 65.0241213 ], [ 177.1112314, 65.0241225 ], [ 177.1114004, 65.0241361 ], [ 177.111840199999989, 65.0241825 ], [ 177.1123284, 65.0242267 ], [ 177.1126932, 65.0242618 ], [ 177.1127951, 65.024264 ], [ 177.112919799999986, 65.0242465 ], [ 177.1129788, 65.0242119 ], [ 177.1130097, 65.0241802 ], [ 177.1130647, 65.0241547 ], [ 177.1131518, 65.0241315 ], [ 177.113311399999986, 65.0241196 ], [ 177.113500499999986, 65.0241179 ], [ 177.1138144, 65.0241055 ], [ 177.114069199999989, 65.0240806 ], [ 177.114189900000014, 65.0240489 ], [ 177.1142811, 65.0239979 ], [ 177.1143749, 65.023939 ], [ 177.114493, 65.0239231 ], [ 177.114656599999989, 65.0239265 ], [ 177.1148148, 65.0239594 ], [ 177.114991800000013, 65.0240534 ], [ 177.1151447, 65.0242142 ], [ 177.1153137, 65.0245698 ], [ 177.1153888, 65.024811 ], [ 177.1154398, 65.0250432 ], [ 177.115429, 65.0252187 ], [ 177.1153486, 65.0255891 ], [ 177.1152332, 65.0258926 ], [ 177.1151635, 65.0259605 ], [ 177.1150696, 65.0259899 ], [ 177.1149409, 65.0260149 ], [ 177.1147478, 65.0260477 ], [ 177.11450640000001, 65.0260794 ], [ 177.113868, 65.0261609 ], [ 177.1133932, 65.0262436 ], [ 177.1128139, 65.0263421 ], [ 177.1118081, 65.0265743 ], [ 177.1111697, 65.026717 ], [ 177.1104267, 65.0268993 ], [ 177.110185300000012, 65.0269865 ], [ 177.1099117, 65.0270601 ], [ 177.1096516, 65.0270986 ], [ 177.109450399999986, 65.0271133 ], [ 177.109158, 65.0271224 ], [ 177.108916599999986, 65.0271133 ], [ 177.108694, 65.0270907 ], [ 177.108399, 65.0270556 ], [ 177.1079779, 65.0270125 ], [ 177.1073422, 65.026991 ], [ 177.1068165, 65.0270193 ], [ 177.1065563, 65.0270454 ], [ 177.106221, 65.0270612 ], [ 177.105985, 65.0270737 ], [ 177.1058133, 65.0270861 ], [ 177.105743600000011, 65.0270997 ], [ 177.1057248, 65.027128 ], [ 177.1057275, 65.0271631 ], [ 177.1057476, 65.0272073 ], [ 177.1057597, 65.0272594 ], [ 177.105706, 65.0274587 ], [ 177.1056068, 65.027718 ], [ 177.1055451, 65.0278505 ], [ 177.1054432, 65.0280113 ], [ 177.1052554, 65.0282729 ], [ 177.1051267, 65.0284337 ], [ 177.1049175, 65.0286137 ], [ 177.104536599999989, 65.0289591 ], [ 177.1041799, 65.0293293 ], [ 177.1040377, 65.0294709 ], [ 177.1039814, 65.029558 ], [ 177.103927700000014, 65.0296543 ], [ 177.1038553, 65.0298015 ], [ 177.1036676, 65.0299793 ], [ 177.1034798, 65.030131 ], [ 177.1032035, 65.0303042 ], [ 177.1028253, 65.0304967 ], [ 177.1023184, 65.030705 ], [ 177.1020019, 65.0308183 ], [ 177.101524500000011, 65.0309507 ], [ 177.1011624, 65.0310345 ], [ 177.1009827, 65.031056 ], [ 177.1008271, 65.0310674 ], [ 177.1006688, 65.0310957 ], [ 177.1004945, 65.0311376 ], [ 177.1003711, 65.0311874 ], [ 177.1001244, 65.0313029 ], [ 177.0994136, 65.0316199 ], [ 177.0990086, 65.031792 ], [ 177.0986599, 65.0319109 ], [ 177.098244099999988, 65.0320071 ], [ 177.0977318, 65.0321022 ], [ 177.097568200000012, 65.0321418 ], [ 177.097528, 65.0321667 ], [ 177.0974824, 65.0322109 ], [ 177.097380500000014, 65.0322618 ], [ 177.097203400000012, 65.0323139 ], [ 177.0968977, 65.0323773 ], [ 177.096597300000013, 65.0324351 ], [ 177.0963612, 65.0324928 ], [ 177.096203, 65.0325483 ], [ 177.0960313, 65.0326151 ], [ 177.095798, 65.0326762 ], [ 177.095291, 65.032786 ], [ 177.0947707, 65.0328958 ], [ 177.0938802, 65.0330725 ], [ 177.0931908, 65.0332366 ], [ 177.093105, 65.0332627 ], [ 177.0930353, 65.0333046 ], [ 177.092944100000011, 65.0333827 ], [ 177.0928207, 65.0334495 ], [ 177.0925954, 65.0335242 ], [ 177.092346, 65.0335932 ], [ 177.0918202, 65.0337234 ], [ 177.0916834, 65.0337642 ], [ 177.09158690000001, 65.033805 ], [ 177.091501099999988, 65.0338525 ], [ 177.0913509, 65.0339567 ], [ 177.0911685, 65.0340212 ], [ 177.090932400000014, 65.034071 ], [ 177.0906267, 65.0340959 ], [ 177.0903987, 65.0341106 ], [ 177.090251099999989, 65.0341265 ], [ 177.0901278, 65.0341525 ], [ 177.089999, 65.0342057 ], [ 177.0898622, 65.0342623 ], [ 177.0896798, 65.034337 ], [ 177.0888323, 65.0346438 ], [ 177.0884809, 65.0347525 ], [ 177.0880464, 65.0348408 ], [ 177.0877165, 65.0348997 ], [ 177.0874134, 65.0349586 ], [ 177.0872417, 65.035005 ], [ 177.087104900000014, 65.0350627 ], [ 177.08701640000001, 65.0351238 ], [ 177.0868501, 65.035177 ], [ 177.08665160000001, 65.0352155 ], [ 177.0864022, 65.0352506 ], [ 177.0860884, 65.0352812 ], [ 177.085342700000012, 65.0353718 ], [ 177.0847848, 65.0354533 ], [ 177.0844763, 65.0354884 ], [ 177.0843127, 65.0355076 ], [ 177.0841035, 65.0355517 ], [ 177.083897, 65.035605 ], [ 177.0836636, 65.0356446 ], [ 177.0832854, 65.035674 ], [ 177.0828751, 65.0356978 ], [ 177.0825505, 65.0357408 ], [ 177.082285, 65.0357782 ], [ 177.0820731, 65.0358268 ], [ 177.081778, 65.0358982 ], [ 177.080989499999987, 65.0360272 ], [ 177.080010499999986, 65.0361653 ], [ 177.0792836, 65.0362581 ], [ 177.07912, 65.0362819 ], [ 177.07896980000001, 65.0363147 ], [ 177.0786881, 65.0363928 ], [ 177.0784011, 65.0364732 ], [ 177.0779961, 65.0365796 ], [ 177.0775294, 65.0366951 ], [ 177.0769554, 65.0369102 ], [ 177.076209799999987, 65.0371592 ], [ 177.0757377, 65.0373267 ], [ 177.0751744, 65.0375067 ], [ 177.0742732, 65.0377252 ], [ 177.0737743, 65.0378406 ], [ 177.0733505, 65.037921 ], [ 177.0727578, 65.0380184 ], [ 177.0723313, 65.0380783 ], [ 177.0717251, 65.0381485 ], [ 177.0713845, 65.0381814 ], [ 177.0709687, 65.0382017 ], [ 177.0705423, 65.0381995 ], [ 177.06999780000001, 65.0381915 ], [ 177.069370099999986, 65.0381712 ], [ 177.068871300000012, 65.0381734 ], [ 177.0683402, 65.0381927 ], [ 177.0672405, 65.0382753 ], [ 177.0668623, 65.0382923 ], [ 177.066189, 65.038341 ], [ 177.0659181, 65.0383749 ], [ 177.065684800000014, 65.0384225 ], [ 177.0653897, 65.0384745 ], [ 177.064880100000011, 65.0385266 ], [ 177.064118400000012, 65.0385922 ], [ 177.0629489, 65.0386375 ], [ 177.0616829, 65.0386624 ], [ 177.06007360000001, 65.0386556 ], [ 177.0590544, 65.0386217 ], [ 177.0580029, 65.0385651 ], [ 177.0560074, 65.0384474 ], [ 177.054789699999986, 65.0383613 ], [ 177.051512, 65.0380761 ], [ 177.0501548, 65.0380104 ], [ 177.049216, 65.0379833 ], [ 177.048679600000014, 65.0380127 ], [ 177.048363099999989, 65.038058 ], [ 177.0479393, 65.0381429 ], [ 177.0476094, 65.0382006 ], [ 177.0470542, 65.0382912 ], [ 177.0463192, 65.0384836 ], [ 177.0457882, 65.0387032 ], [ 177.0453268, 65.0389363 ], [ 177.044999600000011, 65.0390676 ], [ 177.044608, 65.0392193 ], [ 177.0444149, 65.0393076 ], [ 177.04427, 65.0394208 ], [ 177.0441198, 65.0395883 ], [ 177.0439857, 65.0397513 ], [ 177.0436799, 65.0399596 ], [ 177.043325900000013, 65.0400999 ], [ 177.043004, 65.0401927 ], [ 177.0423657, 65.0403014 ], [ 177.0418721, 65.0403534 ], [ 177.041384, 65.0403851 ], [ 177.0402119, 65.0403829 ], [ 177.0383048, 65.0403534 ], [ 177.0375055, 65.0403138 ], [ 177.036412500000012, 65.0402504 ], [ 177.036069199999986, 65.0402335 ], [ 177.035555499999987, 65.0402465 ], [ 177.0354281, 65.0402578 ], [ 177.035327599999988, 65.040281 ], [ 177.0352551, 65.040307 ], [ 177.03518, 65.0403234 ], [ 177.034885, 65.0403557 ], [ 177.0342815, 65.0403987 ], [ 177.0334071, 65.0404236 ], [ 177.032511199999988, 65.0404055 ], [ 177.0319158, 65.0403693 ], [ 177.0306498, 65.0402787 ], [ 177.0291048, 65.0401384 ], [ 177.027334599999989, 65.0399211 ], [ 177.0251083, 65.0396155 ], [ 177.0242768, 65.0394978 ], [ 177.0235848, 65.03938 ], [ 177.0216107, 65.0390495 ], [ 177.0195079, 65.0388571 ], [ 177.0183116, 65.0387733 ], [ 177.0179415, 65.038753 ], [ 177.017619599999989, 65.0387552 ], [ 177.0170027, 65.0387915 ], [ 177.0157367, 65.0389363 ], [ 177.0153451, 65.0389997 ], [ 177.015141199999988, 65.0390586 ], [ 177.0150286, 65.0391378 ], [ 177.0149803, 65.0392012 ], [ 177.015012500000012, 65.039337 ], [ 177.0152003, 65.0395294 ], [ 177.015506, 65.0397558 ], [ 177.0157367, 65.0399369 ], [ 177.0164072, 65.0404802 ], [ 177.016992, 65.0411276 ], [ 177.017308500000013, 65.0415396 ], [ 177.0178986, 65.0425717 ], [ 177.0183438, 65.0433096 ], [ 177.018553, 65.0438212 ], [ 177.0187837, 65.0446201 ], [ 177.018901699999986, 65.0452878 ], [ 177.0189607, 65.0463243 ], [ 177.018874899999986, 65.047259 ], [ 177.0188642, 65.0478542 ], [ 177.0188025, 65.0480964 ], [ 177.0186603, 65.0483815 ], [ 177.0185691, 65.0485444 ], [ 177.0185825, 65.0486055 ], [ 177.018616, 65.0486576 ], [ 177.0186281, 65.0486859 ], [ 177.018616, 65.0487226 ], [ 177.0185933, 65.0487617 ], [ 177.0185128, 65.0488578 ], [ 177.01840820000001, 65.0489416 ], [ 177.0182231, 65.0490089 ], [ 177.0181641, 65.0490411 ], [ 177.0181265, 65.0491079 ], [ 177.0179737, 65.0494021 ], [ 177.0178664, 65.0495333 ], [ 177.0178556, 65.0496227 ], [ 177.0178932, 65.0496974 ], [ 177.0180085, 65.049832 ], [ 177.018461800000011, 65.0502823 ], [ 177.018665700000014, 65.0506376 ], [ 177.0186979, 65.0509431 ], [ 177.0186871, 65.0512078 ], [ 177.0186388, 65.0514318 ], [ 177.0183384, 65.0519251 ], [ 177.0178717, 65.0523437 ], [ 177.017464, 65.0525903 ], [ 177.01632140000001, 65.0530949 ], [ 177.0158118, 65.0532917 ], [ 177.0146102, 65.0536266 ], [ 177.0128828, 65.0541198 ], [ 177.011536400000011, 65.0545045 ], [ 177.0111233, 65.0546696 ], [ 177.010699499999987, 65.0548506 ], [ 177.0103776, 65.0550067 ], [ 177.008929200000011, 65.0556108 ], [ 177.0071107, 65.056389 ], [ 177.006821, 65.0564637 ], [ 177.0066869, 65.0565248 ], [ 177.0064509, 65.0566537 ], [ 177.0060861, 65.0568256 ], [ 177.005340499999988, 65.0570021 ], [ 177.0038599, 65.057303 ], [ 177.0031598, 65.0574251 ], [ 177.0029506, 65.0574794 ], [ 177.002746800000011, 65.0575462 ], [ 177.002604600000012, 65.0576084 ], [ 177.002510699999988, 65.0576367 ], [ 177.0022103, 65.0576887 ], [ 177.0017758, 65.0577328 ], [ 177.0013681, 65.0577396 ], [ 177.000984499999987, 65.057717 ], [ 177.0007271, 65.0576751 ], [ 176.999917, 65.0575247 ], [ 176.9996166, 65.0574455 ], [ 176.999446299999988, 65.057402 ], [ 176.9993792, 65.0573703 ], [ 176.9993484, 65.0573301 ], [ 176.999351100000013, 65.0572979 ], [ 176.9994302, 65.0572583 ], [ 176.9994423, 65.0571967 ], [ 176.9994208, 65.0571644 ], [ 176.999335, 65.0571248 ], [ 176.9992264, 65.0571135 ], [ 176.999061399999988, 65.0571067 ], [ 176.9989353, 65.0571197 ], [ 176.9987798, 65.0571593 ], [ 176.9985115, 65.0573279 ], [ 176.9982862, 65.057545 ], [ 176.997953599999988, 65.058088 ], [ 176.9974172, 65.058796 ], [ 176.997068500000012, 65.0594136 ], [ 176.9967842, 65.0597167 ], [ 176.9964355, 65.0599972 ], [ 176.995893700000011, 65.0603342 ], [ 176.9955397, 65.0605491 ], [ 176.9950622, 65.0607391 ], [ 176.9941181, 65.061049 ], [ 176.9928682, 65.0615127 ], [ 176.9920582, 65.0617683 ], [ 176.99129640000001, 65.0619899 ], [ 176.9905829, 65.0620849 ], [ 176.989724599999988, 65.0621777 ], [ 176.988447900000011, 65.0622206 ], [ 176.9877773, 65.0621799 ], [ 176.987396499999988, 65.062146 ], [ 176.9870934, 65.0621109 ], [ 176.9868708, 65.0621075 ], [ 176.98668570000001, 65.0621234 ], [ 176.9865221, 65.0621618 ], [ 176.986275299999988, 65.0622466 ], [ 176.9859132, 65.0623948 ], [ 176.9848752, 65.0627318 ], [ 176.983426799999989, 65.0631615 ], [ 176.9829977, 65.0632656 ], [ 176.9824719, 65.06339 ], [ 176.982203700000014, 65.063485 ], [ 176.9820052, 65.06358 ], [ 176.9818014, 65.0637202 ], [ 176.9816458, 65.0638627 ], [ 176.9815171, 65.0640888 ], [ 176.9809967, 65.0644824 ], [ 176.9807017, 65.0646429 ], [ 176.9801545, 65.0648487 ], [ 176.979773599999987, 65.0649799 ], [ 176.9788188, 65.0651812 ], [ 176.9780087, 65.0653011 ], [ 176.976673, 65.0654435 ], [ 176.9757986, 65.0655498 ], [ 176.975101200000012, 65.0656448 ], [ 176.9742858, 65.0656991 ], [ 176.9729233, 65.0657624 ], [ 176.9721669, 65.0658031 ], [ 176.9710886, 65.0659094 ], [ 176.970396599999987, 65.0659886 ], [ 176.9695812, 65.0660768 ], [ 176.968358200000011, 65.0661763 ], [ 176.9674408, 65.0662712 ], [ 176.9665611, 65.066321 ], [ 176.965971, 65.0663436 ], [ 176.9654614, 65.06633 ], [ 176.9647855, 65.0663029 ], [ 176.9643724, 65.0663052 ], [ 176.964098799999988, 65.066321 ], [ 176.9635999, 65.0663527 ], [ 176.9628918, 65.0663617 ], [ 176.9621462, 65.0663346 ], [ 176.961588299999988, 65.066269 ], [ 176.961250299999989, 65.0661808 ], [ 176.96089090000001, 65.0661175 ], [ 176.960628, 65.0661084 ], [ 176.960284699999988, 65.0661401 ], [ 176.9598609, 65.0662192 ], [ 176.9594854, 65.0662905 ], [ 176.959257400000013, 65.0663583 ], [ 176.959088400000013, 65.0664216 ], [ 176.9586593, 65.0665743 ], [ 176.958029, 65.0667541 ], [ 176.9576427, 65.0668151 ], [ 176.957339600000012, 65.0668751 ], [ 176.956999, 65.0669599 ], [ 176.9564465, 65.0670435 ], [ 176.956017300000013, 65.0670921 ], [ 176.9554594, 65.0671611 ], [ 176.9550705, 65.0672154 ], [ 176.954944399999988, 65.0672572 ], [ 176.9548505, 65.0673183 ], [ 176.9541934, 65.0677977 ], [ 176.9537723, 65.0679944 ], [ 176.9534424, 65.0681098 ], [ 176.953026599999987, 65.0682172 ], [ 176.952602899999988, 65.068302 ], [ 176.9521978, 65.0683291 ], [ 176.9518773, 65.0683297 ], [ 176.9517687, 65.0683246 ], [ 176.951699, 65.0683263 ], [ 176.951637299999987, 65.0683387 ], [ 176.95157420000001, 65.0683659 ], [ 176.9514924, 65.0684365 ], [ 176.951369, 65.0685021 ], [ 176.951224200000013, 65.0685552 ], [ 176.950859400000013, 65.0686412 ], [ 176.9506207, 65.0686898 ], [ 176.9503176, 65.0687271 ], [ 176.9498241, 65.0687655 ], [ 176.9496524, 65.0687768 ], [ 176.9494915, 65.0688062 ], [ 176.9491267, 65.068899 ], [ 176.9487244, 65.0689826 ], [ 176.9482523, 65.0690301 ], [ 176.947791, 65.0690595 ], [ 176.9472384, 65.0690821 ], [ 176.9466698, 65.0690505 ], [ 176.9456667, 65.0690052 ], [ 176.9447333, 65.0689442 ], [ 176.9433439, 65.0687904 ], [ 176.9422764, 65.0686095 ], [ 176.9417506, 65.0684671 ], [ 176.9412786, 65.0682681 ], [ 176.9409943, 65.0681618 ], [ 176.9406295, 65.0681098 ], [ 176.9404578, 65.0681211 ], [ 176.9402754, 65.0681866 ], [ 176.940119900000013, 65.0682997 ], [ 176.939964300000014, 65.068415 ], [ 176.9395888, 65.0684987 ], [ 176.9391918, 65.0685394 ], [ 176.9384622, 65.0685304 ], [ 176.9377595, 65.0684354 ], [ 176.9368905, 65.068259 ], [ 176.936515, 65.0682115 ], [ 176.9362414, 65.0681821 ], [ 176.9359839, 65.068207 ], [ 176.9357532, 65.0682567 ], [ 176.9354367, 65.0683902 ], [ 176.9345945, 65.0686728 ], [ 176.9328189, 65.0689464 ], [ 176.9310379, 65.069064 ], [ 176.9286775, 65.0689826 ], [ 176.9255876, 65.0689736 ], [ 176.922047099999986, 65.0691454 ], [ 176.918828499999989, 65.0694439 ], [ 176.9145584, 65.0695615 ], [ 176.90724130000001, 65.0694801 ], [ 176.8999028, 65.0694801 ], [ 176.8979502, 65.0694891 ], [ 176.8959117, 65.0693535 ], [ 176.8945813, 65.0692992 ], [ 176.8927789, 65.0692992 ], [ 176.890697499999987, 65.0693082 ], [ 176.8880796, 65.0691183 ], [ 176.88548320000001, 65.0687655 ], [ 176.8844747, 65.0686389 ], [ 176.8831873, 65.0685846 ], [ 176.8814707, 65.0685032 ], [ 176.8796682, 65.0682681 ], [ 176.8775439, 65.0677163 ], [ 176.8742609, 65.0669565 ], [ 176.8697762, 65.0661514 ], [ 176.868574599999988, 65.0658348 ], [ 176.867587500000013, 65.065681 ], [ 176.8659568, 65.0655363 ], [ 176.8637252, 65.0653282 ], [ 176.861236100000013, 65.0649573 ], [ 176.8587899, 65.0644507 ], [ 176.8564939, 65.0638717 ], [ 176.8546915, 65.0633651 ], [ 176.8526315, 65.0629308 ], [ 176.8497562, 65.0625147 ], [ 176.8469882, 65.0621618 ], [ 176.8438983, 65.061619 ], [ 176.841516500000012, 65.0612752 ], [ 176.8393278, 65.0608499 ], [ 176.836345200000011, 65.060099 ], [ 176.832976300000013, 65.0590765 ], [ 176.8266892, 65.057122 ], [ 176.8229341, 65.0561085 ], [ 176.8197369, 65.055294 ], [ 176.81722640000001, 65.0545067 ], [ 176.813643, 65.0533031 ], [ 176.809437300000013, 65.0521536 ], [ 176.8047809, 65.0512033 ], [ 176.798601100000013, 65.0502439 ], [ 176.7937088, 65.0493749 ], [ 176.791327, 65.0490672 ], [ 176.789116799999988, 65.0488409 ], [ 176.7862844, 65.0485784 ], [ 176.7819929, 65.0478452 ], [ 176.7762851, 65.0465054 ], [ 176.765685, 65.0438438 ], [ 176.7625737, 65.0429837 ], [ 176.7603636, 65.0422684 ], [ 176.7588293, 65.0416256 ], [ 176.7583251, 65.0412385 ], [ 176.758105199999989, 65.041028 ], [ 176.7580676, 65.0409329 ], [ 176.7580783, 65.0407745 ], [ 176.7579871, 65.0406568 ], [ 176.757826200000011, 65.0405798 ], [ 176.7575741, 65.0405549 ], [ 176.7573219, 65.0405889 ], [ 176.7570215, 65.0406885 ], [ 176.7567962, 65.0407224 ], [ 176.7565012, 65.0406907 ], [ 176.756018399999988, 65.0405866 ], [ 176.754194500000011, 65.0401316 ], [ 176.7526603, 65.0396562 ], [ 176.751737600000013, 65.039371 ], [ 176.751211899999987, 65.0392804 ], [ 176.750224800000012, 65.0391356 ], [ 176.749076800000012, 65.0389363 ], [ 176.7485618, 65.0387824 ], [ 176.748315100000013, 65.0386556 ], [ 176.747896700000013, 65.0383161 ], [ 176.7478645, 65.0379991 ], [ 176.7477465, 65.0378089 ], [ 176.7474675, 65.037655 ], [ 176.7467809, 65.0374694 ], [ 176.74559, 65.0371026 ], [ 176.7426395, 65.0360566 ], [ 176.7368674, 65.0334483 ], [ 176.7299366, 65.0302963 ], [ 176.7243147, 65.0270533 ], [ 176.7183709, 65.0240817 ], [ 176.7172122, 65.023529 ], [ 176.7162681, 65.0231122 ], [ 176.715484800000013, 65.0228857 ], [ 176.7116976, 65.0219706 ], [ 176.7109465, 65.0217984 ], [ 176.7101097, 65.021667 ], [ 176.708768600000013, 65.0215039 ], [ 176.7073524, 65.0214224 ], [ 176.70563580000001, 65.0212729 ], [ 176.7023849, 65.0209557 ], [ 176.7006683, 65.0208198 ], [ 176.6990912, 65.0207247 ], [ 176.6961837, 65.0205117 ], [ 176.69401640000001, 65.0203124 ], [ 176.6923213, 65.020104 ], [ 176.689649800000012, 65.0198095 ], [ 176.683512900000011, 65.0189667 ], [ 176.6817963, 65.0187039 ], [ 176.6807449, 65.018491 ], [ 176.679221399999989, 65.0181239 ], [ 176.6758525, 65.0171452 ], [ 176.672537299999988, 65.0162616 ], [ 176.669426, 65.0155954 ], [ 176.6661537, 65.0149701 ], [ 176.6633534, 65.0145577 ], [ 176.6591048, 65.0141408 ], [ 176.6567015, 65.0138054 ], [ 176.655478499999987, 65.0136423 ], [ 176.6545343, 65.0134157 ], [ 176.6535687, 65.0132253 ], [ 176.6523456, 65.0132072 ], [ 176.651144, 65.0132888 ], [ 176.649212799999987, 65.0135154 ], [ 176.6480326, 65.0135245 ], [ 176.6459662, 65.0133929 ], [ 176.644749600000011, 65.0132707 ], [ 176.643333399999989, 65.0130713 ], [ 176.6418314, 65.0127903 ], [ 176.6393637, 65.012183 ], [ 176.633184, 65.0109253 ], [ 176.632202299999989, 65.0107848 ], [ 176.631403, 65.0106941 ], [ 176.6310114, 65.0106987 ], [ 176.630654600000014, 65.0107032 ], [ 176.6303891, 65.0106862 ], [ 176.630249600000013, 65.0106601 ], [ 176.6299492, 65.0105785 ], [ 176.629541499999988, 65.0104267 ], [ 176.6292947, 65.0103134 ], [ 176.6290855, 65.0102567 ], [ 176.6284525, 65.0101684 ], [ 176.628028699999987, 65.0101344 ], [ 176.6272831, 65.010089 ], [ 176.6259742, 65.0099304 ], [ 176.6256309, 65.0098601 ], [ 176.625191, 65.0097174 ], [ 176.6246009, 65.0094046 ], [ 176.624268300000011, 65.0091961 ], [ 176.62384990000001, 65.0090511 ], [ 176.6229808, 65.0088471 ], [ 176.6204059, 65.0083621 ], [ 176.6176701, 65.0078839 ], [ 176.6172302, 65.0078091 ], [ 176.6169459, 65.0077411 ], [ 176.6167045, 65.0077162 ], [ 176.6164952, 65.0077388 ], [ 176.61625380000001, 65.0077932 ], [ 176.6160446, 65.0078612 ], [ 176.615712, 65.0079202 ], [ 176.6153043, 65.0079383 ], [ 176.6149503, 65.007927 ], [ 176.6145104, 65.0078658 ], [ 176.613453600000014, 65.0077184 ], [ 176.6121554, 65.0075507 ], [ 176.6110665, 65.0073739 ], [ 176.609956, 65.0071269 ], [ 176.6075796, 65.0064107 ], [ 176.6053104, 65.0059256 ], [ 176.6045809, 65.0057896 ], [ 176.604071299999987, 65.005699 ], [ 176.6039184, 65.0057103 ], [ 176.6038084, 65.0057454 ], [ 176.6037655, 65.0058021 ], [ 176.6037521, 65.0058678 ], [ 176.6037762, 65.0059755 ], [ 176.603744, 65.0063404 ], [ 176.60345430000001, 65.0072516 ], [ 176.6031754, 65.0078862 ], [ 176.6026604, 65.0086477 ], [ 176.602145400000012, 65.0093366 ], [ 176.6014051, 65.0103021 ], [ 176.6011584, 65.0107145 ], [ 176.6009331, 65.0111224 ], [ 176.6008258, 65.0115802 ], [ 176.6007936, 65.0129489 ], [ 176.6005146, 65.0138371 ], [ 176.600235700000013, 65.0142586 ], [ 176.5999031, 65.0144852 ], [ 176.5994954, 65.014671 ], [ 176.5991521, 65.0149248 ], [ 176.598959, 65.0152148 ], [ 176.598851700000012, 65.0155864 ], [ 176.5987873, 65.0160849 ], [ 176.5988087, 65.0167238 ], [ 176.5985083, 65.0187809 ], [ 176.598122100000012, 65.0201583 ], [ 176.5977144, 65.0210464 ], [ 176.597049199999987, 65.0218619 ], [ 176.5949678, 65.0236966 ], [ 176.5939486, 65.0245302 ], [ 176.5932834, 65.0250375 ], [ 176.5926933, 65.0254362 ], [ 176.5914166, 65.026093 ], [ 176.59083720000001, 65.026469 ], [ 176.5903759, 65.0270306 ], [ 176.5896785, 65.0282038 ], [ 176.588841699999989, 65.0295943 ], [ 176.588316, 65.0301197 ], [ 176.5877581, 65.0305454 ], [ 176.587404, 65.0307311 ], [ 176.587253800000013, 65.0309168 ], [ 176.587200200000012, 65.0311387 ], [ 176.5871894, 65.0313651 ], [ 176.5870392, 65.0320218 ], [ 176.586835400000012, 65.032366 ], [ 176.586535, 65.0327328 ], [ 176.5853548, 65.0336838 ], [ 176.5843677, 65.0343857 ], [ 176.5838206, 65.0346303 ], [ 176.58315540000001, 65.0347978 ], [ 176.582629700000012, 65.0348793 ], [ 176.5821898, 65.0350423 ], [ 176.5818894, 65.0352642 ], [ 176.5816426, 65.0355993 ], [ 176.5814173, 65.035948 ], [ 176.5809896, 65.0363065 ], [ 176.5805054, 65.0365457 ], [ 176.579861599999987, 65.0367675 ], [ 176.578820900000011, 65.0369758 ], [ 176.577640800000012, 65.0372882 ], [ 176.57607440000001, 65.0376731 ], [ 176.5755379, 65.0378406 ], [ 176.5749907, 65.0380444 ], [ 176.57437920000001, 65.0383704 ], [ 176.5733921, 65.038762 ], [ 176.5731132, 65.0388865 ], [ 176.572845, 65.0389477 ], [ 176.5726036, 65.0389771 ], [ 176.5722495, 65.0389952 ], [ 176.5714288, 65.0390993 ], [ 176.5706992, 65.0392171 ], [ 176.5699375, 65.0393982 ], [ 176.5691864, 65.0396426 ], [ 176.568768, 65.0397332 ], [ 176.5678668, 65.0398373 ], [ 176.566633, 65.0399098 ], [ 176.565313300000014, 65.0400275 ], [ 176.564712500000013, 65.0401271 ], [ 176.5642834, 65.0402267 ], [ 176.563983, 65.0403851 ], [ 176.563189, 65.0407926 ], [ 176.5627599, 65.0409827 ], [ 176.5620839, 65.0411819 ], [ 176.561493899999988, 65.0413042 ], [ 176.5607214, 65.0413947 ], [ 176.5596485, 65.0413902 ], [ 176.5577495, 65.0412906 ], [ 176.5557969, 65.0412046 ], [ 176.554863399999988, 65.0411955 ], [ 176.5538335, 65.0412544 ], [ 176.5528679, 65.0413811 ], [ 176.551851199999987, 65.0415925 ], [ 176.551365800000013, 65.0416686 ], [ 176.5510064, 65.0417773 ], [ 176.550550500000014, 65.0419312 ], [ 176.5501964, 65.0420444 ], [ 176.5496814, 65.0421507 ], [ 176.5491879, 65.0421983 ], [ 176.5486515, 65.0421915 ], [ 176.548072100000013, 65.0421349 ], [ 176.5476644, 65.0420444 ], [ 176.5473533, 65.0420285 ], [ 176.547160100000013, 65.0420557 ], [ 176.5469134, 65.042119 ], [ 176.5465969, 65.042196 ], [ 176.5461355, 65.0422752 ], [ 176.5453899, 65.0423658 ], [ 176.5448427, 65.0424201 ], [ 176.5441453, 65.0424586 ], [ 176.5436786, 65.0424722 ], [ 176.5433729, 65.0424903 ], [ 176.54308850000001, 65.0425129 ], [ 176.542949099999987, 65.0425627 ], [ 176.5428418, 65.0426442 ], [ 176.542691600000012, 65.0427483 ], [ 176.5424502, 65.042832 ], [ 176.5422356, 65.042866 ], [ 176.5419674, 65.0428569 ], [ 176.5413558, 65.0427845 ], [ 176.5403581, 65.0426261 ], [ 176.536763900000011, 65.0422141 ], [ 176.5356588, 65.0421009 ], [ 176.5345752, 65.0420602 ], [ 176.533786600000013, 65.0420783 ], [ 176.5333307, 65.0421417 ], [ 176.5330678, 65.0422005 ], [ 176.5327513, 65.0422798 ], [ 176.532375800000011, 65.0422866 ], [ 176.5319359, 65.0422368 ], [ 176.531378, 65.0420919 ], [ 176.530906, 65.0419108 ], [ 176.530509, 65.0417026 ], [ 176.5302408, 65.0415667 ], [ 176.529811599999988, 65.0414807 ], [ 176.5286422, 65.0413992 ], [ 176.5255952, 65.0412906 ], [ 176.524039499999986, 65.0412363 ], [ 176.523267, 65.0412182 ], [ 176.5224302, 65.0412317 ], [ 176.5217328, 65.0412951 ], [ 176.5204775, 65.0414264 ], [ 176.518245900000011, 65.0417207 ], [ 176.5172052, 65.0418248 ], [ 176.5164864, 65.0419742 ], [ 176.5160251, 65.0421281 ], [ 176.5155101, 65.0424857 ], [ 176.5152526, 65.0427483 ], [ 176.5149307, 65.0431512 ], [ 176.514405, 65.043545 ], [ 176.5131175, 65.0442059 ], [ 176.5102315, 65.045487 ], [ 176.508429, 65.0459713 ], [ 176.506669499999987, 65.0465009 ], [ 176.5051997, 65.0468811 ], [ 176.50448080000001, 65.047001 ], [ 176.5039337, 65.0470621 ], [ 176.5034616, 65.0471323 ], [ 176.5030807, 65.0472341 ], [ 176.5027589, 65.0473925 ], [ 176.5022922, 65.0476279 ], [ 176.5019649, 65.0477456 ], [ 176.5015089, 65.0478361 ], [ 176.5009779, 65.0478633 ], [ 176.500162499999988, 65.047861 ], [ 176.4995563, 65.0478587 ], [ 176.49912710000001, 65.0478678 ], [ 176.4986712, 65.0478791 ], [ 176.4984029, 65.0479266 ], [ 176.4981884, 65.0480013 ], [ 176.4977217, 65.0481756 ], [ 176.4971423, 65.0483362 ], [ 176.4959943, 65.0485897 ], [ 176.495152100000013, 65.0488228 ], [ 176.4947444, 65.0489563 ], [ 176.4944601, 65.0491305 ], [ 176.494030900000013, 65.0493613 ], [ 176.49353210000001, 65.049565 ], [ 176.493119, 65.0497053 ], [ 176.492850800000014, 65.0498637 ], [ 176.4926898, 65.05009 ], [ 176.492668400000014, 65.0503932 ], [ 176.49241090000001, 65.0511988 ], [ 176.4920783, 65.0516649 ], [ 176.4911985, 65.0522713 ], [ 176.4906514, 65.0527012 ], [ 176.4900935, 65.0533347 ], [ 176.489825200000013, 65.0538777 ], [ 176.489675, 65.0542307 ], [ 176.489535600000011, 65.0545474 ], [ 176.4891279, 65.0548868 ], [ 176.488333899999986, 65.0552624 ], [ 176.4875615, 65.0554162 ], [ 176.4870143, 65.055552 ], [ 176.486842599999989, 65.0556696 ], [ 176.4867568, 65.055837 ], [ 176.486842599999989, 65.0559909 ], [ 176.487207399999988, 65.056208 ], [ 176.487497100000013, 65.0564795 ], [ 176.4877975, 65.0571808 ], [ 176.48784040000001, 65.0574794 ], [ 176.4878297, 65.0578866 ], [ 176.487679500000013, 65.0583391 ], [ 176.487153799999987, 65.0587644 ], [ 176.4863169, 65.0592303 ], [ 176.485565900000012, 65.0596149 ], [ 176.4849758, 65.0599497 ], [ 176.484611, 65.0603433 ], [ 176.4842784, 65.0606464 ], [ 176.4839888, 65.0609495 ], [ 176.4837527, 65.0611282 ], [ 176.483296700000011, 65.0613476 ], [ 176.4817572, 65.0619356 ], [ 176.4792573, 65.0630123 ], [ 176.4781308, 65.063442 ], [ 176.4775407, 65.0637632 ], [ 176.4771974, 65.0639848 ], [ 176.4767253, 65.0641748 ], [ 176.476205, 65.0642607 ], [ 176.475797300000011, 65.0643715 ], [ 176.4755398, 65.0644665 ], [ 176.4753681, 65.0645819 ], [ 176.4751536, 65.0647492 ], [ 176.474981899999989, 65.0648329 ], [ 176.474697600000013, 65.0649234 ], [ 176.474311300000011, 65.0650138 ], [ 176.4739305, 65.0650636 ], [ 176.473571099999987, 65.0650659 ], [ 176.4732036, 65.0650025 ], [ 176.4730829, 65.0649822 ], [ 176.472997099999986, 65.0649833 ], [ 176.4729166, 65.0649935 ], [ 176.4728174, 65.0650251 ], [ 176.4726564, 65.0650919 ], [ 176.4723051, 65.0651812 ], [ 176.4708459, 65.0655317 ], [ 176.470384599999988, 65.065577 ], [ 176.4700413, 65.065586 ], [ 176.468818199999987, 65.0655317 ], [ 176.468035, 65.0655227 ], [ 176.4675629, 65.0655408 ], [ 176.467284, 65.065586 ], [ 176.4667153, 65.0657308 ], [ 176.464666099999988, 65.0661152 ], [ 176.463646899999986, 65.0662599 ], [ 176.4624452, 65.0662509 ], [ 176.4613616, 65.0660881 ], [ 176.4606106, 65.0658438 ], [ 176.4601815, 65.0655091 ], [ 176.4599562, 65.0654096 ], [ 176.4595699, 65.0653146 ], [ 176.459097899999989, 65.065292 ], [ 176.4584327, 65.0652965 ], [ 176.455632400000013, 65.0654096 ], [ 176.4551496, 65.0654209 ], [ 176.454892199999989, 65.0654503 ], [ 176.4546078, 65.0655159 ], [ 176.4545166, 65.0655815 ], [ 176.4545113, 65.0656697 ], [ 176.454613200000011, 65.0657421 ], [ 176.454806, 65.0658204 ], [ 176.455396400000012, 65.0659388 ], [ 176.4557451, 65.0660541 ], [ 176.4558738, 65.0661944 ], [ 176.455997200000013, 65.0664047 ], [ 176.4558792, 65.0669203 ], [ 176.4556646, 65.067463 ], [ 176.4552569, 65.06825 ], [ 176.454849200000012, 65.0692992 ], [ 176.4545488, 65.0704614 ], [ 176.4529073, 65.0744317 ], [ 176.4528, 65.0746804 ], [ 176.452446, 65.0749878 ], [ 176.4520705, 65.0751822 ], [ 176.451652, 65.0753495 ], [ 176.4509439, 65.0755033 ], [ 176.4500856, 65.0756299 ], [ 176.44920590000001, 65.0756299 ], [ 176.4481008, 65.0755304 ], [ 176.4471996, 65.0753812 ], [ 176.4437663, 65.0748567 ], [ 176.4412022, 65.0744904 ], [ 176.439614299999988, 65.0743005 ], [ 176.438359, 65.0742056 ], [ 176.4369857, 65.0741242 ], [ 176.4362132, 65.0740677 ], [ 176.435778699999986, 65.0739682 ], [ 176.4352369, 65.0737986 ], [ 176.4346683, 65.0735997 ], [ 176.4306986, 65.0724059 ], [ 176.4289498, 65.0717774 ], [ 176.428113, 65.0714473 ], [ 176.4271688, 65.0709544 ], [ 176.4266431, 65.0706107 ], [ 176.426374900000013, 65.0703122 ], [ 176.426267599999989, 65.0700635 ], [ 176.4260155, 65.0698351 ], [ 176.425044500000013, 65.0694349 ], [ 176.423499600000014, 65.0688017 ], [ 176.4220405, 65.0682274 ], [ 176.4207959, 65.0679176 ], [ 176.4205331, 65.0678723 ], [ 176.4203292, 65.0678655 ], [ 176.4199912, 65.067904 ], [ 176.419529899999986, 65.0680962 ], [ 176.418972, 65.068259 ], [ 176.41867160000001, 65.0682635 ], [ 176.4181888, 65.0682047 ], [ 176.417352, 65.0680691 ], [ 176.4163542, 65.0677118 ], [ 176.4159465, 65.0674449 ], [ 176.4158177, 65.0671193 ], [ 176.4159465, 65.0667303 ], [ 176.415919699999989, 65.066615 ], [ 176.4157534, 65.0664544 ], [ 176.415163299999989, 65.0662283 ], [ 176.414541, 65.0661197 ], [ 176.4136398, 65.0660293 ], [ 176.4143905, 65.0621232 ], [ 176.414679400000011, 65.05838 ], [ 176.4178857, 65.0574405 ], [ 176.4211127, 65.0549531 ], [ 176.4229867, 65.0536339 ], [ 176.423883100000012, 65.0529179 ], [ 176.4261065, 65.0507448 ], [ 176.425701800000013, 65.0484877 ], [ 176.4258317, 65.0467879 ], [ 176.4252505, 65.0460624 ], [ 176.4241428, 65.0459022 ], [ 176.4234717, 65.0456131 ], [ 176.4216548, 65.0439588 ], [ 176.4214785, 65.0434418 ], [ 176.4216223, 65.0428754 ], [ 176.4225128, 65.0422461 ], [ 176.4213853, 65.0406337 ], [ 176.42086230000001, 65.0385853 ], [ 176.4282615, 65.0373787 ], [ 176.4362605, 65.0360742 ], [ 176.4436202, 65.0357303 ], [ 176.4451558, 65.0355081 ], [ 176.4478695, 65.0351071 ], [ 176.4483295, 65.0349373 ], [ 176.4490902, 65.0346002 ], [ 176.4504081, 65.0331876 ], [ 176.4514834, 65.0327175 ], [ 176.452797800000013, 65.0323199 ], [ 176.4549284, 65.0322081 ], [ 176.4573115, 65.0327775 ], [ 176.459065, 65.0329293 ], [ 176.4611453, 65.0326649 ], [ 176.463130299999989, 65.0313845 ], [ 176.4642953, 65.0308195 ], [ 176.4667552, 65.0289958 ], [ 176.468507499999987, 65.0284308 ], [ 176.471295199999986, 65.0285637 ], [ 176.47644360000001, 65.0284326 ], [ 176.479119, 65.0275766 ], [ 176.4814015, 65.0266999 ], [ 176.4819067, 65.0251277 ], [ 176.4817464, 65.0236043 ], [ 176.4807377, 65.0225836 ], [ 176.478517399999987, 65.0210666 ], [ 176.4780848, 65.0200203 ], [ 176.4782521, 65.0167824 ], [ 176.4766979, 65.0152892 ], [ 176.476953, 65.0119245 ], [ 176.480512800000014, 65.0095747 ], [ 176.481994, 65.0073546 ], [ 176.482643, 65.0050554 ], [ 176.485143, 65.0035678 ], [ 176.4878138, 65.0033259 ], [ 176.488440200000014, 65.0022622 ], [ 176.4944916, 65.0018987 ], [ 176.4952304, 65.0016521 ], [ 176.4955072, 65.0012974 ], [ 176.495962100000014, 65.0009772 ], [ 176.4961123, 65.0009364 ], [ 176.4971745, 65.0007119 ], [ 176.4976197, 65.000492 ], [ 176.4977002, 65.0003946 ], [ 176.4976466, 65.0002676 ], [ 176.49754674271685, 65.0 ], [ 175.0, 65.0 ], [ 175.0, 69.840977365608879 ], [ 175.0011513, 69.8410823 ] ] ], [ [ [ 176.8449834, 65.0005453 ], [ 176.8561618, 65.0029113 ], [ 176.8672199, 65.0054934 ], [ 176.871804, 65.0074555 ], [ 176.8755146, 65.0094172 ], [ 176.8768895, 65.0102567 ], [ 176.8777263, 65.0109955 ], [ 176.878037400000011, 65.011553 ], [ 176.878423700000013, 65.0124957 ], [ 176.8783915, 65.0127971 ], [ 176.8784559, 65.0128718 ], [ 176.8800759, 65.0138371 ], [ 176.8801779, 65.0138621 ], [ 176.880698200000012, 65.0139618 ], [ 176.8815826, 65.014528 ], [ 176.882468499999987, 65.0154867 ], [ 176.8854379, 65.0179003 ], [ 176.8939982, 65.0211494 ], [ 176.9007614, 65.0224794 ], [ 176.913270899999986, 65.0228314 ], [ 176.9237812, 65.0234739 ], [ 176.9375217, 65.0233505 ], [ 176.9415951, 65.0238824 ], [ 176.9418794, 65.0239141 ], [ 176.9421261, 65.0239141 ], [ 176.943413600000014, 65.0238235 ], [ 176.9458491, 65.023674 ], [ 176.948899, 65.023747 ], [ 176.954802300000011, 65.0240557 ], [ 176.9574308, 65.0241134 ], [ 176.9606226, 65.0243128 ], [ 176.963213700000011, 65.0245528 ], [ 176.965198500000014, 65.0249152 ], [ 176.9661131, 65.0251446 ], [ 176.96684, 65.0255585 ], [ 176.9670116, 65.0256196 ], [ 176.9672048, 65.0256491 ], [ 176.971653300000014, 65.025779 ], [ 176.9745111, 65.0260613 ], [ 176.9773865, 65.0265052 ], [ 176.9831049, 65.0273387 ], [ 176.989024699999987, 65.0279421 ], [ 176.9936889, 65.0280996 ], [ 176.9946438, 65.0281789 ], [ 176.9953305, 65.0283114 ], [ 176.995381400000014, 65.0283295 ], [ 176.9954028, 65.02836 ], [ 176.9953023, 65.028646 ], [ 176.9952017, 65.028779 ], [ 176.9951749, 65.028907 ], [ 176.995158800000013, 65.0291006 ], [ 176.9951642, 65.0292138 ], [ 176.9955075, 65.0297324 ], [ 176.9958991, 65.0302646 ], [ 176.9970578, 65.0315757 ], [ 176.9980718, 65.0324424 ], [ 176.9987476, 65.0328619 ], [ 176.999600500000014, 65.0332989 ], [ 177.0014512, 65.0342068 ], [ 177.0031303, 65.0348657 ], [ 177.005392699999987, 65.0356208 ], [ 177.0062685, 65.0358778 ], [ 177.007250199999987, 65.0361019 ], [ 177.0080709, 65.0362287 ], [ 177.0085269, 65.0362627 ], [ 177.0087843, 65.0362446 ], [ 177.009111600000011, 65.0361563 ], [ 177.0093477, 65.0360521 ], [ 177.009680300000014, 65.0357963 ], [ 177.009841200000011, 65.0356695 ], [ 177.0099401, 65.0355146 ], [ 177.0100343, 65.0351238 ], [ 177.010071900000014, 65.0347321 ], [ 177.009986, 65.033951 ], [ 177.009889500000014, 65.0334687 ], [ 177.0098573, 65.0327985 ], [ 177.009782199999989, 65.0321577 ], [ 177.0097768, 65.0317705 ], [ 177.0098036, 65.0314308 ], [ 177.009779, 65.0309159 ], [ 177.0097285, 65.0301672 ], [ 177.009707100000014, 65.0294267 ], [ 177.0098573, 65.0284393 ], [ 177.01008250000001, 65.0274632 ], [ 177.0104983, 65.0261122 ], [ 177.0110053, 65.0251429 ], [ 177.011804500000011, 65.0234567 ], [ 177.011936, 65.0231111 ], [ 177.012164, 65.0227226 ], [ 177.0126924, 65.0219627 ], [ 177.0130062, 65.0217033 ], [ 177.013196599999986, 65.0214892 ], [ 177.0134032, 65.0211664 ], [ 177.0135641, 65.0209365 ], [ 177.013912800000014, 65.0203599 ], [ 177.014055, 65.020096 ], [ 177.014342, 65.0197076 ], [ 177.0150903, 65.0188863 ], [ 177.0151466, 65.0188296 ], [ 177.0151868, 65.0187549 ], [ 177.0152754, 65.0186427 ], [ 177.0153666, 65.0185578 ], [ 177.0154953, 65.0184853 ], [ 177.0157582, 65.0182565 ], [ 177.016431399999988, 65.017655 ], [ 177.016747900000013, 65.0173072 ], [ 177.0171073, 65.0167034 ], [ 177.017579399999988, 65.0159614 ], [ 177.0180327, 65.015336 ], [ 177.0181614, 65.015106 ], [ 177.0182177, 65.0149599 ], [ 177.0182955, 65.0144489 ], [ 177.0183867, 65.013146 ], [ 177.0184538, 65.0117819 ], [ 177.0186228, 65.0094477 ], [ 177.0188177, 65.0070269 ], [ 177.0188647, 65.0063991 ], [ 177.0193351, 65.0057671 ], [ 177.0195985, 65.0053775 ], [ 177.0201535, 65.0050595 ], [ 177.0205039, 65.004754 ], [ 177.0207599, 65.0035887 ], [ 177.021209, 65.0009934 ], [ 177.0215483, 65.0006561 ], [ 177.021974, 65.0004452 ], [ 177.0222142, 65.0001866 ], [ 177.022256295143848, 65.0 ], [ 176.839316349265602, 65.0 ], [ 176.8449834, 65.0005453 ] ] ] ] } }
]
}
