{
"type": "FeatureCollection",
"name": "175_-15",
"crs": { "type": "name", "properties": { "name": "urn:ogc:def:crs:OGC:1.3:CRS84" } },
"xy_coordinate_resolution": 1e-15,
"features": [
{ "type": "Feature", "properties": { "FID": 77213, "id": 2577, "left": 175.0, "top": -10.0, "right": 180.0, "bottom": -15.0, "row_index": 20, "col_index": 71, "min_lon": 175.0, "min_lat": -15.0, "tile_id": "175_-15" }, "geometry": { "type": "MultiPolygon", "coordinates": [ [ [ [ 176.9370327, -12.4986735 ], [ 176.936679199999986, -12.4987788 ], [ 176.9365953, -12.498701 ], [ 176.93644, -12.498683 ], [ 176.9363023, -12.4987923 ], [ 176.936203299999988, -12.4987906 ], [ 176.9361482, -12.4988991 ], [ 176.9359663, -12.498782 ], [ 176.9358416, -12.4988642 ], [ 176.9356587, -12.4988524 ], [ 176.9356066, -12.4987899 ], [ 176.9354327, -12.4987681 ], [ 176.9351136, -12.4986605 ], [ 176.9350184, -12.4985819 ], [ 176.9348229, -12.4985272 ], [ 176.9344586, -12.4982718 ], [ 176.9344635, -12.4981121 ], [ 176.9342805, -12.498027 ], [ 176.934278400000011, -12.4979291 ], [ 176.9342629, -12.4977904 ], [ 176.9344558, -12.497696 ], [ 176.9341966, -12.4976531 ], [ 176.934136, -12.4975001 ], [ 176.933758, -12.4970199 ], [ 176.9338352, -12.496602 ], [ 176.9338956, -12.496482 ], [ 176.933976800000011, -12.4962891 ], [ 176.9340961, -12.4961412 ], [ 176.9342327, -12.4960902 ], [ 176.934318600000012, -12.4959761 ], [ 176.9344563, -12.4959617 ], [ 176.934513399999986, -12.495884 ], [ 176.9345461, -12.4958373 ], [ 176.9346526, -12.4958307 ], [ 176.9347594, -12.4958549 ], [ 176.934752, -12.4957506 ], [ 176.9347649, -12.495698 ], [ 176.9348563, -12.4956803 ], [ 176.934914600000013, -12.4956218 ], [ 176.935065, -12.4955348 ], [ 176.9351373, -12.4954697 ], [ 176.935406, -12.495296 ], [ 176.935482400000012, -12.4951758 ], [ 176.9356588, -12.4951661 ], [ 176.9359164, -12.4951693 ], [ 176.9360873, -12.4952489 ], [ 176.936307699999986, -12.4953264 ], [ 176.936251199999987, -12.4955668 ], [ 176.936102, -12.4956142 ], [ 176.9362989, -12.4957967 ], [ 176.936201, -12.4959698 ], [ 176.936218700000012, -12.4963196 ], [ 176.9360398, -12.496245 ], [ 176.935822800000011, -12.4962091 ], [ 176.9354377, -12.4963401 ], [ 176.9352566, -12.4964854 ], [ 176.9351292, -12.4965721 ], [ 176.935114700000014, -12.4966966 ], [ 176.935050100000012, -12.4969077 ], [ 176.934997900000013, -12.4971623 ], [ 176.935035199999987, -12.4973564 ], [ 176.934869, -12.4975378 ], [ 176.9345606, -12.4976587 ], [ 176.934877300000011, -12.4976002 ], [ 176.935087399999986, -12.4976814 ], [ 176.9352041, -12.4980016 ], [ 176.9354526, -12.4982781 ], [ 176.935681100000011, -12.4983703 ], [ 176.9360141, -12.4983945 ], [ 176.9362451, -12.4983388 ], [ 176.936555700000014, -12.4982733 ], [ 176.9369035, -12.4981496 ], [ 176.9371285, -12.4976313 ], [ 176.9373358, -12.4975577 ], [ 176.9375287, -12.4975352 ], [ 176.937735800000013, -12.4976693 ], [ 176.9374824, -12.4981132 ], [ 176.9373457, -12.4982781 ], [ 176.9371917, -12.4984261 ], [ 176.9371346, -12.4985522 ], [ 176.9370327, -12.4986735 ] ] ] ] } },
{ "type": "Feature", "properties": { "FID": 77234, "id": 2577, "left": 175.0, "top": -10.0, "right": 180.0, "bottom": -15.0, "row_index": 20, "col_index": 71, "min_lon": 175.0, "min_lat": -15.0, "tile_id": "175_-15" }, "geometry": { "type": "MultiPolygon", "coordinates": [ [ [ [ 176.993979, -12.4691977 ], [ 176.993415199999987, -12.4691802 ], [ 176.9933634, -12.4691027 ], [ 176.9931829, -12.4689806 ], [ 176.992883299999988, -12.4689717 ], [ 176.9927379, -12.4690029 ], [ 176.9927184, -12.4691451 ], [ 176.992502699999989, -12.4692087 ], [ 176.99236160000001, -12.4691577 ], [ 176.992198800000011, -12.4692703 ], [ 176.9919276, -12.4692394 ], [ 176.9918386, -12.4692965 ], [ 176.9916586, -12.4692386 ], [ 176.9915527, -12.469341 ], [ 176.9914212, -12.4693054 ], [ 176.9912721, -12.469149 ], [ 176.9910806, -12.4690333 ], [ 176.9909572, -12.4690173 ], [ 176.990860700000013, -12.4690694 ], [ 176.990731899999986, -12.4689515 ], [ 176.990656800000011, -12.4690068 ], [ 176.9905231, -12.4688527 ], [ 176.9903669, -12.4688465 ], [ 176.990340300000014, -12.4687366 ], [ 176.9901453, -12.4687056 ], [ 176.9900758, -12.4685349 ], [ 176.9890888, -12.468213 ], [ 176.9890102, -12.4681428 ], [ 176.988742800000011, -12.4679003 ], [ 176.9887575, -12.4678144 ], [ 176.9886803, -12.4678246 ], [ 176.9886301, -12.4677285 ], [ 176.988744700000012, -12.4676436 ], [ 176.988537900000011, -12.4676447 ], [ 176.98817360000001, -12.4679163 ], [ 176.987854199999987, -12.4678956 ], [ 176.9878075, -12.4677251 ], [ 176.9876898, -12.4676743 ], [ 176.9876085, -12.4677337 ], [ 176.9870278, -12.4673267 ], [ 176.9869143, -12.4671688 ], [ 176.9867073, -12.4671934 ], [ 176.9866163, -12.4671154 ], [ 176.9866163, -12.4668739 ], [ 176.9867931, -12.4665974 ], [ 176.9869696, -12.4665628 ], [ 176.9868792, -12.4664879 ], [ 176.986868500000014, -12.4663059 ], [ 176.986701399999987, -12.4660655 ], [ 176.986565899999988, -12.4658952 ], [ 176.9865871, -12.4656726 ], [ 176.9865589, -12.4655652 ], [ 176.9866241, -12.4654964 ], [ 176.986413, -12.4649032 ], [ 176.986545, -12.4648 ], [ 176.9864246, -12.4647046 ], [ 176.9864082, -12.4642822 ], [ 176.9863484, -12.4641368 ], [ 176.9862156, -12.4640693 ], [ 176.9862041, -12.4638728 ], [ 176.9866072, -12.4635711 ], [ 176.9868296, -12.4631791 ], [ 176.98702080000001, -12.4631304 ], [ 176.987371599999989, -12.462385 ], [ 176.9873782, -12.4621596 ], [ 176.987449199999986, -12.4619851 ], [ 176.9877549, -12.4619143 ], [ 176.988076299999989, -12.4620704 ], [ 176.9883391, -12.4621768 ], [ 176.9888584, -12.4625746 ], [ 176.9890883, -12.4624981 ], [ 176.9892535, -12.4625552 ], [ 176.9893189, -12.4628446 ], [ 176.989873100000011, -12.4630222 ], [ 176.990324500000014, -12.462797 ], [ 176.990584399999989, -12.4625191 ], [ 176.99080570000001, -12.4623821 ], [ 176.9909824, -12.4620364 ], [ 176.9913424, -12.4618868 ], [ 176.9923804, -12.4619877 ], [ 176.9924949, -12.4620867 ], [ 176.992625299999986, -12.4620094 ], [ 176.992836399999987, -12.462012 ], [ 176.9930434, -12.4621566 ], [ 176.9931818, -12.4621433 ], [ 176.9934978, -12.462243 ], [ 176.993599499999988, -12.4623934 ], [ 176.9937, -12.4624877 ], [ 176.99389020000001, -12.4625413 ], [ 176.9940541, -12.462649 ], [ 176.9940756, -12.4627448 ], [ 176.9942089, -12.4628499 ], [ 176.994549799999987, -12.4630193 ], [ 176.9948681, -12.463128 ], [ 176.9950278, -12.4632892 ], [ 176.9949808, -12.4635043 ], [ 176.995058, -12.4637065 ], [ 176.9952463, -12.4639642 ], [ 176.9955596, -12.4642497 ], [ 176.995916099999988, -12.4650579 ], [ 176.99594, -12.4655461 ], [ 176.996059, -12.4657507 ], [ 176.9956846, -12.466997 ], [ 176.995312899999988, -12.4671214 ], [ 176.9951283, -12.4670874 ], [ 176.9952002, -12.4672909 ], [ 176.9950312, -12.4675538 ], [ 176.995121899999987, -12.467624 ], [ 176.9953, -12.4675897 ], [ 176.9955749, -12.4678511 ], [ 176.9954947, -12.4680281 ], [ 176.995398099999989, -12.467973 ], [ 176.995222500000011, -12.4682313 ], [ 176.995088399999986, -12.4682295 ], [ 176.9950543, -12.4685341 ], [ 176.9947936, -12.4689618 ], [ 176.994891700000011, -12.4684794 ], [ 176.9947869, -12.4681829 ], [ 176.994472800000011, -12.4683395 ], [ 176.9944497, -12.4686404 ], [ 176.9943819, -12.4688717 ], [ 176.993979, -12.4691977 ] ] ] ] } },
{ "type": "Feature", "properties": { "FID": 77242, "id": 2577, "left": 175.0, "top": -10.0, "right": 180.0, "bottom": -15.0, "row_index": 20, "col_index": 71, "min_lon": 175.0, "min_lat": -15.0, "tile_id": "175_-15" }, "geometry": { "type": "MultiPolygon", "coordinates": [ [ [ [ 176.962558, -12.4762769 ], [ 176.9626149, -12.4760339 ], [ 176.9628997, -12.4760003 ], [ 176.9631111, -12.4760951 ], [ 176.9631937, -12.4760163 ], [ 176.9631172, -12.4757853 ], [ 176.9633718, -12.4756067 ], [ 176.9635657, -12.475711 ], [ 176.963540200000011, -12.4762295 ], [ 176.9632551, -12.4764314 ], [ 176.9630936, -12.4765678 ], [ 176.9628858, -12.4765113 ], [ 176.9627954, -12.4763976 ], [ 176.962558, -12.4762769 ] ] ] ] } },
{ "type": "Feature", "properties": { "FID": 136747, "id": 2577, "left": 175.0, "top": -10.0, "right": 180.0, "bottom": -15.0, "row_index": 20, "col_index": 71, "min_lon": 175.0, "min_lat": -15.0, "tile_id": "175_-15" }, "geometry": { "type": "MultiPolygon", "coordinates": [ [ [ [ 177.1193423, -12.5225067 ], [ 177.120307700000012, -12.5232261 ], [ 177.120622200000014, -12.5233679 ], [ 177.120805499999989, -12.5238406 ], [ 177.1212392, -12.5245076 ], [ 177.1213411, -12.5251939 ], [ 177.1211061, -12.5254524 ], [ 177.120688800000011, -12.5256236 ], [ 177.120507300000014, -12.5258598 ], [ 177.1202169, -12.5259307 ], [ 177.1198573, -12.5256011 ], [ 177.11964230000001, -12.5255764 ], [ 177.1195152, -12.5257299 ], [ 177.1192854, -12.5258421 ], [ 177.11898, -12.526185 ], [ 177.1187773, -12.526474 ], [ 177.1184748, -12.5264444 ], [ 177.1178438, -12.526367 ], [ 177.1175743, -12.5266362 ], [ 177.116986700000012, -12.5268164 ], [ 177.1164396, -12.5266964 ], [ 177.1151489, -12.5265529 ], [ 177.1145749, -12.5253181 ], [ 177.114470899999986, -12.5239052 ], [ 177.1150685, -12.5227437 ], [ 177.1157101, -12.5221365 ], [ 177.116897599999987, -12.522206 ], [ 177.1181995, -12.5220993 ], [ 177.1193423, -12.5225067 ] ] ] ] } },
{ "type": "Feature", "properties": { "FID": 232064, "id": 2577, "left": 175.0, "top": -10.0, "right": 180.0, "bottom": -15.0, "row_index": 20, "col_index": 71, "min_lon": 175.0, "min_lat": -15.0, "tile_id": "175_-15" }, "geometry": { "type": "MultiPolygon", "coordinates": [ [ [ [ 176.96198, -12.4776453 ], [ 176.962012499999986, -12.4778001 ], [ 176.962126399999988, -12.4778279 ], [ 176.962301200000013, -12.4778001 ], [ 176.9624191, -12.4777763 ], [ 176.96254110000001, -12.4777565 ], [ 176.9626346, -12.4777604 ], [ 176.9627118, -12.4777445 ], [ 176.962870400000014, -12.4777803 ], [ 176.9630899, -12.4779033 ], [ 176.963053300000013, -12.4780026 ], [ 176.9629679, -12.4781018 ], [ 176.9627281, -12.478463 ], [ 176.962334, -12.478979 ], [ 176.961976, -12.4793403 ], [ 176.961667, -12.4795189 ], [ 176.9613133, -12.4795983 ], [ 176.961053099999987, -12.4795943 ], [ 176.960797, -12.4795864 ], [ 176.960396300000014, -12.4794092 ], [ 176.9602563, -12.479368 ], [ 176.9601953, -12.4792688 ], [ 176.9601839, -12.4790968 ], [ 176.960242599999987, -12.4789466 ], [ 176.960332599999987, -12.4788041 ], [ 176.9609548, -12.4784689 ], [ 176.961077499999988, -12.4783042 ], [ 176.9611994, -12.4781613 ], [ 176.9614918, -12.4780834 ], [ 176.961732, -12.4777962 ], [ 176.9618011, -12.4775421 ], [ 176.96198, -12.4776453 ] ] ] ] } },
{ "type": "Feature", "properties": { "FID": 270214, "id": 2577, "left": 175.0, "top": -10.0, "right": 180.0, "bottom": -15.0, "row_index": 20, "col_index": 71, "min_lon": 175.0, "min_lat": -15.0, "tile_id": "175_-15" }, "geometry": { "type": "MultiPolygon", "coordinates": [ [ [ [ 179.4686505, -10.7876551 ], [ 179.468811100000011, -10.7874974 ], [ 179.468983, -10.7873596 ], [ 179.4691956, -10.7872152 ], [ 179.4694919, -10.787093 ], [ 179.46985380000001, -10.7869841 ], [ 179.4701025, -10.7869042 ], [ 179.4704418, -10.7868242 ], [ 179.470946199999986, -10.7867353 ], [ 179.471149700000012, -10.7867131 ], [ 179.4714189, -10.7866953 ], [ 179.4717559, -10.7866642 ], [ 179.4720567, -10.786602 ], [ 179.472289600000011, -10.7865642 ], [ 179.4726718, -10.7865198 ], [ 179.4731807, -10.786482 ], [ 179.4733888, -10.7864731 ], [ 179.4735358, -10.7864887 ], [ 179.47377560000001, -10.786542 ], [ 179.473961, -10.7865842 ], [ 179.474162299999989, -10.7866309 ], [ 179.4745785, -10.7867153 ], [ 179.474825, -10.7867775 ], [ 179.475039900000013, -10.7868153 ], [ 179.4754289, -10.7868531 ], [ 179.4756912, -10.7868708 ], [ 179.4759626, -10.7868619 ], [ 179.4762499, -10.7868553 ], [ 179.4766751, -10.7869064 ], [ 179.476966800000014, -10.786993 ], [ 179.4772586, -10.7871796 ], [ 179.477459900000014, -10.7873329 ], [ 179.4775888, -10.7874751 ], [ 179.4777426, -10.7877595 ], [ 179.4778602, -10.7882016 ], [ 179.4778851, -10.7883905 ], [ 179.4778715, -10.7885305 ], [ 179.4777856, -10.7887526 ], [ 179.4776295, -10.7889904 ], [ 179.477419200000014, -10.7894125 ], [ 179.477100299999989, -10.7899635 ], [ 179.4768221, -10.7903567 ], [ 179.476666, -10.7905078 ], [ 179.4763494, -10.7907189 ], [ 179.4760508, -10.790901 ], [ 179.4757998, -10.7910255 ], [ 179.4753633, -10.7911565 ], [ 179.4749109, -10.7912987 ], [ 179.474521900000013, -10.7914143 ], [ 179.474250500000011, -10.7914942 ], [ 179.4739045, -10.7915698 ], [ 179.4736059, -10.7916231 ], [ 179.4732373, -10.7916364 ], [ 179.4728844, -10.791612 ], [ 179.4725339, -10.791532 ], [ 179.4720318, -10.7913498 ], [ 179.471676699999989, -10.7912099 ], [ 179.4712221, -10.7908833 ], [ 179.4709484, -10.7907189 ], [ 179.4704916, -10.7905522 ], [ 179.47015, -10.7903856 ], [ 179.4697592, -10.7901516 ], [ 179.4695303, -10.7900146 ], [ 179.4691413, -10.789728 ], [ 179.4687274, -10.7893792 ], [ 179.4683834, -10.7888939 ], [ 179.4683416, -10.7887928 ], [ 179.468302, -10.7886595 ], [ 179.468283899999989, -10.7885517 ], [ 179.4682726, -10.7884217 ], [ 179.468285, -10.7882995 ], [ 179.4683042, -10.788134 ], [ 179.4683483, -10.7880207 ], [ 179.4684026, -10.7879385 ], [ 179.4684603, -10.787863 ], [ 179.468521399999986, -10.7878019 ], [ 179.4686505, -10.7876551 ] ] ] ] } },
{ "type": "Feature", "properties": { "FID": 344592, "id": 2577, "left": 175.0, "top": -10.0, "right": 180.0, "bottom": -15.0, "row_index": 20, "col_index": 71, "min_lon": 175.0, "min_lat": -15.0, "tile_id": "175_-15" }, "geometry": { "type": "MultiPolygon", "coordinates": [ [ [ [ 177.0886873, -12.5272683 ], [ 177.0885908, -12.5271243 ], [ 177.088636400000013, -12.5267619 ], [ 177.088693799999987, -12.5265241 ], [ 177.0888697, -12.5262838 ], [ 177.0892881, -12.5258989 ], [ 177.089803100000012, -12.5255951 ], [ 177.0902639, -12.5253519 ], [ 177.0912193, -12.5252286 ], [ 177.0916056, -12.5251631 ], [ 177.0922386, -12.5253411 ], [ 177.092770699999988, -12.5254974 ], [ 177.0933866, -12.5257287 ], [ 177.093483099999986, -12.5261057 ], [ 177.093526, -12.5262445 ], [ 177.0938586, -12.5267367 ], [ 177.093743499999988, -12.527 ], [ 177.0933336, -12.5270003 ], [ 177.0930448, -12.5270686 ], [ 177.0927365, -12.5271176 ], [ 177.0924894, -12.5270344 ], [ 177.0922386, -12.5269357 ], [ 177.091916700000013, -12.5267472 ], [ 177.0916699, -12.5266844 ], [ 177.0914554, -12.5266844 ], [ 177.091133500000012, -12.5267341 ], [ 177.0904147, -12.5269253 ], [ 177.0900928, -12.5271871 ], [ 177.0896851, -12.5275432 ], [ 177.0893096, -12.5275641 ], [ 177.0889019, -12.5275013 ], [ 177.0886873, -12.5272683 ] ] ] ] } },
{ "type": "Feature", "properties": { "FID": 344593, "id": 2577, "left": 175.0, "top": -10.0, "right": 180.0, "bottom": -15.0, "row_index": 20, "col_index": 71, "min_lon": 175.0, "min_lat": -15.0, "tile_id": "175_-15" }, "geometry": { "type": "MultiPolygon", "coordinates": [ [ [ [ 177.1394965, -12.5174365 ], [ 177.139424, -12.5172764 ], [ 177.1394195, -12.5171753 ], [ 177.1394783, -12.5170068 ], [ 177.1396054, -12.5169152 ], [ 177.1397773, -12.516892 ], [ 177.13985310000001, -12.5170382 ], [ 177.1398639, -12.5171953 ], [ 177.1398145, -12.5173706 ], [ 177.1396811, -12.5174609 ], [ 177.1394965, -12.5174365 ] ] ] ] } },
{ "type": "Feature", "properties": { "FID": 347996, "id": 2577, "left": 175.0, "top": -10.0, "right": 180.0, "bottom": -15.0, "row_index": 20, "col_index": 71, "min_lon": 175.0, "min_lat": -15.0, "tile_id": "175_-15" }, "geometry": { "type": "MultiPolygon", "coordinates": [ [ [ [ 177.1473241, -12.5234023 ], [ 177.147056099999986, -12.5231675 ], [ 177.14690490000001, -12.5228925 ], [ 177.147014899999988, -12.5226443 ], [ 177.147276, -12.5225168 ], [ 177.147406600000011, -12.5223021 ], [ 177.1474959, -12.5219332 ], [ 177.1474959, -12.5215239 ], [ 177.1478327, -12.5211415 ], [ 177.1482038, -12.5209 ], [ 177.148602399999987, -12.5207793 ], [ 177.148952799999989, -12.5208799 ], [ 177.1490284, -12.5210275 ], [ 177.148801600000013, -12.5211952 ], [ 177.148588600000011, -12.5213965 ], [ 177.1483824, -12.5220405 ], [ 177.148313699999989, -12.5224497 ], [ 177.148451200000011, -12.5230401 ], [ 177.1484168, -12.5234963 ], [ 177.1479014, -12.5235902 ], [ 177.1473241, -12.5234023 ] ] ] ] } },
{ "type": "Feature", "properties": { "FID": 347997, "id": 2577, "left": 175.0, "top": -10.0, "right": 180.0, "bottom": -15.0, "row_index": 20, "col_index": 71, "min_lon": 175.0, "min_lat": -15.0, "tile_id": "175_-15" }, "geometry": { "type": "MultiPolygon", "coordinates": [ [ [ [ 177.1245604, -12.4794896 ], [ 177.1246257, -12.4793688 ], [ 177.1245913, -12.4792246 ], [ 177.124378299999989, -12.4790736 ], [ 177.124223699999988, -12.4789729 ], [ 177.124151500000011, -12.4788622 ], [ 177.124227100000013, -12.4786006 ], [ 177.1244332, -12.4784664 ], [ 177.1246978, -12.4781342 ], [ 177.1250311, -12.4776645 ], [ 177.1250861, -12.4774029 ], [ 177.1252648, -12.4773156 ], [ 177.1253438, -12.4773794 ], [ 177.125405699999988, -12.4775773 ], [ 177.1252648, -12.4780235 ], [ 177.125388500000014, -12.4781745 ], [ 177.1256985, -12.4788148 ], [ 177.1259828, -12.4792465 ], [ 177.1261553, -12.479415 ], [ 177.1262403, -12.4795478 ], [ 177.1260728, -12.4796723 ], [ 177.125852900000012, -12.4797663 ], [ 177.125368400000013, -12.4797998 ], [ 177.124866700000013, -12.4797361 ], [ 177.1245918, -12.4795985 ], [ 177.1245604, -12.4794896 ] ] ] ] } },
{ "type": "Feature", "properties": { "FID": 347998, "id": 2577, "left": 175.0, "top": -10.0, "right": 180.0, "bottom": -15.0, "row_index": 20, "col_index": 71, "min_lon": 175.0, "min_lat": -15.0, "tile_id": "175_-15" }, "geometry": { "type": "MultiPolygon", "coordinates": [ [ [ [ 177.1235158, -12.4813784 ], [ 177.1233475, -12.4813348 ], [ 177.123258099999987, -12.4811637 ], [ 177.123024500000014, -12.4810462 ], [ 177.1226912, -12.4809389 ], [ 177.1225743, -12.4808651 ], [ 177.122557199999989, -12.4807712 ], [ 177.122560600000014, -12.4806604 ], [ 177.1224335, -12.4805128 ], [ 177.122485, -12.4803786 ], [ 177.1225743, -12.4803619 ], [ 177.122677399999986, -12.4804222 ], [ 177.1227565, -12.48059 ], [ 177.1228355, -12.4807074 ], [ 177.1230142, -12.480741 ], [ 177.1231894, -12.4806839 ], [ 177.1232341, -12.4805833 ], [ 177.1232341, -12.4804692 ], [ 177.123165300000011, -12.4803417 ], [ 177.123240900000013, -12.4801505 ], [ 177.123333699999989, -12.4801438 ], [ 177.1234849, -12.4801606 ], [ 177.12364980000001, -12.4800566 ], [ 177.1239453, -12.4800868 ], [ 177.12409310000001, -12.4801975 ], [ 177.124244299999987, -12.4804222 ], [ 177.12423050000001, -12.4805128 ], [ 177.124051799999989, -12.4806235 ], [ 177.1239866, -12.4807007 ], [ 177.1239797, -12.4808315 ], [ 177.1240622, -12.4810194 ], [ 177.124045, -12.481167 ], [ 177.1237667, -12.4813582 ], [ 177.1235158, -12.4813784 ] ] ] ] } },
{ "type": "Feature", "properties": { "FID": 412410, "id": 2577, "left": 175.0, "top": -10.0, "right": 180.0, "bottom": -15.0, "row_index": 20, "col_index": 71, "min_lon": 175.0, "min_lat": -15.0, "tile_id": "175_-15" }, "geometry": { "type": "MultiPolygon", "coordinates": [ [ [ [ 177.120015099999989, -12.526985 ], [ 177.1199182, -12.5270432 ], [ 177.119779099999988, -12.527019 ], [ 177.1197344, -12.5269123 ], [ 177.1197046, -12.5267716 ], [ 177.119754300000011, -12.526597 ], [ 177.119883499999986, -12.5264418 ], [ 177.120112, -12.5263981 ], [ 177.120226300000013, -12.5264175 ], [ 177.120271, -12.5265 ], [ 177.120211399999988, -12.5267086 ], [ 177.120082200000013, -12.526922 ], [ 177.120015099999989, -12.526985 ] ] ] ] } },
{ "type": "Feature", "properties": { "FID": 422223, "id": 2577, "left": 175.0, "top": -10.0, "right": 180.0, "bottom": -15.0, "row_index": 20, "col_index": 71, "min_lon": 175.0, "min_lat": -15.0, "tile_id": "175_-15" }, "geometry": { "type": "MultiPolygon", "coordinates": [ [ [ [ 177.1398064, -12.516521 ], [ 177.1397689, -12.5165498 ], [ 177.139728600000012, -12.5165498 ], [ 177.139715200000012, -12.5164974 ], [ 177.139763499999987, -12.5164189 ], [ 177.13983060000001, -12.516411 ], [ 177.1398681, -12.516432 ], [ 177.1398332, -12.5165053 ], [ 177.1398064, -12.516521 ] ] ] ] } },
{ "type": "Feature", "properties": { "FID": 443682, "id": 2577, "left": 175.0, "top": -10.0, "right": 180.0, "bottom": -15.0, "row_index": 20, "col_index": 71, "min_lon": 175.0, "min_lat": -15.0, "tile_id": "175_-15" }, "geometry": { "type": "MultiPolygon", "coordinates": [ [ [ [ 177.032184300000011, -12.5196407 ], [ 177.0321213, -12.5194237 ], [ 177.031976, -12.5189981 ], [ 177.0317771, -12.5186021 ], [ 177.031494400000014, -12.5181957 ], [ 177.0311465, -12.517908 ], [ 177.0304875, -12.5175476 ], [ 177.0296397, -12.5171773 ], [ 177.0291042, -12.5173744 ], [ 177.028475500000013, -12.5172393 ], [ 177.028194899999988, -12.5172424 ], [ 177.028030199999989, -12.5171481 ], [ 177.0281484, -12.5168514 ], [ 177.028068, -12.5166524 ], [ 177.0278534, -12.5164743 ], [ 177.0275637, -12.5163277 ], [ 177.0263728, -12.516003 ], [ 177.025772, -12.5159244 ], [ 177.025168900000011, -12.5157588 ], [ 177.024058200000013, -12.5151137 ], [ 177.0232676, -12.5150378 ], [ 177.0225193, -12.5148702 ], [ 177.022041800000011, -12.5148021 ], [ 177.0217777, -12.5147572 ], [ 177.021526599999987, -12.5147784 ], [ 177.0207785, -12.5150482 ], [ 177.0204754, -12.5151582 ], [ 177.020172300000013, -12.5151792 ], [ 177.019713700000011, -12.5153834 ], [ 177.019126300000011, -12.5152289 ], [ 177.018619300000012, -12.5150037 ], [ 177.0183779, -12.5147393 ], [ 177.0179836, -12.5144538 ], [ 177.017763699999989, -12.5139851 ], [ 177.0172344, -12.5133422 ], [ 177.0171838, -12.5132807 ], [ 177.016289, -12.5130761 ], [ 177.0160525, -12.5131315 ], [ 177.015729099999987, -12.5131529 ], [ 177.0150439, -12.5128225 ], [ 177.014853499999987, -12.5126235 ], [ 177.0146202, -12.5126916 ], [ 177.014380100000011, -12.5126562 ], [ 177.0141655, -12.5125148 ], [ 177.0140135, -12.5122804 ], [ 177.01357010000001, -12.5117921 ], [ 177.013434600000011, -12.5113797 ], [ 177.0132757, -12.5113516 ], [ 177.0122062, -12.5111624 ], [ 177.0113063, -12.5110432 ], [ 177.010861, -12.5110328 ], [ 177.0104426, -12.5109123 ], [ 177.010018800000012, -12.5106819 ], [ 177.0096862, -12.5102786 ], [ 177.0085633, -12.5085526 ], [ 177.0085915, -12.5081848 ], [ 177.0085986, -12.5080918 ], [ 177.0086171, -12.507851 ], [ 177.0084582, -12.5073221 ], [ 177.008382, -12.5070684 ], [ 177.0082186, -12.506682 ], [ 177.0078767, -12.5062766 ], [ 177.0076156, -12.506288 ], [ 177.007325900000012, -12.5062199 ], [ 177.0072293, -12.5058062 ], [ 177.0070577, -12.5056595 ], [ 177.0069947, -12.5054376 ], [ 177.0068216, -12.5046802 ], [ 177.006569500000012, -12.5043659 ], [ 177.0065799, -12.503359 ], [ 177.0063925, -12.5026062 ], [ 177.0062101, -12.5022868 ], [ 177.006274499999989, -12.5017945 ], [ 177.0061135, -12.5010403 ], [ 177.0060384, -12.5005794 ], [ 177.0060599, -12.5002966 ], [ 177.0059472, -12.5002285 ], [ 177.005888199999987, -12.5000976 ], [ 177.006177900000012, -12.4989245 ], [ 177.0067465, -12.497369 ], [ 177.0070538, -12.4968307 ], [ 177.007305300000013, -12.49648 ], [ 177.0078241, -12.4955601 ], [ 177.0083584, -12.4951694 ], [ 177.008527500000014, -12.4951274 ], [ 177.0088605, -12.4946352 ], [ 177.0102334, -12.4933153 ], [ 177.011079200000012, -12.4931583 ], [ 177.0119178, -12.4931372 ], [ 177.012733200000014, -12.4932891 ], [ 177.0130604, -12.4934095 ], [ 177.0133179, -12.4935981 ], [ 177.0137364, -12.4934514 ], [ 177.0140788, -12.4937077 ], [ 177.015109700000011, -12.4943313 ], [ 177.0155925, -12.4946508 ], [ 177.015536, -12.494868 ], [ 177.0159751, -12.4948751 ], [ 177.016692400000011, -12.4947371 ], [ 177.017229, -12.4945525 ], [ 177.017467900000014, -12.4942711 ], [ 177.0175236, -12.4942056 ], [ 177.018011800000011, -12.4937919 ], [ 177.018355500000013, -12.4933657 ], [ 177.018607300000014, -12.4930901 ], [ 177.0188973, -12.492821 ], [ 177.0196365, -12.4925214 ], [ 177.0199108, -12.492802 ], [ 177.020093, -12.4933411 ], [ 177.0202488, -12.4936505 ], [ 177.020473399999986, -12.4939198 ], [ 177.020724300000012, -12.4940841 ], [ 177.0212143, -12.4941069 ], [ 177.02169, -12.4940358 ], [ 177.0221178, -12.4938347 ], [ 177.0223949, -12.4933976 ], [ 177.022357, -12.4929853 ], [ 177.022496499999988, -12.4928334 ], [ 177.0225769, -12.4926868 ], [ 177.0227003, -12.4926135 ], [ 177.0228344, -12.4926554 ], [ 177.023027500000012, -12.4926815 ], [ 177.0231509, -12.4926344 ], [ 177.0231724, -12.4924563 ], [ 177.0232958, -12.4923673 ], [ 177.0238697, -12.4921945 ], [ 177.0248327, -12.4916452 ], [ 177.025218700000011, -12.4912403 ], [ 177.025763399999988, -12.4911365 ], [ 177.0261496, -12.4911417 ], [ 177.0262616, -12.4910445 ], [ 177.0265412, -12.4911732 ], [ 177.0268699, -12.4914352 ], [ 177.0271152, -12.4917179 ], [ 177.0272118, -12.4921787 ], [ 177.027463899999987, -12.4923568 ], [ 177.027807200000012, -12.4925716 ], [ 177.0281076, -12.4926501 ], [ 177.028456299999988, -12.4926868 ], [ 177.0287299, -12.4929225 ], [ 177.028969499999988, -12.4933196 ], [ 177.029346800000013, -12.4936138 ], [ 177.0296133, -12.4939303 ], [ 177.0299637, -12.494588 ], [ 177.0299688, -12.4946635 ], [ 177.0300124, -12.4953098 ], [ 177.0303178, -12.4954574 ], [ 177.030586, -12.4956773 ], [ 177.0305967, -12.496002 ], [ 177.030543099999988, -12.4962796 ], [ 177.0305967, -12.4966096 ], [ 177.0309561, -12.4967719 ], [ 177.0312726, -12.4968871 ], [ 177.0313746, -12.4967929 ], [ 177.0314926, -12.496861 ], [ 177.031557, -12.4969552 ], [ 177.0316803, -12.4968819 ], [ 177.031798400000014, -12.49695 ], [ 177.0318842, -12.4970443 ], [ 177.0317393, -12.4973271 ], [ 177.031487199999987, -12.4974685 ], [ 177.0308167, -12.4978508 ], [ 177.030628900000011, -12.4980655 ], [ 177.030135800000011, -12.498381 ], [ 177.0295264, -12.4985004 ], [ 177.0293361, -12.4985474 ], [ 177.0290947, -12.4988878 ], [ 177.0287406, -12.4994272 ], [ 177.028638699999988, -12.4999981 ], [ 177.0287299, -12.5003542 ], [ 177.028536800000012, -12.5006894 ], [ 177.028569, -12.5011451 ], [ 177.0284456, -12.5017735 ], [ 177.0284992, -12.502601 ], [ 177.028899, -12.5035002 ], [ 177.0293361, -12.5041669 ], [ 177.029476499999987, -12.5045405 ], [ 177.029918, -12.5051386 ], [ 177.0308149, -12.5057948 ], [ 177.031395, -12.506029 ], [ 177.0319527, -12.5062541 ], [ 177.032616100000013, -12.5066145 ], [ 177.0333367, -12.5069024 ], [ 177.0336704, -12.5069351 ], [ 177.0340852, -12.5070476 ], [ 177.0352212, -12.5071549 ], [ 177.0367699, -12.5071263 ], [ 177.038447100000013, -12.5070791 ], [ 177.040305600000011, -12.5067825 ], [ 177.041909, -12.5062658 ], [ 177.042721300000011, -12.5060577 ], [ 177.0432456, -12.5059227 ], [ 177.0435479, -12.5056775 ], [ 177.0434933, -12.505439 ], [ 177.043619799999988, -12.5052072 ], [ 177.0438275, -12.5052252 ], [ 177.044072, -12.5048521 ], [ 177.0454752, -12.5042522 ], [ 177.0467677, -12.5036742 ], [ 177.0471978, -12.5032622 ], [ 177.0474513, -12.5029023 ], [ 177.0475022, -12.5024722 ], [ 177.04726, -12.5016934 ], [ 177.046613, -12.5012682 ], [ 177.046575600000011, -12.5007705 ], [ 177.046235700000011, -12.500388 ], [ 177.0461262, -12.4998593 ], [ 177.0458439, -12.499685 ], [ 177.0456858, -12.4993742 ], [ 177.045848, -12.4990006 ], [ 177.0461617, -12.4986427 ], [ 177.0462387, -12.4984276 ], [ 177.046540599999986, -12.498245 ], [ 177.0468118, -12.497971 ], [ 177.046756499999987, -12.4977279 ], [ 177.0470315, -12.4975092 ], [ 177.0471761, -12.4973421 ], [ 177.0472181, -12.4970783 ], [ 177.0473676, -12.4969762 ], [ 177.0476011, -12.4969705 ], [ 177.0479786, -12.4968887 ], [ 177.0482283, -12.4964662 ], [ 177.0488341, -12.4961688 ], [ 177.049347399999988, -12.4956199 ], [ 177.049673399999989, -12.495437 ], [ 177.0499137, -12.4949955 ], [ 177.0500318, -12.4946853 ], [ 177.0499515, -12.4941742 ], [ 177.050268100000011, -12.4937108 ], [ 177.0504718, -12.4934006 ], [ 177.050451399999986, -12.4930541 ], [ 177.050774600000011, -12.4923177 ], [ 177.051322, -12.4916295 ], [ 177.0518069, -12.4910324 ], [ 177.0523919, -12.4908521 ], [ 177.0532627, -12.4902043 ], [ 177.0553611, -12.488933 ], [ 177.055867, -12.4881799 ], [ 177.0572769, -12.4875645 ], [ 177.058271, -12.4868594 ], [ 177.0589914, -12.4869237 ], [ 177.05906490000001, -12.4868847 ], [ 177.0597794, -12.4865055 ], [ 177.0603453, -12.4860842 ], [ 177.0606415, -12.4857205 ], [ 177.0612906, -12.4849236 ], [ 177.0617901, -12.4844581 ], [ 177.0623778, -12.4841263 ], [ 177.062507399999987, -12.4840531 ], [ 177.0632735, -12.4829625 ], [ 177.0636069, -12.4822068 ], [ 177.0638745, -12.4821259 ], [ 177.063960400000013, -12.4816767 ], [ 177.0644268, -12.4812961 ], [ 177.065529199999986, -12.4811593 ], [ 177.0664332, -12.4806815 ], [ 177.0687886, -12.4802038 ], [ 177.070945, -12.4803009 ], [ 177.07502550000001, -12.479645 ], [ 177.075581199999988, -12.4796693 ], [ 177.07571870000001, -12.4796525 ], [ 177.076709099999988, -12.4795316 ], [ 177.077961499999986, -12.4800418 ], [ 177.0796202, -12.4804224 ], [ 177.0820171, -12.4813293 ], [ 177.0838915, -12.4822363 ], [ 177.085276599999986, -12.4830436 ], [ 177.0869117, -12.4833485 ], [ 177.0883182, -12.4836719 ], [ 177.089049, -12.4831367 ], [ 177.089990699999987, -12.4829309 ], [ 177.0908835, -12.483404 ], [ 177.0934902, -12.4839737 ], [ 177.0943615, -12.4838777 ], [ 177.0961183, -12.4846461 ], [ 177.0969475, -12.4846598 ], [ 177.098067500000013, -12.4845395 ], [ 177.0994634, -12.4843928 ], [ 177.1002382, -12.4846688 ], [ 177.1003914, -12.4852099 ], [ 177.100732599999986, -12.4856593 ], [ 177.1013366, -12.4859211 ], [ 177.1014195, -12.485957 ], [ 177.1018537, -12.4860437 ], [ 177.1020887, -12.486712 ], [ 177.102299, -12.4872777 ], [ 177.1033, -12.4875532 ], [ 177.10345190000001, -12.4875244 ], [ 177.103825699999987, -12.4874537 ], [ 177.104729099999986, -12.4870315 ], [ 177.105099200000012, -12.4866764 ], [ 177.1059773, -12.4872989 ], [ 177.1079552, -12.4881639 ], [ 177.1082841, -12.4882399 ], [ 177.1085621, -12.4881628 ], [ 177.108645200000012, -12.4881654 ], [ 177.1086943, -12.4881212 ], [ 177.1088334, -12.4880793 ], [ 177.108927099999988, -12.4882081 ], [ 177.10906270000001, -12.4882867 ], [ 177.1093688, -12.4882326 ], [ 177.1094299, -12.4882401 ], [ 177.1095119, -12.4884663 ], [ 177.109669700000012, -12.4885797 ], [ 177.1097833, -12.4888307 ], [ 177.1099496, -12.4888781 ], [ 177.1101246, -12.4890647 ], [ 177.1107924, -12.4892567 ], [ 177.1110445, -12.4891834 ], [ 177.111243, -12.489241 ], [ 177.1114254, -12.4892462 ], [ 177.1115756, -12.4891205 ], [ 177.1117633, -12.4891467 ], [ 177.1117848, -12.4893143 ], [ 177.112047600000011, -12.4889843 ], [ 177.112144199999989, -12.4893038 ], [ 177.1123212, -12.4891886 ], [ 177.112439200000011, -12.4893771 ], [ 177.1125519, -12.4892096 ], [ 177.112905899999987, -12.4893405 ], [ 177.1128952, -12.4891781 ], [ 177.1131312, -12.4891677 ], [ 177.113190300000014, -12.4892672 ], [ 177.1134424, -12.4890629 ], [ 177.1136409, -12.4893824 ], [ 177.1138286, -12.4889529 ], [ 177.1140164, -12.4891781 ], [ 177.1141022, -12.4889058 ], [ 177.1143597, -12.4891781 ], [ 177.1146333, -12.4890839 ], [ 177.114863899999989, -12.4891362 ], [ 177.11544330000001, -12.4889372 ], [ 177.115754399999986, -12.4890681 ], [ 177.115969, -12.4889686 ], [ 177.116146, -12.4891467 ], [ 177.116328399999986, -12.4890681 ], [ 177.1165806, -12.489131 ], [ 177.11672, -12.4890001 ], [ 177.1169775, -12.4890053 ], [ 177.117084799999986, -12.4892043 ], [ 177.117294, -12.4888482 ], [ 177.117471099999989, -12.4890629 ], [ 177.1176266, -12.4890367 ], [ 177.117739300000011, -12.4891467 ], [ 177.117975300000012, -12.4891048 ], [ 177.1182489, -12.48922 ], [ 177.118340100000012, -12.4890629 ], [ 177.118468799999988, -12.4891991 ], [ 177.11871020000001, -12.4891677 ], [ 177.1189087, -12.489131 ], [ 177.1192091, -12.4890158 ], [ 177.1194827, -12.489042 ], [ 177.1196866, -12.4889948 ], [ 177.1198743, -12.4890734 ], [ 177.120159300000012, -12.4891077 ], [ 177.1210925, -12.4892993 ], [ 177.121796499999988, -12.489512 ], [ 177.1221591, -12.4894266 ], [ 177.122666900000013, -12.4890412 ], [ 177.1227063, -12.4890113 ], [ 177.1231414, -12.4884236 ], [ 177.123047500000013, -12.4873452 ], [ 177.12277180000001, -12.4871274 ], [ 177.122512699999987, -12.4870849 ], [ 177.122061, -12.487152 ], [ 177.1217595, -12.487152 ], [ 177.1216603, -12.4872483 ], [ 177.1212649, -12.4870488 ], [ 177.1213239, -12.4867607 ], [ 177.121556700000014, -12.4867633 ], [ 177.121814199999989, -12.4868686 ], [ 177.122061, -12.4869482 ], [ 177.122860300000013, -12.4869457 ], [ 177.1232209, -12.487035 ], [ 177.1238382, -12.4871844 ], [ 177.1247223, -12.4879868 ], [ 177.1261701, -12.4888028 ], [ 177.1275949, -12.4896063 ], [ 177.130011, -12.4908416 ], [ 177.13216220000001, -12.4922569 ], [ 177.133221600000013, -12.493041 ], [ 177.1349286, -12.4940596 ], [ 177.1366545, -12.4961004 ], [ 177.137218100000013, -12.4967668 ], [ 177.138436, -12.498612 ], [ 177.138891300000012, -12.4993017 ], [ 177.139852, -12.5014034 ], [ 177.13974, -12.5024414 ], [ 177.1402673, -12.502643 ], [ 177.1402823, -12.502863 ], [ 177.1396632, -12.5030196 ], [ 177.1395066, -12.5032513 ], [ 177.138962600000013, -12.5040566 ], [ 177.1384664, -12.5057644 ], [ 177.138394, -12.5062645 ], [ 177.1385641, -12.5073465 ], [ 177.1387722, -12.5089842 ], [ 177.1384343, -12.5104375 ], [ 177.1385871, -12.5105621 ], [ 177.1384799, -12.510847 ], [ 177.1380561, -12.5108679 ], [ 177.13769880000001, -12.5125909 ], [ 177.1378325, -12.5149731 ], [ 177.1378887, -12.5160971 ], [ 177.1377374, -12.5172246 ], [ 177.1360604, -12.5190844 ], [ 177.135642100000013, -12.5195482 ], [ 177.134471600000012, -12.5204269 ], [ 177.1341275, -12.5208838 ], [ 177.1336996, -12.5214518 ], [ 177.133131, -12.5216078 ], [ 177.132432, -12.5216597 ], [ 177.1316005, -12.5218963 ], [ 177.1276263, -12.5219486 ], [ 177.1264023, -12.5219648 ], [ 177.12543, -12.5219777 ], [ 177.1228676, -12.5219601 ], [ 177.1217665, -12.52223 ], [ 177.1213084, -12.5224039 ], [ 177.1209395, -12.5225653 ], [ 177.1208131, -12.522587 ], [ 177.1207178, -12.522544 ], [ 177.120654699999989, -12.5224742 ], [ 177.1206128, -12.5223247 ], [ 177.1206374, -12.5220307 ], [ 177.120654, -12.5218772 ], [ 177.120623099999989, -12.5217666 ], [ 177.120557, -12.5216306 ], [ 177.1193321, -12.5204542 ], [ 177.1188052, -12.5201656 ], [ 177.1184083, -12.5203001 ], [ 177.1181149, -12.520619 ], [ 177.117461600000013, -12.5209881 ], [ 177.116264699999988, -12.5217598 ], [ 177.1160128, -12.5217676 ], [ 177.1157709, -12.521614 ], [ 177.115329300000013, -12.5213542 ], [ 177.114913699999988, -12.5215675 ], [ 177.1137216, -12.5221009 ], [ 177.1132424, -12.5224821 ], [ 177.1134662, -12.5227242 ], [ 177.1133049, -12.5230022 ], [ 177.113079, -12.523238 ], [ 177.112704, -12.5232675 ], [ 177.1125104, -12.5231258 ], [ 177.1120991, -12.5233265 ], [ 177.111645399999986, -12.5233501 ], [ 177.1112885, -12.5237517 ], [ 177.1108046, -12.523734 ], [ 177.1106413, -12.523858 ], [ 177.1106534, -12.524106 ], [ 177.1101392, -12.5240706 ], [ 177.109849, -12.5242987 ], [ 177.109371, -12.5241769 ], [ 177.109122899999988, -12.5243363 ], [ 177.1088144, -12.5243599 ], [ 177.1084938, -12.5241769 ], [ 177.1081551, -12.5243127 ], [ 177.1078345, -12.5243186 ], [ 177.107580399999989, -12.5245725 ], [ 177.1073687, -12.5245548 ], [ 177.1072054, -12.5244013 ], [ 177.1071502, -12.5244748 ], [ 177.1070723, -12.5245784 ], [ 177.106906, -12.5246135 ], [ 177.106733600000013, -12.5243481 ], [ 177.1066247, -12.524354 ], [ 177.1064795, -12.5244131 ], [ 177.1063162, -12.5242477 ], [ 177.1060516, -12.5238699 ], [ 177.1059895, -12.5237812 ], [ 177.1057629, -12.5234232 ], [ 177.1054548, -12.5233747 ], [ 177.1048089, -12.5227732 ], [ 177.1040233, -12.5227574 ], [ 177.103844900000013, -12.5227538 ], [ 177.1029207, -12.522065 ], [ 177.102181, -12.5219739 ], [ 177.1000884, -12.5221814 ], [ 177.095476, -12.5228605 ], [ 177.0948694, -12.5229341 ], [ 177.094223699999986, -12.5231189 ], [ 177.093443400000012, -12.5235182 ], [ 177.0927129, -12.5241129 ], [ 177.0924197, -12.5244282 ], [ 177.0920873, -12.5244876 ], [ 177.0916296, -12.5241468 ], [ 177.091192400000011, -12.524239 ], [ 177.090751, -12.5240733 ], [ 177.09038240000001, -12.5239382 ], [ 177.0898472, -12.5240973 ], [ 177.0897956, -12.5241126 ], [ 177.0896081, -12.5238431 ], [ 177.089573, -12.5237926 ], [ 177.0885639, -12.5230574 ], [ 177.0878907, -12.5228577 ], [ 177.0871531, -12.522639 ], [ 177.0852477, -12.5224164 ], [ 177.0830967, -12.5224163 ], [ 177.0815194, -12.5222363 ], [ 177.080306, -12.5217592 ], [ 177.0791145, -12.5214052 ], [ 177.0783389, -12.5211191 ], [ 177.0782428, -12.5210836 ], [ 177.0773448, -12.5208736 ], [ 177.075985300000013, -12.5205641 ], [ 177.0757945, -12.5205207 ], [ 177.0741597, -12.5203222 ], [ 177.073697, -12.5206079 ], [ 177.073454, -12.5213015 ], [ 177.073186600000014, -12.521695 ], [ 177.0729103, -12.5217825 ], [ 177.072574800000012, -12.5216424 ], [ 177.072053399999987, -12.5214036 ], [ 177.071110299999987, -12.5203932 ], [ 177.0697305, -12.5198221 ], [ 177.06909490000001, -12.5197687 ], [ 177.0683406, -12.5198943 ], [ 177.0668068, -12.5202456 ], [ 177.0662821, -12.5202458 ], [ 177.066016, -12.520325 ], [ 177.0655946, -12.5204505 ], [ 177.0651772, -12.5205332 ], [ 177.064208400000012, -12.5204248 ], [ 177.063922600000012, -12.5204111 ], [ 177.0631243, -12.520373 ], [ 177.0622617, -12.5205228 ], [ 177.0614248, -12.5201672 ], [ 177.0610407, -12.5198195 ], [ 177.060981700000013, -12.5194744 ], [ 177.0608465, -12.5192041 ], [ 177.0603873, -12.5189601 ], [ 177.0591632, -12.5185385 ], [ 177.0584819, -12.5178425 ], [ 177.0578634, -12.5176153 ], [ 177.0574315, -12.5172324 ], [ 177.0572411, -12.5167423 ], [ 177.056571100000014, -12.5165406 ], [ 177.055788400000012, -12.5163823 ], [ 177.055017600000014, -12.5154294 ], [ 177.0549725, -12.5148975 ], [ 177.054724099999987, -12.5147585 ], [ 177.054221500000011, -12.5136488 ], [ 177.0539608, -12.5128706 ], [ 177.0538449, -12.5125522 ], [ 177.0535112, -12.5123474 ], [ 177.0532977, -12.5117436 ], [ 177.053295, -12.5112282 ], [ 177.052965699999987, -12.5108009 ], [ 177.0522914, -12.5105066 ], [ 177.0514604, -12.5101824 ], [ 177.049943899999988, -12.509864 ], [ 177.048849, -12.5096147 ], [ 177.047737, -12.5094911 ], [ 177.0457355, -12.5099525 ], [ 177.0446851, -12.5102515 ], [ 177.044587400000012, -12.5102438 ], [ 177.0437657, -12.5101793 ], [ 177.0424552, -12.5096608 ], [ 177.0413512, -12.5090156 ], [ 177.040780399999989, -12.5088061 ], [ 177.0403351, -12.5088192 ], [ 177.0396217, -12.5094906 ], [ 177.0397209, -12.5098546 ], [ 177.0398765, -12.5100902 ], [ 177.040028299999989, -12.5101316 ], [ 177.0403217, -12.5099503 ], [ 177.0404772, -12.5098587 ], [ 177.040673, -12.5098142 ], [ 177.0409788, -12.5098901 ], [ 177.041190699999987, -12.5101232 ], [ 177.0413489, -12.5104033 ], [ 177.04132, -12.5106663 ], [ 177.041386499999987, -12.510859 ], [ 177.041373099999987, -12.5110789 ], [ 177.0414911, -12.5114036 ], [ 177.041507200000012, -12.5116916 ], [ 177.041520600000013, -12.5118226 ], [ 177.0415152, -12.5119483 ], [ 177.0414482, -12.5121604 ], [ 177.0412819, -12.5123122 ], [ 177.041142400000012, -12.5123594 ], [ 177.0409922, -12.5123725 ], [ 177.0408554, -12.5123358 ], [ 177.0407615, -12.5122153 ], [ 177.040643499999987, -12.5120478 ], [ 177.040305600000011, -12.5116655 ], [ 177.0399914, -12.5114025 ], [ 177.0399301, -12.5113512 ], [ 177.039299699999987, -12.5105814 ], [ 177.0385943, -12.5102174 ], [ 177.0379211, -12.5096571 ], [ 177.037376599999988, -12.5094214 ], [ 177.0370869, -12.5094083 ], [ 177.036791, -12.5095397 ], [ 177.0362265, -12.5098891 ], [ 177.0360824, -12.5099804 ], [ 177.0356069, -12.5102819 ], [ 177.0348007, -12.5111843 ], [ 177.0344933, -12.5116614 ], [ 177.0341087, -12.5125778 ], [ 177.0337623, -12.5137519 ], [ 177.033536, -12.5147967 ], [ 177.0330174, -12.515762 ], [ 177.0327293, -12.5162902 ], [ 177.0327887, -12.5163914 ], [ 177.033172, -12.5164891 ], [ 177.0338606, -12.5174076 ], [ 177.0345802, -12.5193371 ], [ 177.0342791, -12.5207673 ], [ 177.0340985, -12.5212088 ], [ 177.033937, -12.5216288 ], [ 177.0336699, -12.5215497 ], [ 177.0334966, -12.5216581 ], [ 177.0335806, -12.5218814 ], [ 177.0332015, -12.5218221 ], [ 177.033129699999989, -12.5222494 ], [ 177.0329408, -12.5222991 ], [ 177.032551399999988, -12.5223017 ], [ 177.031938200000013, -12.5223672 ], [ 177.031163600000014, -12.5220216 ], [ 177.0306996, -12.5217695 ], [ 177.0310869, -12.5214424 ], [ 177.031652799999989, -12.5211643 ], [ 177.0319117, -12.5207802 ], [ 177.032074, -12.5204568 ], [ 177.0321877, -12.5200281 ], [ 177.032184300000011, -12.5196407 ] ] ] ] } }
]
}
