{
"type": "FeatureCollection",
"name": "175_-80",
"crs": { "type": "name", "properties": { "name": "urn:ogc:def:crs:OGC:1.3:CRS84" } },
"xy_coordinate_resolution": 1e-15,
"features": [
{ "type": "Feature", "properties": { "FID": 307096, "id": 2590, "left": 175.0, "top": -75.0, "right": 180.0, "bottom": -80.0, "row_index": 33, "col_index": 71, "min_lon": 175.0, "min_lat": -80.0, "tile_id": "175_-80" }, "geometry": { "type": "MultiPolygon", "coordinates": [ [ [ [ 180.0, -79.0 ], [ 180.0, -80.0 ], [ 175.0, -80.0 ], [ 175.0, -77.436595139491544 ], [ 175.0107343, -77.4375828 ], [ 175.022977700000013, -77.4384543 ], [ 175.036878300000012, -77.4391739 ], [ 175.0528003, -77.4397756 ], [ 175.0711672, -77.4402486 ], [ 175.092343199999988, -77.4406267 ], [ 175.11679, -77.4409087 ], [ 175.1448371, -77.4411088 ], [ 175.1787589, -77.4413133 ], [ 175.20580720000001, -77.4415982 ], [ 175.2276807, -77.4420237 ], [ 175.2460264, -77.4426757 ], [ 175.2625334, -77.4436401 ], [ 175.278818300000012, -77.4449738 ], [ 175.2966519, -77.4467723 ], [ 175.3176082, -77.4490998 ], [ 175.3362095, -77.4511191 ], [ 175.3539621, -77.452839 ], [ 175.3715638, -77.4542993 ], [ 175.389671099999987, -77.4555391 ], [ 175.408937900000012, -77.4566062 ], [ 175.430105, -77.4575405 ], [ 175.4537501, -77.4583698 ], [ 175.4805665, -77.459151 ], [ 175.5005253, -77.4597302 ], [ 175.519878299999988, -77.4603614 ], [ 175.538124399999987, -77.4610363 ], [ 175.5547724, -77.4617194 ], [ 175.569400800000011, -77.4624131 ], [ 175.581521, -77.463073 ], [ 175.590628, -77.4637002 ], [ 175.5962294, -77.4642593 ], [ 175.6003368, -77.4647659 ], [ 175.605036, -77.4652642 ], [ 175.6101277, -77.4657232 ], [ 175.6155282, -77.4661416 ], [ 175.6209934, -77.4664972 ], [ 175.6263944, -77.4667968 ], [ 175.6316155, -77.4670112 ], [ 175.636405700000012, -77.4671362 ], [ 175.641598, -77.4673134 ], [ 175.6480257, -77.4676842 ], [ 175.6553998, -77.4682348 ], [ 175.663482499999986, -77.4689246 ], [ 175.6720266, -77.4697402 ], [ 175.680746199999987, -77.4706589 ], [ 175.6893969, -77.4716582 ], [ 175.697779200000014, -77.4727076 ], [ 175.7063302, -77.4737594 ], [ 175.7154869, -77.4747661 ], [ 175.724966099999989, -77.4756955 ], [ 175.7345647, -77.4765261 ], [ 175.7438703, -77.477233 ], [ 175.7526767, -77.4778038 ], [ 175.7606611, -77.4781969 ], [ 175.76757520000001, -77.4783992 ], [ 175.774157800000012, -77.4785869 ], [ 175.781226, -77.4789555 ], [ 175.7885862, -77.4794563 ], [ 175.795942700000012, -77.4800937 ], [ 175.8031794, -77.4808384 ], [ 175.809967699999987, -77.4816671 ], [ 175.8161466, -77.4825589 ], [ 175.8215126, -77.4834923 ], [ 175.826986799999986, -77.4844821 ], [ 175.8335769, -77.485535 ], [ 175.8410413, -77.4866198 ], [ 175.849096300000014, -77.4877045 ], [ 175.8574999, -77.4887579 ], [ 175.8660098, -77.4897489 ], [ 175.874348, -77.4906273 ], [ 175.882346500000011, -77.4913908 ], [ 175.8902682, -77.4921345 ], [ 175.898487, -77.4930012 ], [ 175.906721800000014, -77.49395 ], [ 175.9148142, -77.494951 ], [ 175.922479900000013, -77.4959726 ], [ 175.9294734, -77.4969926 ], [ 175.935551800000013, -77.4979802 ], [ 175.9405203, -77.4988867 ], [ 175.9588625, -77.5025794 ], [ 175.9741807, -77.5056226 ], [ 175.9871454, -77.5081457 ], [ 175.9984704, -77.5102784 ], [ 176.0088322, -77.5121407 ], [ 176.018905100000012, -77.5138613 ], [ 176.029361599999987, -77.5155782 ], [ 176.040883400000013, -77.5174018 ], [ 176.0587612, -77.5200766 ], [ 176.0776272, -77.5227191 ], [ 176.0966732, -77.5252169 ], [ 176.1151678, -77.5274772 ], [ 176.1322891, -77.5294242 ], [ 176.1472254, -77.530946 ], [ 176.1592796, -77.5319692 ], [ 176.1675947, -77.5323906 ], [ 176.1761821, -77.5328886 ], [ 176.18452640000001, -77.5340394 ], [ 176.1922136, -77.5356821 ], [ 176.1988629, -77.5376836 ], [ 176.2040116, -77.5399005 ], [ 176.2072856, -77.5421725 ], [ 176.2082208, -77.5443563 ], [ 176.206479, -77.5463104 ], [ 176.2044663, -77.5476313 ], [ 176.2038336, -77.5487257 ], [ 176.204952, -77.5496263 ], [ 176.2080604, -77.5503821 ], [ 176.213476500000013, -77.5510614 ], [ 176.2215318, -77.5516869 ], [ 176.2324149, -77.5523341 ], [ 176.2465, -77.5530262 ], [ 176.2567338, -77.5535902 ], [ 176.2672954, -77.5543317 ], [ 176.27794080000001, -77.5552199 ], [ 176.2883416, -77.5562227 ], [ 176.2982139, -77.5572998 ], [ 176.3071814, -77.5584369 ], [ 176.3150018, -77.5595942 ], [ 176.3213486, -77.5607309 ], [ 176.3355044, -77.5635072 ], [ 176.348657300000013, -77.5658311 ], [ 176.3614244, -77.567757 ], [ 176.3744182, -77.5693571 ], [ 176.388291400000014, -77.5707132 ], [ 176.4035787, -77.5718779 ], [ 176.4209785, -77.5729242 ], [ 176.4411081, -77.5739148 ], [ 176.452212, -77.5744826 ], [ 176.4638343, -77.5751663 ], [ 176.4755137, -77.5759504 ], [ 176.4870024, -77.5768136 ], [ 176.497931099999988, -77.5777145 ], [ 176.5079671, -77.5786306 ], [ 176.516775200000012, -77.5795484 ], [ 176.5239877, -77.5804177 ], [ 176.5498063, -77.5840085 ], [ 176.5776631, -77.5880969 ], [ 176.6063112, -77.5924567 ], [ 176.6345268, -77.5969171 ], [ 176.6610532, -77.601262 ], [ 176.684667499999989, -77.6052944 ], [ 176.7040618, -77.6088074 ], [ 176.718005799999986, -77.6116139 ], [ 176.7426548, -77.6158904 ], [ 176.76329, -77.6188489 ], [ 176.7839351, -77.6218057 ], [ 176.8104051, -77.6252908 ], [ 176.8368901, -77.6287733 ], [ 176.866800399999988, -77.6324755 ], [ 176.8967289, -77.6361744 ], [ 176.9276084, -77.6397987 ], [ 176.9585061, -77.6434194 ], [ 176.987871899999988, -77.6466728 ], [ 177.0172533, -77.649923 ], [ 177.042635, -77.6525059 ], [ 177.0680275, -77.6550864 ], [ 177.1058673, -77.6583324 ], [ 177.1386823, -77.6606307 ], [ 177.1715096, -77.6629249 ], [ 177.1977618, -77.6647454 ], [ 177.2240217, -77.6665634 ], [ 177.2446883, -77.6679658 ], [ 177.265359600000011, -77.6693667 ], [ 177.2975648, -77.6714884 ], [ 177.3226894, -77.6730617 ], [ 177.3427493, -77.6742089 ], [ 177.3597594, -77.6750694 ], [ 177.375781, -77.6757733 ], [ 177.385505599999988, -77.6761963 ], [ 177.395600699999989, -77.6766863 ], [ 177.4056462, -77.6772119 ], [ 177.4154719, -77.6777714 ], [ 177.424742900000012, -77.6783344 ], [ 177.4331627, -77.6788889 ], [ 177.4404351, -77.679423 ], [ 177.4463079, -77.6799163 ], [ 177.4545357, -77.6803772 ], [ 177.46870340000001, -77.6808119 ], [ 177.4879573, -77.6812206 ], [ 177.5115772, -77.6815774 ], [ 177.5387499, -77.6818918 ], [ 177.568756400000012, -77.6821289 ], [ 177.600827399999986, -77.68229 ], [ 177.6341511, -77.6823764 ], [ 177.6559349, -77.6824218 ], [ 177.677719, -77.6824654 ], [ 177.71780480000001, -77.6826818 ], [ 177.7551751, -77.6830426 ], [ 177.7906851, -77.6835467 ], [ 177.825101600000011, -77.6842104 ], [ 177.8592751, -77.6850589 ], [ 177.8939748, -77.6860985 ], [ 177.9300536, -77.6873446 ], [ 177.9681366, -77.6886464 ], [ 178.0045146, -77.6897116 ], [ 178.0405927, -77.690551 ], [ 178.0779885, -77.6911855 ], [ 178.118192, -77.6916341 ], [ 178.1404633, -77.6917801 ], [ 178.162735, -77.6919243 ], [ 178.1879434, -77.6919954 ], [ 178.213152, -77.6920641 ], [ 178.242042, -77.6920726 ], [ 178.27093210000001, -77.6920779 ], [ 178.299414899999988, -77.6920913 ], [ 178.327897799999988, -77.6921017 ], [ 178.3541509, -77.6921773 ], [ 178.3804043, -77.6922503 ], [ 178.4051746, -77.6923985 ], [ 178.4299455, -77.6925444 ], [ 178.453894100000014, -77.6927789 ], [ 178.4778436, -77.6930113 ], [ 178.501696900000013, -77.6933366 ], [ 178.5255516, -77.6936598 ], [ 178.5499925, -77.6940887 ], [ 178.574435200000011, -77.6945154 ], [ 178.6001908, -77.6950514 ], [ 178.625948599999987, -77.695585 ], [ 178.6536817, -77.6962352 ], [ 178.6814177, -77.6968826 ], [ 178.7123058, -77.6976393 ], [ 178.7431978, -77.6983925 ], [ 178.7740935, -77.6991422 ], [ 178.808235200000013, -77.6999375 ], [ 178.8423813, -77.7007286 ], [ 178.8662224, -77.7011852 ], [ 178.8900652, -77.7016398 ], [ 178.9209802, -77.7018657 ], [ 178.9389665, -77.7014002 ], [ 178.947826, -77.7002333 ], [ 178.9514503, -77.6983266 ], [ 178.953685, -77.695677 ], [ 178.9558743, -77.6935462 ], [ 178.9585774, -77.6918907 ], [ 178.9623126, -77.6906398 ], [ 178.967813, -77.6897051 ], [ 178.9756806, -77.6890342 ], [ 178.9865212, -77.6885291 ], [ 179.0010235, -77.6881192 ], [ 179.019748600000014, -77.6877239 ], [ 179.0319747, -77.6874679 ], [ 179.043776400000013, -77.6871733 ], [ 179.054853799999989, -77.6868575 ], [ 179.06495, -77.6865287 ], [ 179.0737652, -77.6862042 ], [ 179.081001500000013, -77.6858741 ], [ 179.086401099999989, -77.6855648 ], [ 179.0896222, -77.6852844 ], [ 179.1015004, -77.6850604 ], [ 179.1266479, -77.6854256 ], [ 179.1622175, -77.6862763 ], [ 179.183831, -77.6869026 ], [ 179.2054468, -77.6875273 ], [ 179.2294445, -77.6883118 ], [ 179.25344530000001, -77.6890941 ], [ 179.2784029, -77.6899861 ], [ 179.30336410000001, -77.6908758 ], [ 179.3278981, -77.6918349 ], [ 179.352436, -77.6927918 ], [ 179.3750978, -77.6937739 ], [ 179.3977631, -77.6947541 ], [ 179.4236137, -77.6957256 ], [ 179.4494684, -77.6966947 ], [ 179.482313, -77.6975882 ], [ 179.5151625, -77.6984778 ], [ 179.5533169, -77.6992585 ], [ 179.591476300000011, -77.7000337 ], [ 179.633296699999988, -77.7006766 ], [ 179.6751214, -77.7013129 ], [ 179.7043195, -77.7016348 ], [ 179.7335191, -77.7019536 ], [ 179.762720300000012, -77.7022692 ], [ 179.7921384, -77.7024695 ], [ 179.821557500000011, -77.7026666 ], [ 179.8509776, -77.7028605 ], [ 179.8937439, -77.7029536 ], [ 179.9365108, -77.7030399 ], [ 179.968255699999986, -77.7029365 ], [ 180.0, -77.7028294 ], [ 180.0, -79.0 ] ] ] ] } }
]
}
