{
"type": "FeatureCollection",
"name": "20_-75",
"crs": { "type": "name", "properties": { "name": "urn:ogc:def:crs:OGC:1.3:CRS84" } },
"xy_coordinate_resolution": 1e-15,
"features": [
{ "type": "Feature", "properties": { "FID": 307096, "id": 1473, "left": 20.0, "top": -70.0, "right": 25.0, "bottom": -75.0, "row_index": 32, "col_index": 40, "min_lon": 20.0, "min_lat": -75.0, "tile_id": "20_-75" }, "geometry": { "type": "MultiPolygon", "coordinates": [ [ [ [ 21.6468073, -70.0002699 ], [ 21.6608585, -70.0045669 ], [ 21.6652663, -70.0083641 ], [ 21.6742377, -70.0128343 ], [ 21.6810104, -70.0147585 ], [ 21.696519, -70.0183395 ], [ 21.7170463, -70.0220509 ], [ 21.718558, -70.0223242 ], [ 21.7351254, -70.0255005 ], [ 21.764235, -70.0277411 ], [ 21.7745496, -70.0281449 ], [ 21.7895654, -70.0286821 ], [ 21.7851234, -70.0313599 ], [ 21.7818555, -70.0343946 ], [ 21.7770174, -70.0386789 ], [ 21.7736176, -70.0409548 ], [ 21.7657782, -70.0407301 ], [ 21.7564735, -70.0419202 ], [ 21.7713921, -70.0435878 ], [ 21.7785777, -70.0451959 ], [ 21.786809, -70.0476964 ], [ 21.7951726, -70.0522499 ], [ 21.8014478, -70.0550175 ], [ 21.8113862, -70.0570259 ], [ 21.8189752, -70.0622033 ], [ 21.8072038, -70.063811 ], [ 21.7983082, -70.0652842 ], [ 21.7890187, -70.0670693 ], [ 21.8017096, -70.0681857 ], [ 21.8161035, -70.0701045 ], [ 21.8353462, -70.0742086 ], [ 21.847523, -70.0761698 ], [ 21.8612729, -70.0781743 ], [ 21.8709666, -70.0799562 ], [ 21.8793481, -70.0806221 ], [ 21.8852529, -70.0836995 ], [ 21.8899852, -70.0877148 ], [ 21.9130522, -70.0905135 ], [ 21.9238101, -70.0931845 ], [ 21.9327264, -70.0942938 ], [ 21.9441436, -70.0968739 ], [ 21.9479631, -70.0994598 ], [ 21.9532296, -70.1026248 ], [ 21.9461552, -70.1030776 ], [ 21.9393348, -70.1024583 ], [ 21.9352878, -70.1048277 ], [ 21.9394897, -70.1058064 ], [ 21.9501129, -70.1064223 ], [ 21.9573361, -70.108023 ], [ 21.9542091, -70.1105259 ], [ 21.9420282, -70.1124564 ], [ 21.9560675, -70.1133815 ], [ 21.9546406, -70.1153919 ], [ 21.9493998, -70.1161109 ], [ 21.9375975, -70.1164334 ], [ 21.9185786, -70.1164477 ], [ 21.9088696, -70.115963 ], [ 21.9116483, -70.1202472 ], [ 21.9192807, -70.1241263 ], [ 21.9250773, -70.1277385 ], [ 21.9081498, -70.1282413 ], [ 21.9012002, -70.1294509 ], [ 21.8920122, -70.1294115 ], [ 21.8851955, -70.1313794 ], [ 21.8777215, -70.1334368 ], [ 21.8642064, -70.1355408 ], [ 21.8604068, -70.1381318 ], [ 21.856213, -70.1410354 ], [ 21.8388839, -70.1444334 ], [ 21.8341591, -70.1468901 ], [ 21.8483514, -70.1485834 ], [ 21.8588577, -70.1471514 ], [ 21.8805115, -70.1416061 ], [ 21.8851, -70.139684 ], [ 21.9116079, -70.1363201 ], [ 21.9235507, -70.1354636 ], [ 21.9445364, -70.1325896 ], [ 21.9662983, -70.1290872 ], [ 21.9800623, -70.127198 ], [ 21.9889971, -70.1283045 ], [ 22.0014746, -70.1291831 ], [ 22.0230164, -70.1306295 ], [ 22.0410967, -70.1278813 ], [ 22.0504085, -70.1273766 ], [ 22.068234, -70.1256974 ], [ 22.0860755, -70.125311 ], [ 22.0963057, -70.1249362 ], [ 22.1092766, -70.1236628 ], [ 22.1243962, -70.1254651 ], [ 22.1387421, -70.1278926 ], [ 22.1500151, -70.1271106 ], [ 22.1576704, -70.1247291 ], [ 22.1807736, -70.1228473 ], [ 22.2015374, -70.1229887 ], [ 22.225455, -70.1200172 ], [ 22.2388299, -70.1197151 ], [ 22.2512316, -70.1195166 ], [ 22.2653766, -70.1198551 ], [ 22.2712878, -70.1219493 ], [ 22.2761639, -70.1228286 ], [ 22.2883157, -70.1206181 ], [ 22.3033852, -70.1200707 ], [ 22.3137954, -70.1211781 ], [ 22.3167103, -70.1228879 ], [ 22.3314744, -70.1205651 ], [ 22.3445433, -70.1187375 ], [ 22.3653328, -70.1163475 ], [ 22.405631, -70.1130376 ], [ 22.4247908, -70.1093067 ], [ 22.4460566, -70.1060567 ], [ 22.4628624, -70.1029108 ], [ 22.4772564, -70.1021839 ], [ 22.4929075, -70.0999772 ], [ 22.5071397, -70.0984895 ], [ 22.5246921, -70.0947092 ], [ 22.5308903, -70.0922717 ], [ 22.5397421, -70.0907596 ], [ 22.5432088, -70.0923516 ], [ 22.551397, -70.0940565 ], [ 22.5556772, -70.0963143 ], [ 22.5640289, -70.0987768 ], [ 22.569505, -70.1013862 ], [ 22.5692261, -70.1042895 ], [ 22.5705809, -70.1053995 ], [ 22.578293, -70.1048282 ], [ 22.5938823, -70.1013177 ], [ 22.6041986, -70.1003759 ], [ 22.614568, -70.1007278 ], [ 22.6251542, -70.1000066 ], [ 22.6468123, -70.0977114 ], [ 22.6676493, -70.0947479 ], [ 22.6777934, -70.0930433 ], [ 22.6840893, -70.093189 ], [ 22.6885977, -70.0943708 ], [ 22.6936512, -70.095996 ], [ 22.693876, -70.0980486 ], [ 22.690952, -70.1000286 ], [ 22.7002798, -70.0976573 ], [ 22.7146006, -70.0956156 ], [ 22.7294633, -70.0940162 ], [ 22.7482899, -70.0931522 ], [ 22.7711865, -70.0924859 ], [ 22.7858996, -70.0932488 ], [ 22.8028385, -70.0939524 ], [ 22.8184779, -70.0948408 ], [ 22.8335026, -70.0939902 ], [ 22.8466778, -70.0928819 ], [ 22.8529049, -70.0917268 ], [ 22.8547154, -70.0888579 ], [ 22.8594689, -70.0871314 ], [ 22.8731153, -70.0851696 ], [ 22.8853585, -70.0839303 ], [ 22.888029, -70.0848507 ], [ 22.8938473, -70.0858399 ], [ 22.9018897, -70.0867697 ], [ 22.9090088, -70.0875713 ], [ 22.9179029, -70.0873338 ], [ 22.9303444, -70.0850182 ], [ 22.9385367, -70.0817482 ], [ 22.9453523, -70.077371 ], [ 22.945826, -70.0765194 ], [ 22.9473465, -70.0734283 ], [ 22.9513632, -70.0704986 ], [ 22.9550045, -70.0678841 ], [ 22.9623166, -70.0676104 ], [ 22.9692335, -70.0694824 ], [ 22.9712572, -70.0704952 ], [ 22.9692678, -70.0744381 ], [ 22.9655065, -70.0794204 ], [ 22.9606973, -70.0866423 ], [ 22.9563811, -70.0911817 ], [ 22.9498385, -70.0957809 ], [ 22.9468175, -70.1001328 ], [ 22.9436954, -70.1050211 ], [ 22.941322, -70.1092792 ], [ 22.9374715, -70.1129668 ], [ 22.9277643, -70.1174975 ], [ 22.9353955, -70.1156154 ], [ 22.9519009, -70.1085374 ], [ 22.9567187, -70.1013153 ], [ 22.9658603, -70.0963405 ], [ 22.9705498, -70.0914856 ], [ 22.9787586, -70.0863827 ], [ 22.9825178, -70.0814001 ], [ 22.988222, -70.0761359 ], [ 22.9947489, -70.0715354 ], [ 23.0000551, -70.0684169 ], [ 23.0080339, -70.0658963 ], [ 23.0213583, -70.0658524 ], [ 23.0319764, -70.0682306 ], [ 23.0394516, -70.0705421 ], [ 23.0425678, -70.0742697 ], [ 23.0437393, -70.0782795 ], [ 23.0420397, -70.0824447 ], [ 23.0386683, -70.0871133 ], [ 23.0324225, -70.0919369 ], [ 23.0298096, -70.094144 ], [ 23.0316291, -70.0980602 ], [ 23.0335927, -70.0959471 ], [ 23.0428769, -70.0935568 ], [ 23.0502943, -70.0927428 ], [ 23.0563161, -70.0926533 ], [ 23.0519381, -70.095901 ], [ 23.0470199, -70.0968752 ], [ 23.0555438, -70.0969458 ], [ 23.0730734, -70.0952324 ], [ 23.0809234, -70.1000397 ], [ 23.0898616, -70.1062345 ], [ 23.0957475, -70.1097726 ], [ 23.1056952, -70.1141691 ], [ 23.1177241, -70.1171908 ], [ 23.1289306, -70.1218365 ], [ 23.1415308, -70.1275869 ], [ 23.1465798, -70.1328421 ], [ 23.1490185, -70.1390494 ], [ 23.1510543, -70.1418914 ], [ 23.1543059, -70.1414187 ], [ 23.1642436, -70.140758 ], [ 23.1772427, -70.1425282 ], [ 23.1943311, -70.1426558 ], [ 23.2052903, -70.1434134 ], [ 23.2155707, -70.140925 ], [ 23.2301765, -70.1405692 ], [ 23.2326418, -70.1428809 ], [ 23.2375268, -70.1476081 ], [ 23.2464533, -70.1510155 ], [ 23.2625408, -70.1552094 ], [ 23.2763065, -70.1581714 ], [ 23.2868252, -70.1616077 ], [ 23.3168557, -70.1621892 ], [ 23.3283792, -70.1615493 ], [ 23.3402716, -70.1605925 ], [ 23.3532851, -70.1605179 ], [ 23.3682483, -70.1601562 ], [ 23.3779956, -70.1587253 ], [ 23.3855991, -70.1568227 ], [ 23.4080312, -70.1557417 ], [ 23.4220275, -70.1547737 ], [ 23.4393087, -70.1559969 ], [ 23.4482507, -70.1575625 ], [ 23.4606864, -70.1630689 ], [ 23.4707615, -70.1655158 ], [ 23.4819413, -70.1670129 ], [ 23.4941394, -70.1680971 ], [ 23.5028089, -70.1694394 ], [ 23.5103788, -70.1717305 ], [ 23.5226961, -70.174107 ], [ 23.5255239, -70.1763118 ], [ 23.5274198, -70.178392 ], [ 23.5300809, -70.1816707 ], [ 23.5550016, -70.1806095 ], [ 23.5715237, -70.1784267 ], [ 23.5857798, -70.1780952 ], [ 23.5985055, -70.1783649 ], [ 23.5982595, -70.1799759 ], [ 23.5992305, -70.1819313 ], [ 23.6115651, -70.1843013 ], [ 23.6202103, -70.1838063 ], [ 23.6175705, -70.18656 ], [ 23.621426, -70.1883503 ], [ 23.6372975, -70.1862573 ], [ 23.6398558, -70.18824 ], [ 23.6487863, -70.1879638 ], [ 23.6570675, -70.1877837 ], [ 23.6640496, -70.1877961 ], [ 23.6645823, -70.190605 ], [ 23.6651953, -70.1928768 ], [ 23.6735679, -70.1963586 ], [ 23.6802793, -70.2003499 ], [ 23.6867083, -70.2041209 ], [ 23.6881002, -70.2075905 ], [ 23.6791266, -70.2102372 ], [ 23.6794871, -70.2131119 ], [ 23.6838833, -70.2167455 ], [ 23.6798601, -70.2199796 ], [ 23.6921629, -70.2232157 ], [ 23.695763, -70.2275918 ], [ 23.6971387, -70.2326492 ], [ 23.6938938, -70.2373408 ], [ 23.6942939, -70.243245 ], [ 23.700507, -70.2472339 ], [ 23.7022676, -70.2525859 ], [ 23.7067453, -70.256833 ], [ 23.7166825, -70.2644803 ], [ 23.71469, -70.2693376 ], [ 23.7222743, -70.2727735 ], [ 23.7236604, -70.2778314 ], [ 23.7286369, -70.2816549 ], [ 23.7292208, -70.2846664 ], [ 23.7293644, -70.2854072 ], [ 23.7324284, -70.2877601 ], [ 23.7378974, -70.29116 ], [ 23.7405801, -70.2932187 ], [ 23.7472023, -70.2975005 ], [ 23.7567557, -70.2992413 ], [ 23.7664868, -70.3027108 ], [ 23.7763249, -70.3054621 ], [ 23.7907032, -70.309294 ], [ 23.8119632, -70.3091694 ], [ 23.8285817, -70.3101666 ], [ 23.8449891, -70.3102062 ], [ 23.8611652, -70.3093391 ], [ 23.8675559, -70.3073782 ], [ 23.87027, -70.3054618 ], [ 23.8740994, -70.3021194 ], [ 23.8779889, -70.300531 ], [ 23.8895659, -70.300817 ], [ 23.8961486, -70.3018488 ], [ 23.9015543, -70.3025524 ], [ 23.9098053, -70.3025786 ], [ 23.918127, -70.3020898 ], [ 23.9287379, -70.3005019 ], [ 23.9315148, -70.2980701 ], [ 23.936163, -70.2953579 ], [ 23.9412965, -70.2913127 ], [ 23.9412988, -70.2890441 ], [ 23.9435189, -70.2861912 ], [ 23.9510015, -70.2850693 ], [ 23.9611155, -70.2848124 ], [ 23.9728911, -70.2835492 ], [ 23.9806482, -70.2826365 ], [ 23.9911097, -70.2843423 ], [ 23.9953397, -70.2869842 ], [ 23.9990842, -70.2886907 ], [ 24.0062239, -70.290139 ], [ 24.0144018, -70.2906746 ], [ 24.0227155, -70.2901808 ], [ 24.0288888, -70.292026 ], [ 24.0345072, -70.2934503 ], [ 24.0444231, -70.2947321 ], [ 24.0528154, -70.2959908 ], [ 24.0569783, -70.2968772 ], [ 24.0671757, -70.2983681 ], [ 24.0735552, -70.298668 ], [ 24.0825601, -70.2975628 ], [ 24.0925319, -70.2960586 ], [ 24.0984688, -70.2926394 ], [ 24.1042725, -70.2902492 ], [ 24.1156329, -70.2897949 ], [ 24.117009, -70.2885775 ], [ 24.116024, -70.2867074 ], [ 24.1195975, -70.2825655 ], [ 24.1305406, -70.2829986 ], [ 24.1426898, -70.2859563 ], [ 24.1479715, -70.2876812 ], [ 24.1514722, -70.2914427 ], [ 24.1574019, -70.2953416 ], [ 24.1656099, -70.2981385 ], [ 24.1760323, -70.3003476 ], [ 24.1869272, -70.3012223 ], [ 24.1983395, -70.2998876 ], [ 24.2099363, -70.3005121 ], [ 24.2188717, -70.2999141 ], [ 24.2249739, -70.2999983 ], [ 24.2333799, -70.3012481 ], [ 24.2417253, -70.3030121 ], [ 24.2521869, -70.3024333 ], [ 24.2554844, -70.3004162 ], [ 24.2510586, -70.2965414 ], [ 24.2404734, -70.2930977 ], [ 24.2330347, -70.2914493 ], [ 24.225193, -70.2906196 ], [ 24.2206811, -70.2900418 ], [ 24.226998, -70.285799 ], [ 24.2361742, -70.2831418 ], [ 24.2475555, -70.2798957 ], [ 24.2580309, -70.2765335 ], [ 24.2727928, -70.2730226 ], [ 24.294544, -70.2697073 ], [ 24.3045449, -70.2676762 ], [ 24.3144839, -70.2661592 ], [ 24.322958, -70.2641069 ], [ 24.3361015, -70.2638679 ], [ 24.347989, -70.2666008 ], [ 24.3466739, -70.2700884 ], [ 24.3442933, -70.2722218 ], [ 24.3458618, -70.2745102 ], [ 24.3464099, -70.2777129 ], [ 24.3448126, -70.2809906 ], [ 24.3464859, -70.2850329 ], [ 24.3455098, -70.2882157 ], [ 24.3497889, -70.2908488 ], [ 24.3541283, -70.2929671 ], [ 24.3667751, -70.2945747 ], [ 24.3711274, -70.2939094 ], [ 24.3815801, -70.2933226 ], [ 24.3890398, -70.2921814 ], [ 24.3948582, -70.2920497 ], [ 24.4003305, -70.295006 ], [ 24.4000422, -70.2975794 ], [ 24.3991897, -70.2997333 ], [ 24.4036457, -70.3036042 ], [ 24.4103667, -70.3063699 ], [ 24.4172001, -70.3108893 ], [ 24.4227956, -70.3128155 ], [ 24.4253383, -70.3147031 ], [ 24.4314439, -70.3175634 ], [ 24.4350622, -70.3208045 ], [ 24.4355735, -70.3161719 ], [ 24.439533, -70.3135412 ], [ 24.4455269, -70.3118636 ], [ 24.4515761, -70.3096711 ], [ 24.4571746, -70.3115962 ], [ 24.4605692, -70.3141123 ], [ 24.4654359, -70.3171621 ], [ 24.4730756, -70.3200396 ], [ 24.4773792, -70.3226697 ], [ 24.4777229, -70.3251481 ], [ 24.4829398, -70.3306757 ], [ 24.4858236, -70.3294739 ], [ 24.4882511, -70.3268234 ], [ 24.4871728, -70.3254701 ], [ 24.4846226, -70.3235833 ], [ 24.4859778, -70.3223628 ], [ 24.4958205, -70.3218644 ], [ 24.5052141, -70.3227002 ], [ 24.5142702, -70.3238404 ], [ 24.52814, -70.3257597 ], [ 24.535617, -70.3273954 ], [ 24.5388488, -70.328671 ], [ 24.544814, -70.3330716 ], [ 24.5577171, -70.3326059 ], [ 24.5693757, -70.3323308 ], [ 24.5770562, -70.3379873 ], [ 24.5838139, -70.3407463 ], [ 24.5948415, -70.3424961 ], [ 24.5921022, -70.3397503 ], [ 24.5946122, -70.3385567 ], [ 24.5964348, -70.3370067 ], [ 24.5997053, -70.3364533 ], [ 24.6006318, -70.3350314 ], [ 24.6027545, -70.3341728 ], [ 24.6056382, -70.3339544 ], [ 24.6085682, -70.3339944 ], [ 24.6110531, -70.334103 ], [ 24.6148886, -70.3340229 ], [ 24.6196176, -70.3338146 ], [ 24.6237715, -70.3337836 ], [ 24.6284439, -70.3333082 ], [ 24.6329177, -70.3326666 ], [ 24.6373515, -70.3317652 ], [ 24.6421742, -70.3298785 ], [ 24.6446413, -70.3277749 ], [ 24.6457628, -70.3258595 ], [ 24.6461759, -70.3242308 ], [ 24.6462146, -70.322286 ], [ 24.6466955, -70.3202728 ], [ 24.6424254, -70.3169078 ], [ 24.6379196, -70.3159807 ], [ 24.6339972, -70.3142253 ], [ 24.6297435, -70.3130721 ], [ 24.6258424, -70.3106739 ], [ 24.6228711, -70.3090569 ], [ 24.6220272, -70.3065897 ], [ 24.6222761, -70.3041602 ], [ 24.6259448, -70.3019695 ], [ 24.6310872, -70.3001312 ], [ 24.6340305, -70.2995283 ], [ 24.6391157, -70.3002865 ], [ 24.6446472, -70.3009755 ], [ 24.6540017, -70.3015844 ], [ 24.6395521, -70.2976821 ], [ 24.6238296, -70.2960601 ], [ 24.6103315, -70.2966266 ], [ 24.6038696, -70.2940784 ], [ 24.6004075, -70.29208 ], [ 24.6021419, -70.2900387 ], [ 24.6147827, -70.2888445 ], [ 24.6226921, -70.2891414 ], [ 24.6430581, -70.2870028 ], [ 24.6599025, -70.2833793 ], [ 24.6691187, -70.2796693 ], [ 24.6822841, -70.2761058 ], [ 24.6904385, -70.2738257 ], [ 24.6934863, -70.2738594 ], [ 24.7013908, -70.2741525 ], [ 24.6988761, -70.2717545 ], [ 24.69879, -70.2694864 ], [ 24.6999422, -70.2670256 ], [ 24.7044254, -70.2648077 ], [ 24.7067654, -70.2626692 ], [ 24.7024934, -70.2595307 ], [ 24.6954263, -70.2537849 ], [ 24.6818577, -70.2460087 ], [ 24.6706226, -70.2393911 ], [ 24.6590608, -70.2330783 ], [ 24.6483871, -70.2301755 ], [ 24.6411195, -70.2297838 ], [ 24.6304769, -70.2296625 ], [ 24.6240606, -70.2298981 ], [ 24.6189843, -70.2289123 ], [ 24.6158157, -70.227124 ], [ 24.6185474, -70.2241671 ], [ 24.6141948, -70.2220559 ], [ 24.6171576, -70.219823 ], [ 24.6238799, -70.2164998 ], [ 24.6299308, -70.2137869 ], [ 24.6291057, -70.2098618 ], [ 24.6212545, -70.2062682 ], [ 24.6208946, -70.203791 ], [ 24.6281253, -70.201401 ], [ 24.6361253, -70.1973709 ], [ 24.6385157, -70.1947193 ], [ 24.6456103, -70.1905754 ], [ 24.6603375, -70.1860026 ], [ 24.6704577, -70.1818921 ], [ 24.6817069, -70.1786179 ], [ 24.6883543, -70.1758071 ], [ 24.6939017, -70.1749415 ], [ 24.699017, -70.1754103 ], [ 24.703085, -70.1773096 ], [ 24.7040713, -70.1796902 ], [ 24.7064764, -70.1831167 ], [ 24.7115835, -70.186882 ], [ 24.7247985, -70.191663 ], [ 24.7417695, -70.1953502 ], [ 24.7503514, -70.1978124 ], [ 24.761594, -70.1978297 ], [ 24.7718403, -70.1987631 ], [ 24.7819931, -70.200725 ], [ 24.7891111, -70.2026546 ], [ 24.7945715, -70.206112 ], [ 24.803735, -70.2089896 ], [ 24.8101948, -70.2115295 ], [ 24.8100611, -70.2163708 ], [ 24.8104454, -70.2188477 ], [ 24.8207206, -70.2263726 ], [ 24.8322391, -70.2337036 ], [ 24.8393392, -70.2394434 ], [ 24.8513864, -70.2444087 ], [ 24.8588279, -70.249842 ], [ 24.8724988, -70.2537917 ], [ 24.8789376, -70.2568442 ], [ 24.8905211, -70.2603595 ], [ 24.896391, -70.2629935 ], [ 24.904272, -70.2670896 ], [ 24.8998574, -70.261688 ], [ 24.8887171, -70.2530256 ], [ 24.8770315, -70.2472423 ], [ 24.8727803, -70.2435934 ], [ 24.8690133, -70.2413919 ], [ 24.8604277, -70.2351233 ], [ 24.8613166, -70.2319381 ], [ 24.8617384, -70.2306029 ], [ 24.8759345, -70.2283753 ], [ 24.885522, -70.2266162 ], [ 24.8983902, -70.2256101 ], [ 24.9096491, -70.2256176 ], [ 24.922472, -70.2251243 ], [ 24.9328269, -70.2250185 ], [ 24.954526, -70.2238871 ], [ 24.9330003, -70.2229596 ], [ 24.9193196, -70.222827 ], [ 24.9074456, -70.2229172 ], [ 24.9004621, -70.2227455 ], [ 24.8971356, -70.2225067 ], [ 24.8901525, -70.2223346 ], [ 24.8762864, -70.2138511 ], [ 24.8613352, -70.2040164 ], [ 24.8491036, -70.194517 ], [ 24.8322412, -70.1859997 ], [ 24.812871, -70.1717887 ], [ 24.8024875, -70.1658083 ], [ 24.7985058, -70.1628821 ], [ 24.7998769, -70.1611451 ], [ 24.8066923, -70.159568 ], [ 24.8319153, -70.1556054 ], [ 24.8359817, -70.154205 ], [ 24.8190824, -70.1533097 ], [ 24.8121248, -70.1531345 ], [ 24.8072969, -70.1528781 ], [ 24.8026089, -70.151078 ], [ 24.8003351, -70.1494059 ], [ 24.8065316, -70.1479255 ], [ 24.8140032, -70.1457369 ], [ 24.8120597, -70.1437594 ], [ 24.8069499, -70.1432941 ], [ 24.8027858, -70.1424266 ], [ 24.8035403, -70.1407862 ], [ 24.8103948, -70.1386946 ], [ 24.8105339, -70.1371508 ], [ 24.8151132, -70.1333871 ], [ 24.8092409, -70.1279695 ], [ 24.8007245, -70.1217 ], [ 24.7942959, -70.1191603 ], [ 24.7905615, -70.1169579 ], [ 24.7892374, -70.1148837 ], [ 24.7899449, -70.1137581 ], [ 24.7986329, -70.1113774 ], [ 24.8104859, -70.1107804 ], [ 24.8260662, -70.1090882 ], [ 24.851039, -70.1071814 ], [ 24.871714, -70.1059489 ], [ 24.8772335, -70.1050774 ], [ 24.8976639, -70.1031183 ], [ 24.9144128, -70.1017386 ], [ 24.9263429, -70.1001043 ], [ 24.9459507, -70.0969985 ], [ 24.9618355, -70.0949879 ], [ 24.9782455, -70.0939077 ], [ 24.9956344, -70.0919082 ], [ 25.0, -70.091652612844754 ], [ 25.0, -75.0 ], [ 20.0, -75.0 ], [ 20.0, -70.0 ], [ 21.646744633106241, -70.0 ], [ 21.6468073, -70.0002699 ] ] ], [ [ [ 24.979158, -70.0863982 ], [ 24.9556188, -70.0860714 ], [ 24.9292167, -70.0874643 ], [ 24.9040797, -70.0881447 ], [ 24.8871461, -70.0882854 ], [ 24.8675217, -70.0880883 ], [ 24.8527555, -70.0876295 ], [ 24.8401576, -70.0865737 ], [ 24.8298753, -70.0866739 ], [ 24.8195472, -70.0872878 ], [ 24.8162448, -70.0870476 ], [ 24.810583, -70.0861645 ], [ 24.8119937, -70.0839134 ], [ 24.8183065, -70.0808894 ], [ 24.8141027, -70.0772407 ], [ 24.8054215, -70.0730303 ], [ 24.7950497, -70.0708615 ], [ 24.7916542, -70.0683538 ], [ 24.7912286, -70.0663925 ], [ 24.793299, -70.0635307 ], [ 24.7950395, -70.0609743 ], [ 24.7946137, -70.059013 ], [ 24.7935291, -70.0576627 ], [ 24.792398, -70.0568269 ], [ 24.8013896, -70.054141 ], [ 24.8071805, -70.0534808 ], [ 24.8185699, -70.0509222 ], [ 24.8275095, -70.0487494 ], [ 24.8391314, -70.0469127 ], [ 24.8461421, -70.0460579 ], [ 24.8540467, -70.0453149 ], [ 24.8660074, -70.0464662 ], [ 24.8777301, -70.0468936 ], [ 24.8825329, -70.0471477 ], [ 24.8924224, -70.0478645 ], [ 24.8986881, -70.0486477 ], [ 24.9107839, -70.0482527 ], [ 24.9235337, -70.0472451 ], [ 24.9429612, -70.0456835 ], [ 24.9563609, -70.044062 ], [ 24.9722014, -70.0420507 ], [ 24.9952428, -70.0404145 ], [ 25.0, -70.039865513166475 ], [ 25.0, -70.086251172643358 ], [ 24.979158, -70.0863982 ] ] ] ] } }
]
}
