{
"type": "FeatureCollection",
"name": "20_-70",
"crs": { "type": "name", "properties": { "name": "urn:ogc:def:crs:OGC:1.3:CRS84" } },
"xy_coordinate_resolution": 1e-15,
"features": [
{ "type": "Feature", "properties": { "FID": 307096, "id": 1472, "left": 20.0, "top": -65.0, "right": 25.0, "bottom": -70.0, "row_index": 31, "col_index": 40, "min_lon": 20.0, "min_lat": -70.0, "tile_id": "20_-70" }, "geometry": { "type": "MultiPolygon", "coordinates": [ [ [ [ 20.0061483, -69.9441879 ], [ 20.0185304, -69.9439188 ], [ 20.0284589, -69.9434442 ], [ 20.0175105, -69.9422561 ], [ 20.0073998, -69.9404512 ], [ 20.0, -69.9395148 ], [ 20.0, -69.7453953 ], [ 20.0055625, -69.7456171 ], [ 20.0188862, -69.7449582 ], [ 20.0280031, -69.743807 ], [ 20.034698, -69.7452617 ], [ 20.0420371, -69.7438231 ], [ 20.0516797, -69.74107 ], [ 20.0569389, -69.7383593 ], [ 20.0718452, -69.7357052 ], [ 20.0741478, -69.7343909 ], [ 20.0835434, -69.7314105 ], [ 20.0910481, -69.729436 ], [ 20.1014548, -69.7281158 ], [ 20.1085444, -69.7264488 ], [ 20.1228689, -69.7274426 ], [ 20.1311043, -69.7289537 ], [ 20.1430041, -69.7297427 ], [ 20.1624684, -69.7293124 ], [ 20.1757755, -69.7286409 ], [ 20.1831647, -69.727955 ], [ 20.2016332, -69.7286703 ], [ 20.2089859, -69.730035 ], [ 20.2194183, -69.7315182 ], [ 20.2273547, -69.7320402 ], [ 20.2398082, -69.734032 ], [ 20.2424448, -69.7365105 ], [ 20.2514125, -69.7386916 ], [ 20.2680134, -69.7404078 ], [ 20.281607, -69.7427639 ], [ 20.2961211, -69.743209 ], [ 20.3031022, -69.7428263 ], [ 20.3123704, -69.7411256 ], [ 20.3144887, -69.7403417 ], [ 20.3285929, -69.7410926 ], [ 20.3509772, -69.7412904 ], [ 20.3643599, -69.7413627 ], [ 20.377724, -69.7434858 ], [ 20.3922409, -69.7439224 ], [ 20.4095681, -69.7483517 ], [ 20.4257828, -69.750361 ], [ 20.4385987, -69.7512701 ], [ 20.4480903, -69.7518387 ], [ 20.454334, -69.7528265 ], [ 20.4664164, -69.7551103 ], [ 20.4687817, -69.7524975 ], [ 20.4766628, -69.7501965 ], [ 20.4877754, -69.7515788 ], [ 20.5044071, -69.7532713 ], [ 20.5187667, -69.7562829 ], [ 20.5298853, -69.7576623 ], [ 20.5451449, -69.7608123 ], [ 20.5682847, -69.7616555 ], [ 20.5935398, -69.7637599 ], [ 20.6027195, -69.765388 ], [ 20.6145047, -69.7687293 ], [ 20.6227175, -69.7715092 ], [ 20.6306117, -69.7753569 ], [ 20.6425588, -69.7761101 ], [ 20.6515784, -69.7762176 ], [ 20.6583936, -69.774302 ], [ 20.6690422, -69.7752227 ], [ 20.6854639, -69.7766725 ], [ 20.6997661, -69.7768575 ], [ 20.7098239, -69.7745152 ], [ 20.7246862, -69.7738543 ], [ 20.7460587, -69.7743933 ], [ 20.7594646, -69.7744336 ], [ 20.7745943, -69.7760448 ], [ 20.7921664, -69.7778479 ], [ 20.8091837, -69.7804933 ], [ 20.8169723, -69.7794692 ], [ 20.8237728, -69.7775468 ], [ 20.8347118, -69.7753361 ], [ 20.8443182, -69.7766409 ], [ 20.8605996, -69.7786076 ], [ 20.876296, -69.7793652 ], [ 20.8943164, -69.7828995 ], [ 20.9126492, -69.785363 ], [ 20.9316353, -69.7877387 ], [ 20.9441536, -69.7876255 ], [ 20.9595567, -69.7894442 ], [ 20.9772551, -69.7919865 ], [ 20.9894209, -69.7942323 ], [ 21.0028408, -69.7942529 ], [ 21.0167114, -69.7926687 ], [ 21.0314774, -69.7912213 ], [ 21.0495341, -69.7913935 ], [ 21.0581154, -69.7930826 ], [ 21.0733846, -69.7954253 ], [ 21.083165, -69.7961816 ], [ 21.102421, -69.7954164 ], [ 21.1131461, -69.7950153 ], [ 21.1288649, -69.7957489 ], [ 21.1345079, -69.7967977 ], [ 21.1423036, -69.7991037 ], [ 21.1514595, -69.8032883 ], [ 21.1647594, -69.7991915 ], [ 21.1839345, -69.8010036 ], [ 21.2057444, -69.8011727 ], [ 21.2276246, -69.8033909 ], [ 21.2451174, -69.8056808 ], [ 21.268555, -69.8079435 ], [ 21.2829939, -69.8088368 ], [ 21.3025195, -69.8129112 ], [ 21.3127588, -69.8166887 ], [ 21.3231756, -69.8186372 ], [ 21.3251684, -69.8217208 ], [ 21.3288538, -69.8243186 ], [ 21.3250439, -69.8268949 ], [ 21.3180223, -69.8286144 ], [ 21.3119011, -69.8304701 ], [ 21.3191614, -69.8349077 ], [ 21.3183071, -69.838117 ], [ 21.308718, -69.8388919 ], [ 21.3001728, -69.8392678 ], [ 21.2886353, -69.8403032 ], [ 21.2763042, -69.8419599 ], [ 21.2713295, -69.8441747 ], [ 21.2591385, -69.8452952 ], [ 21.2727024, -69.8460527 ], [ 21.2839909, -69.8447945 ], [ 21.2969723, -69.84305 ], [ 21.3157275, -69.8431059 ], [ 21.333185, -69.8433344 ], [ 21.3489504, -69.8440473 ], [ 21.3616141, -69.8446612 ], [ 21.3745325, -69.8454979 ], [ 21.3877061, -69.8465573 ], [ 21.3928421, -69.8484437 ], [ 21.3974443, -69.8511762 ], [ 21.3968563, -69.8546098 ], [ 21.391524, -69.8558459 ], [ 21.3848931, -69.857257 ], [ 21.3801807, -69.8596988 ], [ 21.3754954, -69.8608468 ], [ 21.3707812, -69.8632884 ], [ 21.374339, -69.8664204 ], [ 21.374283, -69.869008 ], [ 21.3689171, -69.8715371 ], [ 21.3629286, -69.8728598 ], [ 21.3567688, -69.8760111 ], [ 21.3568521, -69.8780636 ], [ 21.364056, -69.8804473 ], [ 21.3739747, -69.8832392 ], [ 21.3836692, -69.8845131 ], [ 21.3850553, -69.8863904 ], [ 21.3847735, -69.8874605 ], [ 21.3981428, -69.8866904 ], [ 21.4095612, -69.8861822 ], [ 21.4226489, -69.8864802 ], [ 21.429633, -69.8873437 ], [ 21.4404933, -69.8889737 ], [ 21.4478041, -69.8934065 ], [ 21.4495685, -69.8962656 ], [ 21.4441814, -69.9000912 ], [ 21.4527273, -69.9010017 ], [ 21.4601126, -69.9015525 ], [ 21.4685432, -69.9017034 ], [ 21.4724747, -69.9071099 ], [ 21.4781253, -69.910735 ], [ 21.4804289, -69.9127473 ], [ 21.4803445, -69.9179231 ], [ 21.479567, -69.9257748 ], [ 21.474156, -69.9308957 ], [ 21.4709741, -69.9346822 ], [ 21.4744218, -69.938348 ], [ 21.480872, -69.9413503 ], [ 21.4852516, -69.9438575 ], [ 21.4914282, -69.9479298 ], [ 21.4975874, -69.953296 ], [ 21.4996611, -69.9537907 ], [ 21.4952544, -69.9611011 ], [ 21.492092, -69.9635944 ], [ 21.4912809, -69.9655117 ], [ 21.4959242, -69.9682425 ], [ 21.5003316, -69.9694554 ], [ 21.5129238, -69.9718875 ], [ 21.5199425, -69.9727473 ], [ 21.5267042, -69.9733834 ], [ 21.5385126, -69.976437 ], [ 21.544624, -69.9771605 ], [ 21.5556966, -69.976954 ], [ 21.5765664, -69.9741272 ], [ 21.5867129, -69.9750777 ], [ 21.6036388, -69.9753665 ], [ 21.6140333, -69.9778328 ], [ 21.6184379, -69.9803369 ], [ 21.6264984, -69.982086 ], [ 21.6316818, -69.9852599 ], [ 21.631007, -69.9879369 ], [ 21.6320195, -69.991419 ], [ 21.6366992, -69.9928518 ], [ 21.6416491, -69.9932136 ], [ 21.6460507, -69.9970113 ], [ 21.646744633106241, -70.0 ], [ 20.0, -70.0 ], [ 20.0, -69.943945 ], [ 20.0061483, -69.9441879 ] ] ] ] } }
]
}
