{
"type": "FeatureCollection",
"name": "20_0",
"crs": { "type": "name", "properties": { "name": "urn:ogc:def:crs:OGC:1.3:CRS84" } },
"xy_coordinate_resolution": 1e-15,
"features": [
{ "type": "Feature", "properties": { "FID": 660342, "id": 1458, "left": 20.0, "top": 5.0, "right": 25.0, "bottom": 0.0, "row_index": 17, "col_index": 40, "min_lon": 20.0, "min_lat": 0.0, "tile_id": "20_0" }, "geometry": { "type": "MultiPolygon", "coordinates": [ [ [ [ 25.0, 5.0 ], [ 25.0, 0.0 ], [ 20.0, 0.0 ], [ 20.0, 5.0 ], [ 25.0, 5.0 ] ] ] ] } }
]
}
