{
"type": "FeatureCollection",
"name": "20_15",
"crs": { "type": "name", "properties": { "name": "urn:ogc:def:crs:OGC:1.3:CRS84" } },
"xy_coordinate_resolution": 1e-15,
"features": [
{ "type": "Feature", "properties": { "FID": 660342, "id": 1455, "left": 20.0, "top": 20.0, "right": 25.0, "bottom": 15.0, "row_index": 14, "col_index": 40, "min_lon": 20.0, "min_lat": 15.0, "tile_id": "20_15" }, "geometry": { "type": "MultiPolygon", "coordinates": [ [ [ [ 25.0, 20.0 ], [ 25.0, 15.0 ], [ 20.0, 15.0 ], [ 20.0, 20.0 ], [ 25.0, 20.0 ] ] ] ] } }
]
}
