{
"type": "FeatureCollection",
"name": "20_45",
"crs": { "type": "name", "properties": { "name": "urn:ogc:def:crs:OGC:1.3:CRS84" } },
"xy_coordinate_resolution": 1e-15,
"features": [
{ "type": "Feature", "properties": { "FID": 123912, "id": 1449, "left": 20.0, "top": 50.0, "right": 25.0, "bottom": 45.0, "row_index": 8, "col_index": 40, "min_lon": 20.0, "min_lat": 45.0, "tile_id": "20_45" }, "geometry": { "type": "MultiPolygon", "coordinates": [ [ [ [ 25.0, 50.0 ], [ 25.0, 45.0 ], [ 20.0, 45.0 ], [ 20.0, 50.0 ], [ 25.0, 50.0 ] ] ] ] } }
]
}
