{
"type": "FeatureCollection",
"name": "25_-70",
"crs": { "type": "name", "properties": { "name": "urn:ogc:def:crs:OGC:1.3:CRS84" } },
"xy_coordinate_resolution": 1e-15,
"features": [
{ "type": "Feature", "properties": { "FID": 307096, "id": 1508, "left": 25.0, "top": -65.0, "right": 30.0, "bottom": -70.0, "row_index": 31, "col_index": 41, "min_lon": 25.0, "min_lat": -70.0, "tile_id": "25_-70" }, "geometry": { "type": "MultiPolygon", "coordinates": [ [ [ [ 25.190127, -69.9992954 ], [ 25.1993239, -69.9967971 ], [ 25.2147441, -69.9955839 ], [ 25.2252277, -69.9961828 ], [ 25.2319167, -69.9951038 ], [ 25.2425392, -69.9936439 ], [ 25.2539862, -69.9933223 ], [ 25.266259, -69.9941387 ], [ 25.2791409, -69.9948558 ], [ 25.2964985, -69.9961206 ], [ 25.318367, -69.9974174 ], [ 25.3404941, -69.9994338 ], [ 25.346156391442484, -70.0 ], [ 25.18503353878809, -70.0 ], [ 25.190127, -69.9992954 ] ] ], [ [ [ 26.580298, -69.9949178 ], [ 26.588066, -69.9905156 ], [ 26.5961318, -69.9878531 ], [ 26.6056919, -69.9862134 ], [ 26.6173374, -69.9829348 ], [ 26.6307742, -69.9803712 ], [ 26.6427157, -69.978319 ], [ 26.6573418, -69.9760599 ], [ 26.6779377, -69.9737955 ], [ 26.6412161, -69.9767844 ], [ 26.6227054, -69.979453 ], [ 26.6092662, -69.9809924 ], [ 26.5955272, -69.9833496 ], [ 26.579395, -69.9866271 ], [ 26.5686377, -69.9905172 ], [ 26.559371, -69.993383 ], [ 26.5530916, -69.9962487 ], [ 26.5495017, -69.9989097 ], [ 26.546921357156819, -70.0 ], [ 26.500845842531266, -70.0 ], [ 26.4956755, -69.9994078 ], [ 26.4882036, -69.998381 ], [ 26.4876275, -69.9928535 ], [ 26.4846507, -69.9897814 ], [ 26.4849655, -69.985892 ], [ 26.4867679, -69.9835387 ], [ 26.4894676, -69.9807764 ], [ 26.4939617, -69.9771961 ], [ 26.5020335, -69.9750499 ], [ 26.5160771, -69.9723936 ], [ 26.5298189, -69.9695312 ], [ 26.5381831, -69.9665646 ], [ 26.5444546, -69.9642115 ], [ 26.5528145, -69.9612443 ], [ 26.557889, -69.9585835 ], [ 26.562067, -69.9573555 ], [ 26.5808633, -69.9543868 ], [ 26.5951795, -69.9514168 ], [ 26.5871249, -69.9510087 ], [ 26.5698242, -69.9529547 ], [ 26.5537138, -69.9541825 ], [ 26.5381971, -69.9563299 ], [ 26.5226757, -69.9589877 ], [ 26.5080452, -69.9617467 ], [ 26.4975923, -69.9637898 ], [ 26.4847429, -69.9672639 ], [ 26.4745822, -69.9695105 ], [ 26.4680004, -69.9721678 ], [ 26.4635158, -69.9731886 ], [ 26.4569342, -69.9753339 ], [ 26.4467782, -69.9755317 ], [ 26.4375242, -69.9748085 ], [ 26.4273793, -69.9734699 ], [ 26.4178299, -69.9725406 ], [ 26.4097743, -69.9716121 ], [ 26.4032083, -69.9711965 ], [ 26.3921773, -69.9692408 ], [ 26.3871144, -69.9678026 ], [ 26.3799763, -69.9649291 ], [ 26.3767192, -69.962162 ], [ 26.3725687, -69.9592916 ], [ 26.3732016, -69.9556078 ], [ 26.3738241, -69.9529476 ], [ 26.3747479, -69.9499807 ], [ 26.3801593, -69.9454836 ], [ 26.3840587, -69.9430317 ], [ 26.4007845, -69.9396717 ], [ 26.410049, -69.9368151 ], [ 26.41752, -69.9342633 ], [ 26.4378127, -69.9302888 ], [ 26.4479575, -69.9280449 ], [ 26.467933, -69.9253969 ], [ 26.4843243, -69.9238707 ], [ 26.4926683, -69.9229535 ], [ 26.506071, -69.9234704 ], [ 26.5194719, -69.9250097 ], [ 26.5281095, -69.9258305 ], [ 26.541517, -69.9248095 ], [ 26.5528383, -69.9228664 ], [ 26.5590938, -69.922048 ], [ 26.5769652, -69.9220478 ], [ 26.5909657, -69.9229672 ], [ 26.6022868, -69.9240907 ], [ 26.6159915, -69.9248034 ], [ 26.6294004, -69.9258222 ], [ 26.6392279, -69.9248971 ], [ 26.6484636, -69.9250974 ], [ 26.655916, -69.9261169 ], [ 26.672606, -69.9273349 ], [ 26.6958425, -69.926909 ], [ 26.7131075, -69.9249502 ], [ 26.7369397, -69.9249273 ], [ 26.7497694, -69.9270627 ], [ 26.7584175, -69.9278716 ], [ 26.7688932, -69.9324643 ], [ 26.7766712, -69.9352178 ], [ 26.7868374, -69.9380701 ], [ 26.7970004, -69.9404101 ], [ 26.8071596, -69.9422379 ], [ 26.8179486, -69.9465202 ], [ 26.8254448, -69.949579 ], [ 26.8332445, -69.9528417 ], [ 26.844604, -69.9544606 ], [ 26.8556791, -69.956898 ], [ 26.8670427, -69.9585155 ], [ 26.8775275, -69.9610548 ], [ 26.8874283, -69.9642088 ], [ 26.8928455, -69.9668594 ], [ 26.9003612, -69.9699151 ], [ 26.9033998, -69.9729795 ], [ 26.9108745, -69.9734759 ], [ 26.923443, -69.9748824 ], [ 26.9375263, -69.9773081 ], [ 26.9471223, -69.9792312 ], [ 26.9540454, -69.9818764 ], [ 26.9624749, -69.9850296 ], [ 26.9694233, -69.9886979 ], [ 26.9742735, -69.9919616 ], [ 26.9812265, -69.9956294 ], [ 26.9941291, -69.9977462 ], [ 26.9931852, -69.9955992 ], [ 26.9958039, -69.9923169 ], [ 26.9969612, -69.9905739 ], [ 27.0115789, -69.9893071 ], [ 27.019646, -69.9891831 ], [ 27.0342609, -69.9879144 ], [ 27.0413538, -69.9846189 ], [ 27.0466593, -69.9816354 ], [ 27.0504822, -69.9791678 ], [ 27.0596831, -69.9767867 ], [ 27.0781314, -69.9740698 ], [ 27.1003892, -69.9688823 ], [ 27.1101734, -69.9663942 ], [ 27.1335428, -69.958947 ], [ 27.147413, -69.9536793 ], [ 27.1771352, -69.9404724 ], [ 27.1871352, -69.9361369 ], [ 27.1988925, -69.9309754 ], [ 27.2198851, -69.9259818 ], [ 27.2308172, -69.9232777 ], [ 27.2453342, -69.9209676 ], [ 27.2547892, -69.9187795 ], [ 27.2648884, -69.918021 ], [ 27.2720827, -69.9193212 ], [ 27.2688547, -69.9206653 ], [ 27.2594003, -69.9228541 ], [ 27.2565117, -69.9254247 ], [ 27.2415059, -69.9309104 ], [ 27.228845, -69.9354645 ], [ 27.2176687, -69.9400118 ], [ 27.1996757, -69.9460173 ], [ 27.1881981, -69.950871 ], [ 27.1800194, -69.9564282 ], [ 27.1703909, -69.9635257 ], [ 27.1645777, -69.9686644 ], [ 27.1626155, -69.9728679 ], [ 27.1642178, -69.9764447 ], [ 27.1621927, -69.9786015 ], [ 27.1587043, -69.981787 ], [ 27.1510223, -69.9846801 ], [ 27.1394653, -69.9879957 ], [ 27.1308785, -69.9907887 ], [ 27.1130455, -69.9944307 ], [ 27.1029291, -69.9962037 ], [ 27.0952331, -69.9990944 ], [ 27.094179054120126, -70.0 ], [ 26.569167434951996, -70.0 ], [ 26.580298, -69.9949178 ] ] ], [ [ [ 27.1107649, -69.9984303 ], [ 27.1250322, -69.9954147 ], [ 27.1464478, -69.9916566 ], [ 27.1544842, -69.9905025 ], [ 27.1654613, -69.9878021 ], [ 27.1751988, -69.9837748 ], [ 27.1828446, -69.9798571 ], [ 27.1916428, -69.9747064 ], [ 27.2013684, -69.9706778 ], [ 27.21165, -69.9655206 ], [ 27.2201462, -69.9606769 ], [ 27.2349103, -69.9560124 ], [ 27.2535305, -69.9509215 ], [ 27.2760214, -69.9459144 ], [ 27.2931877, -69.9423605 ], [ 27.3174944, -69.9385681 ], [ 27.3361771, -69.9360265 ], [ 27.3524872, -69.9339033 ], [ 27.3786104, -69.9313216 ], [ 27.394627, -69.9295028 ], [ 27.4139931, -69.9294054 ], [ 27.4214191, -69.9288557 ], [ 27.4318015, -69.9277785 ], [ 27.4392036, -69.9267164 ], [ 27.4451616, -69.9266851 ], [ 27.4520177, -69.9267511 ], [ 27.4577146, -69.9275396 ], [ 27.4572628, -69.9307148 ], [ 27.4548217, -69.9360501 ], [ 27.4538007, -69.9398426 ], [ 27.4522338, -69.9447639 ], [ 27.4509043, -69.9483533 ], [ 27.4471606, -69.9513415 ], [ 27.4397949, -69.9534273 ], [ 27.4496204, -69.9529662 ], [ 27.4551164, -69.9491498 ], [ 27.4567525, -69.9457633 ], [ 27.4637827, -69.9429621 ], [ 27.4796601, -69.9445135 ], [ 27.4850794, -69.9456096 ], [ 27.4789748, -69.9490209 ], [ 27.4764188, -69.9517985 ], [ 27.477437, -69.9544542 ], [ 27.4829999, -69.9521719 ], [ 27.4889414, -69.9516273 ], [ 27.5005639, -69.9513579 ], [ 27.4988619, -69.9532098 ], [ 27.4998588, -69.9553538 ], [ 27.5105837, -69.9549864 ], [ 27.5186083, -69.9543266 ], [ 27.5303326, -69.9561017 ], [ 27.536092, -69.9579108 ], [ 27.538767, -69.9576905 ], [ 27.5418268, -69.9592081 ], [ 27.5425968, -69.9626838 ], [ 27.5477674, -69.9645984 ], [ 27.556027, -69.9685418 ], [ 27.5647256, -69.969309 ], [ 27.5682504, -69.9681617 ], [ 27.5751215, -69.9682228 ], [ 27.5841829, -69.970215 ], [ 27.5989622, -69.9729906 ], [ 27.6145375, -69.9738148 ], [ 27.6324809, -69.974213 ], [ 27.6480022, -69.9740108 ], [ 27.6697473, -69.9729472 ], [ 27.6819713, -69.9725588 ], [ 27.6932931, -69.9720733 ], [ 27.7043339, -69.9718961 ], [ 27.7073788, -69.972899 ], [ 27.7009052, -69.9745811 ], [ 27.7155842, -69.9752996 ], [ 27.7253533, -69.9737989 ], [ 27.74044, -69.9713389 ], [ 27.7474696, -69.9690372 ], [ 27.7596273, -69.9676199 ], [ 27.7645703, -69.9654347 ], [ 27.7734607, -69.964347 ], [ 27.7933851, -69.9630756 ], [ 27.8017469, -69.9631162 ], [ 27.806781, -69.9624646 ], [ 27.8114386, -69.9605873 ], [ 27.813702, -69.9586253 ], [ 27.8249142, -69.9565961 ], [ 27.8420565, -69.9540091 ], [ 27.8523282, -69.9513709 ], [ 27.863153, -69.9481137 ], [ 27.8689806, -69.9460209 ], [ 27.8897815, -69.9448334 ], [ 27.9016368, -69.9437152 ], [ 27.9121054, -69.9441429 ], [ 27.9188281, -69.9421434 ], [ 27.9186872, -69.9400973 ], [ 27.9312616, -69.9365142 ], [ 27.9425922, -69.9365234 ], [ 27.9503544, -69.9366639 ], [ 27.9576231, -69.9340441 ], [ 27.9722079, -69.933717 ], [ 27.9806681, -69.9352834 ], [ 27.9954919, -69.9341332 ], [ 27.9989106, -69.9319541 ], [ 28.0067969, -69.9297364 ], [ 28.0157331, -69.9296588 ], [ 28.03039, -69.9303497 ], [ 28.035836, -69.9314279 ], [ 28.0388215, -69.9275114 ], [ 28.0440421, -69.9216301 ], [ 28.0544635, -69.9215373 ], [ 28.0645713, -69.921242 ], [ 28.0809472, -69.9210939 ], [ 28.0924636, -69.9197603 ], [ 28.0977904, -69.919302 ], [ 28.0985373, -69.9212401 ], [ 28.0989707, -69.9229765 ], [ 28.1065682, -69.9210638 ], [ 28.1203111, -69.9177625 ], [ 28.1236321, -69.914558 ], [ 28.1286432, -69.9138968 ], [ 28.1446161, -69.9125178 ], [ 28.1388964, -69.9117529 ], [ 28.137245, -69.9097211 ], [ 28.1403301, -69.9073375 ], [ 28.133165, -69.907098 ], [ 28.1256864, -69.9066563 ], [ 28.1275581, -69.9039772 ], [ 28.1277095, -69.9021333 ], [ 28.1182304, -69.8989462 ], [ 28.1105548, -69.8959467 ], [ 28.1124676, -69.8937792 ], [ 28.1203256, -69.8915564 ], [ 28.1112867, -69.8901052 ], [ 28.0943461, -69.8864743 ], [ 28.0713512, -69.8813613 ], [ 28.0448879, -69.8774022 ], [ 28.0271853, -69.8752045 ], [ 28.0174988, -69.8728329 ], [ 28.002224, -69.8712256 ], [ 27.982809, -69.8698569 ], [ 27.9669891, -69.8688652 ], [ 27.9613249, -69.8686058 ], [ 27.9561396, -69.8667047 ], [ 27.9519847, -69.8625431 ], [ 27.9484539, -69.8587857 ], [ 27.9469944, -69.8549087 ], [ 27.9515417, -69.8520053 ], [ 27.9544959, -69.8475798 ], [ 27.9509671, -69.8438226 ], [ 27.9484798, -69.8422059 ], [ 27.9498553, -69.8406594 ], [ 27.9605671, -69.8368855 ], [ 27.974203, -69.8325745 ], [ 27.9806436, -69.8313939 ], [ 27.9866084, -69.8318546 ], [ 27.9986274, -69.8299091 ], [ 28.003161, -69.8270044 ], [ 28.0021158, -69.8248644 ], [ 28.0008341, -69.8235452 ], [ 28.0053289, -69.8201291 ], [ 28.0139535, -69.8164722 ], [ 28.0190289, -69.8129485 ], [ 28.0272899, -69.8124665 ], [ 28.0412314, -69.8166411 ], [ 28.0497623, -69.8197374 ], [ 28.0584502, -69.8248788 ], [ 28.0685467, -69.8289836 ], [ 28.0729532, -69.8323209 ], [ 28.0839535, -69.8365191 ], [ 28.0920731, -69.838475 ], [ 28.0922228, -69.8360339 ], [ 28.0899583, -69.8335983 ], [ 28.0875761, -69.8296289 ], [ 28.0876914, -69.8272739 ], [ 28.0886637, -69.8245018 ], [ 28.0920532, -69.8223215 ], [ 28.0979783, -69.8222669 ], [ 28.1074799, -69.8258448 ], [ 28.1143017, -69.826025 ], [ 28.1227456, -69.8280745 ], [ 28.1315661, -69.830857 ], [ 28.1362962, -69.8343945 ], [ 28.1465629, -69.836651 ], [ 28.1562059, -69.8385035 ], [ 28.1668958, -69.8386054 ], [ 28.1822829, -69.8344647 ], [ 28.1889828, -69.8329664 ], [ 28.1965795, -69.8315614 ], [ 28.2051996, -69.8317834 ], [ 28.216385, -69.8307514 ], [ 28.2217707, -69.8313118 ], [ 28.2273289, -69.8339174 ], [ 28.2335593, -69.8374372 ], [ 28.2311477, -69.8334697 ], [ 28.2298623, -69.8287745 ], [ 28.2296041, -69.8257066 ], [ 28.2309129, -69.8236465 ], [ 28.2406545, -69.823139 ], [ 28.2462999, -69.8267664 ], [ 28.2514589, -69.828147 ], [ 28.2576991, -69.8282882 ], [ 28.2670841, -69.8270664 ], [ 28.2612528, -69.8247721 ], [ 28.2568163, -69.8214398 ], [ 28.2593333, -69.8196741 ], [ 28.2692097, -69.8173213 ], [ 28.2738775, -69.8164545 ], [ 28.2818609, -69.8196473 ], [ 28.2937951, -69.8273021 ], [ 28.2944224, -69.8310826 ], [ 28.295993, -69.8354674 ], [ 28.299631, -69.8295953 ], [ 28.29622, -69.8245133 ], [ 28.294067, -69.8202369 ], [ 28.2894013, -69.8177268 ], [ 28.2900309, -69.8147521 ], [ 28.3053746, -69.8139778 ], [ 28.3116104, -69.8141169 ], [ 28.3171304, -69.816208 ], [ 28.3254765, -69.8167337 ], [ 28.3276815, -69.8215209 ], [ 28.3336971, -69.8224804 ], [ 28.3392215, -69.8245708 ], [ 28.3524976, -69.8205389 ], [ 28.3596236, -69.8173914 ], [ 28.3653137, -69.8147708 ], [ 28.3737414, -69.8129392 ], [ 28.3842775, -69.8114933 ], [ 28.395615, -69.8091168 ], [ 28.4051075, -69.8060436 ], [ 28.4084589, -69.8038569 ], [ 28.4070562, -69.8015184 ], [ 28.4039073, -69.7995064 ], [ 28.4039373, -69.7966403 ], [ 28.4064199, -69.7914953 ], [ 28.4081951, -69.7883028 ], [ 28.4174652, -69.7841286 ], [ 28.412883, -69.7823255 ], [ 28.4122955, -69.7817247 ], [ 28.4338103, -69.7789257 ], [ 28.4269874, -69.7772439 ], [ 28.4235257, -69.7750312 ], [ 28.4179104, -69.7719215 ], [ 28.4168712, -69.7702956 ], [ 28.4226838, -69.7692071 ], [ 28.4303357, -69.768814 ], [ 28.4408924, -69.7678759 ], [ 28.420701, -69.7669778 ], [ 28.4130023, -69.7668593 ], [ 28.4074859, -69.7647717 ], [ 28.401295, -69.7617703 ], [ 28.394572, -69.7593886 ], [ 28.3879445, -69.7580291 ], [ 28.381004, -69.7564681 ], [ 28.3764824, -69.7554943 ], [ 28.3903007, -69.7547284 ], [ 28.3962519, -69.7551743 ], [ 28.4031929, -69.7567347 ], [ 28.4120974, -69.7571472 ], [ 28.4251159, -69.7573083 ], [ 28.4169157, -69.7549442 ], [ 28.4138208, -69.7534437 ], [ 28.4115262, -69.7510133 ], [ 28.4080708, -69.7488005 ], [ 28.4058248, -69.7468811 ], [ 28.4125258, -69.7458854 ], [ 28.4267463, -69.7463399 ], [ 28.435816, -69.7454188 ], [ 28.4333016, -69.7438099 ], [ 28.4208246, -69.7430294 ], [ 28.4082059, -69.7407146 ], [ 28.4031059, -69.7398504 ], [ 28.3923739, -69.7387415 ], [ 28.384012, -69.7377081 ], [ 28.3819897, -69.7349675 ], [ 28.3889078, -69.7331516 ], [ 28.4022243, -69.7335158 ], [ 28.4112895, -69.732596 ], [ 28.4215139, -69.7314582 ], [ 28.4296353, -69.729934 ], [ 28.4358709, -69.727203 ], [ 28.4271233, -69.7283251 ], [ 28.4175284, -69.7298656 ], [ 28.409264, -69.7298558 ], [ 28.3981761, -69.7280349 ], [ 28.3871373, -69.7267245 ], [ 28.3804277, -69.7243425 ], [ 28.373233, -69.7230912 ], [ 28.3675939, -69.7194692 ], [ 28.3689744, -69.7184309 ], [ 28.3781275, -69.7185353 ], [ 28.3880334, -69.7171983 ], [ 28.4002099, -69.7149146 ], [ 28.4085448, -69.7125706 ], [ 28.4162028, -69.7093129 ], [ 28.4248471, -69.7071692 ], [ 28.4388239, -69.7022019 ], [ 28.4464731, -69.6989428 ], [ 28.4511766, -69.6957172 ], [ 28.4532497, -69.6927261 ], [ 28.459276, -69.6879503 ], [ 28.4598764, -69.6849762 ], [ 28.4608386, -69.6827141 ], [ 28.4658985, -69.6802002 ], [ 28.4777789, -69.678221 ], [ 28.4834136, -69.6755976 ], [ 28.4878412, -69.6726812 ], [ 28.4896422, -69.6699999 ], [ 28.4923836, -69.6679215 ], [ 28.5004081, -69.6687483 ], [ 28.5047018, -69.6705394 ], [ 28.5161451, -69.6701997 ], [ 28.525327, -69.6708069 ], [ 28.5359285, -69.6708851 ], [ 28.5403882, -69.6713432 ], [ 28.5437433, -69.6725308 ], [ 28.5533436, -69.6743592 ], [ 28.5618484, -69.6740518 ], [ 28.5714567, -69.6730141 ], [ 28.5792796, -69.6717931 ], [ 28.5873092, -69.6726156 ], [ 28.597299, -69.6740293 ], [ 28.6011127, -69.6752083 ], [ 28.5993787, -69.6784017 ], [ 28.6028433, -69.6806102 ], [ 28.6066764, -69.680665 ], [ 28.6117177, -69.683877 ], [ 28.6085137, -69.6870889 ], [ 28.6111402, -69.6897168 ], [ 28.6196519, -69.6922716 ], [ 28.6230171, -69.6963228 ], [ 28.6228092, -69.7000094 ], [ 28.6222855, -69.7034953 ], [ 28.6235498, -69.7071636 ], [ 28.6282317, -69.7096634 ], [ 28.6482136, -69.709003 ], [ 28.6570946, -69.706537 ], [ 28.659145, -69.7064086 ], [ 28.6621506, -69.7097476 ], [ 28.6532211, -69.7145684 ], [ 28.6507524, -69.7163394 ], [ 28.6512831, -69.7185841 ], [ 28.6566574, -69.7219958 ], [ 28.6606066, -69.7230715 ], [ 28.6756474, -69.720219 ], [ 28.6788558, -69.7198709 ], [ 28.6864943, -69.7223315 ], [ 28.6959797, -69.7254844 ], [ 28.6971489, -69.7281304 ], [ 28.6863196, -69.7317495 ], [ 28.6842776, -69.7347438 ], [ 28.6871825, -69.7370605 ], [ 28.700604, -69.7355571 ], [ 28.7033593, -69.739206 ], [ 28.7102634, -69.7402424 ], [ 28.7090098, -69.7423057 ], [ 28.7033859, -69.7449374 ], [ 28.7081831, -69.7455916 ], [ 28.715241, -69.7452953 ], [ 28.7138363, -69.7486912 ], [ 28.7111069, -69.7507738 ], [ 28.7222198, -69.7497079 ], [ 28.7173411, -69.7537634 ], [ 28.7166665, -69.7557169 ], [ 28.7351043, -69.754043 ], [ 28.7428369, -69.7517919 ], [ 28.7526783, -69.7499219 ], [ 28.756243, -69.7474181 ], [ 28.760216, -69.7432711 ], [ 28.7594679, -69.7418481 ], [ 28.7503586, -69.7422758 ], [ 28.7415661, -69.7429037 ], [ 28.7335017, -69.7420885 ], [ 28.7243753, -69.7396491 ], [ 28.7237246, -69.7363825 ], [ 28.7250321, -69.7348301 ], [ 28.7231298, -69.7336268 ], [ 28.7196982, -69.7319316 ], [ 28.7213782, -69.7310909 ], [ 28.7329083, -69.731247 ], [ 28.7380761, -69.7326121 ], [ 28.7440283, -69.7330453 ], [ 28.7547765, -69.7341314 ], [ 28.7546995, -69.7307549 ], [ 28.7583733, -69.7292733 ], [ 28.7698458, -69.7289157 ], [ 28.7815215, -69.727736 ], [ 28.7902485, -69.7265951 ], [ 28.8006208, -69.7269668 ], [ 28.8076129, -69.7261555 ], [ 28.8124955, -69.7249632 ], [ 28.8064289, -69.7235104 ], [ 28.7999307, -69.720835 ], [ 28.7961772, -69.7189411 ], [ 28.8064007, -69.7206449 ], [ 28.8162502, -69.7216368 ], [ 28.8213055, -69.7219772 ], [ 28.8219105, -69.7195125 ], [ 28.8199457, -69.7177993 ], [ 28.8225433, -69.7146933 ], [ 28.8243026, -69.7120081 ], [ 28.8275071, -69.7116571 ], [ 28.8357964, -69.7145115 ], [ 28.8389946, -69.7164102 ], [ 28.8427951, -69.7132885 ], [ 28.84751, -69.7110214 ], [ 28.8513306, -69.7078953 ], [ 28.857572, -69.7049073 ], [ 28.8627158, -69.7025978 ], [ 28.8670472, -69.7010348 ], [ 28.871889, -69.7001079 ], [ 28.8768241, -69.6995912 ], [ 28.8823812, -69.7010558 ], [ 28.8921851, -69.7029 ], [ 28.8986225, -69.7054707 ], [ 28.905321, -69.7080934 ], [ 28.9100964, -69.7114826 ], [ 28.9152568, -69.7150941 ], [ 28.9168841, -69.7183322 ], [ 28.9203529, -69.7218398 ], [ 28.9224167, -69.7262187 ], [ 28.920932, -69.7290537 ], [ 28.9195561, -69.7334898 ], [ 28.9181366, -69.7358122 ], [ 28.9303288, -69.7379553 ], [ 28.9392963, -69.7388503 ], [ 28.9489036, -69.7401452 ], [ 28.960121, -69.7400852 ], [ 28.9724932, -69.7398031 ], [ 28.9835235, -69.7382088 ], [ 28.9958384, -69.7350594 ], [ 29.0024428, -69.7335289 ], [ 29.0092979, -69.7340418 ], [ 29.0242966, -69.7311575 ], [ 29.0326885, -69.7321584 ], [ 29.03666, -69.7332252 ], [ 29.0474252, -69.7319376 ], [ 29.0511419, -69.7286058 ], [ 29.0508859, -69.7265622 ], [ 29.0615823, -69.7247629 ], [ 29.0743284, -69.7251838 ], [ 29.086178, -69.7255152 ], [ 29.1032792, -69.7253555 ], [ 29.1133943, -69.7236641 ], [ 29.1256136, -69.7199943 ], [ 29.1368658, -69.7157243 ], [ 29.1470284, -69.7121873 ], [ 29.1511121, -69.7095639 ], [ 29.1589801, -69.7088261 ], [ 29.1649211, -69.7068899 ], [ 29.170018, -69.7030216 ], [ 29.1746718, -69.7002863 ], [ 29.1848197, -69.6967471 ], [ 29.1892486, -69.6990313 ], [ 29.191513, -69.7027831 ], [ 29.195403, -69.7009807 ], [ 29.2030124, -69.700552 ], [ 29.2139533, -69.7007861 ], [ 29.22317, -69.7013544 ], [ 29.2383876, -69.7004942 ], [ 29.2524548, -69.699856 ], [ 29.2603601, -69.6972698 ], [ 29.2707438, -69.6934142 ], [ 29.2787139, -69.6913379 ], [ 29.2864301, -69.6895726 ], [ 29.2989477, -69.688444 ], [ 29.3075573, -69.6867653 ], [ 29.3057759, -69.6823926 ], [ 29.299377, -69.676561 ], [ 29.294549, -69.6735699 ], [ 29.2888271, -69.670491 ], [ 29.2931633, -69.6699073 ], [ 29.3040885, -69.6701354 ], [ 29.2924774, -69.6606028 ], [ 29.2804436, -69.6522029 ], [ 29.2711969, -69.6469298 ], [ 29.2589767, -69.6435477 ], [ 29.2473337, -69.640053 ], [ 29.2406885, -69.6387283 ], [ 29.2330822, -69.6368047 ], [ 29.2289355, -69.6365648 ], [ 29.2276533, -69.6357668 ], [ 29.230954, -69.6340755 ], [ 29.2438975, -69.6341722 ], [ 29.2638071, -69.6357913 ], [ 29.2792511, -69.6369702 ], [ 29.2924763, -69.6391057 ], [ 29.3060959, -69.6419502 ], [ 29.3084867, -69.6443671 ], [ 29.3109485, -69.6472947 ], [ 29.3115114, -69.65138 ], [ 29.3147064, -69.6468225 ], [ 29.3155393, -69.6422019 ], [ 29.3135091, -69.6381412 ], [ 29.3138704, -69.6364973 ], [ 29.3189516, -69.6349791 ], [ 29.3261409, -69.6338349 ], [ 29.3355096, -69.6335749 ], [ 29.3457008, -69.632891 ], [ 29.3507785, -69.6313718 ], [ 29.3465992, -69.6245841 ], [ 29.3411338, -69.6211963 ], [ 29.3394219, -69.6173354 ], [ 29.3389962, -69.6142718 ], [ 29.33764, -69.612964 ], [ 29.3214984, -69.6108815 ], [ 29.3146076, -69.6098711 ], [ 29.2988616, -69.6084963 ], [ 29.2879428, -69.6059142 ], [ 29.2775029, -69.6003553 ], [ 29.2663591, -69.5938865 ], [ 29.2560905, -69.5851512 ], [ 29.2482748, -69.5793433 ], [ 29.2465162, -69.5749714 ], [ 29.2450096, -69.5702884 ], [ 29.2452383, -69.5676239 ], [ 29.2482752, -69.5662438 ], [ 29.2533669, -69.5670813 ], [ 29.2567015, -69.5700969 ], [ 29.2636941, -69.576327 ], [ 29.2674649, -69.5782094 ], [ 29.2729319, -69.5839528 ], [ 29.2793366, -69.5879408 ], [ 29.286998, -69.5903725 ], [ 29.2924595, -69.5895654 ], [ 29.2944654, -69.5870756 ], [ 29.2959411, -69.5828548 ], [ 29.2948123, -69.5788821 ], [ 29.2930433, -69.5745107 ], [ 29.2929457, -69.5716467 ], [ 29.2946993, -69.5694683 ], [ 29.3000851, -69.5681504 ], [ 29.3085028, -69.5654511 ], [ 29.3121147, -69.5597618 ], [ 29.3112341, -69.5554782 ], [ 29.312024, -69.5527018 ], [ 29.3110337, -69.5497506 ], [ 29.3129726, -69.5425545 ], [ 29.3033783, -69.5365752 ], [ 29.3050984, -69.5320437 ], [ 29.3069169, -69.530376 ], [ 29.311652, -69.5286593 ], [ 29.3215799, -69.5264456 ], [ 29.3255328, -69.523309 ], [ 29.3346383, -69.5215177 ], [ 29.3314084, -69.5171722 ], [ 29.3276428, -69.5152917 ], [ 29.3207142, -69.5137713 ], [ 29.3174101, -69.5131107 ], [ 29.3180181, -69.5111562 ], [ 29.3251631, -69.5100124 ], [ 29.3298539, -69.5101378 ], [ 29.3330875, -69.5102877 ], [ 29.323815, -69.508705 ], [ 29.3155021, -69.5077196 ], [ 29.3089362, -69.5045555 ], [ 29.3032895, -69.5038316 ], [ 29.2978926, -69.5027965 ], [ 29.2997093, -69.5011289 ], [ 29.3081982, -69.5012935 ], [ 29.3199195, -69.5016079 ], [ 29.3251384, -69.503464 ], [ 29.332811, -69.5040504 ], [ 29.3238291, -69.500314 ], [ 29.3158785, -69.4976854 ], [ 29.3109114, -69.4955179 ], [ 29.3059052, -69.4951927 ], [ 29.3031033, -69.4939096 ], [ 29.308219, -69.4929028 ], [ 29.3196862, -69.4935283 ], [ 29.3327888, -69.4933068 ], [ 29.3134436, -69.490564 ], [ 29.3068435, -69.4892425 ], [ 29.2981921, -69.4857041 ], [ 29.2953227, -69.4839104 ], [ 29.2895436, -69.4821652 ], [ 29.29377, -69.4810715 ], [ 29.3008651, -69.4817712 ], [ 29.316053, -69.4819252 ], [ 29.3026796, -69.4801038 ], [ 29.2958343, -69.479093 ], [ 29.289738, -69.4771486 ], [ 29.2838923, -69.4748929 ], [ 29.2745714, -69.4727971 ], [ 29.2682292, -69.471163 ], [ 29.2697271, -69.4692967 ], [ 29.2771095, -69.4678441 ], [ 29.2889219, -69.4668287 ], [ 29.2967593, -69.4665953 ], [ 29.3017292, -69.4645681 ], [ 29.298544, -69.4625753 ], [ 29.2933385, -69.4607186 ], [ 29.2889088, -69.4602812 ], [ 29.2779174, -69.4608736 ], [ 29.2805485, -69.4587836 ], [ 29.2830415, -69.4556729 ], [ 29.2755004, -69.4537523 ], [ 29.2681666, -69.4533626 ], [ 29.2615816, -69.4520394 ], [ 29.2562222, -69.4468083 ], [ 29.262008, -69.4443597 ], [ 29.2665211, -69.4411136 ], [ 29.2689455, -69.4374929 ], [ 29.263837, -69.4319512 ], [ 29.2549002, -69.4282118 ], [ 29.2418633, -69.4242326 ], [ 29.2311867, -69.4226689 ], [ 29.2262947, -69.4186573 ], [ 29.2209053, -69.4152676 ], [ 29.2186673, -69.4115194 ], [ 29.2199637, -69.4081228 ], [ 29.2220753, -69.4043037 ], [ 29.2238697, -69.4002853 ], [ 29.2230145, -69.3960034 ], [ 29.2325287, -69.3888923 ], [ 29.2480992, -69.3837264 ], [ 29.257036, -69.3832718 ], [ 29.2650216, -69.3822187 ], [ 29.2716955, -69.3822099 ], [ 29.2851812, -69.3832121 ], [ 29.2900215, -69.3825173 ], [ 29.2961301, -69.3826192 ], [ 29.301564, -69.3841644 ], [ 29.3083773, -69.3851746 ], [ 29.3191097, -69.3872434 ], [ 29.345351, -69.3901721 ], [ 29.3498731, -69.3892763 ], [ 29.356408, -69.3882435 ], [ 29.3647432, -69.3855429 ], [ 29.3705694, -69.3836011 ], [ 29.383134, -69.3779621 ], [ 29.3870483, -69.3748255 ], [ 29.3934657, -69.3709291 ], [ 29.3984026, -69.3688995 ], [ 29.4042924, -69.3674669 ], [ 29.4102229, -69.3683859 ], [ 29.4183388, -69.3683457 ], [ 29.430071, -69.3631268 ], [ 29.4367501, -69.357076 ], [ 29.4394242, -69.3554943 ], [ 29.4481527, -69.351657 ], [ 29.4718695, -69.3432552 ], [ 29.4874407, -69.3367357 ], [ 29.5055928, -69.3281221 ], [ 29.5202608, -69.3215135 ], [ 29.5346005, -69.3147049 ], [ 29.5549429, -69.3074774 ], [ 29.5676359, -69.3033557 ], [ 29.5829789, -69.2976491 ], [ 29.5989509, -69.2923385 ], [ 29.6142648, -69.2884706 ], [ 29.6300567, -69.2839784 ], [ 29.6387862, -69.2824829 ], [ 29.6456685, -69.2821474 ], [ 29.6580703, -69.2820128 ], [ 29.6675063, -69.283264 ], [ 29.6762201, -69.2854493 ], [ 29.6786128, -69.2878582 ], [ 29.6756472, -69.289245 ], [ 29.6766776, -69.2921916 ], [ 29.6880632, -69.2854255 ], [ 29.7140838, -69.276226 ], [ 29.7356034, -69.267929 ], [ 29.7587832, -69.2592891 ], [ 29.7892136, -69.2510126 ], [ 29.8021386, -69.2452303 ], [ 29.8076384, -69.2417444 ], [ 29.8265523, -69.2392151 ], [ 29.838918, -69.2372257 ], [ 29.8504028, -69.2351509 ], [ 29.8637062, -69.2330165 ], [ 29.868559, -69.2280289 ], [ 29.8631134, -69.2246625 ], [ 29.8607065, -69.2222568 ], [ 29.8643623, -69.2199317 ], [ 29.9005976, -69.2125371 ], [ 29.9074374, -69.2103496 ], [ 29.9169768, -69.2070827 ], [ 29.9201507, -69.20538 ], [ 29.9188319, -69.2096013 ], [ 29.9183217, -69.2152379 ], [ 29.9176432, -69.2198552 ], [ 29.9152387, -69.2279864 ], [ 29.9109216, -69.2367712 ], [ 29.9028471, -69.2455314 ], [ 29.8784848, -69.2570818 ], [ 29.8662158, -69.2632665 ], [ 29.8412433, -69.2730843 ], [ 29.8215975, -69.2802334 ], [ 29.8016219, -69.2890232 ], [ 29.7901871, -69.2934461 ], [ 29.7562517, -69.3055769 ], [ 29.721229, -69.3221206 ], [ 29.6900182, -69.3318308 ], [ 29.6680066, -69.3412566 ], [ 29.6541773, -69.3474545 ], [ 29.6664697, -69.3444576 ], [ 29.6910481, -69.3366193 ], [ 29.7132028, -69.3282106 ], [ 29.7435954, -69.3170795 ], [ 29.7628227, -69.308721 ], [ 29.7959598, -69.2970138 ], [ 29.8241853, -69.2873424 ], [ 29.855978, -69.2766724 ], [ 29.8760841, -69.2688958 ], [ 29.900881, -69.2598943 ], [ 29.9129845, -69.2545286 ], [ 29.92268, -69.2485983 ], [ 29.9321843, -69.2398069 ], [ 29.9388921, -69.2315851 ], [ 29.9425049, -69.2255762 ], [ 29.9514513, -69.2187392 ], [ 29.9604501, -69.2174245 ], [ 29.9691469, -69.2177526 ], [ 29.9799649, -69.2152732 ], [ 29.9821709, -69.2129758 ], [ 29.9927494, -69.2108074 ], [ 30.0, -69.2107451 ], [ 30.0, -70.0 ], [ 27.106264633214423, -70.0 ], [ 27.1107649, -69.9984303 ] ] ] ] } }
]
}
