{
"type": "FeatureCollection",
"name": "25_-90",
"crs": { "type": "name", "properties": { "name": "urn:ogc:def:crs:OGC:1.3:CRS84" } },
"xy_coordinate_resolution": 1e-15,
"features": [
{ "type": "Feature", "properties": { "FID": 307096, "id": 1512, "left": 25.0, "top": -85.0, "right": 30.0, "bottom": -90.0, "row_index": 35, "col_index": 41, "min_lon": 25.0, "min_lat": -90.0, "tile_id": "25_-90" }, "geometry": { "type": "MultiPolygon", "coordinates": [ [ [ [ 29.0, -90.0 ], [ 28.0, -90.0 ], [ 27.0, -90.0 ], [ 26.0, -90.0 ], [ 25.0, -90.0 ], [ 25.0, -85.0 ], [ 30.0, -85.0 ], [ 30.0, -90.0 ], [ 29.0, -90.0 ] ] ] ] } }
]
}
