{
"type": "FeatureCollection",
"name": "25_0",
"crs": { "type": "name", "properties": { "name": "urn:ogc:def:crs:OGC:1.3:CRS84" } },
"xy_coordinate_resolution": 1e-15,
"features": [
{ "type": "Feature", "properties": { "FID": 660342, "id": 1494, "left": 25.0, "top": 5.0, "right": 30.0, "bottom": 0.0, "row_index": 17, "col_index": 41, "min_lon": 25.0, "min_lat": 0.0, "tile_id": "25_0" }, "geometry": { "type": "MultiPolygon", "coordinates": [ [ [ [ 30.0, 5.0 ], [ 30.0, 0.0 ], [ 25.0, 0.0 ], [ 25.0, 5.0 ], [ 30.0, 5.0 ] ] ] ] } }
]
}
