{
"type": "FeatureCollection",
"name": "25_10",
"crs": { "type": "name", "properties": { "name": "urn:ogc:def:crs:OGC:1.3:CRS84" } },
"xy_coordinate_resolution": 1e-15,
"features": [
{ "type": "Feature", "properties": { "FID": 660342, "id": 1492, "left": 25.0, "top": 15.0, "right": 30.0, "bottom": 10.0, "row_index": 15, "col_index": 41, "min_lon": 25.0, "min_lat": 10.0, "tile_id": "25_10" }, "geometry": { "type": "MultiPolygon", "coordinates": [ [ [ [ 30.0, 15.0 ], [ 30.0, 10.0 ], [ 25.0, 10.0 ], [ 25.0, 15.0 ], [ 30.0, 15.0 ] ] ] ] } }
]
}
