{
"type": "FeatureCollection",
"name": "30_-5",
"crs": { "type": "name", "properties": { "name": "urn:ogc:def:crs:OGC:1.3:CRS84" } },
"xy_coordinate_resolution": 1e-15,
"features": [
{ "type": "Feature", "properties": { "FID": 28719, "id": 1531, "left": 30.0, "top": 0.0, "right": 35.0, "bottom": -5.0, "row_index": 18, "col_index": 42, "min_lon": 30.0, "min_lat": -5.0, "tile_id": "30_-5" }, "geometry": { "type": "MultiPolygon", "coordinates": [ [ [ [ 33.1799729, -0.0435068 ], [ 33.1799642, -0.0434256 ], [ 33.1800483, -0.0434011 ], [ 33.1800877, -0.0434398 ], [ 33.1801637, -0.0434216 ], [ 33.1802076, -0.0433686 ], [ 33.1802559, -0.0433565 ], [ 33.180323, -0.0433934 ], [ 33.1804554, -0.0433632 ], [ 33.1805724, -0.0433364 ], [ 33.1806422, -0.0433405 ], [ 33.180787, -0.0433874 ], [ 33.181023, -0.0433955 ], [ 33.1812429, -0.0434115 ], [ 33.1813315, -0.0432828 ], [ 33.1814911, -0.0432962 ], [ 33.181681, -0.0433082 ], [ 33.1818143, -0.0432657 ], [ 33.1819803, -0.0432674 ], [ 33.1820503, -0.0433271 ], [ 33.182094, -0.0433007 ], [ 33.1821553, -0.043299 ], [ 33.1821653, -0.0433586 ], [ 33.1820906, -0.0434708 ], [ 33.1820777, -0.0435031 ], [ 33.182041, -0.0435321 ], [ 33.1820929, -0.04356 ], [ 33.1820776, -0.0436177 ], [ 33.1817984, -0.0437141 ], [ 33.1816546, -0.0439171 ], [ 33.1815266, -0.0440414 ], [ 33.1814823, -0.0440452 ], [ 33.1814415, -0.0440737 ], [ 33.1814043, -0.0441091 ], [ 33.1814091, -0.0441692 ], [ 33.1813278, -0.0442042 ], [ 33.18125, -0.0442637 ], [ 33.1811476, -0.0444022 ], [ 33.1810803, -0.0445513 ], [ 33.1808998, -0.0446983 ], [ 33.1807509, -0.0448594 ], [ 33.1807114, -0.0449075 ], [ 33.1807561, -0.0449732 ], [ 33.1806887, -0.0450522 ], [ 33.180702, -0.0451102 ], [ 33.1805943, -0.0450926 ], [ 33.180246, -0.0451699 ], [ 33.1801171, -0.0451185 ], [ 33.1800401, -0.0451258 ], [ 33.180035, -0.0450838 ], [ 33.179888, -0.0450979 ], [ 33.1798067, -0.0450819 ], [ 33.1797526, -0.0450768 ], [ 33.1796142, -0.0451102 ], [ 33.1794148, -0.0451035 ], [ 33.1794189, -0.0450463 ], [ 33.1795192, -0.044965 ], [ 33.1795651, -0.044947 ], [ 33.1795747, -0.0448891 ], [ 33.1796275, -0.0448715 ], [ 33.1796291, -0.0448103 ], [ 33.1797018, -0.0447308 ], [ 33.1796844, -0.0446462 ], [ 33.1797529, -0.0445776 ], [ 33.1797442, -0.0444897 ], [ 33.179748, -0.0444277 ], [ 33.179799, -0.044358 ], [ 33.1798491, -0.0443355 ], [ 33.1798799, -0.0443375 ], [ 33.179889, -0.044245 ], [ 33.1798911, -0.0441384 ], [ 33.1799172, -0.0441113 ], [ 33.1799796, -0.044117 ], [ 33.179875, -0.0439641 ], [ 33.1797973, -0.043889 ], [ 33.179938, -0.043716 ], [ 33.1799106, -0.043655 ], [ 33.1799153, -0.0435779 ], [ 33.1799729, -0.0435068 ] ] ] ] } },
{ "type": "Feature", "properties": { "FID": 660342, "id": 1531, "left": 30.0, "top": 0.0, "right": 35.0, "bottom": -5.0, "row_index": 18, "col_index": 42, "min_lon": 30.0, "min_lat": -5.0, "tile_id": "30_-5" }, "geometry": { "type": "MultiPolygon", "coordinates": [ [ [ [ 35.0, 0.0 ], [ 35.0, -5.0 ], [ 30.0, -5.0 ], [ 30.0, 0.0 ], [ 35.0, 0.0 ] ] ] ] } },
{ "type": "Feature", "properties": { "FID": 753877, "id": 1531, "left": 30.0, "top": 0.0, "right": 35.0, "bottom": -5.0, "row_index": 18, "col_index": 42, "min_lon": 30.0, "min_lat": -5.0, "tile_id": "30_-5" }, "geometry": { "type": "MultiPolygon", "coordinates": [ [ [ [ 33.1791918, -0.045485 ], [ 33.179114, -0.0455359 ], [ 33.179063, -0.0455601 ], [ 33.1790523, -0.0456164 ], [ 33.1790711, -0.0456539 ], [ 33.1790442, -0.0456673 ], [ 33.179012, -0.0457264 ], [ 33.179012, -0.0457559 ], [ 33.1790389, -0.0458122 ], [ 33.1790389, -0.0458524 ], [ 33.1788967, -0.0460402 ], [ 33.1788645, -0.0460858 ], [ 33.1787706, -0.0460616 ], [ 33.1787358, -0.0459222 ], [ 33.1787599, -0.0458846 ], [ 33.1787948, -0.0458283 ], [ 33.1787733, -0.0457585 ], [ 33.1787197, -0.0457612 ], [ 33.1786204, -0.0457451 ], [ 33.1785909, -0.0457049 ], [ 33.1787657, -0.0456565 ], [ 33.1788243, -0.045603 ], [ 33.1788994, -0.0455976 ], [ 33.1788216, -0.0455225 ], [ 33.1789208, -0.0454635 ], [ 33.1789852, -0.0454903 ], [ 33.1790845, -0.0454555 ], [ 33.1791918, -0.045485 ] ] ] ] } }
]
}
