{
"type": "FeatureCollection",
"name": "30_-20",
"crs": { "type": "name", "properties": { "name": "urn:ogc:def:crs:OGC:1.3:CRS84" } },
"xy_coordinate_resolution": 1e-15,
"features": [
{ "type": "Feature", "properties": { "FID": 334334, "id": 1534, "left": 30.0, "top": -15.0, "right": 35.0, "bottom": -20.0, "row_index": 21, "col_index": 42, "min_lon": 30.0, "min_lat": -20.0, "tile_id": "30_-20" }, "geometry": { "type": "MultiPolygon", "coordinates": [ [ [ [ 34.7483816, -19.8765046 ], [ 34.7484828, -19.8764825 ], [ 34.748506, -19.8764633 ], [ 34.748517, -19.8764384 ], [ 34.7485144, -19.8763823 ], [ 34.7484983, -19.8763192 ], [ 34.7484956, -19.8762881 ], [ 34.7485076, -19.8762555 ], [ 34.7492265, -19.8756123 ], [ 34.7505904, -19.8743086 ], [ 34.7506333, -19.8742897 ], [ 34.7506802, -19.8742859 ], [ 34.7508117, -19.874289 ], [ 34.7508666, -19.8742733 ], [ 34.7509203, -19.8742335 ], [ 34.7509659, -19.8741427 ], [ 34.7512234, -19.8737126 ], [ 34.7513444, -19.873574 ], [ 34.7514728, -19.8734875 ], [ 34.751506, -19.873454 ], [ 34.7515302, -19.8733684 ], [ 34.75156, -19.8733169 ], [ 34.751669, -19.8732264 ], [ 34.7517364, -19.8731558 ], [ 34.7517581, -19.8731286 ], [ 34.751783, -19.8731129 ], [ 34.7518564, -19.8730921 ], [ 34.7518993, -19.8730618 ], [ 34.7519167, -19.8730038 ], [ 34.7519288, -19.8729357 ], [ 34.7519489, -19.8728891 ], [ 34.7519918, -19.8728449 ], [ 34.7520891, -19.8727761 ], [ 34.7521595, -19.8726671 ], [ 34.7521943, -19.8726028 ], [ 34.7522466, -19.8725536 ], [ 34.7524116, -19.8724363 ], [ 34.752588, -19.8722603 ], [ 34.7526094, -19.8722313 ], [ 34.7526175, -19.8721941 ], [ 34.7526248, -19.8721714 ], [ 34.7526409, -19.872155 ], [ 34.7527372, -19.8720696 ], [ 34.753393, -19.8713507 ], [ 34.7535968, -19.8711533 ], [ 34.7536411, -19.8711269 ], [ 34.753688, -19.8711142 ], [ 34.7537577, -19.8711117 ], [ 34.7538127, -19.8710978 ], [ 34.753869, -19.8710676 ], [ 34.7539578, -19.8710026 ], [ 34.7540072, -19.8709837 ], [ 34.7540541, -19.870978 ], [ 34.7541708, -19.8709805 ], [ 34.7542204, -19.8709629 ], [ 34.7543026, -19.8708727 ], [ 34.7543827, -19.8708141 ], [ 34.7544672, -19.8707996 ], [ 34.7545383, -19.8708229 ], [ 34.7545852, -19.8708866 ], [ 34.7546241, -19.8708967 ], [ 34.754664, -19.8708875 ], [ 34.7547005, -19.8708424 ], [ 34.7547394, -19.8708134 ], [ 34.7547823, -19.8708147 ], [ 34.7550506, -19.8709164 ], [ 34.7551176, -19.8709244 ], [ 34.7552289, -19.87092 ], [ 34.7552732, -19.8709339 ], [ 34.7556004, -19.871224 ], [ 34.7557228, -19.8712738 ], [ 34.755874, -19.8712681 ], [ 34.7559585, -19.8712025 ], [ 34.7560457, -19.8708923 ], [ 34.7561422, -19.8708065 ], [ 34.7562676, -19.8708019 ], [ 34.7568917, -19.871031 ], [ 34.7571695, -19.8710688 ], [ 34.7573921, -19.8711269 ], [ 34.7576002, -19.8712477 ], [ 34.7585194, -19.872014 ], [ 34.7593739, -19.8730795 ], [ 34.7601426, -19.8748355 ], [ 34.7602574, -19.8749755 ], [ 34.7604452, -19.8751168 ], [ 34.7609011, -19.8754876 ], [ 34.7610942, -19.8758584 ], [ 34.7611177, -19.8763282 ], [ 34.7610316, -19.8766899 ], [ 34.7593709, -19.8792488 ], [ 34.7592824, -19.8793421 ], [ 34.7591198, -19.879443 ], [ 34.7589133, -19.8796775 ], [ 34.7585669, -19.8804412 ], [ 34.7585244, -19.8806606 ], [ 34.7582933, -19.8807701 ], [ 34.7577009, -19.8806814 ], [ 34.7569916, -19.8806873 ], [ 34.7567098, -19.8807417 ], [ 34.7564953, -19.8807764 ], [ 34.7564188, -19.8807682 ], [ 34.7562418, -19.8807253 ], [ 34.7561023, -19.8807121 ], [ 34.7559839, -19.8806944 ], [ 34.7558703, -19.8806975 ], [ 34.7557818, -19.8805967 ], [ 34.7556986, -19.8805059 ], [ 34.7556209, -19.8803747 ], [ 34.7554988, -19.8802615 ], [ 34.7553392, -19.8801755 ], [ 34.7550992, -19.8801077 ], [ 34.7548698, -19.8800872 ], [ 34.7546365, -19.8801291 ], [ 34.7545292, -19.8801342 ], [ 34.7544237, -19.8801032 ], [ 34.7527873, -19.8792202 ], [ 34.7522547, -19.8791063 ], [ 34.7517363, -19.8790698 ], [ 34.7511282, -19.8790458 ], [ 34.7505299, -19.8790095 ], [ 34.7502082, -19.8789058 ], [ 34.7498917, -19.8786989 ], [ 34.7495042, -19.8783076 ], [ 34.7491986, -19.8780507 ], [ 34.7488349, -19.8778325 ], [ 34.7488027, -19.8777568 ], [ 34.7488054, -19.8777026 ], [ 34.7488402, -19.8776572 ], [ 34.7491192, -19.8773343 ], [ 34.7491661, -19.8772454 ], [ 34.7491849, -19.8771376 ], [ 34.7491393, -19.8770386 ], [ 34.7490602, -19.876966 ], [ 34.7489046, -19.8769068 ], [ 34.7488067, -19.87692 ], [ 34.7487209, -19.8769799 ], [ 34.7485774, -19.8772296 ], [ 34.7485519, -19.8772763 ], [ 34.748505, -19.8773104 ], [ 34.7482046, -19.8774529 ], [ 34.7480101, -19.8775298 ], [ 34.7479578, -19.8775115 ], [ 34.7479229, -19.8774781 ], [ 34.747919, -19.8774313 ], [ 34.7480248, -19.8772013 ], [ 34.7480624, -19.8769787 ], [ 34.7480839, -19.8769301 ], [ 34.748116, -19.8769162 ], [ 34.7481898, -19.8769314 ], [ 34.7482341, -19.87692 ], [ 34.7482609, -19.8768822 ], [ 34.7482662, -19.876833 ], [ 34.7482153, -19.8767598 ], [ 34.7482005, -19.8767157 ], [ 34.7482019, -19.8766665 ], [ 34.7482398, -19.8766014 ], [ 34.7483065, -19.8765473 ], [ 34.7483816, -19.8765046 ] ] ] ] } },
{ "type": "Feature", "properties": { "FID": 660342, "id": 1534, "left": 30.0, "top": -15.0, "right": 35.0, "bottom": -20.0, "row_index": 21, "col_index": 42, "min_lon": 30.0, "min_lat": -20.0, "tile_id": "30_-20" }, "geometry": { "type": "MultiPolygon", "coordinates": [ [ [ [ 34.9998638, -19.7845888 ], [ 34.9994561, -19.7850204 ], [ 34.9992415, -19.7852576 ], [ 34.9990618, -19.7854242 ], [ 34.9987695, -19.7857144 ], [ 34.9985951, -19.7859214 ], [ 34.9983618, -19.7861536 ], [ 34.9982518, -19.7862823 ], [ 34.9981311, -19.786411 ], [ 34.9979997, -19.7865246 ], [ 34.9979133, -19.7865958 ], [ 34.9976161, -19.7869587 ], [ 34.9974659, -19.7871303 ], [ 34.9970072, -19.7876654 ], [ 34.9963769, -19.7882686 ], [ 34.9957439, -19.7888692 ], [ 34.9952906, -19.7891771 ], [ 34.9946576, -19.7895456 ], [ 34.9937886, -19.7900403 ], [ 34.9931234, -19.7903078 ], [ 34.9912459, -19.7907217 ], [ 34.9897867, -19.791128 ], [ 34.9893764, -19.7912542 ], [ 34.9889499, -19.7914233 ], [ 34.9887246, -19.7916252 ], [ 34.9883705, -19.7918675 ], [ 34.9877644, -19.7925237 ], [ 34.9871635, -19.793089 ], [ 34.9863213, -19.7938562 ], [ 34.9852216, -19.7947597 ], [ 34.984712, -19.7952089 ], [ 34.9840951, -19.7957995 ], [ 34.9835426, -19.7963446 ], [ 34.9828774, -19.7970058 ], [ 34.9821505, -19.7976872 ], [ 34.9816114, -19.7981743 ], [ 34.9808201, -19.7989667 ], [ 34.9801469, -19.7995598 ], [ 34.9791598, -19.800438 ], [ 34.9784383, -19.8010866 ], [ 34.9774995, -19.8018537 ], [ 34.9769524, -19.8022777 ], [ 34.9763811, -19.8027042 ], [ 34.9754798, -19.8033528 ], [ 34.974423, -19.8040745 ], [ 34.9738303, -19.8044783 ], [ 34.9730927, -19.8049502 ], [ 34.9724972, -19.8052934 ], [ 34.9717623, -19.8057703 ], [ 34.9711105, -19.8061892 ], [ 34.9706733, -19.8064618 ], [ 34.9701074, -19.806757 ], [ 34.9696943, -19.8069438 ], [ 34.9689943, -19.8072365 ], [ 34.9683344, -19.8075116 ], [ 34.9677095, -19.8077791 ], [ 34.9673501, -19.8079052 ], [ 34.9668297, -19.808044 ], [ 34.9661458, -19.8081197 ], [ 34.9657246, -19.8082005 ], [ 34.9652901, -19.8083494 ], [ 34.9649709, -19.8084427 ], [ 34.9646598, -19.8085008 ], [ 34.9641395, -19.8085916 ], [ 34.9637184, -19.8087229 ], [ 34.9631926, -19.8088768 ], [ 34.962793, -19.8090433 ], [ 34.9622753, -19.8092402 ], [ 34.9617147, -19.8093764 ], [ 34.9610174, -19.8094875 ], [ 34.9599123, -19.8096843 ], [ 34.9592847, -19.8098054 ], [ 34.9587053, -19.8099518 ], [ 34.9580401, -19.8102092 ], [ 34.9575198, -19.8104262 ], [ 34.9570316, -19.8107038 ], [ 34.9562967, -19.8111277 ], [ 34.9555939, -19.8115062 ], [ 34.9552882, -19.8116375 ], [ 34.9550575, -19.8116526 ], [ 34.954623, -19.8116274 ], [ 34.9541026, -19.8115618 ], [ 34.9491513, -19.8105978 ], [ 34.9446666, -19.8095783 ], [ 34.9441785, -19.8095329 ], [ 34.9438942, -19.809548 ], [ 34.9436232, -19.8095885 ], [ 34.9432719, -19.8096843 ], [ 34.9422392, -19.8099594 ], [ 34.9420113, -19.8100325 ], [ 34.9416163, -19.8101869 ], [ 34.940764, -19.810734 ], [ 34.9404314, -19.8109057 ], [ 34.9394873, -19.8113145 ], [ 34.9385995, -19.8115542 ], [ 34.9373871, -19.8119529 ], [ 34.9366307, -19.8123289 ], [ 34.9359307, -19.8127352 ], [ 34.9350643, -19.8132727 ], [ 34.934265, -19.81379 ], [ 34.9335656, -19.8142051 ], [ 34.9332659, -19.8143994 ], [ 34.9330151, -19.814588 ], [ 34.9321139, -19.8152561 ], [ 34.9311697, -19.8160585 ], [ 34.9305528, -19.8166237 ], [ 34.9302524, -19.816895 ], [ 34.9298863, -19.8172659 ], [ 34.9291474, -19.8179662 ], [ 34.9288067, -19.8183245 ], [ 34.9282622, -19.8188367 ], [ 34.9278063, -19.819301 ], [ 34.9270257, -19.8200479 ], [ 34.9261996, -19.8209462 ], [ 34.9255237, -19.8216427 ], [ 34.9249162, -19.8222798 ], [ 34.9246439, -19.8225637 ], [ 34.9242282, -19.8230178 ], [ 34.9239278, -19.8233358 ], [ 34.9236917, -19.8235301 ], [ 34.9234638, -19.8237445 ], [ 34.9231204, -19.8241003 ], [ 34.9227959, -19.8244334 ], [ 34.9223185, -19.8249519 ], [ 34.9219979, -19.825285 ], [ 34.9216506, -19.8256092 ], [ 34.9214575, -19.8257909 ], [ 34.9211182, -19.8261429 ], [ 34.9208902, -19.8263687 ], [ 34.9205402, -19.8267321 ], [ 34.9200909, -19.8271547 ], [ 34.9192768, -19.8279331 ], [ 34.9189335, -19.8282536 ], [ 34.9185741, -19.8285689 ], [ 34.9180967, -19.8290181 ], [ 34.9174891, -19.8295656 ], [ 34.9172223, -19.8298053 ], [ 34.9168843, -19.8301106 ], [ 34.9166885, -19.8303074 ], [ 34.916262, -19.8307162 ], [ 34.9160904, -19.8308978 ], [ 34.9155888, -19.8314126 ], [ 34.9151006, -19.8319121 ], [ 34.9144408, -19.8325581 ], [ 34.9139339, -19.83304 ], [ 34.9133036, -19.8335951 ], [ 34.9123862, -19.8343924 ], [ 34.9119195, -19.8347986 ], [ 34.9113053, -19.8353688 ], [ 34.9102834, -19.8362695 ], [ 34.9087948, -19.8375487 ], [ 34.9077675, -19.8383536 ], [ 34.9067348, -19.8391988 ], [ 34.905206, -19.840372 ], [ 34.9035376, -19.8415553 ], [ 34.9024942, -19.8422819 ], [ 34.9012792, -19.8431422 ], [ 34.8999985, -19.8440782 ], [ 34.8998576, -19.8441703 ], [ 34.8996994, -19.8442599 ], [ 34.899509, -19.8443482 ], [ 34.8994124, -19.8443797 ], [ 34.8992152, -19.8444403 ], [ 34.8990865, -19.8444869 ], [ 34.8989417, -19.8445462 ], [ 34.8987257, -19.8446434 ], [ 34.8985554, -19.844738 ], [ 34.8978023, -19.8452248 ], [ 34.8976676, -19.8453119 ], [ 34.8968764, -19.8457686 ], [ 34.8960905, -19.8462517 ], [ 34.8953488, -19.8467525 ], [ 34.8949653, -19.8470023 ], [ 34.8947735, -19.8471322 ], [ 34.8946349, -19.8472067 ], [ 34.8944543, -19.8473038 ], [ 34.8939112, -19.8476305 ], [ 34.8936, -19.8478373 ], [ 34.8931722, -19.848106 ], [ 34.8930245, -19.8481789 ], [ 34.892735, -19.8483217 ], [ 34.8924574, -19.8484643 ], [ 34.891744, -19.8488919 ], [ 34.8913735, -19.8490937 ], [ 34.8912531, -19.8491593 ], [ 34.8904645, -19.8496261 ], [ 34.890144, -19.849814 ], [ 34.89003, -19.849891 ], [ 34.8899308, -19.8499389 ], [ 34.8898517, -19.8499528 ], [ 34.8897693, -19.8499501 ], [ 34.8897336, -19.849949 ], [ 34.8896746, -19.8499515 ], [ 34.8895781, -19.8499616 ], [ 34.8895171, -19.8499736 ], [ 34.8894352, -19.8499982 ], [ 34.888941, -19.8501811 ], [ 34.8887989, -19.8502473 ], [ 34.8886601, -19.8503198 ], [ 34.8883657, -19.8505027 ], [ 34.8881149, -19.850673 ], [ 34.8880613, -19.8507058 ], [ 34.8879969, -19.8507222 ], [ 34.8879321, -19.8507177 ], [ 34.8878695, -19.8507134 ], [ 34.8877756, -19.8507008 ], [ 34.8876898, -19.8507096 ], [ 34.8875718, -19.8507374 ], [ 34.8874846, -19.8507613 ], [ 34.8873813, -19.8508055 ], [ 34.8872352, -19.8508875 ], [ 34.8869522, -19.8510414 ], [ 34.8864989, -19.8513252 ], [ 34.8864064, -19.8513807 ], [ 34.8863541, -19.8514021 ], [ 34.8862816, -19.8514173 ], [ 34.8862293, -19.8514135 ], [ 34.886188, -19.8514038 ], [ 34.8861113, -19.8513857 ], [ 34.8860523, -19.8513668 ], [ 34.8859692, -19.8513567 ], [ 34.8858136, -19.8513731 ], [ 34.8855574, -19.8514488 ], [ 34.8850974, -19.8516532 ], [ 34.8847588, -19.8518512 ], [ 34.8846059, -19.8519307 ], [ 34.8845248, -19.8519464 ], [ 34.8844551, -19.8519427 ], [ 34.8843538, -19.8519023 ], [ 34.8841922, -19.851855 ], [ 34.8840621, -19.8518272 ], [ 34.883932, -19.8518146 ], [ 34.8838113, -19.8518159 ], [ 34.8834908, -19.8518487 ], [ 34.8832896, -19.8519029 ], [ 34.8830764, -19.8519843 ], [ 34.8829074, -19.8520637 ], [ 34.8827948, -19.8521117 ], [ 34.8827056, -19.8521344 ], [ 34.8826432, -19.8521148 ], [ 34.8825573, -19.8520177 ], [ 34.8824964, -19.8519956 ], [ 34.8824266, -19.8519868 ], [ 34.8823173, -19.8520038 ], [ 34.8821926, -19.8520341 ], [ 34.8819311, -19.8521287 ], [ 34.8817098, -19.8521666 ], [ 34.8815361, -19.8521823 ], [ 34.881168, -19.8522397 ], [ 34.8808019, -19.8523627 ], [ 34.8806785, -19.8524031 ], [ 34.8806215, -19.8524113 ], [ 34.8805638, -19.8523961 ], [ 34.8805249, -19.8523564 ], [ 34.8804545, -19.8522561 ], [ 34.8804076, -19.8522145 ], [ 34.8803499, -19.8521956 ], [ 34.8802467, -19.8521867 ], [ 34.8801354, -19.8521893 ], [ 34.8798383, -19.8522176 ], [ 34.8795976, -19.8522719 ], [ 34.8794112, -19.8523431 ], [ 34.8791557, -19.852451 ], [ 34.8789713, -19.8525059 ], [ 34.8788848, -19.8525292 ], [ 34.8788278, -19.8525431 ], [ 34.8787989, -19.8525431 ], [ 34.8787654, -19.852533 ], [ 34.8787315, -19.8524989 ], [ 34.8786729, -19.8524056 ], [ 34.8786166, -19.8523148 ], [ 34.8785388, -19.8522517 ], [ 34.8784395, -19.8522126 ], [ 34.8783155, -19.8521993 ], [ 34.878176, -19.8521981 ], [ 34.8780278, -19.8522135 ], [ 34.8778675, -19.852223 ], [ 34.8777237, -19.852232 ], [ 34.8775645, -19.8522271 ], [ 34.877429, -19.8522422 ], [ 34.8772942, -19.8522706 ], [ 34.8771497, -19.8523088 ], [ 34.8769066, -19.8523854 ], [ 34.8768758, -19.852386 ], [ 34.8768543, -19.8523703 ], [ 34.8768168, -19.8522984 ], [ 34.8768014, -19.8522397 ], [ 34.87679, -19.8522195 ], [ 34.8767705, -19.852205 ], [ 34.8767303, -19.852193 ], [ 34.8766284, -19.8521817 ], [ 34.8764795, -19.8521804 ], [ 34.8762958, -19.8521943 ], [ 34.876052, -19.8522567 ], [ 34.8759213, -19.8522876 ], [ 34.8758723, -19.8522854 ], [ 34.8758344, -19.8522772 ], [ 34.8758076, -19.8522576 ], [ 34.8757872, -19.8522394 ], [ 34.8757466, -19.8521981 ], [ 34.8757144, -19.852142 ], [ 34.8756903, -19.8520915 ], [ 34.8756608, -19.8520398 ], [ 34.8756152, -19.852012 ], [ 34.875526, -19.851995 ], [ 34.8753999, -19.8519811 ], [ 34.8752195, -19.8519874 ], [ 34.8751159, -19.8519937 ], [ 34.8750697, -19.8519827 ], [ 34.8750388, -19.8519666 ], [ 34.8750143, -19.8519338 ], [ 34.8749781, -19.8519086 ], [ 34.8749238, -19.851901 ], [ 34.8748286, -19.8519067 ], [ 34.874665, -19.8519256 ], [ 34.8744491, -19.8519862 ], [ 34.874211, -19.8520483 ], [ 34.8741591, -19.8520439 ], [ 34.8741279, -19.8520347 ], [ 34.874096, -19.8520193 ], [ 34.8740779, -19.8519991 ], [ 34.8740615, -19.8519458 ], [ 34.8740374, -19.8519092 ], [ 34.8740129, -19.851889 ], [ 34.8739643, -19.8518591 ], [ 34.8739073, -19.8518348 ], [ 34.8737517, -19.8517894 ], [ 34.8735304, -19.8517692 ], [ 34.873108, -19.8517705 ], [ 34.8725829, -19.8517888 ], [ 34.872312, -19.8518004 ], [ 34.8722772, -19.8517919 ], [ 34.8722631, -19.8517717 ], [ 34.8722269, -19.8516361 ], [ 34.8722007, -19.8515964 ], [ 34.8721618, -19.8515604 ], [ 34.8720619, -19.8514993 ], [ 34.8719258, -19.8514539 ], [ 34.8715456, -19.851416 ], [ 34.8711808, -19.8513958 ], [ 34.8707141, -19.851411 ], [ 34.8705203, -19.8514403 ], [ 34.8704174, -19.8514507 ], [ 34.8703815, -19.8514397 ], [ 34.8703654, -19.8514034 ], [ 34.8703473, -19.8512533 ], [ 34.8703077, -19.8511864 ], [ 34.8702393, -19.851141 ], [ 34.8699792, -19.8510325 ], [ 34.8697136, -19.8509808 ], [ 34.8693395, -19.8509442 ], [ 34.86874, -19.8509695 ], [ 34.8685435, -19.8509657 ], [ 34.8684795, -19.8509569 ], [ 34.8684335, -19.850936 ], [ 34.8684, -19.8509077 ], [ 34.8683128, -19.8507904 ], [ 34.8682706, -19.8507626 ], [ 34.8682096, -19.850743 ], [ 34.8680808, -19.8507222 ], [ 34.8678602, -19.8507071 ], [ 34.8675317, -19.8507109 ], [ 34.8671441, -19.8507235 ], [ 34.8666904, -19.8508004 ], [ 34.8666257, -19.8508131 ], [ 34.8665815, -19.8508147 ], [ 34.8665647, -19.8508093 ], [ 34.8665486, -19.8507941 ], [ 34.866432, -19.8506806 ], [ 34.8663984, -19.8506138 ], [ 34.8663555, -19.8505116 ], [ 34.866334, -19.8504737 ], [ 34.8663059, -19.8504472 ], [ 34.8662683, -19.8504346 ], [ 34.8661356, -19.8504296 ], [ 34.8655643, -19.8504409 ], [ 34.8650258, -19.8504529 ], [ 34.8648662, -19.8504668 ], [ 34.8647049, -19.8504734 ], [ 34.8646469, -19.8504624 ], [ 34.8645705, -19.8504346 ], [ 34.8645289, -19.8504264 ], [ 34.86449, -19.8504283 ], [ 34.8644391, -19.8504359 ], [ 34.8642674, -19.8504397 ], [ 34.8640669, -19.8504397 ], [ 34.8637913, -19.8504113 ], [ 34.8637176, -19.850381 ], [ 34.8636733, -19.8503451 ], [ 34.8636223, -19.8502568 ], [ 34.8636036, -19.8501861 ], [ 34.8636062, -19.8501168 ], [ 34.8636344, -19.8500676 ], [ 34.8636787, -19.8500237 ], [ 34.8637699, -19.8499717 ], [ 34.8639306, -19.8498659 ], [ 34.8639398, -19.8498519 ], [ 34.8639395, -19.8498399 ], [ 34.8639355, -19.8498298 ], [ 34.863917, -19.8498191 ], [ 34.8638986, -19.8498153 ], [ 34.8638423, -19.8498093 ], [ 34.8637873, -19.8498064 ], [ 34.8637658, -19.849809 ], [ 34.8637484, -19.8498159 ], [ 34.8637102, -19.8498405 ], [ 34.8636746, -19.8498455 ], [ 34.8636471, -19.8498414 ], [ 34.86362, -19.8498238 ], [ 34.8635781, -19.8498036 ], [ 34.8634762, -19.8497926 ], [ 34.863385, -19.8497989 ], [ 34.8632911, -19.8498178 ], [ 34.8632012, -19.8498582 ], [ 34.8630832, -19.8499641 ], [ 34.8629639, -19.8500701 ], [ 34.8628505, -19.8501464 ], [ 34.8628183, -19.8501956 ], [ 34.8628016, -19.850241 ], [ 34.8628002, -19.8503161 ], [ 34.8628036, -19.8503908 ], [ 34.8628113, -19.8504217 ], [ 34.862821, -19.8504365 ], [ 34.862882, -19.8504649 ], [ 34.8629189, -19.850487 ], [ 34.8629545, -19.8505242 ], [ 34.8629685, -19.8505482 ], [ 34.862996, -19.8505879 ], [ 34.8630121, -19.8505939 ], [ 34.8630393, -19.850597 ], [ 34.8630745, -19.8505885 ], [ 34.8631027, -19.8505753 ], [ 34.8631177, -19.8505519 ], [ 34.8631211, -19.8505346 ], [ 34.8631167, -19.8504308 ], [ 34.8631141, -19.8503741 ], [ 34.8631194, -19.850306 ], [ 34.8631302, -19.8502807 ], [ 34.8631664, -19.8502669 ], [ 34.8632006, -19.8502624 ], [ 34.8632314, -19.8502662 ], [ 34.8632502, -19.8502807 ], [ 34.8632576, -19.8503129 ], [ 34.8632562, -19.8503571 ], [ 34.8632515, -19.850393 ], [ 34.8632334, -19.8504914 ], [ 34.8632026, -19.8506352 ], [ 34.8631825, -19.8506831 ], [ 34.8631597, -19.8507046 ], [ 34.8631087, -19.8507134 ], [ 34.8630832, -19.8507248 ], [ 34.8630483, -19.8507399 ], [ 34.8630121, -19.8507866 ], [ 34.8629612, -19.8508686 ], [ 34.8629397, -19.8509569 ], [ 34.8629451, -19.8510174 ], [ 34.8629276, -19.851054 ], [ 34.8628981, -19.8510805 ], [ 34.8627815, -19.8511234 ], [ 34.8627359, -19.8511234 ], [ 34.8627171, -19.851107 ], [ 34.8627171, -19.8510792 ], [ 34.8627493, -19.8509897 ], [ 34.8627935, -19.8508332 ], [ 34.8628043, -19.85075 ], [ 34.8627855, -19.8506894 ], [ 34.8627493, -19.850591 ], [ 34.8627064, -19.8504889 ], [ 34.8626718, -19.8504044 ], [ 34.8626594, -19.8503741 ], [ 34.86265, -19.8503653 ], [ 34.8626313, -19.8503615 ], [ 34.8625977, -19.850369 ], [ 34.8625535, -19.8503817 ], [ 34.8625139, -19.8504012 ], [ 34.8624898, -19.8504214 ], [ 34.8624744, -19.8504435 ], [ 34.8624703, -19.8504763 ], [ 34.8625012, -19.8505986 ], [ 34.8625106, -19.8507424 ], [ 34.8624784, -19.8508585 ], [ 34.8624046, -19.8509947 ], [ 34.8623054, -19.8511158 ], [ 34.8621243, -19.8512646 ], [ 34.8620157, -19.8513731 ], [ 34.8619366, -19.8514841 ], [ 34.8618843, -19.8515346 ], [ 34.8618561, -19.8515434 ], [ 34.8618306, -19.8515295 ], [ 34.8617998, -19.8514904 ], [ 34.8617649, -19.8513971 ], [ 34.8617528, -19.8512672 ], [ 34.8617609, -19.8511801 ], [ 34.8618199, -19.851054 ], [ 34.8618346, -19.8510073 ], [ 34.8618199, -19.8509934 ], [ 34.8617877, -19.8509972 ], [ 34.8617609, -19.8510086 ], [ 34.861545, -19.8511625 ], [ 34.8612539, -19.8514274 ], [ 34.86103, -19.851609 ], [ 34.8608724, -19.85172 ], [ 34.8607604, -19.8517995 ], [ 34.8606578, -19.8518544 ], [ 34.8604593, -19.8519647 ], [ 34.8604057, -19.8519833 ], [ 34.8603849, -19.8519846 ], [ 34.8603752, -19.851977 ], [ 34.8603732, -19.8519594 ], [ 34.8603775, -19.8519272 ], [ 34.8603889, -19.8518821 ], [ 34.8604265, -19.8517806 ], [ 34.860523, -19.8515422 ], [ 34.8606129, -19.8513643 ], [ 34.8607443, -19.8510275 ], [ 34.8608328, -19.8508383 ], [ 34.8608932, -19.8506617 ], [ 34.8609066, -19.8505166 ], [ 34.8608986, -19.8504044 ], [ 34.8608623, -19.8503161 ], [ 34.8607618, -19.8501811 ], [ 34.8605807, -19.8500171 ], [ 34.8603433, -19.8498758 ], [ 34.8599665, -19.8497144 ], [ 34.8593952, -19.8495933 ], [ 34.8590975, -19.8495655 ], [ 34.8585878, -19.8495302 ], [ 34.85787, -19.8495053 ], [ 34.857818, -19.8494823 ], [ 34.8577815, -19.8494435 ], [ 34.85775, -19.8494056 ], [ 34.8577158, -19.8493766 ], [ 34.8575954, -19.8493246 ], [ 34.8574506, -19.8492871 ], [ 34.8573245, -19.8492666 ], [ 34.8570368, -19.8492527 ], [ 34.8569128, -19.8492445 ], [ 34.8568333, -19.8492256 ], [ 34.856783, -19.8491852 ], [ 34.856715, -19.8491108 ], [ 34.8566392, -19.8490609 ], [ 34.8564092, -19.848996 ], [ 34.856137, -19.8489417 ], [ 34.8560833, -19.8489077 ], [ 34.8560384, -19.8488585 ], [ 34.8559351, -19.848791 ], [ 34.8557983, -19.8487532 ], [ 34.855685, -19.8487412 ], [ 34.8555891, -19.8487368 ], [ 34.8554752, -19.8487279 ], [ 34.8553926, -19.848721 ], [ 34.8552357, -19.8487222 ], [ 34.8550795, -19.8487424 ], [ 34.8546188, -19.8488787 ], [ 34.8545068, -19.8488944 ], [ 34.8543929, -19.8488944 ], [ 34.8543097, -19.8488843 ], [ 34.8542494, -19.8488553 ], [ 34.8542105, -19.8488213 ], [ 34.8541206, -19.848767 ], [ 34.8540227, -19.8487115 ], [ 34.8539597, -19.8486926 ], [ 34.8538993, -19.8486876 ], [ 34.8536962, -19.8486907 ], [ 34.8534628, -19.8486913 ], [ 34.8533213, -19.8486838 ], [ 34.8528157, -19.8487317 ], [ 34.8525602, -19.8487727 ], [ 34.852286, -19.84882 ], [ 34.8522075, -19.8488288 ], [ 34.8521613, -19.8488269 ], [ 34.8521358, -19.8488213 ], [ 34.8521036, -19.8488093 ], [ 34.8520406, -19.8487853 ], [ 34.8519118, -19.848733 ], [ 34.851779, -19.8486838 ], [ 34.8516664, -19.8486485 ], [ 34.8515551, -19.8486396 ], [ 34.8510683, -19.8486888 ], [ 34.8507357, -19.8487216 ], [ 34.8506418, -19.8487304 ], [ 34.8505184, -19.8487292 ], [ 34.8500859, -19.8487349 ], [ 34.8496688, -19.8487929 ], [ 34.8496212, -19.8487878 ], [ 34.8495823, -19.8487796 ], [ 34.8495555, -19.8487658 ], [ 34.8495186, -19.8487601 ], [ 34.849479, -19.8487639 ], [ 34.8494107, -19.8487702 ], [ 34.8490983, -19.8488205 ], [ 34.8489453, -19.8488503 ], [ 34.8487589, -19.8488806 ], [ 34.8487193, -19.8488822 ], [ 34.8487019, -19.8488799 ], [ 34.8486623, -19.8488528 ], [ 34.8486368, -19.8488181 ], [ 34.848602, -19.8487569 ], [ 34.8485785, -19.8487241 ], [ 34.848549, -19.8487058 ], [ 34.8484464, -19.8486913 ], [ 34.8483304, -19.8486945 ], [ 34.8477517, -19.848738 ], [ 34.8473038, -19.8487796 ], [ 34.8468317, -19.8488478 ], [ 34.8467083, -19.8488717 ], [ 34.8466654, -19.8488995 ], [ 34.8466279, -19.8489436 ], [ 34.8465675, -19.84896 ], [ 34.8465031, -19.8489449 ], [ 34.8464669, -19.8488919 ], [ 34.8464066, -19.8487771 ], [ 34.8463677, -19.8486787 ], [ 34.8463167, -19.8486157 ], [ 34.846184, -19.8485564 ], [ 34.8460364, -19.848516 ], [ 34.8458299, -19.8484996 ], [ 34.8454303, -19.8485097 ], [ 34.8448898, -19.8485274 ], [ 34.8441133, -19.8485778 ], [ 34.8436694, -19.8486232 ], [ 34.8428614, -19.8487462 ], [ 34.8424014, -19.8488093 ], [ 34.8422351, -19.8488471 ], [ 34.8421734, -19.8488654 ], [ 34.8421204, -19.8488711 ], [ 34.8420225, -19.8488534 ], [ 34.8419494, -19.8488408 ], [ 34.8418763, -19.8488339 ], [ 34.841698, -19.848849 ], [ 34.8413278, -19.8489159 ], [ 34.8411736, -19.8489499 ], [ 34.8410998, -19.8489594 ], [ 34.8410697, -19.8489518 ], [ 34.8410549, -19.8489398 ], [ 34.8410172, -19.848888 ], [ 34.8409751, -19.8488345 ], [ 34.8409563, -19.8488187 ], [ 34.8409201, -19.8488061 ], [ 34.8408229, -19.8487948 ], [ 34.8407391, -19.8487897 ], [ 34.8405185, -19.8487815 ], [ 34.840216, -19.8488055 ], [ 34.8400078, -19.8488225 ], [ 34.839986, -19.8488216 ], [ 34.8399746, -19.848814 ], [ 34.8399243, -19.8487677 ], [ 34.8398841, -19.8487235 ], [ 34.8398466, -19.8486951 ], [ 34.839805, -19.8486756 ], [ 34.8397171, -19.8486428 ], [ 34.8394664, -19.8486308 ], [ 34.8391297, -19.848627 ], [ 34.8387495, -19.8486421 ], [ 34.8383573, -19.8486339 ], [ 34.8382004, -19.8486093 ], [ 34.8092175, -19.8530227 ], [ 34.7706851, -19.8588746 ], [ 34.7703928, -19.8590007 ], [ 34.7697008, -19.8592126 ], [ 34.7686279, -19.8593413 ], [ 34.7680324, -19.8592227 ], [ 34.7673136, -19.8588846 ], [ 34.7668013, -19.8587686 ], [ 34.7663507, -19.8586034 ], [ 34.7661442, -19.8585781 ], [ 34.7659564, -19.8585996 ], [ 34.7657579, -19.8587131 ], [ 34.7656587, -19.8589023 ], [ 34.76555, -19.8590537 ], [ 34.7654723, -19.8590966 ], [ 34.7653623, -19.8591041 ], [ 34.7652724, -19.8590839 ], [ 34.7650324, -19.8589881 ], [ 34.7649479, -19.8589301 ], [ 34.7648165, -19.8588556 ], [ 34.7644249, -19.8587434 ], [ 34.7640011, -19.8586803 ], [ 34.763592, -19.8586753 ], [ 34.7631508, -19.8587257 ], [ 34.762896, -19.8587837 ], [ 34.7626781, -19.8589244 ], [ 34.7625587, -19.8590884 ], [ 34.7624762, -19.8592284 ], [ 34.7623783, -19.8592858 ], [ 34.7621101, -19.8593312 ], [ 34.7617614, -19.859369 ], [ 34.7614959, -19.8594472 ], [ 34.761292, -19.8595633 ], [ 34.7609621, -19.8597272 ], [ 34.7602862, -19.8599946 ], [ 34.7601139, -19.8600173 ], [ 34.7599939, -19.8600255 ], [ 34.7598691, -19.8600571 ], [ 34.7597866, -19.8601037 ], [ 34.7597142, -19.8601857 ], [ 34.7596546, -19.8602557 ], [ 34.7595875, -19.8603093 ], [ 34.7594936, -19.8603516 ], [ 34.759338, -19.8604184 ], [ 34.7591905, -19.8604777 ], [ 34.7589169, -19.8605446 ], [ 34.7586474, -19.8605572 ], [ 34.7582933, -19.8605723 ], [ 34.7579902, -19.8606329 ], [ 34.7576979, -19.8606959 ], [ 34.7573465, -19.8608044 ], [ 34.7568476, -19.8609659 ], [ 34.7566384, -19.8609898 ], [ 34.7564587, -19.8609911 ], [ 34.7562857, -19.860976 ], [ 34.7560483, -19.86101 ], [ 34.7559115, -19.8610756 ], [ 34.7557372, -19.8611727 ], [ 34.7556232, -19.8612251 ], [ 34.7555716, -19.8612862 ], [ 34.7555608, -19.861338 ], [ 34.7555612, -19.8614045 ], [ 34.7555652, -19.8614483 ], [ 34.7555605, -19.8614868 ], [ 34.7555112, -19.8615549 ], [ 34.7554395, -19.8616369 ], [ 34.7554281, -19.8616804 ], [ 34.7554341, -19.8617277 ], [ 34.7554649, -19.8617731 ], [ 34.755528, -19.8618091 ], [ 34.7555467, -19.8618267 ], [ 34.7555602, -19.8618551 ], [ 34.7555655, -19.8619308 ], [ 34.7555405, -19.8620512 ], [ 34.7555089, -19.8621926 ], [ 34.7554777, -19.8622915 ], [ 34.7554006, -19.8623306 ], [ 34.7552772, -19.8623256 ], [ 34.7551471, -19.8622777 ], [ 34.7548145, -19.8621679 ], [ 34.7545919, -19.8621704 ], [ 34.7544363, -19.8622386 ], [ 34.7543424, -19.8623584 ], [ 34.7543183, -19.8625463 ], [ 34.7543183, -19.8627607 ], [ 34.7542747, -19.8628869 ], [ 34.7541694, -19.8629802 ], [ 34.7539522, -19.8630887 ], [ 34.7535472, -19.8633107 ], [ 34.7531891, -19.8635465 ], [ 34.7529477, -19.8637912 ], [ 34.7526848, -19.8640889 ], [ 34.7524944, -19.864244 ], [ 34.7523724, -19.8643437 ], [ 34.7523026, -19.8644698 ], [ 34.7522852, -19.8645695 ], [ 34.7522959, -19.8646615 ], [ 34.7523053, -19.8647751 ], [ 34.7522731, -19.8648772 ], [ 34.7522074, -19.8650223 ], [ 34.7521645, -19.8651686 ], [ 34.7521403, -19.8654183 ], [ 34.7520733, -19.8656655 ], [ 34.7519392, -19.8658573 ], [ 34.7518212, -19.8660767 ], [ 34.7517407, -19.8662836 ], [ 34.751628, -19.8663946 ], [ 34.7512794, -19.8666191 ], [ 34.7510138, -19.8668739 ], [ 34.7508636, -19.8671639 ], [ 34.7507456, -19.8674969 ], [ 34.7506651, -19.8677366 ], [ 34.7505847, -19.8681099 ], [ 34.7505444, -19.8684404 ], [ 34.7504237, -19.8687355 ], [ 34.7502735, -19.8690559 ], [ 34.7500858, -19.869462 ], [ 34.7499329, -19.8697597 ], [ 34.7497559, -19.8699186 ], [ 34.7493012, -19.8702944 ], [ 34.7490719, -19.8705366 ], [ 34.7489056, -19.8707207 ], [ 34.7487956, -19.8708128 ], [ 34.7485569, -19.8709352 ], [ 34.7482592, -19.8710688 ], [ 34.7475041, -19.8714548 ], [ 34.7462958, -19.8719643 ], [ 34.7454482, -19.8724739 ], [ 34.7443916, -19.8733324 ], [ 34.7436029, -19.8739369 ], [ 34.7427338, -19.8748601 ], [ 34.7422859, -19.8752839 ], [ 34.7417924, -19.8758414 ], [ 34.7414839, -19.8762197 ], [ 34.7411621, -19.8766687 ], [ 34.740977, -19.8769235 ], [ 34.7408965, -19.8769916 ], [ 34.7408456, -19.8770736 ], [ 34.7408174, -19.8771745 ], [ 34.7407946, -19.8772766 ], [ 34.7407839, -19.8773119 ], [ 34.7407436, -19.8773498 ], [ 34.7405961, -19.8774381 ], [ 34.7404124, -19.877486 ], [ 34.7402649, -19.8775591 ], [ 34.7401603, -19.8776739 ], [ 34.7400878, -19.8777937 ], [ 34.7400355, -19.8779186 ], [ 34.739943, -19.8780762 ], [ 34.7398639, -19.8781532 ], [ 34.7398008, -19.8782036 ], [ 34.7396976, -19.8782692 ], [ 34.7395179, -19.878394 ], [ 34.7394012, -19.8785429 ], [ 34.7393301, -19.8786816 ], [ 34.7392912, -19.8788809 ], [ 34.7392027, -19.8790877 ], [ 34.739078, -19.8793185 ], [ 34.738972, -19.879485 ], [ 34.7388875, -19.8796603 ], [ 34.7387628, -19.8798482 ], [ 34.7385952, -19.8800361 ], [ 34.7384557, -19.8802354 ], [ 34.7382492, -19.8806844 ], [ 34.7386247, -19.8820363 ], [ 34.7394991, -19.8838019 ], [ 34.7406149, -19.8849319 ], [ 34.7421813, -19.8860216 ], [ 34.7453356, -19.8872222 ], [ 34.7458506, -19.8870204 ], [ 34.746269, -19.8868993 ], [ 34.7472131, -19.8867682 ], [ 34.7477201, -19.8867682 ], [ 34.748278, -19.8867707 ], [ 34.7484657, -19.8868098 ], [ 34.7486293, -19.8868892 ], [ 34.7488546, -19.8870179 ], [ 34.7491819, -19.8871061 ], [ 34.7495681, -19.8871793 ], [ 34.7498202, -19.8873029 ], [ 34.7500724, -19.8874467 ], [ 34.7504371, -19.887709 ], [ 34.7511667, -19.8882639 ], [ 34.7515315, -19.8885413 ], [ 34.7520679, -19.8887683 ], [ 34.7525024, -19.8889928 ], [ 34.7529852, -19.8891391 ], [ 34.7533205, -19.889298 ], [ 34.7535753, -19.8894922 ], [ 34.7539294, -19.8898201 ], [ 34.7543424, -19.8903094 ], [ 34.7545503, -19.890631 ], [ 34.7546549, -19.8907281 ], [ 34.7548601, -19.8907583 ], [ 34.7550479, -19.8907192 ], [ 34.7552825, -19.8906713 ], [ 34.7555789, -19.8906751 ], [ 34.7559035, -19.8907192 ], [ 34.7562522, -19.8908945 ], [ 34.7564989, -19.8913384 ], [ 34.7567725, -19.8918883 ], [ 34.7569978, -19.8925339 ], [ 34.7570836, -19.8931796 ], [ 34.7572124, -19.8937597 ], [ 34.7574323, -19.8941986 ], [ 34.7577059, -19.8945567 ], [ 34.75806, -19.8950611 ], [ 34.7582906, -19.8953588 ], [ 34.7587815, -19.8957598 ], [ 34.7594708, -19.8964433 ], [ 34.7598731, -19.8971948 ], [ 34.760195, -19.8982138 ], [ 34.7606403, -19.9003424 ], [ 34.7609809, -19.9021557 ], [ 34.761292, -19.9046248 ], [ 34.76152, -19.9066121 ], [ 34.7616034, -19.9079618 ], [ 34.7617549, -19.9102697 ], [ 34.76174, -19.9131185 ], [ 34.761693, -19.9157034 ], [ 34.7617561, -19.9162733 ], [ 34.761799, -19.916982 ], [ 34.7617842, -19.9174371 ], [ 34.7616649, -19.9180386 ], [ 34.7616193, -19.9184723 ], [ 34.7615898, -19.9197231 ], [ 34.7616595, -19.921158 ], [ 34.7616622, -19.9213774 ], [ 34.7616434, -19.9215438 ], [ 34.7615616, -19.9217254 ], [ 34.7614168, -19.9220103 ], [ 34.7613323, -19.9221692 ], [ 34.761233, -19.9223331 ], [ 34.7611606, -19.9225197 ], [ 34.7611096, -19.9227643 ], [ 34.7611713, -19.9231955 ], [ 34.7613296, -19.923599 ], [ 34.7617507, -19.9240579 ], [ 34.7623676, -19.9246631 ], [ 34.7628879, -19.9255457 ], [ 34.7632501, -19.9263715 ], [ 34.7635531, -19.9271469 ], [ 34.7638535, -19.9280244 ], [ 34.7641057, -19.9288767 ], [ 34.7644678, -19.9302334 ], [ 34.7648486, -19.9318446 ], [ 34.7649506, -19.9324851 ], [ 34.7650123, -19.9340421 ], [ 34.7650632, -19.9350293 ], [ 34.7650874, -19.9363934 ], [ 34.7651249, -19.9373314 ], [ 34.7650284, -19.9385467 ], [ 34.7646917, -19.939781 ], [ 34.7642881, -19.9408059 ], [ 34.7639796, -19.9413279 ], [ 34.7637543, -19.9417035 ], [ 34.7632903, -19.9425179 ], [ 34.7631133, -19.9428331 ], [ 34.7628745, -19.9433374 ], [ 34.7626868, -19.94364 ], [ 34.7625151, -19.9438114 ], [ 34.7623408, -19.9439602 ], [ 34.7621638, -19.9441114 ], [ 34.7620028, -19.944235 ], [ 34.7618419, -19.9443863 ], [ 34.7617024, -19.9445577 ], [ 34.7615173, -19.9449233 ], [ 34.7614798, -19.945178 ], [ 34.761512, -19.9454629 ], [ 34.7615683, -19.9457907 ], [ 34.7616515, -19.9461336 ], [ 34.7617185, -19.9463403 ], [ 34.7618338, -19.9465975 ], [ 34.7618473, -19.9467563 ], [ 34.7618151, -19.9468975 ], [ 34.7617131, -19.9470387 ], [ 34.7616273, -19.9471673 ], [ 34.7615066, -19.9475959 ], [ 34.761402, -19.9481229 ], [ 34.7613054, -19.9486826 ], [ 34.7610855, -19.9491641 ], [ 34.760938, -19.949618 ], [ 34.760887, -19.9498398 ], [ 34.7609434, -19.9500945 ], [ 34.761107, -19.950339 ], [ 34.7614396, -19.9505735 ], [ 34.7620323, -19.950866 ], [ 34.7623274, -19.951045 ], [ 34.7625178, -19.9513072 ], [ 34.7625714, -19.9516324 ], [ 34.7626144, -19.9521683 ], [ 34.7625461, -19.9530871 ], [ 34.7624506, -19.9541258 ], [ 34.7622696, -19.9554227 ], [ 34.761917, -19.9593371 ], [ 34.7614556, -19.9629927 ], [ 34.7605812, -19.9665423 ], [ 34.759798, -19.9691812 ], [ 34.7594064, -19.9704699 ], [ 34.759165, -19.9713951 ], [ 34.7588271, -19.9724135 ], [ 34.7587037, -19.9729253 ], [ 34.7585964, -19.9735807 ], [ 34.7584677, -19.9743622 ], [ 34.7583389, -19.9751285 ], [ 34.7582263, -19.9758797 ], [ 34.7581136, -19.9765755 ], [ 34.7580278, -19.9773922 ], [ 34.7579151, -19.9782543 ], [ 34.7578347, -19.9789476 ], [ 34.7578078, -19.9793887 ], [ 34.7577757, -19.9797492 ], [ 34.7577327, -19.9801298 ], [ 34.7577032, -19.980455 ], [ 34.7576496, -19.9808961 ], [ 34.7575986, -19.9814003 ], [ 34.7575718, -19.9816927 ], [ 34.7575369, -19.9819901 ], [ 34.7575021, -19.9823733 ], [ 34.7574806, -19.9828371 ], [ 34.7574913, -19.9833311 ], [ 34.7575716, -19.9840806 ], [ 34.7576094, -19.9847427 ], [ 34.7576362, -19.9854057 ], [ 34.7576469, -19.9860031 ], [ 34.7576147, -19.9864593 ], [ 34.7574699, -19.9869181 ], [ 34.7572446, -19.9873617 ], [ 34.7571373, -19.9876844 ], [ 34.7570461, -19.9880398 ], [ 34.7569495, -19.9883549 ], [ 34.7568248, -19.9887065 ], [ 34.7565553, -19.9893707 ], [ 34.756507, -19.9898282 ], [ 34.7565311, -19.9900941 ], [ 34.7565982, -19.9903386 ], [ 34.7567859, -19.9907116 ], [ 34.756861, -19.9909461 ], [ 34.7569093, -19.9912284 ], [ 34.7569522, -19.9916367 ], [ 34.756979, -19.9923677 ], [ 34.7568211, -19.9930754 ], [ 34.7566961, -19.9935196 ], [ 34.7566465, -19.9937905 ], [ 34.7566518, -19.9940073 ], [ 34.7566639, -19.9943261 ], [ 34.7565982, -19.9946462 ], [ 34.7564775, -19.9950331 ], [ 34.7562146, -19.9954251 ], [ 34.7560121, -19.9956368 ], [ 34.755937, -19.9957049 ], [ 34.7558847, -19.9957691 ], [ 34.75587, -19.9958334 ], [ 34.7558968, -19.9960048 ], [ 34.7559464, -19.9961838 ], [ 34.7559866, -19.9963426 ], [ 34.7560416, -19.9967358 ], [ 34.7560108, -19.9971416 ], [ 34.7559786, -19.9973583 ], [ 34.7559451, -19.9975713 ], [ 34.7559196, -19.9977238 ], [ 34.7559062, -19.9979658 ], [ 34.7558954, -19.9983338 ], [ 34.7559088, -19.9987698 ], [ 34.7558364, -19.9990672 ], [ 34.7556969, -19.9993394 ], [ 34.7553885, -19.9996772 ], [ 34.7553188, -19.999841 ], [ 34.75527333108348, -20.0 ], [ 30.0, -20.0 ], [ 30.0, -15.0 ], [ 35.0, -15.0 ], [ 35.0, -19.784454928758016 ], [ 34.9998638, -19.7845888 ] ] ] ] } }
]
}
