{
"type": "FeatureCollection",
"name": "30_-90",
"crs": { "type": "name", "properties": { "name": "urn:ogc:def:crs:OGC:1.3:CRS84" } },
"xy_coordinate_resolution": 1e-15,
"features": [
{ "type": "Feature", "properties": { "FID": 307096, "id": 1548, "left": 30.0, "top": -85.0, "right": 35.0, "bottom": -90.0, "row_index": 35, "col_index": 42, "min_lon": 30.0, "min_lat": -90.0, "tile_id": "30_-90" }, "geometry": { "type": "MultiPolygon", "coordinates": [ [ [ [ 34.0, -90.0 ], [ 33.0, -90.0 ], [ 32.0, -90.0 ], [ 31.0, -90.0 ], [ 30.0, -90.0 ], [ 30.0, -85.0 ], [ 35.0, -85.0 ], [ 35.0, -90.0 ], [ 34.0, -90.0 ] ] ] ] } }
]
}
