{
"type": "FeatureCollection",
"name": "30_0",
"crs": { "type": "name", "properties": { "name": "urn:ogc:def:crs:OGC:1.3:CRS84" } },
"xy_coordinate_resolution": 1e-15,
"features": [
{ "type": "Feature", "properties": { "FID": 660342, "id": 1530, "left": 30.0, "top": 5.0, "right": 35.0, "bottom": 0.0, "row_index": 17, "col_index": 42, "min_lon": 30.0, "min_lat": 0.0, "tile_id": "30_0" }, "geometry": { "type": "MultiPolygon", "coordinates": [ [ [ [ 35.0, 5.0 ], [ 35.0, 0.0 ], [ 30.0, 0.0 ], [ 30.0, 5.0 ], [ 35.0, 5.0 ] ] ] ] } },
{ "type": "Feature", "properties": { "FID": 756144, "id": 1530, "left": 30.0, "top": 5.0, "right": 35.0, "bottom": 0.0, "row_index": 17, "col_index": 42, "min_lon": 30.0, "min_lat": 0.0, "tile_id": "30_0" }, "geometry": { "type": "MultiPolygon", "coordinates": [ [ [ [ 32.4809711, 0.0745374 ], [ 32.4810577, 0.0744653 ], [ 32.4809242, 0.0743171 ], [ 32.4809461, 0.0742429 ], [ 32.4808708, 0.0742534 ], [ 32.4807935, 0.074339 ], [ 32.4809711, 0.0745374 ] ] ] ] } }
]
}
