{
"type": "FeatureCollection",
"name": "30_10",
"crs": { "type": "name", "properties": { "name": "urn:ogc:def:crs:OGC:1.3:CRS84" } },
"xy_coordinate_resolution": 1e-15,
"features": [
{ "type": "Feature", "properties": { "FID": 660342, "id": 1528, "left": 30.0, "top": 15.0, "right": 35.0, "bottom": 10.0, "row_index": 15, "col_index": 42, "min_lon": 30.0, "min_lat": 10.0, "tile_id": "30_10" }, "geometry": { "type": "MultiPolygon", "coordinates": [ [ [ [ 35.0, 15.0 ], [ 35.0, 10.0 ], [ 30.0, 10.0 ], [ 30.0, 15.0 ], [ 35.0, 15.0 ] ] ] ] } }
]
}
