{
"type": "FeatureCollection",
"name": "30_20",
"crs": { "type": "name", "properties": { "name": "urn:ogc:def:crs:OGC:1.3:CRS84" } },
"xy_coordinate_resolution": 1e-15,
"features": [
{ "type": "Feature", "properties": { "FID": 660342, "id": 1526, "left": 30.0, "top": 25.0, "right": 35.0, "bottom": 20.0, "row_index": 13, "col_index": 42, "min_lon": 30.0, "min_lat": 20.0, "tile_id": "30_20" }, "geometry": { "type": "MultiPolygon", "coordinates": [ [ [ [ 34.9427327, 24.9999466 ], [ 34.9430412, 24.999458 ], [ 34.9432048, 24.9990642 ], [ 34.9433577, 24.9987336 ], [ 34.9434838, 24.998454 ], [ 34.9437842, 24.9980796 ], [ 34.9438378, 24.9979897 ], [ 34.9438351, 24.9979095 ], [ 34.9437439, 24.9978292 ], [ 34.9437278, 24.9976955 ], [ 34.9438217, 24.9974354 ], [ 34.9440256, 24.9971948 ], [ 34.9446532, 24.9966843 ], [ 34.944739, 24.9965627 ], [ 34.9447685, 24.9963342 ], [ 34.944782, 24.9960717 ], [ 34.9447605, 24.9959477 ], [ 34.9447095, 24.9959136 ], [ 34.9445942, 24.9958383 ], [ 34.9445191, 24.9957216 ], [ 34.9445084, 24.9954979 ], [ 34.9446022, 24.9948635 ], [ 34.944613, 24.9945085 ], [ 34.944554, 24.9942946 ], [ 34.9445352, 24.9940393 ], [ 34.9445888, 24.9934389 ], [ 34.9445888, 24.9931569 ], [ 34.9445593, 24.9929867 ], [ 34.9445245, 24.9928579 ], [ 34.9444413, 24.9927703 ], [ 34.9444306, 24.9926415 ], [ 34.944554, 24.9922185 ], [ 34.9446183, 24.9919997 ], [ 34.9446183, 24.9918417 ], [ 34.9446076, 24.9916691 ], [ 34.9446854, 24.9913579 ], [ 34.9450797, 24.9906261 ], [ 34.9456791, 24.9895623 ], [ 34.9457985, 24.989238 ], [ 34.9458575, 24.9890143 ], [ 34.9459031, 24.988815 ], [ 34.9460211, 24.988567 ], [ 34.946174, 24.9882728 ], [ 34.9464208, 24.9878158 ], [ 34.9469626, 24.9868798 ], [ 34.9470082, 24.9867995 ], [ 34.9470189, 24.9867047 ], [ 34.9469385, 24.9865856 ], [ 34.9468821, 24.9864446 ], [ 34.9468526, 24.9863473 ], [ 34.9468714, 24.9862282 ], [ 34.9470136, 24.9859632 ], [ 34.9470833, 24.9857882 ], [ 34.9472228, 24.984857 ], [ 34.9472845, 24.9846212 ], [ 34.9473917, 24.98431 ], [ 34.9474266, 24.9840669 ], [ 34.9473515, 24.9838991 ], [ 34.9473247, 24.9837532 ], [ 34.9472925, 24.9835442 ], [ 34.9472764, 24.9833861 ], [ 34.9472871, 24.9830798 ], [ 34.947314, 24.9826738 ], [ 34.9473032, 24.982472 ], [ 34.9471611, 24.9823431 ], [ 34.9469599, 24.9823042 ], [ 34.9468365, 24.9822386 ], [ 34.9467319, 24.9821122 ], [ 34.9463671, 24.9812393 ], [ 34.946174, 24.9808989 ], [ 34.9459273, 24.9805586 ], [ 34.9457046, 24.9802036 ], [ 34.9454579, 24.979834 ], [ 34.9453694, 24.9796225 ], [ 34.9453077, 24.979377 ], [ 34.9452943, 24.979056 ], [ 34.9452621, 24.9787861 ], [ 34.9451736, 24.9785819 ], [ 34.9450046, 24.9782221 ], [ 34.9448061, 24.9779765 ], [ 34.9442965, 24.9773517 ], [ 34.9440819, 24.9771012 ], [ 34.9438941, 24.9769383 ], [ 34.943414, 24.9765201 ], [ 34.9428883, 24.976012 ], [ 34.9424458, 24.9756205 ], [ 34.9421534, 24.9753604 ], [ 34.9415445, 24.9746893 ], [ 34.9413165, 24.9744534 ], [ 34.9411181, 24.9742249 ], [ 34.9408096, 24.9737459 ], [ 34.9406433, 24.9734906 ], [ 34.9404368, 24.9732693 ], [ 34.9400747, 24.9729557 ], [ 34.9398521, 24.9727247 ], [ 34.9396536, 24.9724961 ], [ 34.9392915, 24.9718883 ], [ 34.9389884, 24.9712537 ], [ 34.938747, 24.9706604 ], [ 34.9386424, 24.9703394 ], [ 34.9385968, 24.9698264 ], [ 34.9385887, 24.9693547 ], [ 34.9386585, 24.9689194 ], [ 34.9387282, 24.9686495 ], [ 34.9387443, 24.9683918 ], [ 34.9387255, 24.9681608 ], [ 34.9387121, 24.9679784 ], [ 34.9386826, 24.9678593 ], [ 34.9385136, 24.9675529 ], [ 34.9381274, 24.9668137 ], [ 34.9376634, 24.9659772 ], [ 34.9373683, 24.9653718 ], [ 34.9372289, 24.9651554 ], [ 34.9367782, 24.9645645 ], [ 34.936679, 24.9644186 ], [ 34.9365503, 24.964139 ], [ 34.9363786, 24.9635918 ], [ 34.9362257, 24.963339 ], [ 34.9360627, 24.9631302 ], [ 34.9359435, 24.962995 ], [ 34.9358489, 24.9628599 ], [ 34.9357818, 24.9627262 ], [ 34.9357443, 24.9625523 ], [ 34.9357268, 24.9622617 ], [ 34.935751, 24.9620088 ], [ 34.9357818, 24.9615918 ], [ 34.9357831, 24.9614325 ], [ 34.9358059, 24.9613353 ], [ 34.9359897, 24.9609571 ], [ 34.9361426, 24.9606982 ], [ 34.9362284, 24.9605912 ], [ 34.9362659, 24.9605073 ], [ 34.9363089, 24.9603018 ], [ 34.9363343, 24.9601158 ], [ 34.9363196, 24.9599273 ], [ 34.9362767, 24.9595966 ], [ 34.9363008, 24.9594386 ], [ 34.9364778, 24.9591613 ], [ 34.9366468, 24.9589279 ], [ 34.936856, 24.9587796 ], [ 34.9375185, 24.9585048 ], [ 34.9377626, 24.9583808 ], [ 34.9380121, 24.9581497 ], [ 34.9385324, 24.957554 ], [ 34.9387604, 24.9572889 ], [ 34.9389911, 24.9569436 ], [ 34.9391869, 24.9566032 ], [ 34.9392861, 24.9564256 ], [ 34.9392888, 24.9562773 ], [ 34.9392432, 24.9562141 ], [ 34.9392056, 24.9561581 ], [ 34.9392003, 24.9560633 ], [ 34.9393076, 24.9558201 ], [ 34.9397716, 24.9550857 ], [ 34.939793, 24.9550128 ], [ 34.9397126, 24.9549325 ], [ 34.9395436, 24.9548425 ], [ 34.9392459, 24.9547915 ], [ 34.9390742, 24.9547185 ], [ 34.9389374, 24.9546845 ], [ 34.9387363, 24.9546966 ], [ 34.9386102, 24.9546577 ], [ 34.938468, 24.9545507 ], [ 34.9383768, 24.954254 ], [ 34.9383393, 24.9540011 ], [ 34.9384063, 24.953612 ], [ 34.9385592, 24.9532692 ], [ 34.9388277, 24.9529631 ], [ 34.9396509, 24.9523232 ], [ 34.9399593, 24.9521602 ], [ 34.9400747, 24.9521505 ], [ 34.94019, 24.9522721 ], [ 34.940359, 24.9523183 ], [ 34.9404877, 24.9523767 ], [ 34.9405709, 24.9524569 ], [ 34.9407211, 24.9525153 ], [ 34.9407908, 24.9524958 ], [ 34.9408552, 24.9523815 ], [ 34.9409571, 24.9519 ], [ 34.9411529, 24.9514817 ], [ 34.9413648, 24.9511267 ], [ 34.9415204, 24.9508203 ], [ 34.9416974, 24.9503047 ], [ 34.9417457, 24.9501272 ], [ 34.9417242, 24.9499594 ], [ 34.9417242, 24.9498329 ], [ 34.9417832, 24.9496335 ], [ 34.9419978, 24.949349 ], [ 34.9420193, 24.9492323 ], [ 34.9420032, 24.9491107 ], [ 34.9420354, 24.9489112 ], [ 34.9421641, 24.9486486 ], [ 34.9423975, 24.9482765 ], [ 34.9425718, 24.9478558 ], [ 34.9426684, 24.9476831 ], [ 34.9427783, 24.9475421 ], [ 34.9428841, 24.9472845 ], [ 34.9428722, 24.9470241 ], [ 34.9428454, 24.9468344 ], [ 34.9428642, 24.9466714 ], [ 34.9429393, 24.9464331 ], [ 34.9430573, 24.9462166 ], [ 34.9433202, 24.9460075 ], [ 34.9438164, 24.9456986 ], [ 34.9446103, 24.9452633 ], [ 34.9449322, 24.9450298 ], [ 34.9454579, 24.9445288 ], [ 34.9462599, 24.9435925 ], [ 34.9464288, 24.9433153 ], [ 34.9465415, 24.9430307 ], [ 34.9466971, 24.9425492 ], [ 34.946799, 24.9422744 ], [ 34.9468607, 24.9420093 ], [ 34.9469116, 24.9416736 ], [ 34.9468937, 24.9412978 ], [ 34.946917, 24.9408857 ], [ 34.9470511, 24.9406108 ], [ 34.9472308, 24.9403555 ], [ 34.94755, 24.940156 ], [ 34.9481642, 24.9399323 ], [ 34.9486685, 24.9398326 ], [ 34.9490118, 24.9397839 ], [ 34.9493471, 24.9396185 ], [ 34.9498352, 24.9392659 ], [ 34.9503529, 24.9388208 ], [ 34.9509752, 24.9382882 ], [ 34.9518335, 24.9377069 ], [ 34.9526435, 24.9372034 ], [ 34.9532872, 24.9367729 ], [ 34.9534965, 24.936627 ], [ 34.9536279, 24.9364324 ], [ 34.9537486, 24.9362962 ], [ 34.9541536, 24.9358195 ], [ 34.954446, 24.935479 ], [ 34.9550468, 24.9349561 ], [ 34.955433, 24.9346156 ], [ 34.9559078, 24.9341073 ], [ 34.9562538, 24.9338786 ], [ 34.9568117, 24.9334725 ], [ 34.957155, 24.933273 ], [ 34.9578255, 24.9327817 ], [ 34.9583781, 24.9322904 ], [ 34.9589011, 24.9318477 ], [ 34.9592578, 24.9315437 ], [ 34.9596816, 24.9310816 ], [ 34.9604434, 24.9303251 ], [ 34.9608323, 24.929953 ], [ 34.9610496, 24.9297073 ], [ 34.9614197, 24.929289 ], [ 34.9616986, 24.9290457 ], [ 34.9619213, 24.9288876 ], [ 34.9620983, 24.9286906 ], [ 34.9622584, 24.9284068 ], [ 34.9622914, 24.9280679 ], [ 34.96227, 24.9278004 ], [ 34.9621868, 24.9275693 ], [ 34.9620125, 24.9274696 ], [ 34.9617952, 24.9274745 ], [ 34.9616879, 24.9274185 ], [ 34.9615548, 24.9272334 ], [ 34.9614539, 24.9269247 ], [ 34.9614515, 24.9266122 ], [ 34.9613423, 24.9263009 ], [ 34.961339, 24.9260885 ], [ 34.9614255, 24.9258352 ], [ 34.9615404, 24.9257402 ], [ 34.961873, 24.9255188 ], [ 34.9625114, 24.9253218 ], [ 34.9630049, 24.9252026 ], [ 34.9636325, 24.9251734 ], [ 34.9638954, 24.925261 ], [ 34.9642575, 24.925351 ], [ 34.9645606, 24.9252829 ], [ 34.9651533, 24.924974 ], [ 34.965435, 24.9247672 ], [ 34.9658051, 24.9244243 ], [ 34.9661055, 24.9239427 ], [ 34.966253, 24.9236313 ], [ 34.9663523, 24.9233686 ], [ 34.9663496, 24.9232689 ], [ 34.966296, 24.9232008 ], [ 34.9662289, 24.9231424 ], [ 34.9661815, 24.9230744 ], [ 34.9661417, 24.9229685 ], [ 34.9661337, 24.9228323 ], [ 34.9661227, 24.9226887 ], [ 34.966139, 24.9225975 ], [ 34.966205, 24.9224638 ], [ 34.9662572, 24.922331 ], [ 34.9662316, 24.9221974 ], [ 34.9661269, 24.9219019 ], [ 34.966047, 24.92182 ], [ 34.9660283, 24.921744 ], [ 34.9660063, 24.9215054 ], [ 34.9659224, 24.9213928 ], [ 34.9658581, 24.9212495 ], [ 34.9658322, 24.9210277 ], [ 34.9658256, 24.9208531 ], [ 34.9658218, 24.9205496 ], [ 34.9658938, 24.9203934 ], [ 34.9660384, 24.9201363 ], [ 34.9662557, 24.9198853 ], [ 34.9664542, 24.9197734 ], [ 34.966863, 24.9194997 ], [ 34.9671301, 24.919265 ], [ 34.9674287, 24.9190374 ], [ 34.9674748, 24.9189391 ], [ 34.9674502, 24.9188412 ], [ 34.967461, 24.9186441 ], [ 34.9675548, 24.9184182 ], [ 34.9677393, 24.91822 ], [ 34.967908, 24.9179539 ], [ 34.9679697, 24.9177982 ], [ 34.9681601, 24.9175744 ], [ 34.9684015, 24.9173823 ], [ 34.9688715, 24.9171411 ], [ 34.9692625, 24.9168787 ], [ 34.9693778, 24.9167279 ], [ 34.9695709, 24.9165187 ], [ 34.9698848, 24.9161368 ], [ 34.970043, 24.9156625 ], [ 34.970106, 24.9153109 ], [ 34.9701449, 24.9151869 ], [ 34.9702375, 24.9150738 ], [ 34.9709389, 24.9143172 ], [ 34.9714431, 24.9138356 ], [ 34.9720386, 24.9131204 ], [ 34.972178, 24.9128114 ], [ 34.9728835, 24.9114492 ], [ 34.9730176, 24.9111159 ], [ 34.9731007, 24.9109383 ], [ 34.9734762, 24.9104445 ], [ 34.974018, 24.9098509 ], [ 34.9745545, 24.9092865 ], [ 34.9751553, 24.9087683 ], [ 34.9753377, 24.9086029 ], [ 34.9754798, 24.9084132 ], [ 34.9755201, 24.9082842 ], [ 34.9755254, 24.9081091 ], [ 34.9756113, 24.9078804 ], [ 34.9761236, 24.9072382 ], [ 34.9768263, 24.9065083 ], [ 34.976896, 24.9064037 ], [ 34.9769229, 24.9062894 ], [ 34.9770221, 24.906085 ], [ 34.9776041, 24.9053844 ], [ 34.9776471, 24.9052457 ], [ 34.9778375, 24.9050876 ], [ 34.9779448, 24.9049441 ], [ 34.9780145, 24.9046643 ], [ 34.9780561, 24.9044599 ], [ 34.978032, 24.9043845 ], [ 34.9779086, 24.9043042 ], [ 34.9779032, 24.90423 ], [ 34.9779475, 24.9041412 ], [ 34.9784061, 24.9035622 ], [ 34.978618, 24.9033141 ], [ 34.9793127, 24.9026986 ], [ 34.9797016, 24.9022899 ], [ 34.9801308, 24.901616 ], [ 34.9805573, 24.9008642 ], [ 34.9808308, 24.9002511 ], [ 34.9810481, 24.8999251 ], [ 34.9813297, 24.8995943 ], [ 34.9816945, 24.8992829 ], [ 34.9819574, 24.8991028 ], [ 34.98218, 24.8989471 ], [ 34.9823222, 24.898823 ], [ 34.9825394, 24.8985968 ], [ 34.9826708, 24.8983851 ], [ 34.9827728, 24.8982245 ], [ 34.982923, 24.8979521 ], [ 34.9830276, 24.8977915 ], [ 34.9831215, 24.8976844 ], [ 34.9832717, 24.8975725 ], [ 34.9833548, 24.8974728 ], [ 34.9834031, 24.8973292 ], [ 34.983497, 24.8971662 ], [ 34.9835882, 24.897047 ], [ 34.9836284, 24.8969327 ], [ 34.9836391, 24.8967818 ], [ 34.9836928, 24.8966358 ], [ 34.9837679, 24.8964704 ], [ 34.9838859, 24.896322 ], [ 34.9841997, 24.8960081 ], [ 34.9845135, 24.8957794 ], [ 34.9846691, 24.8956432 ], [ 34.9847791, 24.8955167 ], [ 34.9848783, 24.8954218 ], [ 34.984999, 24.8953245 ], [ 34.9851063, 24.8952417 ], [ 34.9853665, 24.8951104 ], [ 34.9857634, 24.8949936 ], [ 34.9859941, 24.8949425 ], [ 34.9861872, 24.8949133 ], [ 34.9863374, 24.894889 ], [ 34.9865842, 24.8948379 ], [ 34.986788, 24.8947673 ], [ 34.9869409, 24.8946773 ], [ 34.9870375, 24.8945556 ], [ 34.9871474, 24.894305 ], [ 34.9872279, 24.8941128 ], [ 34.9873245, 24.8937406 ], [ 34.9874452, 24.8931615 ], [ 34.9875337, 24.8926579 ], [ 34.9875873, 24.8924341 ], [ 34.9877134, 24.8921178 ], [ 34.9878448, 24.891675 ], [ 34.9878877, 24.8914316 ], [ 34.9879092, 24.8912078 ], [ 34.9879199, 24.8909864 ], [ 34.987869, 24.8907212 ], [ 34.9876651, 24.89013 ], [ 34.9876061, 24.8897553 ], [ 34.9875578, 24.8892443 ], [ 34.9874639, 24.8879621 ], [ 34.987472, 24.8877699 ], [ 34.9874505, 24.8875703 ], [ 34.9873862, 24.8873635 ], [ 34.9873298, 24.8871737 ], [ 34.9872601, 24.8868258 ], [ 34.9872038, 24.886254 ], [ 34.987126, 24.8854632 ], [ 34.9869972, 24.8851007 ], [ 34.9868685, 24.8847552 ], [ 34.9868068, 24.8845265 ], [ 34.9867505, 24.8840204 ], [ 34.9867693, 24.8837211 ], [ 34.9869409, 24.8831298 ], [ 34.987016, 24.8828037 ], [ 34.9870616, 24.8824704 ], [ 34.9870321, 24.8820105 ], [ 34.9869248, 24.8814728 ], [ 34.9868497, 24.8812197 ], [ 34.9868256, 24.8810105 ], [ 34.9868846, 24.8804703 ], [ 34.98689, 24.8801831 ], [ 34.986847, 24.8799082 ], [ 34.9868175, 24.8797598 ], [ 34.9868175, 24.8795335 ], [ 34.9868175, 24.8791733 ], [ 34.986906, 24.8784385 ], [ 34.9869651, 24.8781611 ], [ 34.9870884, 24.8777425 ], [ 34.9872762, 24.8772096 ], [ 34.9874961, 24.87665 ], [ 34.9877322, 24.8761876 ], [ 34.9877965, 24.8759394 ], [ 34.9878287, 24.8756085 ], [ 34.9877912, 24.8752557 ], [ 34.9877724, 24.8747982 ], [ 34.9877912, 24.8745159 ], [ 34.9878341, 24.8741752 ], [ 34.9878502, 24.873983 ], [ 34.9878126, 24.8738005 ], [ 34.9875766, 24.8731581 ], [ 34.9874398, 24.872641 ], [ 34.9873285, 24.8722237 ], [ 34.9873084, 24.8720947 ], [ 34.9872896, 24.8719487 ], [ 34.9872802, 24.8718465 ], [ 34.9872802, 24.8716725 ], [ 34.9872614, 24.8715995 ], [ 34.987244, 24.8715472 ], [ 34.9872293, 24.8715094 ], [ 34.9872185, 24.8714547 ], [ 34.9872132, 24.8713683 ], [ 34.9872252, 24.8712053 ], [ 34.9872814, 24.8709563 ], [ 34.9872915, 24.8709255 ], [ 34.9873956, 24.8706711 ], [ 34.9874733, 24.8704059 ], [ 34.9875431, 24.8701698 ], [ 34.9876249, 24.8698486 ], [ 34.987645, 24.8696807 ], [ 34.9876316, 24.8694532 ], [ 34.9875806, 24.869003 ], [ 34.9876074, 24.8687572 ], [ 34.9876557, 24.8685224 ], [ 34.9877027, 24.8683301 ], [ 34.9878515, 24.8678884 ], [ 34.9879441, 24.8675757 ], [ 34.9879602, 24.8672764 ], [ 34.9880071, 24.8670647 ], [ 34.9881962, 24.8667069 ], [ 34.9883625, 24.8664174 ], [ 34.9885127, 24.8661667 ], [ 34.9887621, 24.8658528 ], [ 34.9889472, 24.8654658 ], [ 34.9890733, 24.8651641 ], [ 34.9892315, 24.8648769 ], [ 34.9894917, 24.8644535 ], [ 34.989666, 24.8642442 ], [ 34.9898565, 24.8640641 ], [ 34.9900174, 24.8639229 ], [ 34.990299, 24.8637696 ], [ 34.9905378, 24.8636674 ], [ 34.990755, 24.8635117 ], [ 34.9912512, 24.8630347 ], [ 34.9918064, 24.8625528 ], [ 34.9926272, 24.8617619 ], [ 34.992882, 24.8614991 ], [ 34.9929786, 24.8613628 ], [ 34.9930161, 24.8612606 ], [ 34.9930751, 24.8611559 ], [ 34.9932414, 24.8609637 ], [ 34.9933916, 24.8607763 ], [ 34.993507, 24.8606084 ], [ 34.9935606, 24.8604526 ], [ 34.9935526, 24.8602993 ], [ 34.9934775, 24.8601654 ], [ 34.9933219, 24.8600097 ], [ 34.9932602, 24.8599099 ], [ 34.993287, 24.8597541 ], [ 34.993519, 24.8593647 ], [ 34.9935982, 24.8591092 ], [ 34.9935794, 24.8588853 ], [ 34.9935298, 24.8587369 ], [ 34.9934627, 24.8585957 ], [ 34.993464, 24.8584862 ], [ 34.9935204, 24.8582574 ], [ 34.9935177, 24.8581406 ], [ 34.9934748, 24.8579702 ], [ 34.9933755, 24.857834 ], [ 34.9933487, 24.8577123 ], [ 34.9934077, 24.8575249 ], [ 34.993405, 24.8566828 ], [ 34.9933031, 24.855904 ], [ 34.9932924, 24.855702 ], [ 34.9933112, 24.8555389 ], [ 34.9933916, 24.8553199 ], [ 34.9936733, 24.854894 ], [ 34.9937806, 24.8546409 ], [ 34.9938154, 24.8545168 ], [ 34.9938396, 24.854417 ], [ 34.9938422, 24.8543026 ], [ 34.9937886, 24.8541468 ], [ 34.9937242, 24.8539667 ], [ 34.9936733, 24.853699 ], [ 34.9936357, 24.8533656 ], [ 34.9936169, 24.8530979 ], [ 34.9935687, 24.8527912 ], [ 34.9935284, 24.8525332 ], [ 34.9934828, 24.8522558 ], [ 34.9934238, 24.851954 ], [ 34.9933836, 24.8517349 ], [ 34.9933138, 24.8515013 ], [ 34.9932548, 24.8510048 ], [ 34.9932629, 24.8508247 ], [ 34.9933434, 24.8505399 ], [ 34.993397, 24.8502795 ], [ 34.9934077, 24.8499801 ], [ 34.9933755, 24.8495712 ], [ 34.9933648, 24.8492353 ], [ 34.9933702, 24.848936 ], [ 34.993397, 24.8486098 ], [ 34.9933889, 24.848218 ], [ 34.9934453, 24.8478626 ], [ 34.9935177, 24.8475925 ], [ 34.9935096, 24.8473783 ], [ 34.9935579, 24.8471106 ], [ 34.9935955, 24.8468915 ], [ 34.9935821, 24.8467455 ], [ 34.9933997, 24.8462976 ], [ 34.9932951, 24.845806 ], [ 34.9932629, 24.8455382 ], [ 34.993279, 24.8453532 ], [ 34.9933219, 24.8450758 ], [ 34.9933648, 24.844808 ], [ 34.9933594, 24.8445452 ], [ 34.9932682, 24.8441655 ], [ 34.993161, 24.8438393 ], [ 34.9930698, 24.8435278 ], [ 34.9929678, 24.8430945 ], [ 34.9928069, 24.842525 ], [ 34.9926889, 24.8421112 ], [ 34.9926031, 24.8417071 ], [ 34.9925306, 24.8414467 ], [ 34.9925145, 24.8412544 ], [ 34.9925038, 24.8411108 ], [ 34.9924636, 24.8409647 ], [ 34.9924341, 24.8408284 ], [ 34.9923858, 24.840529 ], [ 34.9923536, 24.8402394 ], [ 34.9924073, 24.839884 ], [ 34.9923938, 24.8394921 ], [ 34.9922329, 24.8386159 ], [ 34.9922222, 24.8376763 ], [ 34.9924046, 24.8358653 ], [ 34.992705, 24.8345411 ], [ 34.9930376, 24.8333581 ], [ 34.9931073, 24.8329151 ], [ 34.9931234, 24.8322919 ], [ 34.9931341, 24.8314351 ], [ 34.9932361, 24.8308265 ], [ 34.993515, 24.829994 ], [ 34.993853, 24.8291323 ], [ 34.9941185, 24.8286065 ], [ 34.9945262, 24.8278957 ], [ 34.9948186, 24.8274818 ], [ 34.9953121, 24.8270096 ], [ 34.9958271, 24.8266104 ], [ 34.9962857, 24.826104 ], [ 34.9965969, 24.8256439 ], [ 34.9968919, 24.8251911 ], [ 34.9971722, 24.8247955 ], [ 34.997313, 24.8244815 ], [ 34.9973828, 24.8242539 ], [ 34.9977034, 24.8235557 ], [ 34.9978334, 24.8233605 ], [ 34.9994695, 24.8224038 ], [ 34.9997511, 24.8221068 ], [ 35.0, 24.821751511690191 ], [ 35.0, 20.0 ], [ 30.0, 20.0 ], [ 30.0, 25.0 ], [ 34.942702285217393, 25.0 ], [ 34.9427327, 24.9999466 ] ] ] ] } }
]
}
