{
"type": "FeatureCollection",
"name": "30_55",
"crs": { "type": "name", "properties": { "name": "urn:ogc:def:crs:OGC:1.3:CRS84" } },
"xy_coordinate_resolution": 1e-15,
"features": [
{ "type": "Feature", "properties": { "FID": 24303, "id": 1519, "left": 30.0, "top": 60.0, "right": 35.0, "bottom": 55.0, "row_index": 6, "col_index": 42, "min_lon": 30.0, "min_lat": 55.0, "tile_id": "30_55" }, "geometry": { "type": "MultiPolygon", "coordinates": [ [ [ [ 30.03269, 59.99606 ], [ 30.0328019, 59.9965962 ], [ 30.0334027, 59.9964846 ], [ 30.0336773, 59.9966477 ], [ 30.0335744, 59.9969138 ], [ 30.0332911, 59.9971112 ], [ 30.033334, 59.9972485 ], [ 30.0338318, 59.9973687 ], [ 30.034261, 59.9971112 ], [ 30.0344069, 59.996712 ], [ 30.034982, 59.9965704 ], [ 30.0350506, 59.9963129 ], [ 30.0348618, 59.996167 ], [ 30.0337803, 59.9960253 ], [ 30.032922, 59.9958322 ], [ 30.03269, 59.99606 ] ] ] ] } },
{ "type": "Feature", "properties": { "FID": 24304, "id": 1519, "left": 30.0, "top": 60.0, "right": 35.0, "bottom": 55.0, "row_index": 6, "col_index": 42, "min_lon": 30.0, "min_lat": 55.0, "tile_id": "30_55" }, "geometry": { "type": "MultiPolygon", "coordinates": [ [ [ [ 30.02947, 59.99434 ], [ 30.02999, 59.99444 ], [ 30.03102, 59.99456 ], [ 30.03107, 59.99507 ], [ 30.03158, 59.99506 ], [ 30.03181, 59.9948 ], [ 30.03202, 59.99428 ], [ 30.03151, 59.99429 ], [ 30.03149, 59.99404 ], [ 30.03096, 59.99392 ], [ 30.02942, 59.99383 ], [ 30.02947, 59.99434 ] ] ] ] } },
{ "type": "Feature", "properties": { "FID": 24305, "id": 1519, "left": 30.0, "top": 60.0, "right": 35.0, "bottom": 55.0, "row_index": 6, "col_index": 42, "min_lon": 30.0, "min_lat": 55.0, "tile_id": "30_55" }, "geometry": { "type": "MultiPolygon", "coordinates": [ [ [ [ 30.02685, 59.99363 ], [ 30.0269, 59.99414 ], [ 30.02553, 59.99408 ], [ 30.02534, 59.99392 ], [ 30.02483, 59.99393 ], [ 30.0247338, 59.9943514 ], [ 30.024751, 59.9945789 ], [ 30.02541, 59.99469 ], [ 30.02642, 59.99454 ], [ 30.02693, 59.99452 ], [ 30.02796, 59.99463 ], [ 30.02794, 59.99437 ], [ 30.02743, 59.99438 ], [ 30.02741, 59.99413 ], [ 30.0279, 59.99399 ], [ 30.02842, 59.99398 ], [ 30.02894, 59.99409 ], [ 30.02889, 59.99358 ], [ 30.02685, 59.99363 ] ] ] ] } },
{ "type": "Feature", "properties": { "FID": 24306, "id": 1519, "left": 30.0, "top": 60.0, "right": 35.0, "bottom": 55.0, "row_index": 6, "col_index": 42, "min_lon": 30.0, "min_lat": 55.0, "tile_id": "30_55" }, "geometry": { "type": "MultiPolygon", "coordinates": [ [ [ [ 30.0611137, 59.9925112 ], [ 30.0604872, 59.992773 ], [ 30.0596289, 59.9932366 ], [ 30.0589079, 59.9931508 ], [ 30.0577062, 59.9932108 ], [ 30.0571005, 59.9933083 ], [ 30.056783, 59.993523 ], [ 30.0560105, 59.9935573 ], [ 30.05574, 59.99373 ], [ 30.0550921, 59.994845 ], [ 30.0543846, 59.9949192 ], [ 30.05307, 59.9952 ], [ 30.052359, 59.9955716 ], [ 30.0519728, 59.9959708 ], [ 30.05213, 59.99612 ], [ 30.0529856, 59.9962927 ], [ 30.0536035, 59.9961854 ], [ 30.05467, 59.99593 ], [ 30.0548689, 59.9961755 ], [ 30.05518, 59.99592 ], [ 30.0561098, 59.995563 ], [ 30.0559381, 59.9952111 ], [ 30.0562471, 59.9949278 ], [ 30.05709, 59.9946 ], [ 30.0579637, 59.9943827 ], [ 30.0584959, 59.9942539 ], [ 30.0588, 59.9942226 ], [ 30.0592721, 59.9941496 ], [ 30.05963, 59.99428 ], [ 30.0602162, 59.9942956 ], [ 30.0604994, 59.9938234 ], [ 30.0618727, 59.993523 ], [ 30.0623877, 59.9938063 ], [ 30.0614178, 59.9941582 ], [ 30.0624478, 59.9941582 ], [ 30.0629027, 59.9938663 ], [ 30.0637353, 59.994038 ], [ 30.0646757, 59.9939277 ], [ 30.0646365, 59.993523 ], [ 30.064482, 59.9934371 ], [ 30.0636237, 59.9934629 ], [ 30.0631774, 59.9936775 ], [ 30.0627911, 59.9935788 ], [ 30.0632595, 59.9928975 ], [ 30.0628561, 59.9926314 ], [ 30.0622504, 59.9925615 ], [ 30.0617611, 59.9926645 ], [ 30.0614779, 59.99257 ], [ 30.0611137, 59.9925112 ] ] ] ] } },
{ "type": "Feature", "properties": { "FID": 24319, "id": 1519, "left": 30.0, "top": 60.0, "right": 35.0, "bottom": 55.0, "row_index": 6, "col_index": 42, "min_lon": 30.0, "min_lat": 55.0, "tile_id": "30_55" }, "geometry": { "type": "MultiPolygon", "coordinates": [ [ [ [ 30.1575834, 59.8911248 ], [ 30.1578592, 59.8910646 ], [ 30.1574895, 59.8910831 ], [ 30.1569833, 59.8910763 ], [ 30.1567331, 59.8911389 ], [ 30.1565963, 59.8911968 ], [ 30.1565641, 59.8912318 ], [ 30.1565185, 59.8912519 ], [ 30.1563504, 59.8912946 ], [ 30.1559389, 59.8913744 ], [ 30.1555821, 59.8914513 ], [ 30.1552774, 59.891605 ], [ 30.1566572, 59.8913131 ], [ 30.1567615, 59.8912929 ], [ 30.157232, 59.8912015 ], [ 30.1575834, 59.8911248 ] ] ] ] } },
{ "type": "Feature", "properties": { "FID": 24320, "id": 1519, "left": 30.0, "top": 60.0, "right": 35.0, "bottom": 55.0, "row_index": 6, "col_index": 42, "min_lon": 30.0, "min_lat": 55.0, "tile_id": "30_55" }, "geometry": { "type": "MultiPolygon", "coordinates": [ [ [ [ 30.1595983, 59.8907249 ], [ 30.1596312, 59.8906942 ], [ 30.1595803, 59.8906915 ], [ 30.1594594, 59.8906913 ], [ 30.1593684, 59.8906962 ], [ 30.1592973, 59.8907036 ], [ 30.1591873, 59.8907238 ], [ 30.1591149, 59.8907507 ], [ 30.1590197, 59.890775 ], [ 30.1588342, 59.8908215 ], [ 30.1589978, 59.8908498 ], [ 30.1595983, 59.8907249 ] ] ] ] } },
{ "type": "Feature", "properties": { "FID": 24321, "id": 1519, "left": 30.0, "top": 60.0, "right": 35.0, "bottom": 55.0, "row_index": 6, "col_index": 42, "min_lon": 30.0, "min_lat": 55.0, "tile_id": "30_55" }, "geometry": { "type": "MultiPolygon", "coordinates": [ [ [ [ 30.1607355, 59.8902797 ], [ 30.1607947, 59.8903827 ], [ 30.1603972, 59.8905096 ], [ 30.1604093, 59.8905625 ], [ 30.1614467, 59.8903733 ], [ 30.166524, 59.8893096 ], [ 30.1672091, 59.8891842 ], [ 30.1674872, 59.8891355 ], [ 30.1676334, 59.8891015 ], [ 30.1677482, 59.8890532 ], [ 30.1678403, 59.8889761 ], [ 30.167878, 59.8889341 ], [ 30.1678785, 59.8888906 ], [ 30.167857, 59.8888623 ], [ 30.1677899, 59.8888468 ], [ 30.1676413, 59.8888346 ], [ 30.1674481, 59.8888441 ], [ 30.1672863, 59.8888765 ], [ 30.1670491, 59.888952 ], [ 30.1668561, 59.8890161 ], [ 30.1665613, 59.8890716 ], [ 30.1662198, 59.8891442 ], [ 30.1655361, 59.8892895 ], [ 30.16347, 59.8897331 ], [ 30.16197, 59.8900231 ], [ 30.1610756, 59.8902085 ], [ 30.1607355, 59.8902797 ] ] ] ] } },
{ "type": "Feature", "properties": { "FID": 24340, "id": 1519, "left": 30.0, "top": 60.0, "right": 35.0, "bottom": 55.0, "row_index": 6, "col_index": 42, "min_lon": 30.0, "min_lat": 55.0, "tile_id": "30_55" }, "geometry": { "type": "MultiPolygon", "coordinates": [ [ [ [ 30.1117431, 59.9002361 ], [ 30.111727, 59.9002603 ], [ 30.111735, 59.9002885 ], [ 30.1118209, 59.9003181 ], [ 30.1118926, 59.9003335 ], [ 30.1121119, 59.9003147 ], [ 30.1123185, 59.9002703 ], [ 30.1124314, 59.9002739 ], [ 30.1130614, 59.9001318 ], [ 30.1133033, 59.9000765 ], [ 30.1133134, 59.9000338 ], [ 30.1132246, 59.8999936 ], [ 30.1129853, 59.8999926 ], [ 30.1127985, 59.9000269 ], [ 30.1126127, 59.9000783 ], [ 30.1123379, 59.9001742 ], [ 30.1122177, 59.90017 ], [ 30.1120641, 59.9001925 ], [ 30.1119282, 59.9002143 ], [ 30.1117578, 59.900217 ], [ 30.1117431, 59.9002361 ] ] ] ] } },
{ "type": "Feature", "properties": { "FID": 24341, "id": 1519, "left": 30.0, "top": 60.0, "right": 35.0, "bottom": 55.0, "row_index": 6, "col_index": 42, "min_lon": 30.0, "min_lat": 55.0, "tile_id": "30_55" }, "geometry": { "type": "MultiPolygon", "coordinates": [ [ [ [ 30.1192313, 59.8987323 ], [ 30.1190454, 59.8987839 ], [ 30.1189435, 59.8988135 ], [ 30.1188684, 59.8988418 ], [ 30.1187376, 59.8988871 ], [ 30.1186521, 59.8989282 ], [ 30.1186351, 59.8989494 ], [ 30.1186967, 59.8989602 ], [ 30.1187825, 59.8989628 ], [ 30.118863, 59.8989602 ], [ 30.1189837, 59.8989427 ], [ 30.1191741, 59.8989037 ], [ 30.1195094, 59.8988351 ], [ 30.1195657, 59.8988149 ], [ 30.1196918, 59.8987826 ], [ 30.1198742, 59.8987463 ], [ 30.1199166, 59.8987369 ], [ 30.1199505, 59.8987031 ], [ 30.1199493, 59.8986736 ], [ 30.1199118, 59.8986535 ], [ 30.1198593, 59.8986533 ], [ 30.1198125, 59.8986508 ], [ 30.1197589, 59.898644 ], [ 30.1192313, 59.8987323 ] ] ] ] } },
{ "type": "Feature", "properties": { "FID": 123562, "id": 1519, "left": 30.0, "top": 60.0, "right": 35.0, "bottom": 55.0, "row_index": 6, "col_index": 42, "min_lon": 30.0, "min_lat": 55.0, "tile_id": "30_55" }, "geometry": { "type": "MultiPolygon", "coordinates": [ [ [ [ 30.1542108, 59.8917969 ], [ 30.1541937, 59.8917668 ], [ 30.1538235, 59.891845 ], [ 30.153771, 59.8919025 ], [ 30.1542108, 59.8917969 ] ] ] ] } },
{ "type": "Feature", "properties": { "FID": 123912, "id": 1519, "left": 30.0, "top": 60.0, "right": 35.0, "bottom": 55.0, "row_index": 6, "col_index": 42, "min_lon": 30.0, "min_lat": 55.0, "tile_id": "30_55" }, "geometry": { "type": "MultiPolygon", "coordinates": [ [ [ [ 30.0000478, 59.8686589 ], [ 30.0003825, 59.8687063 ], [ 30.0003997, 59.8685813 ], [ 30.0002108, 59.8684951 ], [ 30.0001078, 59.86834 ], [ 30.0, 59.86821767375887 ], [ 30.0, 59.868657090448458 ], [ 30.0000478, 59.8686589 ] ] ], [ [ [ 30.0001851, 59.8679436 ], [ 30.0003096, 59.8679409 ], [ 30.0005885, 59.8678747 ], [ 30.0007602, 59.8676076 ], [ 30.0006228, 59.8673835 ], [ 30.0007773, 59.8672543 ], [ 30.0013953, 59.8671982 ], [ 30.0017644, 59.8670517 ], [ 30.0019641, 59.8666075 ], [ 30.0021954, 59.8665885 ], [ 30.0022238, 59.8665703 ], [ 30.0026828, 59.8662762 ], [ 30.0032253, 59.8663136 ], [ 30.0038264, 59.8661862 ], [ 30.0046826, 59.8662201 ], [ 30.0056611, 59.8661555 ], [ 30.0057298, 59.8659875 ], [ 30.0058046, 59.8659719 ], [ 30.0060817, 59.8659142 ], [ 30.0065658, 59.8658702 ], [ 30.0068564, 59.8658096 ], [ 30.0071528, 59.8656847 ], [ 30.0072917, 59.8654792 ], [ 30.0076711, 59.8653895 ], [ 30.0077543, 59.8653759 ], [ 30.0082188, 59.8651343 ], [ 30.0082359, 59.8651284 ], [ 30.0086317, 59.8649837 ], [ 30.0086909, 59.8649705 ], [ 30.0089666, 59.8649165 ], [ 30.0090098, 59.864908 ], [ 30.0092848, 59.8648352 ], [ 30.0094929, 59.8648191 ], [ 30.0096758, 59.8648562 ], [ 30.0098793, 59.8649334 ], [ 30.0101837, 59.8649675 ], [ 30.0103318, 59.8650795 ], [ 30.010467, 59.8651704 ], [ 30.0105843, 59.8653746 ], [ 30.0106386, 59.8654639 ], [ 30.0107382, 59.8655279 ], [ 30.0107597, 59.8654537 ], [ 30.0107407, 59.8653744 ], [ 30.0106052, 59.8651335 ], [ 30.0105707, 59.8649319 ], [ 30.0106929, 59.8648699 ], [ 30.010706, 59.8646681 ], [ 30.0107627, 59.8645473 ], [ 30.0109001, 59.8644747 ], [ 30.012288, 59.8643841 ], [ 30.0123882, 59.8645909 ], [ 30.0124683, 59.8646826 ], [ 30.0121379, 59.8648392 ], [ 30.0122601, 59.864955 ], [ 30.011936, 59.8652105 ], [ 30.0119367, 59.8653976 ], [ 30.0120239, 59.8655055 ], [ 30.0121677, 59.8655165 ], [ 30.0123394, 59.865551 ], [ 30.0124338, 59.8657405 ], [ 30.0127256, 59.8658612 ], [ 30.0132063, 59.8661628 ], [ 30.0134925, 59.8661699 ], [ 30.0137861, 59.8660336 ], [ 30.0140016, 59.8658862 ], [ 30.0141332, 59.8657773 ], [ 30.0141753, 59.8656322 ], [ 30.0144366, 59.8654565 ], [ 30.0146603, 59.8653572 ], [ 30.0149206, 59.8651399 ], [ 30.0150082, 59.864941 ], [ 30.015156, 59.8646921 ], [ 30.0151481, 59.8645285 ], [ 30.0153816, 59.8644796 ], [ 30.0154808, 59.8645943 ], [ 30.0156095, 59.8646719 ], [ 30.0158069, 59.8644694 ], [ 30.0162962, 59.8644694 ], [ 30.0163219, 59.8642927 ], [ 30.0165451, 59.8642065 ], [ 30.0175352, 59.8640979 ], [ 30.0178589, 59.8642293 ], [ 30.0186729, 59.8649625 ], [ 30.0188559, 59.8649128 ], [ 30.0179655, 59.8640681 ], [ 30.0189905, 59.8635214 ], [ 30.0198839, 59.8642039 ], [ 30.019448, 59.8646826 ], [ 30.0194936, 59.864697 ], [ 30.0199816, 59.8641649 ], [ 30.0193429, 59.8636679 ], [ 30.0194179, 59.8636155 ], [ 30.0195539, 59.8636754 ], [ 30.0196949, 59.8636669 ], [ 30.0194518, 59.8635029 ], [ 30.0194548, 59.863439 ], [ 30.0196737, 59.8632967 ], [ 30.0197002, 59.8632795 ], [ 30.0199097, 59.8631852 ], [ 30.0203888, 59.86303 ], [ 30.0205791, 59.8629482 ], [ 30.0207207, 59.8627996 ], [ 30.0208296, 59.8627472 ], [ 30.0208816, 59.8627069 ], [ 30.0209736, 59.8626602 ], [ 30.0210375, 59.8626415 ], [ 30.0211608, 59.862593 ], [ 30.0214183, 59.8625378 ], [ 30.0217295, 59.8624772 ], [ 30.0218743, 59.8624435 ], [ 30.0220835, 59.8623775 ], [ 30.0224054, 59.8622415 ], [ 30.0227353, 59.8621014 ], [ 30.0231001, 59.8618213 ], [ 30.0232023, 59.8616083 ], [ 30.0232104, 59.8615878 ], [ 30.0234675, 59.8614254 ], [ 30.0236607, 59.8612853 ], [ 30.0238726, 59.8611412 ], [ 30.0243552, 59.8610446 ], [ 30.02449, 59.8609631 ], [ 30.0246218, 59.8609616 ], [ 30.0249737, 59.8609573 ], [ 30.0250767, 59.8610478 ], [ 30.025523, 59.8611038 ], [ 30.0258577, 59.8610176 ], [ 30.0261066, 59.8608969 ], [ 30.0261495, 59.8607246 ], [ 30.02645, 59.8607806 ], [ 30.0267675, 59.8607375 ], [ 30.0269134, 59.8606728 ], [ 30.0271108, 59.8607547 ], [ 30.0270765, 59.8608323 ], [ 30.0273083, 59.8609099 ], [ 30.0275572, 59.8610004 ], [ 30.0278662, 59.8609702 ], [ 30.0281065, 59.8609443 ], [ 30.0283956, 59.8612016 ], [ 30.028575, 59.861221 ], [ 30.0286928, 59.861296 ], [ 30.0290262, 59.8612599 ], [ 30.029227, 59.8612383 ], [ 30.0294195, 59.8613421 ], [ 30.0296809, 59.8613162 ], [ 30.0298934, 59.8613941 ], [ 30.030475, 59.8613878 ], [ 30.030547, 59.8613041 ], [ 30.0305156, 59.8612669 ], [ 30.0306368, 59.8612466 ], [ 30.0307468, 59.861339 ], [ 30.0309927, 59.8613524 ], [ 30.0314651, 59.8612815 ], [ 30.0314696, 59.8613379 ], [ 30.0315549, 59.8613965 ], [ 30.0316469, 59.8614258 ], [ 30.0316851, 59.861481 ], [ 30.0317637, 59.8614224 ], [ 30.0318894, 59.861445 ], [ 30.0318737, 59.8615667 ], [ 30.0315212, 59.8615779 ], [ 30.0314, 59.8616467 ], [ 30.0315139, 59.8617668 ], [ 30.0317547, 59.8617605 ], [ 30.0321453, 59.8616523 ], [ 30.0323383, 59.8614709 ], [ 30.0328142, 59.8612849 ], [ 30.0330454, 59.8612894 ], [ 30.0330521, 59.861179 ], [ 30.0332151, 59.861118 ], [ 30.0330274, 59.8610381 ], [ 30.0330387, 59.8609727 ], [ 30.0336604, 59.8609581 ], [ 30.0337659, 59.8609998 ], [ 30.0340174, 59.8610077 ], [ 30.0341745, 59.8610663 ], [ 30.0338961, 59.8610798 ], [ 30.0337951, 59.8611237 ], [ 30.0338378, 59.8612218 ], [ 30.0338894, 59.8612477 ], [ 30.0339006, 59.8613345 ], [ 30.0339949, 59.8613446 ], [ 30.0340578, 59.8613909 ], [ 30.0341588, 59.8613875 ], [ 30.0342059, 59.8612996 ], [ 30.0343002, 59.8612905 ], [ 30.0344326, 59.8613458 ], [ 30.0344366, 59.861422 ], [ 30.0345147, 59.861453 ], [ 30.034609, 59.8614316 ], [ 30.0345991, 59.8613571 ], [ 30.0347055, 59.8613358 ], [ 30.0347661, 59.8612783 ], [ 30.034921, 59.8611577 ], [ 30.0351163, 59.8610259 ], [ 30.0352016, 59.8612445 ], [ 30.0353205, 59.861329 ], [ 30.0356693, 59.8613999 ], [ 30.0358483, 59.8613395 ], [ 30.0361567, 59.8613588 ], [ 30.0361781, 59.8614793 ], [ 30.0362295, 59.8615244 ], [ 30.0364008, 59.8615373 ], [ 30.0365893, 59.8615911 ], [ 30.0370004, 59.8615545 ], [ 30.0372659, 59.8616003 ], [ 30.0375272, 59.8616362 ], [ 30.0377414, 59.8617244 ], [ 30.0380197, 59.8617459 ], [ 30.0383024, 59.8617309 ], [ 30.0383581, 59.8616664 ], [ 30.0388194, 59.8617339 ], [ 30.0390936, 59.8618814 ], [ 30.0393907, 59.8619318 ], [ 30.0397027, 59.8618767 ], [ 30.0406261, 59.8620311 ], [ 30.0406761, 59.862176 ], [ 30.0407753, 59.8621823 ], [ 30.0409361, 59.8622004 ], [ 30.0414637, 59.8621843 ], [ 30.0415221, 59.8621827 ], [ 30.0418228, 59.8621772 ], [ 30.0418813, 59.8621758 ], [ 30.0421766, 59.8621707 ], [ 30.0422373, 59.8621694 ], [ 30.0425293, 59.862163 ], [ 30.0425869, 59.862162 ], [ 30.0433303, 59.8621354 ], [ 30.0437853, 59.862492 ], [ 30.0445785, 59.8630629 ], [ 30.0448202, 59.8630914 ], [ 30.0451217, 59.8630831 ], [ 30.0453241, 59.8629863 ], [ 30.0454992, 59.8629323 ], [ 30.0456735, 59.8628906 ], [ 30.0457057, 59.862834 ], [ 30.0456387, 59.8627492 ], [ 30.0453007, 59.8627115 ], [ 30.0447991, 59.8626118 ], [ 30.0447696, 59.8619654 ], [ 30.0452839, 59.8618868 ], [ 30.0452786, 59.8618757 ], [ 30.0452152, 59.8617431 ], [ 30.0450379, 59.8617544 ], [ 30.0449561, 59.8615822 ], [ 30.0451398, 59.8615499 ], [ 30.0451262, 59.8615138 ], [ 30.0449281, 59.8609891 ], [ 30.0448885, 59.8608843 ], [ 30.0448174, 59.8608781 ], [ 30.0447004, 59.8608683 ], [ 30.0446825, 59.8606856 ], [ 30.0446908, 59.8604493 ], [ 30.044932, 59.86045 ], [ 30.0452551, 59.8604641 ], [ 30.0454435, 59.8605572 ], [ 30.0456607, 59.8605892 ], [ 30.0458308, 59.8606585 ], [ 30.0458659, 59.8607121 ], [ 30.0464654, 59.8607628 ], [ 30.0467822, 59.8615468 ], [ 30.0466539, 59.8615764 ], [ 30.0466022, 59.8616491 ], [ 30.0466569, 59.8617325 ], [ 30.0468261, 59.8617556 ], [ 30.0480252, 59.8616433 ], [ 30.0488739, 59.8615638 ], [ 30.0491735, 59.8615357 ], [ 30.0542014, 59.8610647 ], [ 30.0542254, 59.8611244 ], [ 30.0542572, 59.861146 ], [ 30.0543148, 59.8611698 ], [ 30.0543935, 59.8611823 ], [ 30.054508, 59.8611773 ], [ 30.0545799, 59.8611725 ], [ 30.0546388, 59.86116 ], [ 30.0546873, 59.8611427 ], [ 30.0547229, 59.8611233 ], [ 30.0548622, 59.861121 ], [ 30.0550437, 59.8611181 ], [ 30.0551229, 59.8611357 ], [ 30.05519, 59.8611347 ], [ 30.0552647, 59.8611295 ], [ 30.0554256, 59.8611128 ], [ 30.0561411, 59.8610959 ], [ 30.0564147, 59.861154 ], [ 30.0570078, 59.8613771 ], [ 30.0576861, 59.8615726 ], [ 30.0583128, 59.861728 ], [ 30.0584596, 59.8617446 ], [ 30.058617, 59.8617264 ], [ 30.0588879, 59.8616551 ], [ 30.0594176, 59.8614906 ], [ 30.0598907, 59.8612873 ], [ 30.0606293, 59.860924 ], [ 30.0612238, 59.8607827 ], [ 30.0616904, 59.8606795 ], [ 30.0620202, 59.8606384 ], [ 30.0626128, 59.8607266 ], [ 30.062979, 59.8607459 ], [ 30.0634276, 59.8606967 ], [ 30.0638846, 59.8606746 ], [ 30.0646467, 59.860875 ], [ 30.0653211, 59.8610608 ], [ 30.0658525, 59.8612153 ], [ 30.0661491, 59.8613391 ], [ 30.0665597, 59.861438 ], [ 30.0667777, 59.8614532 ], [ 30.0669679, 59.8614847 ], [ 30.0671796, 59.8615232 ], [ 30.0673848, 59.8615478 ], [ 30.067581, 59.8615694 ], [ 30.0677951, 59.8615814 ], [ 30.0680833, 59.8615916 ], [ 30.0683668, 59.86159 ], [ 30.0689434, 59.8615866 ], [ 30.0691817, 59.8616017 ], [ 30.0693551, 59.8616538 ], [ 30.0695683, 59.8617408 ], [ 30.0704744, 59.8620231 ], [ 30.071331, 59.8622846 ], [ 30.0718051, 59.8624581 ], [ 30.0719776, 59.862523 ], [ 30.0721541, 59.8625788 ], [ 30.0723332, 59.8626168 ], [ 30.0725259, 59.862652 ], [ 30.0727119, 59.8626741 ], [ 30.0729448, 59.8626949 ], [ 30.0731707, 59.8627008 ], [ 30.073356, 59.8627055 ], [ 30.0735658, 59.8626937 ], [ 30.0737645, 59.8626736 ], [ 30.0740536, 59.862631 ], [ 30.0743015, 59.8625826 ], [ 30.0744939, 59.8625441 ], [ 30.074996, 59.8624468 ], [ 30.0752184, 59.8623998 ], [ 30.0754161, 59.8623754 ], [ 30.0757104, 59.862355 ], [ 30.0789537, 59.8622294 ], [ 30.0790071, 59.8623137 ], [ 30.0793565, 59.8622731 ], [ 30.0795809, 59.862247 ], [ 30.0799972, 59.8624194 ], [ 30.0806324, 59.8624625 ], [ 30.0823747, 59.8624625 ], [ 30.0838768, 59.8623504 ], [ 30.0858509, 59.8626952 ], [ 30.0867778, 59.8630098 ], [ 30.087413, 59.8630227 ], [ 30.0879795, 59.8634105 ], [ 30.08834, 59.86352 ], [ 30.08887, 59.86376 ], [ 30.0900137, 59.8641 ], [ 30.0912754, 59.8641431 ], [ 30.0923912, 59.8639276 ], [ 30.0929319, 59.8638328 ], [ 30.0928804, 59.8635398 ], [ 30.0933096, 59.8631434 ], [ 30.0936186, 59.8632166 ], [ 30.0938932, 59.8635829 ], [ 30.0941507, 59.8636044 ], [ 30.09447, 59.86376 ], [ 30.095009, 59.8636346 ], [ 30.0953523, 59.8636044 ], [ 30.095936, 59.8636691 ], [ 30.0962106, 59.8636906 ], [ 30.0964681, 59.8637984 ], [ 30.0969831, 59.8636605 ], [ 30.09751, 59.86356 ], [ 30.0982109, 59.8635392 ], [ 30.09852, 59.86353 ], [ 30.09959, 59.86402 ], [ 30.10063, 59.86425 ], [ 30.10114, 59.86424 ], [ 30.10186, 59.86383 ], [ 30.1023757, 59.8637214 ], [ 30.10312, 59.86354 ], [ 30.1041953, 59.8631785 ], [ 30.10511, 59.86312 ], [ 30.1062787, 59.8627721 ], [ 30.1070578, 59.8635652 ], [ 30.1077465, 59.8635283 ], [ 30.1075554, 59.8632361 ], [ 30.1084054, 59.8632761 ], [ 30.1088044, 59.8632172 ], [ 30.1094162, 59.8635276 ], [ 30.1108915, 59.862962 ], [ 30.1110738, 59.8626522 ], [ 30.1109907, 59.8623344 ], [ 30.1105428, 59.8622913 ], [ 30.1104677, 59.862123 ], [ 30.1109903, 59.8620726 ], [ 30.1114333, 59.8622496 ], [ 30.1116103, 59.8624502 ], [ 30.1119053, 59.862531 ], [ 30.1129754, 59.8619415 ], [ 30.1131941, 59.8621223 ], [ 30.1137148, 59.8623187 ], [ 30.1135714, 59.8623739 ], [ 30.1134597, 59.8624819 ], [ 30.1134447, 59.8625744 ], [ 30.1134984, 59.8626603 ], [ 30.1136908, 59.8627658 ], [ 30.1139431, 59.8628343 ], [ 30.1143458, 59.8628357 ], [ 30.1151575, 59.8627862 ], [ 30.1155546, 59.8627166 ], [ 30.1157764, 59.8627669 ], [ 30.1157944, 59.8628535 ], [ 30.115836, 59.862955 ], [ 30.1159461, 59.8629963 ], [ 30.1160694, 59.8630168 ], [ 30.1162466, 59.8629786 ], [ 30.1163037, 59.8629262 ], [ 30.116356, 59.8628053 ], [ 30.1163619, 59.8626453 ], [ 30.1164517, 59.8624657 ], [ 30.1165643, 59.8624341 ], [ 30.1165657, 59.8623613 ], [ 30.1164651, 59.8623068 ], [ 30.1165603, 59.8620631 ], [ 30.116563, 59.8620604 ], [ 30.1166873, 59.8619335 ], [ 30.1167105, 59.8618449 ], [ 30.1166877, 59.8617614 ], [ 30.1166388, 59.8616853 ], [ 30.1165525, 59.8616564 ], [ 30.1165449, 59.8616056 ], [ 30.1165851, 59.8615735 ], [ 30.1165884, 59.8613915 ], [ 30.1167208, 59.8612069 ], [ 30.1167051, 59.8608658 ], [ 30.1167065, 59.8607002 ], [ 30.1167778, 59.8604343 ], [ 30.1168087, 59.8599836 ], [ 30.1168187, 59.8598385 ], [ 30.1167682, 59.8597083 ], [ 30.1167789, 59.8595299 ], [ 30.1168199, 59.8594497 ], [ 30.1167359, 59.8594041 ], [ 30.116799, 59.8592113 ], [ 30.1169324, 59.8592239 ], [ 30.116951, 59.8592102 ], [ 30.1169701, 59.8591961 ], [ 30.1169854, 59.859044 ], [ 30.1169941, 59.8588578 ], [ 30.1169958, 59.8588212 ], [ 30.1170733, 59.8587853 ], [ 30.1172882, 59.8588166 ], [ 30.1173618, 59.8588449 ], [ 30.1173913, 59.858882 ], [ 30.1173633, 59.8589899 ], [ 30.1173831, 59.8590819 ], [ 30.1173838, 59.8591354 ], [ 30.1173894, 59.8591851 ], [ 30.1173558, 59.8592358 ], [ 30.1173128, 59.8593137 ], [ 30.1173352, 59.8593822 ], [ 30.117367, 59.8594263 ], [ 30.1173109, 59.8594835 ], [ 30.1172754, 59.859567 ], [ 30.1172511, 59.8596158 ], [ 30.1172455, 59.8596937 ], [ 30.1172072, 59.8597481 ], [ 30.1171727, 59.8597931 ], [ 30.1171719, 59.8598161 ], [ 30.1171708, 59.8598494 ], [ 30.1172026, 59.8599198 ], [ 30.1171895, 59.859978 ], [ 30.1172586, 59.8600155 ], [ 30.1172119, 59.8600418 ], [ 30.117225, 59.8600925 ], [ 30.1172119, 59.8601609 ], [ 30.1171857, 59.8602304 ], [ 30.117167, 59.8602895 ], [ 30.1171988, 59.8603308 ], [ 30.1171988, 59.8603993 ], [ 30.117225, 59.8604603 ], [ 30.1172072, 59.8605281 ], [ 30.117225, 59.8605616 ], [ 30.1172004, 59.8605865 ], [ 30.1171278, 59.8606601 ], [ 30.1171091, 59.860723 ], [ 30.1171345, 59.8607687 ], [ 30.1171633, 59.8608206 ], [ 30.1171857, 59.8609219 ], [ 30.1172026, 59.8609951 ], [ 30.1172231, 59.8611452 ], [ 30.117227, 59.8611757 ], [ 30.1172343, 59.8612325 ], [ 30.1171801, 59.8613394 ], [ 30.1171169, 59.8614072 ], [ 30.1171062, 59.8614825 ], [ 30.1171428, 59.8615599 ], [ 30.117171, 59.8616461 ], [ 30.1171915, 59.8617087 ], [ 30.1172512, 59.8617676 ], [ 30.1173126, 59.8618611 ], [ 30.1173995, 59.8619594 ], [ 30.1174821, 59.8621232 ], [ 30.117532, 59.8621526 ], [ 30.1175628, 59.8622065 ], [ 30.1175177, 59.8622664 ], [ 30.1175144, 59.8623246 ], [ 30.1175094, 59.8623585 ], [ 30.1175278, 59.8624108 ], [ 30.1175605, 59.8624776 ], [ 30.1175808, 59.8625501 ], [ 30.1176156, 59.8626564 ], [ 30.1177453, 59.8627284 ], [ 30.1180064, 59.8627898 ], [ 30.1180738, 59.8627959 ], [ 30.1183849, 59.8627733 ], [ 30.118802, 59.8627377 ], [ 30.119281, 59.8627315 ], [ 30.1202271, 59.8627179 ], [ 30.1205065, 59.8627031 ], [ 30.1213673, 59.8626921 ], [ 30.1215945, 59.8626592 ], [ 30.126689, 59.8625912 ], [ 30.1297413, 59.8625737 ], [ 30.1307866, 59.8625831 ], [ 30.1314725, 59.8625892 ], [ 30.1316057, 59.8625924 ], [ 30.1317202, 59.8626041 ], [ 30.131816, 59.8626242 ], [ 30.1318847, 59.8626496 ], [ 30.1326449, 59.8631069 ], [ 30.1327046, 59.8631413 ], [ 30.1327565, 59.8631659 ], [ 30.1328109, 59.8631827 ], [ 30.132858, 59.863189 ], [ 30.1329123, 59.8631837 ], [ 30.1329478, 59.8631651 ], [ 30.1329616, 59.8631375 ], [ 30.1329487, 59.8631057 ], [ 30.1329168, 59.8630751 ], [ 30.132857, 59.863039 ], [ 30.1323944, 59.8627894 ], [ 30.1323051, 59.86274 ], [ 30.132239, 59.8626997 ], [ 30.1321669, 59.862648 ], [ 30.1321053, 59.8626046 ], [ 30.1320404, 59.862568 ], [ 30.1319813, 59.8625387 ], [ 30.131909, 59.8625074 ], [ 30.1318538, 59.8624752 ], [ 30.1318263, 59.8624411 ], [ 30.1318218, 59.8624049 ], [ 30.1318419, 59.8623701 ], [ 30.1319164, 59.8622912 ], [ 30.131857, 59.8622495 ], [ 30.1316897, 59.8621995 ], [ 30.1316379, 59.8622128 ], [ 30.1315797, 59.8622424 ], [ 30.1308989, 59.8622396 ], [ 30.1302253, 59.8622675 ], [ 30.1275251, 59.8622893 ], [ 30.1251523, 59.8622862 ], [ 30.1189035, 59.8623542 ], [ 30.1187486, 59.8623327 ], [ 30.1186894, 59.8622472 ], [ 30.1187227, 59.8617236 ], [ 30.1187956, 59.8611953 ], [ 30.1188727, 59.8604625 ], [ 30.1189528, 59.8604103 ], [ 30.1193206, 59.8603777 ], [ 30.1192684, 59.8613263 ], [ 30.119245, 59.8619481 ], [ 30.11938, 59.8619702 ], [ 30.1197636, 59.8619608 ], [ 30.1198812, 59.8603856 ], [ 30.1199629, 59.8603478 ], [ 30.1205932, 59.8603344 ], [ 30.1206731, 59.8603922 ], [ 30.1206416, 59.8619281 ], [ 30.1207329, 59.8619409 ], [ 30.1214183, 59.8619434 ], [ 30.1214496, 59.8618843 ], [ 30.1215026, 59.861031 ], [ 30.1214715, 59.8606137 ], [ 30.1214977, 59.8603199 ], [ 30.1217446, 59.8603101 ], [ 30.1220216, 59.860301 ], [ 30.122455, 59.8603219 ], [ 30.1224995, 59.8603567 ], [ 30.1224263, 59.8609976 ], [ 30.1223243, 59.8615808 ], [ 30.1223398, 59.8619211 ], [ 30.1224016, 59.8619485 ], [ 30.1231599, 59.8619717 ], [ 30.1231987, 59.86195 ], [ 30.1232752, 59.8603106 ], [ 30.1239946, 59.8603017 ], [ 30.1240298, 59.8603372 ], [ 30.1239433, 59.8613606 ], [ 30.1239609, 59.8619301 ], [ 30.124002, 59.86195 ], [ 30.1244592, 59.8619376 ], [ 30.1246841, 59.8619366 ], [ 30.1252218, 59.861943 ], [ 30.125247, 59.8619099 ], [ 30.1253608, 59.8605036 ], [ 30.1253876, 59.8602848 ], [ 30.1255514, 59.8602953 ], [ 30.1260565, 59.8603128 ], [ 30.1262299, 59.8603117 ], [ 30.1261742, 59.86094 ], [ 30.1261024, 59.8619224 ], [ 30.1269855, 59.8619262 ], [ 30.1269962, 59.8617169 ], [ 30.1270119, 59.8615134 ], [ 30.1270222, 59.8613788 ], [ 30.127033, 59.8612382 ], [ 30.1270724, 59.8607263 ], [ 30.1271037, 59.8603189 ], [ 30.1273742, 59.8602859 ], [ 30.1278349, 59.8602934 ], [ 30.127969, 59.8603104 ], [ 30.1279879, 59.8603475 ], [ 30.127959, 59.8609801 ], [ 30.1279567, 59.8616052 ], [ 30.1280261, 59.8616274 ], [ 30.1281332, 59.8616279 ], [ 30.128986, 59.8616545 ], [ 30.1290518, 59.8616179 ], [ 30.129129, 59.8616163 ], [ 30.1291878, 59.8616427 ], [ 30.1302964, 59.8615984 ], [ 30.1321427, 59.8615602 ], [ 30.1321939, 59.8615915 ], [ 30.1317882, 59.8619099 ], [ 30.1317644, 59.8619529 ], [ 30.1317768, 59.8619731 ], [ 30.1320787, 59.8620613 ], [ 30.1322741, 59.8620325 ], [ 30.1323267, 59.8619745 ], [ 30.1323843, 59.861919 ], [ 30.1324457, 59.8618638 ], [ 30.1325157, 59.8618174 ], [ 30.1326062, 59.8617802 ], [ 30.1326917, 59.8617517 ], [ 30.1328452, 59.8617244 ], [ 30.1330083, 59.8617043 ], [ 30.133191, 59.8616929 ], [ 30.1333495, 59.8616909 ], [ 30.1335511, 59.8616914 ], [ 30.1337315, 59.8616942 ], [ 30.1338844, 59.8616895 ], [ 30.1340582, 59.8616855 ], [ 30.1348003, 59.8617092 ], [ 30.1349863, 59.8617123 ], [ 30.1352136, 59.8617249 ], [ 30.1354433, 59.8617459 ], [ 30.1356777, 59.8617716 ], [ 30.1359121, 59.8617895 ], [ 30.1361454, 59.8618006 ], [ 30.1363872, 59.8618128 ], [ 30.1366571, 59.8618316 ], [ 30.1369051, 59.8618566 ], [ 30.1371383, 59.861885 ], [ 30.137327, 59.8619069 ], [ 30.1374883, 59.8619394 ], [ 30.1376413, 59.861979 ], [ 30.1377682, 59.8620124 ], [ 30.137898, 59.8620442 ], [ 30.1380062, 59.8620729 ], [ 30.1381274, 59.8621043 ], [ 30.1382492, 59.8621365 ], [ 30.1383534, 59.8621644 ], [ 30.1384431, 59.8621892 ], [ 30.1385301, 59.8622193 ], [ 30.1386043, 59.8622441 ], [ 30.1386908, 59.8622654 ], [ 30.13876, 59.8622758 ], [ 30.1388318, 59.8622851 ], [ 30.1388895, 59.8622932 ], [ 30.1389545, 59.8623066 ], [ 30.1394444, 59.8624444 ], [ 30.1395349, 59.8624741 ], [ 30.1396254, 59.8625109 ], [ 30.1396932, 59.86255 ], [ 30.1397384, 59.8625843 ], [ 30.1397705, 59.8626258 ], [ 30.1397842, 59.8626649 ], [ 30.1397856, 59.8628718 ], [ 30.1397894, 59.8629232 ], [ 30.1398061, 59.8629628 ], [ 30.1398439, 59.863002 ], [ 30.1398969, 59.86303 ], [ 30.1399678, 59.8630463 ], [ 30.1400539, 59.8630545 ], [ 30.1405008, 59.8630856 ], [ 30.140582, 59.8630953 ], [ 30.1406503, 59.8631109 ], [ 30.1407125, 59.8631343 ], [ 30.1407742, 59.8631649 ], [ 30.1408564, 59.8632052 ], [ 30.140945, 59.8632404 ], [ 30.1410568, 59.8632755 ], [ 30.1420391, 59.8634946 ], [ 30.1421169, 59.8635146 ], [ 30.1421838, 59.8635391 ], [ 30.1422318, 59.8635762 ], [ 30.1422516, 59.863614 ], [ 30.1422473, 59.8636598 ], [ 30.1422182, 59.8637372 ], [ 30.1422132, 59.8637506 ], [ 30.1422053, 59.8638014 ], [ 30.1422128, 59.8638474 ], [ 30.1422366, 59.8638818 ], [ 30.1422842, 59.8639107 ], [ 30.1424074, 59.8639581 ], [ 30.1425836, 59.864013 ], [ 30.1434702, 59.8642677 ], [ 30.1461505, 59.8650227 ], [ 30.1482518, 59.8657422 ], [ 30.1483728, 59.865803 ], [ 30.1486342, 59.8659303 ], [ 30.1489208, 59.8660956 ], [ 30.149554, 59.8665195 ], [ 30.149758, 59.8666558 ], [ 30.1499352, 59.8667848 ], [ 30.150095, 59.8669067 ], [ 30.150239, 59.8670223 ], [ 30.1504008, 59.8671615 ], [ 30.1515182, 59.868246 ], [ 30.1516193, 59.8683514 ], [ 30.1517121, 59.8684489 ], [ 30.1518009, 59.8685492 ], [ 30.1518877, 59.8686626 ], [ 30.1519661, 59.868751 ], [ 30.152343, 59.8692216 ], [ 30.152383, 59.869269 ], [ 30.1524293, 59.8693142 ], [ 30.1524882, 59.8693548 ], [ 30.1525571, 59.8693877 ], [ 30.1526459, 59.8694125 ], [ 30.1527357, 59.8694314 ], [ 30.1528726, 59.8694495 ], [ 30.1529824, 59.8694574 ], [ 30.1530778, 59.8694627 ], [ 30.1531723, 59.8694664 ], [ 30.1532778, 59.8694673 ], [ 30.15338, 59.8694721 ], [ 30.1534827, 59.8694864 ], [ 30.1535663, 59.8695091 ], [ 30.1536373, 59.8695408 ], [ 30.153688, 59.8695792 ], [ 30.1537813, 59.8696594 ], [ 30.1538639, 59.8697235 ], [ 30.1539386, 59.8697798 ], [ 30.1540539, 59.8698505 ], [ 30.1541901, 59.8699414 ], [ 30.1542555, 59.8699857 ], [ 30.1543196, 59.8700353 ], [ 30.1543789, 59.8700946 ], [ 30.1544127, 59.8701382 ], [ 30.1544657, 59.870189 ], [ 30.1545227, 59.8702389 ], [ 30.1545917, 59.8702804 ], [ 30.1546746, 59.8703225 ], [ 30.1548214, 59.8703792 ], [ 30.1549342, 59.8704271 ], [ 30.1550184, 59.8704702 ], [ 30.1551058, 59.8705226 ], [ 30.1551685, 59.8705682 ], [ 30.1552615, 59.8706727 ], [ 30.1552798, 59.8707282 ], [ 30.1552705, 59.8707715 ], [ 30.1552484, 59.8708151 ], [ 30.1551421, 59.8709404 ], [ 30.1550522, 59.8710708 ], [ 30.1550101, 59.8711411 ], [ 30.1549844, 59.8712094 ], [ 30.1549731, 59.8712754 ], [ 30.1549834, 59.8713378 ], [ 30.1550108, 59.8714012 ], [ 30.1550429, 59.8714587 ], [ 30.1550977, 59.8715279 ], [ 30.1551544, 59.8715853 ], [ 30.1552158, 59.8716404 ], [ 30.1554416, 59.8718114 ], [ 30.1554954, 59.8718449 ], [ 30.1555566, 59.8718703 ], [ 30.1556278, 59.8718877 ], [ 30.1556954, 59.8718916 ], [ 30.1557711, 59.8718828 ], [ 30.1558449, 59.8718585 ], [ 30.1559167, 59.8718197 ], [ 30.1559922, 59.8717881 ], [ 30.1560851, 59.8717687 ], [ 30.1562275, 59.8717434 ], [ 30.1629451, 59.8702237 ], [ 30.1632589, 59.8703179 ], [ 30.1636854, 59.870571 ], [ 30.1637599, 59.8706608 ], [ 30.1638003, 59.870768 ], [ 30.1636693, 59.8708561 ], [ 30.1635443, 59.8708699 ], [ 30.1634001, 59.8710596 ], [ 30.1635057, 59.8711513 ], [ 30.1636505, 59.8712106 ], [ 30.1639482, 59.8712388 ], [ 30.1642138, 59.8712213 ], [ 30.1644471, 59.8711769 ], [ 30.1646805, 59.8711782 ], [ 30.1648682, 59.8712536 ], [ 30.1650694, 59.871329 ], [ 30.1653028, 59.8713627 ], [ 30.1656007, 59.8713048 ], [ 30.1657645, 59.8712811 ], [ 30.165906, 59.8712992 ], [ 30.1661164, 59.8712801 ], [ 30.1662823, 59.8712537 ], [ 30.1664307, 59.8712589 ], [ 30.1666082, 59.8712215 ], [ 30.1670032, 59.8711238 ], [ 30.1673238, 59.871006 ], [ 30.1677531, 59.8709457 ], [ 30.1682568, 59.8709632 ], [ 30.1685445, 59.8709402 ], [ 30.1692144, 59.8707802 ], [ 30.1696708, 59.8706066 ], [ 30.17002, 59.8706554 ], [ 30.1704951, 59.870644 ], [ 30.1706955, 59.870552 ], [ 30.1706211, 59.8704658 ], [ 30.1700961, 59.8704147 ], [ 30.169781, 59.8703774 ], [ 30.1699948, 59.8702502 ], [ 30.1701605, 59.8701971 ], [ 30.1703308, 59.8702222 ], [ 30.1704783, 59.8702294 ], [ 30.1706156, 59.8702193 ], [ 30.170713, 59.8701913 ], [ 30.1707516, 59.8701561 ], [ 30.1707802, 59.8701123 ], [ 30.1707673, 59.8700678 ], [ 30.1707387, 59.8700333 ], [ 30.1706128, 59.8699643 ], [ 30.1704608, 59.8699198 ], [ 30.1706726, 59.869756 ], [ 30.1710218, 59.8696526 ], [ 30.1714111, 59.8695894 ], [ 30.1718404, 59.869575 ], [ 30.1719091, 59.8697417 ], [ 30.1721993, 59.8699266 ], [ 30.1724014, 59.8700118 ], [ 30.1726361, 59.870098 ], [ 30.1729295, 59.8705154 ], [ 30.1753895, 59.8703115 ], [ 30.1756255, 59.8703529 ], [ 30.1756614, 59.8703989 ], [ 30.17553, 59.870438 ], [ 30.1754294, 59.8704635 ], [ 30.1753154, 59.870547 ], [ 30.1752027, 59.8706244 ], [ 30.1750606, 59.8707301 ], [ 30.1746243, 59.8708029 ], [ 30.1744919, 59.8708715 ], [ 30.1742274, 59.8709084 ], [ 30.1735754, 59.8708585 ], [ 30.1733145, 59.8708077 ], [ 30.1729839, 59.8708188 ], [ 30.1727492, 59.8708383 ], [ 30.1724904, 59.8709737 ], [ 30.1722504, 59.8711601 ], [ 30.1719768, 59.8712571 ], [ 30.1717997, 59.8713971 ], [ 30.1717486, 59.8715578 ], [ 30.171788, 59.8717566 ], [ 30.1698854, 59.8722706 ], [ 30.1682928, 59.8726077 ], [ 30.1666471, 59.872998 ], [ 30.1642711, 59.8735181 ], [ 30.1624648, 59.8739047 ], [ 30.1622432, 59.8739603 ], [ 30.1620417, 59.8740166 ], [ 30.1618267, 59.8740844 ], [ 30.161653, 59.8741453 ], [ 30.1615933, 59.8741752 ], [ 30.161551, 59.8742057 ], [ 30.1615248, 59.8742404 ], [ 30.1615188, 59.8742774 ], [ 30.1615343, 59.8743127 ], [ 30.1643533, 59.8770031 ], [ 30.1665325, 59.8790283 ], [ 30.1666416, 59.8791072 ], [ 30.1667811, 59.8791821 ], [ 30.166956, 59.87925 ], [ 30.1671546, 59.8793049 ], [ 30.1678482, 59.8794558 ], [ 30.1679456, 59.8794822 ], [ 30.1680295, 59.8795134 ], [ 30.1680919, 59.8795541 ], [ 30.1681208, 59.879597 ], [ 30.1681253, 59.8796428 ], [ 30.1681072, 59.8796843 ], [ 30.1680665, 59.879724 ], [ 30.1659194, 59.880804 ], [ 30.1679317, 59.8818438 ], [ 30.1678356, 59.8818886 ], [ 30.1682641, 59.8821078 ], [ 30.1684056, 59.8821802 ], [ 30.1723156, 59.8841802 ], [ 30.1714719, 59.8846036 ], [ 30.1713577, 59.8846604 ], [ 30.1690729, 59.8858063 ], [ 30.1689607, 59.8858611 ], [ 30.1678913, 59.8863977 ], [ 30.1678122, 59.8868441 ], [ 30.1679869, 59.8870197 ], [ 30.1681678, 59.8872542 ], [ 30.1683446, 59.8874834 ], [ 30.1686849, 59.8879245 ], [ 30.1689842, 59.8883124 ], [ 30.1691516, 59.8883384 ], [ 30.1694722, 59.8883243 ], [ 30.1697732, 59.8883226 ], [ 30.1704265, 59.8883203 ], [ 30.1719592, 59.8882783 ], [ 30.17298, 59.8880595 ], [ 30.1742381, 59.8878785 ], [ 30.1745995, 59.8878391 ], [ 30.175764, 59.8877592 ], [ 30.1771669, 59.8876918 ], [ 30.1784444, 59.8876888 ], [ 30.1797342, 59.8877262 ], [ 30.1810529, 59.8877571 ], [ 30.1816638, 59.8877554 ], [ 30.1822934, 59.887781 ], [ 30.1848854, 59.8880526 ], [ 30.1863446, 59.8882126 ], [ 30.1877025, 59.8883493 ], [ 30.1889813, 59.8884708 ], [ 30.1907384, 59.8886753 ], [ 30.1920963, 59.8889355 ], [ 30.1927872, 59.8891111 ], [ 30.1930697, 59.8891893 ], [ 30.1933153, 59.8893191 ], [ 30.1934259, 59.8894354 ], [ 30.1934884, 59.8895012 ], [ 30.1936856, 59.889706 ], [ 30.1939817, 59.8899256 ], [ 30.1941168, 59.8901025 ], [ 30.194126, 59.8901173 ], [ 30.1942013, 59.8902384 ], [ 30.194302, 59.8903607 ], [ 30.1944305, 59.8905726 ], [ 30.1945106, 59.890766 ], [ 30.1944906, 59.8909697 ], [ 30.1945034, 59.8911057 ], [ 30.1944591, 59.8913144 ], [ 30.194594, 59.8915826 ], [ 30.1945892, 59.8916774 ], [ 30.1947637, 59.8920825 ], [ 30.1950697, 59.8924068 ], [ 30.1952184, 59.892715 ], [ 30.1954086, 59.8927931 ], [ 30.1958619, 59.8931924 ], [ 30.1963635, 59.8935132 ], [ 30.196881, 59.8936769 ], [ 30.1971336, 59.8938407 ], [ 30.1972868, 59.8940903 ], [ 30.1976388, 59.8943043 ], [ 30.1983473, 59.8944773 ], [ 30.1986145, 59.8944913 ], [ 30.1988796, 59.8945625 ], [ 30.1991534, 59.894667 ], [ 30.1994969, 59.8948848 ], [ 30.1998083, 59.8950237 ], [ 30.2001571, 59.8951852 ], [ 30.2005253, 59.8953683 ], [ 30.2007625, 59.8954862 ], [ 30.2011519, 59.8956582 ], [ 30.2014358, 59.895771 ], [ 30.2017384, 59.8958731 ], [ 30.2021566, 59.8960059 ], [ 30.2025156, 59.8961347 ], [ 30.2027201, 59.8962257 ], [ 30.2031891, 59.8964573 ], [ 30.2034187, 59.8965716 ], [ 30.2040409, 59.8969002 ], [ 30.2043355, 59.8970541 ], [ 30.2045691, 59.8971563 ], [ 30.2047399, 59.8972279 ], [ 30.2047791, 59.8972574 ], [ 30.2048155, 59.897301 ], [ 30.2048645, 59.8973532 ], [ 30.2049051, 59.8973965 ], [ 30.2050024, 59.8974646 ], [ 30.205283, 59.8975832 ], [ 30.205493, 59.8976717 ], [ 30.2057898, 59.8977967 ], [ 30.2059772, 59.8978872 ], [ 30.206333, 59.8981042 ], [ 30.2065072, 59.8982184 ], [ 30.2067613, 59.8983752 ], [ 30.2070183, 59.8985035 ], [ 30.2072227, 59.8985979 ], [ 30.2072452, 59.8986406 ], [ 30.2072022, 59.8986919 ], [ 30.2072316, 59.8987278 ], [ 30.2072975, 59.898719 ], [ 30.2073107, 59.8986954 ], [ 30.2073239, 59.8986719 ], [ 30.2073898, 59.8986349 ], [ 30.2074329, 59.8986382 ], [ 30.207477, 59.8986727 ], [ 30.2075537, 59.8987276 ], [ 30.2076586, 59.8987759 ], [ 30.2078372, 59.8988365 ], [ 30.2079471, 59.8988635 ], [ 30.2080701, 59.8988862 ], [ 30.2082451, 59.8989825 ], [ 30.2084677, 59.8991032 ], [ 30.2086287, 59.899198 ], [ 30.2088945, 59.8993004 ], [ 30.209286, 59.8994035 ], [ 30.2094576, 59.8995032 ], [ 30.2101603, 59.900289 ], [ 30.2102218, 59.9003365 ], [ 30.2104373, 59.9005032 ], [ 30.2112886, 59.9011096 ], [ 30.2116873, 59.9013805 ], [ 30.2127576, 59.9021809 ], [ 30.2136523, 59.9022317 ], [ 30.2158251, 59.9036095 ], [ 30.21581, 59.9037138 ], [ 30.2160056, 59.9038702 ], [ 30.2161048, 59.9039671 ], [ 30.2162242, 59.9042362 ], [ 30.2162976, 59.9049635 ], [ 30.2162568, 59.9050512 ], [ 30.2161829, 59.9051569 ], [ 30.2162044, 59.9052114 ], [ 30.2162687, 59.9052712 ], [ 30.2163987, 59.9053099 ], [ 30.21658, 59.9053358 ], [ 30.2166973, 59.9053494 ], [ 30.2167605, 59.9053401 ], [ 30.2168432, 59.9053195 ], [ 30.2171119, 59.9052241 ], [ 30.2175519, 59.9052175 ], [ 30.2175857, 59.9052175 ], [ 30.2181242, 59.9052145 ], [ 30.2181678, 59.9052302 ], [ 30.2182227, 59.9052825 ], [ 30.2184594, 59.9053566 ], [ 30.2189187, 59.905676 ], [ 30.2194756, 59.9057081 ], [ 30.2199925, 59.90559 ], [ 30.2202979, 59.9055386 ], [ 30.220861, 59.905435 ], [ 30.2219431, 59.9059014 ], [ 30.2223822, 59.9064142 ], [ 30.2221134, 59.9064827 ], [ 30.2232837, 59.9074691 ], [ 30.2248853, 59.9088916 ], [ 30.223909, 59.9090207 ], [ 30.2240163, 59.9091848 ], [ 30.2251053, 59.9090395 ], [ 30.2257222, 59.9091955 ], [ 30.2262157, 59.9095317 ], [ 30.2279001, 59.9107796 ], [ 30.2280235, 59.910941 ], [ 30.2288094, 59.9135053 ], [ 30.2289059, 59.9135488 ], [ 30.2307057, 59.9267235 ], [ 30.2306957, 59.9267396 ], [ 30.2307017, 59.9267554 ], [ 30.230931, 59.92695 ], [ 30.2309632, 59.9269681 ], [ 30.2309934, 59.9269698 ], [ 30.2310417, 59.9269628 ], [ 30.2332626, 59.9263206 ], [ 30.2332783, 59.9263166 ], [ 30.2332941, 59.9263151 ], [ 30.2333189, 59.9263332 ], [ 30.2333169, 59.9263388 ], [ 30.2333112, 59.9263428 ], [ 30.2330832, 59.9264025 ], [ 30.2330714, 59.9264075 ], [ 30.2330698, 59.9264142 ], [ 30.2331801, 59.9265243 ], [ 30.2331978, 59.9265285 ], [ 30.2332237, 59.9265278 ], [ 30.2335261, 59.9264396 ], [ 30.2335489, 59.9264413 ], [ 30.2335811, 59.9264571 ], [ 30.2336361, 59.9265185 ], [ 30.2336387, 59.9265387 ], [ 30.2336133, 59.9265616 ], [ 30.2332525, 59.926661 ], [ 30.2332364, 59.9266684 ], [ 30.233231, 59.9266829 ], [ 30.234375, 59.9277773 ], [ 30.2344092, 59.9277907 ], [ 30.2344467, 59.927791 ], [ 30.2348149, 59.9276758 ], [ 30.2348276, 59.9276795 ], [ 30.2348337, 59.9276922 ], [ 30.2343468, 59.9287389 ], [ 30.2343334, 59.9287651 ], [ 30.2342851, 59.9287906 ], [ 30.2328002, 59.9292133 ], [ 30.2327744, 59.9291907 ], [ 30.2325793, 59.9292467 ], [ 30.2325983, 59.9292633 ], [ 30.2318539, 59.9294801 ], [ 30.2318272, 59.9294563 ], [ 30.2317838, 59.9294685 ], [ 30.2316821, 59.9293775 ], [ 30.2315932, 59.9294025 ], [ 30.2316964, 59.9294947 ], [ 30.2316345, 59.9295121 ], [ 30.2316547, 59.9295301 ], [ 30.2311542, 59.9296708 ], [ 30.2310054, 59.9295378 ], [ 30.2309401, 59.9295562 ], [ 30.231094, 59.9296937 ], [ 30.2309242, 59.9297431 ], [ 30.2309025, 59.9297237 ], [ 30.2307103, 59.9297777 ], [ 30.2307345, 59.9297993 ], [ 30.2301073, 59.9299873 ], [ 30.230787, 59.9317199 ], [ 30.2307992, 59.9317428 ], [ 30.2308611, 59.9317419 ], [ 30.2312648, 59.9317352 ], [ 30.2314961, 59.9317547 ], [ 30.2317363, 59.9317943 ], [ 30.2320504, 59.9319012 ], [ 30.2322838, 59.9320314 ], [ 30.2324725, 59.9321714 ], [ 30.2325779, 59.9323461 ], [ 30.2326269, 59.9324713 ], [ 30.2326441, 59.9325707 ], [ 30.2326192, 59.9326932 ], [ 30.2325923, 59.9327567 ], [ 30.2324988, 59.9328574 ], [ 30.2324197, 59.932948 ], [ 30.2322979, 59.9330251 ], [ 30.2320824, 59.9331187 ], [ 30.2318739, 59.933194 ], [ 30.2318819, 59.9332114 ], [ 30.2319308, 59.9332363 ], [ 30.2318846, 59.9332608 ], [ 30.2318396, 59.933242 ], [ 30.2318034, 59.933246 ], [ 30.2316737, 59.9332423 ], [ 30.2315689, 59.9332003 ], [ 30.2314272, 59.9332092 ], [ 30.2313399, 59.9332427 ], [ 30.2311458, 59.9332368 ], [ 30.2311276, 59.9332135 ], [ 30.2309776, 59.9332382 ], [ 30.2309054, 59.9332634 ], [ 30.2306858, 59.9333325 ], [ 30.2302448, 59.9332351 ], [ 30.2298689, 59.9330703 ], [ 30.2297375, 59.9329641 ], [ 30.2296204, 59.9328439 ], [ 30.2295532, 59.9328109 ], [ 30.22947, 59.9327341 ], [ 30.2294101, 59.9326046 ], [ 30.2293926, 59.9324919 ], [ 30.2293969, 59.9324443 ], [ 30.2292181, 59.9321115 ], [ 30.2293184, 59.9321017 ], [ 30.2291883, 59.9317698 ], [ 30.2291333, 59.9317399 ], [ 30.2290978, 59.9317164 ], [ 30.2290817, 59.9316801 ], [ 30.2290937, 59.9315746 ], [ 30.2291534, 59.9314967 ], [ 30.2291559, 59.9314364 ], [ 30.2292659, 59.9314291 ], [ 30.2291983, 59.9312245 ], [ 30.2290583, 59.9312341 ], [ 30.2288577, 59.931066 ], [ 30.2286792, 59.9307667 ], [ 30.2282445, 59.9298441 ], [ 30.2279905, 59.929408 ], [ 30.2279252, 59.9292667 ], [ 30.2279908, 59.9292703 ], [ 30.2280392, 59.9290473 ], [ 30.2279393, 59.9290418 ], [ 30.227821, 59.9289791 ], [ 30.2274911, 59.9288538 ], [ 30.2274603, 59.9288397 ], [ 30.2274509, 59.9288185 ], [ 30.2274522, 59.9287443 ], [ 30.2274455, 59.928713 ], [ 30.2274261, 59.9287013 ], [ 30.2273624, 59.9286845 ], [ 30.2272202, 59.9286855 ], [ 30.2271867, 59.9286898 ], [ 30.2271625, 59.9287033 ], [ 30.2268996, 59.9286924 ], [ 30.2266075, 59.9286836 ], [ 30.2265718, 59.928672 ], [ 30.2264343, 59.9286149 ], [ 30.2263984, 59.9286067 ], [ 30.2260897, 59.9285669 ], [ 30.2259837, 59.9285595 ], [ 30.2259072, 59.9285587 ], [ 30.2258416, 59.9285632 ], [ 30.2251951, 59.9286757 ], [ 30.2247043, 59.9287261 ], [ 30.2233914, 59.9288787 ], [ 30.2229837, 59.9289176 ], [ 30.2225116, 59.9289163 ], [ 30.2219188, 59.9288612 ], [ 30.2213261, 59.9288128 ], [ 30.2210015, 59.9288343 ], [ 30.2199581, 59.9290359 ], [ 30.2188235, 59.9292751 ], [ 30.2178365, 59.9295493 ], [ 30.2158037, 59.9304536 ], [ 30.2154445, 59.9303848 ], [ 30.2146332, 59.9302893 ], [ 30.2137921, 59.9301509 ], [ 30.2133114, 59.9300463 ], [ 30.2128737, 59.9298592 ], [ 30.2125061, 59.9295475 ], [ 30.2123845, 59.9292038 ], [ 30.2124151, 59.9286927 ], [ 30.2121891, 59.9284607 ], [ 30.2090389, 59.9283975 ], [ 30.2064868, 59.9284623 ], [ 30.2054934, 59.928486 ], [ 30.203989, 59.9285809 ], [ 30.202655, 59.9287658 ], [ 30.2015197, 59.9290407 ], [ 30.1961466, 59.930543 ], [ 30.19485, 59.930903 ], [ 30.1935628, 59.931302 ], [ 30.1922382, 59.9318139 ], [ 30.1912448, 59.9324065 ], [ 30.1903555, 59.9331419 ], [ 30.1830382, 59.9408225 ], [ 30.1807295, 59.9431051 ], [ 30.1806463, 59.9431427 ], [ 30.1781787, 59.9437311 ], [ 30.178113, 59.9437734 ], [ 30.1778187, 59.9440582 ], [ 30.1777884, 59.9441321 ], [ 30.1777808, 59.9443928 ], [ 30.1779861, 59.9447358 ], [ 30.1783785, 59.9450114 ], [ 30.1788001, 59.9452058 ], [ 30.1789747, 59.9452863 ], [ 30.1791295, 59.9453048 ], [ 30.1902768, 59.9436149 ], [ 30.1903371, 59.9436183 ], [ 30.1903975, 59.9436418 ], [ 30.1913176, 59.9451431 ], [ 30.1945473, 59.9505542 ], [ 30.1943736, 59.9505809 ], [ 30.1933482, 59.9507387 ], [ 30.1934719, 59.9509661 ], [ 30.1935131, 59.9510419 ], [ 30.183464, 59.9525096 ], [ 30.1833795, 59.9525311 ], [ 30.1833278, 59.9525596 ], [ 30.1831685, 59.9529001 ], [ 30.1831638, 59.9529535 ], [ 30.183126, 59.9533813 ], [ 30.183244, 59.9536109 ], [ 30.1833487, 59.9537573 ], [ 30.183472, 59.9538513 ], [ 30.1843896, 59.9543885 ], [ 30.1845422, 59.9544221 ], [ 30.1848052, 59.9544329 ], [ 30.1848843, 59.9544231 ], [ 30.1857485, 59.9543121 ], [ 30.1864088, 59.9537103 ], [ 30.1864935, 59.9536331 ], [ 30.1865686, 59.9535874 ], [ 30.1866934, 59.9535505 ], [ 30.1869857, 59.9535115 ], [ 30.1880237, 59.953353 ], [ 30.1952845, 59.9523082 ], [ 30.1958652, 59.9522576 ], [ 30.1970708, 59.9521766 ], [ 30.1978701, 59.9520987 ], [ 30.19831, 59.9519966 ], [ 30.1990664, 59.9517334 ], [ 30.1997852, 59.9515695 ], [ 30.2015126, 59.9512606 ], [ 30.2027531, 59.951124 ], [ 30.2031541, 59.9519174 ], [ 30.2033215, 59.9522633 ], [ 30.1997233, 59.9528479 ], [ 30.19744, 59.9531784 ], [ 30.1915884, 59.9541241 ], [ 30.1895148, 59.9547605 ], [ 30.1896606, 59.9549555 ], [ 30.1881719, 59.9558607 ], [ 30.1876269, 59.9559584 ], [ 30.1867846, 59.9558567 ], [ 30.1860536, 59.9554663 ], [ 30.1856967, 59.9552992 ], [ 30.1852047, 59.9553588 ], [ 30.1862759, 59.9574406 ], [ 30.1869925, 59.9586557 ], [ 30.1877146, 59.9595298 ], [ 30.1888649, 59.9603546 ], [ 30.1899631, 59.9608305 ], [ 30.1907098, 59.9611541 ], [ 30.1928914, 59.9616711 ], [ 30.1952029, 59.9620378 ], [ 30.20731, 59.9639584 ], [ 30.2101449, 59.9642837 ], [ 30.2124598, 59.9643756 ], [ 30.2152485, 59.9642864 ], [ 30.2161746, 59.9641786 ], [ 30.2160071, 59.9652987 ], [ 30.2158976, 59.9652923 ], [ 30.2158436, 59.9653425 ], [ 30.2158383, 59.9654096 ], [ 30.2158893, 59.9654644 ], [ 30.2155694, 59.9674373 ], [ 30.2155137, 59.9674931 ], [ 30.2154976, 59.9675482 ], [ 30.2155459, 59.9676045 ], [ 30.2153464, 59.9691201 ], [ 30.2145795, 59.9690342 ], [ 30.2144505, 59.969198 ], [ 30.2141093, 59.9692845 ], [ 30.2141046, 59.9693175 ], [ 30.2140101, 59.9693183 ], [ 30.2139019, 59.969356 ], [ 30.2136849, 59.9695604 ], [ 30.2130446, 59.970219 ], [ 30.2129612, 59.9702705 ], [ 30.2128148, 59.9703184 ], [ 30.2126618, 59.9703378 ], [ 30.2124862, 59.9703319 ], [ 30.2114218, 59.9701231 ], [ 30.211304, 59.970119 ], [ 30.2111986, 59.9701572 ], [ 30.2109219, 59.9703965 ], [ 30.2107267, 59.970609 ], [ 30.2107072, 59.9706302 ], [ 30.2106259, 59.9707401 ], [ 30.2105278, 59.9708727 ], [ 30.2103456, 59.971228 ], [ 30.2102377, 59.9716578 ], [ 30.2101343, 59.972338 ], [ 30.2101532, 59.9730776 ], [ 30.210156, 59.9731061 ], [ 30.2101864, 59.9733303 ], [ 30.2102411, 59.9737338 ], [ 30.2102946, 59.9739922 ], [ 30.2104519, 59.9743216 ], [ 30.2106265, 59.9745944 ], [ 30.2108674, 59.9748899 ], [ 30.2111489, 59.9751739 ], [ 30.2116074, 59.9755535 ], [ 30.2080276, 59.9793598 ], [ 30.2077853, 59.9793777 ], [ 30.2075368, 59.9793634 ], [ 30.2067, 59.9793835 ], [ 30.2063056, 59.979401 ], [ 30.2057273, 59.9794627 ], [ 30.2051855, 59.9794683 ], [ 30.2046499, 59.9793634 ], [ 30.2044922, 59.9793001 ], [ 30.2044087, 59.9792604 ], [ 30.204347, 59.9791612 ], [ 30.2043648, 59.9791268 ], [ 30.2044878, 59.9790861 ], [ 30.2046241, 59.9789597 ], [ 30.2046307, 59.9788092 ], [ 30.2045357, 59.9786582 ], [ 30.2042866, 59.9785435 ], [ 30.2039961, 59.978509 ], [ 30.2037206, 59.9785321 ], [ 30.2035342, 59.978587 ], [ 30.2033837, 59.978675 ], [ 30.2032821, 59.9787828 ], [ 30.2032848, 59.9788946 ], [ 30.2033739, 59.978991 ], [ 30.2035976, 59.9791195 ], [ 30.203815, 59.9791692 ], [ 30.2039832, 59.9791853 ], [ 30.2040709, 59.9792105 ], [ 30.2041431, 59.9793177 ], [ 30.2041222, 59.9793627 ], [ 30.2040815, 59.9794179 ], [ 30.2039671, 59.9794818 ], [ 30.2036575, 59.9796047 ], [ 30.20323, 59.9796652 ], [ 30.2026336, 59.9798416 ], [ 30.2022375, 59.9799846 ], [ 30.201754, 59.9801779 ], [ 30.2013995, 59.9802998 ], [ 30.2005872, 59.9805791 ], [ 30.1996257, 59.9808784 ], [ 30.1989698, 59.9810631 ], [ 30.1982289, 59.9812509 ], [ 30.1969239, 59.9815456 ], [ 30.1959658, 59.9817721 ], [ 30.1955532, 59.981858 ], [ 30.1952094, 59.9819304 ], [ 30.1947771, 59.9819918 ], [ 30.1943026, 59.9819936 ], [ 30.1938727, 59.9819563 ], [ 30.1935157, 59.981848 ], [ 30.1931504, 59.981808 ], [ 30.1929739, 59.9817552 ], [ 30.1928667, 59.9816161 ], [ 30.1928002, 59.9813912 ], [ 30.192826, 59.9811444 ], [ 30.1930695, 59.9811474 ], [ 30.1932487, 59.9811205 ], [ 30.1934037, 59.9810589 ], [ 30.193524, 59.9809329 ], [ 30.193579, 59.980815 ], [ 30.1935553, 59.9806904 ], [ 30.193422, 59.9805893 ], [ 30.1932137, 59.9805238 ], [ 30.1929219, 59.9805028 ], [ 30.1926704, 59.9805284 ], [ 30.1924851, 59.9806244 ], [ 30.1923808, 59.980735 ], [ 30.1923409, 59.980862 ], [ 30.1923774, 59.9809833 ], [ 30.1925219, 59.9810788 ], [ 30.1927009, 59.9811328 ], [ 30.1926392, 59.9812799 ], [ 30.192621, 59.9813989 ], [ 30.1927036, 59.9816211 ], [ 30.1928213, 59.9818102 ], [ 30.1927448, 59.9819364 ], [ 30.1924983, 59.9820653 ], [ 30.1921606, 59.9821521 ], [ 30.1915026, 59.9821842 ], [ 30.1911721, 59.9822113 ], [ 30.1907821, 59.9822723 ], [ 30.1905544, 59.982238 ], [ 30.1903758, 59.9822534 ], [ 30.1900614, 59.9823505 ], [ 30.1898741, 59.9825199 ], [ 30.1896783, 59.9827353 ], [ 30.1895311, 59.9827785 ], [ 30.189163, 59.9828034 ], [ 30.1889491, 59.9828039 ], [ 30.1887568, 59.9828137 ], [ 30.188583, 59.9828395 ], [ 30.1884502, 59.9828896 ], [ 30.1883896, 59.9829698 ], [ 30.18822, 59.9830268 ], [ 30.1881452, 59.983053 ], [ 30.1879876, 59.983134 ], [ 30.1878422, 59.9832418 ], [ 30.1877877, 59.9833098 ], [ 30.1878035, 59.983368 ], [ 30.1878199, 59.9834433 ], [ 30.1879075, 59.9835218 ], [ 30.1880881, 59.9835903 ], [ 30.1883119, 59.9836187 ], [ 30.1883304, 59.9836211 ], [ 30.1885328, 59.9836282 ], [ 30.1888657, 59.9838191 ], [ 30.188589, 59.9841469 ], [ 30.1877554, 59.9852616 ], [ 30.1876535, 59.9853903 ], [ 30.1867373, 59.9852526 ], [ 30.1863366, 59.9852426 ], [ 30.1860362, 59.9852634 ], [ 30.1857372, 59.9853244 ], [ 30.1855065, 59.9854029 ], [ 30.1843236, 59.9859771 ], [ 30.1863632, 59.9869883 ], [ 30.1862941, 59.98706 ], [ 30.1861832, 59.9871618 ], [ 30.1860167, 59.9875586 ], [ 30.1857225, 59.9879021 ], [ 30.1856343, 59.9881564 ], [ 30.1854524, 59.9882975 ], [ 30.1854413, 59.9884516 ], [ 30.1850451, 59.9890005 ], [ 30.1851629, 59.9890318 ], [ 30.1851651, 59.9890896 ], [ 30.1843028, 59.9896024 ], [ 30.1841893, 59.9896734 ], [ 30.1835793, 59.9896512 ], [ 30.181583, 59.9894097 ], [ 30.1802978, 59.9892658 ], [ 30.1791638, 59.9891481 ], [ 30.1791151, 59.9891483 ], [ 30.179086, 59.9891547 ], [ 30.1790638, 59.9891672 ], [ 30.1790401, 59.9891889 ], [ 30.1789259, 59.9891763 ], [ 30.1788117, 59.9891636 ], [ 30.1788077, 59.9891574 ], [ 30.1787996, 59.9891239 ], [ 30.1787835, 59.9891118 ], [ 30.1787587, 59.9891019 ], [ 30.1787728, 59.9890789 ], [ 30.178801, 59.9890781 ], [ 30.1788077, 59.9886771 ], [ 30.1788197, 59.9886483 ], [ 30.1788446, 59.9886231 ], [ 30.1788734, 59.9886057 ], [ 30.1789009, 59.988594 ], [ 30.1789706, 59.9885799 ], [ 30.1790464, 59.9885775 ], [ 30.1801002, 59.9885777 ], [ 30.180144, 59.9885865 ], [ 30.1801843, 59.9885987 ], [ 30.1802165, 59.9886148 ], [ 30.1802473, 59.9886396 ], [ 30.1802735, 59.9886317 ], [ 30.1803681, 59.9886963 ], [ 30.1804566, 59.9887503 ], [ 30.1805974, 59.9888063 ], [ 30.1807455, 59.9888512 ], [ 30.1807255, 59.988871 ], [ 30.1808554, 59.9889332 ], [ 30.1810379, 59.9889944 ], [ 30.1812673, 59.9890373 ], [ 30.1815355, 59.9890568 ], [ 30.1817642, 59.9890432 ], [ 30.1819338, 59.9890152 ], [ 30.1819821, 59.9890313 ], [ 30.1821162, 59.9890139 ], [ 30.1822677, 59.988987 ], [ 30.1823415, 59.9889669 ], [ 30.1823743, 59.9889495 ], [ 30.1823824, 59.9889307 ], [ 30.1823784, 59.9889065 ], [ 30.1823596, 59.9888834 ], [ 30.1822892, 59.9888261 ], [ 30.1823703, 59.9887281 ], [ 30.1825172, 59.9885551 ], [ 30.1825795, 59.9884786 ], [ 30.182601, 59.9884508 ], [ 30.1826064, 59.9884216 ], [ 30.1826023, 59.9883961 ], [ 30.1825961, 59.9883773 ], [ 30.1825608, 59.9883444 ], [ 30.1825118, 59.9883179 ], [ 30.1824166, 59.9882579 ], [ 30.1823254, 59.9881915 ], [ 30.1822154, 59.9880949 ], [ 30.1821323, 59.9880151 ], [ 30.1820531, 59.9878755 ], [ 30.1819874, 59.9877327 ], [ 30.1819606, 59.9876334 ], [ 30.181805, 59.9859047 ], [ 30.1818265, 59.9858678 ], [ 30.1818386, 59.9858161 ], [ 30.1818319, 59.9857672 ], [ 30.1817957, 59.9857095 ], [ 30.1817366, 59.9856531 ], [ 30.1816683, 59.9856109 ], [ 30.1815958, 59.9855854 ], [ 30.1815194, 59.9855632 ], [ 30.1814336, 59.9855438 ], [ 30.1813504, 59.985533 ], [ 30.1812726, 59.9855283 ], [ 30.1812015, 59.9855304 ], [ 30.1805766, 59.9856021 ], [ 30.1803365, 59.9856451 ], [ 30.1801461, 59.9856954 ], [ 30.1797465, 59.9857953 ], [ 30.1796097, 59.9858195 ], [ 30.1794112, 59.9858437 ], [ 30.1791872, 59.985851 ], [ 30.1716321, 59.9858759 ], [ 30.1715131, 59.9858725 ], [ 30.1703545, 59.9857746 ], [ 30.1702687, 59.9854772 ], [ 30.1700127, 59.9854747 ], [ 30.1695489, 59.9854374 ], [ 30.169078, 59.9856982 ], [ 30.1683321, 59.9856287 ], [ 30.1680869, 59.985586 ], [ 30.1680171, 59.9855639 ], [ 30.1679644, 59.9855409 ], [ 30.1678911, 59.9855163 ], [ 30.1677858, 59.985494 ], [ 30.1674246, 59.9855174 ], [ 30.1672461, 59.9855346 ], [ 30.1670051, 59.98477 ], [ 30.1669354, 59.98472 ], [ 30.1668169, 59.9846951 ], [ 30.1666819, 59.9846942 ], [ 30.1667559, 59.9848675 ], [ 30.1653712, 59.9850289 ], [ 30.1655777, 59.9854727 ], [ 30.1632256, 59.985752 ], [ 30.1621543, 59.9834525 ], [ 30.1631692, 59.98333 ], [ 30.1663063, 59.9829512 ], [ 30.1667786, 59.983967 ], [ 30.1668504, 59.984033 ], [ 30.1669724, 59.9840893 ], [ 30.1670861, 59.9841119 ], [ 30.1671981, 59.9841138 ], [ 30.1673439, 59.9840947 ], [ 30.1674539, 59.9840431 ], [ 30.1675022, 59.983976 ], [ 30.1675129, 59.9838982 ], [ 30.1674767, 59.9837841 ], [ 30.1673465, 59.9837995 ], [ 30.1668504, 59.9827637 ], [ 30.1667136, 59.9826241 ], [ 30.1665499, 59.9825571 ], [ 30.1663542, 59.9825154 ], [ 30.1661503, 59.9825235 ], [ 30.1611292, 59.9831139 ], [ 30.1609254, 59.9832105 ], [ 30.1608395, 59.983291 ], [ 30.1607752, 59.9833608 ], [ 30.1607859, 59.9835057 ], [ 30.1619553, 59.9859906 ], [ 30.1620602, 59.9861297 ], [ 30.1621202, 59.9861314 ], [ 30.1621489, 59.9863241 ], [ 30.1621505, 59.986415 ], [ 30.1618824, 59.9866293 ], [ 30.161522, 59.9867939 ], [ 30.1610309, 59.9869513 ], [ 30.1606165, 59.9871074 ], [ 30.1602345, 59.9872478 ], [ 30.1596956, 59.9873685 ], [ 30.1593236, 59.987437 ], [ 30.1578653, 59.9876122 ], [ 30.156087, 59.9877568 ], [ 30.1495258, 59.9881858 ], [ 30.1492444, 59.9880889 ], [ 30.1486436, 59.9880392 ], [ 30.1481552, 59.9880338 ], [ 30.1477826, 59.9881465 ], [ 30.1467794, 59.9882364 ], [ 30.1458323, 59.9882882 ], [ 30.1454517, 59.9883102 ], [ 30.1451823, 59.9883016 ], [ 30.1448616, 59.9882552 ], [ 30.1445111, 59.9881446 ], [ 30.1438799, 59.9881868 ], [ 30.143609, 59.98816 ], [ 30.1433824, 59.9881022 ], [ 30.1432698, 59.9880003 ], [ 30.1430337, 59.9879023 ], [ 30.1429264, 59.9878943 ], [ 30.1428728, 59.9879144 ], [ 30.1429041, 59.9879953 ], [ 30.141871, 59.9880535 ], [ 30.1415054, 59.9879682 ], [ 30.1413144, 59.9879292 ], [ 30.1409604, 59.9879332 ], [ 30.1408638, 59.9879681 ], [ 30.1408746, 59.9880325 ], [ 30.1406949, 59.9880539 ], [ 30.1406224, 59.9880204 ], [ 30.1404695, 59.9880137 ], [ 30.1404749, 59.9879654 ], [ 30.1404347, 59.9879345 ], [ 30.1401865, 59.9879655 ], [ 30.1401128, 59.9880325 ], [ 30.1400174, 59.9881013 ], [ 30.1395578, 59.9881239 ], [ 30.1388763, 59.9880338 ], [ 30.1383117, 59.9880781 ], [ 30.1377819, 59.988376 ], [ 30.1373727, 59.9884294 ], [ 30.136913, 59.9885183 ], [ 30.1363757, 59.9886222 ], [ 30.1352258, 59.988714 ], [ 30.134684, 59.9887703 ], [ 30.1344534, 59.9888066 ], [ 30.1340122, 59.9888044 ], [ 30.133697, 59.9887838 ], [ 30.133469, 59.988659 ], [ 30.1332383, 59.9886523 ], [ 30.1330599, 59.9886335 ], [ 30.1328333, 59.9885745 ], [ 30.1327019, 59.9885383 ], [ 30.1325248, 59.9885503 ], [ 30.1323871, 59.9886168 ], [ 30.1319508, 59.9886262 ], [ 30.131586, 59.9887503 ], [ 30.1310239, 59.9888063 ], [ 30.1304059, 59.988655 ], [ 30.1302396, 59.9885342 ], [ 30.1300384, 59.9884309 ], [ 30.1298225, 59.9884189 ], [ 30.1294708, 59.9884994 ], [ 30.1293169, 59.9884833 ], [ 30.1290998, 59.9884408 ], [ 30.1286665, 59.988496 ], [ 30.1284076, 59.9885302 ], [ 30.128317, 59.9884983 ], [ 30.1282811, 59.9883984 ], [ 30.1280209, 59.988398 ], [ 30.1278333, 59.9884382 ], [ 30.1278162, 59.9885635 ], [ 30.127151, 59.9886449 ], [ 30.1267281, 59.9887683 ], [ 30.1256594, 59.9890153 ], [ 30.125075, 59.9891232 ], [ 30.1244735, 59.9892062 ], [ 30.1222975, 59.9896239 ], [ 30.1217075, 59.9897913 ], [ 30.120987, 59.9899199 ], [ 30.120302, 59.989904 ], [ 30.1196648, 59.9899682 ], [ 30.1190789, 59.9899221 ], [ 30.1185122, 59.989907 ], [ 30.1179349, 59.9898637 ], [ 30.1172544, 59.9897514 ], [ 30.1169704, 59.9896745 ], [ 30.1167482, 59.9896491 ], [ 30.1162769, 59.9896258 ], [ 30.115934, 59.9896377 ], [ 30.1158486, 59.9896945 ], [ 30.1157056, 59.989746 ], [ 30.1154406, 59.989748 ], [ 30.115222, 59.9898011 ], [ 30.114853, 59.9898567 ], [ 30.1144693, 59.9898033 ], [ 30.1141979, 59.9898245 ], [ 30.1136298, 59.9896863 ], [ 30.1129839, 59.9895963 ], [ 30.1121993, 59.9895697 ], [ 30.1117074, 59.9895531 ], [ 30.111115, 59.9895483 ], [ 30.1106353, 59.9895706 ], [ 30.1102836, 59.9895976 ], [ 30.1101458, 59.9896571 ], [ 30.1100831, 59.9897258 ], [ 30.1094972, 59.9897329 ], [ 30.1080267, 59.9898732 ], [ 30.1076105, 59.989957 ], [ 30.1073872, 59.989963 ], [ 30.1070886, 59.9899412 ], [ 30.1067768, 59.9898727 ], [ 30.1062933, 59.9899177 ], [ 30.1056944, 59.9898806 ], [ 30.105435, 59.9899304 ], [ 30.1046138, 59.990282 ], [ 30.1039134, 59.990436 ], [ 30.1033511, 59.9906315 ], [ 30.102722, 59.9909372 ], [ 30.1015966, 59.9911847 ], [ 30.1012325, 59.9913286 ], [ 30.1009227, 59.9913661 ], [ 30.1005695, 59.9913386 ], [ 30.1001143, 59.9912667 ], [ 30.0998569, 59.9912227 ], [ 30.0995952, 59.9910992 ], [ 30.0997184, 59.9907993 ], [ 30.0994522, 59.990596 ], [ 30.0994992, 59.9905463 ], [ 30.0993933, 59.9904962 ], [ 30.0992197, 59.9905068 ], [ 30.0989297, 59.9906072 ], [ 30.0988421, 59.9907425 ], [ 30.0989477, 59.9909777 ], [ 30.0987182, 59.9909945 ], [ 30.0985032, 59.9909547 ], [ 30.0978959, 59.9907027 ], [ 30.0971878, 59.9904758 ], [ 30.0971467, 59.9904804 ], [ 30.0970633, 59.9905264 ], [ 30.0970164, 59.9905566 ], [ 30.0970244, 59.9905949 ], [ 30.0972578, 59.9907196 ], [ 30.0979817, 59.9909947 ], [ 30.0980019, 59.9911594 ], [ 30.0979318, 59.9911814 ], [ 30.0976048, 59.9911642 ], [ 30.0974399, 59.9911978 ], [ 30.0974485, 59.9913705 ], [ 30.0977974, 59.9913112 ], [ 30.098094, 59.9913171 ], [ 30.0982601, 59.991401 ], [ 30.0981287, 59.9915309 ], [ 30.0982718, 59.9916375 ], [ 30.0982043, 59.9918067 ], [ 30.0983086, 59.9919176 ], [ 30.0983159, 59.9920181 ], [ 30.0981818, 59.9922086 ], [ 30.0979659, 59.9923092 ], [ 30.0977433, 59.9923864 ], [ 30.0975599, 59.9923937 ], [ 30.0974469, 59.9923803 ], [ 30.0973117, 59.9923427 ], [ 30.0972162, 59.9922046 ], [ 30.0970794, 59.9920792 ], [ 30.0969239, 59.9919175 ], [ 30.0968715, 59.9918051 ], [ 30.096942, 59.9916178 ], [ 30.096765, 59.9914307 ], [ 30.0960377, 59.9915075 ], [ 30.0956351, 59.991998 ], [ 30.0952166, 59.9926365 ], [ 30.0951227, 59.9928116 ], [ 30.0950074, 59.9929638 ], [ 30.0947875, 59.9930899 ], [ 30.0935993, 59.9935446 ], [ 30.0922903, 59.9938974 ], [ 30.0914347, 59.9940933 ], [ 30.0908366, 59.9941644 ], [ 30.0902331, 59.9942126 ], [ 30.0894392, 59.9942086 ], [ 30.0887176, 59.9941939 ], [ 30.0883555, 59.9941214 ], [ 30.0880337, 59.9941281 ], [ 30.0877252, 59.994214 ], [ 30.0874409, 59.9942569 ], [ 30.0869983, 59.9942958 ], [ 30.086368, 59.9943293 ], [ 30.0860971, 59.9943682 ], [ 30.0857484, 59.9944045 ], [ 30.0854132, 59.9944433 ], [ 30.0849277, 59.9944501 ], [ 30.084241, 59.9944648 ], [ 30.0835893, 59.9943562 ], [ 30.0827739, 59.9943682 ], [ 30.0820953, 59.9944353 ], [ 30.0814354, 59.9944997 ], [ 30.0809044, 59.9945493 ], [ 30.0803143, 59.994607 ], [ 30.0798583, 59.9946727 ], [ 30.0788337, 59.9948364 ], [ 30.0783241, 59.9949303 ], [ 30.0779003, 59.9950563 ], [ 30.0774121, 59.9951395 ], [ 30.0767523, 59.9953031 ], [ 30.0760978, 59.9954829 ], [ 30.07532, 59.995625 ], [ 30.0743866, 59.995837 ], [ 30.072965, 59.9961052 ], [ 30.071125, 59.9963225 ], [ 30.0694513, 59.9965639 ], [ 30.0682712, 59.9967034 ], [ 30.0671822, 59.996808 ], [ 30.066179, 59.9968402 ], [ 30.065605, 59.9968268 ], [ 30.065015, 59.9967893 ], [ 30.0644785, 59.9967276 ], [ 30.0639152, 59.9966873 ], [ 30.0634056, 59.9965854 ], [ 30.062837, 59.9965103 ], [ 30.0615442, 59.9964378 ], [ 30.0611043, 59.9964459 ], [ 30.0608307, 59.9964835 ], [ 30.0601709, 59.9967141 ], [ 30.0590122, 59.9972319 ], [ 30.0586474, 59.9974143 ], [ 30.0581914, 59.9975242 ], [ 30.0570917, 59.9977254 ], [ 30.0563246, 59.9978595 ], [ 30.0551659, 59.9980446 ], [ 30.0536156, 59.9982136 ], [ 30.0522315, 59.9982485 ], [ 30.051561, 59.9982029 ], [ 30.0509977, 59.9981626 ], [ 30.0504291, 59.9981305 ], [ 30.0486857, 59.9981305 ], [ 30.0470442, 59.9982351 ], [ 30.0459015, 59.9982646 ], [ 30.045011, 59.9983611 ], [ 30.0442332, 59.9983182 ], [ 30.0433803, 59.9980366 ], [ 30.0422859, 59.9977683 ], [ 30.0415349, 59.9976396 ], [ 30.0408751, 59.9975819 ], [ 30.0401884, 59.9976168 ], [ 30.0397888, 59.9976221 ], [ 30.0394803, 59.9976812 ], [ 30.0390646, 59.9977214 ], [ 30.038453, 59.9978019 ], [ 30.037985, 59.9978495 ], [ 30.0376229, 59.9978857 ], [ 30.0371669, 59.9979367 ], [ 30.0365943, 59.997995 ], [ 30.0360082, 59.9980936 ], [ 30.0355281, 59.9981613 ], [ 30.0350547, 59.9981948 ], [ 30.0347865, 59.9982029 ], [ 30.0345612, 59.9981787 ], [ 30.0344056, 59.9981626 ], [ 30.0340033, 59.9980661 ], [ 30.033617, 59.9979776 ], [ 30.0332951, 59.997822 ], [ 30.0329304, 59.9976342 ], [ 30.0328231, 59.9974679 ], [ 30.0327372, 59.9972077 ], [ 30.032587, 59.9970226 ], [ 30.032351, 59.9969448 ], [ 30.032056, 59.9969824 ], [ 30.0316805, 59.9971111 ], [ 30.0313801, 59.9971755 ], [ 30.0309241, 59.997256 ], [ 30.0303394, 59.9972909 ], [ 30.0298566, 59.9973016 ], [ 30.029403, 59.9973 ], [ 30.0286549, 59.9972748 ], [ 30.0275981, 59.9972962 ], [ 30.0271368, 59.9972775 ], [ 30.0266057, 59.9972426 ], [ 30.0261873, 59.9972158 ], [ 30.0255972, 59.9971997 ], [ 30.0251895, 59.9971889 ], [ 30.02424, 59.9971541 ], [ 30.0236231, 59.9971353 ], [ 30.0231779, 59.9971728 ], [ 30.0224215, 59.9972024 ], [ 30.021987, 59.9971514 ], [ 30.0215793, 59.9970736 ], [ 30.021193, 59.9970039 ], [ 30.0208551, 59.9968912 ], [ 30.0204742, 59.99669 ], [ 30.0202328, 59.9964352 ], [ 30.0199163, 59.9962581 ], [ 30.01966, 59.9961 ], [ 30.0194466, 59.9960039 ], [ 30.01888, 59.99599 ], [ 30.018348, 59.995888 ], [ 30.0177729, 59.9958966 ], [ 30.017297, 59.9958164 ], [ 30.0170155, 59.9957726 ], [ 30.0169887, 59.9957545 ], [ 30.0171912, 59.9955519 ], [ 30.0173199, 59.9954292 ], [ 30.0173588, 59.9953749 ], [ 30.0174326, 59.9952884 ], [ 30.0176176, 59.9951569 ], [ 30.017686, 59.9951261 ], [ 30.0177585, 59.9951133 ], [ 30.0178121, 59.9950832 ], [ 30.0178926, 59.9950382 ], [ 30.017969, 59.9949846 ], [ 30.0180253, 59.9949437 ], [ 30.0180736, 59.9949175 ], [ 30.0181393, 59.9948639 ], [ 30.018193, 59.9948156 ], [ 30.0182922, 59.9947552 ], [ 30.0183257, 59.9947425 ], [ 30.0183848, 59.9947062 ], [ 30.018425, 59.994662 ], [ 30.0184263, 59.9946399 ], [ 30.0185215, 59.9945929 ], [ 30.0185873, 59.9945419 ], [ 30.0187522, 59.9944742 ], [ 30.0188783, 59.9943984 ], [ 30.019231, 59.9942173 ], [ 30.0192498, 59.9941945 ], [ 30.0191773, 59.9942039 ], [ 30.0190781, 59.9942334 ], [ 30.0190057, 59.994279 ], [ 30.0189815, 59.9943099 ], [ 30.0189359, 59.9943387 ], [ 30.018885, 59.9943588 ], [ 30.0187978, 59.9943897 ], [ 30.0187522, 59.9944085 ], [ 30.0184706, 59.9945513 ], [ 30.018374, 59.994607 ], [ 30.0183029, 59.9946405 ], [ 30.0182345, 59.9946741 ], [ 30.0182118, 59.9946982 ], [ 30.0181688, 59.9947136 ], [ 30.0180709, 59.9947881 ], [ 30.017969, 59.9948632 ], [ 30.0178738, 59.9949195 ], [ 30.0177477, 59.9949873 ], [ 30.0175318, 59.9951207 ], [ 30.0173293, 59.9952723 ], [ 30.0170742, 59.9954929 ], [ 30.0170302, 59.9955305 ], [ 30.0170061, 59.9955472 ], [ 30.0169685, 59.9956029 ], [ 30.0169162, 59.9956391 ], [ 30.0168545, 59.9957382 ], [ 30.0167392, 59.9958443 ], [ 30.0166494, 59.9959007 ], [ 30.016585, 59.9959436 ], [ 30.0165179, 59.9959765 ], [ 30.0165153, 59.9960006 ], [ 30.016475, 59.9960321 ], [ 30.01642, 59.996073 ], [ 30.0163664, 59.9961253 ], [ 30.0161652, 59.996289 ], [ 30.0160539, 59.9964177 ], [ 30.0159855, 59.9964915 ], [ 30.0159386, 59.99657 ], [ 30.0158192, 59.9967175 ], [ 30.0156529, 59.996863 ], [ 30.0155658, 59.9969354 ], [ 30.0154719, 59.9970159 ], [ 30.0153995, 59.9970837 ], [ 30.0152305, 59.9971755 ], [ 30.0150534, 59.997258 ], [ 30.0149126, 59.9973264 ], [ 30.0148496, 59.9973532 ], [ 30.0147074, 59.9974183 ], [ 30.0146149, 59.997482 ], [ 30.0145331, 59.9975276 ], [ 30.0144285, 59.997604 ], [ 30.0142206, 59.9978066 ], [ 30.0141455, 59.9979065 ], [ 30.0140771, 59.9979668 ], [ 30.0140047, 59.9980728 ], [ 30.0139242, 59.998225 ], [ 30.0139095, 59.9982525 ], [ 30.0138907, 59.9982894 ], [ 30.0138625, 59.998288 ], [ 30.013833, 59.9982994 ], [ 30.013825, 59.998331 ], [ 30.013829, 59.998345 ], [ 30.0138451, 59.9983524 ], [ 30.0138438, 59.9983638 ], [ 30.0138706, 59.9984121 ], [ 30.0139149, 59.9984215 ], [ 30.0139363, 59.9984502 ], [ 30.013935, 59.9986649 ], [ 30.0139524, 59.9987347 ], [ 30.0139658, 59.9988292 ], [ 30.0139685, 59.9988916 ], [ 30.0139739, 59.998964 ], [ 30.0139819, 59.9990049 ], [ 30.0140154, 59.9990632 ], [ 30.0140825, 59.9991779 ], [ 30.0141473, 59.9992119 ], [ 30.0141455, 59.9992248 ], [ 30.0141697, 59.9992919 ], [ 30.0142281, 59.9993361 ], [ 30.0142743, 59.9993811 ], [ 30.0143279, 59.9993824 ], [ 30.0143936, 59.9993918 ], [ 30.0144593, 59.9994441 ], [ 30.0145036, 59.999485 ], [ 30.0145948, 59.9995554 ], [ 30.0146484, 59.9995655 ], [ 30.0148563, 59.9994998 ], [ 30.0150213, 59.9994636 ], [ 30.0151151, 59.9994555 ], [ 30.0153029, 59.9994213 ], [ 30.0155041, 59.9993945 ], [ 30.0157428, 59.9993623 ], [ 30.0158098, 59.9993596 ], [ 30.0158809, 59.9993777 ], [ 30.0159453, 59.999418 ], [ 30.0160624, 59.999598 ], [ 30.016081, 59.9996373 ], [ 30.0160044, 59.9996228 ], [ 30.0159609, 59.9996197 ], [ 30.0154951, 59.9997046 ], [ 30.015551, 59.9997595 ], [ 30.0148086, 59.9999823 ], [ 30.014650243260196, 60.0 ], [ 35.0, 60.0 ], [ 35.0, 55.0 ], [ 30.0, 55.0 ], [ 30.0, 59.868059767601018 ], [ 30.0001851, 59.8679436 ] ] ], [ [ [ 30.0141201, 59.9999165 ], [ 30.014061, 59.9998002 ], [ 30.0140034, 59.99966 ], [ 30.0139698, 59.9995809 ], [ 30.0139229, 59.9995172 ], [ 30.0138585, 59.999416 ], [ 30.0137003, 59.9991095 ], [ 30.0136507, 59.9989687 ], [ 30.0136346, 59.9989191 ], [ 30.0136439, 59.998789 ], [ 30.0136332, 59.9986911 ], [ 30.0136507, 59.9985422 ], [ 30.01366, 59.998453 ], [ 30.0136185, 59.9984242 ], [ 30.0135501, 59.9984704 ], [ 30.0134777, 59.9986676 ], [ 30.0134951, 59.9987266 ], [ 30.0134736, 59.9987903 ], [ 30.0134857, 59.9989244 ], [ 30.0135313, 59.9991162 ], [ 30.0136855, 59.9994166 ], [ 30.0137553, 59.999542 ], [ 30.0138371, 59.9996641 ], [ 30.0138679, 59.9997506 ], [ 30.0139765, 59.999939 ], [ 30.014004138836775, 60.0 ], [ 30.0141869, 60.0 ], [ 30.0141201, 59.9999165 ] ] ], [ [ [ 30.01353, 59.9998404 ], [ 30.0134817, 59.9997325 ], [ 30.0134186, 59.9995648 ], [ 30.0134012, 59.9994374 ], [ 30.0133422, 59.9993268 ], [ 30.0132725, 59.9992061 ], [ 30.0131799, 59.9990626 ], [ 30.0131276, 59.9989479 ], [ 30.0130874, 59.9987923 ], [ 30.0130954, 59.9986837 ], [ 30.013133, 59.9985395 ], [ 30.0137687, 59.9979011 ], [ 30.0139242, 59.9977683 ], [ 30.0140315, 59.9976409 ], [ 30.0151379, 59.9969352 ], [ 30.0165455, 59.9956047 ], [ 30.0166314, 59.9954673 ], [ 30.0162537, 59.9952313 ], [ 30.0166829, 59.9949609 ], [ 30.0182192, 59.9943085 ], [ 30.01843, 59.99382 ], [ 30.01815, 59.99358 ], [ 30.0189574, 59.9938148 ], [ 30.0199616, 59.993523 ], [ 30.0201075, 59.9934071 ], [ 30.0198758, 59.9932482 ], [ 30.0186999, 59.9931366 ], [ 30.01761, 59.9932 ], [ 30.0171034, 59.9935487 ], [ 30.0171464, 59.994008 ], [ 30.0164168, 59.9940295 ], [ 30.0160306, 59.9942011 ], [ 30.0158417, 59.9941453 ], [ 30.0151906, 59.9941052 ], [ 30.0146, 59.99391 ], [ 30.0139289, 59.9937645 ], [ 30.0136363, 59.9931673 ], [ 30.0133892, 59.99278 ], [ 30.0130461, 59.9926588 ], [ 30.012357, 59.9927632 ], [ 30.011841, 59.9927467 ], [ 30.0113883, 59.9927038 ], [ 30.0110965, 59.9927649 ], [ 30.0109087, 59.9929291 ], [ 30.0106373, 59.993052 ], [ 30.0102125, 59.9931543 ], [ 30.010074, 59.9932892 ], [ 30.0100558, 59.9936052 ], [ 30.009765, 59.9938622 ], [ 30.0098122, 59.9940816 ], [ 30.0098562, 59.9943252 ], [ 30.0101641, 59.9945704 ], [ 30.0113379, 59.9951611 ], [ 30.0127122, 59.9954643 ], [ 30.0122969, 59.9965489 ], [ 30.0128977, 59.9971841 ], [ 30.0121768, 59.9975704 ], [ 30.0116618, 59.9979996 ], [ 30.0115073, 59.9982786 ], [ 30.0116789, 59.9984932 ], [ 30.0106061, 59.9988064 ], [ 30.008692, 59.9988236 ], [ 30.0081664, 59.9989493 ], [ 30.0071472, 59.9985378 ], [ 30.006291, 59.9985266 ], [ 30.0058415, 59.9987149 ], [ 30.0054638, 59.9987658 ], [ 30.0051044, 59.9989359 ], [ 30.0049769, 59.9993397 ], [ 30.0051079, 59.9996544 ], [ 30.0055028, 59.9997567 ], [ 30.006054004417472, 60.0 ], [ 30.013595621698112, 60.0 ], [ 30.01353, 59.9998404 ] ] ] ] } },
{ "type": "Feature", "properties": { "FID": 123914, "id": 1519, "left": 30.0, "top": 60.0, "right": 35.0, "bottom": 55.0, "row_index": 6, "col_index": 42, "min_lon": 30.0, "min_lat": 55.0, "tile_id": "30_55" }, "geometry": { "type": "MultiPolygon", "coordinates": [ [ [ [ 30.2190784, 59.9093811 ], [ 30.2178365, 59.9079933 ], [ 30.2175415, 59.9075495 ], [ 30.2171879, 59.9072407 ], [ 30.2167493, 59.9068481 ], [ 30.2165645, 59.9066319 ], [ 30.2164397, 59.9065947 ], [ 30.2162942, 59.9064755 ], [ 30.2161927, 59.9063454 ], [ 30.2161872, 59.9062679 ], [ 30.2163711, 59.9060242 ], [ 30.2163986, 59.9059375 ], [ 30.2163656, 59.9058548 ], [ 30.216322, 59.9058243 ], [ 30.2161866, 59.9057928 ], [ 30.2160207, 59.9057728 ], [ 30.215853, 59.9057661 ], [ 30.2157739, 59.9057924 ], [ 30.2156331, 59.9058832 ], [ 30.2154762, 59.9060002 ], [ 30.2147171, 59.9060889 ], [ 30.2079361, 59.9080965 ], [ 30.2074, 59.908308 ], [ 30.2072552, 59.9085218 ], [ 30.2072498, 59.9089804 ], [ 30.2074322, 59.9092641 ], [ 30.2128959, 59.9152048 ], [ 30.2134618, 59.9158569 ], [ 30.2137864, 59.9161137 ], [ 30.2140358, 59.9162213 ], [ 30.2143201, 59.9162697 ], [ 30.2148297, 59.9162535 ], [ 30.2151382, 59.916228 ], [ 30.2155593, 59.9161473 ], [ 30.2221307, 59.9146495 ], [ 30.2222699, 59.9146587 ], [ 30.2232277, 59.9144519 ], [ 30.2239466, 59.9142018 ], [ 30.224424, 59.9139934 ], [ 30.2245554, 59.9135631 ], [ 30.2246493, 59.9135308 ], [ 30.2246842, 59.9134179 ], [ 30.2245393, 59.9132606 ], [ 30.224365, 59.9131987 ], [ 30.2241397, 59.9131758 ], [ 30.2238688, 59.9131382 ], [ 30.2235845, 59.9129876 ], [ 30.2234504, 59.9128733 ], [ 30.2233511, 59.9128289 ], [ 30.2231473, 59.9128007 ], [ 30.2223557, 59.9124643 ], [ 30.222128, 59.9123382 ], [ 30.2216989, 59.9121835 ], [ 30.2216117, 59.9121109 ], [ 30.2214803, 59.9118965 ], [ 30.2211611, 59.9115844 ], [ 30.2210388, 59.911452 ], [ 30.2208281, 59.9112239 ], [ 30.2199956, 59.9103225 ], [ 30.219891, 59.910344 ], [ 30.2190784, 59.9093811 ] ] ] ] } },
{ "type": "Feature", "properties": { "FID": 147764, "id": 1519, "left": 30.0, "top": 60.0, "right": 35.0, "bottom": 55.0, "row_index": 6, "col_index": 42, "min_lon": 30.0, "min_lat": 55.0, "tile_id": "30_55" }, "geometry": { "type": "MultiPolygon", "coordinates": [ [ [ [ 30.1156055, 59.8995507 ], [ 30.1156272, 59.8994848 ], [ 30.115653, 59.8994407 ], [ 30.1155937, 59.8994259 ], [ 30.1154396, 59.8994794 ], [ 30.1154001, 59.899521 ], [ 30.1153506, 59.8995745 ], [ 30.1154514, 59.899631 ], [ 30.1155105, 59.8996184 ], [ 30.1155703, 59.8995902 ], [ 30.1156055, 59.8995507 ] ] ] ] } },
{ "type": "Feature", "properties": { "FID": 147765, "id": 1519, "left": 30.0, "top": 60.0, "right": 35.0, "bottom": 55.0, "row_index": 6, "col_index": 42, "min_lon": 30.0, "min_lat": 55.0, "tile_id": "30_55" }, "geometry": { "type": "MultiPolygon", "coordinates": [ [ [ [ 30.1000715, 59.9028583 ], [ 30.1001083, 59.9028479 ], [ 30.1001167, 59.9028362 ], [ 30.1000949, 59.9028291 ], [ 30.1000661, 59.9028233 ], [ 30.0999534, 59.9028085 ], [ 30.0998678, 59.9028115 ], [ 30.0997247, 59.902834 ], [ 30.0996101, 59.9028704 ], [ 30.0995591, 59.9028973 ], [ 30.0995082, 59.9029108 ], [ 30.0994491, 59.9029094 ], [ 30.0993544, 59.9029101 ], [ 30.0992378, 59.9029443 ], [ 30.0991568, 59.9029942 ], [ 30.0991246, 59.9030264 ], [ 30.0991953, 59.9030355 ], [ 30.0993292, 59.9030278 ], [ 30.0995202, 59.9029766 ], [ 30.0996244, 59.9029524 ], [ 30.0997389, 59.9029363 ], [ 30.0999483, 59.9028963 ], [ 30.1000715, 59.9028583 ] ] ] ] } },
{ "type": "Feature", "properties": { "FID": 147766, "id": 1519, "left": 30.0, "top": 60.0, "right": 35.0, "bottom": 55.0, "row_index": 6, "col_index": 42, "min_lon": 30.0, "min_lat": 55.0, "tile_id": "30_55" }, "geometry": { "type": "MultiPolygon", "coordinates": [ [ [ [ 30.1127905, 59.8977232 ], [ 30.1126322, 59.8977421 ], [ 30.1125245, 59.8977546 ], [ 30.1124501, 59.8977859 ], [ 30.1124621, 59.8977972 ], [ 30.1125022, 59.8978184 ], [ 30.1125866, 59.8978171 ], [ 30.112686, 59.8978162 ], [ 30.1127969, 59.8978139 ], [ 30.1128292, 59.8978233 ], [ 30.1128633, 59.8978075 ], [ 30.1129246, 59.8977932 ], [ 30.1129702, 59.897769 ], [ 30.1129997, 59.8977286 ], [ 30.1129166, 59.8977017 ], [ 30.1127905, 59.8977232 ] ] ] ] } },
{ "type": "Feature", "properties": { "FID": 263607, "id": 1519, "left": 30.0, "top": 60.0, "right": 35.0, "bottom": 55.0, "row_index": 6, "col_index": 42, "min_lon": 30.0, "min_lat": 55.0, "tile_id": "30_55" }, "geometry": { "type": "MultiPolygon", "coordinates": [ [ [ [ 30.1246513, 59.8650546 ], [ 30.1244769, 59.8650384 ], [ 30.1242388, 59.8650501 ], [ 30.1242656, 59.8651026 ], [ 30.1244313, 59.8650923 ], [ 30.1246432, 59.8651125 ], [ 30.1246513, 59.8650546 ] ] ] ] } },
{ "type": "Feature", "properties": { "FID": 477158, "id": 1519, "left": 30.0, "top": 60.0, "right": 35.0, "bottom": 55.0, "row_index": 6, "col_index": 42, "min_lon": 30.0, "min_lat": 55.0, "tile_id": "30_55" }, "geometry": { "type": "MultiPolygon", "coordinates": [ [ [ [ 30.1542217, 59.889381 ], [ 30.1542587, 59.88937 ], [ 30.1542791, 59.8893611 ], [ 30.1542963, 59.8893479 ], [ 30.154299, 59.8893366 ], [ 30.1542851, 59.8893285 ], [ 30.1542705, 59.8893228 ], [ 30.1542485, 59.8893261 ], [ 30.1542394, 59.8893306 ], [ 30.154226, 59.8893349 ], [ 30.1541991, 59.8893312 ], [ 30.1541964, 59.8893269 ], [ 30.154197, 59.889318 ], [ 30.1541889, 59.8893069 ], [ 30.1541674, 59.8893056 ], [ 30.1541631, 59.8893131 ], [ 30.1541685, 59.8893201 ], [ 30.1541706, 59.8893298 ], [ 30.1541653, 59.8893347 ], [ 30.1541486, 59.8893363 ], [ 30.1541389, 59.8893425 ], [ 30.1541309, 59.8893557 ], [ 30.1541099, 59.8893573 ], [ 30.154096, 59.8893635 ], [ 30.1540696, 59.8893724 ], [ 30.1540906, 59.8893816 ], [ 30.1541024, 59.8893832 ], [ 30.154133, 59.8893843 ], [ 30.1541626, 59.889384 ], [ 30.1541878, 59.8893859 ], [ 30.1542217, 59.889381 ] ] ] ] } },
{ "type": "Feature", "properties": { "FID": 481334, "id": 1519, "left": 30.0, "top": 60.0, "right": 35.0, "bottom": 55.0, "row_index": 6, "col_index": 42, "min_lon": 30.0, "min_lat": 55.0, "tile_id": "30_55" }, "geometry": { "type": "MultiPolygon", "coordinates": [ [ [ [ 30.1504407, 59.8925806 ], [ 30.1504675, 59.8925672 ], [ 30.1504916, 59.8925591 ], [ 30.1504863, 59.8925349 ], [ 30.1504407, 59.8925281 ], [ 30.1503709, 59.8925389 ], [ 30.1502958, 59.8925362 ], [ 30.1502046, 59.8925577 ], [ 30.1501617, 59.8925981 ], [ 30.1502529, 59.8926196 ], [ 30.1503387, 59.8926143 ], [ 30.1504246, 59.8925927 ], [ 30.1504407, 59.8925806 ] ] ] ] } },
{ "type": "Feature", "properties": { "FID": 481335, "id": 1519, "left": 30.0, "top": 60.0, "right": 35.0, "bottom": 55.0, "row_index": 6, "col_index": 42, "min_lon": 30.0, "min_lat": 55.0, "tile_id": "30_55" }, "geometry": { "type": "MultiPolygon", "coordinates": [ [ [ [ 30.0957732, 59.9036526 ], [ 30.0956096, 59.9036754 ], [ 30.0955219, 59.9036802 ], [ 30.0954137, 59.9036738 ], [ 30.0952971, 59.9037043 ], [ 30.0947929, 59.903816 ], [ 30.0946695, 59.9038375 ], [ 30.0946373, 59.9038133 ], [ 30.0921702, 59.9043515 ], [ 30.0920812, 59.9043936 ], [ 30.0920594, 59.9044523 ], [ 30.0920847, 59.9045317 ], [ 30.0921697, 59.9045819 ], [ 30.0922219, 59.9045911 ], [ 30.0922776, 59.9045987 ], [ 30.092403, 59.9046035 ], [ 30.0925324, 59.9045861 ], [ 30.092644, 59.9045581 ], [ 30.0934102, 59.9043658 ], [ 30.093669, 59.9042982 ], [ 30.0942482, 59.9041687 ], [ 30.0952108, 59.903946 ], [ 30.0955332, 59.9038738 ], [ 30.0957956, 59.903814 ], [ 30.0961876, 59.9037285 ], [ 30.0968216, 59.9035813 ], [ 30.0977981, 59.903341 ], [ 30.0975139, 59.9033176 ], [ 30.0966184, 59.9034596 ], [ 30.0964125, 59.90341 ], [ 30.0957732, 59.9036526 ] ] ] ] } },
{ "type": "Feature", "properties": { "FID": 481336, "id": 1519, "left": 30.0, "top": 60.0, "right": 35.0, "bottom": 55.0, "row_index": 6, "col_index": 42, "min_lon": 30.0, "min_lat": 55.0, "tile_id": "30_55" }, "geometry": { "type": "MultiPolygon", "coordinates": [ [ [ [ 30.1101333, 59.9007445 ], [ 30.1102006, 59.9006978 ], [ 30.1101861, 59.9006604 ], [ 30.1101261, 59.9006539 ], [ 30.1100385, 59.9006658 ], [ 30.1099598, 59.9006644 ], [ 30.1098749, 59.9006591 ], [ 30.1098132, 59.900647 ], [ 30.1097557, 59.9006278 ], [ 30.109655, 59.9006187 ], [ 30.1095693, 59.9006273 ], [ 30.109435, 59.9006779 ], [ 30.1092902, 59.9007129 ], [ 30.1092014, 59.9007419 ], [ 30.1090809, 59.9007904 ], [ 30.1090442, 59.9008297 ], [ 30.1090304, 59.9008617 ], [ 30.1090904, 59.9008763 ], [ 30.1091494, 59.9008696 ], [ 30.1092057, 59.9008521 ], [ 30.1092486, 59.9008266 ], [ 30.1092969, 59.9008104 ], [ 30.1092969, 59.9008346 ], [ 30.1092459, 59.9008629 ], [ 30.1091843, 59.9008925 ], [ 30.1091413, 59.9009167 ], [ 30.1091494, 59.9009476 ], [ 30.1092138, 59.9009651 ], [ 30.1092687, 59.9009739 ], [ 30.1094243, 59.900951 ], [ 30.1095272, 59.9009264 ], [ 30.1096499, 59.9008875 ], [ 30.1097326, 59.9008645 ], [ 30.1099098, 59.9008151 ], [ 30.1101333, 59.9007445 ] ] ] ] } },
{ "type": "Feature", "properties": { "FID": 481406, "id": 1519, "left": 30.0, "top": 60.0, "right": 35.0, "bottom": 55.0, "row_index": 6, "col_index": 42, "min_lon": 30.0, "min_lat": 55.0, "tile_id": "30_55" }, "geometry": { "type": "MultiPolygon", "coordinates": [ [ [ [ 30.1052755, 59.8977776 ], [ 30.1042968, 59.8979808 ], [ 30.1037049, 59.8980776 ], [ 30.1023452, 59.8983697 ], [ 30.1013804, 59.8985653 ], [ 30.1010764, 59.8986337 ], [ 30.1006229, 59.8987249 ], [ 30.1000242, 59.8988262 ], [ 30.0991702, 59.8989945 ], [ 30.0985488, 59.8991464 ], [ 30.098261, 59.8992272 ], [ 30.0980652, 59.8992998 ], [ 30.0978546, 59.8994135 ], [ 30.0977454, 59.89953 ], [ 30.0976713, 59.899606 ], [ 30.0974207, 59.899863 ], [ 30.0971181, 59.9001963 ], [ 30.0968939, 59.9004401 ], [ 30.0966388, 59.9007087 ], [ 30.0962982, 59.9010431 ], [ 30.0962542, 59.9011217 ], [ 30.0962708, 59.9011682 ], [ 30.0963244, 59.9012099 ], [ 30.0963969, 59.90124 ], [ 30.0964746, 59.9012557 ], [ 30.0965551, 59.9012597 ], [ 30.0966275, 59.9012503 ], [ 30.0967033, 59.9012323 ], [ 30.0967536, 59.9012153 ], [ 30.0970575, 59.9008481 ], [ 30.0971693, 59.9007095 ], [ 30.0975004, 59.9003676 ], [ 30.0978946, 59.8998454 ], [ 30.0980464, 59.8996657 ], [ 30.098187, 59.8995411 ], [ 30.0983173, 59.8994491 ], [ 30.0985042, 59.8993733 ], [ 30.0988859, 59.8992796 ], [ 30.0993046, 59.8992335 ], [ 30.1002123, 59.8990738 ], [ 30.1032349, 59.8984387 ], [ 30.1042148, 59.8982449 ], [ 30.1047166, 59.8981341 ], [ 30.105311, 59.8980044 ], [ 30.1056614, 59.898035 ], [ 30.1059359, 59.8980467 ], [ 30.1060377, 59.8979979 ], [ 30.1061521, 59.8979425 ], [ 30.1060903, 59.8978752 ], [ 30.10568, 59.8977891 ], [ 30.1055539, 59.8977703 ], [ 30.1054171, 59.8977636 ], [ 30.1052755, 59.8977776 ] ] ] ] } },
{ "type": "Feature", "properties": { "FID": 688805, "id": 1519, "left": 30.0, "top": 60.0, "right": 35.0, "bottom": 55.0, "row_index": 6, "col_index": 42, "min_lon": 30.0, "min_lat": 55.0, "tile_id": "30_55" }, "geometry": { "type": "MultiPolygon", "coordinates": [ [ [ [ 30.044637, 59.8634997 ], [ 30.0445546, 59.863586 ], [ 30.0446888, 59.8639142 ], [ 30.0447011, 59.864037 ], [ 30.0447832, 59.8648576 ], [ 30.0448817, 59.8649021 ], [ 30.0449714, 59.8649179 ], [ 30.0450673, 59.8649112 ], [ 30.0451359, 59.8648641 ], [ 30.0450309, 59.8641545 ], [ 30.0467776, 59.8639528 ], [ 30.0468626, 59.8639648 ], [ 30.0469406, 59.8639464 ], [ 30.0470009, 59.8639113 ], [ 30.0470005, 59.8638586 ], [ 30.0469352, 59.8638217 ], [ 30.0468279, 59.8638164 ], [ 30.0467504, 59.863844 ], [ 30.0451504, 59.8640045 ], [ 30.0450611, 59.8639762 ], [ 30.0449835, 59.8639326 ], [ 30.0449597, 59.8638604 ], [ 30.0449572, 59.8635799 ], [ 30.0449026, 59.8634999 ], [ 30.0447658, 59.8634858 ], [ 30.044637, 59.8634997 ] ] ] ] } }
]
}
