{
"type": "FeatureCollection",
"name": "30_75",
"crs": { "type": "name", "properties": { "name": "urn:ogc:def:crs:OGC:1.3:CRS84" } },
"xy_coordinate_resolution": 1e-15,
"features": [
{ "type": "Feature", "properties": { "FID": 112158, "id": 1515, "left": 30.0, "top": 80.0, "right": 35.0, "bottom": 75.0, "row_index": 2, "col_index": 42, "min_lon": 30.0, "min_lat": 75.0, "tile_id": "30_75" }, "geometry": { "type": "MultiPolygon", "coordinates": [ [ [ [ 30.1804732, 79.0139293 ], [ 30.2166937, 79.011181 ], [ 30.2450178, 79.0113119 ], [ 30.2937695, 79.011312 ], [ 30.3085325, 79.0120972 ], [ 30.3480145, 79.0154995 ], [ 30.3596876, 79.0171021 ], [ 30.3703306, 79.0193911 ], [ 30.3911017, 79.0155322 ], [ 30.4075812, 79.0128497 ], [ 30.4206274, 79.004733 ], [ 30.402603, 79.0025392 ], [ 30.3799437, 78.9979536 ], [ 30.3672407, 78.9964138 ], [ 30.3456114, 78.9954636 ], [ 30.2961729, 78.9936612 ], [ 30.2669903, 78.9869407 ], [ 30.2342891, 78.9826603 ], [ 30.2309417, 78.9798715 ], [ 30.2289676, 78.9770984 ], [ 30.2244186, 78.9749976 ], [ 30.2144621, 78.9724696 ], [ 30.2252768, 78.9714516 ], [ 30.2338598, 78.9691199 ], [ 30.2280234, 78.9667876 ], [ 30.2184103, 78.9649806 ], [ 30.2046774, 78.9653092 ], [ 30.1955794, 78.9674775 ], [ 30.1954077, 78.9698096 ], [ 30.1745575, 78.9720921 ], [ 30.1600455, 78.9728964 ], [ 30.1362612, 78.9748078 ], [ 30.1099203, 78.9793957 ], [ 30.1059721, 78.9841857 ], [ 30.1042555, 79.0014257 ], [ 30.0905226, 79.0062717 ], [ 30.0661467, 79.0095776 ], [ 30.064945, 79.0118682 ], [ 30.077133, 79.0135368 ], [ 30.1300047, 79.0131442 ], [ 30.1583288, 79.0132096 ], [ 30.1804732, 79.0139293 ] ] ] ] } }
]
}
