{
"type": "FeatureCollection",
"name": "30_80",
"crs": { "type": "name", "properties": { "name": "urn:ogc:def:crs:OGC:1.3:CRS84" } },
"xy_coordinate_resolution": 1e-15,
"features": [
{ "type": "Feature", "properties": { "FID": 336410, "id": 1514, "left": 30.0, "top": 85.0, "right": 35.0, "bottom": 80.0, "row_index": 1, "col_index": 42, "min_lon": 30.0, "min_lat": 80.0, "tile_id": "30_80" }, "geometry": { "type": "MultiPolygon", "coordinates": [ [ [ [ 31.4740463, 80.1179509 ], [ 31.474047, 80.1180145 ], [ 31.474596, 80.1186018 ], [ 31.4749367, 80.1191274 ], [ 31.4759038, 80.1211632 ], [ 31.4762567, 80.1215988 ], [ 31.4767535, 80.1218887 ], [ 31.4773624, 80.1220783 ], [ 31.4781955, 80.1221841 ], [ 31.4793208, 80.1222411 ], [ 31.482084, 80.1223303 ], [ 31.4832134, 80.1223962 ], [ 31.4842548, 80.1224992 ], [ 31.4852082, 80.1226393 ], [ 31.4861857, 80.122833 ], [ 31.4871313, 80.123072 ], [ 31.4893196, 80.1237438 ], [ 31.4901294, 80.1240296 ], [ 31.4922424, 80.1248821 ], [ 31.4931971, 80.1253726 ], [ 31.4934941, 80.1255663 ], [ 31.4938439, 80.125993 ], [ 31.4942894, 80.1262836 ], [ 31.4952561, 80.1266841 ], [ 31.495994, 80.1269258 ], [ 31.4963993, 80.1271271 ], [ 31.4977605, 80.1280525 ], [ 31.4986367, 80.1288316 ], [ 31.4993809, 80.1296663 ], [ 31.5004702, 80.1305683 ], [ 31.501089, 80.1310094 ], [ 31.5024067, 80.1318365 ], [ 31.5030855, 80.1321779 ], [ 31.5045872, 80.1328318 ], [ 31.5052823, 80.1332089 ], [ 31.5058372, 80.1336238 ], [ 31.5063123, 80.1340937 ], [ 31.5067155, 80.1346365 ], [ 31.5070469, 80.1352521 ], [ 31.5073227, 80.1359762 ], [ 31.5078121, 80.1378656 ], [ 31.508213, 80.1387499 ], [ 31.5087619, 80.1394973 ], [ 31.5095229, 80.1401342 ], [ 31.5105164, 80.140705 ], [ 31.5118067, 80.1412359 ], [ 31.5134583, 80.1417531 ], [ 31.5154913, 80.1423011 ], [ 31.5164198, 80.1426122 ], [ 31.51712, 80.1429982 ], [ 31.5175758, 80.1434234 ], [ 31.5177788, 80.14387 ], [ 31.517717, 80.1443111 ], [ 31.5173739, 80.1447111 ], [ 31.5167938, 80.1450513 ], [ 31.5159602, 80.145296 ], [ 31.5150941, 80.1454693 ], [ 31.5144849, 80.1456301 ], [ 31.5140402, 80.1458068 ], [ 31.5137764, 80.1460349 ], [ 31.5137098, 80.1463503 ], [ 31.5138715, 80.1473995 ], [ 31.5143523, 80.1488038 ], [ 31.51468, 80.1492936 ], [ 31.5151075, 80.1496563 ], [ 31.5155825, 80.1498926 ], [ 31.5160489, 80.1499942 ], [ 31.5166109, 80.1499598 ], [ 31.5171601, 80.1497818 ], [ 31.5182409, 80.1491564 ], [ 31.5186259, 80.1490793 ], [ 31.51924, 80.1490442 ], [ 31.5200873, 80.1490599 ], [ 31.5213163, 80.1491064 ], [ 31.5251482, 80.1493338 ], [ 31.528358, 80.1495785 ], [ 31.5312312, 80.1498906 ], [ 31.5338239, 80.1502783 ], [ 31.5359715, 80.1507258 ], [ 31.5377784, 80.1512318 ], [ 31.5391401, 80.1517977 ], [ 31.5401088, 80.1524227 ], [ 31.5406762, 80.153089 ], [ 31.541034, 80.1536414 ], [ 31.5413051, 80.1538893 ], [ 31.5419149, 80.1543035 ], [ 31.5422496, 80.1544608 ], [ 31.5426119, 80.1545638 ], [ 31.5432917, 80.1546715 ], [ 31.5436419, 80.1547476 ], [ 31.5439561, 80.1548603 ], [ 31.5447433, 80.155317 ], [ 31.5451822, 80.1559311 ], [ 31.5454371, 80.1561434 ], [ 31.5458405, 80.1563357 ], [ 31.5463924, 80.156508 ], [ 31.5470969, 80.1566693 ], [ 31.5479541, 80.1568195 ], [ 31.5490202, 80.156967 ], [ 31.552186, 80.1573379 ], [ 31.5536506, 80.1575519 ], [ 31.5541659, 80.1576438 ], [ 31.554468, 80.1577296 ], [ 31.5546535, 80.15779 ], [ 31.5546258, 80.1578443 ], [ 31.5547672, 80.1579233 ], [ 31.555303, 80.1580599 ], [ 31.557445, 80.1584894 ], [ 31.5608146, 80.1590732 ], [ 31.5693821, 80.1604407 ], [ 31.5731436, 80.161073 ], [ 31.5757862, 80.1615586 ], [ 31.5778501, 80.162043 ], [ 31.5803309, 80.1624049 ], [ 31.5824929, 80.1626453 ], [ 31.5849204, 80.1628912 ], [ 31.5862614, 80.1630618 ], [ 31.587619, 80.1632681 ], [ 31.588989, 80.1635012 ], [ 31.5903674, 80.1637521 ], [ 31.5916496, 80.1640224 ], [ 31.5928315, 80.164303 ], [ 31.5950428, 80.1648751 ], [ 31.5963982, 80.1651893 ], [ 31.597967, 80.1655095 ], [ 31.5996446, 80.1658373 ], [ 31.603249, 80.1664625 ], [ 31.6098682, 80.1674601 ], [ 31.6132647, 80.168088 ], [ 31.6168203, 80.1688305 ], [ 31.6202404, 80.1696198 ], [ 31.6233431, 80.1704044 ], [ 31.625894, 80.1711335 ], [ 31.6276588, 80.1717566 ], [ 31.6284804, 80.1722756 ], [ 31.6290763, 80.1725371 ], [ 31.6307559, 80.1730894 ], [ 31.6328959, 80.1737252 ], [ 31.6335967, 80.1739853 ], [ 31.6342536, 80.1742639 ], [ 31.6354188, 80.1748412 ], [ 31.6361573, 80.1754063 ], [ 31.6365086, 80.1759317 ], [ 31.6373623, 80.17663 ], [ 31.6386975, 80.1774566 ], [ 31.6395306, 80.1778856 ], [ 31.6412933, 80.1787243 ], [ 31.6427296, 80.1793158 ], [ 31.6441241, 80.179818 ], [ 31.64559, 80.1802473 ], [ 31.6472613, 80.1806649 ], [ 31.649408, 80.1810849 ], [ 31.6520994, 80.1815424 ], [ 31.6554573, 80.1820716 ], [ 31.6625971, 80.1831332 ], [ 31.6677936, 80.1838708 ], [ 31.672012, 80.184433 ], [ 31.6747384, 80.1847371 ], [ 31.6759809, 80.1848009 ], [ 31.6762639, 80.184842 ], [ 31.6767985, 80.1849695 ], [ 31.6769936, 80.1850477 ], [ 31.677187, 80.1852337 ], [ 31.678536, 80.1857454 ], [ 31.6820082, 80.1863987 ], [ 31.6870507, 80.1871382 ], [ 31.6933285, 80.1879235 ], [ 31.7003408, 80.1886985 ], [ 31.707643, 80.1894155 ], [ 31.7148951, 80.1900252 ], [ 31.7215913, 80.1904627 ], [ 31.7270712, 80.1907821 ], [ 31.7319751, 80.1911094 ], [ 31.7364686, 80.1914604 ], [ 31.7404995, 80.1918358 ], [ 31.7441199, 80.1922347 ], [ 31.7474348, 80.1926559 ], [ 31.7504045, 80.1931268 ], [ 31.757456, 80.1944036 ], [ 31.7625821, 80.1951859 ], [ 31.7682814, 80.1959511 ], [ 31.7743313, 80.1966753 ], [ 31.7805048, 80.1973258 ], [ 31.7864699, 80.1978712 ], [ 31.7920604, 80.198296 ], [ 31.7969923, 80.1985592 ], [ 31.7984336, 80.1987007 ], [ 31.8004294, 80.1990052 ], [ 31.8028007, 80.1994302 ], [ 31.805255, 80.199917 ], [ 31.8076178, 80.200432 ], [ 31.8096531, 80.2009246 ], [ 31.8111205, 80.2013354 ], [ 31.8125309, 80.2019537 ], [ 31.8143528, 80.2023325 ], [ 31.8169877, 80.2027537 ], [ 31.820318, 80.203192 ], [ 31.8241731, 80.2036229 ], [ 31.8283389, 80.2040403 ], [ 31.8326362, 80.2044019 ], [ 31.8421412, 80.2050401 ], [ 31.8471872, 80.2054179 ], [ 31.8514858, 80.2057793 ], [ 31.8532045, 80.2059436 ], [ 31.8567253, 80.2063339 ], [ 31.858886, 80.2065369 ], [ 31.8607448, 80.2066632 ], [ 31.8633118, 80.2067255 ], [ 31.8647858, 80.2068213 ], [ 31.8663431, 80.2069789 ], [ 31.8679705, 80.2071714 ], [ 31.8694494, 80.207384 ], [ 31.8706703, 80.2076093 ], [ 31.8715196, 80.2078309 ], [ 31.8718745, 80.2080146 ], [ 31.8723958, 80.208214 ], [ 31.8737002, 80.208501 ], [ 31.8757223, 80.2088496 ], [ 31.878191, 80.2092459 ], [ 31.881036, 80.2096546 ], [ 31.8840957, 80.2100693 ], [ 31.8871948, 80.2104565 ], [ 31.8912834, 80.2109193 ], [ 31.8933414, 80.2112314 ], [ 31.8943312, 80.211415 ], [ 31.8960049, 80.2118045 ], [ 31.8971449, 80.2121837 ], [ 31.8983204, 80.2126343 ], [ 31.8989777, 80.2127867 ], [ 31.8997179, 80.2128929 ], [ 31.9006023, 80.2129701 ], [ 31.9016834, 80.2130175 ], [ 31.9030707, 80.2130425 ], [ 31.9064094, 80.2130575 ], [ 31.9079106, 80.2130988 ], [ 31.9092676, 80.2131692 ], [ 31.9105988, 80.2132939 ], [ 31.9120092, 80.2134713 ], [ 31.9135033, 80.2137106 ], [ 31.9152476, 80.2140271 ], [ 31.9209813, 80.2151311 ], [ 31.9224189, 80.2153621 ], [ 31.9237203, 80.2155322 ], [ 31.9249381, 80.2156405 ], [ 31.9261291, 80.2156952 ], [ 31.9274073, 80.2157127 ], [ 31.9311884, 80.2156581 ], [ 31.93367, 80.2156492 ], [ 31.9360599, 80.2156686 ], [ 31.9384633, 80.2157147 ], [ 31.9407226, 80.2157899 ], [ 31.9428333, 80.2158852 ], [ 31.9446949, 80.2160111 ], [ 31.9462984, 80.2161496 ], [ 31.9475524, 80.2163293 ], [ 31.948698, 80.2166093 ], [ 31.9498361, 80.2169794 ], [ 31.9509096, 80.2174314 ], [ 31.9518525, 80.2179392 ], [ 31.9526648, 80.2185028 ], [ 31.9533331, 80.2190955 ], [ 31.9542002, 80.2201888 ], [ 31.9545571, 80.2203724 ], [ 31.9549487, 80.2205196 ], [ 31.9554273, 80.2206295 ], [ 31.9560021, 80.2207201 ], [ 31.9566685, 80.2207823 ], [ 31.957488, 80.2208334 ], [ 31.958189, 80.2208592 ], [ 31.9588509, 80.2209125 ], [ 31.9594693, 80.2209844 ], [ 31.9600922, 80.2210653 ], [ 31.9611894, 80.2212471 ], [ 31.9616111, 80.2213489 ], [ 31.9618797, 80.2214619 ], [ 31.9625566, 80.2216498 ], [ 31.9634302, 80.221808 ], [ 31.963882, 80.2218643 ], [ 31.9643774, 80.2219021 ], [ 31.9648683, 80.2219309 ], [ 31.9658231, 80.221935 ], [ 31.9663666, 80.2219631 ], [ 31.9669145, 80.2220001 ], [ 31.967476, 80.2220638 ], [ 31.968042, 80.2221365 ], [ 31.9690823, 80.2223102 ], [ 31.9705056, 80.2226131 ], [ 31.97198, 80.2228075 ], [ 31.9738178, 80.2229875 ], [ 31.9760715, 80.2231525 ], [ 31.9785836, 80.2233046 ], [ 31.981402, 80.2234344 ], [ 31.9844742, 80.2235424 ], [ 31.988931, 80.2236661 ], [ 31.9929946, 80.2238495 ], [ 31.9956257, 80.2240268 ], [ 31.9978891, 80.2242095 ], [ 31.9999968, 80.2245023 ], [ 32.0025722, 80.2249861 ], [ 32.0054307, 80.2256096 ], [ 32.0083259, 80.2263045 ], [ 32.0110157, 80.2270113 ], [ 32.0133198, 80.2276879 ], [ 32.0148815, 80.2282584 ], [ 32.0160067, 80.2289072 ], [ 32.0167741, 80.2291657 ], [ 32.017809, 80.2294293 ], [ 32.0191068, 80.229689 ], [ 32.0204917, 80.2299114 ], [ 32.0218539, 80.2300892 ], [ 32.0231888, 80.2302134 ], [ 32.0254474, 80.2302791 ], [ 32.0270064, 80.230427 ], [ 32.0287643, 80.2306529 ], [ 32.030721, 80.2309568 ], [ 32.0327052, 80.2313143 ], [ 32.0347216, 80.2317342 ], [ 32.036642, 80.2321734 ], [ 32.0392829, 80.2328808 ], [ 32.0410895, 80.2333038 ], [ 32.0429076, 80.2336457 ], [ 32.0437172, 80.2337776 ], [ 32.0444514, 80.2338657 ], [ 32.0457688, 80.2339541 ], [ 32.046766, 80.2340383 ], [ 32.0494947, 80.2342947 ], [ 32.0528046, 80.2346505 ], [ 32.0563527, 80.2350566 ], [ 32.0590088, 80.235377 ], [ 32.0611161, 80.2356605 ], [ 32.0627361, 80.2359243 ], [ 32.0640932, 80.236192 ], [ 32.0651965, 80.2364814 ], [ 32.066117, 80.2368274 ], [ 32.0670171, 80.2372367 ], [ 32.0686255, 80.2380941 ], [ 32.0703322, 80.2388332 ], [ 32.0712577, 80.2391881 ], [ 32.0722312, 80.2395334 ], [ 32.0741805, 80.240125 ], [ 32.0767321, 80.2407525 ], [ 32.0781114, 80.2411637 ], [ 32.0786912, 80.2413619 ], [ 32.0794455, 80.2416924 ], [ 32.0797325, 80.24194 ], [ 32.0800123, 80.2420707 ], [ 32.0805118, 80.2422161 ], [ 32.0817834, 80.242521 ], [ 32.0834763, 80.2428196 ], [ 32.0857669, 80.2431452 ], [ 32.0868688, 80.2433267 ], [ 32.0877694, 80.2435291 ], [ 32.0884253, 80.2437711 ], [ 32.088999, 80.2440594 ], [ 32.0894037, 80.244431 ], [ 32.0898547, 80.2448919 ], [ 32.0905305, 80.2458891 ], [ 32.0908919, 80.2462794 ], [ 32.0916989, 80.2469148 ], [ 32.0921397, 80.2471511 ], [ 32.0926102, 80.2473419 ], [ 32.0931056, 80.2474784 ], [ 32.0935686, 80.2475525 ], [ 32.0946961, 80.2476796 ], [ 32.0952737, 80.2477699 ], [ 32.0954595, 80.2478211 ], [ 32.0956065, 80.2478998 ], [ 32.0955457, 80.2480896 ], [ 32.0956244, 80.2482413 ], [ 32.0958889, 80.2484442 ], [ 32.0961801, 80.2484938 ], [ 32.0965054, 80.2485069 ], [ 32.0969222, 80.2484917 ], [ 32.0973731, 80.2484401 ], [ 32.0986576, 80.248358 ], [ 32.100151, 80.2483717 ], [ 32.1018008, 80.248482 ], [ 32.1034304, 80.2486555 ], [ 32.1049298, 80.248885 ], [ 32.1061845, 80.249154 ], [ 32.1071324, 80.2494457 ], [ 32.1080739, 80.2501331 ], [ 32.1086456, 80.2503134 ], [ 32.1093799, 80.2505003 ], [ 32.1103204, 80.2506751 ], [ 32.1115337, 80.2508638 ], [ 32.1129624, 80.2510583 ], [ 32.1147119, 80.251257 ], [ 32.1173836, 80.2515948 ], [ 32.1195859, 80.2519485 ], [ 32.1211375, 80.2522761 ], [ 32.1215808, 80.2524133 ], [ 32.1221065, 80.2528101 ], [ 32.1229111, 80.2531309 ], [ 32.1239933, 80.2534744 ], [ 32.125229, 80.2538066 ], [ 32.1266089, 80.2541097 ], [ 32.1279609, 80.2543593 ], [ 32.129209, 80.2545115 ], [ 32.130195, 80.2545686 ], [ 32.1309516, 80.2545933 ], [ 32.1316927, 80.2546901 ], [ 32.1323131, 80.2548606 ], [ 32.1329708, 80.2551026 ], [ 32.1335171, 80.2554362 ], [ 32.1340481, 80.2558419 ], [ 32.1345731, 80.2563376 ], [ 32.1355504, 80.2573932 ], [ 32.1361297, 80.2577892 ], [ 32.136825, 80.2581025 ], [ 32.1377514, 80.2583494 ], [ 32.1387986, 80.2585226 ], [ 32.1400814, 80.2586382 ], [ 32.1415952, 80.2586875 ], [ 32.1448877, 80.258683 ], [ 32.1456399, 80.2586987 ], [ 32.1469428, 80.2587511 ], [ 32.1474407, 80.2587886 ], [ 32.1478906, 80.2588358 ], [ 32.1488713, 80.2589829 ], [ 32.1498098, 80.2590497 ], [ 32.1510026, 80.2590948 ], [ 32.1529676, 80.2590922 ], [ 32.153557, 80.2591013 ], [ 32.1539976, 80.2591307 ], [ 32.1543468, 80.2591884 ], [ 32.1545952, 80.2592566 ], [ 32.154703, 80.2594618 ], [ 32.1544839, 80.2597529 ], [ 32.1545496, 80.2598778 ], [ 32.1547593, 80.2599736 ], [ 32.1551753, 80.2600573 ], [ 32.1557929, 80.2601199 ], [ 32.1566168, 80.2601705 ], [ 32.1615809, 80.2603116 ], [ 32.1630177, 80.2604158 ], [ 32.1634339, 80.2604995 ], [ 32.1635863, 80.2605871 ], [ 32.163652, 80.2607121 ], [ 32.1633512, 80.2610494 ], [ 32.163383, 80.2612108 ], [ 32.1636503, 80.2613147 ], [ 32.1638754, 80.2613382 ], [ 32.1667129, 80.2613764 ], [ 32.1697274, 80.2614479 ], [ 32.1705232, 80.2614449 ], [ 32.1713576, 80.2614143 ], [ 32.1729361, 80.2612825 ], [ 32.1736848, 80.2611903 ], [ 32.1750918, 80.2609352 ], [ 32.1759035, 80.2607611 ], [ 32.1766861, 80.2606323 ], [ 32.1774875, 80.2605393 ], [ 32.178303, 80.260473 ], [ 32.1803596, 80.2604419 ], [ 32.1816487, 80.2604674 ], [ 32.1843514, 80.2605524 ], [ 32.1855493, 80.2606062 ], [ 32.1889462, 80.2607976 ], [ 32.1907234, 80.2609416 ], [ 32.1920213, 80.2610838 ], [ 32.1938081, 80.2612456 ], [ 32.1983263, 80.2615459 ], [ 32.2014506, 80.2617233 ], [ 32.2022843, 80.2617916 ], [ 32.203525, 80.2619257 ], [ 32.2039273, 80.2619825 ], [ 32.2041187, 80.2620426 ], [ 32.2040078, 80.2621342 ], [ 32.2040362, 80.2621877 ], [ 32.2041126, 80.2622315 ], [ 32.204352, 80.2622819 ], [ 32.2053724, 80.2624013 ], [ 32.2063596, 80.2624582 ], [ 32.2068627, 80.2625046 ], [ 32.2076769, 80.2626361 ], [ 32.2082369, 80.2627895 ], [ 32.2085426, 80.2629647 ], [ 32.2088727, 80.2630856 ], [ 32.2096722, 80.2632893 ], [ 32.210874, 80.2635499 ], [ 32.2144712, 80.2642147 ], [ 32.2190991, 80.2650167 ], [ 32.2267233, 80.2662497 ], [ 32.2307062, 80.2669355 ], [ 32.233256, 80.2674273 ], [ 32.2338647, 80.2675709 ], [ 32.2339794, 80.2676861 ], [ 32.2341758, 80.267755 ], [ 32.2346504, 80.2678467 ], [ 32.2371244, 80.2681957 ], [ 32.24086, 80.2686154 ], [ 32.2421788, 80.2687931 ], [ 32.2435023, 80.2689797 ], [ 32.2459001, 80.2693838 ], [ 32.2477654, 80.269787 ], [ 32.2490217, 80.2701456 ], [ 32.2506523, 80.2705074 ], [ 32.2526382, 80.2708368 ], [ 32.2536216, 80.2709836 ], [ 32.2546435, 80.2711029 ], [ 32.258074, 80.2714461 ], [ 32.2612551, 80.2718201 ], [ 32.264854, 80.2722775 ], [ 32.271808, 80.2732322 ], [ 32.2748079, 80.2735638 ], [ 32.2771406, 80.2737438 ], [ 32.2780046, 80.2737665 ], [ 32.2796221, 80.2737057 ], [ 32.2801116, 80.2737251 ], [ 32.2809565, 80.2738111 ], [ 32.2816911, 80.2739887 ], [ 32.2822914, 80.2742133 ], [ 32.283314, 80.2744314 ], [ 32.2840102, 80.2745376 ], [ 32.2856522, 80.2747192 ], [ 32.2864875, 80.2747873 ], [ 32.2882446, 80.2748862 ], [ 32.2898001, 80.2750061 ], [ 32.2910005, 80.2751585 ], [ 32.2914184, 80.275242 ], [ 32.2924129, 80.2756045 ], [ 32.2937866, 80.2758801 ], [ 32.2958806, 80.2762077 ], [ 32.2985221, 80.2765627 ], [ 32.3014856, 80.2769217 ], [ 32.3046509, 80.2772596 ], [ 32.3078546, 80.2775699 ], [ 32.3132056, 80.2780088 ], [ 32.3163425, 80.2782931 ], [ 32.3178175, 80.2784591 ], [ 32.3202201, 80.2787637 ], [ 32.3234297, 80.2790828 ], [ 32.3276869, 80.2794665 ], [ 32.3325977, 80.279876 ], [ 32.3379461, 80.2803057 ], [ 32.3433909, 80.2807158 ], [ 32.3486533, 80.2810836 ], [ 32.3534065, 80.2813963 ], [ 32.3586785, 80.2816829 ], [ 32.3612975, 80.281795 ], [ 32.3662951, 80.2819688 ], [ 32.3707057, 80.2820438 ], [ 32.3747504, 80.2820344 ], [ 32.3766769, 80.2820493 ], [ 32.3783539, 80.282095 ], [ 32.3798871, 80.2821699 ], [ 32.3813921, 80.2822903 ], [ 32.3829745, 80.2824544 ], [ 32.3846921, 80.2826704 ], [ 32.3866075, 80.2829552 ], [ 32.3901782, 80.283439 ], [ 32.393893, 80.2838934 ], [ 32.397747, 80.2843097 ], [ 32.401514, 80.2846643 ], [ 32.405146, 80.284967 ], [ 32.4085175, 80.2851839 ], [ 32.4114749, 80.2853262 ], [ 32.4139503, 80.2853682 ], [ 32.4149065, 80.2853621 ], [ 32.4166272, 80.2853889 ], [ 32.4179351, 80.2854403 ], [ 32.4184304, 80.2854684 ], [ 32.4187194, 80.2855089 ], [ 32.4189224, 80.2855866 ], [ 32.4191007, 80.2856198 ], [ 32.4197695, 80.2856722 ], [ 32.4213367, 80.2857105 ], [ 32.42261, 80.2856994 ], [ 32.4233647, 80.2857145 ], [ 32.4251681, 80.2857939 ], [ 32.4271068, 80.2859252 ], [ 32.4317756, 80.2863643 ], [ 32.4348262, 80.2865769 ], [ 32.4372359, 80.2866918 ], [ 32.4386795, 80.2867949 ], [ 32.4399266, 80.2869281 ], [ 32.4408087, 80.287076 ], [ 32.4411177, 80.2871521 ], [ 32.4424095, 80.2873656 ], [ 32.4447536, 80.2875534 ], [ 32.4480343, 80.2876993 ], [ 32.4520401, 80.2878067 ], [ 32.4566076, 80.2878691 ], [ 32.4615202, 80.287881 ], [ 32.4666194, 80.2878449 ], [ 32.4717464, 80.2877632 ], [ 32.4777039, 80.2876413 ], [ 32.482745, 80.2875968 ], [ 32.487139, 80.2876346 ], [ 32.4911603, 80.2877683 ], [ 32.4949826, 80.2880221 ], [ 32.4988702, 80.2883918 ], [ 32.5030978, 80.288891 ], [ 32.5103761, 80.2898811 ], [ 32.5129083, 80.2902094 ], [ 32.5153726, 80.2905118 ], [ 32.520045, 80.2910397 ], [ 32.5237082, 80.2913857 ], [ 32.5274748, 80.2916311 ], [ 32.5287564, 80.2917275 ], [ 32.5314507, 80.2919631 ], [ 32.5338909, 80.2922207 ], [ 32.5383007, 80.2927526 ], [ 32.5408092, 80.2930361 ], [ 32.5455168, 80.2935271 ], [ 32.5471139, 80.2937083 ], [ 32.5561157, 80.2948047 ], [ 32.5660247, 80.2960843 ], [ 32.5704909, 80.2966149 ], [ 32.5740145, 80.2969897 ], [ 32.5761365, 80.2971533 ], [ 32.5767388, 80.2971795 ], [ 32.57781, 80.2972791 ], [ 32.5786849, 80.2974089 ], [ 32.5789953, 80.2974849 ], [ 32.5791998, 80.2975625 ], [ 32.5795438, 80.2977909 ], [ 32.5800332, 80.2979 ], [ 32.5803812, 80.2979483 ], [ 32.5811524, 80.2979898 ], [ 32.5834781, 80.298042 ], [ 32.5865629, 80.2982079 ], [ 32.5906664, 80.2984742 ], [ 32.5954032, 80.2988201 ], [ 32.6005464, 80.2992223 ], [ 32.6058113, 80.2996495 ], [ 32.6108222, 80.3000988 ], [ 32.6198197, 80.3009778 ], [ 32.6237121, 80.3013372 ], [ 32.6271403, 80.3016321 ], [ 32.6301042, 80.3018626 ], [ 32.6326619, 80.3020367 ], [ 32.6349138, 80.3021438 ], [ 32.6368123, 80.3021937 ], [ 32.6392723, 80.3021984 ], [ 32.6402983, 80.3022176 ], [ 32.6414986, 80.3022609 ], [ 32.6457383, 80.3024793 ], [ 32.6515786, 80.3028784 ], [ 32.6549307, 80.3030393 ], [ 32.6588018, 80.3031736 ], [ 32.6631919, 80.3032814 ], [ 32.6681486, 80.3033527 ], [ 32.6736824, 80.3034055 ], [ 32.6798358, 80.3034209 ], [ 32.686619, 80.3034169 ], [ 32.690587, 80.3034412 ], [ 32.6945915, 80.303528 ], [ 32.6986377, 80.303686 ], [ 32.7026624, 80.3038983 ], [ 32.7066708, 80.3041739 ], [ 32.710499, 80.3045064 ], [ 32.7142477, 80.3048852 ], [ 32.724098, 80.3060986 ], [ 32.7333799, 80.3071593 ], [ 32.7404045, 80.3080143 ], [ 32.741357, 80.3080884 ], [ 32.7420662, 80.3081126 ], [ 32.7431727, 80.3080851 ], [ 32.7447023, 80.3081406 ], [ 32.748539, 80.3083916 ], [ 32.7504493, 80.3085487 ], [ 32.7520369, 80.3087022 ], [ 32.753074, 80.3088289 ], [ 32.7533148, 80.3089368 ], [ 32.7539641, 80.3089718 ], [ 32.7541662, 80.3089803 ], [ 32.7545295, 80.3089914 ], [ 32.7546139, 80.3089922 ], [ 32.7562022, 80.3089656 ], [ 32.7582989, 80.3088945 ], [ 32.7605649, 80.3088386 ], [ 32.761682, 80.3088289 ], [ 32.7637783, 80.3088478 ], [ 32.7654193, 80.3089103 ], [ 32.7672189, 80.3090602 ], [ 32.7697439, 80.3091709 ], [ 32.7716391, 80.3092111 ], [ 32.7733491, 80.3092095 ], [ 32.7755673, 80.3092533 ], [ 32.7765096, 80.3093095 ], [ 32.7773353, 80.3094396 ], [ 32.7784523, 80.3095199 ], [ 32.7820099, 80.3096582 ], [ 32.7859065, 80.3097367 ], [ 32.787569, 80.3097448 ], [ 32.7891626, 80.309727 ], [ 32.789385, 80.3097412 ], [ 32.7897397, 80.3097983 ], [ 32.7900044, 80.3098838 ], [ 32.7901209, 80.3099899 ], [ 32.7903644, 80.3100398 ], [ 32.7906556, 80.3100799 ], [ 32.7915451, 80.310137 ], [ 32.7920904, 80.3101548 ], [ 32.7945472, 80.3101495 ], [ 32.7951984, 80.3101655 ], [ 32.7963527, 80.3102181 ], [ 32.7968028, 80.3102555 ], [ 32.7979094, 80.3104079 ], [ 32.7986402, 80.3104676 ], [ 32.7996992, 80.3105398 ], [ 32.8025109, 80.3106815 ], [ 32.8060164, 80.3108204 ], [ 32.8150186, 80.3111185 ], [ 32.8193665, 80.3113241 ], [ 32.8209447, 80.3113695 ], [ 32.8256682, 80.3113976 ], [ 32.8304127, 80.3113712 ], [ 32.8401562, 80.3113861 ], [ 32.8506677, 80.3114326 ], [ 32.8550208, 80.3114666 ], [ 32.8580394, 80.3115053 ], [ 32.8593423, 80.3115371 ], [ 32.8604227, 80.3115547 ], [ 32.8628107, 80.311523 ], [ 32.8704136, 80.3113574 ], [ 32.8797257, 80.3110994 ], [ 32.8957644, 80.3105548 ], [ 32.9010734, 80.3104008 ], [ 32.9100933, 80.3101919 ], [ 32.913883, 80.3100908 ], [ 32.9185293, 80.3099028 ], [ 32.9195609, 80.30984 ], [ 32.920936, 80.3097263 ], [ 32.9224915, 80.3096455 ], [ 32.9243332, 80.3095958 ], [ 32.9253443, 80.3095874 ], [ 32.9289557, 80.3096332 ], [ 32.9314381, 80.3095814 ], [ 32.9326704, 80.3094972 ], [ 32.934367, 80.3092968 ], [ 32.9365982, 80.3090962 ], [ 32.9395065, 80.3088659 ], [ 32.9465182, 80.3083486 ], [ 32.9535197, 80.3079033 ], [ 32.957354, 80.3077018 ], [ 32.9592521, 80.3075699 ], [ 32.9616886, 80.3073565 ], [ 32.9636745, 80.307106 ], [ 32.9648588, 80.3070314 ], [ 32.9668166, 80.3069975 ], [ 32.968225, 80.307027 ], [ 32.970389, 80.3069805 ], [ 32.9716955, 80.3069308 ], [ 32.9731552, 80.3068694 ], [ 32.976206, 80.3066993 ], [ 32.9809371, 80.306392 ], [ 32.9822325, 80.3063244 ], [ 32.9840679, 80.3062654 ], [ 32.9846663, 80.306282 ], [ 32.9850585, 80.3063112 ], [ 32.9853467, 80.3064323 ], [ 32.9856969, 80.3064802 ], [ 32.9862479, 80.3065067 ], [ 32.9879574, 80.3065039 ], [ 32.9904806, 80.306433 ], [ 32.991993, 80.3063706 ], [ 32.9955669, 80.3061822 ], [ 32.9996423, 80.30594 ], [ 33.0039017, 80.3056495 ], [ 33.0080969, 80.3053421 ], [ 33.0118688, 80.305042 ], [ 33.0149108, 80.3047727 ], [ 33.0169641, 80.3045476 ], [ 33.0180069, 80.3043312 ], [ 33.0204468, 80.3041264 ], [ 33.0244204, 80.3038947 ], [ 33.0265978, 80.3037845 ], [ 33.0307739, 80.3036212 ], [ 33.031846, 80.3035393 ], [ 33.0390868, 80.3027998 ], [ 33.0428962, 80.3023906 ], [ 33.0481891, 80.3018742 ], [ 33.0496562, 80.3017403 ], [ 33.0517468, 80.3015774 ], [ 33.0526875, 80.3015428 ], [ 33.053247, 80.3014969 ], [ 33.0533891, 80.3014674 ], [ 33.0535035, 80.3013933 ], [ 33.0531033, 80.3012653 ], [ 33.0530536, 80.3011851 ], [ 33.0532793, 80.3011181 ], [ 33.0534797, 80.3010965 ], [ 33.0545206, 80.3010512 ], [ 33.0554447, 80.3009899 ], [ 33.0569897, 80.3008095 ], [ 33.0608597, 80.3001559 ], [ 33.0648625, 80.2995448 ], [ 33.0694297, 80.2988968 ], [ 33.0743135, 80.298243 ], [ 33.079024, 80.2976553 ], [ 33.0832025, 80.297158 ], [ 33.0864655, 80.296821 ], [ 33.0885127, 80.2966766 ], [ 33.0896113, 80.2966392 ], [ 33.0901759, 80.2966021 ], [ 33.0911355, 80.2965131 ], [ 33.0915305, 80.296461 ], [ 33.0926125, 80.2962257 ], [ 33.0931131, 80.2961717 ], [ 33.0942311, 80.2960798 ], [ 33.0949014, 80.2960409 ], [ 33.0981914, 80.2959195 ], [ 33.1002855, 80.2957652 ], [ 33.1024518, 80.2955556 ], [ 33.1045957, 80.2953103 ], [ 33.1064587, 80.295043 ], [ 33.1079461, 80.2947734 ], [ 33.1089162, 80.2945309 ], [ 33.1092218, 80.2943363 ], [ 33.1092189, 80.2942463 ], [ 33.1093689, 80.2941445 ], [ 33.1100165, 80.2938988 ], [ 33.1109698, 80.2936297 ], [ 33.1115785, 80.2934927 ], [ 33.1132962, 80.2931649 ], [ 33.114458, 80.2929731 ], [ 33.1173457, 80.2925523 ], [ 33.1219564, 80.2919837 ], [ 33.1291676, 80.2911345 ], [ 33.1308818, 80.2908877 ], [ 33.1327872, 80.2905203 ], [ 33.1347118, 80.2900986 ], [ 33.1372187, 80.2894142 ], [ 33.138282, 80.289152 ], [ 33.1409085, 80.2885736 ], [ 33.1439457, 80.2879697 ], [ 33.1498033, 80.2869279 ], [ 33.1522926, 80.2863879 ], [ 33.1542178, 80.2858849 ], [ 33.1548277, 80.2856668 ], [ 33.1554589, 80.2853132 ], [ 33.1558913, 80.2851523 ], [ 33.1569256, 80.2848454 ], [ 33.1575859, 80.2847075 ], [ 33.1582102, 80.2845972 ], [ 33.1588986, 80.2845038 ], [ 33.1604088, 80.2843595 ], [ 33.1614552, 80.2842416 ], [ 33.1640667, 80.2838975 ], [ 33.1686391, 80.2831937 ], [ 33.1716652, 80.2826618 ], [ 33.1768492, 80.2818298 ], [ 33.1801663, 80.2813376 ], [ 33.1839994, 80.2808181 ], [ 33.1859517, 80.2805306 ], [ 33.1874403, 80.2802695 ], [ 33.1882299, 80.2800841 ], [ 33.1885222, 80.2798717 ], [ 33.1892196, 80.2796248 ], [ 33.1909531, 80.2791611 ], [ 33.1925264, 80.2787814 ], [ 33.1932932, 80.2785603 ], [ 33.193849, 80.2783431 ], [ 33.194241, 80.2781198 ], [ 33.1944635, 80.2778815 ], [ 33.1945692, 80.2776274 ], [ 33.1942673, 80.2763085 ], [ 33.1947538, 80.275561 ], [ 33.1959143, 80.2747833 ], [ 33.1976902, 80.2739674 ], [ 33.2001868, 80.2731115 ], [ 33.2033926, 80.2721976 ], [ 33.2073544, 80.2712159 ], [ 33.2199333, 80.2684472 ], [ 33.2224797, 80.2678423 ], [ 33.2241983, 80.2673606 ], [ 33.2252247, 80.2669636 ], [ 33.2257412, 80.2666028 ], [ 33.2258834, 80.2662399 ], [ 33.2256869, 80.265847 ], [ 33.2256371, 80.2654335 ], [ 33.2259802, 80.2649678 ], [ 33.2267107, 80.264441 ], [ 33.227787, 80.2638718 ], [ 33.229256, 80.2632505 ], [ 33.2310182, 80.2625878 ], [ 33.2331785, 80.2618817 ], [ 33.2367137, 80.2608263 ], [ 33.2376789, 80.2605024 ], [ 33.2392578, 80.259888 ], [ 33.2402503, 80.2593563 ], [ 33.2404883, 80.2591448 ], [ 33.2404621, 80.2586858 ], [ 33.2408012, 80.2583823 ], [ 33.2413678, 80.2581016 ], [ 33.241715, 80.2579782 ], [ 33.2425844, 80.2577551 ], [ 33.2434114, 80.2572985 ], [ 33.2437973, 80.2569852 ], [ 33.2444483, 80.2562525 ], [ 33.2452101, 80.2546079 ], [ 33.2457159, 80.2538148 ], [ 33.2467208, 80.2528864 ], [ 33.2470807, 80.2526997 ], [ 33.2488011, 80.2522268 ], [ 33.2520835, 80.2516172 ], [ 33.2566232, 80.2508944 ], [ 33.2621798, 80.2500989 ], [ 33.2684601, 80.249272 ], [ 33.2752707, 80.2484443 ], [ 33.2822138, 80.247659 ], [ 33.2979829, 80.2460442 ], [ 33.3030047, 80.2455011 ], [ 33.3066644, 80.2450731 ], [ 33.3089566, 80.2447515 ], [ 33.3109267, 80.2445079 ], [ 33.3167073, 80.2438243 ], [ 33.3241873, 80.2429741 ], [ 33.3368883, 80.2415672 ], [ 33.3446102, 80.240685 ], [ 33.3507718, 80.2399396 ], [ 33.3545388, 80.239437 ], [ 33.3553508, 80.2392957 ], [ 33.3558125, 80.239188 ], [ 33.3565252, 80.2390576 ], [ 33.3584936, 80.2387326 ], [ 33.3622891, 80.2381933 ], [ 33.3657803, 80.2377587 ], [ 33.3676656, 80.2375523 ], [ 33.3695856, 80.2373994 ], [ 33.3716918, 80.237288 ], [ 33.3742412, 80.2372043 ], [ 33.3775427, 80.2371336 ], [ 33.3817541, 80.237073 ], [ 33.4044545, 80.2368461 ], [ 33.4177755, 80.2367401 ], [ 33.4275853, 80.2367087 ], [ 33.4344206, 80.2367602 ], [ 33.4386024, 80.2368976 ], [ 33.4405681, 80.23714 ], [ 33.4408425, 80.2374773 ], [ 33.4404129, 80.2376618 ], [ 33.4389766, 80.2382786 ], [ 33.43886, 80.238425 ], [ 33.4389593, 80.2385763 ], [ 33.4392744, 80.2387326 ], [ 33.4398112, 80.2389027 ], [ 33.4424485, 80.2395199 ], [ 33.4444035, 80.2400689 ], [ 33.4448938, 80.2402489 ], [ 33.4455768, 80.2405605 ], [ 33.4460207, 80.2409126 ], [ 33.4466569, 80.2410718 ], [ 33.4473981, 80.241148 ], [ 33.44825, 80.2411499 ], [ 33.4491134, 80.2410885 ], [ 33.44993, 80.2409559 ], [ 33.4505482, 80.240764 ], [ 33.4509153, 80.2405137 ], [ 33.4509261, 80.2400448 ], [ 33.4504987, 80.2392327 ], [ 33.4497093, 80.2381931 ], [ 33.4485046, 80.2368676 ], [ 33.4477928, 80.2360842 ], [ 33.4472086, 80.2353562 ], [ 33.4469046, 80.2348122 ], [ 33.4469448, 80.2343878 ], [ 33.4473641, 80.2340554 ], [ 33.4481274, 80.2337616 ], [ 33.449363, 80.2334588 ], [ 33.450989, 80.2331036 ], [ 33.4537629, 80.2325554 ], [ 33.4548701, 80.2323813 ], [ 33.4559017, 80.2322536 ], [ 33.4569158, 80.2321803 ], [ 33.4579534, 80.2321427 ], [ 33.4591251, 80.2321475 ], [ 33.461766, 80.2322057 ], [ 33.4637889, 80.2322124 ], [ 33.4669189, 80.2321877 ], [ 33.4689756, 80.2321714 ], [ 33.4694958, 80.2321673 ], [ 33.4768697, 80.2320725 ], [ 33.4850593, 80.2319259 ], [ 33.4967396, 80.2316766 ], [ 33.5004929, 80.2315691 ], [ 33.5032259, 80.2314449 ], [ 33.5052533, 80.231298 ], [ 33.5068781, 80.2311048 ], [ 33.5084091, 80.2308502 ], [ 33.5114874, 80.2302056 ], [ 33.5125402, 80.2299511 ], [ 33.5133367, 80.2297106 ], [ 33.5138769, 80.2294839 ], [ 33.5142013, 80.2292524 ], [ 33.5142518, 80.229008 ], [ 33.5141678, 80.2287212 ], [ 33.513897, 80.2283928 ], [ 33.5129604, 80.2278608 ], [ 33.5114293, 80.2273132 ], [ 33.5093801, 80.2267844 ], [ 33.5069935, 80.2263072 ], [ 33.5044971, 80.2259041 ], [ 33.5020191, 80.2256088 ], [ 33.4997461, 80.2254629 ], [ 33.4963209, 80.2255011 ], [ 33.4943337, 80.2253858 ], [ 33.4920604, 80.2251587 ], [ 33.4897343, 80.2248514 ], [ 33.4875304, 80.2244877 ], [ 33.4870852, 80.224396 ], [ 33.4866675, 80.2243251 ], [ 33.4864471, 80.2242646 ], [ 33.4856877, 80.2241082 ], [ 33.4843227, 80.2237285 ], [ 33.4836686, 80.2233804 ], [ 33.4835222, 80.223239 ], [ 33.4827982, 80.2228652 ], [ 33.4822846, 80.2226496 ], [ 33.4802253, 80.2219407 ], [ 33.477572, 80.2211348 ], [ 33.4769945, 80.2209024 ], [ 33.4766442, 80.2206928 ], [ 33.4764629, 80.2204979 ], [ 33.4764969, 80.220308 ], [ 33.4766882, 80.2201151 ], [ 33.47742, 80.2196955 ], [ 33.4776288, 80.2195293 ], [ 33.4776801, 80.219285 ], [ 33.4774584, 80.2191901 ], [ 33.4770913, 80.2191159 ], [ 33.4752276, 80.218944 ], [ 33.4747034, 80.2188729 ], [ 33.4739458, 80.218689 ], [ 33.4735198, 80.2184447 ], [ 33.4734261, 80.2183023 ], [ 33.4735354, 80.2179847 ], [ 33.4734417, 80.2178423 ], [ 33.4732549, 80.2177196 ], [ 33.4729809, 80.2176257 ], [ 33.4725092, 80.2175535 ], [ 33.4719385, 80.2174923 ], [ 33.4712224, 80.2174518 ], [ 33.4694875, 80.2173946 ], [ 33.468259, 80.2173008 ], [ 33.4674203, 80.2171545 ], [ 33.4671464, 80.2170605 ], [ 33.4668717, 80.2167232 ], [ 33.4664114, 80.2165877 ], [ 33.4656311, 80.2164493 ], [ 33.4627317, 80.2161528 ], [ 33.4579409, 80.2158021 ], [ 33.4547279, 80.2155926 ], [ 33.447185, 80.2151676 ], [ 33.4428144, 80.2149709 ], [ 33.4410802, 80.2149136 ], [ 33.4396777, 80.214877 ], [ 33.437059, 80.2148454 ], [ 33.4355576, 80.2147386 ], [ 33.4343239, 80.2145546 ], [ 33.4333114, 80.2143033 ], [ 33.4325258, 80.2139937 ], [ 33.4320836, 80.2136416 ], [ 33.4319848, 80.2132469 ], [ 33.432235, 80.2128185 ], [ 33.4329448, 80.2119579 ], [ 33.4328459, 80.2115632 ], [ 33.432875, 80.2112022 ], [ 33.4330728, 80.2107748 ], [ 33.4337126, 80.2098885 ], [ 33.4340964, 80.2095027 ], [ 33.4345849, 80.2091961 ], [ 33.4349978, 80.209017 ], [ 33.4356084, 80.2088162 ], [ 33.436312, 80.2084334 ], [ 33.4365678, 80.2081762 ], [ 33.4367073, 80.2079032 ], [ 33.4371781, 80.2074887 ], [ 33.4384861, 80.2066528 ], [ 33.4396369, 80.2060632 ], [ 33.4417812, 80.2048059 ], [ 33.4434716, 80.2035031 ], [ 33.4446151, 80.2021745 ], [ 33.4451889, 80.2008658 ], [ 33.4452629, 80.1996026 ], [ 33.4448025, 80.1984126 ], [ 33.4437266, 80.1973334 ], [ 33.4421109, 80.1963996 ], [ 33.4408907, 80.1958279 ], [ 33.4384158, 80.1944688 ], [ 33.435895, 80.1928762 ], [ 33.4335376, 80.1911273 ], [ 33.4318021, 80.1896821 ], [ 33.4314075, 80.1892389 ], [ 33.4311522, 80.1888472 ], [ 33.4310304, 80.188498 ], [ 33.4310885, 80.1881815 ], [ 33.4313207, 80.1878886 ], [ 33.4317096, 80.1875929 ], [ 33.4328006, 80.1869954 ], [ 33.4331894, 80.1866996 ], [ 33.4334216, 80.1864068 ], [ 33.4334854, 80.1860992 ], [ 33.4333693, 80.1857589 ], [ 33.4331141, 80.1853672 ], [ 33.4320641, 80.1844047 ], [ 33.4315478, 80.1840179 ], [ 33.4302892, 80.1832216 ], [ 33.4289148, 80.1824905 ], [ 33.4275231, 80.181895 ], [ 33.4263054, 80.1814855 ], [ 33.4251865, 80.1809839 ], [ 33.424178, 80.1804082 ], [ 33.4237781, 80.1801183 ], [ 33.4227992, 80.1791004 ], [ 33.4220112, 80.1786196 ], [ 33.420974, 80.1781616 ], [ 33.4197454, 80.1777342 ], [ 33.4183257, 80.1773375 ], [ 33.4167378, 80.177007 ], [ 33.4151383, 80.1767398 ], [ 33.4101426, 80.1762034 ], [ 33.4067066, 80.1757095 ], [ 33.4034103, 80.1751048 ], [ 33.400277, 80.1744249 ], [ 33.3974919, 80.1737114 ], [ 33.3952231, 80.1729792 ], [ 33.3936092, 80.1722796 ], [ 33.392281, 80.1712052 ], [ 33.3906967, 80.170469 ], [ 33.3892853, 80.17 ], [ 33.3869305, 80.1693774 ], [ 33.3852821, 80.1688678 ], [ 33.383108, 80.1681156 ], [ 33.3819058, 80.1676426 ], [ 33.3809691, 80.1673358 ], [ 33.3781994, 80.1665589 ], [ 33.3765514, 80.1661302 ], [ 33.3728567, 80.1652265 ], [ 33.3690756, 80.1643513 ], [ 33.3656886, 80.1635138 ], [ 33.3631118, 80.1627872 ], [ 33.362182, 80.1624892 ], [ 33.3615585, 80.1622576 ], [ 33.3609712, 80.1618361 ], [ 33.360342, 80.1615956 ], [ 33.3595217, 80.1613857 ], [ 33.3576372, 80.1610786 ], [ 33.3566727, 80.1608083 ], [ 33.3557032, 80.160448 ], [ 33.3547516, 80.1600333 ], [ 33.35387, 80.1595633 ], [ 33.352495, 80.1585708 ], [ 33.3519853, 80.1579405 ], [ 33.3514786, 80.1576436 ], [ 33.350775, 80.1573684 ], [ 33.3503248, 80.1572417 ], [ 33.3494123, 80.1570516 ], [ 33.3482116, 80.1567407 ], [ 33.3469033, 80.1561794 ], [ 33.345481, 80.1554401 ], [ 33.3440946, 80.154592 ], [ 33.3428711, 80.1536688 ], [ 33.3418154, 80.1527604 ], [ 33.34106, 80.1519094 ], [ 33.3407025, 80.1511862 ], [ 33.3408989, 80.1505878 ], [ 33.3416385, 80.1500153 ], [ 33.343031, 80.1494755 ], [ 33.3449665, 80.1489617 ], [ 33.347549, 80.1484717 ], [ 33.3508247, 80.1479957 ], [ 33.3546896, 80.1475357 ], [ 33.3638685, 80.1466603 ], [ 33.3653897, 80.1464875 ], [ 33.3664541, 80.1463413 ], [ 33.3671543, 80.1462019 ], [ 33.3674847, 80.1460605 ], [ 33.3674452, 80.1459171 ], [ 33.3668763, 80.1454412 ], [ 33.3671791, 80.145093 ], [ 33.3679038, 80.144746 ], [ 33.3690559, 80.1444089 ], [ 33.3705428, 80.1441015 ], [ 33.3721204, 80.1438663 ], [ 33.372272, 80.1438436 ], [ 33.3729471, 80.1437807 ], [ 33.3742087, 80.143663 ], [ 33.3761505, 80.1435723 ], [ 33.3782655, 80.1435054 ], [ 33.3799358, 80.1434018 ], [ 33.3812191, 80.1432694 ], [ 33.3820634, 80.1431093 ], [ 33.3823763, 80.1429412 ], [ 33.3822154, 80.142773 ], [ 33.3814768, 80.1426067 ], [ 33.3794445, 80.1423927 ], [ 33.3779551, 80.1422045 ], [ 33.3765354, 80.1419609 ], [ 33.3760902, 80.1418589 ], [ 33.3759181, 80.1418194 ], [ 33.3753586, 80.1416857 ], [ 33.3743149, 80.141372 ], [ 33.3737497, 80.1412294 ], [ 33.3731034, 80.1411245 ], [ 33.3723818, 80.141066 ], [ 33.371475, 80.141047 ], [ 33.3703775, 80.1410587 ], [ 33.3689851, 80.1411029 ], [ 33.3577698, 80.1415843 ], [ 33.3554921, 80.1418073 ], [ 33.352525, 80.1422686 ], [ 33.3492384, 80.142889 ], [ 33.3459621, 80.1436083 ], [ 33.3429104, 80.1443504 ], [ 33.3405061, 80.1450353 ], [ 33.3390677, 80.1455849 ], [ 33.3388216, 80.1459409 ], [ 33.3391257, 80.1461695 ], [ 33.3389039, 80.1463989 ], [ 33.3382139, 80.1466372 ], [ 33.3369515, 80.1468861 ], [ 33.3350705, 80.1471556 ], [ 33.3325821, 80.1474635 ], [ 33.3294284, 80.1478018 ], [ 33.3255112, 80.1481814 ], [ 33.3202227, 80.1486407 ], [ 33.3178044, 80.148812 ], [ 33.3154154, 80.1489467 ], [ 33.3129572, 80.1490556 ], [ 33.3103315, 80.1491496 ], [ 33.3074286, 80.1492217 ], [ 33.304098, 80.1492838 ], [ 33.2985645, 80.1493598 ], [ 33.2945584, 80.1493532 ], [ 33.2931137, 80.149317 ], [ 33.2919235, 80.149267 ], [ 33.2910343, 80.1491935 ], [ 33.2894019, 80.1489445 ], [ 33.2883917, 80.1488461 ], [ 33.2873577, 80.1487932 ], [ 33.2863, 80.1487859 ], [ 33.2852241, 80.1488329 ], [ 33.2840779, 80.1489352 ], [ 33.2829657, 80.1490911 ], [ 33.2810645, 80.1494147 ], [ 33.2802883, 80.1495192 ], [ 33.279443, 80.1495979 ], [ 33.2785287, 80.1496509 ], [ 33.2762444, 80.1497023 ], [ 33.273227, 80.1496771 ], [ 33.2647656, 80.1495365 ], [ 33.2612363, 80.1493675 ], [ 33.2566395, 80.1490922 ], [ 33.2535605, 80.1489689 ], [ 33.2517925, 80.1489204 ], [ 33.2464349, 80.1488572 ], [ 33.2425963, 80.1488649 ], [ 33.2405849, 80.1488479 ], [ 33.2386032, 80.1487944 ], [ 33.2366047, 80.1487141 ], [ 33.2345261, 80.1485902 ], [ 33.2323211, 80.1484326 ], [ 33.2298224, 80.1482263 ], [ 33.2242321, 80.1477075 ], [ 33.2193619, 80.1473286 ], [ 33.2170701, 80.1471995 ], [ 33.2148527, 80.1471051 ], [ 33.2125481, 80.1470393 ], [ 33.2100465, 80.1469951 ], [ 33.2014879, 80.1469449 ], [ 33.1968714, 80.1468853 ], [ 33.1914484, 80.1467143 ], [ 33.1830393, 80.1464806 ], [ 33.18054, 80.1463551 ], [ 33.178446, 80.1462042 ], [ 33.1767517, 80.1460189 ], [ 33.1754571, 80.1457993 ], [ 33.1744526, 80.1455384 ], [ 33.1737902, 80.1452351 ], [ 33.1731773, 80.1445887 ], [ 33.1728881, 80.1443778 ], [ 33.1724872, 80.144241 ], [ 33.1719171, 80.1441703 ], [ 33.1712352, 80.1441737 ], [ 33.1703374, 80.1442531 ], [ 33.1691608, 80.1443917 ], [ 33.1678203, 80.1446053 ], [ 33.165872, 80.144857 ], [ 33.1637697, 80.1450305 ], [ 33.1615134, 80.1451256 ], [ 33.1591033, 80.1451424 ], [ 33.1565968, 80.145089 ], [ 33.1540406, 80.1449553 ], [ 33.1514924, 80.1447494 ], [ 33.1489521, 80.1444713 ], [ 33.1476338, 80.1442971 ], [ 33.1446223, 80.1439374 ], [ 33.1398248, 80.1434119 ], [ 33.1358388, 80.1430068 ], [ 33.1347047, 80.1428743 ], [ 33.132598, 80.1426152 ], [ 33.1317816, 80.1424859 ], [ 33.1305349, 80.1422562 ], [ 33.1302718, 80.1421709 ], [ 33.1297896, 80.1420716 ], [ 33.1289267, 80.1419521 ], [ 33.1258921, 80.1416377 ], [ 33.1217322, 80.1412897 ], [ 33.1097283, 80.1404168 ], [ 33.1062431, 80.1401374 ], [ 33.1050686, 80.1400235 ], [ 33.1043267, 80.1399288 ], [ 33.1040337, 80.1398801 ], [ 33.1038284, 80.1398027 ], [ 33.1035984, 80.1397708 ], [ 33.1029414, 80.1397286 ], [ 33.1020873, 80.139708 ], [ 33.1016192, 80.1397165 ], [ 33.0991555, 80.1396438 ], [ 33.0965769, 80.139384 ], [ 33.0939519, 80.138963 ], [ 33.0915791, 80.1384383 ], [ 33.0895377, 80.1378535 ], [ 33.0880111, 80.1372505 ], [ 33.0872345, 80.13667 ], [ 33.0873966, 80.1361627 ], [ 33.0878103, 80.1357229 ], [ 33.0876243, 80.1355912 ], [ 33.0870854, 80.1354838 ], [ 33.0860949, 80.1354115 ], [ 33.0845381, 80.1353585 ], [ 33.0822999, 80.1353087 ], [ 33.0793804, 80.1352621 ], [ 33.0717109, 80.1351838 ], [ 33.0687668, 80.1351826 ], [ 33.0663752, 80.1352255 ], [ 33.0644787, 80.1353046 ], [ 33.0629679, 80.1354127 ], [ 33.0618017, 80.1355687 ], [ 33.0604268, 80.1358996 ], [ 33.0598572, 80.1359999 ], [ 33.0592193, 80.1360743 ], [ 33.0583517, 80.1361169 ], [ 33.0573063, 80.1361266 ], [ 33.0559327, 80.1361152 ], [ 33.0505863, 80.1359677 ], [ 33.0476699, 80.1358398 ], [ 33.0451641, 80.1356954 ], [ 33.0433864, 80.1355381 ], [ 33.0418989, 80.1353395 ], [ 33.0402935, 80.1352061 ], [ 33.0397519, 80.1351797 ], [ 33.038217, 80.1351621 ], [ 33.0373472, 80.1351146 ], [ 33.0347627, 80.1349266 ], [ 33.0314894, 80.1346427 ], [ 33.0243262, 80.1339239 ], [ 33.0212095, 80.1336372 ], [ 33.018172, 80.1333941 ], [ 33.0166212, 80.1333496 ], [ 33.0143514, 80.1332459 ], [ 33.0113162, 80.1330927 ], [ 33.0051723, 80.1327516 ], [ 33.0029028, 80.1326479 ], [ 33.0007588, 80.1325779 ], [ 32.9986311, 80.1325346 ], [ 32.9964728, 80.1325278 ], [ 32.9941281, 80.1325604 ], [ 32.9883273, 80.1326992 ], [ 32.9778384, 80.1329929 ], [ 32.9757642, 80.1330386 ], [ 32.9738819, 80.1330539 ], [ 32.9665949, 80.1329934 ], [ 32.9614969, 80.1329033 ], [ 32.9568295, 80.1327424 ], [ 32.9546591, 80.1326275 ], [ 32.9524514, 80.1324503 ], [ 32.9494626, 80.1321967 ], [ 32.9425057, 80.1315447 ], [ 32.9361427, 80.1309181 ], [ 32.9339558, 80.1306863 ], [ 32.9318516, 80.1304171 ], [ 32.930379, 80.1303259 ], [ 32.9284492, 80.1302607 ], [ 32.926161, 80.1302108 ], [ 32.9234729, 80.1301949 ], [ 32.9172502, 80.1302408 ], [ 32.9081122, 80.1304187 ], [ 32.906173, 80.1304256 ], [ 32.9046338, 80.1303984 ], [ 32.9033852, 80.1303302 ], [ 32.9022715, 80.1302236 ], [ 32.90123, 80.1300617 ], [ 32.8971567, 80.1293044 ], [ 32.894475, 80.1288559 ], [ 32.8920648, 80.1285108 ], [ 32.8898116, 80.1282529 ], [ 32.8876632, 80.1280833 ], [ 32.8854479, 80.1279778 ], [ 32.883119, 80.1279463 ], [ 32.8790961, 80.1279803 ], [ 32.8775212, 80.1279807 ], [ 32.8742877, 80.1279289 ], [ 32.8727331, 80.1278749 ], [ 32.8698733, 80.1277445 ], [ 32.8670182, 80.1275329 ], [ 32.8651829, 80.1274477 ], [ 32.8630515, 80.1273947 ], [ 32.860359, 80.1273694 ], [ 32.8570014, 80.1273736 ], [ 32.8475579, 80.1274741 ], [ 32.8274337, 80.1278037 ], [ 32.8164356, 80.1280291 ], [ 32.8091483, 80.1282265 ], [ 32.80591, 80.1282551 ], [ 32.8026508, 80.1282481 ], [ 32.7995787, 80.1282018 ], [ 32.7968498, 80.1281135 ], [ 32.7946302, 80.1279986 ], [ 32.7931333, 80.1278622 ], [ 32.7925148, 80.1277017 ], [ 32.7923485, 80.1275965 ], [ 32.7920834, 80.1275021 ], [ 32.7916157, 80.12742 ], [ 32.7909972, 80.1273496 ], [ 32.7891989, 80.1272364 ], [ 32.7880711, 80.1271927 ], [ 32.7851398, 80.1271168 ], [ 32.7837314, 80.1270419 ], [ 32.7824633, 80.1269376 ], [ 32.781398, 80.1268208 ], [ 32.7804783, 80.1266835 ], [ 32.7797613, 80.1265337 ], [ 32.7792939, 80.1263616 ], [ 32.7786969, 80.1259667 ], [ 32.7780061, 80.1257715 ], [ 32.7775385, 80.1256895 ], [ 32.7764734, 80.1255726 ], [ 32.7752212, 80.125495 ], [ 32.774447, 80.1254272 ], [ 32.7714806, 80.1251088 ], [ 32.7693716, 80.1248208 ], [ 32.7655748, 80.1242464 ], [ 32.7646191, 80.1241367 ], [ 32.7638607, 80.1240956 ], [ 32.7631903, 80.124116 ], [ 32.7625094, 80.1242087 ], [ 32.7593531, 80.1248296 ], [ 32.757778, 80.1250095 ], [ 32.7557977, 80.1251243 ], [ 32.7533032, 80.1251667 ], [ 32.7500867, 80.1251405 ], [ 32.7460444, 80.1250472 ], [ 32.7410203, 80.1248896 ], [ 32.7348485, 80.1246523 ], [ 32.7296016, 80.1244712 ], [ 32.723617, 80.1242846 ], [ 32.7176481, 80.1241246 ], [ 32.7076531, 80.1238976 ], [ 32.7052533, 80.1238301 ], [ 32.7029003, 80.1237528 ], [ 32.6986571, 80.1235813 ], [ 32.6955776, 80.1234262 ], [ 32.6873698, 80.1228354 ], [ 32.6793301, 80.1221696 ], [ 32.6759571, 80.1218662 ], [ 32.6732331, 80.121597 ], [ 32.6714333, 80.1213842 ], [ 32.6707285, 80.121252 ], [ 32.6705218, 80.1211654 ], [ 32.6700655, 80.1211011 ], [ 32.6694115, 80.1210581 ], [ 32.6686221, 80.1210533 ], [ 32.6670646, 80.1209894 ], [ 32.6644856, 80.1207897 ], [ 32.6575604, 80.1201407 ], [ 32.6539251, 80.1197425 ], [ 32.650555, 80.1193489 ], [ 32.6478388, 80.1189983 ], [ 32.6453572, 80.1185988 ], [ 32.6427555, 80.1182642 ], [ 32.6366023, 80.117584 ], [ 32.6291063, 80.116845 ], [ 32.6265927, 80.1165719 ], [ 32.6220903, 80.1160259 ], [ 32.6185534, 80.1155177 ], [ 32.617265, 80.1152782 ], [ 32.6153467, 80.1148511 ], [ 32.6142344, 80.1146446 ], [ 32.6130233, 80.1144487 ], [ 32.6101021, 80.1141013 ], [ 32.6065161, 80.1137829 ], [ 32.5991035, 80.1132759 ], [ 32.5968026, 80.1130981 ], [ 32.5945386, 80.1128926 ], [ 32.592047, 80.1126549 ], [ 32.5858539, 80.1119835 ], [ 32.5817692, 80.1115201 ], [ 32.5786053, 80.1112034 ], [ 32.5748707, 80.1108961 ], [ 32.572959, 80.1107567 ], [ 32.5710054, 80.110636 ], [ 32.5692176, 80.1105305 ], [ 32.5658328, 80.1103794 ], [ 32.5619509, 80.1101824 ], [ 32.5557278, 80.1098259 ], [ 32.5489933, 80.1093968 ], [ 32.5461949, 80.1092628 ], [ 32.5440172, 80.1092086 ], [ 32.5432856, 80.1092116 ], [ 32.542433, 80.1092796 ], [ 32.5419189, 80.1092971 ], [ 32.5406583, 80.1092908 ], [ 32.5391603, 80.1092344 ], [ 32.5366488, 80.1090506 ], [ 32.5352497, 80.1089836 ], [ 32.5313988, 80.1088397 ], [ 32.5266705, 80.1087192 ], [ 32.5173625, 80.1085566 ], [ 32.5139667, 80.1084771 ], [ 32.5110751, 80.1083624 ], [ 32.5086359, 80.1082132 ], [ 32.5065355, 80.1080136 ], [ 32.5045094, 80.1077587 ], [ 32.5024909, 80.1074227 ], [ 32.4995094, 80.1068594 ], [ 32.4987757, 80.1067634 ], [ 32.4980097, 80.1067039 ], [ 32.497051, 80.1066745 ], [ 32.4959093, 80.1066931 ], [ 32.4944191, 80.1067444 ], [ 32.4879462, 80.1070657 ], [ 32.4859516, 80.1071521 ], [ 32.4823804, 80.1072281 ], [ 32.4805962, 80.1072211 ], [ 32.4766106, 80.1071149 ], [ 32.4708145, 80.106858 ], [ 32.4664865, 80.1066042 ], [ 32.4645722, 80.1064553 ], [ 32.4635177, 80.1063464 ], [ 32.4627618, 80.1063046 ], [ 32.4606518, 80.1062758 ], [ 32.4593495, 80.1062879 ], [ 32.4579483, 80.1063105 ], [ 32.4527506, 80.1064755 ], [ 32.4508872, 80.1065147 ], [ 32.4491696, 80.1065334 ], [ 32.4475413, 80.1065237 ], [ 32.4459502, 80.1064864 ], [ 32.4442926, 80.1064232 ], [ 32.4425685, 80.106334 ], [ 32.4381182, 80.1060459 ], [ 32.4357471, 80.1059221 ], [ 32.4336081, 80.1058396 ], [ 32.4317577, 80.1058064 ], [ 32.4301959, 80.1058226 ], [ 32.4289131, 80.1058702 ], [ 32.4279237, 80.1059761 ], [ 32.4269878, 80.1061801 ], [ 32.4264979, 80.106242 ], [ 32.4258475, 80.1062974 ], [ 32.4240699, 80.106398 ], [ 32.4229945, 80.1064422 ], [ 32.4218624, 80.1064784 ], [ 32.4194798, 80.1065257 ], [ 32.418145, 80.1065741 ], [ 32.4153388, 80.1067092 ], [ 32.4127174, 80.1068952 ], [ 32.4115153, 80.1069954 ], [ 32.407151, 80.1074433 ], [ 32.4034502, 80.1077634 ], [ 32.3992106, 80.1080562 ], [ 32.3943334, 80.1083321 ], [ 32.3887714, 80.1086009 ], [ 32.3823168, 80.1088659 ], [ 32.3748139, 80.1091294 ], [ 32.3598868, 80.1096096 ], [ 32.3552665, 80.1097819 ], [ 32.3537847, 80.1098504 ], [ 32.3515192, 80.1099223 ], [ 32.3476057, 80.1099484 ], [ 32.3426298, 80.1099462 ], [ 32.3371154, 80.1099165 ], [ 32.3315301, 80.1098518 ], [ 32.3264074, 80.1097707 ], [ 32.3223233, 80.1096732 ], [ 32.3197547, 80.1095698 ], [ 32.3187252, 80.109505 ], [ 32.3175448, 80.1094517 ], [ 32.3163172, 80.109408 ], [ 32.3136119, 80.1093427 ], [ 32.3109872, 80.10933 ], [ 32.3066017, 80.109354 ], [ 32.3042081, 80.1092837 ], [ 32.303717, 80.1092464 ], [ 32.3029802, 80.1091411 ], [ 32.3020877, 80.1090381 ], [ 32.2992169, 80.1087594 ], [ 32.2929564, 80.1082099 ], [ 32.2880279, 80.1078014 ], [ 32.2829723, 80.1073499 ], [ 32.2763407, 80.106689 ], [ 32.2719375, 80.1061822 ], [ 32.2701631, 80.105994 ], [ 32.267964, 80.1057945 ], [ 32.2628726, 80.1053702 ], [ 32.2572106, 80.1049547 ], [ 32.2514593, 80.1045676 ], [ 32.2453689, 80.1041316 ], [ 32.2423688, 80.1038994 ], [ 32.2368501, 80.1034544 ], [ 32.2345438, 80.1032473 ], [ 32.2290875, 80.1027203 ], [ 32.225631, 80.1024141 ], [ 32.2222499, 80.1021516 ], [ 32.2190479, 80.1019314 ], [ 32.2160252, 80.1017533 ], [ 32.2132334, 80.1016165 ], [ 32.2107339, 80.1015382 ], [ 32.2085217, 80.1015094 ], [ 32.2072344, 80.1014483 ], [ 32.2062537, 80.1013735 ], [ 32.2039486, 80.1011663 ], [ 32.1986228, 80.1005828 ], [ 32.1948101, 80.1001919 ], [ 32.1927834, 80.1000162 ], [ 32.1889741, 80.099832 ], [ 32.1857931, 80.0995481 ], [ 32.1822268, 80.0991263 ], [ 32.1785061, 80.0986078 ], [ 32.174796, 80.0980082 ], [ 32.1713837, 80.097377 ], [ 32.1683822, 80.0967305 ], [ 32.1654627, 80.0959389 ], [ 32.163737, 80.0955336 ], [ 32.161639, 80.095116 ], [ 32.160491, 80.0949178 ], [ 32.1594041, 80.0947365 ], [ 32.1554373, 80.0941407 ], [ 32.1540453, 80.0938742 ], [ 32.1532087, 80.0936711 ], [ 32.1527639, 80.0934171 ], [ 32.1520358, 80.0932214 ], [ 32.1509965, 80.0930304 ], [ 32.1497498, 80.0928426 ], [ 32.1484133, 80.0926832 ], [ 32.1469961, 80.0925699 ], [ 32.1456492, 80.0924916 ], [ 32.1437078, 80.0924762 ], [ 32.1430718, 80.0924589 ], [ 32.1425775, 80.0924125 ], [ 32.1421259, 80.0923475 ], [ 32.1417689, 80.092263 ], [ 32.1415017, 80.0921501 ], [ 32.1406675, 80.0914434 ], [ 32.1395715, 80.0909385 ], [ 32.1379769, 80.0903783 ], [ 32.1361142, 80.0898041 ], [ 32.133997, 80.0892428 ], [ 32.1318558, 80.0887358 ], [ 32.129817, 80.0883262 ], [ 32.1279508, 80.0880488 ], [ 32.1240801, 80.0876311 ], [ 32.1150318, 80.0866894 ], [ 32.1103574, 80.0862298 ], [ 32.1021893, 80.0854723 ], [ 32.0992362, 80.0852113 ], [ 32.0965879, 80.0850355 ], [ 32.0951115, 80.084905 ], [ 32.0938332, 80.0847534 ], [ 32.092866, 80.0845972 ], [ 32.0923696, 80.0844428 ], [ 32.0916887, 80.0843362 ], [ 32.0908233, 80.0842774 ], [ 32.0899379, 80.0842818 ], [ 32.0895325, 80.0843059 ], [ 32.0871891, 80.0842154 ], [ 32.0830961, 80.0837646 ], [ 32.0777232, 80.0830543 ], [ 32.0717378, 80.0821643 ], [ 32.0655956, 80.0811687 ], [ 32.0598127, 80.0801586 ], [ 32.0550083, 80.0792236 ], [ 32.0516886, 80.0784372 ], [ 32.0493354, 80.077807 ], [ 32.0469105, 80.0772409 ], [ 32.0444183, 80.0767478 ], [ 32.0418498, 80.0763097 ], [ 32.0391622, 80.0759453 ], [ 32.0363419, 80.0756278 ], [ 32.033398, 80.0753751 ], [ 32.0280617, 80.0750323 ], [ 32.0260047, 80.0748832 ], [ 32.0239164, 80.0746716 ], [ 32.0224449, 80.0744418 ], [ 32.0204603, 80.0742286 ], [ 32.0178322, 80.0739801 ], [ 32.0148419, 80.0737369 ], [ 32.0118045, 80.0735034 ], [ 32.0089448, 80.0733122 ], [ 32.0065823, 80.0731765 ], [ 32.0049937, 80.0731282 ], [ 32.0017265, 80.0730599 ], [ 31.9982281, 80.0728422 ], [ 31.9946765, 80.0725173 ], [ 31.9911234, 80.0720845 ], [ 31.9877938, 80.0715764 ], [ 31.9847956, 80.0710004 ], [ 31.9822458, 80.0703818 ], [ 31.9803084, 80.0697362 ], [ 31.9788163, 80.0691468 ], [ 31.9774944, 80.0686899 ], [ 31.9762821, 80.0683482 ], [ 31.9750196, 80.0681151 ], [ 31.9736936, 80.0679639 ], [ 31.9721399, 80.0678789 ], [ 31.9702508, 80.0678529 ], [ 31.9680216, 80.0678769 ], [ 31.9651968, 80.0678556 ], [ 31.9614437, 80.0677492 ], [ 31.957237, 80.0675685 ], [ 31.9529005, 80.0673356 ], [ 31.9488141, 80.0670811 ], [ 31.9453531, 80.0668263 ], [ 31.9429963, 80.0665913 ], [ 31.9415916, 80.0662793 ], [ 31.9410347, 80.0662065 ], [ 31.9395069, 80.0660671 ], [ 31.9385879, 80.0659997 ], [ 31.9343559, 80.0657652 ], [ 31.9327293, 80.0656362 ], [ 31.9321768, 80.0655724 ], [ 31.9315418, 80.0654468 ], [ 31.9317345, 80.0653091 ], [ 31.9315959, 80.0652392 ], [ 31.9312118, 80.0651999 ], [ 31.9302631, 80.0651779 ], [ 31.9299264, 80.0651289 ], [ 31.9293081, 80.0649311 ], [ 31.9290309, 80.0647913 ], [ 31.928657, 80.0644552 ], [ 31.9283549, 80.0639472 ], [ 31.9281372, 80.0637166 ], [ 31.9278513, 80.0635589 ], [ 31.9273848, 80.0634579 ], [ 31.9266861, 80.0634142 ], [ 31.9257508, 80.0634189 ], [ 31.921403, 80.0635815 ], [ 31.9201144, 80.0636093 ], [ 31.9174635, 80.0636211 ], [ 31.9149932, 80.0635764 ], [ 31.9138247, 80.0635305 ], [ 31.9109355, 80.0633749 ], [ 31.9099266, 80.0633357 ], [ 31.9080814, 80.0632907 ], [ 31.9059092, 80.0633224 ], [ 31.9045557, 80.0633242 ], [ 31.9025423, 80.0632547 ], [ 31.9000759, 80.0631108 ], [ 31.8974325, 80.0629246 ], [ 31.8947718, 80.0627026 ], [ 31.8923698, 80.0624769 ], [ 31.8904333, 80.0622443 ], [ 31.8892427, 80.0620459 ], [ 31.888074, 80.0618921 ], [ 31.8857888, 80.0616916 ], [ 31.882814, 80.0614651 ], [ 31.8793697, 80.0612364 ], [ 31.8726713, 80.0608481 ], [ 31.870012, 80.0607338 ], [ 31.8678055, 80.0606939 ], [ 31.8672711, 80.0606657 ], [ 31.8667236, 80.0606107 ], [ 31.8662192, 80.0605371 ], [ 31.8652835, 80.0603259 ], [ 31.8638429, 80.0598253 ], [ 31.8626831, 80.0595814 ], [ 31.8611185, 80.0593613 ], [ 31.8593514, 80.0591531 ], [ 31.857451, 80.0589918 ], [ 31.8554128, 80.0588684 ], [ 31.8534523, 80.0587979 ], [ 31.8509965, 80.0587794 ], [ 31.8501994, 80.0587459 ], [ 31.8493376, 80.0586865 ], [ 31.8473211, 80.0584998 ], [ 31.8462223, 80.0583808 ], [ 31.8429908, 80.057942 ], [ 31.8408452, 80.0577032 ], [ 31.8398716, 80.0576273 ], [ 31.8389583, 80.0575686 ], [ 31.8381096, 80.0575358 ], [ 31.8374333, 80.0575366 ], [ 31.8356498, 80.0576162 ], [ 31.8341937, 80.0576191 ], [ 31.832449, 80.0575633 ], [ 31.8305751, 80.0574554 ], [ 31.8284687, 80.0572969 ], [ 31.8263451, 80.0571027 ], [ 31.8241484, 80.0568646 ], [ 31.8201646, 80.0563734 ], [ 31.8185238, 80.0562082 ], [ 31.8170638, 80.0560943 ], [ 31.8164781, 80.0560667 ], [ 31.8155908, 80.0560614 ], [ 31.8129894, 80.0559549 ], [ 31.8093461, 80.0557374 ], [ 31.8067623, 80.0555586 ], [ 31.8055307, 80.0554864 ], [ 31.8032956, 80.0553835 ], [ 31.8015041, 80.0553372 ], [ 31.8009355, 80.0553453 ], [ 31.7998715, 80.0554054 ], [ 31.7989714, 80.0553734 ], [ 31.7979424, 80.0552892 ], [ 31.7968446, 80.05517 ], [ 31.7958848, 80.0550129 ], [ 31.7950241, 80.0548454 ], [ 31.7944261, 80.0546832 ], [ 31.7940567, 80.0544547 ], [ 31.7938718, 80.0543945 ], [ 31.7931273, 80.0542523 ], [ 31.7915778, 80.0540586 ], [ 31.7902778, 80.0539513 ], [ 31.7888834, 80.0537555 ], [ 31.788195, 80.0536215 ], [ 31.7875024, 80.0534785 ], [ 31.7863671, 80.0531711 ], [ 31.785877, 80.0530163 ], [ 31.7852969, 80.0527819 ], [ 31.7846949, 80.0526107 ], [ 31.7841702, 80.0524923 ], [ 31.7835592, 80.0524111 ], [ 31.7828188, 80.0523857 ], [ 31.781992, 80.0523975 ], [ 31.7776162, 80.0526036 ], [ 31.7754501, 80.0526434 ], [ 31.7732628, 80.0526385 ], [ 31.7712092, 80.0525868 ], [ 31.7693454, 80.0524964 ], [ 31.767878, 80.0523644 ], [ 31.7668673, 80.052208 ], [ 31.7664164, 80.0520256 ], [ 31.7662452, 80.0518842 ], [ 31.7655962, 80.0517227 ], [ 31.7653209, 80.0516906 ], [ 31.7650024, 80.0516772 ], [ 31.7643781, 80.051677 ], [ 31.7638444, 80.0516486 ], [ 31.7633886, 80.0515652 ], [ 31.7632911, 80.0513599 ], [ 31.762892, 80.0511768 ], [ 31.7622092, 80.0509438 ], [ 31.7609462, 80.0505841 ], [ 31.7599932, 80.0502201 ], [ 31.7597408, 80.050017 ], [ 31.7597543, 80.0499359 ], [ 31.7598797, 80.0498712 ], [ 31.7598458, 80.0497998 ], [ 31.7595324, 80.0496874 ], [ 31.7589395, 80.049534 ], [ 31.7570916, 80.0491467 ], [ 31.7545343, 80.0486885 ], [ 31.7504336, 80.0480455 ], [ 31.7484525, 80.047705 ], [ 31.7469142, 80.0474211 ], [ 31.745978, 80.0472007 ], [ 31.7454846, 80.0470369 ], [ 31.7454771, 80.0469112 ], [ 31.7459082, 80.0468332 ], [ 31.7468294, 80.0468022 ], [ 31.7471655, 80.0467435 ], [ 31.7469989, 80.046611 ], [ 31.7464327, 80.0464033 ], [ 31.7455872, 80.0461546 ], [ 31.7430838, 80.0455877 ], [ 31.7416535, 80.0453113 ], [ 31.7391063, 80.0448709 ], [ 31.7383897, 80.0446743 ], [ 31.7379913, 80.0444912 ], [ 31.7379112, 80.0443215 ], [ 31.7381197, 80.0442166 ], [ 31.7382052, 80.0441736 ], [ 31.73877, 80.0440488 ], [ 31.7396657, 80.0439642 ], [ 31.7419681, 80.0438868 ], [ 31.7424201, 80.0438534 ], [ 31.7430059, 80.0437732 ], [ 31.7430881, 80.0437271 ], [ 31.7430628, 80.0436735 ], [ 31.7429342, 80.0436214 ], [ 31.7419847, 80.043482 ], [ 31.7408067, 80.0434088 ], [ 31.7394475, 80.043392 ], [ 31.7380103, 80.0434303 ], [ 31.7366458, 80.0435125 ], [ 31.7354614, 80.0436461 ], [ 31.734552, 80.0438117 ], [ 31.733937, 80.044064 ], [ 31.7329984, 80.0443626 ], [ 31.7311027, 80.0445434 ], [ 31.7284218, 80.0445902 ], [ 31.7254196, 80.0445066 ], [ 31.7223671, 80.0443159 ], [ 31.7195783, 80.0440226 ], [ 31.7173241, 80.0436498 ], [ 31.7162889, 80.0432929 ], [ 31.7160217, 80.0432007 ], [ 31.7159334, 80.0431606 ], [ 31.7152943, 80.0428694 ], [ 31.7144541, 80.0426296 ], [ 31.7136042, 80.0424797 ], [ 31.7128563, 80.0424363 ], [ 31.7121977, 80.0424725 ], [ 31.7117443, 80.0426137 ], [ 31.7116468, 80.0428487 ], [ 31.712109, 80.0433905 ], [ 31.7121361, 80.0435311 ], [ 31.7121454, 80.0435788 ], [ 31.7119668, 80.043752 ], [ 31.7116334, 80.0439275 ], [ 31.7110418, 80.0441066 ], [ 31.7091439, 80.0444927 ], [ 31.7077428, 80.0447191 ], [ 31.7057945, 80.0449981 ], [ 31.7037693, 80.0452242 ], [ 31.7016114, 80.0453892 ], [ 31.6995359, 80.0455082 ], [ 31.6974268, 80.0455557 ], [ 31.6954476, 80.0455474 ], [ 31.69365, 80.0454827 ], [ 31.6909509, 80.0452687 ], [ 31.6888002, 80.0452269 ], [ 31.6864762, 80.0452593 ], [ 31.6845055, 80.0452689 ], [ 31.6815118, 80.0452028 ], [ 31.6779168, 80.0450731 ], [ 31.6741461, 80.044901 ], [ 31.670578, 80.044717 ], [ 31.6675781, 80.044525 ], [ 31.6654728, 80.0443566 ], [ 31.6651438, 80.0442883 ], [ 31.6647826, 80.0442134 ], [ 31.664588, 80.0440184 ], [ 31.6638831, 80.0437316 ], [ 31.6628909, 80.0433859 ], [ 31.6616324, 80.0430259 ], [ 31.6603306, 80.0426845 ], [ 31.6590538, 80.0423966 ], [ 31.6579734, 80.0421959 ], [ 31.6572649, 80.0421249 ], [ 31.6566288, 80.0420978 ], [ 31.6561186, 80.042006 ], [ 31.6556909, 80.0418681 ], [ 31.6552672, 80.0415145 ], [ 31.6548685, 80.0414392 ], [ 31.6543564, 80.0414553 ], [ 31.65377, 80.0415353 ], [ 31.6532126, 80.0416778 ], [ 31.65268, 80.0418739 ], [ 31.6522671, 80.0421043 ], [ 31.6519287, 80.0424955 ], [ 31.651522, 80.0426269 ], [ 31.6508571, 80.042762 ], [ 31.6499814, 80.0428909 ], [ 31.6488476, 80.0430235 ], [ 31.6458095, 80.0433082 ], [ 31.6405879, 80.043704 ], [ 31.6362004, 80.0441061 ], [ 31.634178, 80.0443407 ], [ 31.6318041, 80.044715 ], [ 31.6297462, 80.044986 ], [ 31.6274259, 80.0452517 ], [ 31.6249423, 80.0455016 ], [ 31.6223429, 80.0457261 ], [ 31.6197311, 80.0459238 ], [ 31.6171543, 80.0460851 ], [ 31.6118645, 80.0463375 ], [ 31.6107568, 80.0464156 ], [ 31.6099156, 80.0465081 ], [ 31.6092335, 80.0466073 ], [ 31.608762, 80.0467126 ], [ 31.6084538, 80.0468337 ], [ 31.608116, 80.0471169 ], [ 31.6077765, 80.0472833 ], [ 31.6066179, 80.0477036 ], [ 31.6050187, 80.0481839 ], [ 31.604092, 80.0484302 ], [ 31.595382, 80.0505266 ], [ 31.5929401, 80.0510992 ], [ 31.5921786, 80.0512534 ], [ 31.5903061, 80.0515935 ], [ 31.5898655, 80.0516534 ], [ 31.5892616, 80.0516976 ], [ 31.5882688, 80.051801 ], [ 31.5862723, 80.0520979 ], [ 31.5838594, 80.0525082 ], [ 31.581275, 80.052885 ], [ 31.5780387, 80.0533155 ], [ 31.5744444, 80.0537599 ], [ 31.5706389, 80.054198 ], [ 31.5688673, 80.0544198 ], [ 31.5660912, 80.054835 ], [ 31.5650909, 80.0550373 ], [ 31.5643409, 80.0552182 ], [ 31.5638494, 80.0553956 ], [ 31.5633236, 80.0557263 ], [ 31.562832, 80.0559037 ], [ 31.561197, 80.0563123 ], [ 31.5587425, 80.0567499 ], [ 31.5572846, 80.0569764 ], [ 31.5482758, 80.0582217 ], [ 31.5455059, 80.0586545 ], [ 31.5431416, 80.0590639 ], [ 31.5412385, 80.059458 ], [ 31.5395462, 80.0598583 ], [ 31.5380729, 80.0602825 ], [ 31.533471, 80.0618452 ], [ 31.5319219, 80.0623334 ], [ 31.5301737, 80.0628422 ], [ 31.5293877, 80.0631762 ], [ 31.5290115, 80.0634958 ], [ 31.5289807, 80.063658 ], [ 31.5294373, 80.0640921 ], [ 31.5294226, 80.06429 ], [ 31.5293206, 80.064525 ], [ 31.5285957, 80.0651098 ], [ 31.5273417, 80.0657917 ], [ 31.5249233, 80.0668935 ], [ 31.5233905, 80.0676509 ], [ 31.5215999, 80.0686454 ], [ 31.5208339, 80.0691409 ], [ 31.5195224, 80.0696977 ], [ 31.5176613, 80.0703068 ], [ 31.5165992, 80.0706085 ], [ 31.5123255, 80.0716453 ], [ 31.5104671, 80.0721464 ], [ 31.5090546, 80.0725967 ], [ 31.5076666, 80.0732173 ], [ 31.5065204, 80.0735651 ], [ 31.5049637, 80.0739274 ], [ 31.5016066, 80.0745743 ], [ 31.5002965, 80.0749063 ], [ 31.4993969, 80.0752238 ], [ 31.499194, 80.0753523 ], [ 31.4990245, 80.0759027 ], [ 31.4983404, 80.0763521 ], [ 31.4968512, 80.0768662 ], [ 31.4943736, 80.0775013 ], [ 31.490712, 80.0782869 ], [ 31.4856307, 80.0792801 ], [ 31.4789378, 80.0805193 ], [ 31.4704447, 80.0820517 ], [ 31.4689093, 80.0823506 ], [ 31.4672063, 80.0827416 ], [ 31.4666638, 80.0829284 ], [ 31.466588, 80.0829923 ], [ 31.4660775, 80.0831339 ], [ 31.4644899, 80.0833167 ], [ 31.4622362, 80.0835262 ], [ 31.4594119, 80.0837433 ], [ 31.456372, 80.0839452 ], [ 31.4532683, 80.084121 ], [ 31.4504557, 80.084248 ], [ 31.448086, 80.0843152 ], [ 31.4471485, 80.0843186 ], [ 31.445142, 80.0842642 ], [ 31.4441288, 80.0842147 ], [ 31.4431596, 80.0841466 ], [ 31.4422901, 80.0840682 ], [ 31.4414646, 80.0839713 ], [ 31.4401766, 80.0837726 ], [ 31.4394588, 80.0836833 ], [ 31.438745, 80.0836028 ], [ 31.4372255, 80.0834701 ], [ 31.4358934, 80.0834068 ], [ 31.435319, 80.0834053 ], [ 31.4342937, 80.0834458 ], [ 31.4333999, 80.0835474 ], [ 31.4326774, 80.0836827 ], [ 31.4320706, 80.0838434 ], [ 31.431683, 80.0840282 ], [ 31.4315548, 80.0842096 ], [ 31.4316858, 80.0843875 ], [ 31.4322516, 80.0846047 ], [ 31.432347, 80.0847023 ], [ 31.4322987, 80.0848287 ], [ 31.4320743, 80.0851461 ], [ 31.4318423, 80.0853289 ], [ 31.4308468, 80.085908 ], [ 31.4303309, 80.0862741 ], [ 31.4300984, 80.0865737 ], [ 31.430098, 80.0866905 ], [ 31.4301855, 80.0867702 ], [ 31.4304884, 80.0868651 ], [ 31.4304643, 80.0869283 ], [ 31.4300326, 80.0871316 ], [ 31.4292096, 80.087394 ], [ 31.4273125, 80.0878232 ], [ 31.4263298, 80.0880787 ], [ 31.4260102, 80.0881817 ], [ 31.4257622, 80.0883287 ], [ 31.4258299, 80.0883638 ], [ 31.4260453, 80.0883789 ], [ 31.4267154, 80.0884779 ], [ 31.4273569, 80.088748 ], [ 31.4278982, 80.0891452 ], [ 31.4283156, 80.0896159 ], [ 31.4285412, 80.0901251 ], [ 31.4286473, 80.0905999 ], [ 31.4284661, 80.0910155 ], [ 31.4280738, 80.0913082 ], [ 31.4278579, 80.0914098 ], [ 31.4277497, 80.0915191 ], [ 31.4277493, 80.0916359 ], [ 31.4278566, 80.0917603 ], [ 31.4280638, 80.0918743 ], [ 31.4287975, 80.0921163 ], [ 31.4300582, 80.0923693 ], [ 31.4307805, 80.0924676 ], [ 31.431487, 80.0925302 ], [ 31.4322854, 80.0925646 ], [ 31.4331678, 80.092553 ], [ 31.4342978, 80.0925112 ], [ 31.4396366, 80.0921894 ], [ 31.4416929, 80.0921174 ], [ 31.4435693, 80.0921107 ], [ 31.4453219, 80.0921774 ], [ 31.4470543, 80.0923163 ], [ 31.4488825, 80.0925528 ], [ 31.4508504, 80.0928682 ], [ 31.4531257, 80.0932874 ], [ 31.4548502, 80.093642 ], [ 31.4561956, 80.0939657 ], [ 31.4571737, 80.0942852 ], [ 31.4578443, 80.0946178 ], [ 31.4582634, 80.0949716 ], [ 31.458343, 80.0953839 ], [ 31.4582388, 80.0958525 ], [ 31.457583, 80.0969573 ], [ 31.4577066, 80.0972342 ], [ 31.4579902, 80.0972843 ], [ 31.4584575, 80.0972782 ], [ 31.4590647, 80.0972342 ], [ 31.4598597, 80.0971428 ], [ 31.4612178, 80.097026 ], [ 31.4618809, 80.0969903 ], [ 31.4626038, 80.0969718 ], [ 31.4640218, 80.096989 ], [ 31.4647648, 80.0970151 ], [ 31.4654638, 80.0970597 ], [ 31.4669138, 80.0972652 ], [ 31.4679564, 80.0976108 ], [ 31.4686197, 80.0980422 ], [ 31.4688316, 80.0985156 ], [ 31.46868, 80.0989939 ], [ 31.4680888, 80.099424 ], [ 31.4670981, 80.0997785 ], [ 31.4656797, 80.099995 ], [ 31.4606091, 80.1005741 ], [ 31.456309, 80.1013587 ], [ 31.4527474, 80.1022772 ], [ 31.4501602, 80.1032727 ], [ 31.4486718, 80.1042717 ], [ 31.4484104, 80.1052095 ], [ 31.4495045, 80.1060217 ], [ 31.4520784, 80.1066347 ], [ 31.4538452, 80.1069618 ], [ 31.4549404, 80.1073068 ], [ 31.4554639, 80.1076593 ], [ 31.4554076, 80.1080014 ], [ 31.4547595, 80.1083065 ], [ 31.4536155, 80.1085552 ], [ 31.4519198, 80.1087392 ], [ 31.4481085, 80.1088703 ], [ 31.4469966, 80.1089568 ], [ 31.4463764, 80.1090908 ], [ 31.4461922, 80.1092639 ], [ 31.4464917, 80.1094666 ], [ 31.4472232, 80.1096996 ], [ 31.4484906, 80.1099614 ], [ 31.450138, 80.1102542 ], [ 31.4518854, 80.1105367 ], [ 31.453541, 80.1108473 ], [ 31.4551526, 80.1111764 ], [ 31.4581842, 80.1118732 ], [ 31.4595521, 80.1122415 ], [ 31.4627842, 80.1132681 ], [ 31.4645486, 80.113703 ], [ 31.4655848, 80.1139139 ], [ 31.465949, 80.1140259 ], [ 31.466157, 80.11414 ], [ 31.4662011, 80.1142382 ], [ 31.466093, 80.1143475 ], [ 31.465833, 80.1144677 ], [ 31.4636802, 80.1150352 ], [ 31.4630239, 80.1153224 ], [ 31.4627837, 80.1156041 ], [ 31.4629558, 80.1158714 ], [ 31.46348, 80.1161071 ], [ 31.4643524, 80.1163022 ], [ 31.4655731, 80.1164568 ], [ 31.4678183, 80.1165619 ], [ 31.469055, 80.1166354 ], [ 31.4698315, 80.116733 ], [ 31.4700636, 80.1167838 ], [ 31.4701397, 80.1168367 ], [ 31.4699756, 80.1169377 ], [ 31.4699997, 80.1169913 ], [ 31.4702559, 80.1170958 ], [ 31.4705401, 80.1171459 ], [ 31.4712566, 80.1172263 ], [ 31.4723933, 80.1173101 ], [ 31.4729698, 80.1174283 ], [ 31.4734662, 80.1176014 ], [ 31.4737569, 80.1176287 ], [ 31.474085, 80.1176386 ], [ 31.4740463, 80.1179509 ] ] ] ] } },
{ "type": "Feature", "properties": { "FID": 761951, "id": 1514, "left": 30.0, "top": 85.0, "right": 35.0, "bottom": 80.0, "row_index": 1, "col_index": 42, "min_lon": 30.0, "min_lat": 80.0, "tile_id": "30_80" }, "geometry": { "type": "MultiPolygon", "coordinates": [ [ [ [ 31.914706, 80.2197811 ], [ 31.9151353, 80.2195317 ], [ 31.9145122, 80.2192659 ], [ 31.9131137, 80.2191201 ], [ 31.9115214, 80.2191507 ], [ 31.9103029, 80.2192471 ], [ 31.9096521, 80.2194588 ], [ 31.9099568, 80.2196517 ], [ 31.9111614, 80.2198281 ], [ 31.9126152, 80.219861 ], [ 31.914346, 80.2198446 ], [ 31.914706, 80.2197811 ] ] ] ] } },
{ "type": "Feature", "properties": { "FID": 761952, "id": 1514, "left": 30.0, "top": 85.0, "right": 35.0, "bottom": 80.0, "row_index": 1, "col_index": 42, "min_lon": 30.0, "min_lat": 80.0, "tile_id": "30_80" }, "geometry": { "type": "MultiPolygon", "coordinates": [ [ [ [ 31.9179183, 80.218405 ], [ 31.9187353, 80.2183368 ], [ 31.918306, 80.2181251 ], [ 31.9178837, 80.2179957 ], [ 31.9173507, 80.217951 ], [ 31.9166306, 80.2180639 ], [ 31.9165337, 80.2181627 ], [ 31.9169076, 80.2183227 ], [ 31.9174891, 80.2184732 ], [ 31.9179183, 80.218405 ] ] ] ] } },
{ "type": "Feature", "properties": { "FID": 761953, "id": 1514, "left": 30.0, "top": 85.0, "right": 35.0, "bottom": 80.0, "row_index": 1, "col_index": 42, "min_lon": 30.0, "min_lat": 80.0, "tile_id": "30_80" }, "geometry": { "type": "MultiPolygon", "coordinates": [ [ [ [ 31.9168937, 80.2184309 ], [ 31.9164091, 80.2183391 ], [ 31.9161045, 80.218405 ], [ 31.9160906, 80.2182709 ], [ 31.9159799, 80.2182239 ], [ 31.9155368, 80.2183415 ], [ 31.9162014, 80.2186402 ], [ 31.9175307, 80.2187626 ], [ 31.9168937, 80.2184309 ] ] ] ] } },
{ "type": "Feature", "properties": { "FID": 761954, "id": 1514, "left": 30.0, "top": 85.0, "right": 35.0, "bottom": 80.0, "row_index": 1, "col_index": 42, "min_lon": 30.0, "min_lat": 80.0, "tile_id": "30_80" }, "geometry": { "type": "MultiPolygon", "coordinates": [ [ [ [ 31.886022, 80.2165389 ], [ 31.8852055, 80.2164834 ], [ 31.8840461, 80.2165306 ], [ 31.8840625, 80.2166887 ], [ 31.8848789, 80.2167692 ], [ 31.886022, 80.2165389 ] ] ] ] } },
{ "type": "Feature", "properties": { "FID": 761955, "id": 1514, "left": 30.0, "top": 85.0, "right": 35.0, "bottom": 80.0, "row_index": 1, "col_index": 42, "min_lon": 30.0, "min_lat": 80.0, "tile_id": "30_80" }, "geometry": { "type": "MultiPolygon", "coordinates": [ [ [ [ 31.8839318, 80.2161365 ], [ 31.8826255, 80.2160894 ], [ 31.8814007, 80.2161865 ], [ 31.8825438, 80.2162753 ], [ 31.8836706, 80.2161837 ], [ 31.8839318, 80.2161365 ] ] ] ] } },
{ "type": "Feature", "properties": { "FID": 761956, "id": 1514, "left": 30.0, "top": 85.0, "right": 35.0, "bottom": 80.0, "row_index": 1, "col_index": 42, "min_lon": 30.0, "min_lat": 80.0, "tile_id": "30_80" }, "geometry": { "type": "MultiPolygon", "coordinates": [ [ [ [ 33.4477794, 80.1750331 ], [ 33.4475219, 80.1746633 ], [ 33.4472215, 80.1745021 ], [ 33.4452474, 80.1742824 ], [ 33.4437454, 80.1742495 ], [ 33.4407628, 80.1744838 ], [ 33.4390032, 80.1749086 ], [ 33.4387887, 80.1751905 ], [ 33.4408915, 80.1755164 ], [ 33.4432304, 80.175348 ], [ 33.4458482, 80.1754175 ], [ 33.4471357, 80.1752894 ], [ 33.4477794, 80.1750331 ] ] ] ] } },
{ "type": "Feature", "properties": { "FID": 761957, "id": 1514, "left": 30.0, "top": 85.0, "right": 35.0, "bottom": 80.0, "row_index": 1, "col_index": 42, "min_lon": 30.0, "min_lat": 80.0, "tile_id": "30_80" }, "geometry": { "type": "MultiPolygon", "coordinates": [ [ [ [ 33.4812689, 80.1853603 ], [ 33.4795738, 80.1851591 ], [ 33.478694, 80.1855249 ], [ 33.4780074, 80.1862016 ], [ 33.4770632, 80.1868452 ], [ 33.4766126, 80.1876096 ], [ 33.4765268, 80.1880081 ], [ 33.4779215, 80.1881508 ], [ 33.4786725, 80.1878363 ], [ 33.4782219, 80.187445 ], [ 33.4781361, 80.1868964 ], [ 33.4791017, 80.1863405 ], [ 33.4799171, 80.1861065 ], [ 33.4808827, 80.1862016 ], [ 33.4818268, 80.1860882 ], [ 33.4817195, 80.1858797 ], [ 33.4822989, 80.1858687 ], [ 33.4823847, 80.1855981 ], [ 33.4812689, 80.1853603 ] ] ] ] } },
{ "type": "Feature", "properties": { "FID": 761958, "id": 1514, "left": 30.0, "top": 85.0, "right": 35.0, "bottom": 80.0, "row_index": 1, "col_index": 42, "min_lon": 30.0, "min_lat": 80.0, "tile_id": "30_80" }, "geometry": { "type": "MultiPolygon", "coordinates": [ [ [ [ 31.5162758, 80.0547944 ], [ 31.5162589, 80.0546022 ], [ 31.5171693, 80.0544799 ], [ 31.5172705, 80.0543663 ], [ 31.516377, 80.0543227 ], [ 31.5158881, 80.0545265 ], [ 31.5125838, 80.0543926 ], [ 31.5115554, 80.0544333 ], [ 31.5102741, 80.0548788 ], [ 31.5136964, 80.0549487 ], [ 31.5155677, 80.0548992 ], [ 31.5162758, 80.0547944 ] ] ] ] } },
{ "type": "Feature", "properties": { "FID": 761959, "id": 1514, "left": 30.0, "top": 85.0, "right": 35.0, "bottom": 80.0, "row_index": 1, "col_index": 42, "min_lon": 30.0, "min_lat": 80.0, "tile_id": "30_80" }, "geometry": { "type": "MultiPolygon", "coordinates": [ [ [ [ 31.6742547, 80.0282828 ], [ 31.6787393, 80.0279409 ], [ 31.6778596, 80.0275842 ], [ 31.672302, 80.0274727 ], [ 31.6720875, 80.0277329 ], [ 31.6735251, 80.0283274 ], [ 31.6742547, 80.0282828 ] ] ] ] } },
{ "type": "Feature", "properties": { "FID": 761960, "id": 1514, "left": 30.0, "top": 85.0, "right": 35.0, "bottom": 80.0, "row_index": 1, "col_index": 42, "min_lon": 30.0, "min_lat": 80.0, "tile_id": "30_80" }, "geometry": { "type": "MultiPolygon", "coordinates": [ [ [ [ 31.6676967, 80.0302118 ], [ 31.6650788, 80.0295059 ], [ 31.6625039, 80.0298663 ], [ 31.6642634, 80.0304978 ], [ 31.6659157, 80.0308173 ], [ 31.6674392, 80.030717 ], [ 31.6676967, 80.0302118 ] ] ] ] } },
{ "type": "Feature", "properties": { "FID": 761961, "id": 1514, "left": 30.0, "top": 85.0, "right": 35.0, "bottom": 80.0, "row_index": 1, "col_index": 42, "min_lon": 30.0, "min_lat": 80.0, "tile_id": "30_80" }, "geometry": { "type": "MultiPolygon", "coordinates": [ [ [ [ 31.6691609, 80.0283366 ], [ 31.6633673, 80.0277606 ], [ 31.6646333, 80.0284555 ], [ 31.6687746, 80.0286412 ], [ 31.6691609, 80.0283366 ] ] ] ] } },
{ "type": "Feature", "properties": { "FID": 761962, "id": 1514, "left": 30.0, "top": 85.0, "right": 35.0, "bottom": 80.0, "row_index": 1, "col_index": 42, "min_lon": 30.0, "min_lat": 80.0, "tile_id": "30_80" }, "geometry": { "type": "MultiPolygon", "coordinates": [ [ [ [ 31.4261918, 80.0803384 ], [ 31.424089, 80.080246 ], [ 31.4212995, 80.08066 ], [ 31.4199905, 80.0812957 ], [ 31.4206343, 80.0813327 ], [ 31.4210205, 80.0811811 ], [ 31.4248185, 80.0811663 ], [ 31.4257627, 80.0810296 ], [ 31.4261918, 80.0803384 ] ] ] ] } }
]
}
