{
"type": "FeatureCollection",
"name": "35_-15",
"crs": { "type": "name", "properties": { "name": "urn:ogc:def:crs:OGC:1.3:CRS84" } },
"xy_coordinate_resolution": 1e-15,
"features": [
{ "type": "Feature", "properties": { "FID": 59000, "id": 1569, "left": 35.0, "top": -10.0, "right": 40.0, "bottom": -15.0, "row_index": 20, "col_index": 43, "min_lon": 35.0, "min_lat": -15.0, "tile_id": "35_-15" }, "geometry": { "type": "MultiPolygon", "coordinates": [ [ [ [ 39.984194, -10.1701499 ], [ 39.9843174, -10.1701288 ], [ 39.984414, -10.1701658 ], [ 39.9844783, -10.1702661 ], [ 39.9844837, -10.1703823 ], [ 39.9843979, -10.1705935 ], [ 39.9842209, -10.1706727 ], [ 39.9840331, -10.1707255 ], [ 39.9838132, -10.1707149 ], [ 39.9837327, -10.170604 ], [ 39.9837112, -10.1705037 ], [ 39.9837542, -10.1703876 ], [ 39.9840385, -10.1702027 ], [ 39.984194, -10.1701499 ] ] ] ] } },
{ "type": "Feature", "properties": { "FID": 660342, "id": 1569, "left": 35.0, "top": -10.0, "right": 40.0, "bottom": -15.0, "row_index": 20, "col_index": 43, "min_lon": 35.0, "min_lat": -15.0, "tile_id": "35_-15" }, "geometry": { "type": "MultiPolygon", "coordinates": [ [ [ [ 39.8256648, -10.0006606 ], [ 39.8260134, -10.0013473 ], [ 39.8265687, -10.0023828 ], [ 39.8267189, -10.0025862 ], [ 39.8268127, -10.0026496 ], [ 39.8269361, -10.0026945 ], [ 39.8270997, -10.0027209 ], [ 39.8271668, -10.0027631 ], [ 39.8272634, -10.002882 ], [ 39.8273492, -10.003059 ], [ 39.8278105, -10.0037986 ], [ 39.828642, -10.0051246 ], [ 39.8288619, -10.0054627 ], [ 39.8290604, -10.0056793 ], [ 39.8294628, -10.0059593 ], [ 39.8308414, -10.006889 ], [ 39.8320901, -10.0075638 ], [ 39.8340762, -10.0086535 ], [ 39.8352443, -10.0092904 ], [ 39.8375308, -10.0107508 ], [ 39.8394889, -10.0119605 ], [ 39.8407012, -10.0126156 ], [ 39.8408514, -10.0127054 ], [ 39.8410499, -10.0128427 ], [ 39.8411894, -10.0129484 ], [ 39.8418554, -10.0133205 ], [ 39.8427719, -10.0136615 ], [ 39.8442203, -10.0140789 ], [ 39.8464178, -10.0143413 ], [ 39.8467845, -10.0143641 ], [ 39.8475248, -10.0143536 ], [ 39.8478734, -10.0142849 ], [ 39.8481148, -10.0142162 ], [ 39.8482436, -10.0141423 ], [ 39.8484421, -10.0140683 ], [ 39.8490214, -10.0139151 ], [ 39.8497081, -10.0137091 ], [ 39.8500246, -10.0135823 ], [ 39.850148, -10.0134872 ], [ 39.8501855, -10.0133657 ], [ 39.8502392, -10.013128 ], [ 39.8503196, -10.0129537 ], [ 39.8504323, -10.0127318 ], [ 39.850561, -10.0125733 ], [ 39.8507273, -10.0124782 ], [ 39.851371, -10.0124571 ], [ 39.8523152, -10.0124782 ], [ 39.8532915, -10.0123409 ], [ 39.8544395, -10.0121718 ], [ 39.8551905, -10.0122035 ], [ 39.856317, -10.0125205 ], [ 39.8569071, -10.0126156 ], [ 39.858157, -10.0127054 ], [ 39.8602438, -10.0126578 ], [ 39.8621911, -10.0126208 ], [ 39.8633498, -10.0126473 ], [ 39.8650128, -10.0129061 ], [ 39.8656404, -10.013017 ], [ 39.867593, -10.0134819 ], [ 39.8688966, -10.0137778 ], [ 39.8697656, -10.014063 ], [ 39.870125, -10.0141898 ], [ 39.8705435, -10.0143694 ], [ 39.8720992, -10.015146 ], [ 39.8741537, -10.0163716 ], [ 39.8749101, -10.0168576 ], [ 39.8757602, -10.0174309 ], [ 39.8768306, -10.0181835 ], [ 39.8773026, -10.018474 ], [ 39.8782414, -10.0190815 ], [ 39.8790032, -10.0196309 ], [ 39.8793787, -10.0198951 ], [ 39.880355, -10.0206822 ], [ 39.8814171, -10.0215855 ], [ 39.8834664, -10.023548 ], [ 39.8837319, -10.0238042 ], [ 39.8840538, -10.0241238 ], [ 39.886221, -10.0261047 ], [ 39.8866957, -10.026522 ], [ 39.8872275, -10.0269368 ], [ 39.8881254, -10.0276234 ], [ 39.8884821, -10.0279007 ], [ 39.8889998, -10.0283049 ], [ 39.8893699, -10.0286403 ], [ 39.8897561, -10.0289995 ], [ 39.8900405, -10.0292953 ], [ 39.8911217, -10.0303437 ], [ 39.8916587, -10.0307911 ], [ 39.8918965, -10.0309989 ], [ 39.892315, -10.0313581 ], [ 39.8928004, -10.0317331 ], [ 39.893522, -10.0321927 ], [ 39.8947558, -10.0328055 ], [ 39.8954003, -10.0330816 ], [ 39.8957053, -10.033236 ], [ 39.8960647, -10.0334103 ], [ 39.896298, -10.0335397 ], [ 39.8966521, -10.0337774 ], [ 39.8970893, -10.0341393 ], [ 39.8974487, -10.0344615 ], [ 39.8978564, -10.0348445 ], [ 39.8982105, -10.0351773 ], [ 39.8988542, -10.0357742 ], [ 39.8994255, -10.0361967 ], [ 39.9005252, -10.0371027 ], [ 39.9013916, -10.0377867 ], [ 39.9023223, -10.0383889 ], [ 39.9028896, -10.0388213 ], [ 39.9041247, -10.0397781 ], [ 39.9046719, -10.0402747 ], [ 39.9052298, -10.0410459 ], [ 39.9066675, -10.0430003 ], [ 39.9070859, -10.043518 ], [ 39.9077082, -10.0441941 ], [ 39.9082553, -10.0447329 ], [ 39.9091238, -10.0459502 ], [ 39.9098296, -10.0467647 ], [ 39.9110124, -10.0481899 ], [ 39.9115598, -10.0489797 ], [ 39.9121875, -10.0498354 ], [ 39.9127773, -10.0505404 ], [ 39.9139523, -10.0515151 ], [ 39.9155405, -10.0522756 ], [ 39.9159949, -10.0524578 ], [ 39.9164197, -10.0528302 ], [ 39.9169511, -10.0534959 ], [ 39.9176289, -10.0544988 ], [ 39.9187267, -10.0563007 ], [ 39.9193597, -10.0573254 ], [ 39.9203896, -10.0590367 ], [ 39.920851, -10.0597234 ], [ 39.921355, -10.0605123 ], [ 39.9218963, -10.0613247 ], [ 39.9224059, -10.0622205 ], [ 39.9227959, -10.0630075 ], [ 39.9248958, -10.067118 ], [ 39.9255878, -10.0684913 ], [ 39.9260706, -10.069273 ], [ 39.9264407, -10.0698382 ], [ 39.92724, -10.0713118 ], [ 39.927358, -10.0716657 ], [ 39.927299, -10.0718716 ], [ 39.9271327, -10.0721885 ], [ 39.9269986, -10.0723787 ], [ 39.9269772, -10.0726111 ], [ 39.9272239, -10.0734298 ], [ 39.9275136, -10.0741533 ], [ 39.9279696, -10.0751305 ], [ 39.9285811, -10.0760125 ], [ 39.928903, -10.0763875 ], [ 39.9291551, -10.0766886 ], [ 39.9292999, -10.0769949 ], [ 39.929654, -10.0782519 ], [ 39.9299008, -10.0789702 ], [ 39.9304479, -10.0799473 ], [ 39.9311238, -10.081104 ], [ 39.9315292, -10.0817542 ], [ 39.9316013, -10.0818698 ], [ 39.9321109, -10.0826198 ], [ 39.9328887, -10.0835811 ], [ 39.9341869, -10.0853451 ], [ 39.9345249, -10.0856937 ], [ 39.9348575, -10.085963 ], [ 39.9351132, -10.0861374 ], [ 39.9350828, -10.0860264 ], [ 39.9350774, -10.0857042 ], [ 39.9351364, -10.0854349 ], [ 39.9352759, -10.0853293 ], [ 39.9355119, -10.0853081 ], [ 39.9357212, -10.0853451 ], [ 39.9359679, -10.0853979 ], [ 39.936204, -10.0854613 ], [ 39.936558, -10.0855933 ], [ 39.9369496, -10.0857782 ], [ 39.9370157, -10.0858765 ], [ 39.9371105, -10.0861004 ], [ 39.9371266, -10.0863908 ], [ 39.9370301, -10.0866919 ], [ 39.936794, -10.0868292 ], [ 39.9360566, -10.0869297 ], [ 39.9357802, -10.0870246 ], [ 39.9356139, -10.0870933 ], [ 39.9355656, -10.0872517 ], [ 39.9355763, -10.087389 ], [ 39.9357909, -10.0879436 ], [ 39.9363649, -10.0889312 ], [ 39.9369228, -10.0897182 ], [ 39.9377114, -10.0908167 ], [ 39.9381405, -10.0913765 ], [ 39.9382907, -10.0915033 ], [ 39.9384087, -10.0916301 ], [ 39.9386072, -10.0916881 ], [ 39.9387628, -10.0916459 ], [ 39.9388808, -10.0915825 ], [ 39.939267, -10.0914346 ], [ 39.9397016, -10.0912973 ], [ 39.9399644, -10.0912762 ], [ 39.9401522, -10.0913237 ], [ 39.9402809, -10.0914346 ], [ 39.940297, -10.0916512 ], [ 39.9402595, -10.091836 ], [ 39.9401307, -10.0919945 ], [ 39.9399143, -10.0921506 ], [ 39.9390364, -10.0927656 ], [ 39.9388647, -10.0931353 ], [ 39.9389183, -10.0934521 ], [ 39.9392617, -10.0936106 ], [ 39.9397578, -10.0936686 ], [ 39.9402058, -10.0935155 ], [ 39.9406457, -10.0935578 ], [ 39.941268, -10.0938218 ], [ 39.9418044, -10.0941915 ], [ 39.9428129, -10.0953006 ], [ 39.9436498, -10.0960928 ], [ 39.9440253, -10.0963886 ], [ 39.9445081, -10.0965576 ], [ 39.9448514, -10.096547 ], [ 39.9453235, -10.0965576 ], [ 39.9455058, -10.096716 ], [ 39.9455058, -10.0969061 ], [ 39.9453986, -10.0972125 ], [ 39.945023, -10.0976878 ], [ 39.9443686, -10.0980786 ], [ 39.9425876, -10.0989025 ], [ 39.9415898, -10.0995046 ], [ 39.941268, -10.0999059 ], [ 39.9412036, -10.1002334 ], [ 39.941225, -10.1006664 ], [ 39.941386, -10.1011418 ], [ 39.9418151, -10.1012791 ], [ 39.9422121, -10.1013108 ], [ 39.9428451, -10.1012579 ], [ 39.9432957, -10.101015 ], [ 39.9445939, -10.1006559 ], [ 39.9455809, -10.100508 ], [ 39.9462139, -10.1005186 ], [ 39.9473083, -10.1007087 ], [ 39.9479949, -10.1009516 ], [ 39.9484992, -10.1012579 ], [ 39.9488211, -10.1016488 ], [ 39.9489176, -10.1021452 ], [ 39.9487996, -10.1025783 ], [ 39.9485743, -10.1029585 ], [ 39.9481559, -10.1034761 ], [ 39.9482417, -10.1038141 ], [ 39.9484777, -10.104057 ], [ 39.9488425, -10.1041204 ], [ 39.9493575, -10.1041732 ], [ 39.9498832, -10.1042577 ], [ 39.9506664, -10.1043105 ], [ 39.951235, -10.1044478 ], [ 39.9515891, -10.1046907 ], [ 39.952501, -10.1054407 ], [ 39.9531984, -10.1060639 ], [ 39.9542498, -10.1067821 ], [ 39.9550223, -10.1074792 ], [ 39.9555856, -10.1082291 ], [ 39.9555856, -10.1085671 ], [ 39.9555373, -10.1087678 ], [ 39.9554408, -10.1089791 ], [ 39.9553442, -10.1091269 ], [ 39.9551135, -10.1091903 ], [ 39.9548346, -10.1091956 ], [ 39.9544805, -10.1091745 ], [ 39.9540782, -10.1091269 ], [ 39.9537188, -10.1090424 ], [ 39.9536437, -10.1091058 ], [ 39.9535686, -10.1092378 ], [ 39.9536329, -10.1094016 ], [ 39.953928, -10.1096392 ], [ 39.9542552, -10.1098557 ], [ 39.9545073, -10.1101515 ], [ 39.9550438, -10.1106268 ], [ 39.955253, -10.1108961 ], [ 39.9552745, -10.1110704 ], [ 39.9552637, -10.1113503 ], [ 39.9552262, -10.1117464 ], [ 39.9551886, -10.1123801 ], [ 39.9551243, -10.1128237 ], [ 39.9548614, -10.1134258 ], [ 39.9547863, -10.1136423 ], [ 39.954738, -10.1138799 ], [ 39.954856, -10.1142126 ], [ 39.954958, -10.1144292 ], [ 39.9551028, -10.1146457 ], [ 39.9553978, -10.1149414 ], [ 39.9559396, -10.1153692 ], [ 39.9561328, -10.1156015 ], [ 39.9563044, -10.1157917 ], [ 39.9564332, -10.1159607 ], [ 39.9571091, -10.1165574 ], [ 39.9574363, -10.1168531 ], [ 39.9575758, -10.1170221 ], [ 39.9576616, -10.1172651 ], [ 39.9578762, -10.1175925 ], [ 39.958595, -10.1180414 ], [ 39.9600595, -10.1185431 ], [ 39.9605209, -10.1187437 ], [ 39.9619532, -10.1193352 ], [ 39.9631602, -10.1195359 ], [ 39.9635088, -10.1196521 ], [ 39.9639916, -10.1201274 ], [ 39.9642491, -10.1208403 ], [ 39.9644101, -10.1215268 ], [ 39.9644744, -10.1221394 ], [ 39.9645334, -10.1223929 ], [ 39.9646354, -10.1225302 ], [ 39.9648929, -10.1225724 ], [ 39.9651021, -10.1224932 ], [ 39.9652684, -10.1223506 ], [ 39.9654293, -10.1220443 ], [ 39.9654186, -10.1217222 ], [ 39.965322, -10.1213789 ], [ 39.9653005, -10.1210832 ], [ 39.965322, -10.1207347 ], [ 39.9653435, -10.1203122 ], [ 39.965381, -10.1201696 ], [ 39.9656385, -10.1200534 ], [ 39.9659014, -10.1201062 ], [ 39.966191, -10.1202805 ], [ 39.9665558, -10.1204706 ], [ 39.967103, -10.1208192 ], [ 39.9673176, -10.1211783 ], [ 39.9676287, -10.1216535 ], [ 39.9679613, -10.1218225 ], [ 39.9684656, -10.1217803 ], [ 39.9688196, -10.1215796 ], [ 39.969399, -10.1214212 ], [ 39.9699569, -10.1215268 ], [ 39.9704611, -10.1218437 ], [ 39.9707079, -10.1224034 ], [ 39.9712121, -10.1232167 ], [ 39.9719524, -10.1243362 ], [ 39.9725747, -10.125065 ], [ 39.9731862, -10.1258149 ], [ 39.9741089, -10.1268922 ], [ 39.9751389, -10.1278005 ], [ 39.9753857, -10.128149 ], [ 39.9754286, -10.1285292 ], [ 39.9753106, -10.1289834 ], [ 39.9751067, -10.1293425 ], [ 39.9746239, -10.1304937 ], [ 39.9743128, -10.1315076 ], [ 39.9741411, -10.132173 ], [ 39.9736476, -10.1333031 ], [ 39.9730468, -10.1341585 ], [ 39.9720216, -10.1354161 ], [ 39.9718093, -10.1357169 ], [ 39.970842, -10.1369309 ], [ 39.9698657, -10.1383673 ], [ 39.9693668, -10.1389693 ], [ 39.9691737, -10.1393283 ], [ 39.9690986, -10.1395132 ], [ 39.9690717, -10.1399409 ], [ 39.9689913, -10.1402102 ], [ 39.9688411, -10.1403845 ], [ 39.9682027, -10.1406591 ], [ 39.9677896, -10.1408439 ], [ 39.9671513, -10.1411237 ], [ 39.9663252, -10.1415726 ], [ 39.9658406, -10.1417953 ], [ 39.9654361, -10.1420357 ], [ 39.9653108, -10.1421345 ], [ 39.9649096, -10.1424508 ], [ 39.9642706, -10.1432624 ], [ 39.9636355, -10.143993 ], [ 39.9634015, -10.1443924 ], [ 39.9632728, -10.144836 ], [ 39.9631548, -10.1451106 ], [ 39.9629402, -10.1452796 ], [ 39.9626291, -10.1455013 ], [ 39.9618995, -10.1457918 ], [ 39.9615991, -10.1460241 ], [ 39.9613309, -10.1462512 ], [ 39.961068, -10.146774 ], [ 39.9608535, -10.1473178 ], [ 39.9606925, -10.1478776 ], [ 39.9604565, -10.1483951 ], [ 39.9603277, -10.1487013 ], [ 39.9602419, -10.149335 ], [ 39.9602956, -10.1501587 ], [ 39.9604297, -10.1511779 ], [ 39.960537, -10.1516795 ], [ 39.9607247, -10.1521019 ], [ 39.9611646, -10.1524874 ], [ 39.9613523, -10.1528095 ], [ 39.9616098, -10.1531686 ], [ 39.9619747, -10.1539554 ], [ 39.9622428, -10.1543038 ], [ 39.9628115, -10.1549322 ], [ 39.9634015, -10.1552385 ], [ 39.9636805, -10.1553441 ], [ 39.9637985, -10.1555976 ], [ 39.9638736, -10.1560728 ], [ 39.9639702, -10.1567064 ], [ 39.963938, -10.1574035 ], [ 39.963938, -10.1582483 ], [ 39.9639165, -10.1584437 ], [ 39.9638575, -10.1585334 ], [ 39.9636322, -10.1586496 ], [ 39.9635678, -10.1587552 ], [ 39.9635839, -10.1588819 ], [ 39.9637771, -10.1591882 ], [ 39.9641955, -10.159542 ], [ 39.9646032, -10.1597532 ], [ 39.9655098, -10.1600436 ], [ 39.9667436, -10.1603023 ], [ 39.967339, -10.1603235 ], [ 39.9678057, -10.1602865 ], [ 39.9681008, -10.1601281 ], [ 39.9682456, -10.1598746 ], [ 39.9683905, -10.1594997 ], [ 39.9685621, -10.1592648 ], [ 39.9686587, -10.1592067 ], [ 39.9687445, -10.1591724 ], [ 39.9688491, -10.1591776 ], [ 39.9689001, -10.1592516 ], [ 39.9689859, -10.15941 ], [ 39.9690798, -10.1596318 ], [ 39.9692488, -10.159901 ], [ 39.969399, -10.1600383 ], [ 39.969914, -10.1603182 ], [ 39.9702358, -10.1604132 ], [ 39.9705791, -10.16054 ], [ 39.9708903, -10.1605558 ], [ 39.9712336, -10.1606825 ], [ 39.9713516, -10.1608673 ], [ 39.9713087, -10.1612053 ], [ 39.9713677, -10.1615907 ], [ 39.9715072, -10.1617703 ], [ 39.9717754, -10.1619128 ], [ 39.9723387, -10.1619023 ], [ 39.9731487, -10.1618284 ], [ 39.973889, -10.1618706 ], [ 39.9742913, -10.1619234 ], [ 39.974876, -10.1622772 ], [ 39.9753536, -10.1633883 ], [ 39.9755681, -10.163555 ], [ 39.9759167, -10.1636712 ], [ 39.9762386, -10.163856 ], [ 39.9764746, -10.1641675 ], [ 39.9766409, -10.1645424 ], [ 39.9767697, -10.1648803 ], [ 39.9768314, -10.1649991 ], [ 39.9768314, -10.1651206 ], [ 39.9767777, -10.1652235 ], [ 39.976657, -10.1652896 ], [ 39.9758524, -10.1658889 ], [ 39.9757612, -10.1660578 ], [ 39.975729, -10.1662532 ], [ 39.9757612, -10.1664961 ], [ 39.9758255, -10.1668023 ], [ 39.9759597, -10.1669396 ], [ 39.9763888, -10.167098 ], [ 39.9768126, -10.1671455 ], [ 39.9771613, -10.1672723 ], [ 39.9774724, -10.1673198 ], [ 39.9778211, -10.1672459 ], [ 39.9780303, -10.1670927 ], [ 39.9782127, -10.1668657 ], [ 39.9784434, -10.1659628 ], [ 39.9785668, -10.1657252 ], [ 39.9788296, -10.1654876 ], [ 39.9791247, -10.1652552 ], [ 39.979248, -10.165213 ], [ 39.9793875, -10.1652711 ], [ 39.979586, -10.1655245 ], [ 39.9797523, -10.1657621 ], [ 39.9798542, -10.1660631 ], [ 39.9798649, -10.1666017 ], [ 39.9797684, -10.1669449 ], [ 39.9795753, -10.1672353 ], [ 39.9791032, -10.1677 ], [ 39.978953, -10.1678267 ], [ 39.9788135, -10.1682174 ], [ 39.9787867, -10.1683969 ], [ 39.9787706, -10.1689197 ], [ 39.9788725, -10.1692048 ], [ 39.9789476, -10.1692787 ], [ 39.9789423, -10.1695427 ], [ 39.9789315, -10.1697645 ], [ 39.9788994, -10.1698701 ], [ 39.9787974, -10.1699599 ], [ 39.9787331, -10.1700074 ], [ 39.9786526, -10.1701209 ], [ 39.978658, -10.1702107 ], [ 39.9786955, -10.1703532 ], [ 39.9787974, -10.170414 ], [ 39.9789771, -10.1703955 ], [ 39.9790549, -10.1704456 ], [ 39.9790978, -10.1707096 ], [ 39.9791408, -10.1709684 ], [ 39.9792802, -10.1714911 ], [ 39.9794582, -10.1717813 ], [ 39.9796504, -10.172093 ], [ 39.9797845, -10.172225 ], [ 39.979983, -10.1722937 ], [ 39.9801734, -10.1722646 ], [ 39.9803504, -10.1722594 ], [ 39.9804228, -10.1723095 ], [ 39.9804738, -10.1724626 ], [ 39.980506, -10.1726844 ], [ 39.9804953, -10.1727926 ], [ 39.9804175, -10.1729484 ], [ 39.9803075, -10.1729959 ], [ 39.9801412, -10.172988 ], [ 39.9798515, -10.172951 ], [ 39.9796075, -10.172951 ], [ 39.9792936, -10.1730408 ], [ 39.9791568, -10.1732441 ], [ 39.9789745, -10.1735398 ], [ 39.9788994, -10.1737932 ], [ 39.9788672, -10.1740519 ], [ 39.9789476, -10.1741839 ], [ 39.979071, -10.1742843 ], [ 39.9792105, -10.1743212 ], [ 39.979428, -10.1743328 ], [ 39.9795645, -10.1742658 ], [ 39.9797013, -10.174374 ], [ 39.979814, -10.1744638 ], [ 39.979873, -10.1746169 ], [ 39.9799669, -10.1748888 ], [ 39.9801037, -10.1752004 ], [ 39.9802405, -10.1753904 ], [ 39.9805945, -10.1756307 ], [ 39.9812114, -10.1758894 ], [ 39.981485, -10.1761428 ], [ 39.9816352, -10.1764121 ], [ 39.9817049, -10.1767078 ], [ 39.981662, -10.1769243 ], [ 39.9815386, -10.1771724 ], [ 39.9812382, -10.1774628 ], [ 39.98016, -10.1786825 ], [ 39.9798757, -10.1790574 ], [ 39.9794358, -10.179559 ], [ 39.9790871, -10.1800659 ], [ 39.9788994, -10.1806203 ], [ 39.9787545, -10.1813172 ], [ 39.9786526, -10.1818452 ], [ 39.9785507, -10.1824471 ], [ 39.9785721, -10.183255 ], [ 39.9785775, -10.1835929 ], [ 39.9785507, -10.1840258 ], [ 39.9783951, -10.1843901 ], [ 39.9781537, -10.1847228 ], [ 39.9773651, -10.1853933 ], [ 39.9770004, -10.1856309 ], [ 39.9763566, -10.1859371 ], [ 39.9761152, -10.1861747 ], [ 39.9758738, -10.1865074 ], [ 39.9757987, -10.1867978 ], [ 39.9756056, -10.187595 ], [ 39.9755037, -10.1879646 ], [ 39.9754339, -10.1884979 ], [ 39.9754447, -10.1888305 ], [ 39.9753964, -10.1894588 ], [ 39.9752945, -10.1897967 ], [ 39.9745752, -10.191512 ], [ 39.9742699, -10.1917133 ], [ 39.9735725, -10.1922307 ], [ 39.9729395, -10.1923257 ], [ 39.9725425, -10.1923891 ], [ 39.9719953, -10.1924947 ], [ 39.9716842, -10.192368 ], [ 39.9713409, -10.1920195 ], [ 39.9708688, -10.1918822 ], [ 39.9703002, -10.1917555 ], [ 39.9700427, -10.1918822 ], [ 39.9698925, -10.1920829 ], [ 39.9698818, -10.1924208 ], [ 39.9699891, -10.1926742 ], [ 39.9700749, -10.1928959 ], [ 39.970032, -10.1931388 ], [ 39.9697637, -10.193445 ], [ 39.9694526, -10.1935612 ], [ 39.9692488, -10.1937196 ], [ 39.9692058, -10.1939519 ], [ 39.9691093, -10.1948072 ], [ 39.9689805, -10.1956731 ], [ 39.9689054, -10.1961377 ], [ 39.9686372, -10.1970141 ], [ 39.9685192, -10.1973415 ], [ 39.9682939, -10.1975421 ], [ 39.9678004, -10.1975843 ], [ 39.9673176, -10.1978694 ], [ 39.9671352, -10.1982496 ], [ 39.9671245, -10.1985875 ], [ 39.9671137, -10.1989993 ], [ 39.9669635, -10.1999707 ], [ 39.9667275, -10.2007838 ], [ 39.9664378, -10.2017236 ], [ 39.9661267, -10.2022832 ], [ 39.9657833, -10.2028534 ], [ 39.9653649, -10.2032018 ], [ 39.9650323, -10.2034447 ], [ 39.9645924, -10.2036348 ], [ 39.964292, -10.2038037 ], [ 39.9641418, -10.2041205 ], [ 39.9641633, -10.2045851 ], [ 39.9641633, -10.2052292 ], [ 39.9641955, -10.2058733 ], [ 39.9643564, -10.2062957 ], [ 39.964571, -10.206623 ], [ 39.964748, -10.2067603 ], [ 39.9650484, -10.2067444 ], [ 39.9654293, -10.2067708 ], [ 39.965778, -10.2068447 ], [ 39.9659389, -10.2068606 ], [ 39.9661642, -10.2067814 ], [ 39.966411, -10.20666 ], [ 39.9666846, -10.2064329 ], [ 39.9667972, -10.2063247 ], [ 39.966867, -10.206264 ], [ 39.9669367, -10.2062508 ], [ 39.9669796, -10.206301 ], [ 39.9669796, -10.2063881 ], [ 39.9669528, -10.2065253 ], [ 39.9668857, -10.2067629 ], [ 39.9667597, -10.2076947 ], [ 39.9666953, -10.2078373 ], [ 39.9665236, -10.2080221 ], [ 39.9663413, -10.2082121 ], [ 39.9662286, -10.2084603 ], [ 39.9662125, -10.2089249 ], [ 39.9662447, -10.209305 ], [ 39.9663091, -10.209664 ], [ 39.966411, -10.2099438 ], [ 39.9666524, -10.2101233 ], [ 39.9670225, -10.2103398 ], [ 39.9671888, -10.2105246 ], [ 39.9672639, -10.210741 ], [ 39.9673283, -10.2111475 ], [ 39.9673551, -10.2113587 ], [ 39.9673819, -10.2116332 ], [ 39.9674624, -10.2117547 ], [ 39.9676126, -10.2118444 ], [ 39.9679077, -10.2118866 ], [ 39.9681812, -10.2118919 ], [ 39.96831, -10.2119764 ], [ 39.9683583, -10.2120925 ], [ 39.96831, -10.2122245 ], [ 39.9684226, -10.2131484 ], [ 39.968251, -10.2136447 ], [ 39.9681115, -10.2142571 ], [ 39.9680579, -10.2147428 ], [ 39.9681651, -10.2153024 ], [ 39.9685407, -10.2157142 ], [ 39.9689805, -10.2158832 ], [ 39.9692488, -10.2161682 ], [ 39.9694419, -10.2165906 ], [ 39.9694419, -10.2169707 ], [ 39.9690235, -10.2177204 ], [ 39.9684334, -10.21828 ], [ 39.9673068, -10.2188501 ], [ 39.9667704, -10.2191352 ], [ 39.9662983, -10.2193992 ], [ 39.9658692, -10.219547 ], [ 39.9655259, -10.2197265 ], [ 39.9652898, -10.2198743 ], [ 39.9650484, -10.2201647 ], [ 39.9647756, -10.2202787 ], [ 39.9646139, -10.220265 ], [ 39.9643135, -10.2202492 ], [ 39.9638843, -10.2201911 ], [ 39.9636751, -10.2201489 ], [ 39.9634284, -10.2200486 ], [ 39.9631548, -10.2198585 ], [ 39.9626934, -10.2196421 ], [ 39.9623984, -10.219584 ], [ 39.9618378, -10.2195681 ], [ 39.9612075, -10.2195233 ], [ 39.9609876, -10.2196157 ], [ 39.9608213, -10.2197635 ], [ 39.9606416, -10.2199878 ], [ 39.9604887, -10.2202307 ], [ 39.9601856, -10.2204524 ], [ 39.9596572, -10.2205527 ], [ 39.9592414, -10.2207138 ], [ 39.9588364, -10.2210305 ], [ 39.9587613, -10.2212786 ], [ 39.9587989, -10.2215056 ], [ 39.9589062, -10.2218118 ], [ 39.9592656, -10.222419 ], [ 39.9596196, -10.222873 ], [ 39.9600166, -10.2235804 ], [ 39.9605477, -10.224689 ], [ 39.9605316, -10.2248316 ], [ 39.9604082, -10.2251272 ], [ 39.9596304, -10.2257766 ], [ 39.9590617, -10.2260511 ], [ 39.9588418, -10.2264048 ], [ 39.9588418, -10.2267796 ], [ 39.9588793, -10.2270858 ], [ 39.9589705, -10.2272389 ], [ 39.9591368, -10.2273973 ], [ 39.9595365, -10.2275213 ], [ 39.9596867, -10.2274897 ], [ 39.9600005, -10.2274659 ], [ 39.9606979, -10.2272125 ], [ 39.9610144, -10.2270224 ], [ 39.9612933, -10.2268799 ], [ 39.9615014, -10.2267685 ], [ 39.9617574, -10.2265962 ], [ 39.9619604, -10.2264863 ], [ 39.9621892, -10.2263625 ], [ 39.9631011, -10.2254545 ], [ 39.9633747, -10.2253067 ], [ 39.9635303, -10.2253859 ], [ 39.9636912, -10.2256762 ], [ 39.9638468, -10.2258452 ], [ 39.9639648, -10.2259296 ], [ 39.9642277, -10.2259402 ], [ 39.9644744, -10.2257713 ], [ 39.9648982, -10.2255654 ], [ 39.9661052, -10.225143 ], [ 39.9672532, -10.2248157 ], [ 39.9681544, -10.2246046 ], [ 39.9695384, -10.2243406 ], [ 39.9702305, -10.2243248 ], [ 39.9705952, -10.2244251 ], [ 39.9709976, -10.2245729 ], [ 39.9717647, -10.224821 ], [ 39.9727356, -10.2248474 ], [ 39.9734008, -10.2247524 ], [ 39.9739373, -10.224594 ], [ 39.9743557, -10.2243617 ], [ 39.9746454, -10.2242139 ], [ 39.9751067, -10.2238127 ], [ 39.9754286, -10.2232847 ], [ 39.9754286, -10.222609 ], [ 39.9752784, -10.22206 ], [ 39.9751389, -10.2215848 ], [ 39.9751414, -10.2212523 ], [ 39.9751971, -10.2205731 ], [ 39.9753724, -10.2201582 ], [ 39.9755946, -10.2197306 ], [ 39.975729, -10.2193147 ], [ 39.9758041, -10.2187023 ], [ 39.9759114, -10.2181955 ], [ 39.9760079, -10.2178048 ], [ 39.9760508, -10.2173191 ], [ 39.9760187, -10.2168334 ], [ 39.9759543, -10.2165167 ], [ 39.9758899, -10.2160099 ], [ 39.9756539, -10.2152285 ], [ 39.9746025, -10.2135919 ], [ 39.9744952, -10.2132751 ], [ 39.9743664, -10.2129161 ], [ 39.9743879, -10.2124515 ], [ 39.9744522, -10.212177 ], [ 39.9746668, -10.2116702 ], [ 39.9749565, -10.2109733 ], [ 39.9753749, -10.2101603 ], [ 39.9757075, -10.2096112 ], [ 39.9763298, -10.2086292 ], [ 39.9767697, -10.2078795 ], [ 39.9768984, -10.2071404 ], [ 39.9767911, -10.2067286 ], [ 39.9761689, -10.2058627 ], [ 39.9752998, -10.2044689 ], [ 39.9749029, -10.2039515 ], [ 39.9748278, -10.2037087 ], [ 39.9749458, -10.2033814 ], [ 39.9753857, -10.2029167 ], [ 39.9756501, -10.2027206 ], [ 39.9762869, -10.2025366 ], [ 39.9781752, -10.2023571 ], [ 39.9786901, -10.2025049 ], [ 39.97935, -10.2026369 ], [ 39.98016, -10.2028112 ], [ 39.9807072, -10.2029009 ], [ 39.9815655, -10.2031068 ], [ 39.9821019, -10.2034869 ], [ 39.9823379, -10.2038565 ], [ 39.9825847, -10.2042683 ], [ 39.9826705, -10.204828 ], [ 39.9828315, -10.2053137 ], [ 39.9829443, -10.2057915 ], [ 39.9833035, -10.2070242 ], [ 39.9835074, -10.2075944 ], [ 39.9835396, -10.2083652 ], [ 39.9834967, -10.2088087 ], [ 39.9837005, -10.2093578 ], [ 39.9839044, -10.2098329 ], [ 39.984312, -10.2102131 ], [ 39.984827, -10.2105087 ], [ 39.9852562, -10.2106882 ], [ 39.9855888, -10.2109944 ], [ 39.9861896, -10.2113323 ], [ 39.9871659, -10.2119658 ], [ 39.9877882, -10.212346 ], [ 39.9881744, -10.2125255 ], [ 39.9892902, -10.2125888 ], [ 39.9899983, -10.2126099 ], [ 39.9906313, -10.2126944 ], [ 39.9911141, -10.2126205 ], [ 39.9916184, -10.2124515 ], [ 39.992069, -10.2122087 ], [ 39.9925947, -10.2120503 ], [ 39.9930131, -10.211987 ], [ 39.993335, -10.2120397 ], [ 39.9942469, -10.2122404 ], [ 39.9953627, -10.2126733 ], [ 39.9969613, -10.2133596 ], [ 39.9973476, -10.2135497 ], [ 39.9975729, -10.2138559 ], [ 39.9977553, -10.2141515 ], [ 39.9978012, -10.2143798 ], [ 39.9978036, -10.2144788 ], [ 39.9979752, -10.214595 ], [ 39.9981362, -10.2146583 ], [ 39.9982756, -10.2146478 ], [ 39.9983722, -10.2145264 ], [ 39.998635, -10.2143891 ], [ 39.9990749, -10.2142624 ], [ 39.9994612, -10.2142518 ], [ 39.999885, -10.214463 ], [ 40.0, -10.214587044943821 ], [ 40.0, -15.0 ], [ 35.0, -15.0 ], [ 35.0, -10.0 ], [ 39.825338563744296, -10.0 ], [ 39.8256648, -10.0006606 ] ] ], [ [ [ 39.9996006, -10.2088773 ], [ 39.9989784, -10.2087665 ], [ 39.9983132, -10.2085447 ], [ 39.9978518, -10.2084603 ], [ 39.9974978, -10.2085342 ], [ 39.9971759, -10.2087982 ], [ 39.9968433, -10.2088826 ], [ 39.9964785, -10.2088087 ], [ 39.9960387, -10.2086292 ], [ 39.9953306, -10.2085975 ], [ 39.9947083, -10.2086081 ], [ 39.9939573, -10.2088404 ], [ 39.9934208, -10.2088721 ], [ 39.9927449, -10.2086714 ], [ 39.9923372, -10.208418 ], [ 39.9920583, -10.2082913 ], [ 39.9917418, -10.2082808 ], [ 39.9915326, -10.2082808 ], [ 39.9910182, -10.2084728 ], [ 39.9904597, -10.2086873 ], [ 39.990052, -10.208777 ], [ 39.9897623, -10.2087665 ], [ 39.9895531, -10.2085817 ], [ 39.9894619, -10.2084392 ], [ 39.989258, -10.2079218 ], [ 39.9891829, -10.2073305 ], [ 39.9890113, -10.2067919 ], [ 39.9887001, -10.2062957 ], [ 39.9886143, -10.2058839 ], [ 39.9886036, -10.2054932 ], [ 39.9887216, -10.2047752 ], [ 39.9887323, -10.2040255 ], [ 39.9885714, -10.202336 ], [ 39.9883568, -10.2011745 ], [ 39.9884426, -10.199939 ], [ 39.9884319, -10.1989676 ], [ 39.9882495, -10.1979961 ], [ 39.9879491, -10.1973943 ], [ 39.9876594, -10.1971091 ], [ 39.9875361, -10.1969455 ], [ 39.9875554, -10.1968556 ], [ 39.9876273, -10.1967554 ], [ 39.9876863, -10.1966393 ], [ 39.9880671, -10.1965917 ], [ 39.9882925, -10.1965812 ], [ 39.9884963, -10.196729 ], [ 39.9886572, -10.1968821 ], [ 39.988845, -10.1969349 ], [ 39.9890006, -10.1968927 ], [ 39.9890864, -10.1967554 ], [ 39.9891829, -10.1964545 ], [ 39.9893922, -10.1956678 ], [ 39.9894082, -10.1955411 ], [ 39.9893331, -10.1954566 ], [ 39.9892688, -10.1953721 ], [ 39.9892205, -10.1952613 ], [ 39.9893063, -10.1951134 ], [ 39.9894297, -10.1950131 ], [ 39.9895209, -10.1948758 ], [ 39.9895585, -10.1946963 ], [ 39.9896067, -10.1944587 ], [ 39.9899179, -10.1929699 ], [ 39.9899232, -10.1926583 ], [ 39.9897087, -10.1922624 ], [ 39.9895263, -10.1920142 ], [ 39.9894082, -10.1917344 ], [ 39.9893653, -10.1915232 ], [ 39.9893975, -10.1913912 ], [ 39.989596, -10.191217 ], [ 39.9897087, -10.1908738 ], [ 39.9899071, -10.1903616 ], [ 39.9900466, -10.1899287 ], [ 39.9900413, -10.1897228 ], [ 39.9899769, -10.1894482 ], [ 39.989891, -10.1893162 ], [ 39.9898213, -10.1891684 ], [ 39.9898106, -10.1889731 ], [ 39.9898803, -10.1887407 ], [ 39.9900305, -10.1885084 ], [ 39.9902666, -10.1883764 ], [ 39.9905133, -10.1882867 ], [ 39.990626, -10.1882339 ], [ 39.9906743, -10.1881705 ], [ 39.9906743, -10.1880702 ], [ 39.9906206, -10.1880121 ], [ 39.9905187, -10.1879646 ], [ 39.9903417, -10.187896 ], [ 39.9902236, -10.1877429 ], [ 39.9902451, -10.1875739 ], [ 39.9903256, -10.1874366 ], [ 39.9906474, -10.1873152 ], [ 39.9909747, -10.1872096 ], [ 39.9913716, -10.1870512 ], [ 39.9918008, -10.1866499 ], [ 39.9920046, -10.1863252 ], [ 39.992069, -10.1860375 ], [ 39.9920207, -10.1859715 ], [ 39.9918866, -10.1859503 ], [ 39.9916962, -10.185916 ], [ 39.9916238, -10.1858448 ], [ 39.991436, -10.1850184 ], [ 39.9913233, -10.1846964 ], [ 39.9911785, -10.1844852 ], [ 39.9909264, -10.1842845 ], [ 39.9903363, -10.1837038 ], [ 39.9896979, -10.183086 ], [ 39.9893598, -10.1826504 ], [ 39.9888128, -10.1819455 ], [ 39.9884373, -10.1816235 ], [ 39.9882603, -10.1814545 ], [ 39.9881637, -10.1812961 ], [ 39.9880725, -10.1810849 ], [ 39.9880671, -10.180916 ], [ 39.9882013, -10.1807259 ], [ 39.9883944, -10.180615 ], [ 39.988609, -10.1805622 ], [ 39.9891883, -10.1803774 ], [ 39.9895316, -10.1801609 ], [ 39.9898535, -10.1799708 ], [ 39.9901492, -10.1798673 ], [ 39.9906957, -10.1797702 ], [ 39.9912697, -10.1798916 ], [ 39.9914333, -10.1799999 ], [ 39.9914628, -10.1800712 ], [ 39.9914709, -10.1802137 ], [ 39.9913797, -10.1804012 ], [ 39.9913797, -10.1806282 ], [ 39.9914253, -10.1808051 ], [ 39.9917364, -10.1811192 ], [ 39.9920744, -10.1812512 ], [ 39.9922782, -10.1812803 ], [ 39.9923721, -10.1813595 ], [ 39.9924365, -10.1815152 ], [ 39.9924633, -10.1816393 ], [ 39.992533, -10.1817634 ], [ 39.9926805, -10.181898 ], [ 39.9928871, -10.1820115 ], [ 39.9934637, -10.1821884 ], [ 39.9937373, -10.1821515 ], [ 39.9940056, -10.18203 ], [ 39.9943703, -10.1817871 ], [ 39.9949121, -10.1814281 ], [ 39.9952179, -10.1811007 ], [ 39.9953467, -10.1808315 ], [ 39.9953842, -10.1806784 ], [ 39.9952716, -10.1803035 ], [ 39.9952823, -10.1800976 ], [ 39.9952716, -10.1798652 ], [ 39.9952501, -10.1796488 ], [ 39.9952555, -10.1795564 ], [ 39.9952447, -10.179493 ], [ 39.9951804, -10.1794138 ], [ 39.9950784, -10.1793584 ], [ 39.9949229, -10.1793056 ], [ 39.994719, -10.1792422 ], [ 39.9946386, -10.179126 ], [ 39.9945366, -10.178862 ], [ 39.9944615, -10.1785822 ], [ 39.9944687, -10.1781118 ], [ 39.9945322, -10.177613 ], [ 39.9945913, -10.177354 ], [ 39.9946332, -10.1772622 ], [ 39.9949121, -10.1763276 ], [ 39.9950945, -10.1724098 ], [ 39.9948263, -10.1707941 ], [ 39.9945527, -10.1701288 ], [ 39.9942201, -10.1697487 ], [ 39.9940485, -10.1695216 ], [ 39.9936086, -10.1691942 ], [ 39.9926269, -10.1682333 ], [ 39.9919326, -10.1676201 ], [ 39.991259, -10.1668604 ], [ 39.9907494, -10.1660578 ], [ 39.9898213, -10.1650335 ], [ 39.9893653, -10.1645582 ], [ 39.9883997, -10.1637504 ], [ 39.9882334, -10.1636448 ], [ 39.9880242, -10.1635603 ], [ 39.9876594, -10.1634441 ], [ 39.9872732, -10.1633015 ], [ 39.9869031, -10.1630903 ], [ 39.9865651, -10.1627999 ], [ 39.9863344, -10.1625676 ], [ 39.9858892, -10.1620132 ], [ 39.9857765, -10.1614535 ], [ 39.9857402, -10.1612747 ], [ 39.9857068, -10.1611102 ], [ 39.9856263, -10.161002 ], [ 39.9853259, -10.1606403 ], [ 39.9851006, -10.16054 ], [ 39.9846983, -10.1603816 ], [ 39.9846125, -10.1602707 ], [ 39.9846071, -10.1601703 ], [ 39.9846929, -10.1600172 ], [ 39.984885, -10.1599093 ], [ 39.9851452, -10.1599085 ], [ 39.9854171, -10.1600225 ], [ 39.9856746, -10.1601334 ], [ 39.9858355, -10.1602126 ], [ 39.9858999, -10.1602192 ], [ 39.9859442, -10.1601928 ], [ 39.9859495, -10.1601532 ], [ 39.9859428, -10.1600806 ], [ 39.9858543, -10.1599882 ], [ 39.9856692, -10.1597849 ], [ 39.9852186, -10.1594628 ], [ 39.984929, -10.1592674 ], [ 39.984591, -10.1589664 ], [ 39.9843925, -10.1585334 ], [ 39.9842262, -10.1580582 ], [ 39.9840975, -10.1577044 ], [ 39.9838293, -10.1572134 ], [ 39.9833304, -10.1565005 ], [ 39.9831265, -10.1562787 ], [ 39.9828958, -10.1561679 ], [ 39.9825793, -10.1561203 ], [ 39.9822253, -10.1561203 ], [ 39.9820375, -10.1560781 ], [ 39.9818712, -10.1559672 ], [ 39.9817961, -10.1558193 ], [ 39.9818391, -10.1556345 ], [ 39.9820101, -10.1555366 ], [ 39.9823862, -10.1553177 ], [ 39.9826437, -10.1551646 ], [ 39.9828261, -10.1549322 ], [ 39.9827878, -10.1546316 ], [ 39.9825847, -10.1545257 ], [ 39.9821609, -10.1544834 ], [ 39.9814868, -10.1545071 ], [ 39.9812758, -10.1544491 ], [ 39.9811256, -10.1543725 ], [ 39.9809325, -10.1542643 ], [ 39.9808091, -10.154164 ], [ 39.9806052, -10.1539316 ], [ 39.9804389, -10.1537442 ], [ 39.980278, -10.1535857 ], [ 39.9797791, -10.1532689 ], [ 39.979291, -10.1531475 ], [ 39.978881, -10.153097 ], [ 39.9786687, -10.1531264 ], [ 39.9781805, -10.1530841 ], [ 39.9775958, -10.1528887 ], [ 39.9772149, -10.1526617 ], [ 39.9769199, -10.1521812 ], [ 39.9768823, -10.1517746 ], [ 39.9767643, -10.151331 ], [ 39.9765444, -10.1508874 ], [ 39.9763727, -10.1507343 ], [ 39.9761903, -10.1506287 ], [ 39.9758309, -10.1505442 ], [ 39.9753481, -10.1505812 ], [ 39.9748439, -10.1507818 ], [ 39.9745703, -10.150803 ], [ 39.9743611, -10.1506234 ], [ 39.9740553, -10.1502327 ], [ 39.9736261, -10.149504 ], [ 39.9732614, -10.1487225 ], [ 39.9729502, -10.1482789 ], [ 39.9727946, -10.1481786 ], [ 39.9724728, -10.1481469 ], [ 39.9713999, -10.1482208 ], [ 39.9705577, -10.1482102 ], [ 39.9704504, -10.148131 ], [ 39.9704504, -10.147999 ], [ 39.9706221, -10.1478512 ], [ 39.9708581, -10.1477244 ], [ 39.9710137, -10.147735 ], [ 39.9712229, -10.147698 ], [ 39.9714053, -10.1475291 ], [ 39.9715769, -10.1474023 ], [ 39.9718022, -10.14717 ], [ 39.9718827, -10.1469165 ], [ 39.9719202, -10.1467264 ], [ 39.9719042, -10.1464518 ], [ 39.9718398, -10.1463462 ], [ 39.9716788, -10.1462829 ], [ 39.971534, -10.1462406 ], [ 39.9712121, -10.1462406 ], [ 39.9706596, -10.1462406 ], [ 39.9704182, -10.1462934 ], [ 39.9701285, -10.1463145 ], [ 39.9698925, -10.146267 ], [ 39.9697638, -10.1461456 ], [ 39.9698013, -10.1460347 ], [ 39.9698764, -10.1459027 ], [ 39.9710995, -10.1450367 ], [ 39.9722636, -10.1441126 ], [ 39.9729159, -10.1436059 ], [ 39.9733472, -10.1432096 ], [ 39.9737012, -10.1428294 ], [ 39.9743342, -10.1419898 ], [ 39.9746776, -10.1416518 ], [ 39.9750209, -10.1413403 ], [ 39.9753749, -10.1409126 ], [ 39.9756861, -10.1404109 ], [ 39.976362, -10.1394181 ], [ 39.9768341, -10.1386683 ], [ 39.977451, -10.1375435 ], [ 39.9779552, -10.1366405 ], [ 39.9789262, -10.134787 ], [ 39.9794894, -10.1339632 ], [ 39.9804819, -10.132606 ], [ 39.9807608, -10.1320727 ], [ 39.9809217, -10.1317558 ], [ 39.981147, -10.1313228 ], [ 39.9814475, -10.1309848 ], [ 39.9817049, -10.1307419 ], [ 39.9822253, -10.1304145 ], [ 39.9831212, -10.1299498 ], [ 39.9845964, -10.129427 ], [ 39.9859106, -10.1290679 ], [ 39.9868172, -10.1288567 ], [ 39.9875307, -10.1286296 ], [ 39.9881208, -10.1284448 ], [ 39.9888103, -10.1282317 ], [ 39.9892956, -10.1281068 ], [ 39.9896604, -10.1280857 ], [ 39.990052, -10.1281173 ], [ 39.9908137, -10.1281913 ], [ 39.9917364, -10.1283919 ], [ 39.9926591, -10.1285609 ], [ 39.9939787, -10.1288989 ], [ 39.9948907, -10.1291841 ], [ 39.9961084, -10.1295273 ], [ 39.9964517, -10.1296646 ], [ 39.9975032, -10.1300343 ], [ 39.998914, -10.1305993 ], [ 40.0, -10.131171303576956 ], [ 40.0, -10.209040530300157 ], [ 39.9996006, -10.2088773 ] ] ] ] } }
]
}
