{
"type": "FeatureCollection",
"name": "35_-80",
"crs": { "type": "name", "properties": { "name": "urn:ogc:def:crs:OGC:1.3:CRS84" } },
"xy_coordinate_resolution": 1e-15,
"features": [
{ "type": "Feature", "properties": { "FID": 307096, "id": 1582, "left": 35.0, "top": -75.0, "right": 40.0, "bottom": -80.0, "row_index": 33, "col_index": 43, "min_lon": 35.0, "min_lat": -80.0, "tile_id": "35_-80" }, "geometry": { "type": "MultiPolygon", "coordinates": [ [ [ [ 40.0, -75.0 ], [ 40.0, -80.0 ], [ 35.0, -80.0 ], [ 35.0, -75.0 ], [ 40.0, -75.0 ] ] ] ] } }
]
}
