{
"type": "FeatureCollection",
"name": "35_0",
"crs": { "type": "name", "properties": { "name": "urn:ogc:def:crs:OGC:1.3:CRS84" } },
"xy_coordinate_resolution": 1e-15,
"features": [
{ "type": "Feature", "properties": { "FID": 660342, "id": 1566, "left": 35.0, "top": 5.0, "right": 40.0, "bottom": 0.0, "row_index": 17, "col_index": 43, "min_lon": 35.0, "min_lat": 0.0, "tile_id": "35_0" }, "geometry": { "type": "MultiPolygon", "coordinates": [ [ [ [ 40.0, 5.0 ], [ 40.0, 0.0 ], [ 35.0, 0.0 ], [ 35.0, 5.0 ], [ 40.0, 5.0 ] ] ] ] } }
]
}
