{
"type": "FeatureCollection",
"name": "35_50",
"crs": { "type": "name", "properties": { "name": "urn:ogc:def:crs:OGC:1.3:CRS84" } },
"xy_coordinate_resolution": 1e-15,
"features": [
{ "type": "Feature", "properties": { "FID": 123912, "id": 1556, "left": 35.0, "top": 55.0, "right": 40.0, "bottom": 50.0, "row_index": 7, "col_index": 43, "min_lon": 35.0, "min_lat": 50.0, "tile_id": "35_50" }, "geometry": { "type": "MultiPolygon", "coordinates": [ [ [ [ 40.0, 55.0 ], [ 40.0, 50.0 ], [ 35.0, 50.0 ], [ 35.0, 55.0 ], [ 40.0, 55.0 ] ] ] ] } }
]
}
