{
"type": "FeatureCollection",
"name": "40_-75",
"crs": { "type": "name", "properties": { "name": "urn:ogc:def:crs:OGC:1.3:CRS84" } },
"xy_coordinate_resolution": 1e-15,
"features": [
{ "type": "Feature", "properties": { "FID": 307096, "id": 1617, "left": 40.0, "top": -70.0, "right": 45.0, "bottom": -75.0, "row_index": 32, "col_index": 44, "min_lon": 40.0, "min_lat": -75.0, "tile_id": "40_-75" }, "geometry": { "type": "MultiPolygon", "coordinates": [ [ [ [ 45.0, -70.0 ], [ 45.0, -75.0 ], [ 40.0, -75.0 ], [ 40.0, -70.0 ], [ 45.0, -70.0 ] ] ] ] } }
]
}
