{
"type": "FeatureCollection",
"name": "40_-30",
"crs": { "type": "name", "properties": { "name": "urn:ogc:def:crs:OGC:1.3:CRS84" } },
"xy_coordinate_resolution": 1e-15,
"features": [
{ "type": "Feature", "properties": { "FID": 39528, "id": 1608, "left": 40.0, "top": -25.0, "right": 45.0, "bottom": -30.0, "row_index": 23, "col_index": 44, "min_lon": 40.0, "min_lat": -30.0, "tile_id": "40_-30" }, "geometry": { "type": "MultiPolygon", "coordinates": [ [ [ [ 44.2207452, -25.2272889 ], [ 44.22057, -25.2272901 ], [ 44.2202077, -25.2272818 ], [ 44.2198892, -25.227256 ], [ 44.2196861, -25.2272429 ], [ 44.2192955, -25.2272081 ], [ 44.2190455, -25.2271628 ], [ 44.2188914, -25.227138 ], [ 44.2185437, -25.2270758 ], [ 44.2174733, -25.2267991 ], [ 44.2171861, -25.2267282 ], [ 44.2170074, -25.2266876 ], [ 44.2167354, -25.2266123 ], [ 44.2166224, -25.2265752 ], [ 44.216454, -25.2265197 ], [ 44.2162557, -25.2264375 ], [ 44.2158166, -25.2262254 ], [ 44.2155615, -25.226092 ], [ 44.215459, -25.2260198 ], [ 44.2153433, -25.2259516 ], [ 44.2152635, -25.2258881 ], [ 44.2151546, -25.2257923 ], [ 44.2150774, -25.2257313 ], [ 44.2149362, -25.2256099 ], [ 44.2146976, -25.2253869 ], [ 44.2145238, -25.2251887 ], [ 44.2144535, -25.2250939 ], [ 44.2144411, -25.2250573 ], [ 44.2144458, -25.2250269 ], [ 44.2144645, -25.2249899 ], [ 44.214515, -25.2249547 ], [ 44.2145805, -25.2249201 ], [ 44.2146016, -25.224892 ], [ 44.214639, -25.2248651 ], [ 44.214714, -25.2248148 ], [ 44.2149917, -25.2246614 ], [ 44.2150636, -25.224626 ], [ 44.2152101, -25.224539 ], [ 44.2153127, -25.2244802 ], [ 44.2155879, -25.2243858 ], [ 44.2157609, -25.2243177 ], [ 44.2159259, -25.2242657 ], [ 44.2161153, -25.2242215 ], [ 44.21634, -25.2242077 ], [ 44.2165181, -25.2241865 ], [ 44.2167316, -25.224166 ], [ 44.2169237, -25.2241485 ], [ 44.2170457, -25.2241375 ], [ 44.217211, -25.2241627 ], [ 44.217436, -25.2241818 ], [ 44.217491, -25.2241917 ], [ 44.2176443, -25.2241952 ], [ 44.2177962, -25.2241852 ], [ 44.217952, -25.224171 ], [ 44.2181051, -25.2241449 ], [ 44.218355, -25.2240791 ], [ 44.2184879, -25.2240517 ], [ 44.218679, -25.2240313 ], [ 44.2187975, -25.2240404 ], [ 44.2189629, -25.2240543 ], [ 44.2191283, -25.2240373 ], [ 44.219396, -25.2239864 ], [ 44.2195389, -25.2239585 ], [ 44.2196716, -25.223909 ], [ 44.2197045, -25.2238999 ], [ 44.2197527, -25.2238793 ], [ 44.2198024, -25.2238538 ], [ 44.2200532, -25.2237119 ], [ 44.2201108, -25.2236755 ], [ 44.2201564, -25.2236403 ], [ 44.2202034, -25.2236063 ], [ 44.2202369, -25.2235869 ], [ 44.2202798, -25.2235651 ], [ 44.2203341, -25.2235402 ], [ 44.2203878, -25.2235268 ], [ 44.220432, -25.2235208 ], [ 44.2205031, -25.2235038 ], [ 44.2205822, -25.2234795 ], [ 44.2206385, -25.223454 ], [ 44.2207217, -25.2234152 ], [ 44.2208558, -25.2233424 ], [ 44.2209819, -25.2232745 ], [ 44.2211797, -25.2231586 ], [ 44.221356, -25.2230694 ], [ 44.2214036, -25.2230446 ], [ 44.2215143, -25.2229979 ], [ 44.2216283, -25.2229481 ], [ 44.2218764, -25.222828 ], [ 44.221926, -25.2228025 ], [ 44.2221017, -25.2226946 ], [ 44.2221956, -25.2226339 ], [ 44.222274, -25.2225763 ], [ 44.2227139, -25.2222742 ], [ 44.2227796, -25.2222256 ], [ 44.2230331, -25.2220303 ], [ 44.2231431, -25.2219502 ], [ 44.2232436, -25.2218866 ], [ 44.2233083, -25.2218468 ], [ 44.2233677, -25.2218077 ], [ 44.2234844, -25.2217579 ], [ 44.2235581, -25.2217337 ], [ 44.223644, -25.2217045 ], [ 44.2237352, -25.2216754 ], [ 44.2238237, -25.2216439 ], [ 44.2239564, -25.2215735 ], [ 44.2240718, -25.2215019 ], [ 44.2241844, -25.2214182 ], [ 44.2244145, -25.2212264 ], [ 44.2246003, -25.2210193 ], [ 44.224685, -25.220967 ], [ 44.2247698, -25.220924 ], [ 44.2248881, -25.2207917 ], [ 44.2250565, -25.220609 ], [ 44.2251208, -25.2205579 ], [ 44.2252021, -25.2205068 ], [ 44.2253768, -25.2204355 ], [ 44.2254913, -25.2204244 ], [ 44.2256037, -25.2204012 ], [ 44.2256892, -25.2203505 ], [ 44.2257188, -25.220289 ], [ 44.2258167, -25.2202291 ], [ 44.2258821, -25.2201887 ], [ 44.2259339, -25.2201421 ], [ 44.2261024, -25.2200165 ], [ 44.2262249, -25.219895 ], [ 44.2263819, -25.2197823 ], [ 44.2265356, -25.219648 ], [ 44.2266799, -25.2195409 ], [ 44.2269199, -25.2194646 ], [ 44.2271115, -25.21944 ], [ 44.227269, -25.2193969 ], [ 44.2274801, -25.2193238 ], [ 44.2276844, -25.2192507 ], [ 44.2278064, -25.2191979 ], [ 44.2279044, -25.2191452 ], [ 44.2280273, -25.219078 ], [ 44.2281229, -25.2189984 ], [ 44.2283234, -25.2188333 ], [ 44.2284865, -25.2187361 ], [ 44.2286214, -25.2186291 ], [ 44.2287589, -25.2185353 ], [ 44.2289729, -25.2184718 ], [ 44.2291661, -25.2184758 ], [ 44.2293331, -25.2185314 ], [ 44.2294773, -25.2186125 ], [ 44.229619, -25.2187028 ], [ 44.229687, -25.2187628 ], [ 44.2297508, -25.2188618 ], [ 44.2298818, -25.2190671 ], [ 44.2299447, -25.2191981 ], [ 44.229951, -25.2193486 ], [ 44.2299621, -25.2194505 ], [ 44.2299958, -25.2195459 ], [ 44.230011, -25.2196486 ], [ 44.230036, -25.2198029 ], [ 44.2300588, -25.2199402 ], [ 44.2300574, -25.2200959 ], [ 44.2300592, -25.2202038 ], [ 44.2300071, -25.2203223 ], [ 44.2299395, -25.2204329 ], [ 44.2298905, -25.2205091 ], [ 44.2298266, -25.2205824 ], [ 44.229446, -25.2209762 ], [ 44.2293585, -25.2210616 ], [ 44.2292506, -25.2211407 ], [ 44.2290586, -25.2213144 ], [ 44.2288414, -25.2215656 ], [ 44.2287672, -25.2217133 ], [ 44.2286251, -25.2219378 ], [ 44.2284591, -25.2221376 ], [ 44.2282845, -25.2223814 ], [ 44.228127, -25.2226808 ], [ 44.2279841, -25.2229167 ], [ 44.2279114, -25.2230699 ], [ 44.2277841, -25.2232729 ], [ 44.2276671, -25.2234686 ], [ 44.2273117, -25.2238545 ], [ 44.2271977, -25.2240272 ], [ 44.2270647, -25.2242724 ], [ 44.2268768, -25.2246247 ], [ 44.2267421, -25.2248641 ], [ 44.2265812, -25.2251162 ], [ 44.226479, -25.2252732 ], [ 44.226345, -25.225404 ], [ 44.2261324, -25.2256208 ], [ 44.225892, -25.2258331 ], [ 44.2257061, -25.2259816 ], [ 44.2255644, -25.2260677 ], [ 44.2253773, -25.2261906 ], [ 44.2252013, -25.2262849 ], [ 44.2250073, -25.2263889 ], [ 44.2247617, -25.2264895 ], [ 44.224518, -25.226583 ], [ 44.2243675, -25.2266502 ], [ 44.2242631, -25.2266881 ], [ 44.2240576, -25.226751 ], [ 44.2237778, -25.2268103 ], [ 44.222811, -25.2270166 ], [ 44.222577, -25.2270592 ], [ 44.2223635, -25.2270991 ], [ 44.222199, -25.2271294 ], [ 44.2219694, -25.2271737 ], [ 44.2217745, -25.227204 ], [ 44.2215946, -25.227223 ], [ 44.2213449, -25.2272498 ], [ 44.2209484, -25.2272745 ], [ 44.2207452, -25.2272889 ] ] ] ] } },
{ "type": "Feature", "properties": { "FID": 40458, "id": 1608, "left": 40.0, "top": -25.0, "right": 45.0, "bottom": -30.0, "row_index": 23, "col_index": 44, "min_lon": 40.0, "min_lat": -30.0, "tile_id": "40_-30" }, "geometry": { "type": "MultiPolygon", "coordinates": [ [ [ [ 44.0306175, -25.0640985 ], [ 44.0305397, -25.0641787 ], [ 44.030419, -25.0642005 ], [ 44.0303037, -25.0641957 ], [ 44.0294427, -25.063598 ], [ 44.0287359, -25.0628375 ], [ 44.0282477, -25.0624901 ], [ 44.0280591, -25.0623203 ], [ 44.0279782, -25.0621888 ], [ 44.0279742, -25.0619774 ], [ 44.0280023, -25.0619191 ], [ 44.0280586, -25.061896 ], [ 44.0284178, -25.0619626 ], [ 44.0285763, -25.0619446 ], [ 44.0287426, -25.0618887 ], [ 44.0293837, -25.0616737 ], [ 44.0296894, -25.0616081 ], [ 44.0300676, -25.0615668 ], [ 44.0303063, -25.0615935 ], [ 44.0304431, -25.061698 ], [ 44.0304995, -25.0618389 ], [ 44.0304914, -25.0620503 ], [ 44.0305155, -25.0623661 ], [ 44.0305826, -25.0625824 ], [ 44.0306872, -25.0628035 ], [ 44.0307462, -25.0633089 ], [ 44.0307382, -25.0638239 ], [ 44.0306175, -25.0640985 ] ] ] ] } },
{ "type": "Feature", "properties": { "FID": 40618, "id": 1608, "left": 40.0, "top": -25.0, "right": 45.0, "bottom": -30.0, "row_index": 23, "col_index": 44, "min_lon": 40.0, "min_lat": -30.0, "tile_id": "40_-30" }, "geometry": { "type": "MultiPolygon", "coordinates": [ [ [ [ 44.9999624, -25.4871447 ], [ 44.9996701, -25.4869123 ], [ 44.9994796, -25.4867791 ], [ 44.9986723, -25.4864184 ], [ 44.9982083, -25.4861775 ], [ 44.997814, -25.4860382 ], [ 44.9975565, -25.4859801 ], [ 44.9973097, -25.4859462 ], [ 44.9970201, -25.4859027 ], [ 44.9965453, -25.4857852 ], [ 44.9961336, -25.4857053 ], [ 44.9957246, -25.4856012 ], [ 44.9956937, -25.4855879 ], [ 44.9956615, -25.4855564 ], [ 44.9955945, -25.4854898 ], [ 44.9955448, -25.4854753 ], [ 44.9954443, -25.4854729 ], [ 44.9952511, -25.4854717 ], [ 44.9950701, -25.485462 ], [ 44.994826, -25.4854099 ], [ 44.9943915, -25.4852598 ], [ 44.9939221, -25.4850492 ], [ 44.9934487, -25.4848095 ], [ 44.9931201, -25.4846448 ], [ 44.9928278, -25.4844911 ], [ 44.9925622, -25.4843192 ], [ 44.992235, -25.4841896 ], [ 44.9914156, -25.4839003 ], [ 44.9906284, -25.4835662 ], [ 44.9899699, -25.4833349 ], [ 44.9891585, -25.4830565 ], [ 44.988614, -25.4828628 ], [ 44.9879783, -25.4826195 ], [ 44.9874942, -25.4823664 ], [ 44.9869953, -25.4821134 ], [ 44.9863797, -25.4818592 ], [ 44.9859479, -25.4816727 ], [ 44.9853484, -25.4813894 ], [ 44.9848925, -25.4811267 ], [ 44.9845746, -25.4809778 ], [ 44.9841656, -25.4808398 ], [ 44.98412, -25.4808059 ], [ 44.9840972, -25.4807466 ], [ 44.9840797, -25.4806945 ], [ 44.9840449, -25.4806618 ], [ 44.9840194, -25.4806558 ], [ 44.9839805, -25.4806631 ], [ 44.9839081, -25.4806957 ], [ 44.9838705, -25.4807018 ], [ 44.9838155, -25.4806848 ], [ 44.9837619, -25.4806485 ], [ 44.9837136, -25.4805832 ], [ 44.9836761, -25.4805493 ], [ 44.9836251, -25.4805444 ], [ 44.9835446, -25.4805468 ], [ 44.983483, -25.480542 ], [ 44.9834052, -25.4805032 ], [ 44.9833301, -25.4804233 ], [ 44.9832201, -25.4803568 ], [ 44.9829908, -25.4802805 ], [ 44.9828151, -25.4802466 ], [ 44.9826702, -25.4801739 ], [ 44.9825603, -25.4800844 ], [ 44.9822652, -25.4799367 ], [ 44.9820158, -25.4798543 ], [ 44.9817502, -25.4797793 ], [ 44.9815598, -25.4797381 ], [ 44.9812245, -25.4796485 ], [ 44.9809241, -25.4795759 ], [ 44.9807498, -25.4794936 ], [ 44.9805835, -25.4793967 ], [ 44.9804386, -25.4793531 ], [ 44.9801517, -25.4792877 ], [ 44.9799317, -25.4792175 ], [ 44.9797453, -25.479134 ], [ 44.9794838, -25.478996 ], [ 44.9792853, -25.4788906 ], [ 44.9790412, -25.4788023 ], [ 44.9788038, -25.4787127 ], [ 44.9787542, -25.4787042 ], [ 44.9786872, -25.478709 ], [ 44.9784511, -25.4786981 ], [ 44.9782956, -25.4786606 ], [ 44.97814, -25.4786073 ], [ 44.9779496, -25.4785311 ], [ 44.977802, -25.4784681 ], [ 44.9776988, -25.4784306 ], [ 44.9775378, -25.4783906 ], [ 44.9772643, -25.4783071 ], [ 44.9767144, -25.4781255 ], [ 44.976292, -25.4780141 ], [ 44.9759111, -25.4779306 ], [ 44.975659, -25.4779136 ], [ 44.9754511, -25.477933 ], [ 44.9752875, -25.4779778 ], [ 44.9750783, -25.4780674 ], [ 44.9749616, -25.4780855 ], [ 44.9748597, -25.4780722 ], [ 44.9747081, -25.4780068 ], [ 44.974519, -25.4779657 ], [ 44.9743339, -25.4779487 ], [ 44.9741998, -25.4779403 ], [ 44.9739718, -25.4778906 ], [ 44.9738029, -25.4777889 ], [ 44.9736741, -25.4777018 ], [ 44.9736191, -25.4776291 ], [ 44.9735574, -25.4775068 ], [ 44.9734542, -25.4773289 ], [ 44.9733885, -25.4771594 ], [ 44.9733764, -25.4771049 ], [ 44.9733871, -25.4770395 ], [ 44.9734233, -25.4769608 ], [ 44.9735521, -25.4767647 ], [ 44.9735588, -25.4766109 ], [ 44.9735065, -25.4764874 ], [ 44.973371, -25.4762538 ], [ 44.973202, -25.4760225 ], [ 44.9730116, -25.4758252 ], [ 44.9727514, -25.4755673 ], [ 44.9725637, -25.4753009 ], [ 44.9725141, -25.4752392 ], [ 44.972439, -25.4751811 ], [ 44.9723022, -25.4750649 ], [ 44.9721962, -25.4749668 ], [ 44.9720728, -25.4748675 ], [ 44.9717617, -25.4745612 ], [ 44.971464, -25.4743118 ], [ 44.971071, -25.4740285 ], [ 44.97078, -25.4738602 ], [ 44.9704675, -25.4737064 ], [ 44.9702516, -25.473549 ], [ 44.9698895, -25.4732294 ], [ 44.9692927, -25.4727717 ], [ 44.9686436, -25.4722487 ], [ 44.968527, -25.4721422 ], [ 44.9684679, -25.472038 ], [ 44.9684009, -25.4719678 ], [ 44.9682668, -25.4718782 ], [ 44.968126, -25.4717898 ], [ 44.9680187, -25.4717584 ], [ 44.9679463, -25.4717426 ], [ 44.967898, -25.4717148 ], [ 44.9678282, -25.4716494 ], [ 44.9677518, -25.4716058 ], [ 44.9676418, -25.4715731 ], [ 44.9672931, -25.4713939 ], [ 44.9663101, -25.4708103 ], [ 44.9658407, -25.4705379 ], [ 44.9653324, -25.4703054 ], [ 44.9649744, -25.4701565 ], [ 44.9648657, -25.4701214 ], [ 44.964733, -25.4701166 ], [ 44.9646083, -25.470119 ], [ 44.9645331, -25.4701033 ], [ 44.9644768, -25.4700645 ], [ 44.964391, -25.4699604 ], [ 44.9643132, -25.4698296 ], [ 44.9642515, -25.4697255 ], [ 44.9641228, -25.4696068 ], [ 44.963868, -25.4694107 ], [ 44.9633744, -25.4691831 ], [ 44.9632323, -25.4691419 ], [ 44.9630499, -25.4691153 ], [ 44.9628997, -25.4690741 ], [ 44.9627119, -25.46897 ], [ 44.9621916, -25.4687762 ], [ 44.9619046, -25.4686842 ], [ 44.9615961, -25.4685438 ], [ 44.9615344, -25.4684881 ], [ 44.9614754, -25.4683307 ], [ 44.9614862, -25.4682266 ], [ 44.9615291, -25.4681878 ], [ 44.9616283, -25.4681321 ], [ 44.9617437, -25.4680401 ], [ 44.9618027, -25.467919 ], [ 44.9618375, -25.4677592 ], [ 44.9618804, -25.4676575 ], [ 44.9618912, -25.4675485 ], [ 44.9618724, -25.467425 ], [ 44.9618161, -25.4671829 ], [ 44.9617383, -25.4669528 ], [ 44.9617195, -25.4668535 ], [ 44.9617463, -25.4667567 ], [ 44.9617785, -25.4666477 ], [ 44.9617517, -25.4665799 ], [ 44.9616578, -25.4664297 ], [ 44.961572, -25.4663183 ], [ 44.9615666, -25.4662651 ], [ 44.9616015, -25.4661948 ], [ 44.9616256, -25.4660229 ], [ 44.9615666, -25.4658292 ], [ 44.9614969, -25.4655822 ], [ 44.9614271, -25.4654175 ], [ 44.9613199, -25.4652601 ], [ 44.9610892, -25.4650058 ], [ 44.9607781, -25.4646959 ], [ 44.9605501, -25.464444 ], [ 44.9603543, -25.4641873 ], [ 44.9601075, -25.4638652 ], [ 44.9599493, -25.4636352 ], [ 44.9597803, -25.46341 ], [ 44.9595496, -25.4630322 ], [ 44.9593672, -25.462698 ], [ 44.9592921, -25.4624728 ], [ 44.9592492, -25.4623856 ], [ 44.9591902, -25.4623178 ], [ 44.9590775, -25.4621701 ], [ 44.9587047, -25.4615162 ], [ 44.958348, -25.4608914 ], [ 44.9582487, -25.460751 ], [ 44.9580476, -25.4604846 ], [ 44.9578437, -25.4601625 ], [ 44.9575245, -25.459511 ], [ 44.9573958, -25.4592011 ], [ 44.9573421, -25.4590073 ], [ 44.9572375, -25.458644 ], [ 44.9570766, -25.4581984 ], [ 44.9568084, -25.4575082 ], [ 44.9567172, -25.4572079 ], [ 44.9566072, -25.4566582 ], [ 44.9564865, -25.4563409 ], [ 44.9563739, -25.4561036 ], [ 44.9562183, -25.4558856 ], [ 44.9559796, -25.455658 ], [ 44.9557382, -25.4554739 ], [ 44.9555799, -25.4553335 ], [ 44.9555477, -25.4552439 ], [ 44.9555451, -25.4551179 ], [ 44.9555263, -25.4549169 ], [ 44.9554887, -25.4546989 ], [ 44.955427, -25.4544495 ], [ 44.955301, -25.4542315 ], [ 44.9551696, -25.4540862 ], [ 44.9548477, -25.4537835 ], [ 44.9545674, -25.4534396 ], [ 44.9544159, -25.4532047 ], [ 44.9542496, -25.4530133 ], [ 44.9539505, -25.4527215 ], [ 44.953516, -25.4523413 ], [ 44.9531659, -25.4519816 ], [ 44.9529353, -25.4517564 ], [ 44.9525839, -25.4514512 ], [ 44.952305, -25.4511921 ], [ 44.952026, -25.4509317 ], [ 44.9518034, -25.4506883 ], [ 44.9516371, -25.4505539 ], [ 44.9513729, -25.4503505 ], [ 44.9510537, -25.4501603 ], [ 44.9508391, -25.450032 ], [ 44.9504918, -25.4497619 ], [ 44.9503764, -25.4496469 ], [ 44.9502826, -25.449544 ], [ 44.9501458, -25.4494108 ], [ 44.9499916, -25.4492727 ], [ 44.9498199, -25.4490959 ], [ 44.9495932, -25.4487798 ], [ 44.9495262, -25.4486624 ], [ 44.9494229, -25.4483984 ], [ 44.9493036, -25.4481768 ], [ 44.9491614, -25.4479685 ], [ 44.9489562, -25.4476851 ], [ 44.9489079, -25.447564 ], [ 44.9488851, -25.4474369 ], [ 44.9488664, -25.447271 ], [ 44.9488141, -25.4470687 ], [ 44.9487591, -25.4469827 ], [ 44.9486478, -25.4468798 ], [ 44.9484949, -25.4468011 ], [ 44.948232, -25.4466364 ], [ 44.948047, -25.4464717 ], [ 44.9476258, -25.4460951 ], [ 44.9472678, -25.4457996 ], [ 44.9469647, -25.4455852 ], [ 44.9467327, -25.4454302 ], [ 44.9464497, -25.4452001 ], [ 44.9462512, -25.4450621 ], [ 44.9461251, -25.4449313 ], [ 44.945928, -25.4446867 ], [ 44.9458516, -25.4445753 ], [ 44.9456947, -25.4442834 ], [ 44.9455257, -25.443931 ], [ 44.9452534, -25.4434393 ], [ 44.945071, -25.4431414 ], [ 44.9449745, -25.4430009 ], [ 44.944898, -25.442927 ], [ 44.9447089, -25.4427369 ], [ 44.9444649, -25.4425056 ], [ 44.9442154, -25.4422973 ], [ 44.9440411, -25.4420902 ], [ 44.9438976, -25.4418613 ], [ 44.9435864, -25.4414205 ], [ 44.9433973, -25.4411771 ], [ 44.9431103, -25.4408344 ], [ 44.9428971, -25.4405582 ], [ 44.9427415, -25.4403814 ], [ 44.9424492, -25.4399479 ], [ 44.9422172, -25.4396427 ], [ 44.9420562, -25.4394186 ], [ 44.9419275, -25.4392224 ], [ 44.9418336, -25.4391025 ], [ 44.9418028, -25.4390347 ], [ 44.9417666, -25.4388736 ], [ 44.9417344, -25.4387622 ], [ 44.9416579, -25.4386254 ], [ 44.9415399, -25.4384473 ], [ 44.9415332, -25.4383965 ], [ 44.9415426, -25.4383492 ], [ 44.9415976, -25.4382088 ], [ 44.9417196, -25.4380138 ], [ 44.9418806, -25.4378139 ], [ 44.9419731, -25.4376238 ], [ 44.9420375, -25.4374433 ], [ 44.942067, -25.4372702 ], [ 44.9420549, -25.4369189 ], [ 44.9419892, -25.4363885 ], [ 44.9419329, -25.4359803 ], [ 44.9418765, -25.4357284 ], [ 44.9417974, -25.4353748 ], [ 44.9417049, -25.435095 ], [ 44.9416231, -25.4348843 ], [ 44.9414621, -25.4344689 ], [ 44.9413629, -25.4342339 ], [ 44.9413079, -25.4340716 ], [ 44.9412838, -25.433942 ], [ 44.941218, -25.4337943 ], [ 44.9411161, -25.4336271 ], [ 44.9408412, -25.4333219 ], [ 44.9405917, -25.4329877 ], [ 44.9403664, -25.4327043 ], [ 44.9402082, -25.4325517 ], [ 44.9400875, -25.4323336 ], [ 44.9399453, -25.4319727 ], [ 44.9398434, -25.4315537 ], [ 44.9398005, -25.4313042 ], [ 44.9397254, -25.4310305 ], [ 44.9396691, -25.4308778 ], [ 44.9396127, -25.43081 ], [ 44.9394196, -25.4305629 ], [ 44.9391353, -25.4301657 ], [ 44.9389046, -25.4296885 ], [ 44.9387652, -25.4292403 ], [ 44.9386632, -25.4288625 ], [ 44.9385318, -25.4284434 ], [ 44.9384138, -25.4275653 ], [ 44.9384011, -25.427165 ], [ 44.9384393, -25.4270396 ], [ 44.9386083, -25.4268289 ], [ 44.938847, -25.4263153 ], [ 44.9393204, -25.4258248 ], [ 44.9398461, -25.425195 ], [ 44.9399279, -25.4248746 ], [ 44.939948, -25.4246087 ], [ 44.9398474, -25.4242611 ], [ 44.9396637, -25.4238384 ], [ 44.9394988, -25.4234544 ], [ 44.9394786, -25.423217 ], [ 44.9395055, -25.4230087 ], [ 44.9394894, -25.4226502 ], [ 44.9396436, -25.4223886 ], [ 44.9395095, -25.4218193 ], [ 44.9394894, -25.4217212 ], [ 44.9394625, -25.4216279 ], [ 44.9394344, -25.4215298 ], [ 44.9394022, -25.4214716 ], [ 44.9393083, -25.4213481 ], [ 44.9391581, -25.4211591 ], [ 44.938843, -25.4206662 ], [ 44.9386498, -25.4203355 ], [ 44.9385332, -25.4201707 ], [ 44.9383306, -25.4199673 ], [ 44.9380074, -25.4196596 ], [ 44.9378465, -25.419513 ], [ 44.9375609, -25.4193023 ], [ 44.9372685, -25.419123 ], [ 44.936838, -25.4188747 ], [ 44.9365751, -25.418693 ], [ 44.9361205, -25.4183708 ], [ 44.935623, -25.4180752 ], [ 44.9353386, -25.4179032 ], [ 44.9348746, -25.4176234 ], [ 44.9342389, -25.4171849 ], [ 44.9337347, -25.4168373 ], [ 44.9334303, -25.4166302 ], [ 44.933209, -25.4164981 ], [ 44.9327932, -25.416251 ], [ 44.932694, -25.4161844 ], [ 44.9326001, -25.4161142 ], [ 44.9325237, -25.4160693 ], [ 44.9323896, -25.4159627 ], [ 44.9322407, -25.4157883 ], [ 44.9319054, -25.4153547 ], [ 44.9317217, -25.4151439 ], [ 44.9316627, -25.4150918 ], [ 44.9315326, -25.4150094 ], [ 44.9310404, -25.4146763 ], [ 44.9305871, -25.4143384 ], [ 44.9301942, -25.4140525 ], [ 44.9299648, -25.4138974 ], [ 44.9296309, -25.4136891 ], [ 44.9294177, -25.4135304 ], [ 44.9292997, -25.4134141 ], [ 44.9290891, -25.4131888 ], [ 44.9289724, -25.4130907 ], [ 44.9287739, -25.4129587 ], [ 44.928503, -25.4127903 ], [ 44.9283756, -25.4126764 ], [ 44.928267, -25.4125577 ], [ 44.9281409, -25.4124402 ], [ 44.927803, -25.4121955 ], [ 44.9273859, -25.4118939 ], [ 44.9270439, -25.4116613 ], [ 44.9268736, -25.4115244 ], [ 44.9267127, -25.4113706 ], [ 44.9263814, -25.4111223 ], [ 44.9259683, -25.410794 ], [ 44.925684, -25.4105457 ], [ 44.9254252, -25.4103712 ], [ 44.9249022, -25.4100054 ], [ 44.9245736, -25.4097922 ], [ 44.9243496, -25.409671 ], [ 44.9241954, -25.4095487 ], [ 44.9240385, -25.4093549 ], [ 44.9235356, -25.4089236 ], [ 44.9233143, -25.4086789 ], [ 44.9230152, -25.40841 ], [ 44.9227644, -25.4082101 ], [ 44.922393, -25.4079485 ], [ 44.9220912, -25.4077098 ], [ 44.9216607, -25.4074203 ], [ 44.9212342, -25.4070896 ], [ 44.9207582, -25.4067395 ], [ 44.9206254, -25.4066426 ], [ 44.9205543, -25.4066002 ], [ 44.9204618, -25.4065554 ], [ 44.9203196, -25.406479 ], [ 44.920219, -25.4064027 ], [ 44.9201278, -25.4062949 ], [ 44.9200782, -25.4062477 ], [ 44.9199843, -25.4061883 ], [ 44.9198033, -25.4060575 ], [ 44.9195069, -25.4057716 ], [ 44.9192843, -25.405579 ], [ 44.9191234, -25.4054251 ], [ 44.9190281, -25.4053585 ], [ 44.9189396, -25.4053137 ], [ 44.918721, -25.4052228 ], [ 44.9184756, -25.4051198 ], [ 44.9181738, -25.4048921 ], [ 44.9179338, -25.4046644 ], [ 44.9173933, -25.4042246 ], [ 44.9169749, -25.4039157 ], [ 44.9167362, -25.4037691 ], [ 44.9165981, -25.4036613 ], [ 44.9164733, -25.4035862 ], [ 44.9163352, -25.4035123 ], [ 44.91613, -25.4034275 ], [ 44.9158698, -25.4032809 ], [ 44.915442, -25.4030144 ], [ 44.9151792, -25.4028751 ], [ 44.9149592, -25.4027503 ], [ 44.9146561, -25.402594 ], [ 44.9143866, -25.4024026 ], [ 44.9141479, -25.4022148 ], [ 44.9139842, -25.4020573 ], [ 44.9137978, -25.4019108 ], [ 44.9136396, -25.4018199 ], [ 44.9135068, -25.4017678 ], [ 44.9133432, -25.4017266 ], [ 44.9131004, -25.401666 ], [ 44.9128845, -25.4015607 ], [ 44.9126217, -25.4014153 ], [ 44.9123038, -25.4012275 ], [ 44.9121442, -25.4011512 ], [ 44.9119525, -25.4010652 ], [ 44.9116547, -25.4008956 ], [ 44.9110915, -25.4004812 ], [ 44.910842, -25.4002741 ], [ 44.9106637, -25.4000887 ], [ 44.9104303, -25.3998707 ], [ 44.9102399, -25.3997338 ], [ 44.9099743, -25.3995775 ], [ 44.9096914, -25.3994139 ], [ 44.9094594, -25.3993073 ], [ 44.9091147, -25.3991159 ], [ 44.908711, -25.398853 ], [ 44.9083073, -25.398572 ], [ 44.9079801, -25.3983297 ], [ 44.907846, -25.3982085 ], [ 44.9077682, -25.398108 ], [ 44.907681, -25.3980183 ], [ 44.9075308, -25.3978899 ], [ 44.9074249, -25.397793 ], [ 44.9072921, -25.3976488 ], [ 44.9071862, -25.3975725 ], [ 44.9071392, -25.3975313 ], [ 44.9071245, -25.3975022 ], [ 44.9071084, -25.3974259 ], [ 44.9070789, -25.3973835 ], [ 44.9070159, -25.3973423 ], [ 44.9066578, -25.3971606 ], [ 44.9063882, -25.3969801 ], [ 44.9061589, -25.3967947 ], [ 44.905896, -25.3965706 ], [ 44.9053985, -25.3962532 ], [ 44.9051866, -25.3960957 ], [ 44.9048379, -25.3958534 ], [ 44.9042679, -25.3954754 ], [ 44.9039461, -25.3952549 ], [ 44.9037302, -25.3951131 ], [ 44.9034056, -25.3948817 ], [ 44.9031052, -25.3946927 ], [ 44.9026211, -25.3943632 ], [ 44.9022147, -25.3940494 ], [ 44.9019827, -25.3938834 ], [ 44.9014664, -25.3934836 ], [ 44.9010614, -25.3932026 ], [ 44.9007864, -25.3929881 ], [ 44.9005799, -25.3928536 ], [ 44.9004914, -25.3927967 ], [ 44.9004257, -25.3927737 ], [ 44.9003103, -25.3927337 ], [ 44.9000837, -25.3926392 ], [ 44.899963, -25.3925556 ], [ 44.8998691, -25.392512 ], [ 44.8997203, -25.3924672 ], [ 44.8995446, -25.3924005 ], [ 44.8992978, -25.3922878 ], [ 44.8989424, -25.3920783 ], [ 44.8987493, -25.3919825 ], [ 44.8985347, -25.3918929 ], [ 44.8983805, -25.3917863 ], [ 44.8983121, -25.391716 ], [ 44.8982759, -25.3916566 ], [ 44.8982035, -25.3915064 ], [ 44.8981364, -25.3914083 ], [ 44.8979634, -25.3912423 ], [ 44.8978668, -25.3911744 ], [ 44.8975342, -25.3909854 ], [ 44.8970541, -25.3907892 ], [ 44.8968583, -25.3906607 ], [ 44.896625, -25.3905057 ], [ 44.896405, -25.3903336 ], [ 44.8961556, -25.3901301 ], [ 44.8960403, -25.3900477 ], [ 44.8957586, -25.3899071 ], [ 44.8953938, -25.3897618 ], [ 44.8951176, -25.3896285 ], [ 44.8949674, -25.3895243 ], [ 44.8946723, -25.3892965 ], [ 44.8944417, -25.389156 ], [ 44.8943397, -25.3890833 ], [ 44.894152, -25.3889936 ], [ 44.893975, -25.3889524 ], [ 44.893806, -25.388933 ], [ 44.8936102, -25.3888434 ], [ 44.893173, -25.3885138 ], [ 44.8924112, -25.3879565 ], [ 44.8921591, -25.3877675 ], [ 44.8916066, -25.3874064 ], [ 44.8912311, -25.3871035 ], [ 44.891054, -25.3869896 ], [ 44.8908368, -25.3868927 ], [ 44.890696, -25.3867982 ], [ 44.8904492, -25.386591 ], [ 44.890193, -25.3864323 ], [ 44.8897693, -25.3861827 ], [ 44.8891228, -25.385858 ], [ 44.8885837, -25.3856133 ], [ 44.8883115, -25.3854812 ], [ 44.887991, -25.3853164 ], [ 44.8877227, -25.3851819 ], [ 44.8875082, -25.3850826 ], [ 44.8873579, -25.3850014 ], [ 44.8871675, -25.3848584 ], [ 44.8870119, -25.3847433 ], [ 44.8868175, -25.3845628 ], [ 44.8865935, -25.3843786 ], [ 44.8863441, -25.3842199 ], [ 44.8861134, -25.3841157 ], [ 44.8856762, -25.383957 ], [ 44.885353, -25.3838395 ], [ 44.8849198, -25.3836626 ], [ 44.8846891, -25.3835341 ], [ 44.8844531, -25.3834251 ], [ 44.8841701, -25.3832591 ], [ 44.8838402, -25.383081 ], [ 44.8835908, -25.3829489 ], [ 44.8833923, -25.3828217 ], [ 44.8831777, -25.382686 ], [ 44.8829055, -25.38248 ], [ 44.8825555, -25.3822146 ], [ 44.882239, -25.381976 ], [ 44.8820351, -25.3818572 ], [ 44.8817937, -25.3816791 ], [ 44.8816998, -25.381627 ], [ 44.8815912, -25.3815846 ], [ 44.8812224, -25.3814901 ], [ 44.8809046, -25.3813968 ], [ 44.8807771, -25.3813665 ], [ 44.8806269, -25.3813326 ], [ 44.8804995, -25.3812817 ], [ 44.8804057, -25.3812138 ], [ 44.8803265, -25.381129 ], [ 44.880226, -25.3810527 ], [ 44.8800194, -25.3809049 ], [ 44.8797378, -25.380711 ], [ 44.8792899, -25.3804468 ], [ 44.8787078, -25.3801488 ], [ 44.8780212, -25.3797901 ], [ 44.8776188, -25.3795696 ], [ 44.8774445, -25.3794824 ], [ 44.8771092, -25.3793491 ], [ 44.8766801, -25.3791479 ], [ 44.8759861, -25.3787978 ], [ 44.8755965, -25.3786027 ], [ 44.8753242, -25.37845 ], [ 44.8751217, -25.3783591 ], [ 44.874714, -25.3780877 ], [ 44.8746175, -25.3779908 ], [ 44.874482, -25.3778357 ], [ 44.8744029, -25.3777678 ], [ 44.8742004, -25.3775994 ], [ 44.8739523, -25.3774492 ], [ 44.873566, -25.3772262 ], [ 44.8730671, -25.3769814 ], [ 44.8725226, -25.3767512 ], [ 44.8718789, -25.3764471 ], [ 44.8714216, -25.376235 ], [ 44.8710743, -25.3760727 ], [ 44.870849, -25.3759612 ], [ 44.8704332, -25.37576 ], [ 44.8697036, -25.3752875 ], [ 44.8694247, -25.3750815 ], [ 44.8691618, -25.3748864 ], [ 44.8690331, -25.3748234 ], [ 44.8687971, -25.3747495 ], [ 44.8683304, -25.374512 ], [ 44.8681667, -25.374392 ], [ 44.8679978, -25.3742672 ], [ 44.8677698, -25.3741436 ], [ 44.8673835, -25.3739764 ], [ 44.8671555, -25.3738843 ], [ 44.8669168, -25.3737995 ], [ 44.8666003, -25.3736371 ], [ 44.8661672, -25.3734154 ], [ 44.8658922, -25.3732518 ], [ 44.8656562, -25.373053 ], [ 44.865514, -25.3729573 ], [ 44.8654336, -25.3728798 ], [ 44.86527, -25.372761 ], [ 44.8651747, -25.3727125 ], [ 44.8649695, -25.3726217 ], [ 44.8647174, -25.372532 ], [ 44.8644304, -25.3724205 ], [ 44.8642266, -25.3723163 ], [ 44.864063, -25.3721976 ], [ 44.8638363, -25.3720558 ], [ 44.8636499, -25.3719552 ], [ 44.863269, -25.371788 ], [ 44.8627943, -25.3715965 ], [ 44.8622954, -25.3713239 ], [ 44.861936, -25.371107 ], [ 44.861362, -25.3708501 ], [ 44.8609328, -25.3706223 ], [ 44.8606807, -25.3705023 ], [ 44.8605587, -25.3704647 ], [ 44.8604795, -25.3704538 ], [ 44.8603722, -25.3704405 ], [ 44.860214, -25.3704151 ], [ 44.8599981, -25.3703302 ], [ 44.8596078, -25.3701933 ], [ 44.8592806, -25.3700843 ], [ 44.8586878, -25.369854 ], [ 44.8578107, -25.369459 ], [ 44.8570503, -25.3691209 ], [ 44.8562175, -25.3687356 ], [ 44.8558541, -25.3685526 ], [ 44.8553163, -25.3683005 ], [ 44.854981, -25.3681636 ], [ 44.8546819, -25.3680533 ], [ 44.8543306, -25.3678921 ], [ 44.8539188, -25.3677019 ], [ 44.8538236, -25.3676643 ], [ 44.8536426, -25.3676159 ], [ 44.8534736, -25.3675541 ], [ 44.8532644, -25.367428 ], [ 44.8530284, -25.3672741 ], [ 44.8527816, -25.3671045 ], [ 44.8525523, -25.3669869 ], [ 44.8521258, -25.366764 ], [ 44.8517852, -25.366598 ], [ 44.8515585, -25.3665313 ], [ 44.8513225, -25.3664222 ], [ 44.8510234, -25.3663362 ], [ 44.8507512, -25.3662368 ], [ 44.8502415, -25.3660296 ], [ 44.849508, -25.3657036 ], [ 44.8487945, -25.365374 ], [ 44.8484713, -25.3652419 ], [ 44.8479751, -25.3649632 ], [ 44.8477565, -25.3648784 ], [ 44.8471664, -25.3645997 ], [ 44.8466031, -25.3642943 ], [ 44.8463698, -25.3641864 ], [ 44.8460707, -25.3640471 ], [ 44.8457488, -25.3639307 ], [ 44.8455302, -25.3638435 ], [ 44.8449616, -25.3635405 ], [ 44.8444802, -25.3632933 ], [ 44.8438498, -25.3630243 ], [ 44.8429272, -25.3626607 ], [ 44.8422888, -25.3624038 ], [ 44.8421332, -25.3623675 ], [ 44.8419052, -25.3623505 ], [ 44.8416021, -25.3622851 ], [ 44.8413151, -25.3621954 ], [ 44.8407224, -25.3619288 ], [ 44.8395771, -25.3614659 ], [ 44.8384864, -25.3610667 ], [ 44.8383419, -25.3610138 ], [ 44.8375279, -25.3607 ], [ 44.8374179, -25.3606782 ], [ 44.8373643, -25.3606878 ], [ 44.8372731, -25.3607484 ], [ 44.8372167, -25.3607509 ], [ 44.8370638, -25.3607194 ], [ 44.8360339, -25.3603291 ], [ 44.8359266, -25.3602807 ], [ 44.8358059, -25.3602031 ], [ 44.8356798, -25.3601062 ], [ 44.8355645, -25.3600528 ], [ 44.8352694, -25.359968 ], [ 44.8351756, -25.3599486 ], [ 44.8351058, -25.3599535 ], [ 44.83502, -25.359985 ], [ 44.8348644, -25.3600407 ], [ 44.8347759, -25.3601037 ], [ 44.834725, -25.3601352 ], [ 44.8346606, -25.3601352 ], [ 44.8346311, -25.3601013 ], [ 44.8346338, -25.3600649 ], [ 44.834623, -25.3599922 ], [ 44.8345426, -25.3598929 ], [ 44.834446, -25.3597862 ], [ 44.8343977, -25.3597499 ], [ 44.8341617, -25.3596263 ], [ 44.8339525, -25.359522 ], [ 44.8338801, -25.3594687 ], [ 44.8337969, -25.3594542 ], [ 44.8336762, -25.3594469 ], [ 44.8335877, -25.3594445 ], [ 44.8334643, -25.3594057 ], [ 44.8332873, -25.3593051 ], [ 44.8330191, -25.3591827 ], [ 44.8327535, -25.3590639 ], [ 44.8325202, -25.3589355 ], [ 44.8323673, -25.3588579 ], [ 44.8322158, -25.3587585 ], [ 44.8321179, -25.3586592 ], [ 44.8320213, -25.358578 ], [ 44.8319355, -25.3585271 ], [ 44.8318134, -25.3584556 ], [ 44.8316672, -25.3583489 ], [ 44.8315036, -25.3582883 ], [ 44.8313051, -25.3582229 ], [ 44.8310369, -25.3580641 ], [ 44.8310021, -25.3580532 ], [ 44.8309591, -25.3580229 ], [ 44.8308974, -25.3579514 ], [ 44.8307821, -25.3578593 ], [ 44.8304924, -25.3577006 ], [ 44.8300418, -25.3574836 ], [ 44.8298876, -25.3573843 ], [ 44.829606, -25.3572679 ], [ 44.8291862, -25.3570874 ], [ 44.8289528, -25.3569819 ], [ 44.8288858, -25.356948 ], [ 44.8288469, -25.3569056 ], [ 44.8288147, -25.3568038 ], [ 44.8287866, -25.3567698 ], [ 44.8287007, -25.3567238 ], [ 44.828639, -25.356708 ], [ 44.828525, -25.3566814 ], [ 44.8284365, -25.3566644 ], [ 44.8283292, -25.3566535 ], [ 44.8282997, -25.3566571 ], [ 44.8282716, -25.3566547 ], [ 44.828238, -25.3566402 ], [ 44.8281455, -25.3565808 ], [ 44.8280583, -25.3565541 ], [ 44.8276426, -25.3564656 ], [ 44.8273851, -25.356399 ], [ 44.8271853, -25.3563432 ], [ 44.8270404, -25.3563093 ], [ 44.8269439, -25.3562996 ], [ 44.8269023, -25.3562984 ], [ 44.8268795, -25.3562875 ], [ 44.8268205, -25.3562402 ], [ 44.8267843, -25.356216 ], [ 44.8267494, -25.3562002 ], [ 44.8266864, -25.3561966 ], [ 44.8266582, -25.3562075 ], [ 44.8266099, -25.3562318 ], [ 44.8265617, -25.3562439 ], [ 44.8265147, -25.3562427 ], [ 44.8264571, -25.356233 ], [ 44.8264074, -25.3562354 ], [ 44.8263779, -25.3562475 ], [ 44.8263337, -25.3562754 ], [ 44.8262908, -25.3562936 ], [ 44.8262425, -25.3563263 ], [ 44.8262143, -25.3563614 ], [ 44.826166, -25.3564111 ], [ 44.8261406, -25.3564232 ], [ 44.8260936, -25.3564317 ], [ 44.8260185, -25.3564463 ], [ 44.8259857, -25.3564602 ], [ 44.8259635, -25.3564778 ], [ 44.8259508, -25.3564784 ], [ 44.825938, -25.3564705 ], [ 44.8259387, -25.3564529 ], [ 44.8259394, -25.3564378 ], [ 44.8259602, -25.3563929 ], [ 44.8259971, -25.3563166 ], [ 44.8260279, -25.3562584 ], [ 44.8260467, -25.3562136 ], [ 44.82604, -25.3561772 ], [ 44.8260252, -25.35613 ], [ 44.8260011, -25.3560233 ], [ 44.8259984, -25.3559445 ], [ 44.8260145, -25.3558851 ], [ 44.826048, -25.3558415 ], [ 44.8261084, -25.3558052 ], [ 44.8261204, -25.3557809 ], [ 44.8261017, -25.3557482 ], [ 44.8260359, -25.3556815 ], [ 44.8259072, -25.3555785 ], [ 44.8255773, -25.3554125 ], [ 44.8255042, -25.3553961 ], [ 44.8254915, -25.3553992 ], [ 44.8254807, -25.3554113 ], [ 44.8254546, -25.3554749 ], [ 44.8254351, -25.3555119 ], [ 44.8254217, -25.3555216 ], [ 44.8254157, -25.3555216 ], [ 44.825411, -25.3555161 ], [ 44.8254063, -25.3554937 ], [ 44.8253855, -25.3554276 ], [ 44.8253835, -25.3554149 ], [ 44.8253983, -25.3553792 ], [ 44.8254029, -25.3553483 ], [ 44.8253949, -25.3553258 ], [ 44.8253694, -25.3552919 ], [ 44.8252936, -25.3552531 ], [ 44.8252648, -25.3552556 ], [ 44.8252447, -25.3552665 ], [ 44.8252326, -25.3552907 ], [ 44.8252246, -25.3553289 ], [ 44.8252125, -25.3553561 ], [ 44.8251763, -25.3553798 ], [ 44.8251441, -25.3554028 ], [ 44.825126, -25.3554034 ], [ 44.8251019, -25.3553925 ], [ 44.8250858, -25.3553604 ], [ 44.8250864, -25.3553319 ], [ 44.8250965, -25.3553071 ], [ 44.8251273, -25.3552913 ], [ 44.8251374, -25.3552774 ], [ 44.8251334, -25.355261 ], [ 44.8251193, -25.3552489 ], [ 44.8250938, -25.3552422 ], [ 44.8250227, -25.3552507 ], [ 44.8249838, -25.3552543 ], [ 44.8249497, -25.3552646 ], [ 44.8249282, -25.3552713 ], [ 44.8249141, -25.3552707 ], [ 44.8248732, -25.3552568 ], [ 44.8248444, -25.3552471 ], [ 44.8248202, -25.3552459 ], [ 44.8247968, -25.355255 ], [ 44.8247746, -25.3552713 ], [ 44.8247552, -25.3552895 ], [ 44.8247404, -25.3552913 ], [ 44.824719, -25.3552883 ], [ 44.8246989, -25.3552646 ], [ 44.8247002, -25.3552446 ], [ 44.8247002, -25.3552277 ], [ 44.8246727, -25.3551901 ], [ 44.8246419, -25.3551707 ], [ 44.8245782, -25.3551513 ], [ 44.8245218, -25.3551441 ], [ 44.824485, -25.3551307 ], [ 44.8244776, -25.3551216 ], [ 44.8244809, -25.3551132 ], [ 44.8245433, -25.3550598 ], [ 44.82455, -25.3550435 ], [ 44.8245473, -25.3550307 ], [ 44.8245111, -25.3549944 ], [ 44.8243622, -25.3549071 ], [ 44.8241866, -25.3547811 ], [ 44.8240122, -25.3547011 ], [ 44.8239116, -25.3546732 ], [ 44.8237963, -25.3546526 ], [ 44.8236917, -25.3546502 ], [ 44.8235965, -25.3546647 ], [ 44.8235415, -25.3546853 ], [ 44.8234838, -25.3546853 ], [ 44.8234235, -25.354666 ], [ 44.823343, -25.3546187 ], [ 44.8232813, -25.3545666 ], [ 44.8231593, -25.3544987 ], [ 44.8229702, -25.3544527 ], [ 44.8227569, -25.3544139 ], [ 44.8226564, -25.3543799 ], [ 44.8225705, -25.3543363 ], [ 44.8224418, -25.3542163 ], [ 44.822356, -25.3541327 ], [ 44.8223104, -25.3540709 ], [ 44.8222849, -25.354043 ], [ 44.8222326, -25.3540164 ], [ 44.8221548, -25.35398 ], [ 44.8220743, -25.3539037 ], [ 44.821967, -25.3537825 ], [ 44.821845, -25.3536116 ], [ 44.82179, -25.353551 ], [ 44.8217458, -25.3535231 ], [ 44.8215982, -25.3534758 ], [ 44.8214614, -25.3534274 ], [ 44.8213246, -25.3533837 ], [ 44.8211731, -25.3533486 ], [ 44.8210819, -25.3533268 ], [ 44.8210242, -25.3533256 ], [ 44.8209988, -25.3533304 ], [ 44.8209733, -25.3533231 ], [ 44.8209102, -25.3532916 ], [ 44.8208177, -25.3532359 ], [ 44.8206407, -25.3530941 ], [ 44.8203711, -25.3529644 ], [ 44.820119, -25.3528505 ], [ 44.8200949, -25.3528299 ], [ 44.8200922, -25.352802 ], [ 44.8201069, -25.3527681 ], [ 44.8200975, -25.3527426 ], [ 44.8200761, -25.3527366 ], [ 44.8200479, -25.3527378 ], [ 44.8200063, -25.352745 ], [ 44.8199755, -25.3527499 ], [ 44.8198977, -25.3527293 ], [ 44.8197931, -25.3526978 ], [ 44.8197542, -25.352699 ], [ 44.8197247, -25.3527232 ], [ 44.8197193, -25.3527426 ], [ 44.8197247, -25.3527826 ], [ 44.8197381, -25.3528275 ], [ 44.8197287, -25.3528444 ], [ 44.8196965, -25.3528541 ], [ 44.8196281, -25.3528432 ], [ 44.8196121, -25.3528347 ], [ 44.8196053, -25.3528117 ], [ 44.8196174, -25.3527887 ], [ 44.8196389, -25.3527487 ], [ 44.8196389, -25.3527038 ], [ 44.8196308, -25.3526723 ], [ 44.8196416, -25.3526372 ], [ 44.819663, -25.3525699 ], [ 44.8196603, -25.3525366 ], [ 44.8196503, -25.3525172 ], [ 44.8196221, -25.3524984 ], [ 44.8195738, -25.3524863 ], [ 44.8195343, -25.3524772 ], [ 44.819258, -25.3523415 ], [ 44.8190059, -25.3521718 ], [ 44.8187658, -25.3520142 ], [ 44.8183621, -25.3517306 ], [ 44.818342, -25.3516991 ], [ 44.8183286, -25.3516507 ], [ 44.818334, -25.3516082 ], [ 44.8183286, -25.3515719 ], [ 44.8182857, -25.3515283 ], [ 44.8181677, -25.3514749 ], [ 44.8179477, -25.3513804 ], [ 44.8177627, -25.3512568 ], [ 44.8176634, -25.351201 ], [ 44.8176017, -25.3511986 ], [ 44.8175038, -25.3512034 ], [ 44.8174462, -25.3511913 ], [ 44.8173939, -25.351155 ], [ 44.8173416, -25.3510907 ], [ 44.8173094, -25.3510144 ], [ 44.8172504, -25.3508932 ], [ 44.8172262, -25.3508374 ], [ 44.817194, -25.3508108 ], [ 44.8170975, -25.3507817 ], [ 44.8170626, -25.3507841 ], [ 44.8170331, -25.3507987 ], [ 44.8169956, -25.3508205 ], [ 44.8169392, -25.350835 ], [ 44.8168427, -25.3508423 ], [ 44.8167112, -25.3508544 ], [ 44.8165476, -25.3508592 ], [ 44.8164859, -25.350835 ], [ 44.8164618, -25.3508011 ], [ 44.8164377, -25.3506823 ], [ 44.816384, -25.3505926 ], [ 44.816317, -25.3504787 ], [ 44.8162204, -25.3503623 ], [ 44.8161212, -25.3503042 ], [ 44.815979, -25.3502436 ], [ 44.8158717, -25.3502145 ], [ 44.8158154, -25.3502242 ], [ 44.8157725, -25.3502508 ], [ 44.8157215, -25.3502436 ], [ 44.8156679, -25.3502266 ], [ 44.8153943, -25.3499721 ], [ 44.8152119, -25.349737 ], [ 44.815118, -25.3496206 ], [ 44.8150268, -25.3495964 ], [ 44.8148766, -25.3496012 ], [ 44.8148015, -25.3496158 ], [ 44.8147103, -25.3495964 ], [ 44.8145601, -25.3495237 ], [ 44.8140424, -25.3492595 ], [ 44.8139217, -25.349177 ], [ 44.8138198, -25.3490364 ], [ 44.8137045, -25.348908 ], [ 44.8135489, -25.3487698 ], [ 44.8131064, -25.3484183 ], [ 44.8126933, -25.3481856 ], [ 44.812232, -25.3479166 ], [ 44.8119932, -25.3477372 ], [ 44.8117384, -25.3474366 ], [ 44.8111591, -25.3468718 ], [ 44.8110116, -25.3467312 ], [ 44.8109257, -25.3466076 ], [ 44.8108801, -25.3464816 ], [ 44.810864, -25.3463773 ], [ 44.810856, -25.3461471 ], [ 44.8108479, -25.3459968 ], [ 44.8107862, -25.3457932 ], [ 44.8105985, -25.3453374 ], [ 44.8103316, -25.3446769 ], [ 44.8102847, -25.3444781 ], [ 44.8102552, -25.3442624 ], [ 44.8102511, -25.34418 ], [ 44.8102833, -25.3440975 ], [ 44.8103598, -25.34406 ], [ 44.810455, -25.3440491 ], [ 44.8105811, -25.3440588 ], [ 44.8106414, -25.3440648 ], [ 44.8106964, -25.3440418 ], [ 44.8107353, -25.3439921 ], [ 44.8107634, -25.3438442 ], [ 44.8107702, -25.3437157 ], [ 44.8107085, -25.3434661 ], [ 44.8105502, -25.343214 ], [ 44.8102739, -25.3429158 ], [ 44.809818, -25.342557 ], [ 44.8095256, -25.3423752 ], [ 44.8092091, -25.3421934 ], [ 44.8088926, -25.3420237 ], [ 44.8080933, -25.3416941 ], [ 44.807286, -25.3414274 ], [ 44.8061246, -25.3409814 ], [ 44.8046359, -25.3403172 ], [ 44.8036596, -25.3399972 ], [ 44.8023078, -25.3395293 ], [ 44.8012134, -25.3391439 ], [ 44.800508, -25.3389524 ], [ 44.7999233, -25.3388384 ], [ 44.7990784, -25.3385839 ], [ 44.7983327, -25.3382809 ], [ 44.797807, -25.3380845 ], [ 44.79693, -25.3377257 ], [ 44.7965115, -25.3375682 ], [ 44.7962138, -25.3374154 ], [ 44.7959483, -25.3373064 ], [ 44.7950846, -25.3371173 ], [ 44.7946662, -25.3370009 ], [ 44.7944275, -25.3369621 ], [ 44.7941217, -25.3369233 ], [ 44.7939178, -25.3369233 ], [ 44.7936979, -25.3368894 ], [ 44.7934753, -25.336807 ], [ 44.7932929, -25.3366736 ], [ 44.7931024, -25.3364991 ], [ 44.7929415, -25.3363682 ], [ 44.7926035, -25.3362276 ], [ 44.7916943, -25.3359294 ], [ 44.7909674, -25.3357427 ], [ 44.7900259, -25.3354785 ], [ 44.7894788, -25.3353015 ], [ 44.788886, -25.335093 ], [ 44.7882611, -25.3348215 ], [ 44.7880357, -25.3347585 ], [ 44.7876307, -25.3347124 ], [ 44.7873518, -25.3347076 ], [ 44.7868878, -25.3346494 ], [ 44.7864398, -25.3345282 ], [ 44.7856164, -25.3341427 ], [ 44.7853938, -25.3340288 ], [ 44.78497, -25.333784 ], [ 44.7842324, -25.3335585 ], [ 44.7840071, -25.3334955 ], [ 44.7835833, -25.3334421 ], [ 44.7825962, -25.3331658 ], [ 44.7807777, -25.332647 ], [ 44.7790128, -25.3320506 ], [ 44.7776502, -25.3316966 ], [ 44.7766364, -25.3313912 ], [ 44.7748661, -25.3309306 ], [ 44.7738093, -25.3305669 ], [ 44.7734553, -25.3304505 ], [ 44.773069, -25.3302954 ], [ 44.7726613, -25.3301451 ], [ 44.7715723, -25.3298736 ], [ 44.7697163, -25.3294032 ], [ 44.7678602, -25.3288796 ], [ 44.7665191, -25.3285014 ], [ 44.7651404, -25.3281523 ], [ 44.763751, -25.3277789 ], [ 44.763059, -25.3275365 ], [ 44.7611225, -25.3271486 ], [ 44.7548354, -25.3251218 ], [ 44.7510105, -25.3240695 ], [ 44.7478455, -25.3232792 ], [ 44.7457749, -25.3227991 ], [ 44.7439671, -25.3223579 ], [ 44.7427145, -25.3220306 ], [ 44.7422799, -25.3218608 ], [ 44.7414646, -25.321616 ], [ 44.7409308, -25.321502 ], [ 44.739866, -25.3212547 ], [ 44.7394663, -25.3211505 ], [ 44.738954, -25.3210535 ], [ 44.7385356, -25.3209565 ], [ 44.738152, -25.3208426 ], [ 44.7378677, -25.3206995 ], [ 44.7375914, -25.320554 ], [ 44.7374734, -25.3204716 ], [ 44.7373259, -25.3204328 ], [ 44.7369719, -25.3203601 ], [ 44.7365883, -25.3202752 ], [ 44.7362208, -25.3202194 ], [ 44.7359472, -25.3201782 ], [ 44.7356656, -25.3201128 ], [ 44.7346544, -25.3198655 ], [ 44.7333562, -25.3195309 ], [ 44.7318006, -25.3190605 ], [ 44.731071, -25.3188375 ], [ 44.7300303, -25.3185804 ], [ 44.7293691, -25.3183828 ], [ 44.7287871, -25.3181998 ], [ 44.7279435, -25.3178991 ], [ 44.7273347, -25.3177173 ], [ 44.7269565, -25.3176349 ], [ 44.7267473, -25.3175694 ], [ 44.7262457, -25.3173221 ], [ 44.7259024, -25.317133 ], [ 44.7255939, -25.3170166 ], [ 44.7253525, -25.3169681 ], [ 44.725087, -25.3169269 ], [ 44.7246578, -25.3169002 ], [ 44.7242635, -25.3168444 ], [ 44.7239229, -25.3167547 ], [ 44.7236359, -25.3166384 ], [ 44.7231907, -25.3164032 ], [ 44.7228286, -25.3162577 ], [ 44.7226515, -25.3162189 ], [ 44.7224343, -25.316185 ], [ 44.7222117, -25.3161753 ], [ 44.7217637, -25.3161268 ], [ 44.7209805, -25.3159764 ], [ 44.7202724, -25.3157413 ], [ 44.7190976, -25.3153048 ], [ 44.7185531, -25.315123 ], [ 44.7180757, -25.314992 ], [ 44.7177458, -25.314946 ], [ 44.7173354, -25.3148805 ], [ 44.7171208, -25.3148635 ], [ 44.7168419, -25.3148611 ], [ 44.7163457, -25.3147762 ], [ 44.716056, -25.3146914 ], [ 44.7155812, -25.3144926 ], [ 44.7152084, -25.3143689 ], [ 44.7149321, -25.3143059 ], [ 44.7144815, -25.3142307 ], [ 44.7138458, -25.3141167 ], [ 44.7133926, -25.3140101 ], [ 44.7129956, -25.3138573 ], [ 44.7127837, -25.3137821 ], [ 44.7124457, -25.3137191 ], [ 44.7119334, -25.3136585 ], [ 44.7116062, -25.3136197 ], [ 44.7112522, -25.313576 ], [ 44.7109947, -25.3135494 ], [ 44.7105923, -25.3134694 ], [ 44.71008, -25.313319 ], [ 44.7094685, -25.3131638 ], [ 44.7092539, -25.3131299 ], [ 44.7089964, -25.313096 ], [ 44.7087309, -25.3130935 ], [ 44.7081904, -25.3130487 ], [ 44.7076084, -25.3129129 ], [ 44.7068574, -25.3127092 ], [ 44.7065932, -25.3126328 ], [ 44.7064845, -25.3126195 ], [ 44.706388, -25.3126316 ], [ 44.7062552, -25.3126462 ], [ 44.706164, -25.3126389 ], [ 44.7060299, -25.3125977 ], [ 44.7058663, -25.3125662 ], [ 44.705763, -25.3125431 ], [ 44.7056611, -25.3125055 ], [ 44.7056007, -25.3124934 ], [ 44.7055109, -25.312491 ], [ 44.7051796, -25.3125043 ], [ 44.7049355, -25.312491 ], [ 44.7046083, -25.3124643 ], [ 44.7043321, -25.3124183 ], [ 44.7042529, -25.3124183 ], [ 44.7040477, -25.3124413 ], [ 44.7037621, -25.3124558 ], [ 44.7035582, -25.3124522 ], [ 44.7031304, -25.3123843 ], [ 44.7028139, -25.3123576 ], [ 44.7026838, -25.3123698 ], [ 44.7025229, -25.3123904 ], [ 44.7023968, -25.3124013 ], [ 44.7020227, -25.3124013 ], [ 44.7015412, -25.3123431 ], [ 44.7012341, -25.3122825 ], [ 44.7009424, -25.3122256 ], [ 44.7008304, -25.3122037 ], [ 44.7003973, -25.3121382 ], [ 44.6999922, -25.3120909 ], [ 44.6997012, -25.3120497 ], [ 44.6996047, -25.312017 ], [ 44.6994974, -25.3119685 ], [ 44.6993552, -25.3119127 ], [ 44.6992613, -25.3118873 ], [ 44.6990803, -25.3118715 ], [ 44.698922, -25.3118666 ], [ 44.6988335, -25.3118485 ], [ 44.6986833, -25.3117951 ], [ 44.6984003, -25.3117309 ], [ 44.6982072, -25.3117102 ], [ 44.698045, -25.3117187 ], [ 44.6977445, -25.311743 ], [ 44.6971357, -25.3117769 ], [ 44.6968292, -25.3117661 ], [ 44.6967226, -25.3117624 ], [ 44.6959716, -25.311623 ], [ 44.6954097, -25.3114848 ], [ 44.6951535, -25.3114035 ], [ 44.6949832, -25.3113659 ], [ 44.69477, -25.3113502 ], [ 44.6945688, -25.3113526 ], [ 44.6942228, -25.3113381 ], [ 44.6937937, -25.3112702 ], [ 44.6935979, -25.3112265 ], [ 44.6935474, -25.3112234 ], [ 44.6934396, -25.3112168 ], [ 44.6932733, -25.3112289 ], [ 44.6931285, -25.3112386 ], [ 44.6926832, -25.3111732 ], [ 44.6919724, -25.3109962 ], [ 44.6912952, -25.3108664 ], [ 44.6906421, -25.3107779 ], [ 44.6892554, -25.3105621 ], [ 44.6888342, -25.3104943 ], [ 44.6882972, -25.3104394 ], [ 44.6881932, -25.3104288 ], [ 44.6872598, -25.31023 ], [ 44.6864685, -25.3099754 ], [ 44.6858624, -25.3098032 ], [ 44.6852857, -25.309728 ], [ 44.6842611, -25.3095559 ], [ 44.6837515, -25.3094152 ], [ 44.6828905, -25.3092552 ], [ 44.6819946, -25.3090879 ], [ 44.6811551, -25.3088842 ], [ 44.680506, -25.3087242 ], [ 44.6801975, -25.3086733 ], [ 44.6799642, -25.3086708 ], [ 44.6796155, -25.3087121 ], [ 44.6792963, -25.3087363 ], [ 44.6789664, -25.3086951 ], [ 44.6786579, -25.3086102 ], [ 44.6782556, -25.308455 ], [ 44.6774429, -25.3082926 ], [ 44.6771988, -25.3082562 ], [ 44.6769521, -25.3082538 ], [ 44.6766302, -25.3082877 ], [ 44.6763908, -25.3083143 ], [ 44.6762815, -25.3083265 ], [ 44.6760991, -25.3083071 ], [ 44.6757853, -25.3082441 ], [ 44.6753427, -25.3081059 ], [ 44.674927, -25.3079531 ], [ 44.6744925, -25.3078149 ], [ 44.6742484, -25.3077882 ], [ 44.6739265, -25.3078246 ], [ 44.6737683, -25.3078416 ], [ 44.6735296, -25.3078561 ], [ 44.6732828, -25.3078416 ], [ 44.6726391, -25.3077106 ], [ 44.6721643, -25.3075845 ], [ 44.6719202, -25.3075021 ], [ 44.6718022, -25.3074463 ], [ 44.6716279, -25.3074003 ], [ 44.6713945, -25.307359 ], [ 44.6711907, -25.3073008 ], [ 44.6708554, -25.3071723 ], [ 44.6705657, -25.3071141 ], [ 44.6702224, -25.3070875 ], [ 44.6698308, -25.3070681 ], [ 44.6697333, -25.3070706 ], [ 44.6688813, -25.3070923 ], [ 44.6684039, -25.3070681 ], [ 44.6678406, -25.3070123 ], [ 44.6669769, -25.3068523 ], [ 44.6656841, -25.3065467 ], [ 44.6652617, -25.3064788 ], [ 44.6650229, -25.3064025 ], [ 44.6646152, -25.3063091 ], [ 44.6644449, -25.3062727 ], [ 44.664292, -25.3062254 ], [ 44.6641459, -25.3061903 ], [ 44.6635678, -25.3061139 ], [ 44.663246, -25.3060593 ], [ 44.6630998, -25.3060533 ], [ 44.6629657, -25.306069 ], [ 44.6624306, -25.3062085 ], [ 44.662322, -25.3062048 ], [ 44.6622013, -25.3061733 ], [ 44.6620524, -25.306126 ], [ 44.6617721, -25.3060278 ], [ 44.661233, -25.3058641 ], [ 44.660659, -25.3056871 ], [ 44.6602151, -25.3055744 ], [ 44.6601386, -25.3055671 ], [ 44.6599227, -25.3055538 ], [ 44.6597806, -25.3055041 ], [ 44.6596397, -25.3054325 ], [ 44.6592173, -25.3051767 ], [ 44.6590751, -25.3051076 ], [ 44.658933, -25.305064 ], [ 44.6586715, -25.3050324 ], [ 44.6586004, -25.3050385 ], [ 44.6585441, -25.3050627 ], [ 44.6584193, -25.3051258 ], [ 44.6582289, -25.3051816 ], [ 44.6581002, -25.3051876 ], [ 44.6579728, -25.3051706 ], [ 44.6576656, -25.3051064 ], [ 44.6572553, -25.3050312 ], [ 44.6568274, -25.3049657 ], [ 44.6564332, -25.3048894 ], [ 44.6561395, -25.3048227 ], [ 44.6560456, -25.3047936 ], [ 44.6558793, -25.3047342 ], [ 44.6557559, -25.3046869 ], [ 44.6556164, -25.3046408 ], [ 44.6553254, -25.3045826 ], [ 44.6550196, -25.3045475 ], [ 44.6549606, -25.304562 ], [ 44.6549298, -25.3045717 ], [ 44.6548681, -25.3045705 ], [ 44.6546897, -25.3045426 ], [ 44.6545234, -25.3044844 ], [ 44.6544859, -25.3044565 ], [ 44.6544309, -25.3044371 ], [ 44.6541332, -25.3043826 ], [ 44.6538381, -25.3043523 ], [ 44.6534117, -25.3043038 ], [ 44.6533674, -25.3043074 ], [ 44.6533473, -25.3043232 ], [ 44.6533191, -25.3043668 ], [ 44.6532896, -25.3043777 ], [ 44.6532266, -25.3043753 ], [ 44.6528967, -25.3043207 ], [ 44.6528229, -25.3042965 ], [ 44.6527827, -25.3042625 ], [ 44.6527384, -25.3042225 ], [ 44.6527129, -25.3041946 ], [ 44.6526673, -25.3041728 ], [ 44.6524226, -25.3041261 ], [ 44.6522275, -25.304094 ], [ 44.6521691, -25.3040825 ], [ 44.6521497, -25.3040837 ], [ 44.6521148, -25.3040916 ], [ 44.651978, -25.3041158 ], [ 44.6519217, -25.3041352 ], [ 44.6518587, -25.3041704 ], [ 44.651746, -25.3041934 ], [ 44.6515918, -25.3041752 ], [ 44.6514912, -25.3041413 ], [ 44.6513718, -25.3040892 ], [ 44.6512283, -25.3040504 ], [ 44.6509668, -25.3040007 ], [ 44.6505095, -25.3039303 ], [ 44.6502641, -25.3038843 ], [ 44.6500173, -25.3038358 ], [ 44.6497934, -25.3038018 ], [ 44.6491939, -25.3037351 ], [ 44.6489257, -25.3036939 ], [ 44.6486226, -25.3036891 ], [ 44.6484978, -25.3036975 ], [ 44.6482739, -25.3036963 ], [ 44.648184, -25.3036903 ], [ 44.6481223, -25.3036939 ], [ 44.6480633, -25.3037169 ], [ 44.6480325, -25.3037327 ], [ 44.6479788, -25.3037339 ], [ 44.6478608, -25.303723 ], [ 44.6475765, -25.3037182 ], [ 44.6473432, -25.3037169 ], [ 44.6468537, -25.3036963 ], [ 44.6466927, -25.3036806 ], [ 44.6465747, -25.3036478 ], [ 44.6464138, -25.3035775 ], [ 44.6463615, -25.303546 ], [ 44.6463118, -25.3035327 ], [ 44.6460892, -25.3035036 ], [ 44.6459109, -25.3034781 ], [ 44.6456359, -25.3034005 ], [ 44.6455944, -25.3033932 ], [ 44.6455407, -25.3033969 ], [ 44.6454763, -25.3034029 ], [ 44.6453664, -25.3034151 ], [ 44.6452779, -25.3034114 ], [ 44.6451987, -25.3033957 ], [ 44.6451625, -25.3033811 ], [ 44.6451437, -25.3033544 ], [ 44.6451384, -25.3032938 ], [ 44.6450981, -25.3032114 ], [ 44.6450137, -25.3031398 ], [ 44.6449198, -25.3030513 ], [ 44.644893, -25.3030271 ], [ 44.6448326, -25.3030089 ], [ 44.6447025, -25.3029749 ], [ 44.6445067, -25.3029349 ], [ 44.6444276, -25.3029119 ], [ 44.6442747, -25.3028816 ], [ 44.6439461, -25.3028355 ], [ 44.6436082, -25.3027773 ], [ 44.6434432, -25.3027409 ], [ 44.6433105, -25.3026973 ], [ 44.6430396, -25.302627 ], [ 44.6429899, -25.3026233 ], [ 44.6429081, -25.302627 ], [ 44.6427391, -25.3025967 ], [ 44.64266, -25.3025918 ], [ 44.6425822, -25.3025954 ], [ 44.6425179, -25.3025967 ], [ 44.6424589, -25.3025882 ], [ 44.6423529, -25.3025676 ], [ 44.642255, -25.3025542 ], [ 44.6420163, -25.3025385 ], [ 44.6419412, -25.3025482 ], [ 44.6418513, -25.3025639 ], [ 44.641744, -25.3025615 ], [ 44.6416689, -25.3025494 ], [ 44.641559, -25.3025227 ], [ 44.6413913, -25.3024681 ], [ 44.6412492, -25.302416 ], [ 44.6411338, -25.3023905 ], [ 44.6408455, -25.3023724 ], [ 44.6405049, -25.3023384 ], [ 44.6402889, -25.3023154 ], [ 44.6400435, -25.3023008 ], [ 44.6397431, -25.302296 ], [ 44.6394038, -25.3022717 ], [ 44.639267, -25.3022596 ], [ 44.6391088, -25.3022535 ], [ 44.6389197, -25.3022414 ], [ 44.6388634, -25.3022475 ], [ 44.6387239, -25.3022547 ], [ 44.6385603, -25.302239 ], [ 44.6384275, -25.3022232 ], [ 44.6383055, -25.3021965 ], [ 44.6381526, -25.3021735 ], [ 44.6380064, -25.3021565 ], [ 44.6376966, -25.3021068 ], [ 44.6374713, -25.3020656 ], [ 44.6372125, -25.3019965 ], [ 44.6369308, -25.3019407 ], [ 44.6366639, -25.3019092 ], [ 44.6364386, -25.3019019 ], [ 44.6362817, -25.3019068 ], [ 44.635933, -25.3019237 ], [ 44.6356246, -25.3019128 ], [ 44.6353362, -25.3018922 ], [ 44.6351659, -25.3018619 ], [ 44.6349782, -25.3018086 ], [ 44.6347824, -25.3017673 ], [ 44.6345919, -25.3017237 ], [ 44.6343143, -25.3016449 ], [ 44.6342111, -25.3016194 ], [ 44.6339871, -25.3016012 ], [ 44.6337873, -25.3015988 ], [ 44.6334949, -25.3016097 ], [ 44.6333501, -25.3016218 ], [ 44.6331435, -25.3016437 ], [ 44.6329531, -25.3016485 ], [ 44.6328512, -25.3016485 ], [ 44.6326661, -25.3016121 ], [ 44.6316844, -25.3014933 ], [ 44.6312982, -25.301463 ], [ 44.6312365, -25.3014606 ], [ 44.6311761, -25.3014739 ], [ 44.6311171, -25.3014824 ], [ 44.6310689, -25.3014764 ], [ 44.6309696, -25.3014545 ], [ 44.6308717, -25.3014327 ], [ 44.6308087, -25.3014339 ], [ 44.6307188, -25.301446 ], [ 44.6305458, -25.3014448 ], [ 44.630228, -25.3014194 ], [ 44.6299155, -25.3014 ], [ 44.6297787, -25.3013806 ], [ 44.6296473, -25.301343 ], [ 44.6294716, -25.301286 ], [ 44.6292517, -25.3012314 ], [ 44.6285181, -25.3011357 ], [ 44.6280527, -25.3010956 ], [ 44.6278851, -25.3010811 ], [ 44.6277697, -25.3010884 ], [ 44.6276624, -25.3011017 ], [ 44.6274586, -25.3011369 ], [ 44.6273151, -25.3011429 ], [ 44.6271461, -25.301132 ], [ 44.6269248, -25.3010908 ], [ 44.6266942, -25.301035 ], [ 44.6264367, -25.3009708 ], [ 44.6262704, -25.300938 ], [ 44.6262181, -25.3009259 ], [ 44.6261765, -25.300898 ], [ 44.6261457, -25.3008871 ], [ 44.6261001, -25.3008835 ], [ 44.6260384, -25.3008847 ], [ 44.6259096, -25.3008774 ], [ 44.6256307, -25.3008265 ], [ 44.6255663, -25.3008192 ], [ 44.6254376, -25.3008362 ], [ 44.6252954, -25.3008386 ], [ 44.6249709, -25.3008119 ], [ 44.6245363, -25.3007707 ], [ 44.6239275, -25.3007174 ], [ 44.6237102, -25.3006883 ], [ 44.6234286, -25.3006131 ], [ 44.6231872, -25.3005209 ], [ 44.6228707, -25.3003803 ], [ 44.6225703, -25.3003148 ], [ 44.6222591, -25.3002736 ], [ 44.6221814, -25.3002736 ], [ 44.6220365, -25.3003003 ], [ 44.6218917, -25.3003221 ], [ 44.6217576, -25.3003148 ], [ 44.6214947, -25.3002615 ], [ 44.621315, -25.3002251 ], [ 44.6210307, -25.300196 ], [ 44.6203333, -25.3000675 ], [ 44.6201938, -25.3000432 ], [ 44.6200678, -25.2999971 ], [ 44.6198907, -25.2999341 ], [ 44.6197137, -25.2999026 ], [ 44.6193919, -25.2998832 ], [ 44.6189976, -25.299842 ], [ 44.6180642, -25.2997159 ], [ 44.6179247, -25.299694 ], [ 44.6177879, -25.2997037 ], [ 44.6176672, -25.2997328 ], [ 44.6173775, -25.2997765 ], [ 44.6171603, -25.2998032 ], [ 44.6169135, -25.2997959 ], [ 44.6163744, -25.2997498 ], [ 44.6159399, -25.2997159 ], [ 44.6157414, -25.2996577 ], [ 44.6156421, -25.2996019 ], [ 44.6155295, -25.2995534 ], [ 44.6153793, -25.2995388 ], [ 44.61528, -25.2995485 ], [ 44.6151942, -25.2995679 ], [ 44.6150815, -25.2996067 ], [ 44.6148992, -25.2996358 ], [ 44.6147516, -25.2996237 ], [ 44.6145934, -25.2995752 ], [ 44.6144673, -25.2995025 ], [ 44.6142796, -25.2994612 ], [ 44.6134588, -25.2993448 ], [ 44.6132818, -25.2993303 ], [ 44.6130994, -25.2993254 ], [ 44.6129143, -25.2993279 ], [ 44.6126193, -25.2993303 ], [ 44.612343, -25.2993376 ], [ 44.6121204, -25.2993109 ], [ 44.6119434, -25.2992357 ], [ 44.611887, -25.2991872 ], [ 44.61182, -25.299146 ], [ 44.6116322, -25.2991169 ], [ 44.6115142, -25.2991193 ], [ 44.6113721, -25.2991314 ], [ 44.6112353, -25.2991411 ], [ 44.6111333, -25.2991266 ], [ 44.61101, -25.2990781 ], [ 44.6109161, -25.2990199 ], [ 44.6108222, -25.2989617 ], [ 44.6106774, -25.2989059 ], [ 44.610393, -25.2988259 ], [ 44.6100283, -25.2987192 ], [ 44.6098405, -25.2986586 ], [ 44.6096018, -25.2986416 ], [ 44.6092933, -25.2986464 ], [ 44.6090305, -25.2986562 ], [ 44.6088937, -25.2986622 ], [ 44.608773, -25.2986743 ], [ 44.6086308, -25.2986634 ], [ 44.6085101, -25.2986428 ], [ 44.6084364, -25.2986246 ], [ 44.6083157, -25.2985798 ], [ 44.6081386, -25.2985385 ], [ 44.6079831, -25.2985264 ], [ 44.6077846, -25.2985325 ], [ 44.6076733, -25.2985434 ], [ 44.6075486, -25.2985652 ], [ 44.6074614, -25.298581 ], [ 44.6073313, -25.2985931 ], [ 44.6071596, -25.2985652 ], [ 44.6070121, -25.2985228 ], [ 44.6068673, -25.2984791 ], [ 44.60676, -25.2984512 ], [ 44.6066514, -25.2984403 ], [ 44.6065387, -25.2984149 ], [ 44.6064784, -25.2984003 ], [ 44.6062142, -25.2983482 ], [ 44.6056133, -25.2982451 ], [ 44.6054015, -25.2981978 ], [ 44.6051761, -25.2981275 ], [ 44.6051131, -25.2981178 ], [ 44.6050487, -25.2981214 ], [ 44.6049897, -25.2981311 ], [ 44.6048771, -25.298136 ], [ 44.6048073, -25.2981263 ], [ 44.6047162, -25.2980948 ], [ 44.6046357, -25.2980548 ], [ 44.6045043, -25.2980172 ], [ 44.6044077, -25.298005 ], [ 44.6042669, -25.2979953 ], [ 44.6041422, -25.2979856 ], [ 44.6040295, -25.2979759 ], [ 44.6038163, -25.297925 ], [ 44.6035749, -25.2978789 ], [ 44.6034206, -25.2978668 ], [ 44.6033093, -25.2978765 ], [ 44.6031792, -25.297885 ], [ 44.6028762, -25.2978595 ], [ 44.6025932, -25.2978317 ], [ 44.6024859, -25.2978135 ], [ 44.6023531, -25.2977686 ], [ 44.6019052, -25.2975952 ], [ 44.6017899, -25.2975819 ], [ 44.6016142, -25.2975831 ], [ 44.6014103, -25.2975867 ], [ 44.6012494, -25.2976037 ], [ 44.6011475, -25.2976086 ], [ 44.6009986, -25.297594 ], [ 44.6006687, -25.2975588 ], [ 44.6001296, -25.2974922 ], [ 44.5999297, -25.2974655 ], [ 44.5997876, -25.2974679 ], [ 44.5995931, -25.2974776 ], [ 44.5994014, -25.297474 ], [ 44.5992257, -25.2974424 ], [ 44.5990889, -25.2974024 ], [ 44.599003, -25.2973891 ], [ 44.5989172, -25.2973879 ], [ 44.5986101, -25.2973939 ], [ 44.5984063, -25.2973842 ], [ 44.5980857, -25.2973515 ], [ 44.5976995, -25.2972957 ], [ 44.5968707, -25.297166 ], [ 44.5966333, -25.2971333 ], [ 44.5964469, -25.297126 ], [ 44.5961304, -25.2971236 ], [ 44.5956852, -25.2971017 ], [ 44.595492, -25.2970884 ], [ 44.5953271, -25.2970642 ], [ 44.5951997, -25.2970169 ], [ 44.595083, -25.2969829 ], [ 44.5944715, -25.2968956 ], [ 44.5940664, -25.2968435 ], [ 44.5936963, -25.2968083 ], [ 44.593534, -25.296795 ], [ 44.5933275, -25.2967707 ], [ 44.59307, -25.296721 ], [ 44.5924799, -25.2966022 ], [ 44.5921594, -25.2965537 ], [ 44.591859, -25.2965343 ], [ 44.5915908, -25.2965294 ], [ 44.5909658, -25.2964834 ], [ 44.5906359, -25.2964543 ], [ 44.5901638, -25.2964494 ], [ 44.5900726, -25.2964446 ], [ 44.5900029, -25.2964276 ], [ 44.5898178, -25.2963718 ], [ 44.5895764, -25.2963209 ], [ 44.5891339, -25.2962894 ], [ 44.5888951, -25.2962869 ], [ 44.5887315, -25.2963112 ], [ 44.5886001, -25.2963257 ], [ 44.5882514, -25.2962894 ], [ 44.587715, -25.2961657 ], [ 44.5873207, -25.296076 ], [ 44.5871544, -25.2960614 ], [ 44.5869304, -25.2960711 ], [ 44.5867775, -25.2960638 ], [ 44.5865187, -25.2960529 ], [ 44.5864731, -25.296042 ], [ 44.5864074, -25.2960117 ], [ 44.5863605, -25.296002 ], [ 44.5863001, -25.2960044 ], [ 44.5860963, -25.2960056 ], [ 44.5856497, -25.2959644 ], [ 44.5852339, -25.2959353 ], [ 44.5849536, -25.2959232 ], [ 44.5848021, -25.2959183 ], [ 44.584664, -25.2959268 ], [ 44.5843971, -25.2959499 ], [ 44.5841838, -25.2959535 ], [ 44.583929, -25.295945 ], [ 44.5834798, -25.2958977 ], [ 44.5831861, -25.2958395 ], [ 44.5828065, -25.2957474 ], [ 44.582765, -25.2957304 ], [ 44.582722, -25.2956904 ], [ 44.5826684, -25.2956031 ], [ 44.5826456, -25.2955837 ], [ 44.5826, -25.29558 ], [ 44.5825423, -25.2955885 ], [ 44.5824873, -25.2955946 ], [ 44.5822352, -25.2955728 ], [ 44.5821387, -25.295574 ], [ 44.5820837, -25.2955619 ], [ 44.582018, -25.2955376 ], [ 44.5818986, -25.2955134 ], [ 44.581672, -25.295494 ], [ 44.5814399, -25.2954903 ], [ 44.5811462, -25.2954964 ], [ 44.581055, -25.2954964 ], [ 44.5809397, -25.2954758 ], [ 44.5806795, -25.2954503 ], [ 44.5799996, -25.2954418 ], [ 44.5797341, -25.2954321 ], [ 44.5795315, -25.2954455 ], [ 44.579317, -25.2954758 ], [ 44.5790769, -25.2954903 ], [ 44.5788798, -25.2954782 ], [ 44.5786464, -25.2954236 ], [ 44.5782562, -25.2952975 ], [ 44.5778163, -25.2951872 ], [ 44.5774569, -25.2951193 ], [ 44.5771793, -25.2950987 ], [ 44.5766884, -25.2950975 ], [ 44.5764135, -25.2950987 ], [ 44.5762901, -25.2951084 ], [ 44.5761399, -25.2951035 ], [ 44.5757483, -25.2950465 ], [ 44.5755337, -25.295015 ], [ 44.5754801, -25.2950199 ], [ 44.5754506, -25.2950271 ], [ 44.575409, -25.2950368 ], [ 44.5753057, -25.2950271 ], [ 44.5752333, -25.2950041 ], [ 44.5751435, -25.2949714 ], [ 44.5750442, -25.2949459 ], [ 44.5749624, -25.294941 ], [ 44.5748793, -25.2949471 ], [ 44.574654, -25.294972 ], [ 44.5744414, -25.2949617 ], [ 44.5740981, -25.2949247 ], [ 44.5740317, -25.2949186 ], [ 44.5739841, -25.2949216 ], [ 44.5738935, -25.2949265 ], [ 44.5737514, -25.2949156 ], [ 44.5735227, -25.2949022 ], [ 44.5734939, -25.2949053 ], [ 44.573455, -25.294915 ], [ 44.5734302, -25.2949126 ], [ 44.573392, -25.2948998 ], [ 44.5733142, -25.2948525 ], [ 44.5732766, -25.2948392 ], [ 44.573231, -25.2948404 ], [ 44.57316, -25.2948683 ], [ 44.5730929, -25.2948695 ], [ 44.5730138, -25.2948477 ], [ 44.572944, -25.2948162 ], [ 44.5728368, -25.2947907 ], [ 44.5725162, -25.2947531 ], [ 44.5721984, -25.2947373 ], [ 44.5719302, -25.2947022 ], [ 44.5718698, -25.2946985 ], [ 44.5718162, -25.2947058 ], [ 44.5717451, -25.2947167 ], [ 44.5716619, -25.2947167 ], [ 44.5715828, -25.2947046 ], [ 44.5715238, -25.2946925 ], [ 44.5714138, -25.2946549 ], [ 44.5712998, -25.2946028 ], [ 44.5712194, -25.2945834 ], [ 44.5711322, -25.2945761 ], [ 44.5710759, -25.2945652 ], [ 44.5710437, -25.2945543 ], [ 44.5710061, -25.294507 ], [ 44.5709753, -25.2944839 ], [ 44.5709243, -25.2944791 ], [ 44.5708626, -25.2944948 ], [ 44.5707983, -25.2945142 ], [ 44.5704898, -25.2945482 ], [ 44.5700848, -25.2945579 ], [ 44.5697093, -25.2945627 ], [ 44.5692694, -25.2945506 ], [ 44.5691487, -25.2945579 ], [ 44.5689851, -25.2945749 ], [ 44.5688644, -25.2945773 ], [ 44.5687437, -25.2945361 ], [ 44.5686579, -25.2945167 ], [ 44.5685425, -25.2945215 ], [ 44.568395, -25.2945603 ], [ 44.5681912, -25.294604 ], [ 44.5680436, -25.2945991 ], [ 44.5678559, -25.294553 ], [ 44.5676145, -25.29449 ], [ 44.5671076, -25.294393 ], [ 44.5668742, -25.294359 ], [ 44.5666596, -25.2943615 ], [ 44.566142, -25.2944197 ], [ 44.5658201, -25.2944003 ], [ 44.5654231, -25.2943275 ], [ 44.5647633, -25.2942499 ], [ 44.5636046, -25.2941869 ], [ 44.5620382, -25.2941965 ], [ 44.5605576, -25.2940219 ], [ 44.5594525, -25.2938813 ], [ 44.5588785, -25.2937964 ], [ 44.5585352, -25.2937212 ], [ 44.5579827, -25.2935491 ], [ 44.5574543, -25.2934593 ], [ 44.5566523, -25.2933963 ], [ 44.55614, -25.2933526 ], [ 44.5552415, -25.2933429 ], [ 44.5544878, -25.2932847 ], [ 44.5537394, -25.2932799 ], [ 44.553026, -25.2932872 ], [ 44.5527551, -25.293275 ], [ 44.5523125, -25.2931465 ], [ 44.5520416, -25.2930762 ], [ 44.5509553, -25.2928628 ], [ 44.5502794, -25.2927803 ], [ 44.5485735, -25.2926566 ], [ 44.5479324, -25.2926203 ], [ 44.5473182, -25.2926203 ], [ 44.546645, -25.2926203 ], [ 44.5462722, -25.2925766 ], [ 44.5458189, -25.2924748 ], [ 44.5452127, -25.2923899 ], [ 44.5444509, -25.2923584 ], [ 44.5437562, -25.2923511 ], [ 44.5429784, -25.2923365 ], [ 44.5425412, -25.2923487 ], [ 44.5422837, -25.2923341 ], [ 44.5420262, -25.2922807 ], [ 44.54164, -25.2921983 ], [ 44.5412296, -25.2921037 ], [ 44.5409265, -25.2920213 ], [ 44.54061, -25.2919703 ], [ 44.5396122, -25.2919049 ], [ 44.5388344, -25.291917 ], [ 44.5383301, -25.2918927 ], [ 44.5381826, -25.2918758 ], [ 44.5378715, -25.2918709 ], [ 44.5365974, -25.291917 ], [ 44.5363238, -25.2918976 ], [ 44.5360637, -25.2918636 ], [ 44.535436, -25.291723 ], [ 44.534964, -25.2916526 ], [ 44.5339876, -25.2915338 ], [ 44.5332929, -25.2914877 ], [ 44.5321825, -25.2914756 ], [ 44.531461, -25.2914586 ], [ 44.5306161, -25.2913835 ], [ 44.5301735, -25.2913131 ], [ 44.5272821, -25.2908766 ], [ 44.5268369, -25.2908427 ], [ 44.5260081, -25.2908014 ], [ 44.5256889, -25.2907529 ], [ 44.5251793, -25.2906292 ], [ 44.5243773, -25.2904498 ], [ 44.523578, -25.2902776 ], [ 44.5231274, -25.2902267 ], [ 44.5227706, -25.2902218 ], [ 44.5222637, -25.2902461 ], [ 44.5219204, -25.2902315 ], [ 44.5214859, -25.2901733 ], [ 44.5209038, -25.2900448 ], [ 44.5201984, -25.2899308 ], [ 44.5194098, -25.2897974 ], [ 44.5185757, -25.289698 ], [ 44.5180365, -25.2896398 ], [ 44.5177039, -25.2895646 ], [ 44.5170575, -25.2894482 ], [ 44.5161214, -25.2893172 ], [ 44.5157728, -25.2892348 ], [ 44.5145497, -25.2891451 ], [ 44.5143002, -25.2891329 ], [ 44.5138389, -25.2890505 ], [ 44.5128143, -25.2888007 ], [ 44.511795, -25.2885436 ], [ 44.5109796, -25.2883278 ], [ 44.509896, -25.2880149 ], [ 44.5085737, -25.2876851 ], [ 44.5080453, -25.2875808 ], [ 44.5075893, -25.2875008 ], [ 44.5071977, -25.2874717 ], [ 44.5068973, -25.2874547 ], [ 44.5066103, -25.287428 ], [ 44.5063609, -25.2873504 ], [ 44.50587, -25.2872001 ], [ 44.5052424, -25.2870764 ], [ 44.5047542, -25.2870182 ], [ 44.5043063, -25.2869915 ], [ 44.5040059, -25.2869357 ], [ 44.5037135, -25.2868387 ], [ 44.5032227, -25.2866593 ], [ 44.5025763, -25.2864628 ], [ 44.5018709, -25.2862421 ], [ 44.5012432, -25.2860311 ], [ 44.5005164, -25.2858735 ], [ 44.4995829, -25.2856989 ], [ 44.4987327, -25.2854879 ], [ 44.4970429, -25.2850416 ], [ 44.4959298, -25.2848015 ], [ 44.4950098, -25.2846196 ], [ 44.4939637, -25.2843868 ], [ 44.493084, -25.2842413 ], [ 44.4923356, -25.2841176 ], [ 44.4916704, -25.2839721 ], [ 44.4903722, -25.2836277 ], [ 44.4897687, -25.283487 ], [ 44.4892377, -25.2833925 ], [ 44.4887736, -25.2832954 ], [ 44.4882613, -25.2831257 ], [ 44.4874433, -25.282854 ], [ 44.486703, -25.2826721 ], [ 44.4859466, -25.2824781 ], [ 44.4850615, -25.2821798 ], [ 44.4846189, -25.2820052 ], [ 44.4841576, -25.2818961 ], [ 44.4837123, -25.2818257 ], [ 44.4832697, -25.2817918 ], [ 44.4826743, -25.2816632 ], [ 44.4820333, -25.2814959 ], [ 44.4807297, -25.2811394 ], [ 44.4797802, -25.2808847 ], [ 44.4790131, -25.2806422 ], [ 44.4784579, -25.2805136 ], [ 44.4780689, -25.2804603 ], [ 44.4775888, -25.2803754 ], [ 44.4771543, -25.2802468 ], [ 44.4766688, -25.2800746 ], [ 44.4759151, -25.2798151 ], [ 44.4751185, -25.2796211 ], [ 44.4744775, -25.2794635 ], [ 44.4738981, -25.2793543 ], [ 44.4731551, -25.2791773 ], [ 44.4723585, -25.278959 ], [ 44.4718985, -25.2787553 ], [ 44.4716209, -25.2786303 ], [ 44.4713514, -25.27852 ], [ 44.4709598, -25.2783951 ], [ 44.4704233, -25.2782823 ], [ 44.4700545, -25.2782241 ], [ 44.4696482, -25.2781853 ], [ 44.4692887, -25.2781489 ], [ 44.468987, -25.2781101 ], [ 44.4686678, -25.2780179 ], [ 44.468413, -25.2778627 ], [ 44.4681743, -25.2776541 ], [ 44.4678739, -25.2774601 ], [ 44.4675171, -25.277334 ], [ 44.4670933, -25.2772539 ], [ 44.466573, -25.2772006 ], [ 44.4661814, -25.2771242 ], [ 44.4658743, -25.2770332 ], [ 44.4655752, -25.2769071 ], [ 44.4651528, -25.2766997 ], [ 44.4647706, -25.2765748 ], [ 44.4643334, -25.2764948 ], [ 44.4637218, -25.2764148 ], [ 44.4628581, -25.2763687 ], [ 44.4622359, -25.2762425 ], [ 44.4617692, -25.2760849 ], [ 44.4610396, -25.275823 ], [ 44.4606426, -25.2757502 ], [ 44.4602698, -25.2757308 ], [ 44.4596288, -25.2757478 ], [ 44.4592237, -25.2757065 ], [ 44.4585156, -25.275544 ], [ 44.4574052, -25.2751948 ], [ 44.457086, -25.2751366 ], [ 44.4563243, -25.2750371 ], [ 44.455702, -25.2749765 ], [ 44.4550985, -25.2749086 ], [ 44.4541624, -25.2747 ], [ 44.4537091, -25.2745933 ], [ 44.4528455, -25.274375 ], [ 44.4517136, -25.2741591 ], [ 44.4511396, -25.2740281 ], [ 44.4509035, -25.2738971 ], [ 44.4507104, -25.2738292 ], [ 44.4494659, -25.2736352 ], [ 44.4488168, -25.2735042 ], [ 44.4483501, -25.2733296 ], [ 44.4478995, -25.2732035 ], [ 44.4463491, -25.2729415 ], [ 44.4457376, -25.2728785 ], [ 44.4450778, -25.2727135 ], [ 44.4441149, -25.2725001 ], [ 44.4427228, -25.2722915 ], [ 44.441328, -25.272078 ], [ 44.4396812, -25.2717821 ], [ 44.4388095, -25.2716415 ], [ 44.4384527, -25.2715832 ], [ 44.4379619, -25.2714959 ], [ 44.4370151, -25.2713189 ], [ 44.4363767, -25.2712315 ], [ 44.4358161, -25.2711054 ], [ 44.4348827, -25.2708895 ], [ 44.4335631, -25.2707173 ], [ 44.4322675, -25.2705451 ], [ 44.4309801, -25.2703511 ], [ 44.4296819, -25.2701667 ], [ 44.4290489, -25.2700261 ], [ 44.4285607, -25.2699121 ], [ 44.427681, -25.2698175 ], [ 44.4265786, -25.2696598 ], [ 44.4254199, -25.2695094 ], [ 44.4248432, -25.2694439 ], [ 44.4245401, -25.2694003 ], [ 44.4242947, -25.2693469 ], [ 44.4239058, -25.2692996 ], [ 44.42384, -25.2692741 ], [ 44.4238052, -25.2692741 ], [ 44.4237636, -25.2692935 ], [ 44.4237113, -25.2693129 ], [ 44.4231695, -25.269279 ], [ 44.42233, -25.2692086 ], [ 44.4218552, -25.269182 ], [ 44.421646, -25.2691286 ], [ 44.4214448, -25.2690583 ], [ 44.4213322, -25.2690558 ], [ 44.4212303, -25.2690704 ], [ 44.4211243, -25.2690655 ], [ 44.4210063, -25.2690364 ], [ 44.4208977, -25.2689952 ], [ 44.4205543, -25.2689649 ], [ 44.4202781, -25.2689722 ], [ 44.4197524, -25.269 ], [ 44.4195431, -25.269017 ], [ 44.4194439, -25.269 ], [ 44.4193071, -25.2689564 ], [ 44.419165, -25.2689467 ], [ 44.4185132, -25.2688909 ], [ 44.4182879, -25.2688582 ], [ 44.4180478, -25.2688763 ], [ 44.4178078, -25.2688812 ], [ 44.4171667, -25.2688096 ], [ 44.4166316, -25.2687393 ], [ 44.4162923, -25.2686956 ], [ 44.416063, -25.2686593 ], [ 44.415894, -25.2686241 ], [ 44.4156218, -25.2686168 ], [ 44.4150102, -25.2685926 ], [ 44.414624, -25.2685901 ], [ 44.4143718, -25.2685489 ], [ 44.4141546, -25.2685101 ], [ 44.4138998, -25.2684664 ], [ 44.4136798, -25.2683912 ], [ 44.4133258, -25.2683403 ], [ 44.4127625, -25.2683282 ], [ 44.4115126, -25.26827 ], [ 44.410142, -25.2681851 ], [ 44.4092327, -25.2681535 ], [ 44.4084656, -25.268139 ], [ 44.4078849, -25.2681317 ], [ 44.407732, -25.2680953 ], [ 44.4075456, -25.2680165 ], [ 44.4074813, -25.2679959 ], [ 44.4073713, -25.2679898 ], [ 44.4071634, -25.2680116 ], [ 44.406985, -25.2680213 ], [ 44.4065157, -25.2679789 ], [ 44.4060275, -25.2679643 ], [ 44.4053757, -25.2679158 ], [ 44.4046019, -25.2678564 ], [ 44.4039474, -25.26778 ], [ 44.4038522, -25.2677436 ], [ 44.4037651, -25.2676866 ], [ 44.4037114, -25.2676757 ], [ 44.4036269, -25.2676733 ], [ 44.4034499, -25.2676927 ], [ 44.4033828, -25.2676854 ], [ 44.4032326, -25.2676442 ], [ 44.4030985, -25.2676393 ], [ 44.4028933, -25.267649 ], [ 44.4027659, -25.2676345 ], [ 44.4023636, -25.2676126 ], [ 44.4018701, -25.2675811 ], [ 44.4014785, -25.2675399 ], [ 44.4013417, -25.2674962 ], [ 44.4009232, -25.2674331 ], [ 44.4007999, -25.2674137 ], [ 44.4004324, -25.2674089 ], [ 44.3999858, -25.267421 ], [ 44.3994199, -25.2674295 ], [ 44.3987507, -25.2674598 ], [ 44.3986809, -25.2674525 ], [ 44.3985777, -25.2674186 ], [ 44.398296, -25.2673907 ], [ 44.3980345, -25.2673822 ], [ 44.3979661, -25.2673737 ], [ 44.3978883, -25.2673337 ], [ 44.3977247, -25.2673058 ], [ 44.3972339, -25.2673106 ], [ 44.39679, -25.2673458 ], [ 44.3960658, -25.2673179 ], [ 44.3955012, -25.2672864 ], [ 44.395304, -25.2672694 ], [ 44.3951967, -25.2672354 ], [ 44.3950988, -25.2672051 ], [ 44.3949755, -25.2671942 ], [ 44.3945302, -25.2671736 ], [ 44.3940005, -25.2672136 ], [ 44.3938409, -25.2671736 ], [ 44.3937376, -25.2671505 ], [ 44.3935297, -25.2671433 ], [ 44.3933661, -25.2671578 ], [ 44.3930013, -25.2672173 ], [ 44.3927452, -25.267273 ], [ 44.3925682, -25.2672743 ], [ 44.3924247, -25.267233 ], [ 44.3923147, -25.2672088 ], [ 44.3919244, -25.2672075 ], [ 44.3913947, -25.267216 ], [ 44.3911198, -25.2671894 ], [ 44.3909629, -25.2671869 ], [ 44.3907993, -25.2672075 ], [ 44.3905216, -25.2672379 ], [ 44.3902159, -25.2672815 ], [ 44.3896607, -25.2672755 ], [ 44.3892878, -25.2672561 ], [ 44.3888775, -25.2672197 ], [ 44.388392, -25.2672197 ], [ 44.3881787, -25.2672354 ], [ 44.3880889, -25.2672318 ], [ 44.3879749, -25.2671966 ], [ 44.3878019, -25.2671687 ], [ 44.3876114, -25.2671809 ], [ 44.3871716, -25.2671978 ], [ 44.3868175, -25.2671712 ], [ 44.3865386, -25.2671032 ], [ 44.3862542, -25.2670669 ], [ 44.3859377, -25.2670572 ], [ 44.3856843, -25.2670693 ], [ 44.3853396, -25.2670378 ], [ 44.3850473, -25.2669832 ], [ 44.3849185, -25.2669262 ], [ 44.38483, -25.266874 ], [ 44.3847562, -25.266868 ], [ 44.3846463, -25.2668946 ], [ 44.3843941, -25.2669783 ], [ 44.384134, -25.2670256 ], [ 44.3839395, -25.2670644 ], [ 44.3837652, -25.2671287 ], [ 44.3837209, -25.2671396 ], [ 44.383678, -25.267136 ], [ 44.3835184, -25.2670911 ], [ 44.3834567, -25.2670584 ], [ 44.3834031, -25.2670244 ], [ 44.3833441, -25.2670159 ], [ 44.3829297, -25.2670511 ], [ 44.382762, -25.2670717 ], [ 44.3827111, -25.2670899 ], [ 44.3826225, -25.2671311 ], [ 44.3825836, -25.267136 ], [ 44.3825112, -25.2671227 ], [ 44.3823945, -25.267096 ], [ 44.3818045, -25.267062 ], [ 44.3815389, -25.2670329 ], [ 44.381378, -25.2670353 ], [ 44.3812224, -25.267045 ], [ 44.3811339, -25.2670232 ], [ 44.3809783, -25.2669043 ], [ 44.3809354, -25.2668777 ], [ 44.3808523, -25.2668607 ], [ 44.3805519, -25.2668558 ], [ 44.3803078, -25.2668655 ], [ 44.3802005, -25.2668534 ], [ 44.3800959, -25.2667952 ], [ 44.3799725, -25.2667394 ], [ 44.3798089, -25.2667103 ], [ 44.3796292, -25.2667103 ], [ 44.3793663, -25.2667491 ], [ 44.3792564, -25.2667685 ], [ 44.3791544, -25.2667491 ], [ 44.3789774, -25.2666836 ], [ 44.3788272, -25.2666594 ], [ 44.3783203, -25.2666472 ], [ 44.377977, -25.2666666 ], [ 44.3777624, -25.2666957 ], [ 44.3776041, -25.266686 ], [ 44.3772849, -25.266623 ], [ 44.3768531, -25.2665987 ], [ 44.3762872, -25.2666011 ], [ 44.3760619, -25.2666133 ], [ 44.3759277, -25.2666521 ], [ 44.3758419, -25.2666642 ], [ 44.3757641, -25.2666327 ], [ 44.3757319, -25.2665599 ], [ 44.375681, -25.2664726 ], [ 44.3755951, -25.2664435 ], [ 44.375453, -25.2664386 ], [ 44.375276, -25.2664605 ], [ 44.375107, -25.2664847 ], [ 44.3748227, -25.2664993 ], [ 44.3745303, -25.2665017 ], [ 44.3742111, -25.2665041 ], [ 44.3739724, -25.2664605 ], [ 44.373727, -25.2664338 ], [ 44.3735513, -25.2663828 ], [ 44.3733448, -25.266287 ], [ 44.3732174, -25.2662325 ], [ 44.373094, -25.2662203 ], [ 44.37298, -25.2662276 ], [ 44.3729103, -25.2662531 ], [ 44.37263, -25.2663537 ], [ 44.3723872, -25.2664483 ], [ 44.3720962, -25.2665041 ], [ 44.3718266, -25.2665138 ], [ 44.3716791, -25.2665163 ], [ 44.3714994, -25.2665041 ], [ 44.3712607, -25.2664847 ], [ 44.37103, -25.2665332 ], [ 44.3708342, -25.2666254 ], [ 44.3707511, -25.2666545 ], [ 44.3706304, -25.26664 ], [ 44.3703675, -25.2665429 ], [ 44.3697345, -25.2663586 ], [ 44.3694717, -25.2663295 ], [ 44.3689942, -25.2663634 ], [ 44.3683693, -25.266526 ], [ 44.3680447, -25.2665793 ], [ 44.3679267, -25.2665696 ], [ 44.3678382, -25.2665429 ], [ 44.3677041, -25.2664702 ], [ 44.3674761, -25.2663925 ], [ 44.3672052, -25.266344 ], [ 44.3667734, -25.2663004 ], [ 44.3660572, -25.2662688 ], [ 44.3656039, -25.2662713 ], [ 44.3654028, -25.2663028 ], [ 44.3649816, -25.2663683 ], [ 44.3645793, -25.266395 ], [ 44.3641153, -25.2663853 ], [ 44.363599, -25.2664204 ], [ 44.3632302, -25.2664568 ], [ 44.3619212, -25.266526 ], [ 44.3609852, -25.2665405 ], [ 44.3603173, -25.2665793 ], [ 44.3595609, -25.2666375 ], [ 44.3592203, -25.2666715 ], [ 44.3586034, -25.2667515 ], [ 44.3582627, -25.2667952 ], [ 44.3579757, -25.2668316 ], [ 44.3577316, -25.2668389 ], [ 44.3572676, -25.2668267 ], [ 44.3569082, -25.2667952 ], [ 44.356522, -25.266737 ], [ 44.3560445, -25.2666715 ], [ 44.3558541, -25.2666715 ], [ 44.3556127, -25.2667079 ], [ 44.3553713, -25.2667491 ], [ 44.3550816, -25.2667758 ], [ 44.3547785, -25.2667418 ], [ 44.3545532, -25.266703 ], [ 44.3543494, -25.2666327 ], [ 44.354167, -25.2665454 ], [ 44.3540114, -25.2663901 ], [ 44.353939, -25.2663368 ], [ 44.3537995, -25.2662979 ], [ 44.3528795, -25.2660602 ], [ 44.3519649, -25.2657983 ], [ 44.3512648, -25.2656163 ], [ 44.3508732, -25.2655145 ], [ 44.3501222, -25.2651822 ], [ 44.3494369, -25.2648874 ], [ 44.3490855, -25.2646631 ], [ 44.3489984, -25.2646255 ], [ 44.3489395, -25.2645619 ], [ 44.3488686, -25.2645176 ], [ 44.3487748, -25.2644803 ], [ 44.3486858, -25.2644662 ], [ 44.3484525, -25.2642859 ], [ 44.348618, -25.2643055 ], [ 44.3487784, -25.2642604 ], [ 44.3490263, -25.264371 ], [ 44.3496392, -25.264159 ], [ 44.3500573, -25.2640281 ], [ 44.3504744, -25.2639763 ], [ 44.3508196, -25.2638141 ], [ 44.3508919, -25.2637529 ], [ 44.3510342, -25.2636114 ], [ 44.3512551, -25.2633189 ], [ 44.3515651, -25.2630532 ], [ 44.3518708, -25.2627055 ], [ 44.3522599, -25.2623951 ], [ 44.3525737, -25.2619415 ], [ 44.3528286, -25.2614151 ], [ 44.3538426, -25.260086 ], [ 44.3550521, -25.2587152 ], [ 44.3554679, -25.2585115 ], [ 44.3557978, -25.2582907 ], [ 44.3561679, -25.2579705 ], [ 44.3567044, -25.2573301 ], [ 44.3570235, -25.2568256 ], [ 44.3576404, -25.2557558 ], [ 44.3579274, -25.255096 ], [ 44.3582171, -25.2541208 ], [ 44.3584746, -25.2534561 ], [ 44.3587884, -25.2528156 ], [ 44.3591076, -25.2517822 ], [ 44.3592846, -25.2511393 ], [ 44.3594187, -25.2501763 ], [ 44.3595502, -25.2488468 ], [ 44.3596226, -25.2476169 ], [ 44.3596575, -25.2469813 ], [ 44.3596414, -25.2464985 ], [ 44.3595341, -25.2456251 ], [ 44.3594536, -25.2449871 ], [ 44.3593249, -25.2441234 ], [ 44.3592632, -25.2436843 ], [ 44.3592122, -25.2433956 ], [ 44.3590432, -25.2424227 ], [ 44.3589011, -25.2416658 ], [ 44.358775, -25.2410471 ], [ 44.3586785, -25.2405304 ], [ 44.3585175, -25.2398656 ], [ 44.3584236, -25.2394386 ], [ 44.3583003, -25.238997 ], [ 44.3581098, -25.2381188 ], [ 44.3577585, -25.2369396 ], [ 44.3575171, -25.2361924 ], [ 44.357399, -25.2356004 ], [ 44.3573186, -25.2349962 ], [ 44.3572757, -25.2344528 ], [ 44.357273, -25.2339335 ], [ 44.3571469, -25.2326961 ], [ 44.3570638, -25.2321818 ], [ 44.3568867, -25.2313617 ], [ 44.3567258, -25.2306119 ], [ 44.3565971, -25.2300587 ], [ 44.356471, -25.2297045 ], [ 44.3563449, -25.2293964 ], [ 44.3562832, -25.2291513 ], [ 44.3561277, -25.2285932 ], [ 44.3559667, -25.2280133 ], [ 44.3557897, -25.2275717 ], [ 44.355602, -25.2270112 ], [ 44.3554813, -25.2266618 ], [ 44.3554062, -25.2263828 ], [ 44.3553579, -25.2261377 ], [ 44.3551192, -25.2254971 ], [ 44.3549448, -25.2250434 ], [ 44.3548617, -25.2247668 ], [ 44.3547195, -25.2243349 ], [ 44.3545961, -25.2240292 ], [ 44.3542743, -25.2234444 ], [ 44.3540785, -25.2229591 ], [ 44.3538022, -25.2221462 ], [ 44.3537807, -25.2220103 ], [ 44.3537888, -25.2219084 ], [ 44.3537673, -25.2218065 ], [ 44.3537298, -25.2217483 ], [ 44.3536681, -25.2216391 ], [ 44.3536225, -25.2215275 ], [ 44.3536198, -25.2214207 ], [ 44.3536332, -25.2213091 ], [ 44.353593, -25.2211441 ], [ 44.3534616, -25.220865 ], [ 44.3531531, -25.2203651 ], [ 44.3529171, -25.220006 ], [ 44.3524879, -25.2192756 ], [ 44.3523243, -25.2189505 ], [ 44.3520078, -25.2182395 ], [ 44.3518576, -25.2179677 ], [ 44.3515652, -25.217463 ], [ 44.3513668, -25.2170675 ], [ 44.3511254, -25.2165021 ], [ 44.3507445, -25.2158275 ], [ 44.3500578, -25.2146044 ], [ 44.3496662, -25.214056 ], [ 44.3487275, -25.2124593 ], [ 44.3481803, -25.2114595 ], [ 44.347676, -25.2106441 ], [ 44.3473703, -25.2102243 ], [ 44.3469438, -25.2095909 ], [ 44.3467185, -25.2092924 ], [ 44.3465817, -25.2090619 ], [ 44.3463886, -25.208659 ], [ 44.3462008, -25.2082513 ], [ 44.3460265, -25.2079844 ], [ 44.3457046, -25.2074383 ], [ 44.3455732, -25.2072054 ], [ 44.3455169, -25.2070209 ], [ 44.3453747, -25.2066642 ], [ 44.3453076, -25.2065283 ], [ 44.3451735, -25.2063366 ], [ 44.3449295, -25.2059483 ], [ 44.3447202, -25.2054726 ], [ 44.3443662, -25.2046669 ], [ 44.3440148, -25.2040189 ], [ 44.3437761, -25.2036379 ], [ 44.3433845, -25.2030069 ], [ 44.3432102, -25.2027424 ], [ 44.3429071, -25.202075 ], [ 44.3427139, -25.2017644 ], [ 44.3421105, -25.2008009 ], [ 44.3416437, -25.200017 ], [ 44.3409651, -25.1990195 ], [ 44.340072, -25.1977381 ], [ 44.3396428, -25.1971265 ], [ 44.338975, -25.1960538 ], [ 44.3385056, -25.1952601 ], [ 44.337894, -25.1944204 ], [ 44.33732, -25.1936486 ], [ 44.3368024, -25.192986 ], [ 44.3364215, -25.1925831 ], [ 44.3361023, -25.1921777 ], [ 44.3352815, -25.1909666 ], [ 44.3347612, -25.1902676 ], [ 44.3342569, -25.189554 ], [ 44.3330955, -25.188173 ], [ 44.3322265, -25.1870492 ], [ 44.3316954, -25.1864424 ], [ 44.3312824, -25.1859351 ], [ 44.331049, -25.1856487 ], [ 44.3308666, -25.1854254 ], [ 44.3306279, -25.1851972 ], [ 44.3302511, -25.1847603 ], [ 44.3299761, -25.1844861 ], [ 44.3295094, -25.1839957 ], [ 44.3286806, -25.1832287 ], [ 44.3279538, -25.1825685 ], [ 44.3272027, -25.18185 ], [ 44.3263605, -25.1810369 ], [ 44.3260065, -25.1807432 ], [ 44.3253976, -25.1802966 ], [ 44.3247727, -25.1797747 ], [ 44.324196, -25.1792382 ], [ 44.32385, -25.1789421 ], [ 44.3232787, -25.1784688 ], [ 44.322871, -25.1781896 ], [ 44.3227127, -25.1780585 ], [ 44.3223426, -25.1776677 ], [ 44.321959, -25.1772357 ], [ 44.3214896, -25.1767332 ], [ 44.3209103, -25.1761725 ], [ 44.3205106, -25.1758108 ], [ 44.32006, -25.1752986 ], [ 44.3193412, -25.1745437 ], [ 44.3187404, -25.1739052 ], [ 44.3180805, -25.1731284 ], [ 44.3174073, -25.1723419 ], [ 44.3169701, -25.1718249 ], [ 44.3165624, -25.171354 ], [ 44.3161198, -25.1708612 ], [ 44.3158074, -25.1704279 ], [ 44.3155915, -25.1701669 ], [ 44.3153058, -25.1698853 ], [ 44.3151757, -25.1697372 ], [ 44.3150979, -25.1696086 ], [ 44.315055, -25.16956 ], [ 44.3149598, -25.1695078 ], [ 44.3147331, -25.1693925 ], [ 44.3141377, -25.1689604 ], [ 44.3135583, -25.1685332 ], [ 44.3123299, -25.1676787 ], [ 44.3117881, -25.1672611 ], [ 44.3114716, -25.1669795 ], [ 44.3109083, -25.1666591 ], [ 44.3101573, -25.1662464 ], [ 44.3094438, -25.1658482 ], [ 44.3086499, -25.1653773 ], [ 44.3079042, -25.1649063 ], [ 44.3072444, -25.1643334 ], [ 44.3065202, -25.1637605 ], [ 44.3056619, -25.1631536 ], [ 44.3050772, -25.1627214 ], [ 44.3041384, -25.1620708 ], [ 44.3035698, -25.1616096 ], [ 44.3032372, -25.1613376 ], [ 44.302867, -25.1610657 ], [ 44.3021858, -25.1605025 ], [ 44.301703, -25.1601238 ], [ 44.3012148, -25.159813 ], [ 44.3008608, -25.1596625 ], [ 44.3003672, -25.1595508 ], [ 44.2995197, -25.1592498 ], [ 44.2983744, -25.1585086 ], [ 44.2977869, -25.1578854 ], [ 44.2966711, -25.15689 ], [ 44.2952549, -25.1559237 ], [ 44.2938924, -25.1549429 ], [ 44.2929053, -25.1542243 ], [ 44.2917144, -25.1531706 ], [ 44.2907971, -25.1522723 ], [ 44.2901185, -25.1515439 ], [ 44.2896518, -25.15117 ], [ 44.2892736, -25.1509369 ], [ 44.2890429, -25.1507961 ], [ 44.2878708, -25.1499512 ], [ 44.2876616, -25.1497909 ], [ 44.2867792, -25.1492204 ], [ 44.286055, -25.1487251 ], [ 44.2855749, -25.1483706 ], [ 44.2851296, -25.1480865 ], [ 44.2842981, -25.1475451 ], [ 44.2833567, -25.1469041 ], [ 44.2823079, -25.1461126 ], [ 44.2812538, -25.1453987 ], [ 44.2807656, -25.1450977 ], [ 44.2802641, -25.1447772 ], [ 44.27991, -25.1446072 ], [ 44.2796767, -25.1444469 ], [ 44.2793575, -25.1441313 ], [ 44.2792851, -25.1440682 ], [ 44.278923, -25.1438302 ], [ 44.2785475, -25.1435267 ], [ 44.2783838, -25.1433883 ], [ 44.2781585, -25.1432839 ], [ 44.2777482, -25.1430605 ], [ 44.2774692, -25.1428129 ], [ 44.2770347, -25.1424802 ], [ 44.276627, -25.1421937 ], [ 44.2760932, -25.1418635 ], [ 44.2756695, -25.1415697 ], [ 44.2752618, -25.141169 ], [ 44.2748514, -25.1408582 ], [ 44.2745858, -25.1406956 ], [ 44.2743686, -25.140528 ], [ 44.2741084, -25.1402682 ], [ 44.2733949, -25.1397073 ], [ 44.2732099, -25.1395033 ], [ 44.2730892, -25.1393916 ], [ 44.2729175, -25.1392727 ], [ 44.2726359, -25.139093 ], [ 44.2724025, -25.1388963 ], [ 44.272027, -25.1385855 ], [ 44.2717025, -25.138367 ], [ 44.2714074, -25.1381193 ], [ 44.270997, -25.1378061 ], [ 44.2705357, -25.1374953 ], [ 44.2700127, -25.1372354 ], [ 44.268862, -25.1366527 ], [ 44.2677113, -25.1360966 ], [ 44.2671373, -25.1357931 ], [ 44.266727, -25.135628 ], [ 44.2663246, -25.135458 ], [ 44.2662549, -25.1353924 ], [ 44.2661583, -25.135288 ], [ 44.2660618, -25.1352322 ], [ 44.26541, -25.1349044 ], [ 44.2647314, -25.1345596 ], [ 44.263562, -25.1338724 ], [ 44.2628807, -25.1334571 ], [ 44.2620841, -25.1330225 ], [ 44.2610165, -25.1322236 ], [ 44.2602709, -25.1317112 ], [ 44.2591739, -25.1309511 ], [ 44.2582378, -25.1302299 ], [ 44.257063, -25.129193 ], [ 44.2563817, -25.1286005 ], [ 44.2559311, -25.1282557 ], [ 44.2554724, -25.127957 ], [ 44.254708, -25.1274616 ], [ 44.2539301, -25.1268472 ], [ 44.2527983, -25.1260677 ], [ 44.2518353, -25.1254557 ], [ 44.2509878, -25.1248171 ], [ 44.2501536, -25.1240934 ], [ 44.2497942, -25.1236563 ], [ 44.2489573, -25.1228767 ], [ 44.2481554, -25.1222089 ], [ 44.2472541, -25.1212909 ], [ 44.2465246, -25.1206838 ], [ 44.2459962, -25.12022 ], [ 44.24539, -25.1195667 ], [ 44.2448536, -25.1189328 ], [ 44.244124, -25.1180756 ], [ 44.2429814, -25.1169414 ], [ 44.2427453, -25.1167058 ], [ 44.2421526, -25.1160404 ], [ 44.2415491, -25.1154794 ], [ 44.2409563, -25.1150617 ], [ 44.2399719, -25.1141679 ], [ 44.2390385, -25.1133543 ], [ 44.2381909, -25.1126622 ], [ 44.2368713, -25.1114697 ], [ 44.2360345, -25.1107022 ], [ 44.2353532, -25.1100513 ], [ 44.234916, -25.1097259 ], [ 44.2344627, -25.1093664 ], [ 44.2340067, -25.1088709 ], [ 44.2336848, -25.1085795 ], [ 44.232907, -25.107897 ], [ 44.2319521, -25.107149 ], [ 44.2314398, -25.1068599 ], [ 44.2309865, -25.1065563 ], [ 44.2305332, -25.1061386 ], [ 44.2302355, -25.1058447 ], [ 44.2297178, -25.1054488 ], [ 44.2290634, -25.1050262 ], [ 44.2279744, -25.1042732 ], [ 44.2271483, -25.1037535 ], [ 44.2264938, -25.1033454 ], [ 44.2251688, -25.1026605 ], [ 44.223581, -25.1015966 ], [ 44.2222452, -25.1005959 ], [ 44.2213494, -25.0998478 ], [ 44.2193001, -25.0981087 ], [ 44.2181361, -25.0971322 ], [ 44.2171597, -25.0964327 ], [ 44.2163014, -25.0957283 ], [ 44.2156792, -25.0951939 ], [ 44.2147994, -25.0944943 ], [ 44.2141449, -25.0939017 ], [ 44.2136836, -25.0934596 ], [ 44.2127877, -25.0927503 ], [ 44.2121601, -25.0922839 ], [ 44.2113501, -25.0917738 ], [ 44.2106634, -25.0911374 ], [ 44.2095798, -25.09019 ], [ 44.2080188, -25.0891309 ], [ 44.2068708, -25.0884653 ], [ 44.2057443, -25.0875714 ], [ 44.2043602, -25.086692 ], [ 44.2029709, -25.0856523 ], [ 44.2015225, -25.0845495 ], [ 44.1997629, -25.0834709 ], [ 44.1988242, -25.0828344 ], [ 44.1978157, -25.0820668 ], [ 44.1962385, -25.0811971 ], [ 44.1927624, -25.0793314 ], [ 44.1900694, -25.078107 ], [ 44.186722, -25.0766299 ], [ 44.183321, -25.0752597 ], [ 44.1795444, -25.0740547 ], [ 44.1763258, -25.0731899 ], [ 44.1722381, -25.0718779 ], [ 44.1678178, -25.0700412 ], [ 44.1657579, -25.069429 ], [ 44.1640413, -25.0690257 ], [ 44.1614234, -25.0686613 ], [ 44.1587412, -25.0684377 ], [ 44.1554582, -25.0682725 ], [ 44.1529047, -25.0683017 ], [ 44.1462421, -25.0687001 ], [ 44.1426748, -25.068982 ], [ 44.1414571, -25.0690354 ], [ 44.1410708, -25.0690937 ], [ 44.1402715, -25.0692978 ], [ 44.1393864, -25.0696088 ], [ 44.1383457, -25.0698857 ], [ 44.1372675, -25.070051 ], [ 44.1368008, -25.070119 ], [ 44.135921, -25.0703522 ], [ 44.1351807, -25.0707118 ], [ 44.1344511, -25.0710325 ], [ 44.1327131, -25.0717613 ], [ 44.1307658, -25.0728935 ], [ 44.1299826, -25.0734717 ], [ 44.129591, -25.0736903 ], [ 44.1291672, -25.0739576 ], [ 44.1286468, -25.074288 ], [ 44.1283089, -25.0745844 ], [ 44.1277564, -25.0748856 ], [ 44.1270804, -25.0752792 ], [ 44.1253585, -25.0759788 ], [ 44.1248327, -25.0762315 ], [ 44.1241246, -25.0766445 ], [ 44.1235936, -25.0769992 ], [ 44.1230464, -25.0775142 ], [ 44.1226441, -25.0779126 ], [ 44.1218609, -25.0783353 ], [ 44.1213512, -25.0785151 ], [ 44.1207504, -25.0786123 ], [ 44.1202998, -25.078656 ], [ 44.1179073, -25.0790107 ], [ 44.1168237, -25.0791662 ], [ 44.1159975, -25.0792925 ], [ 44.1154289, -25.0794626 ], [ 44.1150159, -25.0796423 ], [ 44.114584, -25.0797516 ], [ 44.1139913, -25.0798561 ], [ 44.1136828, -25.0798974 ], [ 44.1133878, -25.0799023 ], [ 44.1131115, -25.0798561 ], [ 44.1127977, -25.0797565 ], [ 44.1125911, -25.0796423 ], [ 44.1121003, -25.0793119 ], [ 44.1116953, -25.0789815 ], [ 44.1115156, -25.0787678 ], [ 44.1114405, -25.0786439 ], [ 44.1113949, -25.0784738 ], [ 44.1114056, -25.0781143 ], [ 44.1114244, -25.0778616 ], [ 44.1114458, -25.0777644 ], [ 44.1114539, -25.0776454 ], [ 44.1112393, -25.0770332 ], [ 44.1107619, -25.0760031 ], [ 44.1104561, -25.0754735 ], [ 44.1096461, -25.0740839 ], [ 44.10952, -25.0738361 ], [ 44.1093618, -25.073598 ], [ 44.1089916, -25.0731315 ], [ 44.1084659, -25.0725582 ], [ 44.1080475, -25.0721889 ], [ 44.1076076, -25.0718585 ], [ 44.1065615, -25.0710908 ], [ 44.1062558, -25.0707798 ], [ 44.1055289, -25.0699028 ], [ 44.1050917, -25.0694314 ], [ 44.1046384, -25.0690354 ], [ 44.1038418, -25.0684572 ], [ 44.1025463, -25.0675607 ], [ 44.1018704, -25.0670723 ], [ 44.1007385, -25.0663629 ], [ 44.1001832, -25.0660543 ], [ 44.0992686, -25.0655684 ], [ 44.0988207, -25.0652987 ], [ 44.0984666, -25.0649999 ], [ 44.0980402, -25.0644678 ], [ 44.0977156, -25.0641519 ], [ 44.0971765, -25.0634741 ], [ 44.0968841, -25.0630197 ], [ 44.096573, -25.062699 ], [ 44.096117, -25.0622957 ], [ 44.0954304, -25.0616251 ], [ 44.0946847, -25.0609108 ], [ 44.0933517, -25.0596692 ], [ 44.0925068, -25.058899 ], [ 44.0921178, -25.0585321 ], [ 44.0915653, -25.0580388 ], [ 44.0910745, -25.0575869 ], [ 44.0907419, -25.0572394 ], [ 44.0904763, -25.0568798 ], [ 44.0898004, -25.055852 ], [ 44.0890199, -25.0547732 ], [ 44.0888938, -25.0545569 ], [ 44.0888026, -25.0543723 ], [ 44.088572, -25.0540078 ], [ 44.0883064, -25.0536749 ], [ 44.0877539, -25.0531379 ], [ 44.0871128, -25.0524551 ], [ 44.0866595, -25.0519983 ], [ 44.086225, -25.0514929 ], [ 44.0860882, -25.0513325 ], [ 44.0859514, -25.0511503 ], [ 44.085812, -25.0509899 ], [ 44.0850878, -25.0502925 ], [ 44.0838298, -25.0489731 ], [ 44.0827382, -25.0478893 ], [ 44.0821347, -25.0472818 ], [ 44.0816385, -25.0467472 ], [ 44.0812039, -25.0462734 ], [ 44.0807198, -25.045712 ], [ 44.0797502, -25.0447085 ], [ 44.0792526, -25.0442407 ], [ 44.0786666, -25.0437559 ], [ 44.077819, -25.0430414 ], [ 44.0767729, -25.0422833 ], [ 44.0755337, -25.0414716 ], [ 44.0752172, -25.041321 ], [ 44.0747559, -25.0411557 ], [ 44.0742677, -25.0409078 ], [ 44.0736347, -25.0403635 ], [ 44.0732914, -25.0400087 ], [ 44.0729803, -25.0396345 ], [ 44.0728033, -25.0393769 ], [ 44.0726799, -25.0392748 ], [ 44.0725136, -25.0392213 ], [ 44.0707111, -25.0392116 ], [ 44.0700942, -25.0393185 ], [ 44.0694129, -25.0394255 ], [ 44.0687585, -25.039406 ], [ 44.0680289, -25.0394012 ], [ 44.067353, -25.0394449 ], [ 44.066028, -25.0395616 ], [ 44.0654969, -25.0397268 ], [ 44.065057, -25.0398775 ], [ 44.0649122, -25.0399018 ], [ 44.0647674, -25.0398532 ], [ 44.0646386, -25.0396976 ], [ 44.0645796, -25.0395178 ], [ 44.0646064, -25.0392942 ], [ 44.0649176, -25.0382201 ], [ 44.0651321, -25.0363246 ], [ 44.0650785, -25.0339721 ], [ 44.0648425, -25.031921 ], [ 44.064585, -25.0300594 ], [ 44.0643221, -25.0289755 ], [ 44.0640378, -25.0282075 ], [ 44.0633458, -25.0266326 ], [ 44.0630025, -25.0253396 ], [ 44.0626752, -25.0245571 ], [ 44.0620851, -25.0235557 ], [ 44.061538, -25.0217037 ], [ 44.0609962, -25.0204593 ], [ 44.0598482, -25.0185489 ], [ 44.0587485, -25.0172024 ], [ 44.0582067, -25.0167454 ], [ 44.0580136, -25.0165558 ], [ 44.0578687, -25.0162982 ], [ 44.057638, -25.015817 ], [ 44.0571499, -25.0150246 ], [ 44.0562111, -25.0139016 ], [ 44.0548485, -25.0125162 ], [ 44.0538078, -25.0115779 ], [ 44.0525043, -25.0107952 ], [ 44.0511846, -25.0101827 ], [ 44.05016, -25.0098035 ], [ 44.0493286, -25.0095653 ], [ 44.048025, -25.0093514 ], [ 44.0473491, -25.0093952 ], [ 44.0467215, -25.0094924 ], [ 44.0460831, -25.0096042 ], [ 44.0454018, -25.0097598 ], [ 44.044683, -25.0098181 ], [ 44.0440339, -25.0098862 ], [ 44.0433204, -25.0100952 ], [ 44.042623, -25.0104549 ], [ 44.0424353, -25.0104647 ], [ 44.0421563, -25.0103869 ], [ 44.0414911, -25.0099834 ], [ 44.0410244, -25.0096771 ], [ 44.0407991, -25.009575 ], [ 44.0405524, -25.0095702 ], [ 44.0399569, -25.0096479 ], [ 44.0393561, -25.0097306 ], [ 44.0384227, -25.0099834 ], [ 44.0376985, -25.0101341 ], [ 44.0368322, -25.0103188 ], [ 44.0363789, -25.0103917 ], [ 44.0361321, -25.010399 ], [ 44.0360194, -25.0103407 ], [ 44.0359443, -25.0102265 ], [ 44.0358746, -25.0097914 ], [ 44.0359497, -25.0092979 ], [ 44.0360436, -25.0090573 ], [ 44.0363359, -25.0086951 ], [ 44.036639, -25.0084326 ], [ 44.0369207, -25.0081968 ], [ 44.0373981, -25.0075186 ], [ 44.0379453, -25.0067116 ], [ 44.0380686, -25.0066168 ], [ 44.0382403, -25.0065074 ], [ 44.0384173, -25.0064467 ], [ 44.0384898, -25.0064005 ], [ 44.0386292, -25.0062716 ], [ 44.0396029, -25.0055813 ], [ 44.0397182, -25.0054622 ], [ 44.0397772, -25.0053528 ], [ 44.0397879, -25.005258 ], [ 44.0397343, -25.0050684 ], [ 44.0394902, -25.0044874 ], [ 44.0390182, -25.0035467 ], [ 44.038758, -25.0030921 ], [ 44.0385166, -25.0026011 ], [ 44.037964, -25.0014805 ], [ 44.0379265, -25.0013541 ], [ 44.0379184, -25.0011863 ], [ 44.0379211, -25.0010089 ], [ 44.0379345, -25.0008533 ], [ 44.0379828, -25.0006637 ], [ 44.0380687, -25.0005604 ], [ 44.0381437, -25.0004206 ], [ 44.0381652, -25.0002213 ], [ 44.038159616597831, -25.0 ], [ 45.0, -25.0 ], [ 45.0, -25.487168068054213 ], [ 44.9999624, -25.4871447 ] ] ] ] } }
]
}
