{
"type": "FeatureCollection",
"name": "40_25",
"crs": { "type": "name", "properties": { "name": "urn:ogc:def:crs:OGC:1.3:CRS84" } },
"xy_coordinate_resolution": 1e-15,
"features": [
{ "type": "Feature", "properties": { "FID": 123912, "id": 1597, "left": 40.0, "top": 30.0, "right": 45.0, "bottom": 25.0, "row_index": 12, "col_index": 44, "min_lon": 40.0, "min_lat": 25.0, "tile_id": "40_25" }, "geometry": { "type": "MultiPolygon", "coordinates": [ [ [ [ 45.0, 30.0 ], [ 45.0, 25.0 ], [ 40.0, 25.0 ], [ 40.0, 30.0 ], [ 45.0, 30.0 ] ] ] ] } }
]
}
