{
"type": "FeatureCollection",
"name": "40_30",
"crs": { "type": "name", "properties": { "name": "urn:ogc:def:crs:OGC:1.3:CRS84" } },
"xy_coordinate_resolution": 1e-15,
"features": [
{ "type": "Feature", "properties": { "FID": 123912, "id": 1596, "left": 40.0, "top": 35.0, "right": 45.0, "bottom": 30.0, "row_index": 11, "col_index": 44, "min_lon": 40.0, "min_lat": 30.0, "tile_id": "40_30" }, "geometry": { "type": "MultiPolygon", "coordinates": [ [ [ [ 45.0, 35.0 ], [ 45.0, 30.0 ], [ 40.0, 30.0 ], [ 40.0, 35.0 ], [ 45.0, 35.0 ] ] ] ] } },
{ "type": "Feature", "properties": { "FID": 795430, "id": 1596, "left": 40.0, "top": 35.0, "right": 45.0, "bottom": 30.0, "row_index": 11, "col_index": 44, "min_lon": 40.0, "min_lat": 30.0, "tile_id": "40_30" }, "geometry": { "type": "MultiPolygon", "coordinates": [ [ [ [ 43.4838709, 33.93973 ], [ 43.4839277, 33.9397177 ], [ 43.4839795, 33.939687 ], [ 43.4840165, 33.9396501 ], [ 43.4840684, 33.9396255 ], [ 43.4841153, 33.9396153 ], [ 43.4841498, 33.9395518 ], [ 43.4841844, 33.939515 ], [ 43.484288, 33.9394904 ], [ 43.484372, 33.9394699 ], [ 43.4844238, 33.9394474 ], [ 43.4845126, 33.9394474 ], [ 43.4845669, 33.9394392 ], [ 43.4846731, 33.9394167 ], [ 43.4847397, 33.939386 ], [ 43.4847989, 33.9393532 ], [ 43.4848508, 33.9393245 ], [ 43.4849224, 33.9392692 ], [ 43.4849816, 33.939214 ], [ 43.4850606, 33.9391505 ], [ 43.4851173, 33.9391034 ], [ 43.4851642, 33.9390461 ], [ 43.4851988, 33.9390092 ], [ 43.4852358, 33.9389744 ], [ 43.4852975, 33.9389211 ], [ 43.4853592, 33.9388945 ], [ 43.4854407, 33.9388495 ], [ 43.4854303, 33.9388413 ], [ 43.4854008, 33.9388486 ], [ 43.4853722, 33.9388605 ], [ 43.4853554, 33.9388314 ], [ 43.4853156, 33.9387977 ], [ 43.4852559, 33.9387482 ], [ 43.4851108, 33.9386417 ], [ 43.4850494, 33.9385861 ], [ 43.4849862, 33.9385383 ], [ 43.484895, 33.9385259 ], [ 43.4848411, 33.9384734 ], [ 43.4847443, 33.9383886 ], [ 43.484696, 33.9383469 ], [ 43.4846309, 33.9382898 ], [ 43.4846104, 33.9382913 ], [ 43.4845695, 33.9382234 ], [ 43.484536, 33.9381447 ], [ 43.4844969, 33.9380815 ], [ 43.484456, 33.9379997 ], [ 43.484417, 33.9379565 ], [ 43.4844076, 33.9379194 ], [ 43.4843332, 33.9379086 ], [ 43.4842719, 33.93787 ], [ 43.4842254, 33.9378268 ], [ 43.4841826, 33.9378114 ], [ 43.4841361, 33.937796 ], [ 43.484097, 33.9377543 ], [ 43.48403, 33.9377034 ], [ 43.4839668, 33.9376601 ], [ 43.4839333, 33.9376447 ], [ 43.4838924, 33.9376108 ], [ 43.4838143, 33.9375861 ], [ 43.4837547, 33.9375722 ], [ 43.4836878, 33.9375676 ], [ 43.4835948, 33.9375645 ], [ 43.4835297, 33.9375768 ], [ 43.4834515, 33.9376061 ], [ 43.4833939, 33.9376385 ], [ 43.4833585, 33.9376509 ], [ 43.4833288, 33.9377126 ], [ 43.4833102, 33.9377589 ], [ 43.4832897, 33.9378176 ], [ 43.4832748, 33.9378747 ], [ 43.4832562, 33.9379302 ], [ 43.4831948, 33.9379487 ], [ 43.483186, 33.9379632 ], [ 43.4832156, 33.9379842 ], [ 43.4832198, 33.9380105 ], [ 43.4832135, 33.9380412 ], [ 43.4831976, 33.9380683 ], [ 43.4831828, 33.9380876 ], [ 43.4831575, 33.9381288 ], [ 43.483149, 33.9381683 ], [ 43.4831606, 33.9382156 ], [ 43.4831902, 33.9382761 ], [ 43.4832071, 33.9383348 ], [ 43.4832071, 33.938376 ], [ 43.483204, 33.938433 ], [ 43.4831913, 33.9384672 ], [ 43.4831818, 33.938504 ], [ 43.483167, 33.9385724 ], [ 43.4831416, 33.9385899 ], [ 43.4831342, 33.9386188 ], [ 43.4831416, 33.9386539 ], [ 43.4831575, 33.9386977 ], [ 43.4831744, 33.9387538 ], [ 43.4831871, 33.938852 ], [ 43.4831807, 33.938888 ], [ 43.4831807, 33.9389283 ], [ 43.4831955, 33.938959 ], [ 43.4832071, 33.9389967 ], [ 43.4832283, 33.9390378 ], [ 43.4832145, 33.9390668 ], [ 43.4831691, 33.9390861 ], [ 43.4831744, 33.9390975 ], [ 43.4832114, 33.9390975 ], [ 43.4832568, 33.9390983 ], [ 43.4832895, 33.939129 ], [ 43.4833529, 33.9391693 ], [ 43.4834015, 33.9392079 ], [ 43.4834544, 33.9392956 ], [ 43.483484, 33.9393613 ], [ 43.4834935, 33.9394069 ], [ 43.4834998, 33.9394437 ], [ 43.483484, 33.9395191 ], [ 43.483484, 33.9395577 ], [ 43.4834924, 33.9396015 ], [ 43.4835104, 33.9396497 ], [ 43.4835516, 33.9397076 ], [ 43.483634, 33.939747 ], [ 43.4837164, 33.9397558 ], [ 43.48375, 33.9397504 ], [ 43.4838709, 33.93973 ] ] ] ] } }
]
}
