{
"type": "FeatureCollection",
"name": "40_35",
"crs": { "type": "name", "properties": { "name": "urn:ogc:def:crs:OGC:1.3:CRS84" } },
"xy_coordinate_resolution": 1e-15,
"features": [
{ "type": "Feature", "properties": { "FID": 123912, "id": 1595, "left": 40.0, "top": 40.0, "right": 45.0, "bottom": 35.0, "row_index": 10, "col_index": 44, "min_lon": 40.0, "min_lat": 35.0, "tile_id": "40_35" }, "geometry": { "type": "MultiPolygon", "coordinates": [ [ [ [ 45.0, 40.0 ], [ 45.0, 35.0 ], [ 40.0, 35.0 ], [ 40.0, 40.0 ], [ 45.0, 40.0 ] ] ] ] } }
]
}
