{
"type": "FeatureCollection",
"name": "40_60",
"crs": { "type": "name", "properties": { "name": "urn:ogc:def:crs:OGC:1.3:CRS84" } },
"xy_coordinate_resolution": 1e-15,
"features": [
{ "type": "Feature", "properties": { "FID": 123912, "id": 1590, "left": 40.0, "top": 65.0, "right": 45.0, "bottom": 60.0, "row_index": 5, "col_index": 44, "min_lon": 40.0, "min_lat": 60.0, "tile_id": "40_60" }, "geometry": { "type": "MultiPolygon", "coordinates": [ [ [ [ 40.0058742, 64.7612392 ], [ 40.0065306, 64.7616015 ], [ 40.0199188, 64.7685545 ], [ 40.0367255, 64.7734869 ], [ 40.0837015, 64.780825 ], [ 40.1334327, 64.7868701 ], [ 40.1535456, 64.7888653 ], [ 40.1651174, 64.7875743 ], [ 40.1824751, 64.782175 ], [ 40.1823374, 64.7798271 ], [ 40.191154, 64.7792988 ], [ 40.2152619, 64.7750134 ], [ 40.2331707, 64.767615 ], [ 40.249013, 64.7622117 ], [ 40.2504006, 64.7627554 ], [ 40.2592072, 64.7662055 ], [ 40.2739877, 64.7690355 ], [ 40.3111986, 64.7693677 ], [ 40.3186419, 64.768929 ], [ 40.3563854, 64.7663994 ], [ 40.3681469, 64.7631857 ], [ 40.3731931, 64.7632715 ], [ 40.4041367, 64.7797393 ], [ 40.4193323, 64.787797 ], [ 40.4193373, 64.7878483 ], [ 40.4193223, 64.7878718 ], [ 40.4193022, 64.7878953 ], [ 40.4192921, 64.787921 ], [ 40.4192671, 64.7879445 ], [ 40.419262, 64.7879702 ], [ 40.419257, 64.7880749 ], [ 40.419247, 64.7881005 ], [ 40.4192068, 64.7881241 ], [ 40.4191667, 64.7881497 ], [ 40.4191617, 64.7882587 ], [ 40.4191567, 64.7882844 ], [ 40.4191366, 64.7883143 ], [ 40.4190964, 64.7883335 ], [ 40.4190513, 64.7883506 ], [ 40.4189509, 64.7883805 ], [ 40.4188656, 64.7884169 ], [ 40.4188205, 64.788434 ], [ 40.4187703, 64.7884532 ], [ 40.4186699, 64.7884831 ], [ 40.4186147, 64.7885024 ], [ 40.4185646, 64.7885195 ], [ 40.4184792, 64.7885558 ], [ 40.4184391, 64.7885793 ], [ 40.4183638, 64.7886178 ], [ 40.4183287, 64.7886392 ], [ 40.4182986, 64.7886648 ], [ 40.4182585, 64.7886841 ], [ 40.4182133, 64.788699 ], [ 40.4181782, 64.7887183 ], [ 40.4181581, 64.7887439 ], [ 40.4181431, 64.7887674 ], [ 40.4181129, 64.7888102 ], [ 40.4181129, 64.7888935 ], [ 40.4181079, 64.7889213 ], [ 40.4180879, 64.7889448 ], [ 40.4180527, 64.7889705 ], [ 40.4180327, 64.788994 ], [ 40.4180126, 64.7890218 ], [ 40.4179975, 64.7890453 ], [ 40.4179825, 64.7890709 ], [ 40.4179825, 64.7890966 ], [ 40.4179624, 64.7891201 ], [ 40.4179323, 64.7891671 ], [ 40.4179323, 64.7891928 ], [ 40.4179223, 64.7892205 ], [ 40.4172699, 64.7892847 ], [ 40.4172549, 64.7892547 ], [ 40.4172248, 64.7892291 ], [ 40.4171897, 64.7892056 ], [ 40.4171545, 64.7891821 ], [ 40.4171194, 64.7891543 ], [ 40.4170843, 64.7891286 ], [ 40.4170542, 64.7891009 ], [ 40.4170241, 64.7890688 ], [ 40.416999, 64.789041 ], [ 40.4169689, 64.7890154 ], [ 40.4169337, 64.7889897 ], [ 40.4168936, 64.7889662 ], [ 40.4168735, 64.7889384 ], [ 40.4168434, 64.7889106 ], [ 40.4168083, 64.788885 ], [ 40.4167531, 64.7888636 ], [ 40.4166979, 64.7888422 ], [ 40.4166427, 64.7888273 ], [ 40.4165725, 64.7888166 ], [ 40.4165022, 64.7888166 ], [ 40.416437, 64.7888187 ], [ 40.4163818, 64.7888251 ], [ 40.4163467, 64.7888444 ], [ 40.4162965, 64.7888593 ], [ 40.4162363, 64.78887 ], [ 40.4161861, 64.7888807 ], [ 40.4161359, 64.7888914 ], [ 40.4160807, 64.7888978 ], [ 40.4160205, 64.7889021 ], [ 40.4159603, 64.7889128 ], [ 40.4159101, 64.7889277 ], [ 40.4158499, 64.7889299 ], [ 40.4157796, 64.7889341 ], [ 40.4157194, 64.7889405 ], [ 40.4156441, 64.7889448 ], [ 40.4155789, 64.7889534 ], [ 40.4155237, 64.7889598 ], [ 40.4154685, 64.7889726 ], [ 40.4154133, 64.7889833 ], [ 40.4153581, 64.7889961 ], [ 40.4153079, 64.7890132 ], [ 40.4152528, 64.7890325 ], [ 40.4151925, 64.7890389 ], [ 40.4151223, 64.7890367 ], [ 40.4150671, 64.789026 ], [ 40.4150169, 64.7890089 ], [ 40.4149617, 64.7890196 ], [ 40.4149316, 64.789041 ], [ 40.4149115, 64.7890667 ], [ 40.4148915, 64.7890902 ], [ 40.4148664, 64.7891115 ], [ 40.4148313, 64.7891393 ], [ 40.4148062, 64.7891607 ], [ 40.414761, 64.7891821 ], [ 40.4147209, 64.7892034 ], [ 40.4146908, 64.789227 ], [ 40.4146657, 64.7892526 ], [ 40.4146456, 64.7892783 ], [ 40.4146054, 64.7893018 ], [ 40.4145653, 64.7893274 ], [ 40.4145352, 64.7893488 ], [ 40.4144549, 64.7893979 ], [ 40.4144198, 64.7894215 ], [ 40.4143646, 64.7894642 ], [ 40.4143244, 64.7894834 ], [ 40.4142743, 64.7895027 ], [ 40.4142391, 64.789524 ], [ 40.4142141, 64.7895497 ], [ 40.4141789, 64.7895689 ], [ 40.4141438, 64.7895903 ], [ 40.4141237, 64.7896138 ], [ 40.4141087, 64.7896395 ], [ 40.4140836, 64.7896608 ], [ 40.4140033, 64.7897314 ], [ 40.4139531, 64.7897506 ], [ 40.4138879, 64.7897549 ], [ 40.4138227, 64.7897549 ], [ 40.4137444, 64.7897763 ], [ 40.4136791, 64.7897806 ], [ 40.4136239, 64.7897977 ], [ 40.4136139, 64.7898233 ], [ 40.4135988, 64.7898746 ], [ 40.4135738, 64.7898981 ], [ 40.4135336, 64.7899216 ], [ 40.4134885, 64.789943 ], [ 40.4134333, 64.789958 ], [ 40.4133329, 64.7899879 ], [ 40.4132928, 64.7900114 ], [ 40.4132827, 64.7900392 ], [ 40.4132526, 64.7900627 ], [ 40.4131974, 64.7900712 ], [ 40.4131322, 64.7900883 ], [ 40.413092, 64.7901076 ], [ 40.4130469, 64.7901225 ], [ 40.4129867, 64.7901332 ], [ 40.4129315, 64.7901482 ], [ 40.4128763, 64.790161 ], [ 40.4128211, 64.7901674 ], [ 40.4127609, 64.7901802 ], [ 40.4126956, 64.7901845 ], [ 40.4126354, 64.7901973 ], [ 40.4125049, 64.7901973 ], [ 40.4124397, 64.7901995 ], [ 40.4123895, 64.7902123 ], [ 40.4123394, 64.7902294 ], [ 40.4122992, 64.7902465 ], [ 40.412249, 64.7902615 ], [ 40.4122039, 64.7902828 ], [ 40.4121587, 64.7902978 ], [ 40.4120584, 64.7903405 ], [ 40.4120182, 64.7903598 ], [ 40.4119831, 64.7903811 ], [ 40.4119429, 64.7904004 ], [ 40.4118928, 64.7904153 ], [ 40.4118426, 64.790441 ], [ 40.4118075, 64.7904624 ], [ 40.4117774, 64.7904859 ], [ 40.4117372, 64.7905072 ], [ 40.4117021, 64.7905265 ], [ 40.4116569, 64.7905457 ], [ 40.4116067, 64.7905628 ], [ 40.4115616, 64.7905799 ], [ 40.4115214, 64.7905991 ], [ 40.4114763, 64.7906162 ], [ 40.411406, 64.7906547 ], [ 40.411386, 64.7906782 ], [ 40.4113709, 64.7907081 ], [ 40.4113709, 64.7907338 ], [ 40.4113809, 64.7907594 ], [ 40.411396, 64.7907851 ], [ 40.411396, 64.7908107 ], [ 40.4113809, 64.7908407 ], [ 40.4113809, 64.7908663 ], [ 40.411391, 64.7908962 ], [ 40.411411, 64.7909197 ], [ 40.4114462, 64.7909432 ], [ 40.4114612, 64.7909689 ], [ 40.4114562, 64.7909945 ], [ 40.4114261, 64.7910202 ], [ 40.4113659, 64.7910202 ], [ 40.4113057, 64.7910116 ], [ 40.4112505, 64.7909945 ], [ 40.4112103, 64.790971 ], [ 40.4111401, 64.7909603 ], [ 40.4110799, 64.7909603 ], [ 40.4110297, 64.7909753 ], [ 40.4110096, 64.7909988 ], [ 40.4109645, 64.7910159 ], [ 40.4109093, 64.7910287 ], [ 40.4108591, 64.7910437 ], [ 40.410824, 64.7910629 ], [ 40.4107688, 64.7910736 ], [ 40.4107085, 64.79108 ], [ 40.4105881, 64.7910886 ], [ 40.4105229, 64.791095 ], [ 40.4104577, 64.7910971 ], [ 40.4103573, 64.7911249 ], [ 40.4102971, 64.7911335 ], [ 40.4102469, 64.7911441 ], [ 40.4101917, 64.7911612 ], [ 40.4101465, 64.7911762 ], [ 40.4100863, 64.7911933 ], [ 40.4100362, 64.7912061 ], [ 40.409981, 64.7912168 ], [ 40.4099258, 64.7912296 ], [ 40.4098605, 64.7912425 ], [ 40.4098103, 64.7912531 ], [ 40.4097551, 64.791266 ], [ 40.4096949, 64.7912831 ], [ 40.4096397, 64.7913002 ], [ 40.4095795, 64.791313 ], [ 40.4095243, 64.7913279 ], [ 40.4094691, 64.7913408 ], [ 40.409429, 64.79136 ], [ 40.4093939, 64.7913814 ], [ 40.4093487, 64.7914006 ], [ 40.4092935, 64.7914156 ], [ 40.4092082, 64.7914369 ], [ 40.409143, 64.7914604 ], [ 40.4090978, 64.7914797 ], [ 40.4090526, 64.7914946 ], [ 40.4090075, 64.7915117 ], [ 40.4089523, 64.7915267 ], [ 40.4088971, 64.7915374 ], [ 40.4088419, 64.7915438 ], [ 40.4087917, 64.7915609 ], [ 40.4087415, 64.7915759 ], [ 40.4087064, 64.7916015 ], [ 40.4086613, 64.7916207 ], [ 40.408596, 64.7916357 ], [ 40.4085509, 64.7916528 ], [ 40.4084957, 64.7916678 ], [ 40.4084455, 64.7916806 ], [ 40.4083953, 64.7917019 ], [ 40.4083602, 64.7917255 ], [ 40.40832, 64.7917447 ], [ 40.4082949, 64.7917682 ], [ 40.4082799, 64.7917938 ], [ 40.4082749, 64.7918195 ], [ 40.4082498, 64.791843 ], [ 40.4082147, 64.7918665 ], [ 40.4081896, 64.7918879 ], [ 40.4081394, 64.7919028 ], [ 40.4080742, 64.7919157 ], [ 40.408019, 64.7919306 ], [ 40.4079889, 64.791952 ], [ 40.4079537, 64.7919734 ], [ 40.4079136, 64.7919926 ], [ 40.4078684, 64.7920097 ], [ 40.4078383, 64.7920332 ], [ 40.4078132, 64.7920567 ], [ 40.407753, 64.7920995 ], [ 40.4076978, 64.792108 ], [ 40.4076426, 64.7921187 ], [ 40.4076075, 64.7921379 ], [ 40.4075222, 64.7921807 ], [ 40.4074921, 64.792202 ], [ 40.407457, 64.7922277 ], [ 40.4074469, 64.7922555 ], [ 40.4074068, 64.792279 ], [ 40.4072763, 64.7923089 ], [ 40.4072211, 64.7923196 ], [ 40.407176, 64.7923345 ], [ 40.4071208, 64.792358 ], [ 40.4070856, 64.7923794 ], [ 40.4070405, 64.7924093 ], [ 40.4070054, 64.7924307 ], [ 40.4069752, 64.7924542 ], [ 40.406915, 64.7924692 ], [ 40.4068749, 64.7924884 ], [ 40.4068347, 64.7925119 ], [ 40.4068097, 64.7925376 ], [ 40.4067695, 64.7925653 ], [ 40.4067344, 64.7925867 ], [ 40.4066842, 64.7926017 ], [ 40.406634, 64.7926252 ], [ 40.4065939, 64.7926594 ], [ 40.4065738, 64.7926936 ], [ 40.4065638, 64.7927235 ], [ 40.4065487, 64.7927534 ], [ 40.4065287, 64.7927769 ], [ 40.4065337, 64.7928068 ], [ 40.4065839, 64.7928239 ], [ 40.406639, 64.7928389 ], [ 40.4066591, 64.7928667 ], [ 40.4066541, 64.7928923 ], [ 40.406629, 64.792918 ], [ 40.4065738, 64.7929329 ], [ 40.4065186, 64.7929415 ], [ 40.4064534, 64.7929522 ], [ 40.4063781, 64.7929693 ], [ 40.406333, 64.7929864 ], [ 40.4062928, 64.7930099 ], [ 40.4062677, 64.7930312 ], [ 40.4062376, 64.7930526 ], [ 40.4061925, 64.7930676 ], [ 40.4061473, 64.7930932 ], [ 40.4061122, 64.793121 ], [ 40.406062, 64.7931359 ], [ 40.4060168, 64.7931509 ], [ 40.4059616, 64.793168 ], [ 40.4059064, 64.793183 ], [ 40.4058462, 64.7931936 ], [ 40.405781, 64.7932107 ], [ 40.4057358, 64.7932257 ], [ 40.4056856, 64.7932428 ], [ 40.4056355, 64.7932556 ], [ 40.4055853, 64.7932706 ], [ 40.4055451, 64.7932877 ], [ 40.405515, 64.793309 ], [ 40.4054649, 64.7933689 ], [ 40.4054448, 64.7933924 ], [ 40.4054297, 64.7934159 ], [ 40.4053896, 64.7934629 ], [ 40.4053545, 64.7934843 ], [ 40.4052943, 64.7934843 ], [ 40.4052391, 64.7934693 ], [ 40.4051788, 64.7934608 ], [ 40.4051136, 64.7934586 ], [ 40.4050484, 64.7934629 ], [ 40.4049882, 64.7934715 ], [ 40.404933, 64.7934779 ], [ 40.4048728, 64.7934821 ], [ 40.4048075, 64.7934843 ], [ 40.4047473, 64.7934886 ], [ 40.4046871, 64.793495 ], [ 40.4046369, 64.7935121 ], [ 40.4046018, 64.793542 ], [ 40.4045516, 64.7935569 ], [ 40.4044914, 64.7935719 ], [ 40.4044211, 64.7935783 ], [ 40.4043609, 64.7935869 ], [ 40.4042957, 64.7935911 ], [ 40.4042405, 64.7936061 ], [ 40.4041903, 64.7936253 ], [ 40.4041753, 64.793651 ], [ 40.4041151, 64.7936595 ], [ 40.4040548, 64.7936617 ], [ 40.4039996, 64.7936723 ], [ 40.4039495, 64.7936873 ], [ 40.4039043, 64.7937044 ], [ 40.4038993, 64.79373 ], [ 40.4039043, 64.7937578 ], [ 40.4038842, 64.7937813 ], [ 40.4038441, 64.7938048 ], [ 40.4037989, 64.7938305 ], [ 40.4037638, 64.7938518 ], [ 40.4037186, 64.7938711 ], [ 40.4036735, 64.793886 ], [ 40.4036283, 64.7939053 ], [ 40.4035832, 64.7939266 ], [ 40.403548, 64.7939502 ], [ 40.403528, 64.7939737 ], [ 40.4034828, 64.7940014 ], [ 40.4034326, 64.7940121 ], [ 40.4033724, 64.7940207 ], [ 40.4033172, 64.7940314 ], [ 40.403267, 64.7940442 ], [ 40.4032319, 64.7940655 ], [ 40.4031968, 64.7940933 ], [ 40.4031817, 64.7941211 ], [ 40.4031867, 64.7941468 ], [ 40.4032068, 64.7941788 ], [ 40.4032369, 64.7942002 ], [ 40.403257, 64.7942237 ], [ 40.4032771, 64.7942515 ], [ 40.4032771, 64.7943562 ], [ 40.4032971, 64.7944181 ], [ 40.4032821, 64.7944459 ], [ 40.403267, 64.7944694 ], [ 40.4032269, 64.7944908 ], [ 40.4031918, 64.79451 ], [ 40.4031516, 64.7945293 ], [ 40.4031165, 64.7945506 ], [ 40.4030764, 64.7945699 ], [ 40.4030412, 64.7945912 ], [ 40.4030111, 64.7946212 ], [ 40.4030061, 64.7946489 ], [ 40.402971, 64.7946703 ], [ 40.4029308, 64.7946938 ], [ 40.4028907, 64.794713 ], [ 40.4028606, 64.7947344 ], [ 40.4028204, 64.7947622 ], [ 40.4027853, 64.7947814 ], [ 40.4027452, 64.7947985 ], [ 40.4027, 64.7948156 ], [ 40.4026649, 64.7948348 ], [ 40.4026197, 64.7948498 ], [ 40.4025595, 64.7948648 ], [ 40.4025144, 64.7948819 ], [ 40.4024842, 64.7949075 ], [ 40.4024441, 64.7949246 ], [ 40.4023939, 64.7949438 ], [ 40.4023287, 64.7949438 ], [ 40.4022635, 64.7949481 ], [ 40.4022083, 64.7949567 ], [ 40.4021531, 64.7949695 ], [ 40.4020878, 64.7949844 ], [ 40.4019774, 64.7950186 ], [ 40.4019122, 64.795025 ], [ 40.401847, 64.7950293 ], [ 40.4017918, 64.7950421 ], [ 40.4017316, 64.795055 ], [ 40.4016864, 64.7950742 ], [ 40.4016563, 64.7950956 ], [ 40.4016513, 64.7951212 ], [ 40.4016663, 64.7951468 ], [ 40.4017065, 64.7951661 ], [ 40.4017617, 64.795181 ], [ 40.4018269, 64.7951896 ], [ 40.401842, 64.7952152 ], [ 40.4018219, 64.7952409 ], [ 40.4017968, 64.7952644 ], [ 40.4017466, 64.7952772 ], [ 40.4016964, 64.7952879 ], [ 40.4016412, 64.7953028 ], [ 40.401581, 64.7953092 ], [ 40.4015208, 64.7953199 ], [ 40.4014556, 64.7953327 ], [ 40.4013903, 64.7953413 ], [ 40.4013402, 64.7953541 ], [ 40.40128, 64.7953648 ], [ 40.4012197, 64.7953798 ], [ 40.4011796, 64.7954033 ], [ 40.4011294, 64.7954182 ], [ 40.4010742, 64.7954289 ], [ 40.401009, 64.795446 ], [ 40.4009488, 64.795461 ], [ 40.4009086, 64.7954823 ], [ 40.4008685, 64.7955058 ], [ 40.4008283, 64.7955272 ], [ 40.4007982, 64.7955486 ], [ 40.4007882, 64.7955742 ], [ 40.4007731, 64.795602 ], [ 40.400738, 64.7956212 ], [ 40.4006929, 64.7956383 ], [ 40.4006628, 64.7956597 ], [ 40.4006226, 64.7957323 ], [ 40.4005975, 64.7957558 ], [ 40.4005624, 64.7957772 ], [ 40.4005223, 64.7957964 ], [ 40.4004708, 64.795813 ], [ 40.4004081, 64.7958167 ], [ 40.4003466, 64.7958189 ], [ 40.4003128, 64.795828 ], [ 40.4002852, 64.7958461 ], [ 40.4002011, 64.7958734 ], [ 40.4001509, 64.7958905 ], [ 40.4000957, 64.7959054 ], [ 40.3999954, 64.7959353 ], [ 40.3999402, 64.7959546 ], [ 40.3999051, 64.7959738 ], [ 40.39988, 64.7959952 ], [ 40.3998549, 64.7960187 ], [ 40.3998147, 64.7960379 ], [ 40.3997896, 64.7960614 ], [ 40.3997746, 64.7960892 ], [ 40.3997495, 64.7961127 ], [ 40.3997194, 64.7961341 ], [ 40.3997043, 64.7961576 ], [ 40.3997094, 64.7961853 ], [ 40.3997445, 64.7962067 ], [ 40.3997746, 64.7962281 ], [ 40.3998147, 64.7962473 ], [ 40.3998599, 64.7962644 ], [ 40.399895, 64.7962858 ], [ 40.3999201, 64.7963093 ], [ 40.3999402, 64.7963328 ], [ 40.3999402, 64.7963584 ], [ 40.3999201, 64.7963841 ], [ 40.3998682, 64.7963949 ], [ 40.3994659, 64.796408 ], [ 40.3993455, 64.7964209 ], [ 40.3992652, 64.7964636 ], [ 40.3991748, 64.7964978 ], [ 40.3990845, 64.796532 ], [ 40.3989741, 64.7965533 ], [ 40.3988637, 64.7965833 ], [ 40.3987433, 64.7965961 ], [ 40.3986229, 64.7966132 ], [ 40.3985024, 64.796626 ], [ 40.3983921, 64.7966388 ], [ 40.3982917, 64.7966602 ], [ 40.3981612, 64.7966645 ], [ 40.3977698, 64.7967499 ], [ 40.3976795, 64.7967884 ], [ 40.3976293, 64.7968311 ], [ 40.3975892, 64.7968781 ], [ 40.3974688, 64.7968867 ], [ 40.3973584, 64.7969081 ], [ 40.3972781, 64.7969465 ], [ 40.3971878, 64.796985 ], [ 40.3971275, 64.7970277 ], [ 40.3970372, 64.7970576 ], [ 40.3969268, 64.7970833 ], [ 40.3968164, 64.7971132 ], [ 40.3966559, 64.7971645 ], [ 40.3965555, 64.79722 ], [ 40.3964953, 64.7972627 ], [ 40.396425, 64.7973012 ], [ 40.3963448, 64.7973397 ], [ 40.396144, 64.7974251 ], [ 40.3960638, 64.7974679 ], [ 40.3960236, 64.7975149 ], [ 40.3960236, 64.7976217 ], [ 40.3960429, 64.7976805 ], [ 40.3960136, 64.7977841 ], [ 40.3959734, 64.7978397 ], [ 40.3959233, 64.7978824 ], [ 40.3957928, 64.7978952 ], [ 40.3956423, 64.797908 ], [ 40.3955218, 64.7979209 ], [ 40.3953512, 64.7979379 ], [ 40.3952408, 64.7979593 ], [ 40.3951204, 64.7979764 ], [ 40.3949799, 64.798002 ], [ 40.3948695, 64.7980191 ], [ 40.3947591, 64.798032 ], [ 40.3946201, 64.7980267 ], [ 40.3945785, 64.7980533 ], [ 40.394438, 64.798079 ], [ 40.3943276, 64.7981003 ], [ 40.3942071, 64.7981089 ], [ 40.3940767, 64.7981174 ], [ 40.3939462, 64.7981388 ], [ 40.3938459, 64.7981602 ], [ 40.3937154, 64.7981901 ], [ 40.3936251, 64.79822 ], [ 40.3935247, 64.7982499 ], [ 40.3934244, 64.7982841 ], [ 40.3933039, 64.7983055 ], [ 40.3932036, 64.7983268 ], [ 40.3931534, 64.7983738 ], [ 40.3931534, 64.7984294 ], [ 40.3931234, 64.7984792 ], [ 40.3931132, 64.7985405 ], [ 40.3930631, 64.7985832 ], [ 40.3929928, 64.7986259 ], [ 40.3929025, 64.798673 ], [ 40.3928423, 64.79872 ], [ 40.3927976, 64.7987733 ], [ 40.3927018, 64.7988054 ], [ 40.3926315, 64.7988482 ], [ 40.3925111, 64.798861 ], [ 40.3922903, 64.7989251 ], [ 40.3921598, 64.7989464 ], [ 40.3920595, 64.7989721 ], [ 40.3919792, 64.7990148 ], [ 40.3918788, 64.7990618 ], [ 40.3918186, 64.7991045 ], [ 40.3917785, 64.7991515 ], [ 40.3917885, 64.7992028 ], [ 40.3918862, 64.7992365 ], [ 40.391909, 64.7992755 ], [ 40.3920093, 64.7993139 ], [ 40.3920495, 64.7993603 ], [ 40.3920294, 64.7993994 ], [ 40.3918788, 64.7994336 ], [ 40.3917685, 64.7994592 ], [ 40.3916681, 64.7994806 ], [ 40.3915677, 64.7995105 ], [ 40.3914875, 64.7995447 ], [ 40.3913871, 64.7995831 ], [ 40.3912867, 64.799613 ], [ 40.3911864, 64.7996472 ], [ 40.3910961, 64.79969 ], [ 40.3910158, 64.799737 ], [ 40.3909455, 64.799784 ], [ 40.3908853, 64.7998267 ], [ 40.390805, 64.7998737 ], [ 40.3907348, 64.7999164 ], [ 40.3906444, 64.7999506 ], [ 40.3905943, 64.8000019 ], [ 40.3905441, 64.8000446 ], [ 40.3904538, 64.8000788 ], [ 40.3904437, 64.8001301 ], [ 40.3904738, 64.8002155 ], [ 40.3904036, 64.800254 ], [ 40.3903233, 64.8002925 ], [ 40.3902229, 64.8003309 ], [ 40.3901326, 64.8003651 ], [ 40.3900122, 64.8004506 ], [ 40.3899721, 64.8004976 ], [ 40.3900323, 64.8005916 ], [ 40.3899721, 64.8006343 ], [ 40.3899018, 64.8006727 ], [ 40.3898643, 64.8007205 ], [ 40.3897513, 64.8007497 ], [ 40.389681, 64.8007924 ], [ 40.3896208, 64.8008351 ], [ 40.3894, 64.8008821 ], [ 40.389129, 64.8008821 ], [ 40.3889785, 64.800912 ], [ 40.3889183, 64.8009548 ], [ 40.388838, 64.8009932 ], [ 40.3888079, 64.8010402 ], [ 40.3888516, 64.8010877 ], [ 40.3887678, 64.8011385 ], [ 40.3887504, 64.8011878 ], [ 40.3886875, 64.8012154 ], [ 40.3886273, 64.8013179 ], [ 40.3884667, 64.8013949 ], [ 40.3884694, 64.8014465 ], [ 40.3883663, 64.801506 ], [ 40.3882604, 64.8015327 ], [ 40.3882258, 64.8016 ], [ 40.3881255, 64.8016854 ], [ 40.3880252, 64.8017149 ], [ 40.387995, 64.801788 ], [ 40.3879649, 64.8018392 ], [ 40.3879649, 64.8018905 ], [ 40.3879448, 64.8019418 ], [ 40.3878445, 64.8019888 ], [ 40.387724, 64.8019973 ], [ 40.3876036, 64.8019973 ], [ 40.3874832, 64.8020016 ], [ 40.3873728, 64.802023 ], [ 40.3872724, 64.8020614 ], [ 40.3872053, 64.8021098 ], [ 40.3871219, 64.8021298 ], [ 40.3870416, 64.8021682 ], [ 40.3869513, 64.802211 ], [ 40.386871, 64.8022451 ], [ 40.3868008, 64.8022921 ], [ 40.3867004, 64.8023861 ], [ 40.3866, 64.8024118 ], [ 40.3864997, 64.8024459 ], [ 40.3864194, 64.8024844 ], [ 40.3863291, 64.8025186 ], [ 40.3862287, 64.8025528 ], [ 40.3861284, 64.8025827 ], [ 40.3860481, 64.8026211 ], [ 40.3859879, 64.8026639 ], [ 40.3859176, 64.8027066 ], [ 40.3858373, 64.8027408 ], [ 40.3857169, 64.8027408 ], [ 40.3855362, 64.802745 ], [ 40.3854259, 64.8027578 ], [ 40.3852854, 64.8027578 ], [ 40.3851649, 64.8027621 ], [ 40.3850646, 64.8027835 ], [ 40.3849742, 64.8028177 ], [ 40.384914, 64.8028604 ], [ 40.384873, 64.8029067 ], [ 40.3848337, 64.8029587 ], [ 40.3848639, 64.8030099 ], [ 40.3848639, 64.8030612 ], [ 40.3848137, 64.8031039 ], [ 40.3847133, 64.8031424 ], [ 40.384613, 64.8031766 ], [ 40.3844825, 64.8032022 ], [ 40.3843821, 64.8032278 ], [ 40.3842818, 64.8032663 ], [ 40.3842115, 64.803309 ], [ 40.3841212, 64.8033389 ], [ 40.3840108, 64.8033603 ], [ 40.3839606, 64.8034073 ], [ 40.3839506, 64.8035141 ], [ 40.3838402, 64.8035397 ], [ 40.3837599, 64.8035782 ], [ 40.3837097, 64.8036252 ], [ 40.3836094, 64.8036465 ], [ 40.383499, 64.8036722 ], [ 40.3833886, 64.8037021 ], [ 40.3832882, 64.8037234 ], [ 40.3831778, 64.8037491 ], [ 40.3830675, 64.803779 ], [ 40.3829571, 64.8038089 ], [ 40.382927, 64.8039114 ], [ 40.3828366, 64.8039456 ], [ 40.3826961, 64.8039413 ], [ 40.3826191, 64.8039803 ], [ 40.3824753, 64.8040652 ], [ 40.382385, 64.8040994 ], [ 40.3824003, 64.8041513 ], [ 40.382385, 64.8041849 ], [ 40.3823248, 64.8042361 ], [ 40.382104, 64.8043002 ], [ 40.3819952, 64.8043224 ], [ 40.3819936, 64.8043942 ], [ 40.3819789, 64.8044475 ], [ 40.3819936, 64.8044882 ], [ 40.3820438, 64.8045395 ], [ 40.3820438, 64.8045993 ], [ 40.3820475, 64.8046519 ], [ 40.3817728, 64.8046676 ], [ 40.3816624, 64.8046804 ], [ 40.381542, 64.8046975 ], [ 40.3814216, 64.8046847 ], [ 40.3813212, 64.8046548 ], [ 40.3811908, 64.8046377 ], [ 40.3810904, 64.8046634 ], [ 40.3810402, 64.8047061 ], [ 40.38097, 64.8047488 ], [ 40.3808897, 64.8047958 ], [ 40.3808094, 64.8048385 ], [ 40.3807191, 64.8048898 ], [ 40.3806689, 64.804941 ], [ 40.3806589, 64.8049966 ], [ 40.380699, 64.8050436 ], [ 40.3807592, 64.8050906 ], [ 40.3807994, 64.8051418 ], [ 40.3808295, 64.8051931 ], [ 40.3808295, 64.8052444 ], [ 40.3807592, 64.8052871 ], [ 40.380699, 64.8053298 ], [ 40.3806087, 64.805364 ], [ 40.3804682, 64.8053683 ], [ 40.3803277, 64.805364 ], [ 40.3801972, 64.805364 ], [ 40.3801169, 64.8053982 ], [ 40.3801571, 64.8055007 ], [ 40.3802173, 64.805552 ], [ 40.3802675, 64.805599 ], [ 40.3802173, 64.805646 ], [ 40.3801169, 64.8056801 ], [ 40.3800065, 64.80571 ], [ 40.3798962, 64.8057314 ], [ 40.3797958, 64.8057656 ], [ 40.3796854, 64.8057784 ], [ 40.3795549, 64.8057998 ], [ 40.3794345, 64.8058083 ], [ 40.3791736, 64.8058083 ], [ 40.3790431, 64.8058126 ], [ 40.3789126, 64.8058254 ], [ 40.3787822, 64.805851 ], [ 40.3786818, 64.8058895 ], [ 40.3786116, 64.8059279 ], [ 40.3785614, 64.8059749 ], [ 40.3785614, 64.8060347 ], [ 40.3784811, 64.8060732 ], [ 40.3783707, 64.8061116 ], [ 40.3783306, 64.8061586 ], [ 40.3783707, 64.8062099 ], [ 40.378441, 64.8062526 ], [ 40.3785213, 64.8062996 ], [ 40.378451, 64.806338 ], [ 40.3783506, 64.8063637 ], [ 40.3782704, 64.8063978 ], [ 40.3782904, 64.8064534 ], [ 40.3783506, 64.8065004 ], [ 40.3784008, 64.8065516 ], [ 40.3784119, 64.8066042 ], [ 40.3783406, 64.8066157 ], [ 40.3783205, 64.806667 ], [ 40.3783312, 64.8067241 ], [ 40.3784008, 64.8067481 ], [ 40.378451, 64.8068037 ], [ 40.3784911, 64.8068379 ], [ 40.3785413, 64.8068848 ], [ 40.3784309, 64.806919 ], [ 40.3783205, 64.8069404 ], [ 40.3782904, 64.8069874 ], [ 40.3783306, 64.8070344 ], [ 40.3783306, 64.8070856 ], [ 40.3782904, 64.8071326 ], [ 40.3782503, 64.8071796 ], [ 40.3781499, 64.8072181 ], [ 40.3780696, 64.8072608 ], [ 40.3779994, 64.8073035 ], [ 40.3779593, 64.807359 ], [ 40.3780596, 64.807453 ], [ 40.3780496, 64.8075043 ], [ 40.3779793, 64.8075427 ], [ 40.377899, 64.8075854 ], [ 40.3778589, 64.8076324 ], [ 40.3777886, 64.8076709 ], [ 40.3777084, 64.8077093 ], [ 40.3776281, 64.8077478 ], [ 40.3775679, 64.8077905 ], [ 40.3774976, 64.8078332 ], [ 40.3774374, 64.8078759 ], [ 40.3773571, 64.8079186 ], [ 40.3772869, 64.8079613 ], [ 40.3772367, 64.8080083 ], [ 40.3772367, 64.8080596 ], [ 40.3772266, 64.8081109 ], [ 40.3771965, 64.8081578 ], [ 40.3770059, 64.8082177 ], [ 40.3768854, 64.808239 ], [ 40.376765, 64.8082689 ], [ 40.3766847, 64.8083202 ], [ 40.3766345, 64.8083672 ], [ 40.3765844, 64.8084099 ], [ 40.3765542, 64.8084654 ], [ 40.3765141, 64.8085124 ], [ 40.376474, 64.8085594 ], [ 40.3764238, 64.8086064 ], [ 40.3764037, 64.8086619 ], [ 40.3763836, 64.8087174 ], [ 40.3763234, 64.80882 ], [ 40.3762833, 64.8088669 ], [ 40.376203, 64.8089097 ], [ 40.3761227, 64.8089481 ], [ 40.3760223, 64.8089737 ], [ 40.3759019, 64.8089481 ], [ 40.3757815, 64.8089609 ], [ 40.375651, 64.808978 ], [ 40.3755306, 64.8089609 ], [ 40.3754202, 64.8089823 ], [ 40.3753098, 64.8090122 ], [ 40.3752697, 64.8090592 ], [ 40.3751894, 64.8091617 ], [ 40.3751492, 64.8092087 ], [ 40.375079, 64.8092557 ], [ 40.3749385, 64.8092727 ], [ 40.374808, 64.8092856 ], [ 40.3746976, 64.8093112 ], [ 40.3745973, 64.8093325 ], [ 40.3744869, 64.8093667 ], [ 40.3743865, 64.8094223 ], [ 40.3743062, 64.8094564 ], [ 40.374236, 64.8094949 ], [ 40.3742059, 64.8095461 ], [ 40.3741657, 64.8095931 ], [ 40.3740754, 64.8096273 ], [ 40.3739751, 64.8096572 ], [ 40.3738948, 64.8096956 ], [ 40.3738546, 64.8097469 ], [ 40.3738546, 64.8098537 ], [ 40.3739048, 64.809922 ], [ 40.3739751, 64.809969 ], [ 40.3740553, 64.8100117 ], [ 40.3741356, 64.8100544 ], [ 40.3741858, 64.8101014 ], [ 40.374236, 64.8101569 ], [ 40.374236, 64.8102595 ], [ 40.3739851, 64.8102851 ], [ 40.3739851, 64.8102253 ], [ 40.373955, 64.8101655 ], [ 40.3738747, 64.8101142 ], [ 40.3737944, 64.810063 ], [ 40.3737141, 64.810016 ], [ 40.3736037, 64.8099775 ], [ 40.3734933, 64.8099434 ], [ 40.373393, 64.8099135 ], [ 40.3732638, 64.8098967 ], [ 40.3731923, 64.8098665 ], [ 40.3730618, 64.8098708 ], [ 40.3729313, 64.8098878 ], [ 40.3728009, 64.8098921 ], [ 40.3727005, 64.8099177 ], [ 40.3725901, 64.8099434 ], [ 40.3724797, 64.8099647 ], [ 40.3723493, 64.8099946 ], [ 40.3722389, 64.8100203 ], [ 40.3721285, 64.8100373 ], [ 40.372008, 64.8100587 ], [ 40.3718977, 64.8100801 ], [ 40.3717672, 64.8100971 ], [ 40.3716568, 64.8101313 ], [ 40.3715464, 64.8101569 ], [ 40.3714159, 64.8101868 ], [ 40.3713156, 64.8102253 ], [ 40.3712152, 64.8102552 ], [ 40.3711149, 64.8102851 ], [ 40.3709944, 64.8103235 ], [ 40.3708941, 64.8103705 ], [ 40.3708138, 64.8104047 ], [ 40.3707134, 64.8104517 ], [ 40.3705529, 64.8105243 ], [ 40.3704726, 64.810567 ], [ 40.3703923, 64.8106054 ], [ 40.370322, 64.8106567 ], [ 40.3702518, 64.8106994 ], [ 40.3702016, 64.8107464 ], [ 40.3701916, 64.8107976 ], [ 40.3701916, 64.8110027 ], [ 40.3702418, 64.8110497 ], [ 40.3702819, 64.8111009 ], [ 40.370302, 64.8111522 ], [ 40.370322, 64.8112034 ], [ 40.3703622, 64.8112547 ], [ 40.3704224, 64.8112974 ], [ 40.3705228, 64.8113358 ], [ 40.3706131, 64.8113743 ], [ 40.3706833, 64.811417 ], [ 40.3706658, 64.8114853 ], [ 40.370021, 64.811622 ], [ 40.3699608, 64.8115707 ], [ 40.3699106, 64.8115152 ], [ 40.3698102, 64.8114853 ], [ 40.3696998, 64.811464 ], [ 40.3695794, 64.8114383 ], [ 40.3694489, 64.8113956 ], [ 40.3691278, 64.8113956 ], [ 40.3689973, 64.8114042 ], [ 40.3688568, 64.8114084 ], [ 40.3687364, 64.811417 ], [ 40.368616, 64.8114383 ], [ 40.3685056, 64.811464 ], [ 40.3684152, 64.8114939 ], [ 40.3683149, 64.8115195 ], [ 40.3681851, 64.8115329 ], [ 40.3681342, 64.8115622 ], [ 40.3680339, 64.8116006 ], [ 40.3679837, 64.8116476 ], [ 40.3679034, 64.8116946 ], [ 40.3678131, 64.8117416 ], [ 40.3677328, 64.81178 ], [ 40.3676224, 64.8118057 ], [ 40.367512, 64.811827 ], [ 40.3673816, 64.8118356 ], [ 40.3671307, 64.8118356 ], [ 40.3670303, 64.8118655 ], [ 40.3669601, 64.8119124 ], [ 40.3668798, 64.8119551 ], [ 40.3667995, 64.8119893 ], [ 40.3666791, 64.8120363 ], [ 40.3666088, 64.812079 ], [ 40.3666088, 64.8121303 ], [ 40.3666289, 64.8121815 ], [ 40.3665486, 64.8122157 ], [ 40.3664282, 64.8122456 ], [ 40.3662977, 64.8122541 ], [ 40.3661773, 64.8122669 ], [ 40.3660669, 64.8122968 ], [ 40.3659966, 64.8123395 ], [ 40.3659264, 64.812378 ], [ 40.3658361, 64.8124292 ], [ 40.3657357, 64.8124634 ], [ 40.3656168, 64.8124777 ], [ 40.3655952, 64.8125018 ], [ 40.3654948, 64.812536 ], [ 40.3654045, 64.8125659 ], [ 40.3653142, 64.8126129 ], [ 40.3652239, 64.8126471 ], [ 40.3651034, 64.8126513 ], [ 40.3649629, 64.8126684 ], [ 40.3648325, 64.8126898 ], [ 40.364702, 64.8127111 ], [ 40.3645816, 64.8127453 ], [ 40.3644712, 64.8127752 ], [ 40.3644009, 64.8128179 ], [ 40.3643909, 64.8128734 ], [ 40.364411, 64.8129247 ], [ 40.364411, 64.8129759 ], [ 40.3642604, 64.8130912 ], [ 40.3641902, 64.8131297 ], [ 40.3640798, 64.813151 ], [ 40.3639694, 64.8131809 ], [ 40.363859, 64.8132066 ], [ 40.3637386, 64.8132194 ], [ 40.3635379, 64.8132621 ], [ 40.3634576, 64.8133091 ], [ 40.363399, 64.8133611 ], [ 40.363297, 64.8134158 ], [ 40.3632268, 64.8134585 ], [ 40.3631164, 64.8134842 ], [ 40.363006, 64.813497 ], [ 40.3628855, 64.8135098 ], [ 40.3627751, 64.8135311 ], [ 40.3626949, 64.8135739 ], [ 40.3625954, 64.8136085 ], [ 40.3625042, 64.8136678 ], [ 40.3623938, 64.8136977 ], [ 40.3622031, 64.813766 ], [ 40.3620726, 64.8138515 ], [ 40.3619723, 64.8138771 ], [ 40.3618719, 64.8139198 ], [ 40.3617716, 64.8139582 ], [ 40.3616411, 64.8139796 ], [ 40.3615508, 64.8140095 ], [ 40.3614717, 64.8140478 ], [ 40.3614404, 64.8140778 ], [ 40.3614003, 64.8141291 ], [ 40.3613501, 64.8141718 ], [ 40.3612698, 64.8142102 ], [ 40.361049, 64.8142615 ], [ 40.3609386, 64.8142828 ], [ 40.3608315, 64.8143175 ], [ 40.3606877, 64.8143469 ], [ 40.3606224, 64.8143898 ], [ 40.3605673, 64.8143768 ], [ 40.3604569, 64.8143981 ], [ 40.3603264, 64.8144109 ], [ 40.360206, 64.8144195 ], [ 40.3600856, 64.8144237 ], [ 40.3599551, 64.814428 ], [ 40.3598748, 64.8144622 ], [ 40.3598046, 64.8145092 ], [ 40.3597142, 64.8145433 ], [ 40.3596139, 64.8145689 ], [ 40.3595035, 64.8145946 ], [ 40.359363, 64.8146586 ], [ 40.3592626, 64.8146843 ], [ 40.3591422, 64.8147013 ], [ 40.3590318, 64.8147227 ], [ 40.3589114, 64.814744 ], [ 40.358801, 64.8147739 ], [ 40.3587107, 64.8148124 ], [ 40.3586404, 64.8148551 ], [ 40.3585702, 64.8148935 ], [ 40.35852, 64.8149362 ], [ 40.3584999, 64.814996 ], [ 40.3584698, 64.8150473 ], [ 40.3584096, 64.81509 ], [ 40.3583393, 64.8151327 ], [ 40.358249, 64.8151711 ], [ 40.3581487, 64.8151967 ], [ 40.3580383, 64.8152095 ], [ 40.3579078, 64.8152181 ], [ 40.3577974, 64.815248 ], [ 40.3577372, 64.8152907 ], [ 40.3577472, 64.8153419 ], [ 40.3577472, 64.8153932 ], [ 40.3577272, 64.8154487 ], [ 40.3576469, 64.8154914 ], [ 40.3575666, 64.8155298 ], [ 40.3574662, 64.8155597 ], [ 40.3573458, 64.8155811 ], [ 40.3572254, 64.8155982 ], [ 40.357115, 64.815611 ], [ 40.3570046, 64.8156238 ], [ 40.3568842, 64.8156366 ], [ 40.3567537, 64.8156537 ], [ 40.3566232, 64.8156451 ], [ 40.3565429, 64.8155939 ], [ 40.3564478, 64.8155546 ], [ 40.3563523, 64.8155597 ], [ 40.3562318, 64.8155512 ], [ 40.3561214, 64.8155811 ], [ 40.3560612, 64.8156281 ], [ 40.3559809, 64.8156665 ], [ 40.3558806, 64.8156964 ], [ 40.3557401, 64.8157263 ], [ 40.3556498, 64.8157604 ], [ 40.3555394, 64.8157903 ], [ 40.355429, 64.815816 ], [ 40.3553186, 64.8158459 ], [ 40.3552182, 64.8158758 ], [ 40.3551151, 64.8158965 ], [ 40.3550376, 64.8159227 ], [ 40.3549372, 64.8159526 ], [ 40.3548569, 64.8159911 ], [ 40.3547465, 64.8160252 ], [ 40.3546361, 64.816038 ], [ 40.3545157, 64.8160466 ], [ 40.3543953, 64.8160551 ], [ 40.3542648, 64.8160594 ], [ 40.3541444, 64.8160722 ], [ 40.3539638, 64.8161405 ], [ 40.3538734, 64.8161704 ], [ 40.3537831, 64.8162046 ], [ 40.3537129, 64.816243 ], [ 40.3536025, 64.8162686 ], [ 40.3534921, 64.8163028 ], [ 40.3534118, 64.816337 ], [ 40.3533315, 64.8163797 ], [ 40.3532311, 64.8164395 ], [ 40.3531609, 64.8164779 ], [ 40.3530204, 64.8165932 ], [ 40.3530204, 64.8166444 ], [ 40.3530405, 64.8166957 ], [ 40.3530505, 64.8167469 ], [ 40.3530304, 64.8167982 ], [ 40.3529702, 64.8168409 ], [ 40.3530204, 64.8168878 ], [ 40.3531308, 64.8169135 ], [ 40.3532512, 64.8169348 ], [ 40.3533215, 64.8169818 ], [ 40.3532613, 64.8170245 ], [ 40.3530605, 64.8170672 ], [ 40.3529602, 64.8170885 ], [ 40.3528799, 64.817127 ], [ 40.3528799, 64.8171782 ], [ 40.3528197, 64.8172209 ], [ 40.3527294, 64.8172551 ], [ 40.3526089, 64.8172722 ], [ 40.3524985, 64.8172892 ], [ 40.3523982, 64.8173234 ], [ 40.3522276, 64.817396 ], [ 40.3521172, 64.8174259 ], [ 40.3520369, 64.8174686 ], [ 40.3520068, 64.8175327 ], [ 40.352077, 64.8175754 ], [ 40.3521975, 64.8176095 ], [ 40.3522878, 64.817648 ], [ 40.3522677, 64.8176992 ], [ 40.3522075, 64.8177419 ], [ 40.3521573, 64.8177889 ], [ 40.3521674, 64.8178401 ], [ 40.3522075, 64.8178871 ], [ 40.3522175, 64.8179383 ], [ 40.3522175, 64.8179896 ], [ 40.3521975, 64.8180408 ], [ 40.3521372, 64.8180835 ], [ 40.3520469, 64.8181177 ], [ 40.3520269, 64.8181689 ], [ 40.3520269, 64.8183269 ], [ 40.3519967, 64.8183781 ], [ 40.3519064, 64.8184721 ], [ 40.3518462, 64.8185148 ], [ 40.3517889, 64.8185991 ], [ 40.3516886, 64.8186333 ], [ 40.3515983, 64.8186717 ], [ 40.351528, 64.8187144 ], [ 40.3514578, 64.8187614 ], [ 40.3514778, 64.8188126 ], [ 40.3515581, 64.8188553 ], [ 40.3516284, 64.818898 ], [ 40.3516886, 64.818945 ], [ 40.3516484, 64.818992 ], [ 40.3515882, 64.8190347 ], [ 40.3515079, 64.8190731 ], [ 40.3513875, 64.8190731 ], [ 40.351257, 64.8190646 ], [ 40.3508556, 64.8190646 ], [ 40.3505947, 64.8190816 ], [ 40.3504742, 64.8190987 ], [ 40.3503639, 64.8191286 ], [ 40.3502936, 64.8191713 ], [ 40.3502635, 64.8192225 ], [ 40.3502033, 64.8192652 ], [ 40.3500829, 64.8193677 ], [ 40.3500427, 64.8194147 ], [ 40.3500427, 64.8194659 ], [ 40.3500026, 64.8195172 ], [ 40.3499122, 64.8195556 ], [ 40.3498119, 64.8195812 ], [ 40.3498219, 64.8196325 ], [ 40.3498219, 64.8197349 ], [ 40.3498096, 64.8197817 ], [ 40.3498171, 64.8198309 ], [ 40.2751731, 64.852085 ], [ 40.2746323, 64.8523477 ], [ 40.2738754, 64.8528198 ], [ 40.2728465, 64.8535919 ], [ 40.2714451, 64.85475 ], [ 40.2700873, 64.8557617 ], [ 40.2684438, 64.8568904 ], [ 40.2678644, 64.8572369 ], [ 40.266821, 64.8575773 ], [ 40.265377, 64.8577216 ], [ 40.263933, 64.857854 ], [ 40.2626164, 64.8581607 ], [ 40.2614131, 64.8583712 ], [ 40.2587837, 64.859139 ], [ 40.2586501, 64.8591774 ], [ 40.2577267, 64.859443 ], [ 40.2567185, 64.8599058 ], [ 40.2557671, 64.8604896 ], [ 40.2551817, 64.8609318 ], [ 40.2543676, 64.8614485 ], [ 40.2536595, 64.8619316 ], [ 40.2529864, 64.862493 ], [ 40.2523765, 64.8630283 ], [ 40.2516285, 64.8635361 ], [ 40.2498954, 64.8645349 ], [ 40.2479535, 64.8659421 ], [ 40.2446082, 64.8691099 ], [ 40.2434645, 64.8723056 ], [ 40.2421921, 64.876298 ], [ 40.2383837, 64.8912156 ], [ 40.2366861, 64.8937168 ], [ 40.2342975, 64.8972358 ], [ 40.2307721, 64.8984042 ], [ 40.2308781, 64.8993152 ], [ 40.2341004, 64.9000487 ], [ 40.2331911, 64.903363 ], [ 40.2314659, 64.9063717 ], [ 40.2307413, 64.9065165 ], [ 40.2313937, 64.9050878 ], [ 40.2301934, 64.9050492 ], [ 40.2319074, 64.9022052 ], [ 40.2319141, 64.9010609 ], [ 40.2306177, 64.9009621 ], [ 40.2310548, 64.9002073 ], [ 40.2290367, 64.8997894 ], [ 40.2280622, 64.899999 ], [ 40.2282223, 64.8991294 ], [ 40.2276312, 64.8985567 ], [ 40.2261672, 64.8989298 ], [ 40.2237374, 64.8994051 ], [ 40.223417, 64.8987666 ], [ 40.224863, 64.8977019 ], [ 40.2253511, 64.8973554 ], [ 40.2283164, 64.8952498 ], [ 40.2295162, 64.8948413 ], [ 40.230852, 64.8945622 ], [ 40.2296523, 64.8945237 ], [ 40.2305462, 64.8941042 ], [ 40.2317864, 64.8935439 ], [ 40.232663, 64.8928116 ], [ 40.2318144, 64.8925427 ], [ 40.2256899, 64.8964469 ], [ 40.2215703, 64.8990836 ], [ 40.2205532, 64.8998699 ], [ 40.2204302, 64.9008246 ], [ 40.2201356, 64.9031108 ], [ 40.2197638, 64.9059958 ], [ 40.218908, 64.9057119 ], [ 40.2176986, 64.9023411 ], [ 40.2199269, 64.898312 ], [ 40.2187308, 64.8985914 ], [ 40.2176345, 64.8988475 ], [ 40.2145786, 64.9009661 ], [ 40.2139152, 64.9035511 ], [ 40.2140934, 64.9048351 ], [ 40.2139721, 64.9068022 ], [ 40.2176115, 64.9148907 ], [ 40.2167498, 64.9197264 ], [ 40.21605, 64.9226692 ], [ 40.2157979, 64.9236827 ], [ 40.2175858, 64.9273612 ], [ 40.2184416, 64.9299714 ], [ 40.2163345, 64.9362745 ], [ 40.216143, 64.938276 ], [ 40.2152026, 64.943506 ], [ 40.2126493, 64.9491078 ], [ 40.2096328, 64.9517364 ], [ 40.205674, 64.9560613 ], [ 40.2013743, 64.96027 ], [ 40.1996402, 64.9626083 ], [ 40.1989301, 64.9652849 ], [ 40.198889, 64.9660621 ], [ 40.1976024, 64.9683797 ], [ 40.1962236, 64.9710786 ], [ 40.1843353, 64.9718594 ], [ 40.1824587, 64.9727422 ], [ 40.1809649, 64.9739645 ], [ 40.1796453, 64.975376 ], [ 40.1774934, 64.9781913 ], [ 40.1778504, 64.9834196 ], [ 40.1767668, 64.987887 ], [ 40.1782342, 64.9945961 ], [ 40.1797241, 64.9953022 ], [ 40.1807851, 64.9952259 ], [ 40.1815752, 64.9956934 ], [ 40.1808754, 64.996056 ], [ 40.1788437, 64.9963328 ], [ 40.1787691, 64.9968329 ], [ 40.1773763, 64.9989566 ], [ 40.1769023, 64.9999584 ], [ 40.176904116770189, 65.0 ], [ 45.0, 65.0 ], [ 45.0, 60.0 ], [ 40.0, 60.0 ], [ 40.0, 64.755668132369806 ], [ 40.0058742, 64.7612392 ] ] ] ] } },
{ "type": "Feature", "properties": { "FID": 587761, "id": 1590, "left": 40.0, "top": 65.0, "right": 45.0, "bottom": 60.0, "row_index": 5, "col_index": 44, "min_lon": 40.0, "min_lat": 60.0, "tile_id": "40_60" }, "geometry": { "type": "MultiPolygon", "coordinates": [ [ [ [ 40.2592277, 64.8371886 ], [ 40.2673816, 64.8339039 ], [ 40.2720164, 64.8306188 ], [ 40.2696132, 64.8285015 ], [ 40.2612018, 64.8249602 ], [ 40.255022, 64.8227329 ], [ 40.2498721, 64.8220391 ], [ 40.2525329, 64.8262381 ], [ 40.254507, 64.8303268 ], [ 40.2563094, 64.8344514 ], [ 40.2562236, 64.8374806 ], [ 40.2592277, 64.8371886 ] ] ] ] } },
{ "type": "Feature", "properties": { "FID": 689949, "id": 1590, "left": 40.0, "top": 65.0, "right": 45.0, "bottom": 60.0, "row_index": 5, "col_index": 44, "min_lon": 40.0, "min_lat": 60.0, "tile_id": "40_60" }, "geometry": { "type": "MultiPolygon", "coordinates": [ [ [ [ 40.3656203, 64.7688518 ], [ 40.366976, 64.7684052 ], [ 40.3672964, 64.7681846 ], [ 40.3675675, 64.7672442 ], [ 40.3681838, 64.7663142 ], [ 40.3686767, 64.7658098 ], [ 40.3694285, 64.7654683 ], [ 40.3694531, 64.7649482 ], [ 40.369675, 64.7644963 ], [ 40.3692929, 64.7645436 ], [ 40.3685658, 64.7656522 ], [ 40.3680605, 64.7658519 ], [ 40.3671855, 64.7666084 ], [ 40.3668158, 64.7675016 ], [ 40.367013, 64.7681005 ], [ 40.3667418, 64.7683264 ], [ 40.3661503, 64.7684998 ], [ 40.3658791, 64.7686626 ], [ 40.3654231, 64.7687047 ], [ 40.3654601, 64.7690987 ], [ 40.3653245, 64.7692458 ], [ 40.3657189, 64.7691197 ], [ 40.3656203, 64.7688518 ] ] ] ] } }
]
}
