{
"type": "FeatureCollection",
"name": "45_-80",
"crs": { "type": "name", "properties": { "name": "urn:ogc:def:crs:OGC:1.3:CRS84" } },
"xy_coordinate_resolution": 1e-15,
"features": [
{ "type": "Feature", "properties": { "FID": 307096, "id": 1654, "left": 45.0, "top": -75.0, "right": 50.0, "bottom": -80.0, "row_index": 33, "col_index": 45, "min_lon": 45.0, "min_lat": -80.0, "tile_id": "45_-80" }, "geometry": { "type": "MultiPolygon", "coordinates": [ [ [ [ 50.0, -75.0 ], [ 50.0, -80.0 ], [ 45.0, -80.0 ], [ 45.0, -75.0 ], [ 50.0, -75.0 ] ] ] ] } }
]
}
