{
"type": "FeatureCollection",
"name": "45_75",
"crs": { "type": "name", "properties": { "name": "urn:ogc:def:crs:OGC:1.3:CRS84" } },
"xy_coordinate_resolution": 1e-15,
"features": [
{ "type": "Feature", "properties": { "FID": 302703, "id": 1623, "left": 45.0, "top": 80.0, "right": 50.0, "bottom": 75.0, "row_index": 2, "col_index": 45, "min_lon": 45.0, "min_lat": 75.0, "tile_id": "45_75" }, "geometry": { "type": "MultiPolygon", "coordinates": [ [ [ [ 49.2958963, 79.9999278 ], [ 49.2968913, 79.9998514 ], [ 49.2977569, 79.9998082 ], [ 49.298602, 79.9997916 ], [ 49.2993244, 79.9997993 ], [ 49.301008, 79.9999105 ], [ 49.3023882, 79.9999424 ], [ 49.3037377, 79.9999465 ], [ 49.3050633, 79.9999139 ], [ 49.3063071, 79.9998523 ], [ 49.308338, 79.9997817 ], [ 49.3100282, 79.9997485 ], [ 49.3121102, 79.9996791 ], [ 49.3136639, 79.9995523 ], [ 49.3145801, 79.9993747 ], [ 49.3149408, 79.9991752 ], [ 49.3146745, 79.9989793 ], [ 49.3138835, 79.9987894 ], [ 49.3124316, 79.9986474 ], [ 49.3095657, 79.998518 ], [ 49.308724, 79.9984624 ], [ 49.3078516, 79.998379 ], [ 49.3070507, 79.9982701 ], [ 49.3054897, 79.9979991 ], [ 49.3047808, 79.9978382 ], [ 49.3026232, 79.9971919 ], [ 49.3011578, 79.9967966 ], [ 49.2996585, 79.9964456 ], [ 49.2979787, 79.9961266 ], [ 49.2959857, 79.9958094 ], [ 49.2935397, 79.9954727 ], [ 49.2904637, 79.9950762 ], [ 49.2842785, 79.9943274 ], [ 49.2796469, 79.9937229 ], [ 49.2755711, 79.9931404 ], [ 49.2738517, 79.9928746 ], [ 49.2724695, 79.9926436 ], [ 49.268776, 79.9919705 ], [ 49.2656341, 79.9915269 ], [ 49.2620497, 79.9911183 ], [ 49.2580672, 79.9907545 ], [ 49.2537885, 79.990438 ], [ 49.249258, 79.9901788 ], [ 49.2445776, 79.9899794 ], [ 49.2397474, 79.9898396 ], [ 49.2363195, 79.9897686 ], [ 49.2333306, 79.989735 ], [ 49.2305185, 79.9897416 ], [ 49.2277301, 79.9897849 ], [ 49.2246824, 79.9898944 ], [ 49.221134, 79.9900464 ], [ 49.2043729, 79.9909464 ], [ 49.1974581, 79.9912813 ], [ 49.1943311, 79.9914249 ], [ 49.1915958, 79.9915324 ], [ 49.1850184, 79.9917666 ], [ 49.1820028, 79.9919669 ], [ 49.1787579, 79.9922612 ], [ 49.1752905, 79.9926406 ], [ 49.1717095, 79.9930987 ], [ 49.1681308, 79.99362 ], [ 49.1645103, 79.9941946 ], [ 49.1602912, 79.9949358 ], [ 49.159319, 79.9950485 ], [ 49.1582584, 79.995141 ], [ 49.1570516, 79.995221 ], [ 49.1556473, 79.9952873 ], [ 49.1541037, 79.9953323 ], [ 49.1523627, 79.9953635 ], [ 49.1504823, 79.9953734 ], [ 49.1466332, 79.995373 ], [ 49.1434828, 79.9953438 ], [ 49.140994, 79.9952669 ], [ 49.1391017, 79.995159 ], [ 49.1377178, 79.9949997 ], [ 49.1368932, 79.9947904 ], [ 49.1365259, 79.9945286 ], [ 49.1366616, 79.99389 ], [ 49.136285, 79.9935738 ], [ 49.1355672, 79.9932947 ], [ 49.1345153, 79.9930438 ], [ 49.1332245, 79.9928325 ], [ 49.131725, 79.9926886 ], [ 49.1301257, 79.9926056 ], [ 49.1284129, 79.9926012 ], [ 49.1270808, 79.992642 ], [ 49.1261362, 79.9927191 ], [ 49.1255422, 79.9928135 ], [ 49.1252847, 79.992943 ], [ 49.1254217, 79.9930999 ], [ 49.1258513, 79.9932818 ], [ 49.1267265, 79.9934923 ], [ 49.1295613, 79.9940566 ], [ 49.1299236, 79.9941917 ], [ 49.1299795, 79.9943196 ], [ 49.1297151, 79.994458 ], [ 49.1280976, 79.9948626 ], [ 49.1258625, 79.995325 ], [ 49.1240961, 79.9956538 ], [ 49.1232627, 79.9957877 ], [ 49.1217468, 79.9959959 ], [ 49.1211223, 79.9960625 ], [ 49.1201403, 79.9961206 ], [ 49.1195018, 79.9962049 ], [ 49.1193835, 79.9963558 ], [ 49.1195042, 79.9964671 ], [ 49.1204238, 79.9968866 ], [ 49.1206956, 79.9971371 ], [ 49.1207212, 79.9972372 ], [ 49.1205935, 79.9973336 ], [ 49.1203706, 79.9974187 ], [ 49.1192631, 79.9976366 ], [ 49.1184272, 79.997906 ], [ 49.1180255, 79.9980864 ], [ 49.1172685, 79.9985204 ], [ 49.116681, 79.9990037 ], [ 49.1163884, 79.9993764 ], [ 49.1162467, 79.9996894 ], [ 49.1163001, 79.9999529 ], [ 49.11636792077811, 80.0 ], [ 49.295073530537636, 80.0 ], [ 49.2958963, 79.9999278 ] ] ] ] } }
]
}
