{
"type": "FeatureCollection",
"name": "50_30",
"crs": { "type": "name", "properties": { "name": "urn:ogc:def:crs:OGC:1.3:CRS84" } },
"xy_coordinate_resolution": 1e-15,
"features": [
{ "type": "Feature", "properties": { "FID": 123912, "id": 1668, "left": 50.0, "top": 35.0, "right": 55.0, "bottom": 30.0, "row_index": 11, "col_index": 46, "min_lon": 50.0, "min_lat": 30.0, "tile_id": "50_30" }, "geometry": { "type": "MultiPolygon", "coordinates": [ [ [ [ 50.1462449, 30.006282 ], [ 50.146298, 30.0170432 ], [ 50.1597762, 30.0199364 ], [ 50.15998, 30.0205217 ], [ 50.15998, 30.0229648 ], [ 50.1600873, 30.0240238 ], [ 50.1603019, 30.0248784 ], [ 50.1603341, 30.0254357 ], [ 50.1600444, 30.0275164 ], [ 50.1598942, 30.0287519 ], [ 50.1597011, 30.0294857 ], [ 50.1592183, 30.0304795 ], [ 50.1589286, 30.0314734 ], [ 50.1588964, 30.0320307 ], [ 50.159111, 30.0327645 ], [ 50.1592398, 30.0334704 ], [ 50.1593578, 30.0342971 ], [ 50.1593041, 30.0346407 ], [ 50.1590574, 30.0351516 ], [ 50.1587838, 30.0353838 ], [ 50.1586389, 30.0356299 ], [ 50.1585692, 30.0360432 ], [ 50.1585129, 30.036236 ], [ 50.1585263, 30.0362731 ], [ 50.1588348, 30.036438 ], [ 50.1590252, 30.0365007 ], [ 50.1590762, 30.0365332 ], [ 50.1591191, 30.0366516 ], [ 50.1592398, 30.0371021 ], [ 50.1592559, 30.0374086 ], [ 50.159272, 30.0376199 ], [ 50.1593229, 30.0377453 ], [ 50.1596743, 30.0380146 ], [ 50.1606828, 30.0384906 ], [ 50.1614284, 30.0388529 ], [ 50.1618147, 30.0390618 ], [ 50.1619863, 30.039099 ], [ 50.1622009, 30.039099 ], [ 50.1625282, 30.0390061 ], [ 50.162673, 30.0389434 ], [ 50.1627347, 30.0389411 ], [ 50.1628071, 30.0389782 ], [ 50.1628795, 30.0390409 ], [ 50.1629654, 30.0390874 ], [ 50.1630539, 30.0390758 ], [ 50.1632577, 30.0389759 ], [ 50.1638102, 30.0385556 ], [ 50.1641804, 30.0381818 ], [ 50.164293, 30.0381098 ], [ 50.1644137, 30.0380866 ], [ 50.1646364, 30.038082 ], [ 50.1650467, 30.0381121 ], [ 50.1652291, 30.0380959 ], [ 50.1653632, 30.0381168 ], [ 50.165661, 30.0381934 ], [ 50.1657736, 30.03827 ], [ 50.1658595, 30.0384303 ], [ 50.1659077, 30.0384906 ], [ 50.1659936, 30.0385185 ], [ 50.1665112, 30.038544 ], [ 50.1665937, 30.0385562 ], [ 50.1666024, 30.0385725 ], [ 50.1666011, 30.0385916 ], [ 50.1665877, 30.038609 ], [ 50.1665642, 30.0386172 ], [ 50.1663436, 30.0386148 ], [ 50.166243, 30.0386032 ], [ 50.1662014, 30.0386079 ], [ 50.16619, 30.0386177 ], [ 50.1661867, 30.0386323 ], [ 50.166235, 30.0386973 ], [ 50.166235, 30.0387135 ], [ 50.1662216, 30.0387391 ], [ 50.1661914, 30.0387832 ], [ 50.1661894, 30.0388087 ], [ 50.1662115, 30.0388726 ], [ 50.1662132, 30.0388888 ], [ 50.1662081, 30.0388961 ], [ 50.1662021, 30.0388993 ], [ 50.1661941, 30.0388981 ], [ 50.1661414, 30.0388807 ], [ 50.1661216, 30.0388801 ], [ 50.1661049, 30.0388848 ], [ 50.1660935, 30.0389109 ], [ 50.1660781, 30.0389556 ], [ 50.1660712, 30.0389624 ], [ 50.1660675, 30.038963 ], [ 50.1660613, 30.0389611 ], [ 50.1660566, 30.0389566 ], [ 50.1660499, 30.0388018 ], [ 50.1660465, 30.0387623 ], [ 50.1660311, 30.038724 ], [ 50.1659815, 30.0386862 ], [ 50.165846, 30.0386357 ], [ 50.1656596, 30.0385754 ], [ 50.1654759, 30.0385452 ], [ 50.1653552, 30.0384999 ], [ 50.1651192, 30.0383722 ], [ 50.1649918, 30.0383455 ], [ 50.164682, 30.0383885 ], [ 50.1645666, 30.0384123 ], [ 50.1645472, 30.0384262 ], [ 50.1645412, 30.0384413 ], [ 50.1645479, 30.0384564 ], [ 50.16458, 30.0384668 ], [ 50.1646773, 30.0384581 ], [ 50.1647584, 30.0384657 ], [ 50.1647933, 30.0384958 ], [ 50.1647966, 30.038515 ], [ 50.1647986, 30.0386067 ], [ 50.1647302, 30.0387217 ], [ 50.1644875, 30.0389806 ], [ 50.164277, 30.039236 ], [ 50.1637191, 30.0396516 ], [ 50.1631987, 30.0399093 ], [ 50.1628527, 30.0400904 ], [ 50.1626649, 30.0402599 ], [ 50.1623538, 30.0406082 ], [ 50.1623243, 30.0406825 ], [ 50.1623297, 30.0407417 ], [ 50.1624303, 30.040852 ], [ 50.1628286, 30.0411887 ], [ 50.1632899, 30.041537 ], [ 50.1635313, 30.0418086 ], [ 50.1636761, 30.0419874 ], [ 50.1638505, 30.0420896 ], [ 50.1640141, 30.0421593 ], [ 50.1641428, 30.0421685 ], [ 50.1644003, 30.0420826 ], [ 50.1648536, 30.0418458 ], [ 50.1651621, 30.0417599 ], [ 50.1655886, 30.0417111 ], [ 50.1659614, 30.0417274 ], [ 50.166184, 30.041746 ], [ 50.1663744, 30.0417878 ], [ 50.1667178, 30.0419085 ], [ 50.1668385, 30.042006 ], [ 50.1669109, 30.0420455 ], [ 50.1671469, 30.0420664 ], [ 50.1672783, 30.0421012 ], [ 50.1674607, 30.04215 ], [ 50.1676995, 30.0421546 ], [ 50.1679274, 30.0421267 ], [ 50.168142, 30.04215 ], [ 50.168303, 30.0422452 ], [ 50.1685443, 30.0424007 ], [ 50.168649, 30.0425911 ], [ 50.1686677, 30.0427722 ], [ 50.1685926, 30.0430764 ], [ 50.1684692, 30.0433132 ], [ 50.1683807, 30.0434026 ], [ 50.1683499, 30.0434525 ], [ 50.1683485, 30.0435036 ], [ 50.1683982, 30.043557 ], [ 50.168425, 30.0436301 ], [ 50.168433, 30.0436928 ], [ 50.1683941, 30.043925 ], [ 50.1683941, 30.0439691 ], [ 50.168193, 30.0440341 ], [ 50.1681688, 30.0439906 ], [ 50.16814, 30.0439784 ], [ 50.1680897, 30.0439598 ], [ 50.1680582, 30.0439465 ], [ 50.1680488, 30.0439302 ], [ 50.1680448, 30.0438919 ], [ 50.168028, 30.0438617 ], [ 50.1680032, 30.0438432 ], [ 50.1679596, 30.0438211 ], [ 50.1679341, 30.0437938 ], [ 50.1679221, 30.0437352 ], [ 50.1679093, 30.0436801 ], [ 50.1678959, 30.0436632 ], [ 50.1678929, 30.0436478 ], [ 50.1678956, 30.043638 ], [ 50.1679114, 30.0436226 ], [ 50.1679167, 30.0435976 ], [ 50.167908, 30.0435605 ], [ 50.1678892, 30.0435483 ], [ 50.1678617, 30.0435454 ], [ 50.1677813, 30.0435854 ], [ 50.1676901, 30.0436975 ], [ 50.1676552, 30.0437404 ], [ 50.167619, 30.043752 ], [ 50.1675586, 30.0437416 ], [ 50.1669592, 30.0435872 ], [ 50.166876, 30.0435268 ], [ 50.166868, 30.0434781 ], [ 50.1669109, 30.0434247 ], [ 50.1671523, 30.0433527 ], [ 50.1673722, 30.0432691 ], [ 50.1674151, 30.0431646 ], [ 50.1673722, 30.0429673 ], [ 50.1671711, 30.0427838 ], [ 50.1670718, 30.0426259 ], [ 50.1670423, 30.0424611 ], [ 50.167053, 30.042338 ], [ 50.1670517, 30.0422579 ], [ 50.167039, 30.0422344 ], [ 50.1670088, 30.0422173 ], [ 50.166927, 30.0422045 ], [ 50.1667111, 30.042179 ], [ 50.1665193, 30.0421024 ], [ 50.166184, 30.041999 ], [ 50.1659238, 30.0419967 ], [ 50.1653793, 30.0420594 ], [ 50.1651031, 30.0421546 ], [ 50.1647678, 30.0423891 ], [ 50.1646578, 30.042475 ], [ 50.1646498, 30.0425133 ], [ 50.1646525, 30.0425505 ], [ 50.1646753, 30.0425679 ], [ 50.1649381, 30.0427153 ], [ 50.164973, 30.0428059 ], [ 50.1649623, 30.0428912 ], [ 50.1649341, 30.042911 ], [ 50.1648986, 30.0429185 ], [ 50.1648288, 30.0429017 ], [ 50.1647665, 30.0428517 ], [ 50.164743, 30.0428123 ], [ 50.1647182, 30.0427803 ], [ 50.1646833, 30.0427693 ], [ 50.1646163, 30.0427931 ], [ 50.1645894, 30.0428268 ], [ 50.1645224, 30.0429464 ], [ 50.1644996, 30.0429707 ], [ 50.1644687, 30.0429777 ], [ 50.164226, 30.0429498 ], [ 50.1636627, 30.0428233 ], [ 50.1633114, 30.0427304 ], [ 50.1628178, 30.0426027 ], [ 50.1622599, 30.0424518 ], [ 50.1622009, 30.0424216 ], [ 50.1621714, 30.0423891 ], [ 50.1621406, 30.0423543 ], [ 50.1621084, 30.042345 ], [ 50.1620641, 30.0423508 ], [ 50.161981, 30.0423798 ], [ 50.1619166, 30.0423868 ], [ 50.1618201, 30.0423694 ], [ 50.1614754, 30.0422539 ], [ 50.1614566, 30.0422277 ], [ 50.1614432, 30.0421778 ], [ 50.1614526, 30.0420896 ], [ 50.1614606, 30.042013 ], [ 50.1614378, 30.0419189 ], [ 50.1614231, 30.0418795 ], [ 50.1613279, 30.0417924 ], [ 50.1610167, 30.0416299 ], [ 50.1608571, 30.041537 ], [ 50.1605473, 30.0414406 ], [ 50.1602429, 30.041393 ], [ 50.1601517, 30.0413826 ], [ 50.1601101, 30.0413617 ], [ 50.1599747, 30.0412758 ], [ 50.1598258, 30.0412166 ], [ 50.1597252, 30.0411817 ], [ 50.15963, 30.0411655 ], [ 50.1595938, 30.0411498 ], [ 50.159565, 30.0411214 ], [ 50.1595388, 30.0410598 ], [ 50.1595053, 30.040859 ], [ 50.1595013, 30.0407545 ], [ 50.1594704, 30.0406431 ], [ 50.1594195, 30.0405502 ], [ 50.1593893, 30.0405264 ], [ 50.1593638, 30.0405217 ], [ 50.1593176, 30.0405322 ], [ 50.1592378, 30.040567 ], [ 50.159227, 30.0405885 ], [ 50.1592337, 30.0406338 ], [ 50.1592954, 30.0407133 ], [ 50.159343, 30.0407406 ], [ 50.1593786, 30.0407708 ], [ 50.1594041, 30.0408195 ], [ 50.159398, 30.0409182 ], [ 50.1593712, 30.0409821 ], [ 50.1593631, 30.0410297 ], [ 50.1593605, 30.0411156 ], [ 50.1593256, 30.0412166 ], [ 50.1592787, 30.0412804 ], [ 50.159044, 30.0413965 ], [ 50.1587945, 30.0415347 ], [ 50.1586416, 30.0416763 ], [ 50.1584941, 30.0418156 ], [ 50.1583037, 30.0420362 ], [ 50.1581266, 30.0421685 ], [ 50.1577136, 30.0424309 ], [ 50.1574346, 30.0425516 ], [ 50.156815, 30.0426933 ], [ 50.1566246, 30.0427676 ], [ 50.1562089, 30.0430555 ], [ 50.1557663, 30.0434363 ], [ 50.1555088, 30.0437637 ], [ 50.1553626, 30.0440434 ], [ 50.1552741, 30.0442002 ], [ 50.1552191, 30.0443151 ], [ 50.1551467, 30.0443824 ], [ 50.1550435, 30.0444312 ], [ 50.1549295, 30.0444881 ], [ 50.1548275, 30.0445624 ], [ 50.1547511, 30.0446529 ], [ 50.1547363, 30.0447063 ], [ 50.1547202, 30.0447667 ], [ 50.154621, 30.0449536 ], [ 50.1544748, 30.0452264 ], [ 50.154393, 30.0453738 ], [ 50.1543729, 30.0454481 ], [ 50.1543541, 30.0454911 ], [ 50.1541905, 30.0456803 ], [ 50.1540712, 30.0458312 ], [ 50.1540175, 30.0459601 ], [ 50.1539719, 30.0461029 ], [ 50.1539129, 30.0461969 ], [ 50.1536876, 30.0464941 ], [ 50.1534945, 30.0467332 ], [ 50.1533577, 30.0468377 ], [ 50.1531833, 30.0469793 ], [ 50.1530707, 30.0471117 ], [ 50.1528561, 30.0472835 ], [ 50.1526818, 30.0473833 ], [ 50.1523626, 30.04759 ], [ 50.152199, 30.0477873 ], [ 50.1521292, 30.04798 ], [ 50.1521138, 30.0481013 ], [ 50.1521152, 30.0481367 ], [ 50.1521091, 30.0481704 ], [ 50.1520796, 30.0481907 ], [ 50.1520521, 30.0481948 ], [ 50.1520119, 30.0481814 ], [ 50.1519348, 30.0481251 ], [ 50.1518758, 30.0481031 ], [ 50.15181, 30.0480996 ], [ 50.1517631, 30.0480996 ], [ 50.1517121, 30.0480845 ], [ 50.1515955, 30.0480079 ], [ 50.1511985, 30.0478361 ], [ 50.1510912, 30.0478012 ], [ 50.1501605, 30.0475226 ], [ 50.1498118, 30.0473787 ], [ 50.1495007, 30.0472719 ], [ 50.1492968, 30.0472231 ], [ 50.1491895, 30.0472231 ], [ 50.149101, 30.047244 ], [ 50.1489776, 30.047323 ], [ 50.1489052, 30.0473531 ], [ 50.148818, 30.0473659 ], [ 50.1487054, 30.0473427 ], [ 50.1486209, 30.0473055 ], [ 50.1485954, 30.0472684 ], [ 50.148586, 30.0472405 ], [ 50.1485699, 30.047215 ], [ 50.1484962, 30.0471767 ], [ 50.1484197, 30.04715 ], [ 50.1483044, 30.0471512 ], [ 50.1482172, 30.0471546 ], [ 50.1481408, 30.047143 ], [ 50.1480791, 30.0471198 ], [ 50.148012, 30.0471163 ], [ 50.1478042, 30.047121 ], [ 50.1476566, 30.0471094 ], [ 50.1474917, 30.0470722 ], [ 50.1473549, 30.047013 ], [ 50.1472932, 30.046984 ], [ 50.1472369, 30.0469701 ], [ 50.1472034, 30.0469741 ], [ 50.1471712, 30.0469863 ], [ 50.1471524, 30.0470385 ], [ 50.1469472, 30.0476735 ], [ 50.1469392, 30.0476846 ], [ 50.1469271, 30.0476915 ], [ 50.1469036, 30.047691 ], [ 50.1468781, 30.0476846 ], [ 50.1468433, 30.0476927 ], [ 50.1468252, 30.0477159 ], [ 50.1467809, 30.0478396 ], [ 50.1466937, 30.0479266 ], [ 50.1466495, 30.048005 ], [ 50.1466375, 30.0480307 ], [ 50.1466193, 30.0480636 ], [ 50.1466213, 30.04816 ], [ 50.1466683, 30.0482528 ], [ 50.1467367, 30.0483161 ], [ 50.1467413, 30.0483289 ], [ 50.1467393, 30.0483492 ], [ 50.1466508, 30.0486278 ], [ 50.1464751, 30.0491815 ], [ 50.1464872, 30.0491954 ], [ 50.1465455, 30.0492239 ], [ 50.1466086, 30.0492355 ], [ 50.1466401, 30.0492378 ], [ 50.1466522, 30.0492401 ], [ 50.1466575, 30.0492455 ], [ 50.1466597, 30.0492551 ], [ 50.1466143, 30.0493774 ], [ 50.1466014, 30.0493988 ], [ 50.1466201, 30.0494164 ], [ 50.1467869, 30.0495344 ], [ 50.1468011, 30.0495205 ], [ 50.1468882, 30.0495646 ], [ 50.1494577, 30.0507237 ], [ 50.1494631, 30.0507521 ], [ 50.1494551, 30.0508554 ], [ 50.1493156, 30.0512304 ], [ 50.1491225, 30.0517133 ], [ 50.1490474, 30.0519478 ], [ 50.148991, 30.0521707 ], [ 50.1489079, 30.0525189 ], [ 50.1487926, 30.0527395 ], [ 50.1477854, 30.0544598 ], [ 50.1477713, 30.0544801 ], [ 50.1477599, 30.0544911 ], [ 50.1427048, 30.0544637 ], [ 50.1432659, 30.057505 ], [ 50.143231, 30.057609 ], [ 50.1431914, 30.0576699 ], [ 50.1431668, 30.0577147 ], [ 50.1431733, 30.057768 ], [ 50.1431836, 30.0578315 ], [ 50.1439297, 30.0577529 ], [ 50.1442891, 30.0577018 ], [ 50.1444165, 30.0576554 ], [ 50.1446418, 30.0575091 ], [ 50.1452641, 30.0569822 ], [ 50.1453486, 30.0569322 ], [ 50.145468, 30.0568812 ], [ 50.1456034, 30.0567999 ], [ 50.1460513, 30.0564215 ], [ 50.1461855, 30.0563193 ], [ 50.1463518, 30.0561534 ], [ 50.1466723, 30.0558469 ], [ 50.1467675, 30.0557947 ], [ 50.1468506, 30.0557866 ], [ 50.1469834, 30.0558016 ], [ 50.1470733, 30.0558283 ], [ 50.1471115, 30.0558446 ], [ 50.1471403, 30.0558469 ], [ 50.1471561, 30.055842 ], [ 50.1471608, 30.0558321 ], [ 50.1471551, 30.0558121 ], [ 50.1470907, 30.0557654 ], [ 50.1469204, 30.0557001 ], [ 50.1468922, 30.0556769 ], [ 50.1468895, 30.0556594 ], [ 50.1469003, 30.0556356 ], [ 50.1470679, 30.0554871 ], [ 50.1473415, 30.0552433 ], [ 50.1475212, 30.0550738 ], [ 50.1475963, 30.055021 ], [ 50.1476292, 30.0550077 ], [ 50.1476908, 30.0550059 ], [ 50.1477921, 30.0550123 ], [ 50.1478558, 30.0550111 ], [ 50.147894, 30.0550135 ], [ 50.1479322, 30.0550257 ], [ 50.1480952, 30.0551156 ], [ 50.1481596, 30.0551394 ], [ 50.1481807, 30.0551368 ], [ 50.1481958, 30.0551261 ], [ 50.1481981, 30.0551098 ], [ 50.1481907, 30.0550936 ], [ 50.1481337, 30.0550703 ], [ 50.1479872, 30.0550117 ], [ 50.1479607, 30.0549961 ], [ 50.147945, 30.0549801 ], [ 50.1479353, 30.0549717 ], [ 50.1479135, 30.0549673 ], [ 50.1478712, 30.0549682 ], [ 50.1478062, 30.0549897 ], [ 50.1477163, 30.054985 ], [ 50.1476761, 30.0549659 ], [ 50.1476164, 30.054909 ], [ 50.1475933, 30.0548733 ], [ 50.1475924, 30.0548658 ], [ 50.1475981, 30.0548608 ], [ 50.1476114, 30.0548553 ], [ 50.1476271, 30.0548539 ], [ 50.1476406, 30.0548608 ], [ 50.1476476, 30.0548724 ], [ 50.1476506, 30.0548878 ], [ 50.1476583, 30.0548965 ], [ 50.1476865, 30.0549073 ], [ 50.1478866, 30.0549171 ], [ 50.1480892, 30.0549171 ], [ 50.1482615, 30.0549287 ], [ 50.1485096, 30.0549589 ], [ 50.1485552, 30.0549926 ], [ 50.1485659, 30.0550413 ], [ 50.1485512, 30.0551063 ], [ 50.1485069, 30.0551783 ], [ 50.1484868, 30.0551847 ], [ 50.1483674, 30.0551591 ], [ 50.1483594, 30.055162 ], [ 50.1483359, 30.0551911 ], [ 50.1482937, 30.0553048 ], [ 50.1482749, 30.0553269 ], [ 50.148185, 30.0553629 ], [ 50.1480013, 30.0554546 ], [ 50.1478417, 30.0555846 ], [ 50.1477452, 30.0557157 ], [ 50.1476741, 30.0558713 ], [ 50.1475359, 30.0563727 ], [ 50.1474059, 30.0569183 ], [ 50.1472986, 30.0573582 ], [ 50.14731, 30.0573907 ], [ 50.1473267, 30.0574018 ], [ 50.1473495, 30.0574018 ], [ 50.1473723, 30.0573907 ], [ 50.1473851, 30.0573576 ], [ 50.1474085, 30.0572422 ], [ 50.1475373, 30.0567012 ], [ 50.1476888, 30.0561034 ], [ 50.147768, 30.0558562 ], [ 50.1478431, 30.055725 ], [ 50.1479503, 30.0555881 ], [ 50.1481207, 30.0554847 ], [ 50.1481817, 30.0554691 ], [ 50.1482762, 30.0554731 ], [ 50.1483399, 30.0554795 ], [ 50.1483802, 30.0554743 ], [ 50.1484452, 30.0554354 ], [ 50.1485036, 30.0553785 ], [ 50.1485465, 30.0553646 ], [ 50.148582, 30.0553605 ], [ 50.1487, 30.0553547 ], [ 50.1487235, 30.0553455 ], [ 50.1487362, 30.0553275 ], [ 50.1487362, 30.0553025 ], [ 50.1487208, 30.0552822 ], [ 50.1486564, 30.0552706 ], [ 50.1486095, 30.0552694 ], [ 50.1485974, 30.0552627 ], [ 50.1485914, 30.0552506 ], [ 50.1486001, 30.0552183 ], [ 50.1486377, 30.055133 ], [ 50.1486927, 30.0550605 ], [ 50.1487792, 30.0550251 ], [ 50.148873, 30.055032 ], [ 50.1490434, 30.0550541 ], [ 50.1491775, 30.0550831 ], [ 50.149207, 30.0550808 ], [ 50.1492271, 30.0550651 ], [ 50.1492338, 30.0550262 ], [ 50.1492298, 30.0550001 ], [ 50.1492096, 30.0549804 ], [ 50.1491728, 30.054967 ], [ 50.1490702, 30.0549601 ], [ 50.1487081, 30.0548904 ], [ 50.1486786, 30.0548719 ], [ 50.1486504, 30.0548068 ], [ 50.1486544, 30.0546966 ], [ 50.1486638, 30.0545619 ], [ 50.1486799, 30.0544203 ], [ 50.1486719, 30.0543124 ], [ 50.1486759, 30.0542137 ], [ 50.148704, 30.0538399 ], [ 50.1487094, 30.0536762 ], [ 50.1487, 30.0535509 ], [ 50.1486906, 30.053458 ], [ 50.1486933, 30.0533942 ], [ 50.1487228, 30.0533338 ], [ 50.1487765, 30.0532734 ], [ 50.1487952, 30.0532398 ], [ 50.1488207, 30.0530355 ], [ 50.1488569, 30.0529205 ], [ 50.1491654, 30.0524214 ], [ 50.1492284, 30.0523018 ], [ 50.1493357, 30.0521707 ], [ 50.1494631, 30.0519826 ], [ 50.1495959, 30.0517748 ], [ 50.149667, 30.0516947 ], [ 50.1497287, 30.0516483 ], [ 50.1498587, 30.051617 ], [ 50.1499835, 30.0516135 ], [ 50.1500961, 30.0515995 ], [ 50.1501819, 30.0515775 ], [ 50.1503375, 30.0515009 ], [ 50.1506674, 30.0513372 ], [ 50.1507244, 30.0513262 ], [ 50.1508109, 30.0513384 ], [ 50.1510563, 30.0514446 ], [ 50.1510818, 30.0514588 ], [ 50.1510848, 30.0514666 ], [ 50.1510815, 30.0514817 ], [ 50.1510741, 30.0514955 ], [ 50.1506621, 30.0526048 ], [ 50.1505199, 30.0530691 ], [ 50.1503348, 30.0536902 ], [ 50.1502973, 30.0537424 ], [ 50.1502557, 30.0537703 ], [ 50.1502369, 30.0538155 ], [ 50.1502296, 30.0538875 ], [ 50.150253, 30.0539537 ], [ 50.1502557, 30.0540152 ], [ 50.150072, 30.0546594 ], [ 50.1500519, 30.0547105 ], [ 50.150017, 30.0547511 ], [ 50.1499231, 30.0548057 ], [ 50.1498802, 30.0548208 ], [ 50.1498507, 30.054837 ], [ 50.1498266, 30.0548672 ], [ 50.1498198, 30.054909 ], [ 50.1498064, 30.0549415 ], [ 50.1497689, 30.0549659 ], [ 50.1497072, 30.0549752 ], [ 50.1495168, 30.0549752 ], [ 50.1494779, 30.0549728 ], [ 50.1494403, 30.0549775 ], [ 50.1493464, 30.0550204 ], [ 50.1493223, 30.0550471 ], [ 50.1493263, 30.0550808 ], [ 50.1493733, 30.0551261 ], [ 50.149498, 30.0552062 ], [ 50.1495597, 30.055277 ], [ 50.1495758, 30.0553292 ], [ 50.149553, 30.0554105 ], [ 50.1495007, 30.0555114 ], [ 50.1494846, 30.0555648 ], [ 50.1494725, 30.0555915 ], [ 50.1494591, 30.0555973 ], [ 50.149439, 30.0555973 ], [ 50.1494021, 30.0555764 ], [ 50.1492512, 30.0554615 ], [ 50.1491265, 30.0553965 ], [ 50.1490058, 30.0553431 ], [ 50.1489515, 30.0553356 ], [ 50.148928, 30.0553443 ], [ 50.1489146, 30.0553652 ], [ 50.1489166, 30.0553797 ], [ 50.1489347, 30.0553965 ], [ 50.1491265, 30.0554859 ], [ 50.1492217, 30.0555614 ], [ 50.1492861, 30.0556356 ], [ 50.1494122, 30.0558214 ], [ 50.149494, 30.0559444 ], [ 50.1495369, 30.0560477 ], [ 50.1495503, 30.0561882 ], [ 50.1495382, 30.0563089 ], [ 50.1494122, 30.0568301 ], [ 50.1492754, 30.0574615 ], [ 50.1490688, 30.0582915 ], [ 50.1490454, 30.0583489 ], [ 50.1490232, 30.0583658 ], [ 50.1489904, 30.0583762 ], [ 50.1489354, 30.0583774 ], [ 50.1487657, 30.0583478 ], [ 50.1487148, 30.0583513 ], [ 50.1486973, 30.05836 ], [ 50.1486819, 30.0583826 ], [ 50.1486813, 30.0584023 ], [ 50.1487034, 30.0584203 ], [ 50.1488878, 30.0584691 ], [ 50.1489481, 30.0585085 ], [ 50.1489803, 30.0585654 ], [ 50.1489957, 30.0586739 ], [ 50.1489917, 30.0587059 ], [ 50.1489763, 30.0587291 ], [ 50.1489186, 30.0587604 ], [ 50.1488489, 30.0587784 ], [ 50.1488844, 30.0588701 ], [ 50.1488954, 30.0589037 ], [ 50.1489785, 30.0590904 ], [ 50.1499727, 30.059625 ], [ 50.1503011, 30.0597907 ], [ 50.1503898, 30.0598196 ], [ 50.1504475, 30.0598399 ], [ 50.1504663, 30.0598544 ], [ 50.1504917, 30.0598875 ], [ 50.1505816, 30.0600303 ], [ 50.1506406, 30.0600883 ], [ 50.1507492, 30.0601591 ], [ 50.1510684, 30.0603471 ], [ 50.1515177, 30.0605909 ], [ 50.1517001, 30.0606837 ], [ 50.1519133, 30.0607592 ], [ 50.1542187, 30.0613941 ], [ 50.1551816, 30.0616727 ], [ 50.1559688, 30.0619176 ], [ 50.1561794, 30.0619919 ], [ 50.1564396, 30.0621093 ], [ 50.1565944, 30.0621815 ], [ 50.1567292, 30.0622484 ], [ 50.1568365, 30.0623227 ], [ 50.1569612, 30.062448 ], [ 50.1569881, 30.0625896 ], [ 50.1569787, 30.0628554 ], [ 50.1569465, 30.0629367 ], [ 50.1568741, 30.0630156 ], [ 50.156811, 30.0630736 ], [ 50.1567882, 30.0631108 ], [ 50.1567627, 30.0631665 ], [ 50.1567064, 30.0632083 ], [ 50.1565924, 30.0632814 ], [ 50.1563296, 30.0634137 ], [ 50.1561633, 30.0634114 ], [ 50.1548678, 30.0630586 ], [ 50.1540685, 30.0628473 ], [ 50.15306, 30.0625246 ], [ 50.1521091, 30.0622066 ], [ 50.1518838, 30.0621486 ], [ 50.1518087, 30.0621277 ], [ 50.1517859, 30.0621091 ], [ 50.1517584, 30.0620638 ], [ 50.151741, 30.0620505 ], [ 50.1517175, 30.0620482 ], [ 50.1516987, 30.0620569 ], [ 50.151682, 30.0620865 ], [ 50.1516847, 30.0621399 ], [ 50.1516934, 30.0621573 ], [ 50.1517142, 30.0621689 ], [ 50.151796, 30.0621962 ], [ 50.151851, 30.0622199 ], [ 50.1518912, 30.0622414 ], [ 50.1519153, 30.0622728 ], [ 50.1519301, 30.0623703 ], [ 50.1519281, 30.0625153 ], [ 50.15192, 30.0626128 ], [ 50.15191, 30.0626378 ], [ 50.1518831, 30.0626587 ], [ 50.1518221, 30.0626749 ], [ 50.1518087, 30.0626854 ], [ 50.1518094, 30.0626987 ], [ 50.1518282, 30.0627109 ], [ 50.1518711, 30.0627295 ], [ 50.1519066, 30.06278 ], [ 50.151914, 30.0628781 ], [ 50.1518959, 30.0630678 ], [ 50.1518798, 30.0632466 ], [ 50.1518543, 30.0632953 ], [ 50.1518241, 30.0633098 ], [ 50.1517933, 30.0633075 ], [ 50.151751, 30.0632913 ], [ 50.1517235, 30.0632576 ], [ 50.1517269, 30.0631723 ], [ 50.1517303, 30.0627899 ], [ 50.1517296, 30.0627388 ], [ 50.1517189, 30.062715 ], [ 50.1516907, 30.062704 ], [ 50.1516223, 30.0627063 ], [ 50.1515371, 30.0627225 ], [ 50.151456, 30.0627614 ], [ 50.1513916, 30.0627922 ], [ 50.15134, 30.0628032 ], [ 50.1512548, 30.0627904 ], [ 50.1511998, 30.0627603 ], [ 50.1510832, 30.0626651 ], [ 50.151051, 30.0626419 ], [ 50.1510369, 30.0626082 ], [ 50.1510403, 30.0625142 ], [ 50.1510242, 30.0623262 ], [ 50.1510242, 30.0622617 ], [ 50.1510429, 30.0622002 ], [ 50.1510805, 30.0621642 ], [ 50.1511469, 30.0621596 ], [ 50.1512059, 30.0621729 ], [ 50.1512357, 30.0621811 ], [ 50.1512602, 30.0621811 ], [ 50.1512746, 30.0621677 ], [ 50.151287, 30.0621068 ], [ 50.1513018, 30.0620458 ], [ 50.1513152, 30.0620052 ], [ 50.1513145, 30.0619739 ], [ 50.1512937, 30.0619431 ], [ 50.1512488, 30.0619106 ], [ 50.15122, 30.0619008 ], [ 50.1511777, 30.0618996 ], [ 50.1511288, 30.0619205 ], [ 50.1511019, 30.0619582 ], [ 50.1510979, 30.0619948 ], [ 50.1510805, 30.0620377 ], [ 50.1510443, 30.0620952 ], [ 50.1509973, 30.0621329 ], [ 50.1509504, 30.0621381 ], [ 50.1509169, 30.0621288 ], [ 50.1508485, 30.0620662 ], [ 50.1508203, 30.0619977 ], [ 50.1508317, 30.0619483 ], [ 50.1508605, 30.0619025 ], [ 50.1508713, 30.0618659 ], [ 50.1508699, 30.0618346 ], [ 50.1508518, 30.0618154 ], [ 50.1507915, 30.0617951 ], [ 50.1505836, 30.0617174 ], [ 50.1503214, 30.0616448 ], [ 50.149911, 30.0615276 ], [ 50.1493196, 30.0613628 ], [ 50.1491846, 30.0613125 ], [ 50.1484546, 30.0610784 ], [ 50.1482427, 30.0609948 ], [ 50.1481166, 30.0609298 ], [ 50.1479825, 30.0608254 ], [ 50.1476499, 30.0604864 ], [ 50.146392, 30.0591818 ], [ 50.1462257, 30.059003 ], [ 50.1461224, 30.0588846 ], [ 50.1460688, 30.058844 ], [ 50.1460125, 30.0588347 ], [ 50.14594, 30.0588521 ], [ 50.145881, 30.0588893 ], [ 50.145826, 30.0589171 ], [ 50.1457751, 30.0589276 ], [ 50.1457416, 30.0589212 ], [ 50.1457127, 30.0589102 ], [ 50.1456664, 30.0588707 ], [ 50.1456095, 30.0588219 ], [ 50.1455545, 30.0587987 ], [ 50.1454961, 30.0587929 ], [ 50.145409, 30.0587987 ], [ 50.1453513, 30.0588173 ], [ 50.1452856, 30.05888 ], [ 50.1452239, 30.058945 ], [ 50.1451837, 30.059003 ], [ 50.1451273, 30.0590831 ], [ 50.1450643, 30.059126 ], [ 50.1449959, 30.0591481 ], [ 50.1449195, 30.0591574 ], [ 50.1442167, 30.0592073 ], [ 50.1439532, 30.0592265 ], [ 50.1435918, 30.0592398 ], [ 50.1436024, 30.0593605 ], [ 50.1436079, 30.0594534 ], [ 50.1436105, 30.0595741 ], [ 50.1435944, 30.0597552 ], [ 50.1433369, 30.06239 ], [ 50.1432136, 30.0636273 ], [ 50.1431411, 30.0644166 ], [ 50.1431116, 30.0647067 ], [ 50.1431076, 30.0647671 ], [ 50.143117, 30.0648031 ], [ 50.1431479, 30.0648181 ], [ 50.1432028, 30.0648298 ], [ 50.1433249, 30.0648356 ], [ 50.1446512, 30.0648855 ], [ 50.149565, 30.0651338 ], [ 50.1498118, 30.0651872 ], [ 50.1500559, 30.065243 ], [ 50.1501498, 30.0652592 ], [ 50.1502249, 30.0652592 ], [ 50.1503161, 30.065229 ], [ 50.1504046, 30.0652012 ], [ 50.1505145, 30.0651919 ], [ 50.1507103, 30.0651919 ], [ 50.1510027, 30.0652383 ], [ 50.1512119, 30.0652453 ], [ 50.1513997, 30.0652383 ], [ 50.1515231, 30.0652615 ], [ 50.1516384, 30.0653207 ], [ 50.1517028, 30.0653567 ], [ 50.1517886, 30.0653892 ], [ 50.1518865, 30.065395 ], [ 50.1519468, 30.0653915 ], [ 50.1519871, 30.0653776 ], [ 50.1520434, 30.0653381 ], [ 50.152089, 30.0653265 ], [ 50.1521735, 30.0653196 ], [ 50.1522144, 30.0653219 ], [ 50.1522741, 30.0653335 ], [ 50.1523264, 30.0653492 ], [ 50.1523659, 30.0653602 ], [ 50.1524095, 30.0653729 ], [ 50.1524243, 30.0653799 ], [ 50.152435, 30.0653915 ], [ 50.152437, 30.065402 ], [ 50.1524283, 30.0654101 ], [ 50.1524028, 30.0654136 ], [ 50.1523659, 30.0654136 ], [ 50.1523465, 30.065417 ], [ 50.1523425, 30.0654263 ], [ 50.1523458, 30.0654374 ], [ 50.1523586, 30.0654565 ], [ 50.1523827, 30.065482 ], [ 50.1523907, 30.0655122 ], [ 50.1523773, 30.0655308 ], [ 50.1523492, 30.0655366 ], [ 50.152266, 30.065532 ], [ 50.1521426, 30.0655203 ], [ 50.1520434, 30.0655111 ], [ 50.1519777, 30.0655169 ], [ 50.1519643, 30.0655354 ], [ 50.1519683, 30.0655552 ], [ 50.1520166, 30.06559 ], [ 50.1521011, 30.065619 ], [ 50.1521789, 30.0656353 ], [ 50.1522566, 30.0656422 ], [ 50.1523478, 30.065648 ], [ 50.1523988, 30.0656585 ], [ 50.1524162, 30.0656759 ], [ 50.1524135, 30.0656979 ], [ 50.1523948, 30.0657119 ], [ 50.1523451, 30.06572 ], [ 50.1521426, 30.0657351 ], [ 50.1519817, 30.0657676 ], [ 50.15192, 30.0658024 ], [ 50.1518986, 30.0658395 ], [ 50.1518959, 30.0659022 ], [ 50.1518959, 30.0659463 ], [ 50.1518878, 30.0659776 ], [ 50.1518664, 30.0659951 ], [ 50.1518208, 30.0660009 ], [ 50.1517698, 30.0659974 ], [ 50.1517135, 30.0659718 ], [ 50.1516089, 30.0658581 ], [ 50.1514855, 30.065691 ], [ 50.1513997, 30.0656097 ], [ 50.1513246, 30.0655795 ], [ 50.1512253, 30.0655772 ], [ 50.1511234, 30.0656028 ], [ 50.1509973, 30.0656678 ], [ 50.1509249, 30.0657003 ], [ 50.1508498, 30.0657049 ], [ 50.1507264, 30.0656585 ], [ 50.150654, 30.0656074 ], [ 50.1505896, 30.065547 ], [ 50.1505092, 30.0654426 ], [ 50.1504555, 30.0654101 ], [ 50.1503885, 30.0654054 ], [ 50.1502865, 30.065431 ], [ 50.1500666, 30.0654913 ], [ 50.1498574, 30.0655842 ], [ 50.149675, 30.0656028 ], [ 50.1494551, 30.0655888 ], [ 50.1489615, 30.0655517 ], [ 50.148747, 30.0655888 ], [ 50.1482373, 30.0657095 ], [ 50.1478565, 30.065821 ], [ 50.1474917, 30.0659649 ], [ 50.1472771, 30.0662388 ], [ 50.1470894, 30.0666984 ], [ 50.1470518, 30.0669584 ], [ 50.1469552, 30.0671812 ], [ 50.1468587, 30.0672787 ], [ 50.1467353, 30.0673159 ], [ 50.1465529, 30.0673762 ], [ 50.1464134, 30.067483 ], [ 50.1462954, 30.0676548 ], [ 50.146215, 30.0678405 ], [ 50.1461828, 30.0679194 ], [ 50.146172, 30.0680401 ], [ 50.1461774, 30.0681423 ], [ 50.1461559, 30.068249 ], [ 50.146113, 30.0683465 ], [ 50.1460004, 30.0685462 ], [ 50.1458663, 30.0688038 ], [ 50.1457214, 30.0690708 ], [ 50.1456383, 30.0691984 ], [ 50.1455578, 30.0692843 ], [ 50.1454264, 30.0693632 ], [ 50.1452413, 30.0694445 ], [ 50.1450509, 30.0695327 ], [ 50.1448792, 30.0696302 ], [ 50.1447424, 30.0697718 ], [ 50.1446593, 30.0699157 ], [ 50.1446217, 30.0700364 ], [ 50.1446056, 30.070229 ], [ 50.1445949, 30.0703822 ], [ 50.1446325, 30.0704751 ], [ 50.1447022, 30.0705146 ], [ 50.1448417, 30.0705494 ], [ 50.1449731, 30.0705749 ], [ 50.1451313, 30.0706422 ], [ 50.1452655, 30.070742 ], [ 50.1453352, 30.0708395 ], [ 50.1453191, 30.0709788 ], [ 50.1452333, 30.0711923 ], [ 50.1450857, 30.0714036 ], [ 50.1450455, 30.0714686 ], [ 50.1450348, 30.0715127 ], [ 50.1450509, 30.0715428 ], [ 50.1451179, 30.0715568 ], [ 50.1453406, 30.0715452 ], [ 50.14548, 30.071522 ], [ 50.1455364, 30.0714755 ], [ 50.1456866, 30.0713595 ], [ 50.1458019, 30.0713061 ], [ 50.1459146, 30.0712875 ], [ 50.1460057, 30.071313 ], [ 50.1460648, 30.0714013 ], [ 50.1461023, 30.071587 ], [ 50.1460808, 30.0718191 ], [ 50.1460808, 30.0720187 ], [ 50.1461399, 30.072209 ], [ 50.1462096, 30.0723715 ], [ 50.1462471, 30.0724829 ], [ 50.1462364, 30.0726129 ], [ 50.1461506, 30.072794 ], [ 50.1459253, 30.073105 ], [ 50.145582, 30.0736296 ], [ 50.1452279, 30.074117 ], [ 50.1449543, 30.0745719 ], [ 50.1448417, 30.0748969 ], [ 50.1447988, 30.0751754 ], [ 50.1448068, 30.0752613 ], [ 50.1448417, 30.0753193 ], [ 50.144898, 30.0753727 ], [ 50.144949, 30.0754191 ], [ 50.1449811, 30.0754702 ], [ 50.1449785, 30.0755584 ], [ 50.1449597, 30.0757162 ], [ 50.144957, 30.0758416 ], [ 50.1449543, 30.0759507 ], [ 50.1449865, 30.0760969 ], [ 50.1450026, 30.076199 ], [ 50.1449972, 30.0762571 ], [ 50.1449624, 30.0763313 ], [ 50.1448792, 30.0764242 ], [ 50.1447746, 30.0765681 ], [ 50.1446378, 30.0767816 ], [ 50.1445922, 30.0768954 ], [ 50.1445815, 30.0769859 ], [ 50.1445869, 30.0770555 ], [ 50.1445761, 30.0770996 ], [ 50.1445574, 30.0771275 ], [ 50.1445171, 30.0771437 ], [ 50.1443535, 30.0771855 ], [ 50.1442999, 30.077218 ], [ 50.1442891, 30.0772482 ], [ 50.1442999, 30.0772806 ], [ 50.1443991, 30.0773317 ], [ 50.1445332, 30.0773619 ], [ 50.1445989, 30.07737 ], [ 50.1446405, 30.0773607 ], [ 50.1446673, 30.0773364 ], [ 50.1447089, 30.0772644 ], [ 50.1447317, 30.0771669 ], [ 50.1447532, 30.0770926 ], [ 50.144788, 30.0770323 ], [ 50.1448417, 30.0769928 ], [ 50.1450455, 30.0769186 ], [ 50.1451904, 30.0768605 ], [ 50.1453164, 30.076777 ], [ 50.1454371, 30.0767213 ], [ 50.1456168, 30.0766841 ], [ 50.1458663, 30.0766632 ], [ 50.1460594, 30.0766772 ], [ 50.1462471, 30.0766957 ], [ 50.1464644, 30.0767213 ], [ 50.1465234, 30.0767422 ], [ 50.1465288, 30.0767607 ], [ 50.1464993, 30.076777 ], [ 50.1464295, 30.0767816 ], [ 50.1462954, 30.0767584 ], [ 50.1461077, 30.0767561 ], [ 50.1460031, 30.0767398 ], [ 50.1458877, 30.0767468 ], [ 50.1457241, 30.0767793 ], [ 50.1455283, 30.0768095 ], [ 50.1453781, 30.0768582 ], [ 50.1451743, 30.0769952 ], [ 50.1450777, 30.0770787 ], [ 50.1450428, 30.0771716 ], [ 50.1450348, 30.077276 ], [ 50.1450482, 30.0774362 ], [ 50.145067, 30.0775128 ], [ 50.1451313, 30.0775847 ], [ 50.1452279, 30.0776706 ], [ 50.145421, 30.0777774 ], [ 50.1456544, 30.0778795 ], [ 50.1458046, 30.0779305 ], [ 50.1459333, 30.0779468 ], [ 50.1461506, 30.0779329 ], [ 50.1466387, 30.0778539 ], [ 50.1474608, 30.0777681 ], [ 50.147658, 30.077746 ], [ 50.1478323, 30.0777193 ], [ 50.1479235, 30.0776961 ], [ 50.1479731, 30.0776915 ], [ 50.1480228, 30.0776938 ], [ 50.1480456, 30.0777042 ], [ 50.1480469, 30.0777112 ], [ 50.1480375, 30.077724 ], [ 50.1479383, 30.0777657 ], [ 50.1478082, 30.0778098 ], [ 50.1476218, 30.0778516 ], [ 50.1472778, 30.0779085 ], [ 50.1471966, 30.0779247 ], [ 50.1471886, 30.0779276 ], [ 50.1471879, 30.0779329 ], [ 50.147198, 30.0779404 ], [ 50.1472664, 30.0779596 ], [ 50.1474608, 30.0780269 ], [ 50.1474743, 30.0780373 ], [ 50.1474756, 30.0780489 ], [ 50.1474635, 30.0780559 ], [ 50.147422, 30.0780559 ], [ 50.1470518, 30.078035 ], [ 50.1468413, 30.0780408 ], [ 50.1467863, 30.0780454 ], [ 50.1467729, 30.078057 ], [ 50.1467755, 30.0780802 ], [ 50.1467822, 30.078122 ], [ 50.1467729, 30.0781464 ], [ 50.1467487, 30.078165 ], [ 50.1466736, 30.0781789 ], [ 50.1465288, 30.0781812 ], [ 50.1463866, 30.0781673 ], [ 50.1462793, 30.078158 ], [ 50.1461506, 30.0781626 ], [ 50.1460326, 30.0782207 ], [ 50.1459789, 30.0782996 ], [ 50.1459575, 30.0783947 ], [ 50.1459494, 30.0784621 ], [ 50.1459119, 30.0784853 ], [ 50.1458609, 30.0784853 ], [ 50.1455069, 30.0784296 ], [ 50.1451421, 30.0783553 ], [ 50.1449168, 30.0782717 ], [ 50.1447022, 30.0781325 ], [ 50.1445091, 30.078035 ], [ 50.1443428, 30.0780025 ], [ 50.1441443, 30.0780628 ], [ 50.1439673, 30.0782207 ], [ 50.1437473, 30.0784946 ], [ 50.1435488, 30.0787267 ], [ 50.1433128, 30.078968 ], [ 50.1431036, 30.0792187 ], [ 50.1429641, 30.0793858 ], [ 50.1428461, 30.0794787 ], [ 50.1426637, 30.0795715 ], [ 50.1425618, 30.0796643 ], [ 50.1424974, 30.079799 ], [ 50.1424062, 30.0799568 ], [ 50.1423365, 30.0800403 ], [ 50.1422077, 30.0801193 ], [ 50.1421004, 30.0802075 ], [ 50.1420361, 30.0803328 ], [ 50.1419717, 30.0805092 ], [ 50.1418966, 30.080602 ], [ 50.1418135, 30.080609 ], [ 50.1417625, 30.0805788 ], [ 50.141741, 30.080486 ], [ 50.1417625, 30.0803514 ], [ 50.1419395, 30.0799359 ], [ 50.1420683, 30.0796829 ], [ 50.1421541, 30.0795135 ], [ 50.1421782, 30.079416 ], [ 50.1421621, 30.079358 ], [ 50.1421219, 30.0793371 ], [ 50.1420656, 30.0793371 ], [ 50.1419932, 30.0793626 ], [ 50.1417732, 30.079539 ], [ 50.1416981, 30.079669 ], [ 50.1416337, 30.0798639 ], [ 50.1415855, 30.0800264 ], [ 50.1415479, 30.0801378 ], [ 50.1414621, 30.0802539 ], [ 50.1413387, 30.0804442 ], [ 50.1411563, 30.0808527 ], [ 50.1410061, 30.0813262 ], [ 50.1408398, 30.0820549 ], [ 50.1407379, 30.0826955 ], [ 50.1406252, 30.0834011 ], [ 50.1405662, 30.0840602 ], [ 50.140577, 30.0843619 ], [ 50.140636, 30.084478 ], [ 50.1407969, 30.0845662 ], [ 50.1410705, 30.084659 ], [ 50.1413655, 30.0847286 ], [ 50.141682, 30.0847101 ], [ 50.1419502, 30.0846683 ], [ 50.1421434, 30.0846033 ], [ 50.1422614, 30.084543 ], [ 50.1423955, 30.0845151 ], [ 50.1425296, 30.0845197 ], [ 50.1426852, 30.0845383 ], [ 50.1428676, 30.0845337 ], [ 50.1431519, 30.0845012 ], [ 50.1433772, 30.0844408 ], [ 50.1435113, 30.0843712 ], [ 50.1436078, 30.0843248 ], [ 50.1437259, 30.0843016 ], [ 50.1438975, 30.0842598 ], [ 50.1440585, 30.0842064 ], [ 50.1442301, 30.0840881 ], [ 50.1444447, 30.0839163 ], [ 50.1447666, 30.0837585 ], [ 50.1449758, 30.0836773 ], [ 50.1451421, 30.0836355 ], [ 50.1452494, 30.0836007 ], [ 50.1453379, 30.0835589 ], [ 50.1453754, 30.083531 ], [ 50.1454183, 30.0835171 ], [ 50.1454532, 30.0835194 ], [ 50.1454921, 30.0835241 ], [ 50.1455216, 30.0835148 ], [ 50.1455538, 30.08348 ], [ 50.1455793, 30.0834162 ], [ 50.1456048, 30.0833802 ], [ 50.1456423, 30.083357 ], [ 50.1456745, 30.0833512 ], [ 50.1457295, 30.0833593 ], [ 50.1458073, 30.0833825 ], [ 50.1459119, 30.0834336 ], [ 50.1459937, 30.0834835 ], [ 50.1460151, 30.0835171 ], [ 50.1460125, 30.0835426 ], [ 50.1460044, 30.0835635 ], [ 50.1459816, 30.0835682 ], [ 50.1459669, 30.0835647 ], [ 50.1459374, 30.0835415 ], [ 50.1458918, 30.0834962 ], [ 50.1458301, 30.083473 ], [ 50.1457791, 30.0834661 ], [ 50.1457335, 30.0834742 ], [ 50.1456866, 30.0835078 ], [ 50.145645, 30.0835496 ], [ 50.1455793, 30.0836239 ], [ 50.1455297, 30.0836564 ], [ 50.14548, 30.083668 ], [ 50.1454036, 30.0836819 ], [ 50.1453231, 30.0837132 ], [ 50.1452695, 30.0837364 ], [ 50.1452199, 30.0837573 ], [ 50.1451461, 30.0837701 ], [ 50.1450495, 30.0837921 ], [ 50.1449852, 30.0838153 ], [ 50.1449677, 30.0838316 ], [ 50.1449704, 30.0838478 ], [ 50.1449852, 30.0838571 ], [ 50.1450348, 30.0838583 ], [ 50.1452655, 30.083849 ], [ 50.1454626, 30.0838397 ], [ 50.1456329, 30.0838095 ], [ 50.1456973, 30.0838095 ], [ 50.1457201, 30.0838177 ], [ 50.1457241, 30.0838351 ], [ 50.1457174, 30.083856 ], [ 50.1456892, 30.0838989 ], [ 50.145653, 30.0839407 ], [ 50.1456168, 30.0839662 ], [ 50.1455846, 30.083965 ], [ 50.1455578, 30.0839546 ], [ 50.145531, 30.0839291 ], [ 50.1455002, 30.083914 ], [ 50.145472, 30.0839128 ], [ 50.1453835, 30.0839233 ], [ 50.1451474, 30.083972 ], [ 50.1449329, 30.0840393 ], [ 50.1447907, 30.0840927 ], [ 50.1446646, 30.0841716 ], [ 50.1446083, 30.0842296 ], [ 50.14456, 30.0843062 ], [ 50.1445225, 30.084341 ], [ 50.1444796, 30.0843619 ], [ 50.1444179, 30.0843735 ], [ 50.1443535, 30.0843991 ], [ 50.1442516, 30.0844617 ], [ 50.1441121, 30.084536 ], [ 50.1438841, 30.0846311 ], [ 50.1437473, 30.0846729 ], [ 50.1435408, 30.0847263 ], [ 50.1434375, 30.0847611 ], [ 50.1434188, 30.0847762 ], [ 50.1434188, 30.0847936 ], [ 50.1434308, 30.0848168 ], [ 50.1434711, 30.0848725 ], [ 50.1434898, 30.0849213 ], [ 50.1435006, 30.0849723 ], [ 50.143522, 30.085028 ], [ 50.1436427, 30.0851278 ], [ 50.1437554, 30.0851673 ], [ 50.1439565, 30.0851882 ], [ 50.144029, 30.085209 ], [ 50.1440504, 30.0852299 ], [ 50.1440585, 30.0852694 ], [ 50.1440665, 30.0852949 ], [ 50.1441067, 30.0853181 ], [ 50.1444179, 30.0854968 ], [ 50.1444849, 30.0855247 ], [ 50.1445332, 30.0855363 ], [ 50.1445922, 30.085534 ], [ 50.1447961, 30.0854318 ], [ 50.144906, 30.0853785 ], [ 50.1449516, 30.0853854 ], [ 50.1449758, 30.085397 ], [ 50.1449865, 30.0854365 ], [ 50.1449704, 30.0854968 ], [ 50.1449275, 30.0856175 ], [ 50.1447988, 30.0858473 ], [ 50.1447062, 30.0859888 ], [ 50.1446378, 30.0860678 ], [ 50.1445701, 30.0861322 ], [ 50.1445386, 30.086149 ], [ 50.1444983, 30.0861513 ], [ 50.1444615, 30.0861443 ], [ 50.1444246, 30.0861304 ], [ 50.1443911, 30.0861171 ], [ 50.1443703, 30.0861148 ], [ 50.1443502, 30.0861159 ], [ 50.144328, 30.0861136 ], [ 50.1443072, 30.0861049 ], [ 50.1442771, 30.0860782 ], [ 50.1442523, 30.0860608 ], [ 50.1442325, 30.0860521 ], [ 50.144213, 30.0860466 ], [ 50.144207, 30.0860419 ], [ 50.1442053, 30.086035 ], [ 50.144208, 30.0860248 ], [ 50.1442355, 30.0859761 ], [ 50.1442569, 30.0859297 ], [ 50.1442529, 30.0858949 ], [ 50.1442301, 30.0858705 ], [ 50.1441155, 30.0857962 ], [ 50.143984, 30.0857434 ], [ 50.1439391, 30.0857341 ], [ 50.1439083, 30.0857341 ], [ 50.1438808, 30.0857365 ], [ 50.1438298, 30.0857498 ], [ 50.143801, 30.0857498 ], [ 50.1437829, 30.0857428 ], [ 50.1437701, 30.0857289 ], [ 50.143748, 30.0856889 ], [ 50.1437125, 30.0856477 ], [ 50.1436374, 30.0856036 ], [ 50.1435408, 30.0855688 ], [ 50.1434094, 30.0855363 ], [ 50.1432726, 30.0854875 ], [ 50.1431331, 30.0854179 ], [ 50.1429909, 30.0853274 ], [ 50.1428059, 30.0851649 ], [ 50.142712, 30.0851301 ], [ 50.1426074, 30.0851348 ], [ 50.1425001, 30.0851789 ], [ 50.142374, 30.0852183 ], [ 50.1422802, 30.0852903 ], [ 50.1422372, 30.0853204 ], [ 50.1421916, 30.0853947 ], [ 50.1421836, 30.0854411 ], [ 50.1421756, 30.0855142 ], [ 50.1421635, 30.0855798 ], [ 50.1421702, 30.0856198 ], [ 50.1422024, 30.0856848 ], [ 50.1422238, 30.0857753 ], [ 50.1422265, 30.0858983 ], [ 50.1422507, 30.0860144 ], [ 50.1423043, 30.0860863 ], [ 50.1424196, 30.0862 ], [ 50.1425323, 30.0862813 ], [ 50.1426262, 30.0863625 ], [ 50.1428729, 30.0866619 ], [ 50.1429574, 30.0867919 ], [ 50.1429621, 30.0868151 ], [ 50.1429608, 30.0868255 ], [ 50.1429534, 30.086829 ], [ 50.1429306, 30.0868255 ], [ 50.1429024, 30.0868139 ], [ 50.1428676, 30.0867837 ], [ 50.1428139, 30.0867234 ], [ 50.1426637, 30.0866445 ], [ 50.1425377, 30.0866027 ], [ 50.1424518, 30.0865888 ], [ 50.1423781, 30.0865957 ], [ 50.1422882, 30.0866306 ], [ 50.1422346, 30.0866538 ], [ 50.1422077, 30.0866665 ], [ 50.1421823, 30.0866596 ], [ 50.1421568, 30.0866387 ], [ 50.1420978, 30.0865215 ], [ 50.1420388, 30.0864461 ], [ 50.1419422, 30.0863718 ], [ 50.1418483, 30.0862975 ], [ 50.1417652, 30.0862604 ], [ 50.1416954, 30.0862465 ], [ 50.1415908, 30.0862418 ], [ 50.1415586, 30.0862604 ], [ 50.1415104, 30.0863184 ], [ 50.1414701, 30.0863695 ], [ 50.1414219, 30.0864182 ], [ 50.1413789, 30.0864925 ], [ 50.1413387, 30.0866619 ], [ 50.1412877, 30.0868174 ], [ 50.1412126, 30.0871562 ], [ 50.141159, 30.0874649 ], [ 50.1411751, 30.0877248 ], [ 50.1412019, 30.0878803 ], [ 50.1412582, 30.0879731 ], [ 50.1413199, 30.0880544 ], [ 50.1413736, 30.088124 ], [ 50.1413709, 30.088182 ], [ 50.1413441, 30.0882099 ], [ 50.1413012, 30.0882331 ], [ 50.1411778, 30.0882981 ], [ 50.1411161, 30.0883352 ], [ 50.1410678, 30.0883514 ], [ 50.1410517, 30.0883514 ], [ 50.1410383, 30.0883422 ], [ 50.141049, 30.0882447 ], [ 50.1410785, 30.0880776 ], [ 50.1410758, 30.0880056 ], [ 50.1410758, 30.0879198 ], [ 50.1410544, 30.08782 ], [ 50.1410115, 30.0877271 ], [ 50.1409551, 30.0876854 ], [ 50.1409283, 30.0876854 ], [ 50.1408935, 30.087697 ], [ 50.1408452, 30.0877712 ], [ 50.1408103, 30.0878327 ], [ 50.140762, 30.0879279 ], [ 50.1407003, 30.0880741 ], [ 50.1406682, 30.0882853 ], [ 50.1406977, 30.0884013 ], [ 50.1407218, 30.0884849 ], [ 50.1407406, 30.0885058 ], [ 50.1407808, 30.0885429 ], [ 50.1408237, 30.0885638 ], [ 50.1408572, 30.0885684 ], [ 50.1408881, 30.0885847 ], [ 50.1409632, 30.088616 ], [ 50.1410302, 30.0886833 ], [ 50.1410571, 30.0887367 ], [ 50.141049, 30.0887901 ], [ 50.1410007, 30.0888365 ], [ 50.1409511, 30.0888574 ], [ 50.1409069, 30.0888643 ], [ 50.1408599, 30.088855 ], [ 50.1408251, 30.0888272 ], [ 50.1407835, 30.0887703 ], [ 50.1407634, 30.0887471 ], [ 50.1407419, 30.0887332 ], [ 50.1407044, 30.0887135 ], [ 50.1406507, 30.0886729 ], [ 50.1406038, 30.088609 ], [ 50.1405582, 30.0885104 ], [ 50.1404938, 30.0882981 ], [ 50.1404683, 30.0882563 ], [ 50.1404214, 30.0881959 ], [ 50.1403892, 30.0881344 ], [ 50.1403704, 30.0880451 ], [ 50.1403543, 30.0877736 ], [ 50.1403141, 30.0874649 ], [ 50.1402819, 30.0873721 ], [ 50.1402229, 30.0872583 ], [ 50.1401585, 30.0872096 ], [ 50.1400512, 30.087198 ], [ 50.1398903, 30.0872305 ], [ 50.1396811, 30.0873094 ], [ 50.1395443, 30.0873581 ], [ 50.1394799, 30.0873605 ], [ 50.1394424, 30.0873326 ], [ 50.1394397, 30.0872792 ], [ 50.1394799, 30.0871771 ], [ 50.1396167, 30.086952 ], [ 50.1396999, 30.0868104 ], [ 50.1397428, 30.0867153 ], [ 50.1397911, 30.0865934 ], [ 50.1398621, 30.0864449 ], [ 50.1399922, 30.086214 ], [ 50.1401424, 30.0860167 ], [ 50.1402765, 30.0858937 ], [ 50.1404375, 30.0857869 ], [ 50.1405796, 30.0857243 ], [ 50.1406601, 30.0857115 ], [ 50.1407097, 30.0857092 ], [ 50.1407459, 30.0856941 ], [ 50.1407607, 30.0856767 ], [ 50.1407647, 30.08565 ], [ 50.1407486, 30.085585 ], [ 50.1407191, 30.0855525 ], [ 50.1406641, 30.0855363 ], [ 50.1406091, 30.085534 ], [ 50.1405072, 30.085527 ], [ 50.1404737, 30.0855142 ], [ 50.1404442, 30.0854922 ], [ 50.1404214, 30.0854667 ], [ 50.1403691, 30.0854411 ], [ 50.140302, 30.0854295 ], [ 50.1402725, 30.0854342 ], [ 50.140247, 30.0854574 ], [ 50.1401827, 30.0855432 ], [ 50.1401076, 30.0856268 ], [ 50.1398474, 30.0859146 ], [ 50.1395899, 30.0862279 ], [ 50.1393163, 30.0865714 ], [ 50.1389515, 30.0870912 ], [ 50.1387531, 30.0874092 ], [ 50.1385224, 30.0878153 ], [ 50.1383883, 30.0880985 ], [ 50.1382488, 30.0883955 ], [ 50.1380342, 30.0888643 ], [ 50.1376418, 30.0899598 ], [ 50.1373877, 30.090574 ], [ 50.1371061, 30.0912304 ], [ 50.1368269, 30.0918601 ], [ 50.1366251, 30.0923153 ], [ 50.1361507, 30.0933851 ], [ 50.1355961, 30.0946359 ], [ 50.1353842, 30.0950344 ], [ 50.1351641, 30.0954485 ], [ 50.1346842, 30.0964104 ], [ 50.1343551, 30.0970734 ], [ 50.1341628, 30.0974575 ], [ 50.133868, 30.0980644 ], [ 50.1336255, 30.0985014 ], [ 50.1332102, 30.0992499 ], [ 50.1328421, 30.0999131 ], [ 50.1325753, 30.100394 ], [ 50.1315996, 30.1021522 ], [ 50.1313287, 30.1025838 ], [ 50.1311034, 30.1029992 ], [ 50.1308459, 30.1034958 ], [ 50.1301137, 30.1048486 ], [ 50.1298508, 30.1055145 ], [ 50.1292688, 30.1074126 ], [ 50.1292312, 30.107749 ], [ 50.1292366, 30.1078511 ], [ 50.1292634, 30.1079695 ], [ 50.1293063, 30.1081365 ], [ 50.129317, 30.1082595 ], [ 50.1293358, 30.1085008 ], [ 50.1293358, 30.1087816 ], [ 50.1293331, 30.1091273 ], [ 50.1293519, 30.1093663 ], [ 50.1293734, 30.1095403 ], [ 50.1294216, 30.1096146 ], [ 50.1295289, 30.1096702 ], [ 50.1296684, 30.1096888 ], [ 50.1297784, 30.109654 ], [ 50.1298428, 30.1096215 ], [ 50.1298937, 30.1095612 ], [ 50.1299795, 30.1093129 ], [ 50.1301244, 30.1090461 ], [ 50.1302853, 30.1088697 ], [ 50.1303953, 30.1087514 ], [ 50.1304919, 30.1085959 ], [ 50.1305562, 30.1084892 ], [ 50.1306179, 30.1083662 ], [ 50.1306796, 30.108227 ], [ 50.1307681, 30.1080692 ], [ 50.1308754, 30.1079161 ], [ 50.1309586, 30.1078117 ], [ 50.1310766, 30.1076655 ], [ 50.1311624, 30.1075773 ], [ 50.1312724, 30.1074729 ], [ 50.1313582, 30.1073987 ], [ 50.1314789, 30.1073105 ], [ 50.131613, 30.1072084 ], [ 50.1319724, 30.1070019 ], [ 50.1321334, 30.1069183 ], [ 50.1324981, 30.1067327 ], [ 50.1327771, 30.1065935 ], [ 50.1330239, 30.1065239 ], [ 50.1332062, 30.1064728 ], [ 50.1334262, 30.1063847 ], [ 50.1336139, 30.1062918 ], [ 50.1337534, 30.106148 ], [ 50.1338392, 30.1058649 ], [ 50.1338983, 30.1056189 ], [ 50.1340055, 30.1054379 ], [ 50.1340806, 30.1052105 ], [ 50.1341021, 30.1049599 ], [ 50.1341557, 30.1046676 ], [ 50.1342791, 30.1044402 ], [ 50.1343757, 30.1042221 ], [ 50.134542, 30.1039111 ], [ 50.1346654, 30.1037162 ], [ 50.1347566, 30.1034934 ], [ 50.1348263, 30.1032846 ], [ 50.1349336, 30.1031407 ], [ 50.1350462, 30.1030758 ], [ 50.1352018, 30.1031036 ], [ 50.1352823, 30.1032196 ], [ 50.1352394, 30.1035352 ], [ 50.1351321, 30.1039622 ], [ 50.1350087, 30.1045748 ], [ 50.1350462, 30.1046536 ], [ 50.1351428, 30.1046954 ], [ 50.1354539, 30.1046397 ], [ 50.1357168, 30.1045887 ], [ 50.1359314, 30.1045655 ], [ 50.1361352, 30.1045562 ], [ 50.1362532, 30.1045933 ], [ 50.1362801, 30.1046722 ], [ 50.136221, 30.104779 ], [ 50.1361567, 30.1048439 ], [ 50.136044, 30.104881 ], [ 50.13569, 30.1049135 ], [ 50.1354271, 30.1049878 ], [ 50.1352555, 30.1050667 ], [ 50.1351052, 30.1051827 ], [ 50.1350623, 30.1053591 ], [ 50.135116, 30.1054844 ], [ 50.1352662, 30.1055076 ], [ 50.1354271, 30.1054983 ], [ 50.1355451, 30.105554 ], [ 50.1355666, 30.1056468 ], [ 50.1354539, 30.105735 ], [ 50.1352823, 30.1057906 ], [ 50.1351428, 30.1058046 ], [ 50.1350355, 30.1058556 ], [ 50.1349872, 30.1059577 ], [ 50.134955, 30.1061387 ], [ 50.1348531, 30.1063383 ], [ 50.1346385, 30.106677 ], [ 50.1344186, 30.1071411 ], [ 50.1342148, 30.1074056 ], [ 50.1338875, 30.1077165 ], [ 50.1334155, 30.1080321 ], [ 50.132997, 30.1083059 ], [ 50.1328951, 30.108473 ], [ 50.1328468, 30.1087375 ], [ 50.1328736, 30.1089974 ], [ 50.1329434, 30.1093408 ], [ 50.1330936, 30.1097445 ], [ 50.1334155, 30.1101389 ], [ 50.1337856, 30.1104035 ], [ 50.1340324, 30.1104963 ], [ 50.1344186, 30.1105287 ], [ 50.1350945, 30.1105705 ], [ 50.1356149, 30.1106076 ], [ 50.135985, 30.1106123 ], [ 50.136382, 30.1104963 ], [ 50.1367521, 30.1103431 ], [ 50.1369721, 30.1102178 ], [ 50.1375139, 30.1097816 ], [ 50.13812, 30.1091319 ], [ 50.1384258, 30.1087236 ], [ 50.1385707, 30.1084034 ], [ 50.1386136, 30.1081945 ], [ 50.1385868, 30.1080599 ], [ 50.1383775, 30.1076562 ], [ 50.1383078, 30.1073731 ], [ 50.1383132, 30.1072664 ], [ 50.1384526, 30.1071782 ], [ 50.1385492, 30.1072339 ], [ 50.1386672, 30.1074195 ], [ 50.1388872, 30.1076701 ], [ 50.1393861, 30.1080507 ], [ 50.1397616, 30.1083245 ], [ 50.1399332, 30.1083662 ], [ 50.1401532, 30.1083616 ], [ 50.1402551, 30.1083848 ], [ 50.1402819, 30.108473 ], [ 50.1402122, 30.1085658 ], [ 50.139901, 30.1086354 ], [ 50.1393914, 30.1088025 ], [ 50.1391178, 30.1089277 ], [ 50.1390213, 30.1090159 ], [ 50.138796, 30.109299 ], [ 50.1386136, 30.1094753 ], [ 50.1381254, 30.1097909 ], [ 50.1377553, 30.1100972 ], [ 50.1376587, 30.1102967 ], [ 50.1376212, 30.1106076 ], [ 50.1375407, 30.1107608 ], [ 50.1373368, 30.1108768 ], [ 50.1370686, 30.1109742 ], [ 50.1367575, 30.1110114 ], [ 50.1363015, 30.1110206 ], [ 50.1361728, 30.1110717 ], [ 50.1361728, 30.1111831 ], [ 50.1362532, 30.111313 ], [ 50.1364034, 30.1114429 ], [ 50.136559, 30.1114708 ], [ 50.1368326, 30.1114661 ], [ 50.1371545, 30.1114661 ], [ 50.1374388, 30.1114847 ], [ 50.1377553, 30.1115914 ], [ 50.1379752, 30.1117538 ], [ 50.1380932, 30.1119255 ], [ 50.1382434, 30.1121761 ], [ 50.1383883, 30.112436 ], [ 50.138737, 30.1126866 ], [ 50.1397455, 30.1132109 ], [ 50.1403034, 30.1134569 ], [ 50.1405716, 30.1136147 ], [ 50.140593, 30.1136518 ], [ 50.1405662, 30.1137214 ], [ 50.1404804, 30.1137817 ], [ 50.1402873, 30.113842 ], [ 50.1401854, 30.1138606 ], [ 50.140062, 30.1138281 ], [ 50.1399225, 30.1137724 ], [ 50.1397079, 30.1136611 ], [ 50.1393431, 30.1134569 ], [ 50.1386028, 30.1129928 ], [ 50.1380235, 30.1126819 ], [ 50.1374173, 30.1122597 ], [ 50.1370633, 30.112088 ], [ 50.1366931, 30.1120416 ], [ 50.135926, 30.1119719 ], [ 50.1354968, 30.1119395 ], [ 50.135352, 30.1119905 ], [ 50.1350731, 30.112371 ], [ 50.1350462, 30.1125242 ], [ 50.1350301, 30.1126495 ], [ 50.1351106, 30.1129743 ], [ 50.1352501, 30.1134383 ], [ 50.1353842, 30.114088 ], [ 50.1354057, 30.114617 ], [ 50.1354271, 30.1148908 ], [ 50.1354325, 30.1150717 ], [ 50.1353842, 30.1153316 ], [ 50.1353306, 30.1154105 ], [ 50.1352179, 30.1154244 ], [ 50.1350087, 30.1154012 ], [ 50.1347673, 30.1153362 ], [ 50.1346761, 30.1152759 ], [ 50.1346707, 30.1151692 ], [ 50.1346922, 30.1150114 ], [ 50.134778, 30.1148026 ], [ 50.134778, 30.1146634 ], [ 50.1347083, 30.1144778 ], [ 50.134601, 30.11432 ], [ 50.1344508, 30.1141529 ], [ 50.1343167, 30.1140555 ], [ 50.1341128, 30.1139395 ], [ 50.1338392, 30.1138745 ], [ 50.1336622, 30.113791 ], [ 50.1335281, 30.1136657 ], [ 50.1334745, 30.1134662 ], [ 50.1334476, 30.1132017 ], [ 50.1333779, 30.1130114 ], [ 50.1330292, 30.1125845 ], [ 50.1327717, 30.1124685 ], [ 50.1324713, 30.1124592 ], [ 50.1320368, 30.1126077 ], [ 50.1316827, 30.1127979 ], [ 50.1314574, 30.1131228 ], [ 50.1313126, 30.1135636 ], [ 50.1311302, 30.1141205 ], [ 50.1309586, 30.1145335 ], [ 50.130685, 30.1148072 ], [ 50.1304597, 30.1149 ], [ 50.1301485, 30.1149743 ], [ 50.130009, 30.1150485 ], [ 50.1299179, 30.1151645 ], [ 50.1298213, 30.1152017 ], [ 50.1297355, 30.1151785 ], [ 50.1296872, 30.1151042 ], [ 50.1296872, 30.1149418 ], [ 50.1298052, 30.1145242 ], [ 50.1299071, 30.1142225 ], [ 50.129993, 30.1139348 ], [ 50.1299983, 30.1137307 ], [ 50.1299769, 30.1134522 ], [ 50.1299125, 30.1131599 ], [ 50.129773, 30.1128258 ], [ 50.1297194, 30.1126727 ], [ 50.1296067, 30.1125984 ], [ 50.129376, 30.1125845 ], [ 50.1289308, 30.1127562 ], [ 50.1280671, 30.1131692 ], [ 50.126785, 30.1139024 ], [ 50.1265275, 30.114204 ], [ 50.1264363, 30.1144128 ], [ 50.1263773, 30.1146448 ], [ 50.1262325, 30.1150068 ], [ 50.1261038, 30.1153037 ], [ 50.125975, 30.1156471 ], [ 50.1256692, 30.1162596 ], [ 50.1255298, 30.1165566 ], [ 50.1254117, 30.1168536 ], [ 50.1253152, 30.1171645 ], [ 50.125224, 30.11748 ], [ 50.1251167, 30.1180229 ], [ 50.1250577, 30.1183153 ], [ 50.1249343, 30.1188999 ], [ 50.1247895, 30.1194614 ], [ 50.1246232, 30.1199532 ], [ 50.1244783, 30.1203848 ], [ 50.1244998, 30.1208627 ], [ 50.1245695, 30.1216237 ], [ 50.124827, 30.1227744 ], [ 50.1248968, 30.1229739 ], [ 50.1250201, 30.123076 ], [ 50.1252294, 30.123192 ], [ 50.1254654, 30.1232152 ], [ 50.1306206, 30.1222222 ], [ 50.1312107, 30.1221619 ], [ 50.1314306, 30.1222315 ], [ 50.1315057, 30.1223893 ], [ 50.131495, 30.1226352 ], [ 50.131436, 30.122895 ], [ 50.1313609, 30.1231456 ], [ 50.1312911, 30.1234332 ], [ 50.1312268, 30.1239668 ], [ 50.1311946, 30.1241664 ], [ 50.1311785, 30.1244565 ], [ 50.1311678, 30.1246582 ], [ 50.1311409, 30.1248809 ], [ 50.1311356, 30.1251361 ], [ 50.1311302, 30.1254191 ], [ 50.1311088, 30.1255722 ], [ 50.1310605, 30.1257996 ], [ 50.1309532, 30.1261104 ], [ 50.1308674, 30.1263239 ], [ 50.1307815, 30.126477 ], [ 50.1307011, 30.1265791 ], [ 50.1306206, 30.1267322 ], [ 50.1305616, 30.126941 ], [ 50.130524, 30.1270523 ], [ 50.130465, 30.1271683 ], [ 50.1304114, 30.1272704 ], [ 50.1303623, 30.1273343 ], [ 50.1299286, 30.1279524 ], [ 50.1294941, 30.1282633 ], [ 50.1292473, 30.1282958 ], [ 50.1290408, 30.1282819 ], [ 50.1288074, 30.1282123 ], [ 50.128625, 30.1282215 ], [ 50.1284212, 30.1283375 ], [ 50.1282844, 30.1284535 ], [ 50.1281691, 30.1285556 ], [ 50.1279008, 30.1285927 ], [ 50.1276863, 30.1285324 ], [ 50.1275468, 30.1284814 ], [ 50.1273805, 30.1283793 ], [ 50.1272303, 30.1283793 ], [ 50.1271069, 30.1284442 ], [ 50.1270264, 30.1285417 ], [ 50.1269352, 30.128602 ], [ 50.1267314, 30.1286809 ], [ 50.1265275, 30.1287551 ], [ 50.1263291, 30.1288595 ], [ 50.1261145, 30.1289639 ], [ 50.1259214, 30.1289871 ], [ 50.1256531, 30.1290474 ], [ 50.1253849, 30.1290984 ], [ 50.1250684, 30.1291959 ], [ 50.1248324, 30.1293072 ], [ 50.1244944, 30.1295624 ], [ 50.1244464, 30.1296519 ], [ 50.1244676, 30.1297434 ], [ 50.1245105, 30.1298315 ], [ 50.1246124, 30.1299498 ], [ 50.1247653, 30.1301099 ], [ 50.1248753, 30.1303326 ], [ 50.1249343, 30.1305321 ], [ 50.1248807, 30.1306481 ], [ 50.124709, 30.1307177 ], [ 50.1243657, 30.1306852 ], [ 50.124017, 30.1307223 ], [ 50.1238078, 30.1307919 ], [ 50.1235074, 30.1309079 ], [ 50.123266, 30.1310332 ], [ 50.123089, 30.1311399 ], [ 50.1229755, 30.1312362 ], [ 50.1228519, 30.1316236 ], [ 50.1227885, 30.1319054 ], [ 50.1227091, 30.1321407 ], [ 50.1225847, 30.1324575 ], [ 50.1222675, 30.1331108 ], [ 50.1217639, 30.1342762 ], [ 50.1214904, 30.1350417 ], [ 50.121265, 30.1355566 ], [ 50.1210451, 30.1359881 ], [ 50.120911, 30.1362479 ], [ 50.1208571, 30.1364268 ], [ 50.1207339, 30.1370256 ], [ 50.1206771, 30.1373086 ], [ 50.1207286, 30.1379088 ], [ 50.1207715, 30.1381825 ], [ 50.1208681, 30.1386882 ], [ 50.1209164, 30.1391799 ], [ 50.1208574, 30.1395959 ], [ 50.1207286, 30.1400521 ], [ 50.1206133, 30.1403583 ], [ 50.1204818, 30.1405485 ], [ 50.1204014, 30.1407387 ], [ 50.1203638, 30.1409126 ], [ 50.1204094, 30.1411284 ], [ 50.1204738, 30.1412722 ], [ 50.1207098, 30.1414717 ], [ 50.1210022, 30.1415227 ], [ 50.1210934, 30.1415598 ], [ 50.1213026, 30.1418196 ], [ 50.1213482, 30.1419773 ], [ 50.121367, 30.1422487 ], [ 50.1213509, 30.1423554 ], [ 50.1212597, 30.1427891 ], [ 50.1210666, 30.1432322 ], [ 50.120919, 30.1434896 ], [ 50.1206481, 30.143986 ], [ 50.1204926, 30.144385 ], [ 50.1204389, 30.1446076 ], [ 50.1204416, 30.1447862 ], [ 50.1204765, 30.1454055 ], [ 50.120514, 30.146055 ], [ 50.1203531, 30.1464864 ], [ 50.1202083, 30.1467462 ], [ 50.1199615, 30.147057 ], [ 50.119704, 30.1472471 ], [ 50.1194411, 30.1473492 ], [ 50.1191246, 30.1472518 ], [ 50.1188511, 30.1470802 ], [ 50.1184809, 30.1467833 ], [ 50.118438, 30.1466348 ], [ 50.1184165, 30.1464817 ], [ 50.1185131, 30.1462776 ], [ 50.1187438, 30.1460039 ], [ 50.1189047, 30.1458926 ], [ 50.119071, 30.1457581 ], [ 50.119071, 30.1456792 ], [ 50.1190281, 30.1455772 ], [ 50.1188779, 30.1455076 ], [ 50.1187062, 30.1455818 ], [ 50.1184595, 30.1457163 ], [ 50.1181751, 30.1459993 ], [ 50.1177514, 30.146556 ], [ 50.1171452, 30.1476739 ], [ 50.1167214, 30.1486017 ], [ 50.1167375, 30.1486991 ], [ 50.1168662, 30.1487872 ], [ 50.1173115, 30.1488614 ], [ 50.1175851, 30.1489542 ], [ 50.1178694, 30.148996 ], [ 50.1182878, 30.1490331 ], [ 50.1187438, 30.1491537 ], [ 50.1190388, 30.1493346 ], [ 50.1192212, 30.1495712 ], [ 50.1193392, 30.1497706 ], [ 50.119366, 30.1499283 ], [ 50.1193553, 30.1501556 ], [ 50.1193392, 30.1503366 ], [ 50.1192856, 30.1505499 ], [ 50.1192051, 30.1508004 ], [ 50.1190978, 30.1509628 ], [ 50.1189047, 30.1511715 ], [ 50.1185721, 30.1516168 ], [ 50.1182342, 30.1522245 ], [ 50.1181322, 30.1524286 ], [ 50.1179981, 30.1525956 ], [ 50.1177567, 30.1527811 ], [ 50.1173007, 30.1530037 ], [ 50.1170593, 30.1531615 ], [ 50.1169789, 30.1532913 ], [ 50.1170164, 30.1534305 ], [ 50.1171184, 30.15363 ], [ 50.1171237, 30.1537691 ], [ 50.1170272, 30.1538851 ], [ 50.1168501, 30.1539686 ], [ 50.1165765, 30.1539825 ], [ 50.1163351, 30.1540521 ], [ 50.1161772, 30.1541459 ], [ 50.1161796, 30.1542701 ], [ 50.1161849, 30.1545066 ], [ 50.1161849, 30.1547154 ], [ 50.1161098, 30.1548499 ], [ 50.1159865, 30.1549519 ], [ 50.1156753, 30.1551514 ], [ 50.1152462, 30.1554018 ], [ 50.1148492, 30.1556245 ], [ 50.1145005, 30.1557312 ], [ 50.1137173, 30.1558471 ], [ 50.1133203, 30.1558147 ], [ 50.1128805, 30.1557636 ], [ 50.1125371, 30.155643 ], [ 50.1123065, 30.1555503 ], [ 50.1121187, 30.155592 ], [ 50.1119739, 30.1556987 ], [ 50.1118666, 30.1559167 ], [ 50.1116735, 30.1560188 ], [ 50.1115072, 30.1560141 ], [ 50.111078, 30.1559538 ], [ 50.1108742, 30.1558889 ], [ 50.110665, 30.1556987 ], [ 50.1105469, 30.1556199 ], [ 50.1103753, 30.1555317 ], [ 50.1101768, 30.1555271 ], [ 50.1099676, 30.1555688 ], [ 50.1098335, 30.1556199 ], [ 50.1097315, 30.1557312 ], [ 50.1096564, 30.1558703 ], [ 50.1096135, 30.1560605 ], [ 50.1096135, 30.1562182 ], [ 50.1096243, 30.1563574 ], [ 50.1095867, 30.1564826 ], [ 50.1095116, 30.1567655 ], [ 50.1093275, 30.1571873 ], [ 50.109246, 30.1573593 ], [ 50.1087499, 30.158171 ], [ 50.1083207, 30.1588481 ], [ 50.1080471, 30.1594975 ], [ 50.1078433, 30.1600819 ], [ 50.1076984, 30.1603648 ], [ 50.1072425, 30.1609817 ], [ 50.1067811, 30.1613899 ], [ 50.1063734, 30.1616496 ], [ 50.1059067, 30.1618769 ], [ 50.1057136, 30.1620995 ], [ 50.1056063, 30.1623639 ], [ 50.1055527, 30.1626793 ], [ 50.1054186, 30.1630364 ], [ 50.1052415, 30.1633286 ], [ 50.1048124, 30.1639223 ], [ 50.1045817, 30.1643397 ], [ 50.1042867, 30.1647849 ], [ 50.1040345, 30.1650864 ], [ 50.1038414, 30.165309 ], [ 50.1036698, 30.1655873 ], [ 50.1034713, 30.1658749 ], [ 50.1031145, 30.1663317 ], [ 50.1030502, 30.1663816 ], [ 50.1029845, 30.1663885 ], [ 50.1029228, 30.1663792 ], [ 50.1028463, 30.1663398 ], [ 50.1026237, 30.1660836 ], [ 50.1023072, 30.1658192 ], [ 50.1019853, 30.1656012 ], [ 50.10176, 30.1655317 ], [ 50.1015615, 30.1654992 ], [ 50.1014221, 30.1655456 ], [ 50.1013309, 30.1656012 ], [ 50.1012772, 30.1657172 ], [ 50.1012531, 30.1658633 ], [ 50.1011914, 30.1661021 ], [ 50.1011163, 30.1664013 ], [ 50.1010224, 30.1666146 ], [ 50.1008964, 30.1668094 ], [ 50.1007166, 30.1670343 ], [ 50.1005611, 30.1671712 ], [ 50.1003277, 30.1673567 ], [ 50.100089, 30.1676025 ], [ 50.0998878, 30.1678645 ], [ 50.0997806, 30.1680361 ], [ 50.0997055, 30.1682402 ], [ 50.099625, 30.1684721 ], [ 50.0995284, 30.1688477 ], [ 50.0994319, 30.169177 ], [ 50.0993997, 30.169548 ], [ 50.099401, 30.1698669 ], [ 50.0994064, 30.1699782 ], [ 50.099456, 30.1700512 ], [ 50.0995485, 30.170093 ], [ 50.0996719, 30.1700791 ], [ 50.099798, 30.1700431 ], [ 50.0999603, 30.1699492 ], [ 50.1001829, 30.1698008 ], [ 50.100309, 30.1697312 ], [ 50.1003599, 30.1697243 ], [ 50.1004162, 30.1697591 ], [ 50.1004511, 30.1698101 ], [ 50.1004618, 30.1698843 ], [ 50.1003224, 30.1704895 ], [ 50.1001722, 30.1709115 ], [ 50.0999254, 30.1713011 ], [ 50.0996572, 30.1717139 ], [ 50.0992227, 30.1723585 ], [ 50.0989222, 30.1729938 ], [ 50.0986648, 30.1735179 ], [ 50.0983536, 30.1740187 ], [ 50.0979218, 30.1748257 ], [ 50.0973317, 30.1753358 ], [ 50.0971386, 30.1755514 ], [ 50.0967228, 30.1760152 ], [ 50.0963929, 30.1763931 ], [ 50.0961328, 30.1765856 ], [ 50.0958431, 30.1768198 ], [ 50.0957385, 30.1768824 ], [ 50.0956754, 30.1769421 ], [ 50.0956191, 30.1770099 ], [ 50.0953013, 30.1773624 ], [ 50.0943786, 30.1782342 ], [ 50.0935337, 30.1789715 ], [ 50.0927907, 30.1795025 ], [ 50.0920236, 30.179892 ], [ 50.0912002, 30.1803674 ], [ 50.0905055, 30.180845 ], [ 50.0899234, 30.1813389 ], [ 50.0893012, 30.1817446 ], [ 50.088636, 30.1821886 ], [ 50.0883678, 30.182366 ], [ 50.0882162, 30.1824773 ], [ 50.0879949, 30.1826581 ], [ 50.0874451, 30.1830755 ], [ 50.0871018, 30.1833978 ], [ 50.0865734, 30.1838893 ], [ 50.086053, 30.1845222 ], [ 50.0859457, 30.1846521 ], [ 50.0858934, 30.1847413 ], [ 50.0857392, 30.1850717 ], [ 50.0854039, 30.1858067 ], [ 50.0851867, 30.1861382 ], [ 50.0849131, 30.1864234 ], [ 50.0848299, 30.1865776 ], [ 50.0848172, 30.1866217 ], [ 50.0848219, 30.1866472 ], [ 50.0848487, 30.1866999 ], [ 50.0849184, 30.1867318 ], [ 50.0850512, 30.1867231 ], [ 50.0851893, 30.1866692 ], [ 50.0853744, 30.1865834 ], [ 50.0856614, 30.1864095 ], [ 50.0857687, 30.186326 ], [ 50.085884, 30.1862101 ], [ 50.0860262, 30.1860919 ], [ 50.0861476, 30.1859899 ], [ 50.0862012, 30.1859574 ], [ 50.0862562, 30.1859348 ], [ 50.0863085, 30.1859348 ], [ 50.086342, 30.1859528 ], [ 50.0863782, 30.1859829 ], [ 50.0863903, 30.1860171 ], [ 50.0863809, 30.1860455 ], [ 50.0863514, 30.1861238 ], [ 50.0863132, 30.1861846 ], [ 50.086222, 30.1862843 ], [ 50.0861362, 30.18634 ], [ 50.0860088, 30.1864559 ], [ 50.0859511, 30.1865196 ], [ 50.085874, 30.1865944 ], [ 50.0858626, 30.1866095 ], [ 50.0858539, 30.1866344 ], [ 50.0858505, 30.1866486 ], [ 50.0858522, 30.1866756 ], [ 50.0858606, 30.1866961 ], [ 50.0858887, 30.1867631 ], [ 50.0858948, 30.1867984 ], [ 50.0858884, 30.1868283 ], [ 50.0858793, 30.186846 ], [ 50.0858525, 30.1868796 ], [ 50.0857352, 30.1869799 ], [ 50.0854589, 30.1871398 ], [ 50.0849158, 30.1875618 ], [ 50.084616, 30.1877739 ], [ 50.0845986, 30.1877965 ], [ 50.0845915, 30.1878191 ], [ 50.0845882, 30.1878386 ], [ 50.0845989, 30.1878594 ], [ 50.0846274, 30.1878858 ], [ 50.0847951, 30.1879449 ], [ 50.0848574, 30.1879704 ], [ 50.0848702, 30.1880052 ], [ 50.0848675, 30.1880411 ], [ 50.0848534, 30.1880927 ], [ 50.0848138, 30.1881165 ], [ 50.0847548, 30.1881333 ], [ 50.0846388, 30.1881252 ], [ 50.0845684, 30.1881194 ], [ 50.0845215, 30.1881182 ], [ 50.0844571, 30.1881223 ], [ 50.0843766, 30.1881362 ], [ 50.0841916, 30.1881901 ], [ 50.0839528, 30.188317 ], [ 50.0838945, 30.1883622 ], [ 50.083863, 30.1883854 ], [ 50.0838442, 30.188393 ], [ 50.0838254, 30.1883924 ], [ 50.0837731, 30.1883634 ], [ 50.083743, 30.1883269 ], [ 50.0837135, 30.1882921 ], [ 50.0836685, 30.1882492 ], [ 50.0835874, 30.1882127 ], [ 50.0835076, 30.188197 ], [ 50.0834258, 30.1882098 ], [ 50.0833943, 30.1882249 ], [ 50.0833708, 30.1882457 ], [ 50.0833373, 30.1883107 ], [ 50.0832789, 30.1883785 ], [ 50.0832511, 30.1884005 ], [ 50.0832286, 30.1884132 ], [ 50.0831924, 30.1884173 ], [ 50.0831287, 30.1884092 ], [ 50.0830228, 30.188368 ], [ 50.0828719, 30.1882712 ], [ 50.0826037, 30.1879745 ], [ 50.0823784, 30.1877797 ], [ 50.0820364, 30.1875328 ], [ 50.0819573, 30.1874899 ], [ 50.0819144, 30.1874708 ], [ 50.0818708, 30.1874598 ], [ 50.0818265, 30.1874557 ], [ 50.0817749, 30.1874604 ], [ 50.0817212, 30.1874714 ], [ 50.0816401, 30.1875206 ], [ 50.0810158, 30.1879165 ], [ 50.0805357, 30.1882712 ], [ 50.0801495, 30.188561 ], [ 50.0795835, 30.1889714 ], [ 50.0790766, 30.1893053 ], [ 50.0786689, 30.1895951 ], [ 50.0780922, 30.1900101 ], [ 50.0772473, 30.1905757 ], [ 50.0762415, 30.1912527 ], [ 50.0755575, 30.1916561 ], [ 50.0745785, 30.1923423 ], [ 50.0739723, 30.1927666 ], [ 50.0734466, 30.1930842 ], [ 50.0730631, 30.1933624 ], [ 50.0726835, 30.1936279 ], [ 50.0723389, 30.1938608 ], [ 50.0717005, 30.1943129 ], [ 50.0706518, 30.194947 ], [ 50.0700939, 30.1953028 ], [ 50.0699517, 30.1954042 ], [ 50.0697938, 30.1955187 ], [ 50.0697871, 30.195528 ], [ 50.0697824, 30.1955448 ], [ 50.0697847, 30.1955604 ], [ 50.0697948, 30.195572 ], [ 50.0698089, 30.1955825 ], [ 50.0698471, 30.1955862 ], [ 50.0698749, 30.1955741 ], [ 50.0699537, 30.1955086 ], [ 50.0700711, 30.1954211 ], [ 50.0701435, 30.1954083 ], [ 50.0702763, 30.1954164 ], [ 50.0703688, 30.1954477 ], [ 50.0704291, 30.1954894 ], [ 50.0705633, 30.1955926 ], [ 50.0706759, 30.1957155 ], [ 50.0707617, 30.1958105 ], [ 50.0708476, 30.1958917 ], [ 50.0709133, 30.1959415 ], [ 50.0709709, 30.1959774 ], [ 50.0711225, 30.1960354 ], [ 50.0712157, 30.1961142 ], [ 50.0712207, 30.1961359 ], [ 50.071216, 30.1961548 ], [ 50.0711828, 30.1962011 ], [ 50.0711332, 30.1962174 ], [ 50.0710836, 30.1962226 ], [ 50.0709428, 30.196229 ], [ 50.070802, 30.1962209 ], [ 50.0706249, 30.1961861 ], [ 50.0704721, 30.1961258 ], [ 50.0703299, 30.1960586 ], [ 50.0701556, 30.1958917 ], [ 50.0700208, 30.1957195 ], [ 50.0700003, 30.1956778 ], [ 50.0699869, 30.1956601 ], [ 50.0699702, 30.1956427 ], [ 50.0699577, 30.1956361 ], [ 50.0699329, 30.19563 ], [ 50.069891, 30.1956303 ], [ 50.0698511, 30.195639 ], [ 50.0694823, 30.1957479 ], [ 50.0690612, 30.1959264 ], [ 50.0681841, 30.1962974 ], [ 50.0678616, 30.1964747 ], [ 50.0677788, 30.1965158 ], [ 50.0677392, 30.1965274 ], [ 50.0677101, 30.1965274 ], [ 50.0676531, 30.1965225 ], [ 50.0675957, 30.1965124 ], [ 50.067536, 30.1965176 ], [ 50.0675089, 30.1965289 ], [ 50.0674945, 30.1965445 ], [ 50.0674807, 30.1965697 ], [ 50.0674653, 30.1966097 ], [ 50.067469, 30.1966549 ], [ 50.0674878, 30.1966906 ], [ 50.0674965, 30.196723 ], [ 50.0675002, 30.1968074 ], [ 50.0674948, 30.19687 ], [ 50.0674868, 30.1969297 ], [ 50.0674633, 30.1969754 ], [ 50.0674318, 30.197005 ], [ 50.0673687, 30.1970392 ], [ 50.0673292, 30.197045 ], [ 50.0672313, 30.1970259 ], [ 50.0671488, 30.1970125 ], [ 50.0670844, 30.197023 ], [ 50.066953, 30.1970786 ], [ 50.0668296, 30.1971458 ], [ 50.0664353, 30.1973591 ], [ 50.0661537, 30.1975492 ], [ 50.0656575, 30.1978425 ], [ 50.0654268, 30.1979398 ], [ 50.0651901, 30.1979844 ], [ 50.0650466, 30.197992 ], [ 50.0649695, 30.1980152 ], [ 50.064887, 30.1980685 ], [ 50.0647657, 30.1981369 ], [ 50.0645846, 30.1982354 ], [ 50.0644559, 30.1982887 ], [ 50.0643083, 30.1983119 ], [ 50.0641635, 30.1983374 ], [ 50.0639784, 30.1983397 ], [ 50.0637907, 30.1983165 ], [ 50.0635761, 30.1982771 ], [ 50.0632918, 30.1982053 ], [ 50.0629994, 30.1981195 ], [ 50.0627956, 30.1979978 ], [ 50.0627661, 30.1979607 ], [ 50.0627647, 30.1978981 ], [ 50.0627795, 30.1978436 ], [ 50.0628398, 30.1977799 ], [ 50.0629726, 30.1976883 ], [ 50.0631765, 30.1975793 ], [ 50.0635734, 30.1973823 ], [ 50.0639798, 30.1971957 ], [ 50.0643808, 30.1969302 ], [ 50.0645296, 30.1968306 ], [ 50.0647241, 30.1967204 ], [ 50.0650272, 30.1965558 ], [ 50.065335, 30.1963652 ], [ 50.0653863, 30.1963388 ], [ 50.0654285, 30.1963289 ], [ 50.0654751, 30.1963252 ], [ 50.0655777, 30.1963246 ], [ 50.0657373, 30.1963339 ], [ 50.0658453, 30.1963089 ], [ 50.0660189, 30.1962539 ], [ 50.0660846, 30.1962348 ], [ 50.0661269, 30.1962266 ], [ 50.0661986, 30.1962232 ], [ 50.0664078, 30.1962516 ], [ 50.0666077, 30.1963095 ], [ 50.0667411, 30.1963513 ], [ 50.0667629, 30.1963547 ], [ 50.0668008, 30.1963582 ], [ 50.0668779, 30.1963542 ], [ 50.0670563, 30.1963408 ], [ 50.067132, 30.1963304 ], [ 50.0671522, 30.1963188 ], [ 50.0671736, 30.196306 ], [ 50.0671897, 30.1962881 ], [ 50.0672293, 30.1962435 ], [ 50.0672849, 30.1961814 ], [ 50.067305, 30.1961716 ], [ 50.0673218, 30.1961612 ], [ 50.0674197, 30.1961432 ], [ 50.0675102, 30.1961183 ], [ 50.0675283, 30.1960974 ], [ 50.067531, 30.196069 ], [ 50.0675176, 30.1960168 ], [ 50.0674921, 30.1959867 ], [ 50.0674573, 30.1959682 ], [ 50.0673714, 30.1959496 ], [ 50.0672199, 30.1959543 ], [ 50.0666513, 30.196018 ], [ 50.0665641, 30.1960215 ], [ 50.0665104, 30.1960076 ], [ 50.0664394, 30.1959809 ], [ 50.0663616, 30.1959519 ], [ 50.0662395, 30.1959183 ], [ 50.0660907, 30.1959033 ], [ 50.0659633, 30.1959102 ], [ 50.0658225, 30.1959369 ], [ 50.0656937, 30.1959693 ], [ 50.065577, 30.1960064 ], [ 50.0655073, 30.1960331 ], [ 50.0652833, 30.1961304 ], [ 50.0651264, 30.1962093 ], [ 50.0647992, 30.1963959 ], [ 50.0639114, 30.1968792 ], [ 50.0631644, 30.1972664 ], [ 50.0625864, 30.197577 ], [ 50.0611272, 30.1983246 ], [ 50.0597861, 30.1990247 ], [ 50.0584196, 30.1997132 ], [ 50.0575505, 30.2001282 ], [ 50.0569671, 30.2003774 ], [ 50.0565031, 30.2005999 ], [ 50.0560874, 30.2007599 ], [ 50.0558004, 30.2008619 ], [ 50.0555456, 30.200965 ], [ 50.0552626, 30.2011076 ], [ 50.0547141, 30.2013939 ], [ 50.0542058, 30.2016164 ], [ 50.0537619, 30.2017822 ], [ 50.0525629, 30.2022273 ], [ 50.0517181, 30.2025495 ], [ 50.0510019, 30.2028022 ], [ 50.0503099, 30.2030572 ], [ 50.0495401, 30.2033539 ], [ 50.0487757, 30.2036807 ], [ 50.0480488, 30.2041443 ], [ 50.0475714, 30.2045824 ], [ 50.0473756, 30.2048421 ], [ 50.0471999, 30.2050611 ], [ 50.047106, 30.2051747 ], [ 50.0470349, 30.2053034 ], [ 50.046984, 30.2054726 ], [ 50.0469786, 30.2055769 ], [ 50.0469796, 30.2056163 ], [ 50.0469974, 30.2056441 ], [ 50.0470349, 30.2056719 ], [ 50.0470617, 30.2056812 ], [ 50.0470802, 30.2056829 ], [ 50.0470993, 30.2056766 ], [ 50.0471137, 30.2056531 ], [ 50.0471154, 30.2056232 ], [ 50.04711, 30.2055491 ], [ 50.0470973, 30.2055033 ], [ 50.0471047, 30.2054517 ], [ 50.0471315, 30.2053845 ], [ 50.0472012, 30.2052987 ], [ 50.0473031, 30.205206 ], [ 50.0474828, 30.2051086 ], [ 50.0477135, 30.2050553 ], [ 50.0478476, 30.2050669 ], [ 50.047971, 30.2051179 ], [ 50.0480884, 30.2052396 ], [ 50.0482419, 30.2054494 ], [ 50.0483438, 30.2055746 ], [ 50.0484538, 30.2057438 ], [ 50.0484753, 30.2058782 ], [ 50.0484511, 30.2059686 ], [ 50.0484055, 30.2060359 ], [ 50.0483358, 30.2061008 ], [ 50.0482446, 30.2061541 ], [ 50.0481172, 30.2061854 ], [ 50.0479697, 30.20619 ], [ 50.0477323, 30.2061773 ], [ 50.0475043, 30.2061448 ], [ 50.0473112, 30.2061263 ], [ 50.046815, 30.2061355 ], [ 50.0460801, 30.206219 ], [ 50.0456643, 30.2062955 ], [ 50.044924, 30.206409 ], [ 50.0444949, 30.206525 ], [ 50.0440656, 30.2066177 ], [ 50.0435105, 30.2067127 ], [ 50.0429804, 30.2067783 ], [ 50.0420836, 30.2069584 ], [ 50.040485, 30.2075101 ], [ 50.0385485, 30.2080757 ], [ 50.0361559, 30.2086227 ], [ 50.0360528, 30.2084872 ], [ 50.0354557, 30.2089972 ], [ 50.0341228, 30.209244 ], [ 50.0329587, 30.209485 ], [ 50.0318161, 30.2097075 ], [ 50.0300512, 30.2099672 ], [ 50.0290427, 30.2101016 ], [ 50.0282646, 30.210219 ], [ 50.0277392, 30.2105791 ], [ 50.0276694, 30.2105884 ], [ 50.0272939, 30.210593 ], [ 50.0271169, 30.2105142 ], [ 50.0269613, 30.2103658 ], [ 50.0264301, 30.2102776 ], [ 50.025293, 30.2105559 ], [ 50.024027, 30.2109268 ], [ 50.0220153, 30.2112745 ], [ 50.0203899, 30.2115387 ], [ 50.0173112, 30.2118543 ], [ 50.0163946, 30.2120884 ], [ 50.0149622, 30.2123941 ], [ 50.014638, 30.2127482 ], [ 50.0143516, 30.2125815 ], [ 50.0134501, 30.21267 ], [ 50.0117696, 30.2128797 ], [ 50.0111337, 30.213188 ], [ 50.0109381, 30.2132272 ], [ 50.0106052, 30.213291 ], [ 50.0102833, 30.2132122 ], [ 50.009613, 30.2130415 ], [ 50.0010615, 30.213626 ], [ 50.0, 30.213674687491707 ], [ 50.0, 35.0 ], [ 55.0, 35.0 ], [ 55.0, 30.0 ], [ 50.145514293138334, 30.0 ], [ 50.1462449, 30.006282 ] ] ] ] } },
{ "type": "Feature", "properties": { "FID": 652776, "id": 1668, "left": 50.0, "top": 35.0, "right": 55.0, "bottom": 30.0, "row_index": 11, "col_index": 46, "min_lon": 50.0, "min_lat": 30.0, "tile_id": "50_30" }, "geometry": { "type": "MultiPolygon", "coordinates": [ [ [ [ 50.1275642, 30.1132075 ], [ 50.1277935, 30.1130949 ], [ 50.1279384, 30.1130126 ], [ 50.128098, 30.1129209 ], [ 50.1282307, 30.1128385 ], [ 50.1283354, 30.1127573 ], [ 50.1284681, 30.1126657 ], [ 50.1286961, 30.1125648 ], [ 50.128845, 30.1125079 ], [ 50.1289791, 30.1124661 ], [ 50.1292446, 30.1123432 ], [ 50.1294512, 30.1122376 ], [ 50.1296228, 30.1122121 ], [ 50.1297449, 30.1122179 ], [ 50.1297811, 30.1122063 ], [ 50.1297998, 30.1121819 ], [ 50.1297945, 30.1121506 ], [ 50.1297529, 30.1121181 ], [ 50.1296818, 30.1121042 ], [ 50.1295665, 30.1121054 ], [ 50.1294605, 30.1121251 ], [ 50.1293331, 30.1121715 ], [ 50.1291856, 30.1122237 ], [ 50.1290408, 30.112291 ], [ 50.1287779, 30.1124279 ], [ 50.1284748, 30.1125659 ], [ 50.1280792, 30.1126982 ], [ 50.1276983, 30.1128003 ], [ 50.1274046, 30.1128687 ], [ 50.1272826, 30.1129116 ], [ 50.1271632, 30.1129708 ], [ 50.1269996, 30.1130903 ], [ 50.1267958, 30.1132457 ], [ 50.1265007, 30.1135114 ], [ 50.1262794, 30.1136993 ], [ 50.1259723, 30.1140369 ], [ 50.1258007, 30.1142863 ], [ 50.1257282, 30.1144453 ], [ 50.1256827, 30.1146228 ], [ 50.1257001, 30.1147573 ], [ 50.1257229, 30.1148072 ], [ 50.1257752, 30.1148502 ], [ 50.1258396, 30.1148641 ], [ 50.1260018, 30.1148072 ], [ 50.1261494, 30.1147504 ], [ 50.1262151, 30.114704 ], [ 50.126258, 30.1146727 ], [ 50.1262714, 30.1146216 ], [ 50.1262459, 30.114552 ], [ 50.1262137, 30.1145021 ], [ 50.1261909, 30.1144348 ], [ 50.1261909, 30.1143757 ], [ 50.1262526, 30.1142225 ], [ 50.1263478, 30.1140334 ], [ 50.1266402, 30.1136959 ], [ 50.1268132, 30.113516 ], [ 50.1270036, 30.1133652 ], [ 50.1271082, 30.1133269 ], [ 50.1272732, 30.1132945 ], [ 50.1274355, 30.1132608 ], [ 50.1275642, 30.1132075 ] ] ] ] } },
{ "type": "Feature", "properties": { "FID": 652777, "id": 1668, "left": 50.0, "top": 35.0, "right": 55.0, "bottom": 30.0, "row_index": 11, "col_index": 46, "min_lon": 50.0, "min_lat": 30.0, "tile_id": "50_30" }, "geometry": { "type": "MultiPolygon", "coordinates": [ [ [ [ 50.1235047, 30.1235202 ], [ 50.1234041, 30.1234437 ], [ 50.1232687, 30.1233857 ], [ 50.1231855, 30.1233776 ], [ 50.1228449, 30.1234008 ], [ 50.1227617, 30.1234251 ], [ 50.1227295, 30.1234611 ], [ 50.1227255, 30.1235028 ], [ 50.122755, 30.1235597 ], [ 50.1228636, 30.123642 ], [ 50.1229039, 30.1237047 ], [ 50.1229307, 30.1238021 ], [ 50.1229374, 30.1239274 ], [ 50.1229468, 30.1241107 ], [ 50.1229481, 30.1242116 ], [ 50.1229723, 30.1242487 ], [ 50.1230045, 30.1242789 ], [ 50.1230514, 30.1242823 ], [ 50.1231064, 30.1242707 ], [ 50.1231801, 30.1242046 ], [ 50.1232164, 30.1241431 ], [ 50.1232338, 30.1240851 ], [ 50.1232713, 30.1240399 ], [ 50.123321, 30.1240016 ], [ 50.123384, 30.1239738 ], [ 50.1234698, 30.1239634 ], [ 50.1235503, 30.1239436 ], [ 50.1236066, 30.1239216 ], [ 50.1236482, 30.1238914 ], [ 50.1236817, 30.1238416 ], [ 50.1236898, 30.1237952 ], [ 50.1236898, 30.1237348 ], [ 50.1236536, 30.1236571 ], [ 50.1235047, 30.1235202 ] ] ] ] } },
{ "type": "Feature", "properties": { "FID": 652778, "id": 1668, "left": 50.0, "top": 35.0, "right": 55.0, "bottom": 30.0, "row_index": 11, "col_index": 46, "min_lon": 50.0, "min_lat": 30.0, "tile_id": "50_30" }, "geometry": { "type": "MultiPolygon", "coordinates": [ [ [ [ 50.1189744, 30.1445868 ], [ 50.1189986, 30.1445983 ], [ 50.1190335, 30.1445868 ], [ 50.1190764, 30.1445334 ], [ 50.1191032, 30.1444592 ], [ 50.119122, 30.1443594 ], [ 50.1191837, 30.1442226 ], [ 50.119307, 30.1440022 ], [ 50.1193473, 30.1438979 ], [ 50.1194143, 30.143768 ], [ 50.1194653, 30.1436543 ], [ 50.1195109, 30.143536 ], [ 50.1195618, 30.1434108 ], [ 50.1196209, 30.1432809 ], [ 50.1196772, 30.1431626 ], [ 50.1197496, 30.1430698 ], [ 50.1198354, 30.1428935 ], [ 50.1199079, 30.1428123 ], [ 50.11994, 30.1427683 ], [ 50.1199722, 30.1427265 ], [ 50.1199695, 30.1427033 ], [ 50.1199427, 30.1426964 ], [ 50.1198837, 30.1427196 ], [ 50.1198059, 30.1428147 ], [ 50.1197255, 30.1429144 ], [ 50.1195806, 30.1431301 ], [ 50.1194251, 30.1433713 ], [ 50.1191086, 30.1440625 ], [ 50.1190039, 30.1442574 ], [ 50.1189771, 30.1443919 ], [ 50.1189664, 30.144538 ], [ 50.1189744, 30.1445868 ] ] ] ] } },
{ "type": "Feature", "properties": { "FID": 652779, "id": 1668, "left": 50.0, "top": 35.0, "right": 55.0, "bottom": 30.0, "row_index": 11, "col_index": 46, "min_lon": 50.0, "min_lat": 30.0, "tile_id": "50_30" }, "geometry": { "type": "MultiPolygon", "coordinates": [ [ [ [ 50.1157638, 30.1522059 ], [ 50.1157987, 30.1522268 ], [ 50.1158336, 30.1522198 ], [ 50.1158765, 30.152192 ], [ 50.1158872, 30.1520923 ], [ 50.1158497, 30.1518534 ], [ 50.1158416, 30.1517583 ], [ 50.1158524, 30.1516029 ], [ 50.1158845, 30.1514753 ], [ 50.1158872, 30.1513223 ], [ 50.1159328, 30.1511274 ], [ 50.1159221, 30.1509929 ], [ 50.1159382, 30.1507772 ], [ 50.1159596, 30.1506659 ], [ 50.1159918, 30.1505615 ], [ 50.1160669, 30.1504224 ], [ 50.1161581, 30.1502646 ], [ 50.11626, 30.1500861 ], [ 50.1163164, 30.149882 ], [ 50.1163566, 30.1496732 ], [ 50.11637, 30.1495271 ], [ 50.1163244, 30.149541 ], [ 50.1162386, 30.1496755 ], [ 50.1161635, 30.1498588 ], [ 50.1160991, 30.1500281 ], [ 50.1159382, 30.1503435 ], [ 50.1158711, 30.1505035 ], [ 50.1158041, 30.1507262 ], [ 50.1157558, 30.1509025 ], [ 50.1156539, 30.1513315 ], [ 50.1156405, 30.15148 ], [ 50.1156297, 30.1516818 ], [ 50.1156512, 30.1518534 ], [ 50.1157504, 30.1521758 ], [ 50.1157638, 30.1522059 ] ] ] ] } },
{ "type": "Feature", "properties": { "FID": 652780, "id": 1668, "left": 50.0, "top": 35.0, "right": 55.0, "bottom": 30.0, "row_index": 11, "col_index": 46, "min_lon": 50.0, "min_lat": 30.0, "tile_id": "50_30" }, "geometry": { "type": "MultiPolygon", "coordinates": [ [ [ [ 50.1179177, 30.1285556 ], [ 50.1179163, 30.1285115 ], [ 50.1178935, 30.1284605 ], [ 50.1178707, 30.1283909 ], [ 50.117923, 30.1282587 ], [ 50.1179847, 30.1281983 ], [ 50.1181456, 30.1280986 ], [ 50.1182704, 30.1280139 ], [ 50.1184259, 30.1279234 ], [ 50.1185895, 30.1278179 ], [ 50.1186794, 30.1277924 ], [ 50.1187491, 30.1278225 ], [ 50.1187733, 30.1279084 ], [ 50.1188028, 30.127978 ], [ 50.1188618, 30.1280267 ], [ 50.1189798, 30.1280197 ], [ 50.1190737, 30.1279594 ], [ 50.1191448, 30.1278643 ], [ 50.119181, 30.1278016 ], [ 50.1192306, 30.1277216 ], [ 50.1192373, 30.1276253 ], [ 50.1191998, 30.1275476 ], [ 50.1190777, 30.1274734 ], [ 50.1189637, 30.127456 ], [ 50.1188537, 30.1274931 ], [ 50.1187424, 30.1275557 ], [ 50.1186351, 30.1276207 ], [ 50.1184528, 30.1277228 ], [ 50.1181738, 30.1278968 ], [ 50.1180491, 30.127978 ], [ 50.1178694, 30.128087 ], [ 50.1177125, 30.128203 ], [ 50.1176548, 30.1282958 ], [ 50.1176494, 30.1284373 ], [ 50.117695, 30.1285742 ], [ 50.1176977, 30.1287365 ], [ 50.1177058, 30.1288943 ], [ 50.117695, 30.1290242 ], [ 50.1176709, 30.1291843 ], [ 50.117628, 30.1293652 ], [ 50.1176226, 30.1294627 ], [ 50.1176709, 30.1296274 ], [ 50.1178238, 30.1298083 ], [ 50.1179337, 30.1298941 ], [ 50.1180598, 30.1299197 ], [ 50.1181456, 30.1298733 ], [ 50.1181832, 30.1298037 ], [ 50.1181698, 30.1297433 ], [ 50.118143, 30.1297039 ], [ 50.1179954, 30.1295438 ], [ 50.1178721, 30.1294093 ], [ 50.1178291, 30.1293211 ], [ 50.1178157, 30.1292214 ], [ 50.1178157, 30.1291564 ], [ 50.1178023, 30.1290822 ], [ 50.117813, 30.1290126 ], [ 50.1178238, 30.12895 ], [ 50.1178399, 30.1288804 ], [ 50.1178881, 30.1288247 ], [ 50.1179284, 30.128776 ], [ 50.1179552, 30.1287087 ], [ 50.1179418, 30.1286461 ], [ 50.1179177, 30.1286008 ], [ 50.1179177, 30.1285556 ] ] ] ] } },
{ "type": "Feature", "properties": { "FID": 652781, "id": 1668, "left": 50.0, "top": 35.0, "right": 55.0, "bottom": 30.0, "row_index": 11, "col_index": 46, "min_lon": 50.0, "min_lat": 30.0, "tile_id": "50_30" }, "geometry": { "type": "MultiPolygon", "coordinates": [ [ [ [ 50.11637, 30.134355 ], [ 50.1164076, 30.1342437 ], [ 50.116429, 30.1341834 ], [ 50.1164666, 30.1341231 ], [ 50.1164827, 30.1340372 ], [ 50.1164693, 30.1339491 ], [ 50.1165108, 30.1338366 ], [ 50.116602, 30.1337461 ], [ 50.1167469, 30.1336174 ], [ 50.116834, 30.1335826 ], [ 50.1168662, 30.1335478 ], [ 50.1168609, 30.1335176 ], [ 50.1168153, 30.1335176 ], [ 50.1167214, 30.1335594 ], [ 50.1166382, 30.1335895 ], [ 50.1165658, 30.1336498 ], [ 50.1165149, 30.1337067 ], [ 50.1164183, 30.1338366 ], [ 50.1163512, 30.1339723 ], [ 50.1163244, 30.1340767 ], [ 50.1163137, 30.1342367 ], [ 50.1162896, 30.1343898 ], [ 50.1162627, 30.1345383 ], [ 50.1162815, 30.1346056 ], [ 50.1163325, 30.1346241 ], [ 50.1163647, 30.1345893 ], [ 50.1163593, 30.1345221 ], [ 50.1163566, 30.1344432 ], [ 50.11637, 30.134355 ] ] ] ] } },
{ "type": "Feature", "properties": { "FID": 652782, "id": 1668, "left": 50.0, "top": 35.0, "right": 55.0, "bottom": 30.0, "row_index": 11, "col_index": 46, "min_lon": 50.0, "min_lat": 30.0, "tile_id": "50_30" }, "geometry": { "type": "MultiPolygon", "coordinates": [ [ [ [ 50.1146185, 30.1360299 ], [ 50.1147526, 30.1359719 ], [ 50.1148398, 30.1359301 ], [ 50.1149766, 30.1358617 ], [ 50.1151375, 30.1357979 ], [ 50.1153132, 30.1357561 ], [ 50.1154071, 30.1357585 ], [ 50.1154554, 30.1357306 ], [ 50.1154608, 30.1357074 ], [ 50.1154312, 30.1356796 ], [ 50.1153629, 30.1356645 ], [ 50.1152529, 30.1356865 ], [ 50.1150222, 30.1357318 ], [ 50.1148438, 30.1358083 ], [ 50.1146615, 30.1359034 ], [ 50.1144227, 30.1360507 ], [ 50.1140687, 30.136365 ], [ 50.1138823, 30.1365506 ], [ 50.1136275, 30.1367513 ], [ 50.1135537, 30.1368557 ], [ 50.1135242, 30.1368974 ], [ 50.1135483, 30.1369276 ], [ 50.1135886, 30.136916 ], [ 50.1136583, 30.1368649 ], [ 50.1137924, 30.1367652 ], [ 50.1139292, 30.136626 ], [ 50.1144683, 30.136125 ], [ 50.1146185, 30.1360299 ] ] ] ] } },
{ "type": "Feature", "properties": { "FID": 652783, "id": 1668, "left": 50.0, "top": 35.0, "right": 55.0, "bottom": 30.0, "row_index": 11, "col_index": 46, "min_lon": 50.0, "min_lat": 30.0, "tile_id": "50_30" }, "geometry": { "type": "MultiPolygon", "coordinates": [ [ [ [ 50.0668648, 30.1968897 ], [ 50.066953, 30.1968601 ], [ 50.0669708, 30.1968482 ], [ 50.0669889, 30.1968169 ], [ 50.0669912, 30.1967969 ], [ 50.0669728, 30.196763 ], [ 50.0669433, 30.1967416 ], [ 50.0669265, 30.1967346 ], [ 50.0668863, 30.1967265 ], [ 50.066833, 30.1967265 ], [ 50.0667783, 30.1967358 ], [ 50.0667049, 30.1967517 ], [ 50.0664206, 30.1968178 ], [ 50.0662436, 30.1968723 ], [ 50.066145, 30.1969024 ], [ 50.0659391, 30.1969847 ], [ 50.0658084, 30.1970293 ], [ 50.0656984, 30.1970467 ], [ 50.065512, 30.1970624 ], [ 50.0653987, 30.1970734 ], [ 50.0652384, 30.1970754 ], [ 50.0651281, 30.1970696 ], [ 50.065056, 30.1970766 ], [ 50.0650302, 30.1970864 ], [ 50.0650138, 30.1971018 ], [ 50.0650114, 30.197114 ], [ 50.0650154, 30.1971253 ], [ 50.0650309, 30.1971337 ], [ 50.0650624, 30.1971395 ], [ 50.065341, 30.1971597 ], [ 50.065679, 30.1971655 ], [ 50.0658935, 30.1971528 ], [ 50.0661108, 30.1971099 ], [ 50.0663629, 30.1970601 ], [ 50.0668648, 30.1968897 ] ] ] ] } },
{ "type": "Feature", "properties": { "FID": 657333, "id": 1668, "left": 50.0, "top": 35.0, "right": 55.0, "bottom": 30.0, "row_index": 11, "col_index": 46, "min_lon": 50.0, "min_lat": 30.0, "tile_id": "50_30" }, "geometry": { "type": "MultiPolygon", "coordinates": [ [ [ [ 50.1214528, 30.1221062 ], [ 50.1215091, 30.1221178 ], [ 50.1216084, 30.1221062 ], [ 50.1216781, 30.1220482 ], [ 50.1217049, 30.1219461 ], [ 50.1216781, 30.1218464 ], [ 50.1216003, 30.1218 ], [ 50.121493, 30.1217977 ], [ 50.1214072, 30.1218232 ], [ 50.1213375, 30.1218881 ], [ 50.1213294, 30.1219461 ], [ 50.1213777, 30.1220598 ], [ 50.1214528, 30.1221062 ] ] ] ] } },
{ "type": "Feature", "properties": { "FID": 657334, "id": 1668, "left": 50.0, "top": 35.0, "right": 55.0, "bottom": 30.0, "row_index": 11, "col_index": 46, "min_lon": 50.0, "min_lat": 30.0, "tile_id": "50_30" }, "geometry": { "type": "MultiPolygon", "coordinates": [ [ [ [ 50.1239151, 30.1179858 ], [ 50.1239687, 30.1179974 ], [ 50.1240867, 30.1180206 ], [ 50.1242235, 30.118016 ], [ 50.124355, 30.1180113 ], [ 50.1244515, 30.1179905 ], [ 50.124591, 30.1178768 ], [ 50.1246339, 30.1177793 ], [ 50.1246151, 30.1176703 ], [ 50.1245025, 30.1175612 ], [ 50.1243389, 30.1174545 ], [ 50.1241189, 30.1174197 ], [ 50.1239687, 30.1174243 ], [ 50.1238909, 30.1174754 ], [ 50.1238266, 30.1176169 ], [ 50.1238158, 30.1177584 ], [ 50.1238212, 30.1178582 ], [ 50.1238587, 30.1179533 ], [ 50.1239151, 30.1179858 ] ] ] ] } },
{ "type": "Feature", "properties": { "FID": 657335, "id": 1668, "left": 50.0, "top": 35.0, "right": 55.0, "bottom": 30.0, "row_index": 11, "col_index": 46, "min_lon": 50.0, "min_lat": 30.0, "tile_id": "50_30" }, "geometry": { "type": "MultiPolygon", "coordinates": [ [ [ [ 50.1247278, 30.1168049 ], [ 50.1247787, 30.1167979 ], [ 50.1248592, 30.1167724 ], [ 50.1249692, 30.1166981 ], [ 50.1250094, 30.1166146 ], [ 50.1249933, 30.1165381 ], [ 50.124937, 30.1164917 ], [ 50.1248673, 30.1164708 ], [ 50.1247546, 30.1164777 ], [ 50.1246661, 30.1165056 ], [ 50.1246205, 30.1165798 ], [ 50.1246205, 30.1166425 ], [ 50.1246473, 30.1167144 ], [ 50.1246849, 30.116791 ], [ 50.1247278, 30.1168049 ] ] ] ] } },
{ "type": "Feature", "properties": { "FID": 657336, "id": 1668, "left": 50.0, "top": 35.0, "right": 55.0, "bottom": 30.0, "row_index": 11, "col_index": 46, "min_lon": 50.0, "min_lat": 30.0, "tile_id": "50_30" }, "geometry": { "type": "MultiPolygon", "coordinates": [ [ [ [ 50.1248217, 30.1162109 ], [ 50.1248834, 30.1162295 ], [ 50.1249424, 30.1162248 ], [ 50.1250577, 30.1161576 ], [ 50.1251677, 30.1160067 ], [ 50.1252347, 30.1158675 ], [ 50.1252669, 30.1157167 ], [ 50.1252508, 30.1156332 ], [ 50.1251811, 30.1155914 ], [ 50.125114, 30.1155938 ], [ 50.1249745, 30.115661 ], [ 50.1248109, 30.1157956 ], [ 50.12476, 30.1159 ], [ 50.1247305, 30.1159905 ], [ 50.1247412, 30.116088 ], [ 50.1247841, 30.1161808 ], [ 50.1248217, 30.1162109 ] ] ] ] } },
{ "type": "Feature", "properties": { "FID": 657385, "id": 1668, "left": 50.0, "top": 35.0, "right": 55.0, "bottom": 30.0, "row_index": 11, "col_index": 46, "min_lon": 50.0, "min_lat": 30.0, "tile_id": "50_30" }, "geometry": { "type": "MultiPolygon", "coordinates": [ [ [ [ 50.1484144, 30.0283571 ], [ 50.1482695, 30.0287008 ], [ 50.1481301, 30.0291048 ], [ 50.1480979, 30.0293626 ], [ 50.1481381, 30.0294044 ], [ 50.1481837, 30.0294113 ], [ 50.1482427, 30.0293904 ], [ 50.1482749, 30.0292952 ], [ 50.1483956, 30.0290212 ], [ 50.1484224, 30.0290143 ], [ 50.1484922, 30.0290212 ], [ 50.1485243, 30.0290561 ], [ 50.1485351, 30.029128 ], [ 50.1485378, 30.0294392 ], [ 50.1485753, 30.0299919 ], [ 50.1485163, 30.0304006 ], [ 50.1482749, 30.0309207 ], [ 50.1482373, 30.0311808 ], [ 50.1483071, 30.0315942 ], [ 50.148704, 30.0323744 ], [ 50.1490688, 30.0336283 ], [ 50.1495087, 30.0354488 ], [ 50.1496965, 30.0357367 ], [ 50.1499271, 30.0358157 ], [ 50.1500666, 30.035825 ], [ 50.1502383, 30.0356996 ], [ 50.1505923, 30.0351051 ], [ 50.1514506, 30.0333961 ], [ 50.1529312, 30.0310926 ], [ 50.1535642, 30.0300058 ], [ 50.153929, 30.0296714 ], [ 50.1543903, 30.0293556 ], [ 50.1549214, 30.0290444 ], [ 50.1549724, 30.0289887 ], [ 50.154967, 30.028933 ], [ 50.1548865, 30.0288726 ], [ 50.1546881, 30.0288331 ], [ 50.1544574, 30.0288076 ], [ 50.154275, 30.0287309 ], [ 50.1540108, 30.0286508 ], [ 50.1540041, 30.0286311 ], [ 50.1540121, 30.028616 ], [ 50.1540551, 30.0285905 ], [ 50.1541758, 30.0285742 ], [ 50.1542656, 30.0285498 ], [ 50.1543072, 30.0285185 ], [ 50.1543139, 30.0284616 ], [ 50.1542307, 30.0283164 ], [ 50.1542066, 30.0282712 ], [ 50.1542133, 30.0282398 ], [ 50.1542589, 30.0282131 ], [ 50.1543112, 30.0282247 ], [ 50.1544292, 30.0282932 ], [ 50.1545902, 30.0284035 ], [ 50.1547149, 30.0285161 ], [ 50.1547833, 30.0285452 ], [ 50.1548275, 30.0285359 ], [ 50.1548584, 30.0284918 ], [ 50.1548651, 30.0284325 ], [ 50.1548088, 30.0283222 ], [ 50.1548088, 30.0281109 ], [ 50.1548517, 30.0279251 ], [ 50.1548946, 30.0278497 ], [ 50.1549442, 30.0278288 ], [ 50.1549871, 30.0278346 ], [ 50.1550622, 30.0278543 ], [ 50.1551118, 30.0278427 ], [ 50.1551286, 30.0278206 ], [ 50.1551346, 30.0277974 ], [ 50.1551051, 30.0275989 ], [ 50.1550609, 30.0274967 ], [ 50.1549992, 30.0274677 ], [ 50.1549321, 30.0274677 ], [ 50.1548718, 30.0275408 ], [ 50.1548235, 30.0276325 ], [ 50.1547605, 30.027679 ], [ 50.1546532, 30.027686 ], [ 50.1544574, 30.0277045 ], [ 50.1543394, 30.0277115 ], [ 50.154279, 30.0276929 ], [ 50.1541597, 30.0276116 ], [ 50.1536822, 30.0270381 ], [ 50.1529795, 30.0259605 ], [ 50.1525021, 30.0251199 ], [ 50.1524913, 30.0250502 ], [ 50.1525182, 30.0249341 ], [ 50.1525262, 30.0247762 ], [ 50.1524511, 30.0245625 ], [ 50.1524565, 30.0243303 ], [ 50.1525503, 30.0238844 ], [ 50.1525503, 30.0236383 ], [ 50.1524699, 30.0234478 ], [ 50.1522875, 30.0233085 ], [ 50.1519442, 30.0232156 ], [ 50.1515794, 30.0231877 ], [ 50.1513541, 30.023276 ], [ 50.1512629, 30.0233596 ], [ 50.1512146, 30.0233689 ], [ 50.1511449, 30.0233549 ], [ 50.1504636, 30.0228672 ], [ 50.1502597, 30.0228069 ], [ 50.1500988, 30.0228022 ], [ 50.1500183, 30.0228231 ], [ 50.1499915, 30.0228928 ], [ 50.1500049, 30.0230205 ], [ 50.1501042, 30.0231018 ], [ 50.1501444, 30.0231575 ], [ 50.150131, 30.0232133 ], [ 50.1500854, 30.0232458 ], [ 50.150013, 30.0232597 ], [ 50.149852, 30.0232435 ], [ 50.1497716, 30.023197 ], [ 50.1496831, 30.0230368 ], [ 50.149667, 30.0229706 ], [ 50.1496536, 30.0229567 ], [ 50.1496267, 30.0229462 ], [ 50.1495838, 30.022959 ], [ 50.1495288, 30.0229927 ], [ 50.1493706, 30.0230345 ], [ 50.1492432, 30.0230124 ], [ 50.1491305, 30.0230124 ], [ 50.1490487, 30.0230379 ], [ 50.1488784, 30.0231541 ], [ 50.1486799, 30.0233921 ], [ 50.1483393, 30.023824 ], [ 50.1482534, 30.0240981 ], [ 50.1485109, 30.0259838 ], [ 50.1485324, 30.0271356 ], [ 50.1484144, 30.0283571 ] ] ] ] } },
{ "type": "Feature", "properties": { "FID": 657386, "id": 1668, "left": 50.0, "top": 35.0, "right": 55.0, "bottom": 30.0, "row_index": 11, "col_index": 46, "min_lon": 50.0, "min_lat": 30.0, "tile_id": "50_30" }, "geometry": { "type": "MultiPolygon", "coordinates": [ [ [ [ 50.1483956, 30.0452961 ], [ 50.1484171, 30.0454725 ], [ 50.1486343, 30.0458974 ], [ 50.1487201, 30.0461574 ], [ 50.1487014, 30.0464291 ], [ 50.1487148, 30.0465289 ], [ 50.1487792, 30.0465963 ], [ 50.1489079, 30.0466334 ], [ 50.1492512, 30.0466032 ], [ 50.1493666, 30.0465289 ], [ 50.1494282, 30.04645 ], [ 50.1495141, 30.0456745 ], [ 50.1495355, 30.0448712 ], [ 50.1495489, 30.0446459 ], [ 50.1495355, 30.0445113 ], [ 50.1494175, 30.0443743 ], [ 50.1492646, 30.0442837 ], [ 50.1489267, 30.0442675 ], [ 50.1486397, 30.0443186 ], [ 50.1485163, 30.0444323 ], [ 50.1484519, 30.0445949 ], [ 50.1484439, 30.0448131 ], [ 50.1483956, 30.0452961 ] ] ] ] } }
]
}
