{
"type": "FeatureCollection",
"name": "50_75",
"crs": { "type": "name", "properties": { "name": "urn:ogc:def:crs:OGC:1.3:CRS84" } },
"xy_coordinate_resolution": 1e-15,
"features": [
{ "type": "Feature", "properties": { "FID": 302706, "id": 1659, "left": 50.0, "top": 80.0, "right": 55.0, "bottom": 75.0, "row_index": 2, "col_index": 46, "min_lon": 50.0, "min_lat": 75.0, "tile_id": "50_75" }, "geometry": { "type": "MultiPolygon", "coordinates": [ [ [ [ 51.1451263, 79.9999478 ], [ 51.1444783, 79.9992792 ], [ 51.143888, 79.9984225 ], [ 51.1434786, 79.9973439 ], [ 51.1431066, 79.9960229 ], [ 51.1428492, 79.9944157 ], [ 51.1426213, 79.9939165 ], [ 51.1420547, 79.9934654 ], [ 51.1417071, 79.9932612 ], [ 51.1408986, 79.9929589 ], [ 51.1399203, 79.9927707 ], [ 51.139521, 79.9926556 ], [ 51.1392294, 79.9925334 ], [ 51.1390508, 79.9923952 ], [ 51.138981, 79.9920699 ], [ 51.1391463, 79.9918747 ], [ 51.1398317, 79.9913195 ], [ 51.1398743, 79.9910682 ], [ 51.1397671, 79.9909853 ], [ 51.1395418, 79.9909273 ], [ 51.139301, 79.990896 ], [ 51.138937, 79.9908986 ], [ 51.1385522, 79.9909369 ], [ 51.1376795, 79.9911016 ], [ 51.1372376, 79.9912379 ], [ 51.1360088, 79.9917475 ], [ 51.1349948, 79.9923329 ], [ 51.1342336, 79.9926617 ], [ 51.1334627, 79.9929182 ], [ 51.1325689, 79.9931186 ], [ 51.1316654, 79.9932468 ], [ 51.1307521, 79.9933027 ], [ 51.1298239, 79.9932954 ], [ 51.1288911, 79.993207 ], [ 51.1284712, 79.9931276 ], [ 51.128231, 79.9930063 ], [ 51.1280681, 79.9928413 ], [ 51.1280337, 79.9926336 ], [ 51.1281279, 79.9923832 ], [ 51.1286659, 79.9917264 ], [ 51.129775, 79.9908005 ], [ 51.1301676, 79.9903933 ], [ 51.1303544, 79.9900724 ], [ 51.1303459, 79.9898202 ], [ 51.13005, 79.9896169 ], [ 51.1294822, 79.9894358 ], [ 51.128653, 79.9892591 ], [ 51.1260726, 79.9887995 ], [ 51.1250184, 79.9885649 ], [ 51.1244715, 79.9883481 ], [ 51.1243347, 79.9881386 ], [ 51.1246748, 79.9879105 ], [ 51.1254404, 79.9876629 ], [ 51.1266932, 79.9873789 ], [ 51.1303221, 79.9866594 ], [ 51.1322985, 79.986199 ], [ 51.1341261, 79.985727 ], [ 51.1356203, 79.9852941 ], [ 51.1362006, 79.9850972 ], [ 51.1375351, 79.9847605 ], [ 51.1387717, 79.9845032 ], [ 51.1393358, 79.9844231 ], [ 51.139782, 79.9843679 ], [ 51.14052, 79.9843448 ], [ 51.1408585, 79.9842968 ], [ 51.1414899, 79.9841008 ], [ 51.1417725, 79.9839707 ], [ 51.1420194, 79.983813 ], [ 51.1427362, 79.9830243 ], [ 51.1434963, 79.9826955 ], [ 51.1439837, 79.982569 ], [ 51.1446145, 79.982463 ], [ 51.1452913, 79.9823669 ], [ 51.1461062, 79.9823002 ], [ 51.1474494, 79.9821257 ], [ 51.148542, 79.9818478 ], [ 51.1494199, 79.981494 ], [ 51.1499649, 79.9810894 ], [ 51.1502078, 79.9806705 ], [ 51.1500767, 79.9802721 ], [ 51.1495508, 79.9799297 ], [ 51.1475766, 79.9794089 ], [ 51.1468409, 79.9790718 ], [ 51.1463975, 79.9786769 ], [ 51.1462768, 79.9782606 ], [ 51.1464686, 79.9778408 ], [ 51.146952, 79.9774531 ], [ 51.1477116, 79.9771244 ], [ 51.1487831, 79.9768821 ], [ 51.1502744, 79.9766292 ], [ 51.1506435, 79.9765276 ], [ 51.1507464, 79.9764394 ], [ 51.1505932, 79.9763467 ], [ 51.1501381, 79.9762396 ], [ 51.1475906, 79.9758167 ], [ 51.1469054, 79.9756606 ], [ 51.1464405, 79.9754814 ], [ 51.146155, 79.9752603 ], [ 51.1461156, 79.9749715 ], [ 51.1462303, 79.9745954 ], [ 51.1474585, 79.9727442 ], [ 51.1476036, 79.9724046 ], [ 51.1476065, 79.9718645 ], [ 51.1475051, 79.9716826 ], [ 51.1473164, 79.9715623 ], [ 51.1470864, 79.9715132 ], [ 51.1468305, 79.9715087 ], [ 51.1464878, 79.9714757 ], [ 51.1463653, 79.9714195 ], [ 51.146555, 79.9713598 ], [ 51.1469033, 79.9712939 ], [ 51.1469855, 79.9712413 ], [ 51.1469705, 79.971178 ], [ 51.1468071, 79.9711031 ], [ 51.1462809, 79.9709408 ], [ 51.1443639, 79.970592 ], [ 51.1439654, 79.9704769 ], [ 51.1440372, 79.9704422 ], [ 51.1442062, 79.9704182 ], [ 51.1445747, 79.9704066 ], [ 51.146074, 79.970406 ], [ 51.1463453, 79.9703838 ], [ 51.1464223, 79.9703401 ], [ 51.1464021, 79.9702857 ], [ 51.1461928, 79.970201 ], [ 51.1453498, 79.9699611 ], [ 51.1445787, 79.9696864 ], [ 51.144552, 79.9696674 ], [ 51.1445389, 79.9696604 ], [ 51.1440537, 79.9693441 ], [ 51.1438051, 79.9689705 ], [ 51.1437151, 79.9685908 ], [ 51.1439166, 79.9682432 ], [ 51.1442917, 79.9679527 ], [ 51.1449169, 79.9677656 ], [ 51.1457255, 79.9677078 ], [ 51.1466871, 79.9677427 ], [ 51.147582, 79.9678035 ], [ 51.1484051, 79.967899 ], [ 51.1492588, 79.9680311 ], [ 51.1500918, 79.9681988 ], [ 51.1509502, 79.9684119 ], [ 51.1527381, 79.9689835 ], [ 51.153668, 79.969252 ], [ 51.1548336, 79.9694705 ], [ 51.1560761, 79.9696454 ], [ 51.1574008, 79.9697677 ], [ 51.1587104, 79.9698267 ], [ 51.1599487, 79.9698304 ], [ 51.1610746, 79.9697601 ], [ 51.1626209, 79.9694991 ], [ 51.1632863, 79.9694208 ], [ 51.1639772, 79.9693879 ], [ 51.1645911, 79.9693986 ], [ 51.1651282, 79.9694531 ], [ 51.1654963, 79.9695316 ], [ 51.1657363, 79.9696528 ], [ 51.165756, 79.9698872 ], [ 51.1659349, 79.9699354 ], [ 51.1662367, 79.9699497 ], [ 51.1673064, 79.9698874 ], [ 51.1680741, 79.9698108 ], [ 51.1689699, 79.9696915 ], [ 51.1700346, 79.9695481 ], [ 51.1710022, 79.9693939 ], [ 51.1719236, 79.96923 ], [ 51.1734186, 79.9688781 ], [ 51.173987, 79.9686989 ], [ 51.1748116, 79.9683443 ], [ 51.1750992, 79.9679351 ], [ 51.1753042, 79.9677587 ], [ 51.175632, 79.9676384 ], [ 51.1761386, 79.9675662 ], [ 51.1768753, 79.9675431 ], [ 51.1779495, 79.9675619 ], [ 51.1845124, 79.9678297 ], [ 51.1855458, 79.9678297 ], [ 51.1861956, 79.9677781 ], [ 51.1865794, 79.9676497 ], [ 51.1867537, 79.9674367 ], [ 51.1866991, 79.9662744 ], [ 51.1868019, 79.9659161 ], [ 51.1872166, 79.9656442 ], [ 51.1879942, 79.9654597 ], [ 51.1891503, 79.9653359 ], [ 51.1907921, 79.9652655 ], [ 51.1930322, 79.9652326 ], [ 51.2007755, 79.9652416 ], [ 51.2026525, 79.9652113 ], [ 51.2042277, 79.9651667 ], [ 51.2056086, 79.9651008 ], [ 51.2069076, 79.9649973 ], [ 51.2082219, 79.9648672 ], [ 51.2102725, 79.9646238 ], [ 51.2123026, 79.964416 ], [ 51.2134327, 79.9643367 ], [ 51.2144861, 79.964301 ], [ 51.214982, 79.9641566 ], [ 51.2153447, 79.9638838 ], [ 51.2155999, 79.9635281 ], [ 51.215727, 79.9630352 ], [ 51.2158647, 79.9627945 ], [ 51.216069, 79.962618 ], [ 51.2164012, 79.9624888 ], [ 51.2168663, 79.9623978 ], [ 51.2174695, 79.9623363 ], [ 51.2201997, 79.9622577 ], [ 51.2212171, 79.9621944 ], [ 51.2224184, 79.9620802 ], [ 51.2236912, 79.9619313 ], [ 51.226446, 79.961538 ], [ 51.2278718, 79.9613017 ], [ 51.2322405, 79.9605223 ], [ 51.2335946, 79.9603207 ], [ 51.2360371, 79.9600209 ], [ 51.2380762, 79.9598852 ], [ 51.2396762, 79.9598859 ], [ 51.2414089, 79.9598349 ], [ 51.2423697, 79.9597795 ], [ 51.2443064, 79.959642 ], [ 51.2452313, 79.959559 ], [ 51.247658, 79.9592859 ], [ 51.2498907, 79.9590815 ], [ 51.2509587, 79.9590189 ], [ 51.2516384, 79.9590037 ], [ 51.2518784, 79.9589448 ], [ 51.2520824, 79.9588583 ], [ 51.2522555, 79.9587353 ], [ 51.252396, 79.9582156 ], [ 51.25224, 79.9576728 ], [ 51.2522847, 79.9574125 ], [ 51.2525186, 79.9571825 ], [ 51.2529878, 79.9569926 ], [ 51.2537686, 79.956799 ], [ 51.2549123, 79.9566028 ], [ 51.2564288, 79.9563859 ], [ 51.2602687, 79.9558941 ], [ 51.2620253, 79.9557084 ], [ 51.2636544, 79.9555655 ], [ 51.2653705, 79.9554511 ], [ 51.2671276, 79.9553553 ], [ 51.2689666, 79.955297 ], [ 51.271056, 79.955252 ], [ 51.2733347, 79.9552373 ], [ 51.2768752, 79.9551812 ], [ 51.2801802, 79.9550851 ], [ 51.2816053, 79.9550286 ], [ 51.2839594, 79.9548801 ], [ 51.2855571, 79.9547005 ], [ 51.2863178, 79.9546326 ], [ 51.2870634, 79.9545914 ], [ 51.2877939, 79.9545769 ], [ 51.2885604, 79.9545901 ], [ 51.2893629, 79.9546309 ], [ 51.2903036, 79.954701 ], [ 51.2921649, 79.954877 ], [ 51.2939391, 79.9550245 ], [ 51.2957335, 79.9551363 ], [ 51.298003, 79.9552292 ], [ 51.2997195, 79.9552047 ], [ 51.3015885, 79.9550927 ], [ 51.3034975, 79.9549094 ], [ 51.3053294, 79.9546797 ], [ 51.3069819, 79.954402 ], [ 51.3083888, 79.9541021 ], [ 51.3093358, 79.9537942 ], [ 51.3098078, 79.9535053 ], [ 51.3101826, 79.9532057 ], [ 51.3104772, 79.9530487 ], [ 51.3112757, 79.9527293 ], [ 51.3123196, 79.9524322 ], [ 51.31367, 79.9521402 ], [ 51.31423, 79.9519698 ], [ 51.3146367, 79.9517967 ], [ 51.314854, 79.9515934 ], [ 51.3148921, 79.951342 ], [ 51.3145164, 79.9506335 ], [ 51.3140717, 79.9501399 ], [ 51.313558, 79.949402 ], [ 51.3133697, 79.9490027 ], [ 51.3131975, 79.9482077 ], [ 51.3132035, 79.9478298 ], [ 51.3133548, 79.9471933 ], [ 51.3138384, 79.9466075 ], [ 51.3148125, 79.9460661 ], [ 51.3164602, 79.9455183 ], [ 51.3190618, 79.9449237 ], [ 51.322856, 79.9442235 ], [ 51.3281329, 79.9433596 ], [ 51.3350647, 79.9422988 ], [ 51.3572526, 79.9390045 ], [ 51.3731736, 79.9365837 ], [ 51.3784175, 79.9357635 ], [ 51.3809403, 79.9353923 ], [ 51.3857272, 79.9347443 ], [ 51.3898076, 79.9342553 ], [ 51.3914414, 79.9340939 ], [ 51.3926736, 79.9340068 ], [ 51.3939421, 79.9339472 ], [ 51.3956137, 79.9339034 ], [ 51.4001348, 79.9338268 ], [ 51.4084498, 79.933778 ], [ 51.4113258, 79.9337905 ], [ 51.4186373, 79.9337875 ], [ 51.4214867, 79.9337545 ], [ 51.4239379, 79.9336967 ], [ 51.4261949, 79.9336176 ], [ 51.4282625, 79.9335083 ], [ 51.4304056, 79.9333553 ], [ 51.4326701, 79.9331684 ], [ 51.4364605, 79.932827 ], [ 51.4392377, 79.9325496 ], [ 51.4411693, 79.932312 ], [ 51.4422193, 79.9320866 ], [ 51.4425503, 79.9318581 ], [ 51.4421771, 79.9315999 ], [ 51.4412165, 79.9312868 ], [ 51.43814, 79.9305153 ], [ 51.437102, 79.930156 ], [ 51.4365691, 79.9298141 ], [ 51.4365971, 79.9294816 ], [ 51.4371349, 79.9291576 ], [ 51.4381971, 79.9288155 ], [ 51.4398348, 79.928456 ], [ 51.4420065, 79.9280604 ], [ 51.443306, 79.9278482 ], [ 51.4445761, 79.9276895 ], [ 51.4459238, 79.9275771 ], [ 51.4467018, 79.9275415 ], [ 51.44689, 79.9274888 ], [ 51.4469253, 79.9274925 ], [ 51.4470643, 79.9275038 ], [ 51.4472091, 79.9275127 ], [ 51.4472659, 79.9275156 ], [ 51.4475067, 79.9275046 ], [ 51.44958, 79.9274763 ], [ 51.4522551, 79.9274761 ], [ 51.4557362, 79.9275073 ], [ 51.4640651, 79.9276104 ], [ 51.4672913, 79.9276373 ], [ 51.472183, 79.9276289 ], [ 51.4740061, 79.9275873 ], [ 51.475533, 79.9275227 ], [ 51.4767589, 79.9274442 ], [ 51.4778465, 79.9273363 ], [ 51.4797301, 79.9270887 ], [ 51.4802423, 79.9269982 ], [ 51.480383, 79.9269286 ], [ 51.4802179, 79.9268539 ], [ 51.4797931, 79.9267838 ], [ 51.4778972, 79.9265812 ], [ 51.4770137, 79.9265035 ], [ 51.4761714, 79.9264445 ], [ 51.4746057, 79.9263914 ], [ 51.4738314, 79.9263965 ], [ 51.4722537, 79.9264602 ], [ 51.4698942, 79.9266369 ], [ 51.4684645, 79.926712 ], [ 51.4671609, 79.9267442 ], [ 51.4660346, 79.9267344 ], [ 51.4650807, 79.9266915 ], [ 51.4644109, 79.9265994 ], [ 51.4640153, 79.9264758 ], [ 51.4639451, 79.9263216 ], [ 51.4637002, 79.9261106 ], [ 51.4628485, 79.9258804 ], [ 51.4613804, 79.9256489 ], [ 51.4594997, 79.9254195 ], [ 51.4571555, 79.9251913 ], [ 51.4544352, 79.9249928 ], [ 51.4514505, 79.9248079 ], [ 51.4452845, 79.9245157 ], [ 51.4424579, 79.9243243 ], [ 51.4418163, 79.924267 ], [ 51.4414535, 79.924271 ], [ 51.4413738, 79.9242274 ], [ 51.4401046, 79.9241139 ], [ 51.4392362, 79.9240093 ], [ 51.4373905, 79.9237174 ], [ 51.4352148, 79.9234649 ], [ 51.4344798, 79.9233986 ], [ 51.4304552, 79.923142 ], [ 51.4275204, 79.9228677 ], [ 51.424426, 79.9225096 ], [ 51.4214122, 79.922099 ], [ 51.418622, 79.921656 ], [ 51.4161935, 79.9212101 ], [ 51.4143667, 79.9207924 ], [ 51.4132895, 79.9204142 ], [ 51.4121036, 79.9199533 ], [ 51.4101158, 79.9193618 ], [ 51.4076945, 79.9187179 ], [ 51.4049991, 79.9181054 ], [ 51.4029286, 79.9176655 ], [ 51.4011606, 79.9173296 ], [ 51.399654, 79.9170792 ], [ 51.3982149, 79.9168928 ], [ 51.3967414, 79.9167689 ], [ 51.3950397, 79.9166861 ], [ 51.3930178, 79.9166249 ], [ 51.3905787, 79.9165746 ], [ 51.3888426, 79.9165542 ], [ 51.3853458, 79.916558 ], [ 51.3820739, 79.9166195 ], [ 51.3806039, 79.9166755 ], [ 51.3792866, 79.9167342 ], [ 51.376297, 79.9169355 ], [ 51.3745624, 79.917005 ], [ 51.3729642, 79.9170139 ], [ 51.3715994, 79.9169727 ], [ 51.3705236, 79.9168734 ], [ 51.3697322, 79.9167249 ], [ 51.3692759, 79.9165282 ], [ 51.369224, 79.9161583 ], [ 51.3690287, 79.916047 ], [ 51.3686708, 79.9159509 ], [ 51.3680436, 79.9158772 ], [ 51.3672028, 79.9158179 ], [ 51.3659958, 79.9157704 ], [ 51.3611232, 79.9156605 ], [ 51.3585007, 79.9155708 ], [ 51.3574005, 79.9155161 ], [ 51.3555664, 79.9153948 ], [ 51.3549902, 79.915322 ], [ 51.354291, 79.9151931 ], [ 51.353567, 79.9151087 ], [ 51.3511979, 79.9149333 ], [ 51.3479076, 79.9147512 ], [ 51.3398773, 79.914407 ], [ 51.3335421, 79.9140647 ], [ 51.3300278, 79.9138245 ], [ 51.325754, 79.9134723 ], [ 51.3244606, 79.9133961 ], [ 51.3233559, 79.9133501 ], [ 51.3222362, 79.9133309 ], [ 51.3212083, 79.9133313 ], [ 51.3201605, 79.9133674 ], [ 51.318045, 79.9134751 ], [ 51.3156589, 79.9135151 ], [ 51.3143257, 79.9135102 ], [ 51.311287, 79.9134311 ], [ 51.3058754, 79.913185 ], [ 51.3039615, 79.9131161 ], [ 51.3020426, 79.9130561 ], [ 51.3000578, 79.9130219 ], [ 51.2960733, 79.9129803 ], [ 51.2867778, 79.9130631 ], [ 51.2813791, 79.9130689 ], [ 51.2770843, 79.9130307 ], [ 51.2751204, 79.9130507 ], [ 51.2701194, 79.9131713 ], [ 51.2641979, 79.9133748 ], [ 51.2579814, 79.9136451 ], [ 51.2448962, 79.9142461 ], [ 51.2401744, 79.9144161 ], [ 51.235956, 79.9145137 ], [ 51.2316253, 79.9145373 ], [ 51.2267042, 79.9145146 ], [ 51.2206329, 79.9144357 ], [ 51.2080987, 79.9142437 ], [ 51.1981856, 79.9141421 ], [ 51.1884457, 79.9140974 ], [ 51.1801663, 79.914105 ], [ 51.1709655, 79.9141952 ], [ 51.1650318, 79.9142348 ], [ 51.159831, 79.9142511 ], [ 51.1544928, 79.9142379 ], [ 51.1509711, 79.9142838 ], [ 51.1471081, 79.9143866 ], [ 51.1452656, 79.914462 ], [ 51.1435247, 79.9145393 ], [ 51.1383117, 79.9148432 ], [ 51.1359041, 79.9149176 ], [ 51.1350339, 79.9149112 ], [ 51.1343827, 79.9148817 ], [ 51.133859, 79.9148094 ], [ 51.1334016, 79.9147112 ], [ 51.1321404, 79.9145808 ], [ 51.1296425, 79.9144555 ], [ 51.1262134, 79.9143407 ], [ 51.122311, 79.9142444 ], [ 51.1183371, 79.9141828 ], [ 51.1146988, 79.9141632 ], [ 51.1117064, 79.914182 ], [ 51.1094411, 79.9142768 ], [ 51.1083674, 79.9142667 ], [ 51.1069583, 79.9142146 ], [ 51.1054224, 79.9141152 ], [ 51.1030121, 79.9139282 ], [ 51.1014607, 79.9138556 ], [ 51.0999905, 79.9138204 ], [ 51.0986978, 79.9138333 ], [ 51.0975828, 79.9138945 ], [ 51.0967523, 79.9139967 ], [ 51.0961607, 79.9141303 ], [ 51.0958484, 79.9143138 ], [ 51.094583, 79.9146334 ], [ 51.0915574, 79.9148855 ], [ 51.0873417, 79.9150624 ], [ 51.0825006, 79.915165 ], [ 51.0776097, 79.9151766 ], [ 51.0732899, 79.9150903 ], [ 51.0700503, 79.9149152 ], [ 51.0685222, 79.9146267 ], [ 51.0681071, 79.9144572 ], [ 51.0674833, 79.9142929 ], [ 51.0666913, 79.9141527 ], [ 51.0658733, 79.914057 ], [ 51.0646222, 79.9139985 ], [ 51.0629838, 79.9139872 ], [ 51.0611159, 79.9140167 ], [ 51.0591305, 79.9140711 ], [ 51.0572313, 79.9141541 ], [ 51.0556777, 79.9142613 ], [ 51.0545819, 79.9143767 ], [ 51.0541019, 79.9144941 ], [ 51.0531835, 79.9146577 ], [ 51.0508444, 79.9148768 ], [ 51.0474615, 79.9151222 ], [ 51.0435084, 79.9153753 ], [ 51.0394128, 79.9156077 ], [ 51.0354959, 79.9157984 ], [ 51.0322366, 79.9159197 ], [ 51.0283067, 79.9159569 ], [ 51.0259946, 79.9160413 ], [ 51.0234983, 79.9161764 ], [ 51.0180091, 79.9165905 ], [ 51.0168425, 79.9166505 ], [ 51.0158494, 79.9166776 ], [ 51.0148826, 79.9166601 ], [ 51.0139825, 79.9166168 ], [ 51.0130068, 79.9165271 ], [ 51.0099589, 79.9162018 ], [ 51.0092115, 79.9161613 ], [ 51.0085501, 79.9161493 ], [ 51.0079132, 79.9161828 ], [ 51.0072501, 79.9162609 ], [ 51.0051202, 79.9166456 ], [ 51.003778, 79.9168284 ], [ 51.003013, 79.9169046 ], [ 51.0015655, 79.9170045 ], [ 51.0008829, 79.9170281 ], [ 50.9983124, 79.9170266 ], [ 50.9960156, 79.917084 ], [ 50.9935397, 79.9171832 ], [ 50.9909812, 79.9173349 ], [ 50.9884016, 79.9175222 ], [ 50.9859587, 79.9177391 ], [ 50.9837649, 79.9179694 ], [ 50.980507, 79.9184325 ], [ 50.9793379, 79.9185824 ], [ 50.9783585, 79.9186727 ], [ 50.9773599, 79.9187085 ], [ 50.9762912, 79.9186891 ], [ 50.9749489, 79.9186106 ], [ 50.9685312, 79.9180705 ], [ 50.9664576, 79.9179247 ], [ 50.9647031, 79.9178477 ], [ 50.9633695, 79.9178414 ], [ 50.9623094, 79.9178941 ], [ 50.9615175, 79.9180147 ], [ 50.9609938, 79.9182033 ], [ 50.9604563, 79.9187609 ], [ 50.9600937, 79.9190245 ], [ 50.9595488, 79.9192487 ], [ 50.9589285, 79.9194266 ], [ 50.9581205, 79.9195739 ], [ 50.9572426, 79.919666 ], [ 50.9562894, 79.9197116 ], [ 50.9535549, 79.9197248 ], [ 50.9527544, 79.9197732 ], [ 50.9522485, 79.919845 ], [ 50.9520322, 79.9199491 ], [ 50.9516334, 79.9200139 ], [ 50.9510258, 79.9200839 ], [ 50.948204, 79.9203295 ], [ 50.9444606, 79.9205673 ], [ 50.9420426, 79.9207393 ], [ 50.9393571, 79.9210144 ], [ 50.9388458, 79.9210951 ], [ 50.9382008, 79.9212274 ], [ 50.9377054, 79.9212814 ], [ 50.9370171, 79.9213138 ], [ 50.9350457, 79.9213408 ], [ 50.9338188, 79.9213273 ], [ 50.9289136, 79.9211834 ], [ 50.9271268, 79.9211597 ], [ 50.9254312, 79.9211556 ], [ 50.9237651, 79.9211881 ], [ 50.9219706, 79.9212632 ], [ 50.9200529, 79.9213721 ], [ 50.9179102, 79.9215129 ], [ 50.9154246, 79.9217105 ], [ 50.9118219, 79.9219685 ], [ 50.9073886, 79.9222383 ], [ 50.9024916, 79.9225085 ], [ 50.8926432, 79.9229666 ], [ 50.8883243, 79.9231301 ], [ 50.8848171, 79.9232275 ], [ 50.8812456, 79.9232607 ], [ 50.8779258, 79.9233885 ], [ 50.8752222, 79.9235187 ], [ 50.8642511, 79.9241263 ], [ 50.8545707, 79.9246405 ], [ 50.8450236, 79.9251029 ], [ 50.8360227, 79.9255121 ], [ 50.8279862, 79.9258579 ], [ 50.8211907, 79.9261096 ], [ 50.8160602, 79.9262481 ], [ 50.8125383, 79.9262815 ], [ 50.8120129, 79.9262987 ], [ 50.8102967, 79.9264108 ], [ 50.8078099, 79.9266886 ], [ 50.8067372, 79.9267586 ], [ 50.8062322, 79.9267789 ], [ 50.805917, 79.9268175 ], [ 50.8039815, 79.9268693 ], [ 50.8036753, 79.9268816 ], [ 50.7998151, 79.9269625 ], [ 50.7912725, 79.9270368 ], [ 50.7893451, 79.9270727 ], [ 50.7860902, 79.9271739 ], [ 50.7848646, 79.927241 ], [ 50.7839444, 79.9273138 ], [ 50.7816839, 79.9276408 ], [ 50.7795851, 79.9278717 ], [ 50.7788795, 79.9279305 ], [ 50.775615, 79.9281304 ], [ 50.7721631, 79.9282998 ], [ 50.7680891, 79.9284755 ], [ 50.7594934, 79.9288003 ], [ 50.7522525, 79.9290152 ], [ 50.7499116, 79.9290521 ], [ 50.746807, 79.9290747 ], [ 50.7449809, 79.9291123 ], [ 50.7403789, 79.9292236 ], [ 50.7294173, 79.9295389 ], [ 50.7254702, 79.9295904 ], [ 50.7084127, 79.9296814 ], [ 50.6988666, 79.9297884 ], [ 50.6944266, 79.9298031 ], [ 50.6910494, 79.9297658 ], [ 50.6849152, 79.9295228 ], [ 50.6785155, 79.9292927 ], [ 50.6767668, 79.9292052 ], [ 50.6751932, 79.9290851 ], [ 50.6736306, 79.9289471 ], [ 50.6706687, 79.9285752 ], [ 50.6691277, 79.9283205 ], [ 50.665326, 79.9276441 ], [ 50.6635475, 79.9273578 ], [ 50.6618152, 79.9271624 ], [ 50.6600726, 79.927066 ], [ 50.6581216, 79.9270557 ], [ 50.6556569, 79.9271256 ], [ 50.6525819, 79.927265 ], [ 50.6434536, 79.9277748 ], [ 50.6392591, 79.9279737 ], [ 50.6358782, 79.928107 ], [ 50.6329661, 79.9281502 ], [ 50.630257, 79.9281161 ], [ 50.6273947, 79.927998 ], [ 50.6242153, 79.9278107 ], [ 50.6163632, 79.927272 ], [ 50.6131389, 79.9270746 ], [ 50.6105372, 79.9269524 ], [ 50.608507, 79.9269042 ], [ 50.6069973, 79.9269291 ], [ 50.605799, 79.9270322 ], [ 50.6049176, 79.9272044 ], [ 50.6030259, 79.9278348 ], [ 50.6010817, 79.9281397 ], [ 50.5980061, 79.9283597 ], [ 50.5933748, 79.9285135 ], [ 50.5868769, 79.928604 ], [ 50.578094, 79.9286412 ], [ 50.5666642, 79.9286267 ], [ 50.5521635, 79.9285792 ], [ 50.5458294, 79.928573 ], [ 50.5400382, 79.9286043 ], [ 50.5354118, 79.9286673 ], [ 50.5336811, 79.9287146 ], [ 50.5312942, 79.9288213 ], [ 50.5300328, 79.9288597 ], [ 50.5286359, 79.9288685 ], [ 50.5271033, 79.9288476 ], [ 50.5253276, 79.9288039 ], [ 50.5232636, 79.9287275 ], [ 50.5208604, 79.9286174 ], [ 50.5004332, 79.9276043 ], [ 50.494322, 79.9273311 ], [ 50.4896411, 79.927158 ], [ 50.4858814, 79.927075 ], [ 50.4828449, 79.9270694 ], [ 50.4801811, 79.9271251 ], [ 50.4748808, 79.9273543 ], [ 50.4700955, 79.9275034 ], [ 50.4669112, 79.9275668 ], [ 50.4640043, 79.9275996 ], [ 50.46082, 79.9276629 ], [ 50.45914, 79.9277109 ], [ 50.4559835, 79.9278108 ], [ 50.4507389, 79.9280317 ], [ 50.4496415, 79.928055 ], [ 50.4486066, 79.9280616 ], [ 50.4476397, 79.9280425 ], [ 50.446792, 79.9279987 ], [ 50.4460008, 79.927947 ], [ 50.4446, 79.927802 ], [ 50.443086, 79.9276729 ], [ 50.4404583, 79.9275127 ], [ 50.4387908, 79.9274616 ], [ 50.4365683, 79.9274717 ], [ 50.4334741, 79.9275546 ], [ 50.4299266, 79.9277006 ], [ 50.4262033, 79.9278792 ], [ 50.4227227, 79.9280805 ], [ 50.4197565, 79.928283 ], [ 50.4176784, 79.9284671 ], [ 50.416862, 79.9286132 ], [ 50.4165266, 79.9287327 ], [ 50.4157957, 79.9288264 ], [ 50.4147259, 79.9288862 ], [ 50.4135151, 79.9289253 ], [ 50.4123216, 79.9289376 ], [ 50.4111512, 79.9289143 ], [ 50.4102642, 79.9288516 ], [ 50.4097114, 79.9287505 ], [ 50.409131, 79.9286127 ], [ 50.4082614, 79.9285233 ], [ 50.4071651, 79.9284654 ], [ 50.405989, 79.928451 ], [ 50.404688, 79.9284702 ], [ 50.4034089, 79.9285348 ], [ 50.4022141, 79.9286282 ], [ 50.4011939, 79.9287702 ], [ 50.4000764, 79.9289823 ], [ 50.3998149, 79.9290673 ], [ 50.3997685, 79.9291385 ], [ 50.3998748, 79.9292127 ], [ 50.4001337, 79.92929 ], [ 50.4022498, 79.9296026 ], [ 50.4029655, 79.9297701 ], [ 50.4032187, 79.9298563 ], [ 50.403421, 79.9299415 ], [ 50.403526, 79.9300968 ], [ 50.4030423, 79.9302856 ], [ 50.4019524, 79.9305343 ], [ 50.4004204, 79.9308284 ], [ 50.398634, 79.9311173 ], [ 50.3967514, 79.9313953 ], [ 50.3949544, 79.931621 ], [ 50.3934132, 79.9317706 ], [ 50.3923488, 79.9318215 ], [ 50.3909397, 79.9318475 ], [ 50.3890086, 79.9319622 ], [ 50.3867315, 79.9321331 ], [ 50.3821245, 79.932555 ], [ 50.3802253, 79.9327786 ], [ 50.3789149, 79.9329688 ], [ 50.378352, 79.9331198 ], [ 50.3779637, 79.9333194 ], [ 50.3770924, 79.9336266 ], [ 50.3758182, 79.9339978 ], [ 50.3735096, 79.9346098 ], [ 50.372206, 79.9350255 ], [ 50.371282, 79.9354128 ], [ 50.3709618, 79.9355867 ], [ 50.3708176, 79.9357281 ], [ 50.3708901, 79.9360901 ], [ 50.3706251, 79.9363373 ], [ 50.3700095, 79.9365684 ], [ 50.3690316, 79.9368013 ], [ 50.3676346, 79.9370438 ], [ 50.3658752, 79.9372881 ], [ 50.3637477, 79.9375431 ], [ 50.3610932, 79.9378145 ], [ 50.3592217, 79.9379934 ], [ 50.3576397, 79.938124 ], [ 50.3562848, 79.9382231 ], [ 50.3550609, 79.9382797 ], [ 50.3539681, 79.9382939 ], [ 50.3529496, 79.9382734 ], [ 50.3519486, 79.9382263 ], [ 50.3480716, 79.9379231 ], [ 50.3456173, 79.9378108 ], [ 50.3435687, 79.9377877 ], [ 50.3420334, 79.937847 ], [ 50.3410623, 79.9379898 ], [ 50.3408258, 79.9381924 ], [ 50.3413749, 79.9384559 ], [ 50.3432112, 79.9388805 ], [ 50.3442972, 79.9391908 ], [ 50.346066, 79.9398755 ], [ 50.3477531, 79.9406848 ], [ 50.3483593, 79.9409404 ], [ 50.3490398, 79.9411614 ], [ 50.3496987, 79.9413369 ], [ 50.3503751, 79.9414857 ], [ 50.3510239, 79.9415979 ], [ 50.351753, 79.9416666 ], [ 50.3538066, 79.9417619 ], [ 50.3554118, 79.9419113 ], [ 50.3570897, 79.9421072 ], [ 50.3585464, 79.9423257 ], [ 50.3596014, 79.9425271 ], [ 50.3603624, 79.9427047 ], [ 50.3607551, 79.9428929 ], [ 50.3608013, 79.9431372 ], [ 50.3605284, 79.9434744 ], [ 50.359868, 79.94393 ], [ 50.3588476, 79.9445407 ], [ 50.3574379, 79.945351 ], [ 50.3555368, 79.9463588 ], [ 50.3535742, 79.9473023 ], [ 50.3517793, 79.9480688 ], [ 50.3510764, 79.9483522 ], [ 50.3498504, 79.9487244 ], [ 50.3478703, 79.9493789 ], [ 50.3465286, 79.949848 ], [ 50.3454141, 79.9502854 ], [ 50.344558, 79.9505658 ], [ 50.3434469, 79.9508411 ], [ 50.342018, 79.951128 ], [ 50.3400616, 79.9514314 ], [ 50.3376678, 79.9517711 ], [ 50.3346267, 79.9521518 ], [ 50.3308755, 79.9525904 ], [ 50.320883, 79.953715 ], [ 50.3165499, 79.95425 ], [ 50.3133072, 79.9546986 ], [ 50.3110353, 79.9550857 ], [ 50.3096147, 79.9554358 ], [ 50.3090396, 79.9557578 ], [ 50.3091905, 79.9560765 ], [ 50.3100104, 79.9563996 ], [ 50.3111443, 79.9566388 ], [ 50.3125531, 79.9567754 ], [ 50.3141287, 79.9568161 ], [ 50.3157062, 79.9567758 ], [ 50.3172288, 79.9566621 ], [ 50.3185434, 79.9564722 ], [ 50.319491, 79.9562117 ], [ 50.3202972, 79.9556959 ], [ 50.3208053, 79.9555529 ], [ 50.3211525, 79.9554967 ], [ 50.3214939, 79.9554495 ], [ 50.3218686, 79.95543 ], [ 50.3222825, 79.9554293 ], [ 50.3241051, 79.9553307 ], [ 50.3270887, 79.955039 ], [ 50.3308528, 79.9545827 ], [ 50.335044, 79.9540266 ], [ 50.3393267, 79.9534093 ], [ 50.343303, 79.9527858 ], [ 50.3466827, 79.9522043 ], [ 50.3491248, 79.9517123 ], [ 50.3508963, 79.951297 ], [ 50.352564, 79.9509607 ], [ 50.3538947, 79.9507439 ], [ 50.3543945, 79.9506908 ], [ 50.354769, 79.9506712 ], [ 50.3553692, 79.9507013 ], [ 50.3557362, 79.9507718 ], [ 50.3558248, 79.9508727 ], [ 50.3555841, 79.9510031 ], [ 50.355116, 79.9511651 ], [ 50.3543244, 79.9513476 ], [ 50.3532996, 79.9515705 ], [ 50.3512456, 79.9519441 ], [ 50.3500442, 79.9521996 ], [ 50.3490626, 79.9525135 ], [ 50.3489648, 79.9525837 ], [ 50.3490375, 79.9526302 ], [ 50.3489146, 79.9528171 ], [ 50.3477347, 79.953118 ], [ 50.3458391, 79.9534858 ], [ 50.3434608, 79.9538799 ], [ 50.3408901, 79.9542521 ], [ 50.3385191, 79.9545562 ], [ 50.3365813, 79.9547518 ], [ 50.3353788, 79.9547727 ], [ 50.3344666, 79.9547454 ], [ 50.3333033, 79.9547852 ], [ 50.3321048, 79.9548783 ], [ 50.3309221, 79.9550259 ], [ 50.3297668, 79.95521 ], [ 50.3288548, 79.9554171 ], [ 50.3281409, 79.9556372 ], [ 50.3276292, 79.9559425 ], [ 50.3273429, 79.956063 ], [ 50.3263151, 79.956367 ], [ 50.3256305, 79.9565426 ], [ 50.3240003, 79.9568975 ], [ 50.3214988, 79.9573972 ], [ 50.320192, 79.9577316 ], [ 50.3191972, 79.9580633 ], [ 50.3185713, 79.9583843 ], [ 50.318224, 79.9586749 ], [ 50.3182632, 79.9589282 ], [ 50.3186892, 79.9591441 ], [ 50.3194566, 79.9593128 ], [ 50.3197902, 79.9593556 ], [ 50.3205949, 79.9593898 ], [ 50.3213329, 79.9593686 ], [ 50.3217136, 79.9593402 ], [ 50.3220492, 79.9593019 ], [ 50.3223455, 79.9592447 ], [ 50.3232208, 79.9591721 ], [ 50.3244279, 79.9592234 ], [ 50.3258823, 79.9593699 ], [ 50.3273408, 79.9595885 ], [ 50.3287699, 79.9598517 ], [ 50.3298812, 79.9601265 ], [ 50.3306294, 79.960403 ], [ 50.3308338, 79.9606415 ], [ 50.3308419, 79.9607859 ], [ 50.3309598, 79.9608424 ], [ 50.3313269, 79.9609129 ], [ 50.3315762, 79.9609269 ], [ 50.3321553, 79.9609115 ], [ 50.3328639, 79.9609347 ], [ 50.3336769, 79.9611133 ], [ 50.3345215, 79.9614008 ], [ 50.3353191, 79.9617594 ], [ 50.3360364, 79.9621615 ], [ 50.3365437, 79.9625684 ], [ 50.3368586, 79.9629534 ], [ 50.3368225, 79.9635568 ], [ 50.3370783, 79.9637964 ], [ 50.3376245, 79.9639877 ], [ 50.3383592, 79.9641286 ], [ 50.339294, 79.9642015 ], [ 50.3403662, 79.9642229 ], [ 50.3415933, 79.9641664 ], [ 50.3428614, 79.9640475 ], [ 50.3440468, 79.9638188 ], [ 50.3451041, 79.9634703 ], [ 50.3460041, 79.9630465 ], [ 50.3466212, 79.962581 ], [ 50.3469713, 79.9621282 ], [ 50.3470368, 79.9617147 ], [ 50.3466864, 79.9613831 ], [ 50.3459928, 79.9611799 ], [ 50.34549, 79.9610797 ], [ 50.3451972, 79.9609746 ], [ 50.3452166, 79.9608668 ], [ 50.3455656, 79.9607295 ], [ 50.3454987, 79.9606741 ], [ 50.3453297, 79.9606166 ], [ 50.3445835, 79.9604935 ], [ 50.3434172, 79.9603799 ], [ 50.3419389, 79.9602692 ], [ 50.3412596, 79.9602014 ], [ 50.3401228, 79.9600434 ], [ 50.3394119, 79.9598669 ], [ 50.3392606, 79.9597827 ], [ 50.3391815, 79.9595106 ], [ 50.3389299, 79.9593432 ], [ 50.3384507, 79.9592074 ], [ 50.3377891, 79.959113 ], [ 50.337053, 79.9590531 ], [ 50.3362758, 79.9590556 ], [ 50.3355203, 79.9591035 ], [ 50.3340056, 79.9593617 ], [ 50.3336818, 79.9593822 ], [ 50.3334267, 79.9593771 ], [ 50.3329358, 79.9592591 ], [ 50.3321128, 79.9587827 ], [ 50.3315845, 79.9585647 ], [ 50.3309818, 79.9583813 ], [ 50.3302594, 79.9582225 ], [ 50.3302319, 79.9581859 ], [ 50.3304143, 79.9581445 ], [ 50.3311422, 79.9580599 ], [ 50.3317329, 79.9580267 ], [ 50.3340543, 79.9579561 ], [ 50.3355651, 79.9578601 ], [ 50.3361792, 79.9577913 ], [ 50.3367422, 79.9577215 ], [ 50.3371581, 79.9576396 ], [ 50.3374209, 79.9575547 ], [ 50.3377775, 79.9573275 ], [ 50.3381992, 79.9572367 ], [ 50.3386819, 79.9572104 ], [ 50.3389821, 79.9572254 ], [ 50.3395591, 79.9572911 ], [ 50.3401262, 79.9572934 ], [ 50.3403479, 79.9572708 ], [ 50.3407696, 79.9571801 ], [ 50.3410534, 79.9569063 ], [ 50.3412141, 79.9568193 ], [ 50.3414024, 79.956769 ], [ 50.3417202, 79.9567574 ], [ 50.3421735, 79.9567755 ], [ 50.3435141, 79.9569376 ], [ 50.3444583, 79.9570737 ], [ 50.3462154, 79.9573884 ], [ 50.3482929, 79.9578448 ], [ 50.3504199, 79.9583833 ], [ 50.352512, 79.9589752 ], [ 50.354355, 79.959553 ], [ 50.3558644, 79.9600881 ], [ 50.3568201, 79.960522 ], [ 50.357098, 79.9608071 ], [ 50.3570202, 79.9610039 ], [ 50.3572211, 79.9611702 ], [ 50.3577006, 79.961306 ], [ 50.3585098, 79.9614123 ], [ 50.3597902, 79.96151 ], [ 50.3615985, 79.9615913 ], [ 50.3700982, 79.9618782 ], [ 50.372598, 79.9620092 ], [ 50.3742125, 79.9621496 ], [ 50.3746879, 79.9622132 ], [ 50.3751823, 79.9624845 ], [ 50.3764759, 79.9627988 ], [ 50.3785515, 79.9631827 ], [ 50.381256, 79.9636333 ], [ 50.3844991, 79.9641307 ], [ 50.3882414, 79.9646559 ], [ 50.3922905, 79.9651872 ], [ 50.4006687, 79.9662192 ], [ 50.4059877, 79.9669468 ], [ 50.4083265, 79.9673267 ], [ 50.4106642, 79.9677878 ], [ 50.4130823, 79.9682053 ], [ 50.4161356, 79.9686805 ], [ 50.4232813, 79.9697054 ], [ 50.43039, 79.9706302 ], [ 50.4334749, 79.9709796 ], [ 50.4361406, 79.9712576 ], [ 50.4390224, 79.9715218 ], [ 50.4421146, 79.9717811 ], [ 50.4454683, 79.9720365 ], [ 50.4490324, 79.972287 ], [ 50.4529544, 79.9725446 ], [ 50.4571379, 79.9727981 ], [ 50.4676747, 79.9733928 ], [ 50.4814658, 79.9742402 ], [ 50.488343, 79.9745732 ], [ 50.4983675, 79.9750036 ], [ 50.5127953, 79.9755917 ], [ 50.5194248, 79.975829 ], [ 50.5267423, 79.9760435 ], [ 50.5343386, 79.9762273 ], [ 50.541958, 79.9763752 ], [ 50.5492424, 79.9764804 ], [ 50.555828, 79.9765449 ], [ 50.5614705, 79.976546 ], [ 50.5657947, 79.9765034 ], [ 50.5697154, 79.976444 ], [ 50.5733406, 79.9764419 ], [ 50.5766137, 79.9765051 ], [ 50.579438, 79.9766227 ], [ 50.5816657, 79.9767828 ], [ 50.583297, 79.9769855 ], [ 50.5842238, 79.9772377 ], [ 50.5842745, 79.9773984 ], [ 50.5844163, 79.9774236 ], [ 50.5844715, 79.9774326 ], [ 50.5842956, 79.9774652 ], [ 50.5843096, 79.9775097 ], [ 50.5839351, 79.9777729 ], [ 50.58322, 79.9782458 ], [ 50.5823513, 79.9786346 ], [ 50.5813687, 79.9789581 ], [ 50.5808232, 79.9790828 ], [ 50.5799882, 79.9793371 ], [ 50.5792442, 79.9796922 ], [ 50.5786196, 79.9801038 ], [ 50.5781826, 79.980546 ], [ 50.5778991, 79.9809911 ], [ 50.5778428, 79.9814046 ], [ 50.5779912, 79.9817409 ], [ 50.5784122, 79.9819744 ], [ 50.5788161, 79.9820723 ], [ 50.5799421, 79.9822562 ], [ 50.5813467, 79.9824095 ], [ 50.5829332, 79.9825212 ], [ 50.5845992, 79.9825893 ], [ 50.5855432, 79.9826526 ], [ 50.5868486, 79.9827703 ], [ 50.5868935, 79.9827595 ], [ 50.5869468, 79.9827792 ], [ 50.5889725, 79.9829619 ], [ 50.5912817, 79.9832407 ], [ 50.5951841, 79.9837844 ], [ 50.5974482, 79.9840532 ], [ 50.5982388, 79.9841135 ], [ 50.5987396, 79.9842222 ], [ 50.5991274, 79.9845091 ], [ 50.5994359, 79.9849206 ], [ 50.5996446, 79.985979 ], [ 50.5995443, 79.9865448 ], [ 50.5993186, 79.9870632 ], [ 50.5982022, 79.9882494 ], [ 50.5976192, 79.9890853 ], [ 50.5972069, 79.9899786 ], [ 50.5969768, 79.9909115 ], [ 50.5969459, 79.9918572 ], [ 50.5970743, 79.9927969 ], [ 50.5973847, 79.9936951 ], [ 50.5978429, 79.994524 ], [ 50.5987585, 79.9958573 ], [ 50.5991311, 79.9965764 ], [ 50.5992923, 79.9970572 ], [ 50.5993047, 79.9973638 ], [ 50.5996414, 79.9975686 ], [ 50.5998923, 79.9976635 ], [ 50.6005479, 79.9978563 ], [ 50.601471, 79.9980362 ], [ 50.6018188, 79.9981421 ], [ 50.6020072, 79.9982538 ], [ 50.602076, 79.9983903 ], [ 50.6019855, 79.9985328 ], [ 50.6017185, 79.9987079 ], [ 50.601332, 79.9989078 ], [ 50.6002005, 79.9993817 ], [ 50.5998083, 79.9995905 ], [ 50.5995755, 79.9997933 ], [ 50.5995135, 79.9999724 ], [ 50.599527421318683, 80.0 ], [ 51.145215686725663, 80.0 ], [ 51.1451263, 79.9999478 ] ] ] ] } },
{ "type": "Feature", "properties": { "FID": 302707, "id": 1659, "left": 50.0, "top": 80.0, "right": 55.0, "bottom": 75.0, "row_index": 2, "col_index": 46, "min_lon": 50.0, "min_lat": 75.0, "tile_id": "50_75" }, "geometry": { "type": "MultiPolygon", "coordinates": [ [ [ [ 50.2280825, 79.9844546 ], [ 50.2290516, 79.9845555 ], [ 50.230192, 79.9846328 ], [ 50.2312993, 79.9846824 ], [ 50.2323283, 79.9846943 ], [ 50.2332277, 79.9846675 ], [ 50.2338952, 79.9845999 ], [ 50.2341715, 79.9844972 ], [ 50.2347334, 79.9843554 ], [ 50.2360957, 79.9842568 ], [ 50.2380026, 79.9841963 ], [ 50.2402948, 79.9841797 ], [ 50.2427677, 79.9842029 ], [ 50.2451597, 79.9842695 ], [ 50.2472661, 79.9843753 ], [ 50.2489847, 79.9845184 ], [ 50.2499992, 79.9846291 ], [ 50.2512362, 79.9847173 ], [ 50.2527921, 79.984794 ], [ 50.2546156, 79.984858 ], [ 50.256758, 79.9849104 ], [ 50.2621468, 79.9849924 ], [ 50.2653991, 79.9850131 ], [ 50.2691749, 79.9850264 ], [ 50.275312, 79.9849971 ], [ 50.2780492, 79.9849351 ], [ 50.2806507, 79.9848433 ], [ 50.2833211, 79.9847259 ], [ 50.2861293, 79.9845571 ], [ 50.2893251, 79.984351 ], [ 50.2937468, 79.9840163 ], [ 50.2958897, 79.983834 ], [ 50.2996008, 79.9834759 ], [ 50.3023103, 79.9831427 ], [ 50.3030757, 79.9830048 ], [ 50.3037566, 79.9828381 ], [ 50.304593, 79.9825934 ], [ 50.3055789, 79.9822796 ], [ 50.3066002, 79.9819124 ], [ 50.3088216, 79.9810644 ], [ 50.3148427, 79.9784713 ], [ 50.3179022, 79.9772163 ], [ 50.3249151, 79.9745257 ], [ 50.3285359, 79.9729663 ], [ 50.3294117, 79.9724249 ], [ 50.3298812, 79.972263 ], [ 50.3315314, 79.9718813 ], [ 50.3326609, 79.9716605 ], [ 50.3353286, 79.9712271 ], [ 50.3387977, 79.9707556 ], [ 50.340705, 79.9705323 ], [ 50.3425319, 79.9703525 ], [ 50.3431255, 79.9703039 ], [ 50.343323, 79.9702668 ], [ 50.3434105, 79.9702484 ], [ 50.3434147, 79.9702487 ], [ 50.3435453, 79.9702579 ], [ 50.3436328, 79.9702625 ], [ 50.3443921, 79.9702004 ], [ 50.3463368, 79.970077 ], [ 50.3483661, 79.9699824 ], [ 50.3505879, 79.9699096 ], [ 50.3549511, 79.9698075 ], [ 50.3568035, 79.9697453 ], [ 50.3603274, 79.9695813 ], [ 50.3618908, 79.9694863 ], [ 50.3643476, 79.9692919 ], [ 50.3651389, 79.9691904 ], [ 50.3668133, 79.9689263 ], [ 50.3671725, 79.9688523 ], [ 50.3672528, 79.9688089 ], [ 50.3664062, 79.968837 ], [ 50.3641321, 79.96899 ], [ 50.3611996, 79.9691208 ], [ 50.3578484, 79.9691801 ], [ 50.3542375, 79.9691621 ], [ 50.3504692, 79.9690687 ], [ 50.3466399, 79.9689109 ], [ 50.3450787, 79.9688137 ], [ 50.3435383, 79.9688361 ], [ 50.3432994, 79.9688428 ], [ 50.3432285, 79.9688217 ], [ 50.3425686, 79.9686483 ], [ 50.3395764, 79.9683998 ], [ 50.3365859, 79.9680694 ], [ 50.3337842, 79.9676886 ], [ 50.3314815, 79.9673359 ], [ 50.3296269, 79.9670101 ], [ 50.3281751, 79.9667015 ], [ 50.3270926, 79.9663822 ], [ 50.3263283, 79.9660513 ], [ 50.3257918, 79.9656888 ], [ 50.325489, 79.965286 ], [ 50.3251942, 79.9650276 ], [ 50.3245204, 79.9647165 ], [ 50.3235246, 79.9643449 ], [ 50.3221499, 79.9639205 ], [ 50.3204532, 79.9634356 ], [ 50.3183326, 79.962888 ], [ 50.3097405, 79.9608666 ], [ 50.307203, 79.9602474 ], [ 50.3036025, 79.9592821 ], [ 50.3025452, 79.9589272 ], [ 50.3018607, 79.9586338 ], [ 50.3016, 79.9584032 ], [ 50.3016729, 79.9582153 ], [ 50.3018811, 79.9580572 ], [ 50.3018735, 79.9579127 ], [ 50.3017128, 79.9577652 ], [ 50.301399, 79.9576146 ], [ 50.3002496, 79.9573209 ], [ 50.2965854, 79.9566879 ], [ 50.2944594, 79.9562302 ], [ 50.2920475, 79.9556584 ], [ 50.289485, 79.9550025 ], [ 50.2869133, 79.9542832 ], [ 50.2843655, 79.9535283 ], [ 50.2820221, 79.9527775 ], [ 50.2799672, 79.9520596 ], [ 50.2790097, 79.9516344 ], [ 50.2783036, 79.9511422 ], [ 50.2780555, 79.9508937 ], [ 50.2778584, 79.9506462 ], [ 50.2778024, 79.9504197 ], [ 50.2778842, 79.9495196 ], [ 50.2776261, 79.94882 ], [ 50.2770563, 79.9481231 ], [ 50.27622, 79.9474388 ], [ 50.2750661, 79.9467662 ], [ 50.273724, 79.9461438 ], [ 50.2720977, 79.9455607 ], [ 50.2702714, 79.9450457 ], [ 50.2683138, 79.9445732 ], [ 50.2665969, 79.9442046 ], [ 50.2650696, 79.9439392 ], [ 50.2637261, 79.9437856 ], [ 50.2625781, 79.9437262 ], [ 50.2616137, 79.9437788 ], [ 50.2607428, 79.9439234 ], [ 50.2594784, 79.9443486 ], [ 50.2587662, 79.9444875 ], [ 50.2579818, 79.9445797 ], [ 50.2570742, 79.9446244 ], [ 50.2562021, 79.9446157 ], [ 50.2554047, 79.9445724 ], [ 50.2546489, 79.9444669 ], [ 50.2536042, 79.9441751 ], [ 50.2530463, 79.9440826 ], [ 50.2524646, 79.9440256 ], [ 50.2518592, 79.9440043 ], [ 50.251281, 79.9440196 ], [ 50.250775, 79.9440814 ], [ 50.250404, 79.9441731 ], [ 50.2502131, 79.9443045 ], [ 50.2497768, 79.944494 ], [ 50.2486935, 79.9447245 ], [ 50.2471278, 79.9449812 ], [ 50.2451366, 79.9452563 ], [ 50.2428906, 79.9455261 ], [ 50.2403956, 79.9457819 ], [ 50.2378674, 79.94601 ], [ 50.2353629, 79.9462024 ], [ 50.2316565, 79.9464154 ], [ 50.2273955, 79.946608 ], [ 50.2227895, 79.9467754 ], [ 50.2179406, 79.9469198 ], [ 50.2130134, 79.9470265 ], [ 50.2081551, 79.9471074 ], [ 50.2034854, 79.9471381 ], [ 50.1942448, 79.947129 ], [ 50.1885201, 79.9471919 ], [ 50.1855947, 79.94724 ], [ 50.1827592, 79.947308 ], [ 50.1800766, 79.9473791 ], [ 50.1731615, 79.9475977 ], [ 50.1693906, 79.9476734 ], [ 50.1661384, 79.9476695 ], [ 50.1632521, 79.947583 ], [ 50.160483, 79.9473996 ], [ 50.1576843, 79.9471074 ], [ 50.1546973, 79.9467121 ], [ 50.1513243, 79.9462005 ], [ 50.1480234, 79.9457354 ], [ 50.1443897, 79.9453807 ], [ 50.1404861, 79.9451196 ], [ 50.1362496, 79.9449688 ], [ 50.131692, 79.9449105 ], [ 50.1266994, 79.9449604 ], [ 50.1213285, 79.9451106 ], [ 50.1097847, 79.9456016 ], [ 50.1070959, 79.9456811 ], [ 50.1020216, 79.945774 ], [ 50.0969629, 79.945768 ], [ 50.0889355, 79.9456459 ], [ 50.0871794, 79.9456454 ], [ 50.0859775, 79.9456654 ], [ 50.0851648, 79.9457206 ], [ 50.0846904, 79.94581 ], [ 50.0844525, 79.9459313 ], [ 50.0843824, 79.9469402 ], [ 50.0838469, 79.9477229 ], [ 50.0829465, 79.9484348 ], [ 50.081636, 79.949066 ], [ 50.0799664, 79.9496176 ], [ 50.0778806, 79.9500973 ], [ 50.075448, 79.9504795 ], [ 50.0726053, 79.9507811 ], [ 50.0707385, 79.9509405 ], [ 50.0682888, 79.9511961 ], [ 50.0671537, 79.9513438 ], [ 50.0662794, 79.9514879 ], [ 50.0659105, 79.9514982 ], [ 50.0657698, 79.9514772 ], [ 50.0656923, 79.9514395 ], [ 50.0657368, 79.951224 ], [ 50.0656776, 79.9511596 ], [ 50.0654982, 79.9511197 ], [ 50.0647848, 79.9511048 ], [ 50.0634946, 79.9511771 ], [ 50.0619516, 79.9513162 ], [ 50.06133, 79.9513934 ], [ 50.0602213, 79.9515778 ], [ 50.0597403, 79.9516759 ], [ 50.0594122, 79.9517773 ], [ 50.059135, 79.9518798 ], [ 50.0587784, 79.9520979 ], [ 50.0583178, 79.9522416 ], [ 50.0575718, 79.9524245 ], [ 50.0566606, 79.9526219 ], [ 50.0542857, 79.9530684 ], [ 50.0514396, 79.9535231 ], [ 50.0458383, 79.9545244 ], [ 50.0412023, 79.9556993 ], [ 50.0375686, 79.9569945 ], [ 50.0350944, 79.9583319 ], [ 50.0338682, 79.9596595 ], [ 50.0339333, 79.9609149 ], [ 50.0353332, 79.9620359 ], [ 50.0382581, 79.9629724 ], [ 50.0392394, 79.9632005 ], [ 50.041551, 79.9638263 ], [ 50.0440831, 79.964583 ], [ 50.0465789, 79.9653931 ], [ 50.0503836, 79.9667087 ], [ 50.0530152, 79.9675486 ], [ 50.0556961, 79.9683173 ], [ 50.0584265, 79.9690149 ], [ 50.0613982, 79.9696633 ], [ 50.0645417, 79.9702883 ], [ 50.0679593, 79.9708918 ], [ 50.0717919, 79.971495 ], [ 50.0773923, 79.9723153 ], [ 50.07955, 79.9725677 ], [ 50.0816095, 79.9727369 ], [ 50.0838711, 79.972838 ], [ 50.0865269, 79.9728933 ], [ 50.0943303, 79.9729201 ], [ 50.097233, 79.9729173 ], [ 50.1071014, 79.9728784 ], [ 50.1137155, 79.972826 ], [ 50.1249454, 79.9726886 ], [ 50.1295189, 79.9726659 ], [ 50.1332146, 79.9727151 ], [ 50.1361407, 79.9728297 ], [ 50.1385406, 79.9730326 ], [ 50.1406126, 79.9733369 ], [ 50.142516, 79.9737369 ], [ 50.1463852, 79.974827 ], [ 50.1481057, 79.9752683 ], [ 50.1495922, 79.9755966 ], [ 50.150941, 79.9758228 ], [ 50.1521518, 79.9759469 ], [ 50.1532759, 79.9759701 ], [ 50.1543071, 79.9759011 ], [ 50.1558107, 79.9756705 ], [ 50.1567128, 79.9755628 ], [ 50.1575725, 79.9755173 ], [ 50.1579362, 79.9755158 ], [ 50.1584681, 79.9755718 ], [ 50.1592071, 79.9757043 ], [ 50.1599763, 79.9757922 ], [ 50.1604692, 79.9758294 ], [ 50.1630839, 79.9759463 ], [ 50.1655603, 79.9761145 ], [ 50.1679946, 79.9763449 ], [ 50.170483, 79.9766485 ], [ 50.1730646, 79.9770443 ], [ 50.1758417, 79.9775342 ], [ 50.1789617, 79.9781303 ], [ 50.1846797, 79.9793298 ], [ 50.1888773, 79.9801734 ], [ 50.1923387, 79.9808034 ], [ 50.1945884, 79.981156 ], [ 50.1951267, 79.9812031 ], [ 50.1983597, 79.9812512 ], [ 50.2023147, 79.9814583 ], [ 50.2068114, 79.9817846 ], [ 50.2115553, 79.982206 ], [ 50.2162006, 79.9826976 ], [ 50.2205606, 79.9832283 ], [ 50.2243858, 79.9837842 ], [ 50.2272907, 79.9843213 ], [ 50.2280825, 79.9844546 ] ] ] ] } },
{ "type": "Feature", "properties": { "FID": 302708, "id": 1659, "left": 50.0, "top": 80.0, "right": 55.0, "bottom": 75.0, "row_index": 2, "col_index": 46, "min_lon": 50.0, "min_lat": 75.0, "tile_id": "50_75" }, "geometry": { "type": "MultiPolygon", "coordinates": [ [ [ [ 51.4128856, 79.9712278 ], [ 51.4134772, 79.9713727 ], [ 51.413806, 79.9714323 ], [ 51.4141958, 79.9714748 ], [ 51.4145394, 79.9715076 ], [ 51.414944, 79.9715233 ], [ 51.4161875, 79.9715172 ], [ 51.4172971, 79.9714728 ], [ 51.4182265, 79.9713804 ], [ 51.419027, 79.9712408 ], [ 51.4196522, 79.9710443 ], [ 51.4200973, 79.9707998 ], [ 51.4204744, 79.9704911 ], [ 51.4207994, 79.9699026 ], [ 51.421464, 79.9691668 ], [ 51.4220782, 79.9687091 ], [ 51.4233518, 79.9679925 ], [ 51.4234335, 79.9677509 ], [ 51.4229906, 79.9676175 ], [ 51.4221767, 79.9675948 ], [ 51.4210479, 79.9676749 ], [ 51.4196503, 79.9678675 ], [ 51.418045, 79.9681555 ], [ 51.4163292, 79.9685497 ], [ 51.4149451, 79.9689045 ], [ 51.4138267, 79.9692457 ], [ 51.4130251, 79.9695743 ], [ 51.412443, 79.9698795 ], [ 51.4120706, 79.9701792 ], [ 51.411964, 79.9704654 ], [ 51.4121084, 79.9707648 ], [ 51.4124625, 79.9710587 ], [ 51.4128856, 79.9712278 ] ] ] ] } },
{ "type": "Feature", "properties": { "FID": 302711, "id": 1659, "left": 50.0, "top": 80.0, "right": 55.0, "bottom": 75.0, "row_index": 2, "col_index": 46, "min_lon": 50.0, "min_lat": 75.0, "tile_id": "50_75" }, "geometry": { "type": "MultiPolygon", "coordinates": [ [ [ [ 51.3889841, 79.9528622 ], [ 51.3898034, 79.952966 ], [ 51.3907545, 79.953018 ], [ 51.3918984, 79.9530013 ], [ 51.3931841, 79.952915 ], [ 51.3945505, 79.9527761 ], [ 51.3961047, 79.9525773 ], [ 51.3994451, 79.9520396 ], [ 51.4008409, 79.9518471 ], [ 51.4017736, 79.9517458 ], [ 51.4019829, 79.9517404 ], [ 51.4021017, 79.9518054 ], [ 51.402255, 79.9518079 ], [ 51.4031926, 79.9516977 ], [ 51.4047397, 79.9514178 ], [ 51.4059193, 79.9511497 ], [ 51.4065995, 79.9509451 ], [ 51.4067904, 79.9507863 ], [ 51.4065842, 79.9506929 ], [ 51.4059348, 79.9506549 ], [ 51.4048884, 79.9506823 ], [ 51.40344, 79.9507839 ], [ 51.4015994, 79.9509419 ], [ 51.3965931, 79.9514155 ], [ 51.3923709, 79.9517763 ], [ 51.3909535, 79.9519144 ], [ 51.3898476, 79.9520487 ], [ 51.3889972, 79.9521874 ], [ 51.388412, 79.9523125 ], [ 51.3881335, 79.9524428 ], [ 51.3881154, 79.9525685 ], [ 51.3883066, 79.9526887 ], [ 51.3889841, 79.9528622 ] ] ] ] } }
]
}
