{
"type": "FeatureCollection",
"name": "55_30",
"crs": { "type": "name", "properties": { "name": "urn:ogc:def:crs:OGC:1.3:CRS84" } },
"xy_coordinate_resolution": 1e-15,
"features": [
{ "type": "Feature", "properties": { "FID": 123912, "id": 1704, "left": 55.0, "top": 35.0, "right": 60.0, "bottom": 30.0, "row_index": 11, "col_index": 47, "min_lon": 55.0, "min_lat": 30.0, "tile_id": "55_30" }, "geometry": { "type": "MultiPolygon", "coordinates": [ [ [ [ 60.0, 35.0 ], [ 60.0, 30.0 ], [ 55.0, 30.0 ], [ 55.0, 35.0 ], [ 60.0, 35.0 ] ] ] ] } }
]
}
