{
"type": "FeatureCollection",
"name": "55_35",
"crs": { "type": "name", "properties": { "name": "urn:ogc:def:crs:OGC:1.3:CRS84" } },
"xy_coordinate_resolution": 1e-15,
"features": [
{ "type": "Feature", "properties": { "FID": 123912, "id": 1703, "left": 55.0, "top": 40.0, "right": 60.0, "bottom": 35.0, "row_index": 10, "col_index": 47, "min_lon": 55.0, "min_lat": 35.0, "tile_id": "55_35" }, "geometry": { "type": "MultiPolygon", "coordinates": [ [ [ [ 60.0, 40.0 ], [ 60.0, 35.0 ], [ 55.0, 35.0 ], [ 55.0, 40.0 ], [ 60.0, 40.0 ] ] ] ] } }
]
}
