{
"type": "FeatureCollection",
"name": "55_45",
"crs": { "type": "name", "properties": { "name": "urn:ogc:def:crs:OGC:1.3:CRS84" } },
"xy_coordinate_resolution": 1e-15,
"features": [
{ "type": "Feature", "properties": { "FID": 123912, "id": 1701, "left": 55.0, "top": 50.0, "right": 60.0, "bottom": 45.0, "row_index": 8, "col_index": 47, "min_lon": 55.0, "min_lat": 45.0, "tile_id": "55_45" }, "geometry": { "type": "MultiPolygon", "coordinates": [ [ [ [ 60.0, 50.0 ], [ 60.0, 45.0 ], [ 55.0, 45.0 ], [ 55.0, 50.0 ], [ 60.0, 50.0 ] ] ] ] } }
]
}
