{
"type": "FeatureCollection",
"name": "5_-80",
"crs": { "type": "name", "properties": { "name": "urn:ogc:def:crs:OGC:1.3:CRS84" } },
"xy_coordinate_resolution": 1e-15,
"features": [
{ "type": "Feature", "properties": { "FID": 307096, "id": 1366, "left": 5.0, "top": -75.0, "right": 10.0, "bottom": -80.0, "row_index": 33, "col_index": 37, "min_lon": 5.0, "min_lat": -80.0, "tile_id": "5_-80" }, "geometry": { "type": "MultiPolygon", "coordinates": [ [ [ [ 10.0, -75.0 ], [ 10.0, -80.0 ], [ 5.0, -80.0 ], [ 5.0, -75.0 ], [ 10.0, -75.0 ] ] ] ] } }
]
}
