{
"type": "FeatureCollection",
"name": "5_5",
"crs": { "type": "name", "properties": { "name": "urn:ogc:def:crs:OGC:1.3:CRS84" } },
"xy_coordinate_resolution": 1e-15,
"features": [
{ "type": "Feature", "properties": { "FID": 660342, "id": 1349, "left": 5.0, "top": 10.0, "right": 10.0, "bottom": 5.0, "row_index": 16, "col_index": 37, "min_lon": 5.0, "min_lat": 5.0, "tile_id": "5_5" }, "geometry": { "type": "MultiPolygon", "coordinates": [ [ [ [ 5.4355455, 5.0029123 ], [ 5.4346678, 5.0047028 ], [ 5.4325763, 5.0089692 ], [ 5.428588, 5.0170573 ], [ 5.4271181, 5.0201157 ], [ 5.4268682, 5.0203981 ], [ 5.426665, 5.0207584 ], [ 5.4255629, 5.022996 ], [ 5.4206824, 5.0333814 ], [ 5.4178644, 5.0397699 ], [ 5.4166974, 5.0425483 ], [ 5.416113, 5.0436338 ], [ 5.4136076, 5.0488254 ], [ 5.4123953, 5.0517672 ], [ 5.4118539, 5.0527971 ], [ 5.4110545, 5.0544877 ], [ 5.4104541, 5.0555356 ], [ 5.4101378, 5.0562437 ], [ 5.4096892, 5.0570553 ], [ 5.4088904, 5.0586446 ], [ 5.4083257, 5.0596466 ], [ 5.4077389, 5.0607722 ], [ 5.4072545, 5.0616874 ], [ 5.4068963, 5.062496 ], [ 5.4062814, 5.063881 ], [ 5.4053442, 5.0659169 ], [ 5.404369, 5.0677542 ], [ 5.4037319, 5.0691021 ], [ 5.403572, 5.0693922 ], [ 5.4033687, 5.0699748 ], [ 5.4030076, 5.0704781 ], [ 5.4026048, 5.0713177 ], [ 5.4019669, 5.0727171 ], [ 5.4011373, 5.0744082 ], [ 5.400395, 5.0758551 ], [ 5.3992688, 5.0779462 ], [ 5.398329, 5.0798544 ], [ 5.3973316, 5.0817159 ], [ 5.3965367, 5.083136 ], [ 5.3962288, 5.0836645 ], [ 5.3959212, 5.0842034 ], [ 5.3956447, 5.0847514 ], [ 5.3953039, 5.0852888 ], [ 5.3942943, 5.087421 ], [ 5.3925044, 5.0911588 ], [ 5.3900163, 5.0962774 ], [ 5.3880323, 5.0999381 ], [ 5.3860806, 5.1041737 ], [ 5.3853637, 5.1057841 ], [ 5.3830499, 5.1102358 ], [ 5.3798444, 5.116168 ], [ 5.3783298, 5.1190785 ], [ 5.3776571, 5.1207357 ], [ 5.3766488, 5.1240635 ], [ 5.3766243, 5.1250157 ], [ 5.3766698, 5.125372 ], [ 5.3767342, 5.1257081 ], [ 5.3770151, 5.1259398 ], [ 5.3778131, 5.1262991 ], [ 5.3774647, 5.1326923 ], [ 5.3774401, 5.1332276 ], [ 5.3770452, 5.1416705 ], [ 5.3759023, 5.1424016 ], [ 5.3749416, 5.1432112 ], [ 5.3743589, 5.143746 ], [ 5.3730272, 5.1448833 ], [ 5.3720226, 5.1459792 ], [ 5.370776, 5.1477213 ], [ 5.3696407, 5.1495711 ], [ 5.3684397, 5.1517064 ], [ 5.3673026, 5.1534798 ], [ 5.3654561, 5.1569441 ], [ 5.3636174, 5.1609433 ], [ 5.3627288, 5.1627378 ], [ 5.3616711, 5.1651593 ], [ 5.3613008, 5.1660771 ], [ 5.360146, 5.1686987 ], [ 5.3588136, 5.171961 ], [ 5.3582141, 5.1736323 ], [ 5.3579801, 5.1743554 ], [ 5.3573285, 5.176669 ], [ 5.3567909, 5.1783716 ], [ 5.3566757, 5.1791042 ], [ 5.3566021, 5.1804355 ], [ 5.3566931, 5.1807464 ], [ 5.3567839, 5.180855 ], [ 5.3568997, 5.1809235 ], [ 5.3569507, 5.1813733 ], [ 5.3567977, 5.181973 ], [ 5.3567133, 5.1825053 ], [ 5.3567336, 5.182902 ], [ 5.3567094, 5.183166 ], [ 5.3566212, 5.1836389 ], [ 5.3564131, 5.185277 ], [ 5.3560044, 5.1864687 ], [ 5.3557877, 5.1872043 ], [ 5.3557943, 5.1876319 ], [ 5.3554014, 5.187865 ], [ 5.3552348, 5.187869 ], [ 5.3549359, 5.1881178 ], [ 5.3545734, 5.1889024 ], [ 5.3541864, 5.1901813 ], [ 5.3539634, 5.1910395 ], [ 5.3537471, 5.1915495 ], [ 5.3536681, 5.1919847 ], [ 5.3535856, 5.1933227 ], [ 5.3535017, 5.1938396 ], [ 5.353162, 5.1947772 ], [ 5.3530199, 5.1953683 ], [ 5.3529098, 5.1967515 ], [ 5.3528227, 5.1987446 ], [ 5.3525353, 5.2009699 ], [ 5.3524612, 5.2020983 ], [ 5.3525764, 5.2025585 ], [ 5.3527113, 5.2028347 ], [ 5.3528061, 5.2031952 ], [ 5.3528892, 5.204764 ], [ 5.3529073, 5.206581 ], [ 5.35291, 5.2085342 ], [ 5.3526949, 5.2116306 ], [ 5.3512992, 5.2181902 ], [ 5.3499227, 5.226408 ], [ 5.3497372, 5.227955 ], [ 5.3490769, 5.2311955 ], [ 5.348873, 5.2324508 ], [ 5.3482084, 5.237108 ], [ 5.3468459, 5.2450599 ], [ 5.3457288, 5.25019 ], [ 5.3450919, 5.2529624 ], [ 5.3448083, 5.2539719 ], [ 5.3439016, 5.2575484 ], [ 5.3427142, 5.2631564 ], [ 5.3415937, 5.2679543 ], [ 5.3410182, 5.2701248 ], [ 5.3403969, 5.2721888 ], [ 5.3384886, 5.2776432 ], [ 5.3355963, 5.2862196 ], [ 5.3345314, 5.2893316 ], [ 5.331899, 5.2963627 ], [ 5.3315644, 5.2974993 ], [ 5.3314694, 5.2980171 ], [ 5.3314963, 5.2982112 ], [ 5.3313373, 5.2987203 ], [ 5.3309271, 5.2990852 ], [ 5.3307077, 5.299593 ], [ 5.3305218, 5.300435 ], [ 5.3304466, 5.3006126 ], [ 5.3304343, 5.3007702 ], [ 5.3304508, 5.3008426 ], [ 5.3307369, 5.3010761 ], [ 5.3307452, 5.3012698 ], [ 5.3308205, 5.3017209 ], [ 5.3309213, 5.3020187 ], [ 5.3309916, 5.302195 ], [ 5.3311148, 5.3029943 ], [ 5.3313297, 5.3047944 ], [ 5.3313729, 5.305437 ], [ 5.3313463, 5.3058674 ], [ 5.3310497, 5.3072205 ], [ 5.3303037, 5.3103168 ], [ 5.3299549, 5.3118964 ], [ 5.3296764, 5.3135185 ], [ 5.3292729, 5.3153119 ], [ 5.3289658, 5.3170126 ], [ 5.3287094, 5.3180514 ], [ 5.3274818, 5.3209927 ], [ 5.3273048, 5.3217888 ], [ 5.3268013, 5.3243417 ], [ 5.3264069, 5.3259575 ], [ 5.3261939, 5.3269426 ], [ 5.3261376, 5.3275262 ], [ 5.3261954, 5.32856 ], [ 5.3261938, 5.3296341 ], [ 5.326207, 5.3310668 ], [ 5.326248, 5.3313673 ], [ 5.3263472, 5.331744 ], [ 5.3265405, 5.3320933 ], [ 5.3265853, 5.3322856 ], [ 5.3265663, 5.3326238 ], [ 5.3262837, 5.3337793 ], [ 5.3262201, 5.3343104 ], [ 5.3259495, 5.3352831 ], [ 5.3255856, 5.3363838 ], [ 5.3253347, 5.3370743 ], [ 5.3245405, 5.3393097 ], [ 5.3241841, 5.3404852 ], [ 5.3232217, 5.3434682 ], [ 5.3226752, 5.3453657 ], [ 5.3220619, 5.3475267 ], [ 5.321841, 5.3487245 ], [ 5.3215681, 5.3512886 ], [ 5.3214437, 5.3524689 ], [ 5.3214602, 5.353047 ], [ 5.321623, 5.3537128 ], [ 5.3218026, 5.3547004 ], [ 5.3218309, 5.3552272 ], [ 5.3218266, 5.3557375 ], [ 5.3217176, 5.3575802 ], [ 5.3214129, 5.3589332 ], [ 5.3212616, 5.3597918 ], [ 5.3212685, 5.3604617 ], [ 5.3214021, 5.3613686 ], [ 5.3216179, 5.3620238 ], [ 5.3217865, 5.3623156 ], [ 5.3219641, 5.362495 ], [ 5.3223768, 5.3627966 ], [ 5.3225054, 5.3644084 ], [ 5.3225816, 5.3648409 ], [ 5.3226878, 5.365054 ], [ 5.3228459, 5.3652449 ], [ 5.3236041, 5.3659928 ], [ 5.3236933, 5.3660585 ], [ 5.3239725, 5.366156 ], [ 5.322986, 5.3806402 ], [ 5.3213706, 5.4043576 ], [ 5.3200567, 5.404909 ], [ 5.3171811, 5.4061758 ], [ 5.3162051, 5.406716 ], [ 5.3119805, 5.4090685 ], [ 5.3098556, 5.4100591 ], [ 5.3065477, 5.4115774 ], [ 5.3034101, 5.4128568 ], [ 5.3017857, 5.4135231 ], [ 5.2999484, 5.414479 ], [ 5.298193, 5.4152743 ], [ 5.2959067, 5.4165534 ], [ 5.2941673, 5.4175174 ], [ 5.2925805, 5.4182927 ], [ 5.290554, 5.4193361 ], [ 5.2890426, 5.4199117 ], [ 5.2857593, 5.4212582 ], [ 5.2800722, 5.4236493 ], [ 5.2766196, 5.4249587 ], [ 5.2727196, 5.4267464 ], [ 5.2694352, 5.4283274 ], [ 5.267163, 5.4292862 ], [ 5.2649172, 5.4301457 ], [ 5.2621592, 5.4310409 ], [ 5.2601422, 5.4316818 ], [ 5.2586401, 5.432109 ], [ 5.256269, 5.4327178 ], [ 5.2504969, 5.4339888 ], [ 5.2476538, 5.4348005 ], [ 5.2462054, 5.4353986 ], [ 5.2451111, 5.4359433 ], [ 5.2438451, 5.436958 ], [ 5.2410663, 5.438998 ], [ 5.2391982, 5.4403725 ], [ 5.2341569, 5.4440819 ], [ 5.2293289, 5.4482152 ], [ 5.2261317, 5.4514193 ], [ 5.224973, 5.4526155 ], [ 5.2246833, 5.4530641 ], [ 5.2246297, 5.4534272 ], [ 5.2246619, 5.4535874 ], [ 5.2243937, 5.4535981 ], [ 5.224104, 5.4536728 ], [ 5.2235246, 5.4541641 ], [ 5.2214827, 5.4560813 ], [ 5.2158452, 5.4623228 ], [ 5.2135568, 5.4649727 ], [ 5.2121637, 5.4666489 ], [ 5.2063591, 5.4735997 ], [ 5.204316, 5.4759181 ], [ 5.2022569, 5.4783926 ], [ 5.1992827, 5.4824724 ], [ 5.1952145, 5.4887195 ], [ 5.193514, 5.4911697 ], [ 5.1920406, 5.4933297 ], [ 5.1905185, 5.4953647 ], [ 5.1896353, 5.4967977 ], [ 5.1894234, 5.497013 ], [ 5.1892015, 5.4971304 ], [ 5.1890259, 5.497247 ], [ 5.1888117, 5.4976162 ], [ 5.1886114, 5.4981061 ], [ 5.1882109, 5.4987264 ], [ 5.1871318, 5.5000823 ], [ 5.1860179, 5.5015636 ], [ 5.1845712, 5.5033889 ], [ 5.1834378, 5.5048714 ], [ 5.1822906, 5.5063202 ], [ 5.1809374, 5.5081462 ], [ 5.1795901, 5.5100654 ], [ 5.1786581, 5.5112243 ], [ 5.1775137, 5.5126495 ], [ 5.1766381, 5.5138055 ], [ 5.175733, 5.5149555 ], [ 5.174929, 5.5159923 ], [ 5.1742561, 5.5167612 ], [ 5.1734048, 5.5177769 ], [ 5.1722679, 5.5190296 ], [ 5.1721333, 5.5192187 ], [ 5.1701557, 5.5217542 ], [ 5.1695086, 5.5227136 ], [ 5.1691013, 5.5232263 ], [ 5.1687114, 5.523533 ], [ 5.168354, 5.5238396 ], [ 5.1682253, 5.5240217 ], [ 5.1680881, 5.5244777 ], [ 5.1678953, 5.5248836 ], [ 5.1676303, 5.5253285 ], [ 5.1659052, 5.5275926 ], [ 5.1643505, 5.5298971 ], [ 5.162994, 5.5319769 ], [ 5.1624699, 5.5326831 ], [ 5.1618279, 5.5342378 ], [ 5.1614661, 5.53496 ], [ 5.1603066, 5.5374659 ], [ 5.1598613, 5.5379282 ], [ 5.1597167, 5.5380811 ], [ 5.1594392, 5.5386545 ], [ 5.1592724, 5.5392027 ], [ 5.1592813, 5.5400259 ], [ 5.1596668, 5.5411061 ], [ 5.1600555, 5.5417904 ], [ 5.1602496, 5.5421057 ], [ 5.1606183, 5.5429033 ], [ 5.1612867, 5.5444578 ], [ 5.1618201, 5.5456843 ], [ 5.1622241, 5.546975 ], [ 5.1629392, 5.5500365 ], [ 5.1630911, 5.5504179 ], [ 5.163205, 5.5507551 ], [ 5.1633613, 5.5519575 ], [ 5.163515, 5.5524638 ], [ 5.1638799, 5.5534929 ], [ 5.1640027, 5.5537091 ], [ 5.1643332, 5.5538783 ], [ 5.1654665, 5.5542731 ], [ 5.1665243, 5.5547243 ], [ 5.1678842, 5.5554105 ], [ 5.1714824, 5.5577229 ], [ 5.1718947, 5.5579765 ], [ 5.1723111, 5.5580577 ], [ 5.1725381, 5.5579781 ], [ 5.1726127, 5.5577487 ], [ 5.1727896, 5.5572725 ], [ 5.173074, 5.5569637 ], [ 5.1736965, 5.5573174 ], [ 5.1735949, 5.5575139 ], [ 5.1736075, 5.5577222 ], [ 5.1736859, 5.5582731 ], [ 5.1739077, 5.5591775 ], [ 5.1741883, 5.5599205 ], [ 5.1743929, 5.5604754 ], [ 5.1746945, 5.5611103 ], [ 5.1751154, 5.561819 ], [ 5.1756019, 5.5625464 ], [ 5.1761866, 5.5633871 ], [ 5.1770824, 5.5646597 ], [ 5.1776906, 5.5654226 ], [ 5.178559, 5.5665335 ], [ 5.178822, 5.5668848 ], [ 5.1791679, 5.5673053 ], [ 5.1792367, 5.5675647 ], [ 5.1794149, 5.5677465 ], [ 5.179509, 5.567839 ], [ 5.1796024, 5.5679309 ], [ 5.1800104, 5.5685184 ], [ 5.1802461, 5.5687815 ], [ 5.1804744, 5.5688174 ], [ 5.1810173, 5.5686612 ], [ 5.1812878, 5.5686746 ], [ 5.1818826, 5.5689354 ], [ 5.1823927, 5.5690886 ], [ 5.1835071, 5.5696748 ], [ 5.1848633, 5.5705878 ], [ 5.1860613, 5.5718015 ], [ 5.1867725, 5.5724151 ], [ 5.1881867, 5.5735013 ], [ 5.1884038, 5.5736398 ], [ 5.1887192, 5.5737511 ], [ 5.1831287, 5.5869983 ], [ 5.1799276, 5.5945837 ], [ 5.1795545, 5.5946599 ], [ 5.1790183, 5.5945995 ], [ 5.1787713, 5.5945686 ], [ 5.1784651, 5.5946696 ], [ 5.1773327, 5.5952449 ], [ 5.1768951, 5.5955545 ], [ 5.1759983, 5.5961462 ], [ 5.1748752, 5.5967469 ], [ 5.174535, 5.5969008 ], [ 5.1742591, 5.5970068 ], [ 5.1739903, 5.5971342 ], [ 5.1736583, 5.5973576 ], [ 5.1732449, 5.5977744 ], [ 5.1728659, 5.5980666 ], [ 5.172429, 5.5983091 ], [ 5.1718949, 5.5985437 ], [ 5.1713181, 5.5988435 ], [ 5.1686714, 5.6007457 ], [ 5.1677306, 5.6015074 ], [ 5.16722, 5.6018916 ], [ 5.1667651, 5.6021354 ], [ 5.1665345, 5.6022587 ], [ 5.1662022, 5.6024514 ], [ 5.1658372, 5.6026905 ], [ 5.1653332, 5.6030921 ], [ 5.1647272, 5.6036646 ], [ 5.1630752, 5.6052167 ], [ 5.1617613, 5.606554 ], [ 5.1605555, 5.6077782 ], [ 5.1585611, 5.6096352 ], [ 5.1578031, 5.6103586 ], [ 5.1570545, 5.611013 ], [ 5.1546128, 5.613005 ], [ 5.1514542, 5.6157448 ], [ 5.1486967, 5.618361 ], [ 5.1464734, 5.620509 ], [ 5.1455019, 5.6215065 ], [ 5.1445534, 5.6224909 ], [ 5.1437234, 5.6232485 ], [ 5.1425958, 5.6242584 ], [ 5.1410128, 5.6259746 ], [ 5.139734, 5.6273502 ], [ 5.1379234, 5.6292127 ], [ 5.136506, 5.6305966 ], [ 5.1355339, 5.631682 ], [ 5.133258, 5.6342472 ], [ 5.1303775, 5.6378508 ], [ 5.1282405, 5.6405281 ], [ 5.1249812, 5.6445316 ], [ 5.1216794, 5.6485816 ], [ 5.1195569, 5.6514568 ], [ 5.1182233, 5.6535644 ], [ 5.1162825, 5.6565185 ], [ 5.1149408, 5.6589775 ], [ 5.1139274, 5.6610705 ], [ 5.1126295, 5.663981 ], [ 5.1108635, 5.6678926 ], [ 5.109893, 5.6699445 ], [ 5.1088336, 5.6722632 ], [ 5.106927, 5.6764009 ], [ 5.1057681, 5.6786971 ], [ 5.1048795, 5.680477 ], [ 5.1035039, 5.6832062 ], [ 5.102225, 5.6855154 ], [ 5.1002722, 5.6892654 ], [ 5.0991893, 5.6912088 ], [ 5.0972788, 5.6942889 ], [ 5.094743, 5.6985759 ], [ 5.0935975, 5.7003666 ], [ 5.09246, 5.7021772 ], [ 5.0907255, 5.705279 ], [ 5.0898635, 5.7065611 ], [ 5.0892953, 5.7074136 ], [ 5.0888052, 5.7082222 ], [ 5.0880536, 5.7094882 ], [ 5.086487, 5.7125602 ], [ 5.0857132, 5.7139202 ], [ 5.0853592, 5.7146072 ], [ 5.0843772, 5.7166542 ], [ 5.0830185, 5.7195964 ], [ 5.0822035, 5.7218498 ], [ 5.0819076, 5.7231548 ], [ 5.081619, 5.7244363 ], [ 5.0814863, 5.7275951 ], [ 5.0813223, 5.7297316 ], [ 5.0813734, 5.7323435 ], [ 5.0819532, 5.737322 ], [ 5.0821358, 5.7386377 ], [ 5.0822888, 5.7402253 ], [ 5.0822027, 5.7423062 ], [ 5.0818565, 5.7449239 ], [ 5.0816292, 5.7467476 ], [ 5.0817897, 5.7498832 ], [ 5.0823421, 5.7527606 ], [ 5.0827492, 5.7547285 ], [ 5.0743348, 5.7623409 ], [ 5.0664993, 5.7694596 ], [ 5.065931, 5.769655 ], [ 5.0653206, 5.7697632 ], [ 5.0648818, 5.7698608 ], [ 5.064488, 5.7700819 ], [ 5.0640482, 5.7703489 ], [ 5.0624496, 5.7709413 ], [ 5.0616923, 5.771241 ], [ 5.0594401, 5.7725851 ], [ 5.0578718, 5.7736943 ], [ 5.0562595, 5.7753113 ], [ 5.053836, 5.7777568 ], [ 5.052545, 5.7791092 ], [ 5.0517644, 5.779902 ], [ 5.050431, 5.7805329 ], [ 5.0479883, 5.7812895 ], [ 5.0476988, 5.7816519 ], [ 5.0474466, 5.782228 ], [ 5.0473252, 5.7824139 ], [ 5.0469983, 5.7826834 ], [ 5.0466714, 5.7827763 ], [ 5.0455599, 5.7830737 ], [ 5.0450836, 5.7833431 ], [ 5.0445886, 5.7838263 ], [ 5.0441122, 5.7846627 ], [ 5.0434491, 5.7858707 ], [ 5.0428607, 5.7866419 ], [ 5.0420948, 5.7883703 ], [ 5.0417305, 5.7891602 ], [ 5.0411982, 5.7897921 ], [ 5.040507, 5.7904704 ], [ 5.0401988, 5.7908793 ], [ 5.0400774, 5.7911859 ], [ 5.0400774, 5.7915297 ], [ 5.0399653, 5.7920129 ], [ 5.039573, 5.7925983 ], [ 5.0385269, 5.7941316 ], [ 5.0374995, 5.7958785 ], [ 5.0371353, 5.7966777 ], [ 5.0370699, 5.7971237 ], [ 5.0368364, 5.7975418 ], [ 5.0367336, 5.7979321 ], [ 5.0367523, 5.7983503 ], [ 5.0366216, 5.798629 ], [ 5.0363694, 5.7989171 ], [ 5.0361546, 5.7991587 ], [ 5.0360518, 5.7994003 ], [ 5.0360705, 5.7996697 ], [ 5.0360985, 5.8000136 ], [ 5.0361265, 5.8002366 ], [ 5.0360331, 5.8004967 ], [ 5.0357903, 5.8008498 ], [ 5.0354354, 5.8012959 ], [ 5.0351925, 5.8017419 ], [ 5.034875, 5.8022158 ], [ 5.0347442, 5.8025596 ], [ 5.0346508, 5.8031171 ], [ 5.034492, 5.8033309 ], [ 5.0342772, 5.8035817 ], [ 5.0341838, 5.8038326 ], [ 5.0342025, 5.8042322 ], [ 5.0341251, 5.8044732 ], [ 5.0340402, 5.8046633 ], [ 5.0341747, 5.8054309 ], [ 5.034203, 5.8057267 ], [ 5.0341322, 5.8059238 ], [ 5.0336492, 5.8066768 ], [ 5.0333439, 5.8072373 ], [ 5.0331426, 5.807583 ], [ 5.0327184, 5.8083116 ], [ 5.0323859, 5.8087862 ], [ 5.0322558, 5.8091457 ], [ 5.0321131, 5.8097756 ], [ 5.0318684, 5.8103101 ], [ 5.0317652, 5.8108627 ], [ 5.0303715, 5.8136793 ], [ 5.0295817, 5.8151423 ], [ 5.0288734, 5.8159189 ], [ 5.0287568, 5.8161509 ], [ 5.0284398, 5.8167817 ], [ 5.0276985, 5.8185289 ], [ 5.0262963, 5.8213189 ], [ 5.0252885, 5.8240434 ], [ 5.0249708, 5.8251768 ], [ 5.024905, 5.8258416 ], [ 5.0250146, 5.8264628 ], [ 5.0252069, 5.8272795 ], [ 5.0251557, 5.8276082 ], [ 5.0250178, 5.827958 ], [ 5.0248691, 5.8281288 ], [ 5.0247396, 5.8282026 ], [ 5.0244501, 5.8280591 ], [ 5.0243034, 5.8280828 ], [ 5.0241108, 5.8280098 ], [ 5.0239815, 5.8278701 ], [ 5.0238289, 5.8275642 ], [ 5.0237188, 5.8274936 ], [ 5.0235827, 5.8275441 ], [ 5.0235041, 5.8276653 ], [ 5.0234273, 5.8279484 ], [ 5.0233333, 5.8282818 ], [ 5.0226528, 5.8292684 ], [ 5.0226119, 5.8293385 ], [ 5.0225234, 5.8294907 ], [ 5.0224378, 5.8298429 ], [ 5.0224406, 5.8300886 ], [ 5.0224434, 5.8303343 ], [ 5.0223657, 5.8306847 ], [ 5.0222006, 5.8308459 ], [ 5.0219941, 5.8308008 ], [ 5.0217975, 5.8307383 ], [ 5.0215883, 5.8307412 ], [ 5.0214787, 5.8308997 ], [ 5.0213823, 5.8312019 ], [ 5.0213775, 5.8314796 ], [ 5.0212889, 5.8316893 ], [ 5.0208962, 5.8323814 ], [ 5.0205973, 5.8329595 ], [ 5.0199663, 5.8334881 ], [ 5.0194848, 5.8337689 ], [ 5.0188309, 5.8348183 ], [ 5.018296, 5.8365281 ], [ 5.0181002, 5.8370584 ], [ 5.0179197, 5.8373234 ], [ 5.0172561, 5.8379614 ], [ 5.016252, 5.8386979 ], [ 5.0153543, 5.8392993 ], [ 5.0151751, 5.8393589 ], [ 5.0150304, 5.8393393 ], [ 5.0148915, 5.8394115 ], [ 5.0147852, 5.8396717 ], [ 5.0147702, 5.8400419 ], [ 5.0146775, 5.8402534 ], [ 5.0144903, 5.8403953 ], [ 5.0143714, 5.8405362 ], [ 5.0142616, 5.8408331 ], [ 5.0141038, 5.8410588 ], [ 5.0139321, 5.8411919 ], [ 5.0138597, 5.841262 ], [ 5.0137961, 5.8415741 ], [ 5.0137807, 5.8418331 ], [ 5.0137489, 5.8419636 ], [ 5.0135434, 5.8422155 ], [ 5.0132242, 5.8424583 ], [ 5.0130458, 5.8426668 ], [ 5.0128646, 5.8428778 ], [ 5.0127583, 5.8431713 ], [ 5.0124752, 5.8434122 ], [ 5.012343, 5.8436811 ], [ 5.0122538, 5.8440191 ], [ 5.0120787, 5.8441999 ], [ 5.011962, 5.844439 ], [ 5.0119638, 5.8446289 ], [ 5.0118779, 5.8450962 ], [ 5.0107739, 5.8465837 ], [ 5.0094443, 5.8483753 ], [ 5.0082188, 5.8503605 ], [ 5.0076118, 5.8513562 ], [ 5.0071269, 5.8516477 ], [ 5.0064171, 5.8518857 ], [ 5.0053001, 5.8528132 ], [ 5.00414, 5.8541762 ], [ 5.0018191, 5.8574057 ], [ 5.001572, 5.8583894 ], [ 5.0010493, 5.8591893 ], [ 5.0, 5.860590329183444 ], [ 5.0, 10.0 ], [ 10.0, 10.0 ], [ 10.0, 5.0 ], [ 5.436835274586617, 5.0 ], [ 5.4355455, 5.0029123 ] ] ] ] } }
]
}
