{
"type": "FeatureCollection",
"name": "60_-80",
"crs": { "type": "name", "properties": { "name": "urn:ogc:def:crs:OGC:1.3:CRS84" } },
"xy_coordinate_resolution": 1e-15,
"features": [
{ "type": "Feature", "properties": { "FID": 307096, "id": 1762, "left": 60.0, "top": -75.0, "right": 65.0, "bottom": -80.0, "row_index": 33, "col_index": 48, "min_lon": 60.0, "min_lat": -80.0, "tile_id": "60_-80" }, "geometry": { "type": "MultiPolygon", "coordinates": [ [ [ [ 65.0, -75.0 ], [ 65.0, -80.0 ], [ 60.0, -80.0 ], [ 60.0, -75.0 ], [ 65.0, -75.0 ] ] ] ] } }
]
}
