{
"type": "FeatureCollection",
"name": "60_70",
"crs": { "type": "name", "properties": { "name": "urn:ogc:def:crs:OGC:1.3:CRS84" } },
"xy_coordinate_resolution": 1e-15,
"features": [
{ "type": "Feature", "properties": { "FID": 92250, "id": 1732, "left": 60.0, "top": 75.0, "right": 65.0, "bottom": 70.0, "row_index": 3, "col_index": 48, "min_lon": 60.0, "min_lat": 70.0, "tile_id": "60_70" }, "geometry": { "type": "MultiPolygon", "coordinates": [ [ [ [ 60.4117262, 74.9998537 ], [ 60.4112086, 74.9996857 ], [ 60.4106346, 74.9995905 ], [ 60.4099131, 74.9995246 ], [ 60.4088375, 74.9993969 ], [ 60.4078451, 74.9992476 ], [ 60.4074159, 74.9992122 ], [ 60.4071853, 74.9991837 ], [ 60.4068285, 74.9991136 ], [ 60.4063189, 74.9990345 ], [ 60.4057556, 74.9989831 ], [ 60.4049617, 74.9989095 ], [ 60.4039049, 74.9987984 ], [ 60.4012227, 74.9985152 ], [ 60.4001659, 74.9983957 ], [ 60.3999996, 74.9983624 ], [ 60.3993773, 74.9982402 ], [ 60.3983045, 74.9980791 ], [ 60.3971296, 74.9979514 ], [ 60.3956973, 74.9978236 ], [ 60.3921032, 74.9975265 ], [ 60.3908533, 74.9974459 ], [ 60.3905824, 74.9974348 ], [ 60.39029, 74.9974015 ], [ 60.3899467, 74.9973571 ], [ 60.3891957, 74.9973043 ], [ 60.3883749, 74.9972626 ], [ 60.3875434, 74.9972043 ], [ 60.3862077, 74.9971168 ], [ 60.3854835, 74.997071 ], [ 60.3846252, 74.9969793 ], [ 60.3824794, 74.9967627 ], [ 60.3807521, 74.9966127 ], [ 60.3793466, 74.9964877 ], [ 60.3785956, 74.99641 ], [ 60.3774261, 74.9962072 ], [ 60.3764123, 74.9960239 ], [ 60.3758812, 74.9959281 ], [ 60.3754252, 74.9958697 ], [ 60.374701, 74.9958211 ], [ 60.3733492, 74.9957809 ], [ 60.3720242, 74.9957184 ], [ 60.3707957, 74.9956323 ], [ 60.3703317, 74.9955892 ], [ 60.3699106, 74.9955198 ], [ 60.3691006, 74.9953003 ], [ 60.3682664, 74.9951003 ], [ 60.3678855, 74.995033 ], [ 60.3671908, 74.9949531 ], [ 60.3661287, 74.9948892 ], [ 60.3644174, 74.9947712 ], [ 60.3630307, 74.9946816 ], [ 60.3627276, 74.9946698 ], [ 60.3623468, 74.9946698 ], [ 60.359906, 74.994667 ], [ 60.3557593, 74.9944809 ], [ 60.3551316, 74.9944503 ], [ 60.3546327, 74.9943989 ], [ 60.3535384, 74.9942434 ], [ 60.3515053, 74.9939406 ], [ 60.3497082, 74.9935558 ], [ 60.3482866, 74.9932392 ], [ 60.3466988, 74.9929002 ], [ 60.3456044, 74.9926599 ], [ 60.3446978, 74.9924557 ], [ 60.3435498, 74.9922529 ], [ 60.342316, 74.9920195 ], [ 60.3411144, 74.9918667 ], [ 60.3403902, 74.9917931 ], [ 60.3394997, 74.9917084 ], [ 60.3386307, 74.9916514 ], [ 60.337708, 74.9916236 ], [ 60.3370643, 74.9916056 ], [ 60.3362971, 74.9915708 ], [ 60.335691, 74.9915431 ], [ 60.3345859, 74.9914958 ], [ 60.3337169, 74.9914208 ], [ 60.3329551, 74.9913402 ], [ 60.3316677, 74.9911541 ], [ 60.3304928, 74.9909915 ], [ 60.328744, 74.9907193 ], [ 60.3283846, 74.9906484 ], [ 60.3281593, 74.9905803 ], [ 60.3276873, 74.9904081 ], [ 60.3267324, 74.9901455 ], [ 60.3260833, 74.9899732 ], [ 60.3248334, 74.9897259 ], [ 60.3236961, 74.9895008 ], [ 60.3228807, 74.9892702 ], [ 60.3220922, 74.9890298 ], [ 60.3211427, 74.9887742 ], [ 60.3200805, 74.9885032 ], [ 60.3190827, 74.9882809 ], [ 60.3183156, 74.9880739 ], [ 60.3175753, 74.9878974 ], [ 60.3167814, 74.9876654 ], [ 60.3159231, 74.9874667 ], [ 60.3151667, 74.9872582 ], [ 60.3146249, 74.9871179 ], [ 60.3142333, 74.9870498 ], [ 60.3136218, 74.9869887 ], [ 60.3120553, 74.9867886 ], [ 60.3099632, 74.9864314 ], [ 60.3089064, 74.9862772 ], [ 60.307973, 74.9861174 ], [ 60.3071308, 74.9859437 ], [ 60.3065997, 74.9858658 ], [ 60.3052264, 74.9857491 ], [ 60.3032738, 74.9856615 ], [ 60.3027105, 74.9856379 ], [ 60.3023404, 74.9855948 ], [ 60.300951, 74.9853516 ], [ 60.2995402, 74.9851626 ], [ 60.2983171, 74.9850376 ], [ 60.2970886, 74.9848597 ], [ 60.2960426, 74.9846748 ], [ 60.2952003, 74.9845511 ], [ 60.2941918, 74.9844024 ], [ 60.2931189, 74.9843051 ], [ 60.2924806, 74.9841981 ], [ 60.2915525, 74.9840953 ], [ 60.2902704, 74.9839785 ], [ 60.2885967, 74.9838284 ], [ 60.2859145, 74.9835087 ], [ 60.2838063, 74.9832002 ], [ 60.2828568, 74.9830028 ], [ 60.2822292, 74.9828332 ], [ 60.2814352, 74.9826775 ], [ 60.2808881, 74.9825636 ], [ 60.2804267, 74.9824857 ], [ 60.2786913, 74.9822883 ], [ 60.2774656, 74.9821605 ], [ 60.2768809, 74.9821118 ], [ 60.2765214, 74.9820652 ], [ 60.275411, 74.9819186 ], [ 60.2737105, 74.9816503 ], [ 60.27201, 74.9813473 ], [ 60.2706367, 74.9810512 ], [ 60.2693224, 74.980826 ], [ 60.2684319, 74.9807036 ], [ 60.2667475, 74.9805424 ], [ 60.2651542, 74.980313 ], [ 60.2638507, 74.9800656 ], [ 60.2628851, 74.9799196 ], [ 60.2621609, 74.9798389 ], [ 60.2605891, 74.9797249 ], [ 60.2587116, 74.9796499 ], [ 60.2568877, 74.9795804 ], [ 60.2559382, 74.9795345 ], [ 60.2535349, 74.9793537 ], [ 60.2529931, 74.9793218 ], [ 60.2521884, 74.9793412 ], [ 60.2507561, 74.9793857 ], [ 60.2498817, 74.979408 ], [ 60.249297, 74.9794024 ], [ 60.2487123, 74.9793816 ], [ 60.2470815, 74.9792801 ], [ 60.2467382, 74.9792648 ], [ 60.2460623, 74.979255 ], [ 60.2452898, 74.9792536 ], [ 60.2445656, 74.9792328 ], [ 60.2435356, 74.9791869 ], [ 60.2429616, 74.9791869 ], [ 60.2420604, 74.9791549 ], [ 60.2413738, 74.9791049 ], [ 60.2392495, 74.9788546 ], [ 60.2370661, 74.9785752 ], [ 60.2346361, 74.9782234 ], [ 60.23278, 74.977848 ], [ 60.2322543, 74.9777215 ], [ 60.2320236, 74.9776353 ], [ 60.2316159, 74.9774879 ], [ 60.2311975, 74.9773933 ], [ 60.2302051, 74.9772251 ], [ 60.2260047, 74.9764978 ], [ 60.2224749, 74.9758735 ], [ 60.2191222, 74.9752533 ], [ 60.2148521, 74.9745663 ], [ 60.2145034, 74.9745245 ], [ 60.2141225, 74.9745106 ], [ 60.2128994, 74.97448 ], [ 60.2123576, 74.9744689 ], [ 60.2120358, 74.9744341 ], [ 60.2096647, 74.9741727 ], [ 60.2068162, 74.9739084 ], [ 60.2021599, 74.9735663 ], [ 60.197686, 74.973373 ], [ 60.1947248, 74.9734064 ], [ 60.1938289, 74.9735009 ], [ 60.1929009, 74.9736303 ], [ 60.1924127, 74.9737874 ], [ 60.192005, 74.9739474 ], [ 60.1919031, 74.9741031 ], [ 60.192107, 74.9742186 ], [ 60.1925951, 74.9743159 ], [ 60.1934963, 74.9744161 ], [ 60.1956636, 74.9744063 ], [ 60.1998639, 74.9744717 ], [ 60.2032489, 74.9746052 ], [ 60.2064246, 74.9747999 ], [ 60.2098632, 74.9750794 ], [ 60.2129424, 74.975434 ], [ 60.2156407, 74.9758234 ], [ 60.2187359, 74.9762962 ], [ 60.22071, 74.9767523 ], [ 60.2226841, 74.9772404 ], [ 60.2239045, 74.9775699 ], [ 60.2252993, 74.9779634 ], [ 60.2263856, 74.9783186 ], [ 60.2271259, 74.9786294 ], [ 60.2276516, 74.978888 ], [ 60.2283811, 74.9793106 ], [ 60.2289069, 74.9796693 ], [ 60.2291644, 74.9799668 ], [ 60.2293253, 74.9803714 ], [ 60.2292851, 74.9807586 ], [ 60.228931, 74.9810776 ], [ 60.2281961, 74.9813612 ], [ 60.2279198, 74.981421 ], [ 60.2276918, 74.9814488 ], [ 60.226623, 74.9814694 ], [ 60.2264989, 74.9814621 ], [ 60.2264419, 74.9814496 ], [ 60.2264178, 74.981423 ], [ 60.2264553, 74.9813966 ], [ 60.226914, 74.9813264 ], [ 60.227032, 74.9812958 ], [ 60.2270481, 74.9812687 ], [ 60.227032, 74.9812361 ], [ 60.2269649, 74.9812076 ], [ 60.2268442, 74.9811937 ], [ 60.2266109, 74.9811819 ], [ 60.2263078, 74.9811777 ], [ 60.2259913, 74.9811888 ], [ 60.2243578, 74.9813563 ], [ 60.2236605, 74.9814821 ], [ 60.2230999, 74.9816058 ], [ 60.2222577, 74.9819693 ], [ 60.2216193, 74.9824016 ], [ 60.2210936, 74.9829097 ], [ 60.2208441, 74.9834511 ], [ 60.2208227, 74.983777 ], [ 60.2208415, 74.9841425 ], [ 60.2205223, 74.9843975 ], [ 60.2201682, 74.9847478 ], [ 60.2200314, 74.9848909 ], [ 60.2196559, 74.9850744 ], [ 60.2191839, 74.9853773 ], [ 60.2186877, 74.9857442 ], [ 60.2186179, 74.9858269 ], [ 60.2186421, 74.9859006 ], [ 60.2188835, 74.9860798 ], [ 60.2192965, 74.9863807 ], [ 60.2194843, 74.9866142 ], [ 60.2195755, 74.9867059 ], [ 60.2202085, 74.9870095 ], [ 60.2207074, 74.987334 ], [ 60.2212116, 74.9876772 ], [ 60.2217025, 74.9880913 ], [ 60.2219412, 74.988381 ], [ 60.2220833, 74.9885755 ], [ 60.2223086, 74.9887367 ], [ 60.2228478, 74.9890778 ], [ 60.2229872, 74.9892369 ], [ 60.2229497, 74.98943 ], [ 60.2226841, 74.9897398 ], [ 60.2223945, 74.9901649 ], [ 60.2221477, 74.9905039 ], [ 60.2218875, 74.9909895 ], [ 60.2217856, 74.9912409 ], [ 60.2216247, 74.991441 ], [ 60.2214289, 74.9916007 ], [ 60.2212813, 74.9916931 ], [ 60.220769, 74.9918973 ], [ 60.2201951, 74.9922022 ], [ 60.2195138, 74.9924661 ], [ 60.2188861, 74.9926412 ], [ 60.2185965, 74.9926995 ], [ 60.2183041, 74.992744 ], [ 60.2175799, 74.9927912 ], [ 60.2173358, 74.992812 ], [ 60.2172714, 74.9928308 ], [ 60.2172098, 74.9928551 ], [ 60.2167806, 74.9931419 ], [ 60.2163568, 74.9934906 ], [ 60.2158928, 74.9937239 ], [ 60.2154797, 74.9938996 ], [ 60.2147636, 74.9941024 ], [ 60.2142057, 74.9942128 ], [ 60.213452, 74.9943281 ], [ 60.2126795, 74.9943906 ], [ 60.211671, 74.9944177 ], [ 60.2107349, 74.9944045 ], [ 60.210523, 74.9943955 ], [ 60.2103218, 74.9943795 ], [ 60.2100161, 74.9943378 ], [ 60.2098122, 74.9943156 ], [ 60.2096218, 74.9943101 ], [ 60.2081948, 74.9943601 ], [ 60.2068162, 74.9945184 ], [ 60.2059793, 74.9946601 ], [ 60.204893, 74.9948698 ], [ 60.2038577, 74.9951816 ], [ 60.20334, 74.9954295 ], [ 60.2029753, 74.995685 ], [ 60.2028412, 74.9958906 ], [ 60.2029216, 74.9960531 ], [ 60.2034473, 74.9964405 ], [ 60.204252, 74.9970654 ], [ 60.2044344, 74.9972987 ], [ 60.2043271, 74.997607 ], [ 60.2039301, 74.9978403 ], [ 60.2032435, 74.9980847 ], [ 60.2012694, 74.9985513 ], [ 60.1982975, 74.9991511 ], [ 60.1965487, 74.9994455 ], [ 60.1960015, 74.9995586 ], [ 60.1958004, 74.9996121 ], [ 60.1955053, 74.9996683 ], [ 60.1950118, 74.9998523 ], [ 60.1947275, 74.9999772 ], [ 60.194664346451617, 75.0 ], [ 60.412312571180784, 75.0 ], [ 60.4117262, 74.9998537 ] ] ], [ [ [ 60.170896, 74.999887 ], [ 60.1683211, 74.9997315 ], [ 60.1660359, 74.9996176 ], [ 60.163064, 74.9994802 ], [ 60.1607573, 74.9993844 ], [ 60.1603711, 74.9992899 ], [ 60.1601726, 74.9991567 ], [ 60.1598668, 74.9989928 ], [ 60.1596093, 74.9988456 ], [ 60.1590943, 74.9986651 ], [ 60.1573133, 74.9978153 ], [ 60.1552212, 74.9966738 ], [ 60.1551408, 74.9966044 ], [ 60.1551649, 74.9965676 ], [ 60.1552427, 74.9965391 ], [ 60.1560044, 74.9963211 ], [ 60.1568735, 74.9960433 ], [ 60.158118, 74.995485 ], [ 60.1591104, 74.9950767 ], [ 60.1610202, 74.9942406 ], [ 60.1611918, 74.9941406 ], [ 60.1611918, 74.994085 ], [ 60.1610362, 74.9938434 ], [ 60.1610792, 74.99366 ], [ 60.1611221, 74.9935767 ], [ 60.1630425, 74.9927099 ], [ 60.1638257, 74.9924377 ], [ 60.1653385, 74.9920709 ], [ 60.1671517, 74.9918126 ], [ 60.1679349, 74.9917292 ], [ 60.1695979, 74.9915986 ], [ 60.1702094, 74.9915208 ], [ 60.1709926, 74.9913791 ], [ 60.1714325, 74.9911847 ], [ 60.171529, 74.9908846 ], [ 60.1716685, 74.9903706 ], [ 60.1719153, 74.9899176 ], [ 60.1721084, 74.9897065 ], [ 60.1730579, 74.9891674 ], [ 60.1736855, 74.9886839 ], [ 60.1739752, 74.988092 ], [ 60.174104, 74.9878307 ], [ 60.1743668, 74.9876904 ], [ 60.1747423, 74.9875042 ], [ 60.1750213, 74.9872707 ], [ 60.1750481, 74.9871387 ], [ 60.1749837, 74.9865732 ], [ 60.1751071, 74.986298 ], [ 60.1751339, 74.9862119 ], [ 60.1749408, 74.9854767 ], [ 60.1746726, 74.9850515 ], [ 60.1743454, 74.9846401 ], [ 60.1740128, 74.9841536 ], [ 60.1739538, 74.9840939 ], [ 60.1738599, 74.9840265 ], [ 60.1737338, 74.9839493 ], [ 60.1736319, 74.9838951 ], [ 60.1733583, 74.9833628 ], [ 60.1733637, 74.9829722 ], [ 60.1736265, 74.9826067 ], [ 60.1744956, 74.9819617 ], [ 60.174796, 74.9817407 ], [ 60.1748174, 74.9816503 ], [ 60.174745, 74.9814918 ], [ 60.1744634, 74.9811242 ], [ 60.1744258, 74.981054 ], [ 60.1744017, 74.9809949 ], [ 60.1744553, 74.9809511 ], [ 60.1750159, 74.9807217 ], [ 60.1756462, 74.9804743 ], [ 60.1756355, 74.98037 ], [ 60.1754853, 74.9802949 ], [ 60.1752332, 74.9802504 ], [ 60.1741603, 74.9800829 ], [ 60.1729801, 74.9798389 ], [ 60.1726341, 74.9797611 ], [ 60.1723874, 74.9796679 ], [ 60.1720896, 74.9794796 ], [ 60.1715237, 74.9788379 ], [ 60.1710945, 74.978375 ], [ 60.170837, 74.9780343 ], [ 60.1707914, 74.9779057 ], [ 60.170778, 74.9778174 ], [ 60.1709282, 74.9776867 ], [ 60.1723713, 74.9767885 ], [ 60.1726288, 74.9764492 ], [ 60.1726502, 74.9763963 ], [ 60.1726448, 74.9763171 ], [ 60.1718938, 74.9757205 ], [ 60.170778, 74.975231 ], [ 60.1699304, 74.9748778 ], [ 60.1686859, 74.9743994 ], [ 60.1679563, 74.9741296 ], [ 60.1677015, 74.9740656 ], [ 60.1673636, 74.9740503 ], [ 60.1669666, 74.9740559 ], [ 60.1661754, 74.9740677 ], [ 60.1657972, 74.9740691 ], [ 60.1650703, 74.9740183 ], [ 60.164322, 74.9739411 ], [ 60.1629326, 74.9737214 ], [ 60.1622057, 74.9735886 ], [ 60.1613259, 74.9733243 ], [ 60.1611596, 74.9732631 ], [ 60.1609129, 74.9732061 ], [ 60.1600009, 74.973074 ], [ 60.1591372, 74.9728472 ], [ 60.1589656, 74.972818 ], [ 60.1588422, 74.9727819 ], [ 60.1585096, 74.9725273 ], [ 60.1584077, 74.9724661 ], [ 60.1582736, 74.9724119 ], [ 60.1577961, 74.9722825 ], [ 60.1573133, 74.9720475 ], [ 60.1570344, 74.9719585 ], [ 60.156793, 74.9719126 ], [ 60.1564228, 74.971882 ], [ 60.1562566, 74.9718277 ], [ 60.1557845, 74.9714827 ], [ 60.1555994, 74.9714257 ], [ 60.1555029, 74.971416 ], [ 60.1553741, 74.9714174 ], [ 60.1548517, 74.9714507 ], [ 60.1547337, 74.9714593 ], [ 60.154605, 74.9714581 ], [ 60.1545158, 74.9714459 ], [ 60.1537138, 74.9711545 ], [ 60.1528984, 74.9707942 ], [ 60.1517183, 74.9703838 ], [ 60.1502269, 74.9698594 ], [ 60.1491004, 74.9694754 ], [ 60.1477674, 74.9691471 ], [ 60.1476064, 74.969129 ], [ 60.1473623, 74.9691367 ], [ 60.1472256, 74.9691533 ], [ 60.1471022, 74.9692006 ], [ 60.1469976, 74.9695005 ], [ 60.1467562, 74.9699248 ], [ 60.1466381, 74.9702517 ], [ 60.1462358, 74.9704868 ], [ 60.1456886, 74.9706843 ], [ 60.1442295, 74.9709194 ], [ 60.142175, 74.9711322 ], [ 60.1403832, 74.9712059 ], [ 60.1392138, 74.9712268 ], [ 60.1388812, 74.9712685 ], [ 60.1387846, 74.9713089 ], [ 60.1387364, 74.9713826 ], [ 60.1388007, 74.9718527 ], [ 60.1386666, 74.971996 ], [ 60.1384842, 74.9720809 ], [ 60.1376903, 74.9724383 ], [ 60.1368266, 74.9727457 ], [ 60.1358235, 74.9730211 ], [ 60.1335865, 74.9735079 ], [ 60.1319128, 74.9737902 ], [ 60.1299226, 74.9741713 ], [ 60.1293164, 74.9743257 ], [ 60.1285171, 74.9745106 ], [ 60.128029, 74.9746553 ], [ 60.1264036, 74.9751128 ], [ 60.1258779, 74.9752338 ], [ 60.1250786, 74.975345 ], [ 60.1233244, 74.9754758 ], [ 60.1207334, 74.9755634 ], [ 60.1197946, 74.9755926 ], [ 60.1184159, 74.9756065 ], [ 60.1180726, 74.9756162 ], [ 60.1178205, 74.9756357 ], [ 60.1176059, 74.975676 ], [ 60.117268, 74.9757956 ], [ 60.1162648, 74.9760306 ], [ 60.1143283, 74.9764214 ], [ 60.1124829, 74.9767009 ], [ 60.110541, 74.9769678 ], [ 60.1087439, 74.9770972 ], [ 60.1069415, 74.9771514 ], [ 60.1044202, 74.9771444 ], [ 60.1025373, 74.9770819 ], [ 60.1009548, 74.9770888 ], [ 60.0993991, 74.9771416 ], [ 60.0991684, 74.9771465 ], [ 60.0989458, 74.9771319 ], [ 60.0982296, 74.9769651 ], [ 60.0980446, 74.9769491 ], [ 60.0978649, 74.9769512 ], [ 60.0975752, 74.9769852 ], [ 60.0974733, 74.9770408 ], [ 60.0974196, 74.977207 ], [ 60.097256, 74.9772932 ], [ 60.0966766, 74.9774253 ], [ 60.095129, 74.9777861 ], [ 60.0935975, 74.9781421 ], [ 60.0922939, 74.9783492 ], [ 60.0913364, 74.9784751 ], [ 60.0896198, 74.9786523 ], [ 60.089373, 74.9786669 ], [ 60.0891075, 74.9786579 ], [ 60.0884932, 74.9786078 ], [ 60.0881579, 74.9786162 ], [ 60.0879246, 74.9786447 ], [ 60.087828, 74.9786906 ], [ 60.0876296, 74.9788338 ], [ 60.087195, 74.9790034 ], [ 60.0866479, 74.9791146 ], [ 60.0846147, 74.9793802 ], [ 60.0826567, 74.9795706 ], [ 60.0818682, 74.9796304 ], [ 60.0812727, 74.9796499 ], [ 60.0805002, 74.979661 ], [ 60.0800979, 74.979693 ], [ 60.0792718, 74.9798376 ], [ 60.0773245, 74.980142 ], [ 60.0757527, 74.980231 ], [ 60.0744867, 74.9802713 ], [ 60.0716168, 74.9802074 ], [ 60.0684142, 74.9800475 ], [ 60.0667995, 74.9800669 ], [ 60.0659895, 74.9801198 ], [ 60.0650775, 74.980231 ], [ 60.0635862, 74.9804729 ], [ 60.0609469, 74.9810442 ], [ 60.0588494, 74.9814682 ], [ 60.0576639, 74.9816614 ], [ 60.0572669, 74.9817546 ], [ 60.0563711, 74.9820548 ], [ 60.0539517, 74.9826678 ], [ 60.0529647, 74.9828763 ], [ 60.0513071, 74.9831043 ], [ 60.0488877, 74.9833711 ], [ 60.0479811, 74.9834795 ], [ 60.047552, 74.9835504 ], [ 60.0472838, 74.9836575 ], [ 60.0464469, 74.983973 ], [ 60.0454223, 74.9842495 ], [ 60.0418228, 74.9848013 ], [ 60.0393927, 74.985253 ], [ 60.0365817, 74.98587 ], [ 60.0342268, 74.9864412 ], [ 60.0338995, 74.9865162 ], [ 60.0312495, 74.9868692 ], [ 60.0289589, 74.9872027 ], [ 60.0255042, 74.987689 ], [ 60.0231492, 74.9880419 ], [ 60.0225592, 74.9881698 ], [ 60.0213253, 74.9885366 ], [ 60.01948, 74.989084 ], [ 60.0179404, 74.9896967 ], [ 60.0167817, 74.9901663 ], [ 60.0162935, 74.9902983 ], [ 60.015741, 74.9903803 ], [ 60.0155425, 74.9904442 ], [ 60.015167, 74.9906901 ], [ 60.0138473, 74.991632 ], [ 60.0124848, 74.992546 ], [ 60.0113583, 74.9931739 ], [ 60.0095773, 74.9937323 ], [ 60.0081611, 74.9939656 ], [ 60.0071525, 74.9940545 ], [ 60.0059616, 74.9941073 ], [ 60.0035906, 74.9941017 ], [ 60.0016004, 74.9939739 ], [ 60.0, 74.993842204553346 ], [ 60.0, 75.0 ], [ 60.172893237582684, 75.0 ], [ 60.170896, 74.999887 ] ] ], [ [ [ 60.0012088, 74.9663227 ], [ 60.0040197, 74.9662058 ], [ 60.0078392, 74.9661891 ], [ 60.0117874, 74.9664507 ], [ 60.0146842, 74.9666678 ], [ 60.0162506, 74.9666678 ], [ 60.0176453, 74.9665342 ], [ 60.0188684, 74.9663116 ], [ 60.021851, 74.965293 ], [ 60.0253486, 74.963623 ], [ 60.0265932, 74.9632055 ], [ 60.0281381, 74.9628214 ], [ 60.0300693, 74.9624985 ], [ 60.0329876, 74.9618749 ], [ 60.0343394, 74.9614629 ], [ 60.0354123, 74.9608672 ], [ 60.0364852, 74.9596367 ], [ 60.0371933, 74.9592135 ], [ 60.0380945, 74.9587847 ], [ 60.0420427, 74.9574593 ], [ 60.0468492, 74.9563343 ], [ 60.0546813, 74.9546801 ], [ 60.0599384, 74.9539114 ], [ 60.0624919, 74.9535048 ], [ 60.0631785, 74.9533767 ], [ 60.0637364, 74.9532096 ], [ 60.0645518, 74.9526414 ], [ 60.0652599, 74.952218 ], [ 60.0665688, 74.9516887 ], [ 60.0706029, 74.9502736 ], [ 60.0742936, 74.9493821 ], [ 60.0797224, 74.9485351 ], [ 60.0882625, 74.9473371 ], [ 60.0950431, 74.9462894 ], [ 60.1056432, 74.9444278 ], [ 60.1097631, 74.9436809 ], [ 60.1127672, 74.9432852 ], [ 60.1145696, 74.9431681 ], [ 60.1177668, 74.942973 ], [ 60.1188826, 74.9428615 ], [ 60.1223373, 74.9424936 ], [ 60.1272726, 74.9421313 ], [ 60.1317143, 74.9419362 ], [ 60.1380873, 74.9417355 ], [ 60.1401257, 74.9415682 ], [ 60.146048, 74.940955 ], [ 60.1512408, 74.9404811 ], [ 60.1541805, 74.9403306 ], [ 60.1581716, 74.9402637 ], [ 60.1615834, 74.9401466 ], [ 60.1641798, 74.9399961 ], [ 60.1662183, 74.9398901 ], [ 60.1676988, 74.9397507 ], [ 60.1691794, 74.93955 ], [ 60.1706171, 74.9393995 ], [ 60.1720762, 74.939366 ], [ 60.1745009, 74.9395166 ], [ 60.1775694, 74.9397006 ], [ 60.1797366, 74.9397396 ], [ 60.183599, 74.9396894 ], [ 60.1856804, 74.9396671 ], [ 60.1877832, 74.9398232 ], [ 60.1896715, 74.9399738 ], [ 60.1908088, 74.9400518 ], [ 60.1923966, 74.9401076 ], [ 60.1936197, 74.9400685 ], [ 60.1953363, 74.9399961 ], [ 60.1976537, 74.9400295 ], [ 60.1991343, 74.9401354 ], [ 60.200572, 74.9402191 ], [ 60.2029753, 74.9402358 ], [ 60.2119231, 74.9402302 ], [ 60.2153563, 74.9403417 ], [ 60.2159786, 74.9404031 ], [ 60.2170944, 74.9404588 ], [ 60.2181244, 74.9404588 ], [ 60.2193904, 74.9403752 ], [ 60.2220082, 74.9399738 ], [ 60.2247333, 74.9396672 ], [ 60.2262568, 74.9396225 ], [ 60.2281022, 74.9396727 ], [ 60.2314925, 74.9398901 ], [ 60.2346468, 74.9399292 ], [ 60.2395177, 74.9399849 ], [ 60.2416634, 74.9400797 ], [ 60.2435517, 74.9402302 ], [ 60.2500962, 74.9406929 ], [ 60.2519202, 74.9407822 ], [ 60.2537656, 74.9407766 ], [ 60.2552891, 74.9407989 ], [ 60.2587223, 74.9409327 ], [ 60.2602243, 74.9410498 ], [ 60.2621126, 74.9413285 ], [ 60.2635073, 74.941624 ], [ 60.2647841, 74.9419696 ], [ 60.2653795, 74.9421104 ], [ 60.2660072, 74.9422093 ], [ 60.2669728, 74.9422985 ], [ 60.2676701, 74.942357 ], [ 60.268507, 74.94241 ], [ 60.2697408, 74.9424211 ], [ 60.2717471, 74.9424323 ], [ 60.2734744, 74.9424239 ], [ 60.2756631, 74.942502 ], [ 60.2781951, 74.9427389 ], [ 60.2797079, 74.9428197 ], [ 60.2802658, 74.9428392 ], [ 60.2808344, 74.9428141 ], [ 60.2812529, 74.9427598 ], [ 60.2819341, 74.9426051 ], [ 60.2828139, 74.9424643 ], [ 60.283581, 74.9423682 ], [ 60.2849543, 74.9422511 ], [ 60.2858555, 74.9421912 ], [ 60.2866709, 74.9421759 ], [ 60.2879155, 74.9421717 ], [ 60.2889454, 74.9421898 ], [ 60.289793, 74.9422205 ], [ 60.2911878, 74.9423292 ], [ 60.291928, 74.9424239 ], [ 60.2923894, 74.9424755 ], [ 60.2929741, 74.942495 ], [ 60.2938378, 74.9424825 ], [ 60.2954686, 74.94241 ], [ 60.2968204, 74.9422985 ], [ 60.2982366, 74.9421201 ], [ 60.299567, 74.9420086 ], [ 60.3017449, 74.9419055 ], [ 60.304631, 74.9418832 ], [ 60.3068089, 74.941978 ], [ 60.3078174, 74.9420867 ], [ 60.3090942, 74.9422957 ], [ 60.3101992, 74.9424936 ], [ 60.3108966, 74.9425521 ], [ 60.3115082, 74.9425494 ], [ 60.3130746, 74.9425215 ], [ 60.3143406, 74.9425243 ], [ 60.3158319, 74.942463 ], [ 60.3171193, 74.9423765 ], [ 60.3187179, 74.9422511 ], [ 60.3195012, 74.942226 ], [ 60.3202844, 74.9422483 ], [ 60.3222585, 74.9423738 ], [ 60.3244901, 74.9424379 ], [ 60.3271079, 74.9425103 ], [ 60.3291249, 74.942594 ], [ 60.330981, 74.9427138 ], [ 60.333159, 74.9428197 ], [ 60.3342748, 74.9428392 ], [ 60.3357446, 74.9428197 ], [ 60.3369462, 74.94275 ], [ 60.3390384, 74.9425689 ], [ 60.3407657, 74.9424685 ], [ 60.3423428, 74.9423821 ], [ 60.3447461, 74.9422818 ], [ 60.3458083, 74.9422595 ], [ 60.3468704, 74.9422706 ], [ 60.3480399, 74.9423431 ], [ 60.3500891, 74.9424267 ], [ 60.3509152, 74.9424407 ], [ 60.3514945, 74.9424184 ], [ 60.3521919, 74.942371 ], [ 60.352782, 74.9422985 ], [ 60.3532863, 74.9421731 ], [ 60.3537583, 74.9420922 ], [ 60.3546381, 74.9420254 ], [ 60.3594553, 74.9417299 ], [ 60.3622877, 74.9415153 ], [ 60.3669977, 74.9411194 ], [ 60.3691864, 74.9408602 ], [ 60.3698194, 74.9407877 ], [ 60.3708064, 74.9407264 ], [ 60.3724694, 74.9406623 ], [ 60.3766858, 74.9405173 ], [ 60.3814173, 74.9403194 ], [ 60.3860414, 74.9400992 ], [ 60.3896034, 74.9398567 ], [ 60.3917277, 74.9396978 ], [ 60.395472, 74.9395472 ], [ 60.3987336, 74.9394608 ], [ 60.40501, 74.9393186 ], [ 60.4078746, 74.9391988 ], [ 60.4115546, 74.9390594 ], [ 60.4134214, 74.9389423 ], [ 60.4161787, 74.9387471 ], [ 60.418539, 74.9384934 ], [ 60.4201591, 74.9384014 ], [ 60.4236352, 74.9382843 ], [ 60.4277766, 74.9381867 ], [ 60.4318964, 74.938223 ], [ 60.4383445, 74.9382592 ], [ 60.4420781, 74.938315 ], [ 60.4466379, 74.9384962 ], [ 60.4492128, 74.9386607 ], [ 60.4514873, 74.9388949 ], [ 60.4557788, 74.9392935 ], [ 60.457989, 74.9394859 ], [ 60.4595661, 74.9396504 ], [ 60.461272, 74.9398344 ], [ 60.4624629, 74.939971 ], [ 60.4641259, 74.9401187 ], [ 60.4657352, 74.9402748 ], [ 60.4683745, 74.9405285 ], [ 60.472033, 74.9408491 ], [ 60.4766142, 74.9412978 ], [ 60.4814529, 74.9417355 ], [ 60.4865599, 74.9420644 ], [ 60.4885876, 74.94224 ], [ 60.4898643, 74.9423821 ], [ 60.4931688, 74.9428727 ], [ 60.4945528, 74.9430733 ], [ 60.4959154, 74.9432155 ], [ 60.4992092, 74.9435137 ], [ 60.5019128, 74.9438063 ], [ 60.5034256, 74.9439763 ], [ 60.5054533, 74.9441296 ], [ 60.5080604, 74.9442941 ], [ 60.5104744, 74.9444975 ], [ 60.5117726, 74.9446759 ], [ 60.5133498, 74.944896 ], [ 60.5165362, 74.9452388 ], [ 60.5198836, 74.945537 ], [ 60.5213106, 74.9456401 ], [ 60.522362, 74.9456986 ], [ 60.5230486, 74.9457153 ], [ 60.5244434, 74.9456568 ], [ 60.5263746, 74.945523 ], [ 60.5275118, 74.9454561 ], [ 60.5280483, 74.9454589 ], [ 60.529443, 74.9455202 ], [ 60.5312133, 74.9456011 ], [ 60.5329299, 74.945732 ], [ 60.5344105, 74.9458574 ], [ 60.5360412, 74.9460246 ], [ 60.5377149, 74.9461779 ], [ 60.5391097, 74.9462336 ], [ 60.5401933, 74.9461918 ], [ 60.5435943, 74.945955 ], [ 60.5466735, 74.945693 ], [ 60.5497956, 74.9454589 ], [ 60.551523, 74.9454032 ], [ 60.5523491, 74.9454311 ], [ 60.5527997, 74.9455091 ], [ 60.5533898, 74.9456401 ], [ 60.5541408, 74.9457432 ], [ 60.5550849, 74.9458407 ], [ 60.5563187, 74.9459995 ], [ 60.5568981, 74.9460553 ], [ 60.5574024, 74.9460525 ], [ 60.5585289, 74.9459271 ], [ 60.5606317, 74.9456456 ], [ 60.5612433, 74.945537 ], [ 60.5616939, 74.9454171 ], [ 60.5621982, 74.9452137 ], [ 60.5626488, 74.9450744 ], [ 60.5631745, 74.9449573 ], [ 60.5636573, 74.9448319 ], [ 60.5662215, 74.9443944 ], [ 60.5673051, 74.9441101 ], [ 60.5685925, 74.9436475 ], [ 60.5695474, 74.9432601 ], [ 60.5705237, 74.9427918 ], [ 60.5716824, 74.942201 ], [ 60.5723798, 74.9417884 ], [ 60.5731845, 74.9413787 ], [ 60.573957, 74.9410386 ], [ 60.5748153, 74.9406372 ], [ 60.5760062, 74.9401299 ], [ 60.5765748, 74.9399264 ], [ 60.5777979, 74.9394971 ], [ 60.5784738, 74.9391597 ], [ 60.5801797, 74.938184 ], [ 60.581671, 74.9374061 ], [ 60.5826473, 74.9370185 ], [ 60.5834842, 74.9366979 ], [ 60.583924, 74.936486 ], [ 60.5848682, 74.9360593 ], [ 60.586456, 74.9351921 ], [ 60.5878293, 74.9343806 ], [ 60.5890417, 74.9338954 ], [ 60.5902111, 74.9335022 ], [ 60.5921101, 74.9329528 ], [ 60.5929309, 74.9327617 ], [ 60.5937517, 74.9326265 ], [ 60.5943954, 74.9325958 ], [ 60.5948996, 74.9325344 ], [ 60.5951249, 74.9324786 ], [ 60.5953181, 74.9323643 ], [ 60.5957043, 74.9321356 ], [ 60.5961227, 74.931918 ], [ 60.5972814, 74.9315499 ], [ 60.5994809, 74.9308637 ], [ 60.6006181, 74.930582 ], [ 60.6014013, 74.9303281 ], [ 60.6018627, 74.9301496 ], [ 60.6035256, 74.9294243 ], [ 60.6041586, 74.9290477 ], [ 60.6050062, 74.9284759 ], [ 60.6061327, 74.9277644 ], [ 60.6085682, 74.9263918 ], [ 60.6106496, 74.9256133 ], [ 60.611878, 74.9250957 ], [ 60.612216, 74.9249352 ], [ 60.613203, 74.9243883 ], [ 60.6135893, 74.9241176 ], [ 60.6141794, 74.9234674 ], [ 60.6148016, 74.9229679 ], [ 60.6154668, 74.9225046 ], [ 60.6157887, 74.9221585 ], [ 60.6161427, 74.9218543 ], [ 60.6164324, 74.9216729 ], [ 60.6170118, 74.9214831 ], [ 60.6174946, 74.9212905 ], [ 60.6177199, 74.9211231 ], [ 60.6181598, 74.9206263 ], [ 60.6186104, 74.9199675 ], [ 60.6188249, 74.9194455 ], [ 60.6190073, 74.9188761 ], [ 60.6192434, 74.9178041 ], [ 60.6194365, 74.917497 ], [ 60.6199193, 74.9170755 ], [ 60.620209, 74.9168912 ], [ 60.6210029, 74.9164082 ], [ 60.6216788, 74.9161765 ], [ 60.6242001, 74.9154589 ], [ 60.6247473, 74.9152858 ], [ 60.6250048, 74.9151434 ], [ 60.6253052, 74.9148446 ], [ 60.625627, 74.9143225 ], [ 60.6261527, 74.913831 ], [ 60.626378, 74.9136774 ], [ 60.6270432, 74.9133954 ], [ 60.6278372, 74.9131525 ], [ 60.6283522, 74.9130072 ], [ 60.628497, 74.9129528 ], [ 60.628556, 74.9129109 ], [ 60.628438, 74.9127894 ], [ 60.6281054, 74.912513 ], [ 60.6280517, 74.9123398 ], [ 60.6281698, 74.9117477 ], [ 60.6281161, 74.9109518 ], [ 60.6282127, 74.9101725 ], [ 60.628438, 74.9096307 ], [ 60.6286311, 74.9090469 ], [ 60.6286311, 74.9087759 ], [ 60.6284702, 74.9084659 ], [ 60.6277084, 74.9076977 ], [ 60.6272578, 74.9072507 ], [ 60.6256163, 74.9059879 ], [ 60.6248331, 74.9053817 ], [ 60.62464, 74.9052057 ], [ 60.6245971, 74.9049793 ], [ 60.6247902, 74.904577 ], [ 60.6249082, 74.9044541 ], [ 60.625112, 74.9042501 ], [ 60.6251228, 74.9040545 ], [ 60.6244469, 74.9033056 ], [ 60.6238675, 74.902716 ], [ 60.6235993, 74.9023528 ], [ 60.623256, 74.9018861 ], [ 60.6227195, 74.9014333 ], [ 60.6215715, 74.9005083 ], [ 60.6212926, 74.9001981 ], [ 60.620842, 74.8996866 ], [ 60.6203055, 74.898999 ], [ 60.6201768, 74.8985322 ], [ 60.6202412, 74.8981912 ], [ 60.6206167, 74.8976964 ], [ 60.6208312, 74.8973219 ], [ 60.6208956, 74.89702 ], [ 60.6207883, 74.8968019 ], [ 60.6205737, 74.8966426 ], [ 60.6201231, 74.8963379 ], [ 60.6195116, 74.8960247 ], [ 60.6187177, 74.8954852 ], [ 60.6180417, 74.8948729 ], [ 60.6171834, 74.8942438 ], [ 60.6162822, 74.8934917 ], [ 60.6147158, 74.8921859 ], [ 60.6138575, 74.8914672 ], [ 60.6134283, 74.890989 ], [ 60.6132781, 74.8906394 ], [ 60.613246, 74.8900074 ], [ 60.6131387, 74.8894844 ], [ 60.6130957, 74.8893585 ], [ 60.6128919, 74.8892019 ], [ 60.612098, 74.8888299 ], [ 60.6112504, 74.888567 ], [ 60.6098235, 74.8881363 ], [ 60.6089973, 74.8878594 ], [ 60.6079888, 74.887409 ], [ 60.6070983, 74.8868999 ], [ 60.606519, 74.8864747 ], [ 60.6060254, 74.8860243 ], [ 60.605607, 74.8857418 ], [ 60.6044912, 74.8852215 ], [ 60.6036329, 74.8848829 ], [ 60.6031287, 74.8846116 ], [ 60.6028604, 74.8843598 ], [ 60.6022274, 74.8835652 ], [ 60.6017017, 74.8827678 ], [ 60.601176, 74.8814834 ], [ 60.6009936, 74.8812316 ], [ 60.600661, 74.880935 ], [ 60.600146, 74.8807139 ], [ 60.5993414, 74.8804592 ], [ 60.5985689, 74.8802326 ], [ 60.5975389, 74.8799415 ], [ 60.5964124, 74.8796169 ], [ 60.5953503, 74.8792419 ], [ 60.593816, 74.8786429 ], [ 60.592829, 74.8783155 ], [ 60.5920887, 74.8780188 ], [ 60.5913806, 74.8777025 ], [ 60.5890632, 74.8770546 ], [ 60.5867404, 74.8765675 ], [ 60.5862307, 74.8764486 ], [ 60.5859089, 74.8763464 ], [ 60.5848253, 74.8757963 ], [ 60.5837095, 74.8753512 ], [ 60.5827761, 74.8749873 ], [ 60.5817246, 74.8745674 ], [ 60.5807322, 74.8741783 ], [ 60.5803084, 74.8739627 ], [ 60.5791503, 74.8733993 ], [ 60.5744082, 74.8701961 ], [ 60.5725199, 74.8687846 ], [ 60.5728847, 74.8678436 ], [ 60.5708033, 74.8668577 ], [ 60.5700523, 74.8646393 ], [ 60.5661684, 74.8613457 ], [ 60.5672842, 74.8599783 ], [ 60.5666834, 74.8574001 ], [ 60.5637008, 74.8554034 ], [ 60.564366, 74.8551579 ], [ 60.5643016, 74.8540131 ], [ 60.5632502, 74.8531396 ], [ 60.5618769, 74.8530947 ], [ 60.5555469, 74.8513442 ], [ 60.5506331, 74.8493265 ], [ 60.545333, 74.8482486 ], [ 60.5447108, 74.8478908 ], [ 60.5422431, 74.8472839 ], [ 60.5407625, 74.847128 ], [ 60.5393893, 74.846769 ], [ 60.5379301, 74.8465222 ], [ 60.5270296, 74.8429544 ], [ 60.5225664, 74.8429544 ], [ 60.5204207, 74.8426851 ], [ 60.5160433, 74.8425728 ], [ 60.5025679, 74.8418996 ], [ 60.4996496, 74.8420567 ], [ 60.4945856, 74.8417649 ], [ 60.492118, 74.841876 ], [ 60.4846507, 74.8414496 ], [ 60.4821402, 74.8409345 ], [ 60.4750162, 74.8417649 ], [ 60.4755312, 74.8419893 ], [ 60.4754454, 74.8426402 ], [ 60.4728919, 74.843043 ], [ 60.4714114, 74.8433134 ], [ 60.4686862, 74.8434918 ], [ 60.4661757, 74.8434705 ], [ 60.4575068, 74.8430441 ], [ 60.4551894, 74.8433583 ], [ 60.4499751, 74.8435592 ], [ 60.4450828, 74.8440753 ], [ 60.431264, 74.8441202 ], [ 60.4166728, 74.8429532 ], [ 60.4093558, 74.8421015 ], [ 60.4076392, 74.842124 ], [ 60.4068667, 74.8419444 ], [ 60.4018027, 74.8416527 ], [ 60.3911811, 74.8405967 ], [ 60.3845507, 74.8400367 ], [ 60.3822333, 74.8395653 ], [ 60.3810316, 74.8395877 ], [ 60.3747016, 74.8387112 ], [ 60.3557974, 74.8369388 ], [ 60.3527933, 74.8368939 ], [ 60.3495318, 74.8364673 ], [ 60.3424937, 74.8365571 ], [ 60.342086, 74.837005 ], [ 60.3411204, 74.8373205 ], [ 60.3373438, 74.8380388 ], [ 60.3342539, 74.8381286 ], [ 60.3303915, 74.8382633 ], [ 60.3298765, 74.8385103 ], [ 60.3283316, 74.8388021 ], [ 60.3274733, 74.8392061 ], [ 60.3251773, 74.8393846 ], [ 60.3235251, 74.8395877 ], [ 60.3206927, 74.8395428 ], [ 60.3104788, 74.8395428 ], [ 60.3041273, 74.8391837 ], [ 60.2977759, 74.8391163 ], [ 60.2959734, 74.8392959 ], [ 60.294686, 74.8392959 ], [ 60.2853519, 74.8384418 ], [ 60.2830988, 74.8389368 ], [ 60.2792579, 74.8390703 ], [ 60.2781206, 74.8389592 ], [ 60.2765971, 74.8392723 ], [ 60.2730566, 74.8396551 ], [ 60.2674991, 74.8397662 ], [ 60.2643877, 74.8397224 ], [ 60.2568561, 74.8402824 ], [ 60.2515346, 74.8411802 ], [ 60.2366644, 74.8420791 ], [ 60.2337462, 74.8424831 ], [ 60.2307421, 74.8426626 ], [ 60.229283, 74.8426851 ], [ 60.2266222, 74.8430666 ], [ 60.2209789, 74.843043 ], [ 60.2159792, 74.8426626 ], [ 60.2120525, 74.8433347 ], [ 60.2104861, 74.843852 ], [ 60.2091986, 74.8443681 ], [ 60.2086836, 74.8449067 ], [ 60.2077395, 74.8452433 ], [ 60.2066237, 74.8454228 ], [ 60.2015811, 74.8459377 ], [ 60.199092, 74.8464762 ], [ 60.1979548, 74.8469709 ], [ 60.1969248, 74.8488106 ], [ 60.1957232, 74.8492368 ], [ 60.1924616, 74.8495733 ], [ 60.1885134, 74.8496181 ], [ 60.1864535, 74.8503359 ], [ 60.1817328, 74.8505378 ], [ 60.1801235, 74.8504021 ], [ 60.1808745, 74.8508294 ], [ 60.1799518, 74.8507162 ], [ 60.1779562, 74.8500668 ], [ 60.1753813, 74.8500219 ], [ 60.1708537, 74.8496843 ], [ 60.1660258, 74.8486535 ], [ 60.161069, 74.8471942 ], [ 60.1568633, 74.8453319 ], [ 60.1546103, 74.8430441 ], [ 60.1553152, 74.8414366 ], [ 60.1560694, 74.8400142 ], [ 60.1573569, 74.8392959 ], [ 60.1594168, 74.8392959 ], [ 60.1606184, 74.8386674 ], [ 60.1643091, 74.8377919 ], [ 60.1692873, 74.8354345 ], [ 60.169459, 74.834716 ], [ 60.1741797, 74.8324256 ], [ 60.1765829, 74.8317968 ], [ 60.1797587, 74.8299327 ], [ 60.1828486, 74.8283154 ], [ 60.1879126, 74.8269901 ], [ 60.1888567, 74.8257544 ], [ 60.1940924, 74.8238222 ], [ 60.1966673, 74.8233278 ], [ 60.1972681, 74.8225189 ], [ 60.1990062, 74.8220234 ], [ 60.2001864, 74.8206087 ], [ 60.2037913, 74.8197996 ], [ 60.2034694, 74.81836 ], [ 60.2024394, 74.8173036 ], [ 60.1998645, 74.8155276 ], [ 60.1925474, 74.8127858 ], [ 60.1916033, 74.8120437 ], [ 60.1919466, 74.808468 ], [ 60.1909381, 74.8076346 ], [ 60.1911956, 74.80633 ], [ 60.1886851, 74.8051389 ], [ 60.1869685, 74.8035865 ], [ 60.1923114, 74.79913 ], [ 60.196324, 74.7967229 ], [ 60.2024394, 74.7947409 ], [ 60.2066237, 74.7940892 ], [ 60.2086192, 74.7943807 ], [ 60.2124602, 74.7939316 ], [ 60.217374, 74.7942682 ], [ 60.2224165, 74.7932787 ], [ 60.2295405, 74.7924457 ], [ 60.2328235, 74.7922194 ], [ 60.2440673, 74.7931425 ], [ 60.2492815, 74.7931211 ], [ 60.258401, 74.7928949 ], [ 60.2640659, 74.7935703 ], [ 60.266555, 74.7934352 ], [ 60.2693659, 74.7938641 ], [ 60.2771765, 74.7907795 ], [ 60.2831203, 74.7901028 ], [ 60.2883345, 74.7902166 ], [ 60.2899653, 74.7908921 ], [ 60.2920467, 74.7907784 ], [ 60.2911025, 74.7901479 ], [ 60.2958232, 74.7853958 ], [ 60.2973682, 74.7832558 ], [ 60.3001148, 74.782197 ], [ 60.3017241, 74.7812518 ], [ 60.3050929, 74.7801917 ], [ 60.3069598, 74.7772408 ], [ 60.3074962, 74.7748506 ], [ 60.3062946, 74.7733178 ], [ 60.3072172, 74.7716056 ], [ 60.307067, 74.7709055 ], [ 60.3073889, 74.7679078 ], [ 60.3068095, 74.7674105 ], [ 60.3066379, 74.7651327 ], [ 60.305329, 74.7636001 ], [ 60.3044063, 74.7624936 ], [ 60.3031188, 74.7612529 ], [ 60.3031188, 74.7606889 ], [ 60.3023464, 74.7599669 ], [ 60.3013164, 74.7590644 ], [ 60.3008658, 74.7570573 ], [ 60.2976042, 74.7557033 ], [ 60.2963382, 74.7537838 ], [ 60.2947933, 74.7527681 ], [ 60.2939135, 74.7518663 ], [ 60.2917677, 74.7510536 ], [ 60.2896434, 74.7507816 ], [ 60.2864677, 74.7490658 ], [ 60.2836353, 74.7481401 ], [ 60.2782065, 74.7456122 ], [ 60.2750307, 74.7435119 ], [ 60.2544528, 74.7361913 ], [ 60.2506763, 74.735536 ], [ 60.2467281, 74.7339315 ], [ 60.2406341, 74.7328693 ], [ 60.2373511, 74.7325089 ], [ 60.2109367, 74.7277833 ], [ 60.2066237, 74.7261113 ], [ 60.2048212, 74.7258626 ], [ 60.2039844, 74.7259745 ], [ 60.199092, 74.7250927 ], [ 60.1959163, 74.7249118 ], [ 60.1923758, 74.724325 ], [ 60.1855952, 74.7238275 ], [ 60.1809603, 74.7236466 ], [ 60.1780421, 74.7236692 ], [ 60.1730639, 74.7234204 ], [ 60.1700598, 74.7237823 ], [ 60.1597816, 74.7240073 ], [ 60.1500613, 74.7240084 ], [ 60.1445037, 74.7237133 ], [ 60.1401264, 74.7231479 ], [ 60.1378948, 74.7227861 ], [ 60.1328093, 74.7216564 ], [ 60.1313716, 74.7217231 ], [ 60.1271445, 74.7212493 ], [ 60.1227027, 74.7201625 ], [ 60.1227027, 74.7197553 ], [ 60.119527, 74.7191446 ], [ 60.1166731, 74.7179694 ], [ 60.1150423, 74.7174264 ], [ 60.1107508, 74.7168835 ], [ 60.1057082, 74.716543 ], [ 60.098992, 74.7160237 ], [ 60.0965029, 74.7155938 ], [ 60.0962454, 74.7157748 ], [ 60.0930697, 74.7157748 ], [ 60.0897223, 74.715526 ], [ 60.0880057, 74.7156617 ], [ 60.0840575, 74.7154807 ], [ 60.0828558, 74.7157975 ], [ 60.0704318, 74.7155927 ], [ 60.0617415, 74.7148924 ], [ 60.0562483, 74.7152771 ], [ 60.0537807, 74.7152533 ], [ 60.0486094, 74.7149829 ], [ 60.0469786, 74.7146888 ], [ 60.0426871, 74.7145304 ], [ 60.0411421, 74.7146662 ], [ 60.038138, 74.7144851 ], [ 60.0348765, 74.7138516 ], [ 60.0253707, 74.712289 ], [ 60.0226241, 74.7123569 ], [ 60.0159079, 74.7116112 ], [ 60.0090414, 74.7105927 ], [ 60.0060588, 74.7106821 ], [ 60.0, 74.710093525761906 ], [ 60.0, 74.966439361580157 ], [ 60.0012088, 74.9663227 ] ] ] ] } },
{ "type": "Feature", "properties": { "FID": 368624, "id": 1732, "left": 60.0, "top": 75.0, "right": 65.0, "bottom": 70.0, "row_index": 3, "col_index": 48, "min_lon": 60.0, "min_lat": 70.0, "tile_id": "60_70" }, "geometry": { "type": "MultiPolygon", "coordinates": [ [ [ [ 60.0024104, 70.0878386 ], [ 60.0056183, 70.0880944 ], [ 60.0076139, 70.0883721 ], [ 60.0086868, 70.088595 ], [ 60.0094485, 70.0888471 ], [ 60.0102854, 70.0892636 ], [ 60.0105643, 70.0895851 ], [ 60.0108433, 70.0899797 ], [ 60.0111866, 70.0900857 ], [ 60.0119591, 70.0901734 ], [ 60.0132573, 70.0903268 ], [ 60.0147164, 70.0906155 ], [ 60.0166047, 70.0911927 ], [ 60.0172698, 70.0915142 ], [ 60.017699, 70.0919124 ], [ 60.01845, 70.0923033 ], [ 60.0191474, 70.0924933 ], [ 60.020113, 70.0927307 ], [ 60.0214126, 70.0931098 ], [ 60.0221836, 70.0935965 ], [ 60.0223982, 70.0938303 ], [ 60.0222695, 70.0940751 ], [ 60.0219262, 70.0942942 ], [ 60.0214112, 70.0945536 ], [ 60.0213039, 70.0948202 ], [ 60.0214434, 70.0950759 ], [ 60.0220013, 70.0954814 ], [ 60.0222158, 70.0959562 ], [ 60.0224411, 70.0962886 ], [ 60.0229025, 70.0967306 ], [ 60.0233531, 70.0969387 ], [ 60.0238681, 70.0970337 ], [ 60.0244582, 70.0970739 ], [ 60.0251663, 70.0970374 ], [ 60.0264001, 70.0968146 ], [ 60.0275695, 70.0965333 ], [ 60.0279879, 70.0963836 ], [ 60.0283742, 70.0960658 ], [ 60.0288892, 70.0956786 ], [ 60.0296938, 70.0953535 ], [ 60.0304448, 70.0951855 ], [ 60.0322688, 70.0947983 ], [ 60.0338566, 70.0944221 ], [ 60.0349295, 70.0942467 ], [ 60.0364637, 70.0940276 ], [ 60.0386095, 70.0937353 ], [ 60.0400257, 70.093476 ], [ 60.0410879, 70.0932276 ], [ 60.0423002, 70.0929974 ], [ 60.0434697, 70.09276 ], [ 60.0445211, 70.0925444 ], [ 60.045315, 70.0922047 ], [ 60.04583, 70.0919343 ], [ 60.0464523, 70.0916896 ], [ 60.047096, 70.0914923 ], [ 60.0476539, 70.0913206 ], [ 60.0482225, 70.0910466 ], [ 60.0484264, 70.0908091 ], [ 60.0487053, 70.0904766 ], [ 60.0490594, 70.0901515 ], [ 60.0493705, 70.0898519 ], [ 60.0495851, 70.0895778 ], [ 60.0494778, 70.0893549 ], [ 60.0492847, 70.089249 ], [ 60.0490916, 70.0891357 ], [ 60.0490272, 70.0889201 ], [ 60.0491881, 70.0886863 ], [ 60.0496173, 70.0883611 ], [ 60.0503147, 70.0878459 ], [ 60.0511622, 70.0873891 ], [ 60.0524175, 70.0868812 ], [ 60.0533402, 70.0866254 ], [ 60.0540268, 70.0865414 ], [ 60.0544345, 70.0865121 ], [ 60.0547242, 70.0864244 ], [ 60.054853, 70.0863075 ], [ 60.0547778, 70.0861979 ], [ 60.0545204, 70.0860992 ], [ 60.0541985, 70.0860042 ], [ 60.0537693, 70.0858653 ], [ 60.0535655, 70.0857155 ], [ 60.0536084, 70.0854341 ], [ 60.0538659, 70.0851454 ], [ 60.0543487, 70.0848201 ], [ 60.0548744, 70.0846155 ], [ 60.0553679, 70.0844181 ], [ 60.0556362, 70.0842171 ], [ 60.0555932, 70.0840015 ], [ 60.0553036, 70.0838005 ], [ 60.0548315, 70.0835995 ], [ 60.0544345, 70.0835191 ], [ 60.053941, 70.0834643 ], [ 60.0535011, 70.0834314 ], [ 60.0531256, 70.0833802 ], [ 60.0526535, 70.0832267 ], [ 60.0523209, 70.0830111 ], [ 60.0520849, 70.0828612 ], [ 60.051806, 70.0827845 ], [ 60.051291, 70.0826675 ], [ 60.0510013, 70.0825396 ], [ 60.0508296, 70.0822764 ], [ 60.0508726, 70.0818853 ], [ 60.0507438, 70.0815527 ], [ 60.0504219, 70.0811945 ], [ 60.0501323, 70.08084 ], [ 60.0499499, 70.0805256 ], [ 60.0498211, 70.0803428 ], [ 60.049628, 70.0802478 ], [ 60.0492418, 70.0802222 ], [ 60.0482976, 70.0801893 ], [ 60.0475466, 70.0801893 ], [ 60.046978, 70.0801418 ], [ 60.0465596, 70.0800906 ], [ 60.0461411, 70.0799627 ], [ 60.0455832, 70.0796264 ], [ 60.0452828, 70.0792755 ], [ 60.0452614, 70.0786979 ], [ 60.045433, 70.0782958 ], [ 60.0461626, 70.0775865 ], [ 60.0464844, 70.0769943 ], [ 60.0469565, 70.0762265 ], [ 60.0473213, 70.0754514 ], [ 60.0476002, 70.0748152 ], [ 60.0480509, 70.0743472 ], [ 60.04848, 70.0741278 ], [ 60.0491452, 70.0740255 ], [ 60.0497246, 70.074084 ], [ 60.0505185, 70.0742668 ], [ 60.0510764, 70.0743692 ], [ 60.051763, 70.0743765 ], [ 60.0521064, 70.0742522 ], [ 60.0523209, 70.07385 ], [ 60.0523424, 70.0734697 ], [ 60.0523209, 70.0731552 ], [ 60.0522136, 70.0728115 ], [ 60.0522351, 70.0724531 ], [ 60.0522136, 70.072146 ], [ 60.0518703, 70.0718315 ], [ 60.0510978, 70.0714438 ], [ 60.0504327, 70.0710928 ], [ 60.0503039, 70.0708368 ], [ 60.0505399, 70.0704345 ], [ 60.0510764, 70.0700981 ], [ 60.0517416, 70.0699152 ], [ 60.0526213, 70.0696299 ], [ 60.0531363, 70.0693008 ], [ 60.0536084, 70.0688985 ], [ 60.0540375, 70.0684596 ], [ 60.0540375, 70.0680207 ], [ 60.0536299, 70.067633 ], [ 60.0532007, 70.0672307 ], [ 60.0527286, 70.0667552 ], [ 60.0523639, 70.0662138 ], [ 60.0523853, 70.0657237 ], [ 60.0527072, 70.0652189 ], [ 60.0533724, 70.0645312 ], [ 60.0546169, 70.0637044 ], [ 60.056355, 70.0624679 ], [ 60.0575352, 70.0616923 ], [ 60.0590372, 70.0609825 ], [ 60.0610542, 70.060097 ], [ 60.0634789, 70.0591677 ], [ 60.0648093, 70.0586627 ], [ 60.0655603, 70.058348 ], [ 60.067749, 70.0575942 ], [ 60.0698733, 70.0567379 ], [ 60.0718689, 70.0559767 ], [ 60.0737357, 70.0552228 ], [ 60.0761819, 70.0543591 ], [ 60.0782847, 70.0536051 ], [ 60.0804949, 70.0527413 ], [ 60.0819111, 70.0522069 ], [ 60.0834346, 70.0515042 ], [ 60.0848937, 70.0506183 ], [ 60.0868892, 70.0492126 ], [ 60.088048, 70.0479752 ], [ 60.0889063, 70.047243 ], [ 60.0903654, 70.0466572 ], [ 60.0923395, 70.0460568 ], [ 60.0935626, 70.0457053 ], [ 60.0953436, 70.0450755 ], [ 60.0977897, 70.0437719 ], [ 60.1008367, 70.0425196 ], [ 60.1043343, 70.0409448 ], [ 60.106287, 70.0399121 ], [ 60.1083684, 70.0386668 ], [ 60.1099348, 70.0380221 ], [ 60.1130891, 70.0369526 ], [ 60.1178098, 70.0354287 ], [ 60.1219296, 70.0341759 ], [ 60.12536, 70.03338 ], [ 60.1274013, 70.0328936 ], [ 60.1291179, 70.0323807 ], [ 60.1310921, 70.0317945 ], [ 60.1339674, 70.030578 ], [ 60.138216, 70.0288192 ], [ 60.1408553, 70.0276759 ], [ 60.1424646, 70.0269356 ], [ 60.1432586, 70.0263126 ], [ 60.1438808, 70.0257555 ], [ 60.1444387, 70.0253084 ], [ 60.145297, 70.0249052 ], [ 60.1468634, 70.0244654 ], [ 60.1490092, 70.0238936 ], [ 60.1509833, 70.0232412 ], [ 60.1525712, 70.0225155 ], [ 60.1535153, 70.0219949 ], [ 60.1548672, 70.0214964 ], [ 60.15697, 70.0211592 ], [ 60.1588797, 70.0209539 ], [ 60.1606607, 70.0209319 ], [ 60.1619696, 70.0209832 ], [ 60.1626992, 70.0211079 ], [ 60.1630854, 70.0211812 ], [ 60.1632356, 70.0213645 ], [ 60.1631284, 70.0215257 ], [ 60.1625919, 70.0217677 ], [ 60.1624846, 70.021885 ], [ 60.1626563, 70.021973 ], [ 60.1630211, 70.0219803 ], [ 60.1634288, 70.0218777 ], [ 60.1640081, 70.0216577 ], [ 60.1646948, 70.0213425 ], [ 60.1652956, 70.0208659 ], [ 60.1655745, 70.0204113 ], [ 60.1656818, 70.0199054 ], [ 60.1656818, 70.0194802 ], [ 60.1658106, 70.018813 ], [ 60.1652312, 70.0177497 ], [ 60.1648021, 70.0171191 ], [ 60.1649093, 70.0164885 ], [ 60.1654029, 70.0156231 ], [ 60.1666045, 70.0144058 ], [ 60.1687503, 70.0131516 ], [ 60.1731491, 70.0110172 ], [ 60.1763034, 70.0097409 ], [ 60.1796293, 70.0082884 ], [ 60.182805, 70.0074447 ], [ 60.1856589, 70.0067038 ], [ 60.1874184, 70.0060508 ], [ 60.1896071, 70.0053391 ], [ 60.1915598, 70.0047668 ], [ 60.1937055, 70.0044146 ], [ 60.1968384, 70.0040771 ], [ 60.1996922, 70.0036222 ], [ 60.201323, 70.0031085 ], [ 60.2026319, 70.0025728 ], [ 60.2047562, 70.0016189 ], [ 60.2059579, 70.0009804 ], [ 60.2074814, 70.0001732 ], [ 60.208037416884864, 70.0 ], [ 60.0, 70.0 ], [ 60.0, 70.08772976783284 ], [ 60.0024104, 70.0878386 ] ] ] ] } }
]
}
