{
"type": "FeatureCollection",
"name": "65_-70",
"crs": { "type": "name", "properties": { "name": "urn:ogc:def:crs:OGC:1.3:CRS84" } },
"xy_coordinate_resolution": 1e-15,
"features": [
{ "type": "Feature", "properties": { "FID": 307096, "id": 1796, "left": 65.0, "top": -65.0, "right": 70.0, "bottom": -70.0, "row_index": 31, "col_index": 49, "min_lon": 65.0, "min_lat": -70.0, "tile_id": "65_-70" }, "geometry": { "type": "MultiPolygon", "coordinates": [ [ [ [ 65.0017891, -67.6709353 ], [ 65.0065698, -67.6707936 ], [ 65.0085707, -67.671266 ], [ 65.0116955, -67.6721388 ], [ 65.0148132, -67.6729287 ], [ 65.0202683, -67.6730268 ], [ 65.0226626, -67.6729971 ], [ 65.025092, -67.6733811 ], [ 65.027347, -67.6742645 ], [ 65.0339839, -67.6754244 ], [ 65.0390976, -67.6766032 ], [ 65.0437407, -67.6773735 ], [ 65.0505536, -67.6780335 ], [ 65.051932, -67.6780161 ], [ 65.0553427, -67.6779732 ], [ 65.0570624, -67.6777028 ], [ 65.0583541, -67.6775209 ], [ 65.0614015, -67.6774823 ], [ 65.0694993, -67.6778767 ], [ 65.0760516, -67.6780418 ], [ 65.0790993, -67.6780029 ], [ 65.085028, -67.6785071 ], [ 65.0900346, -67.678443 ], [ 65.0945892, -67.6778407 ], [ 65.096281, -67.677617 ], [ 65.1016343, -67.6765537 ], [ 65.1043973, -67.6757724 ], [ 65.1108677, -67.6750258 ], [ 65.1229664, -67.6738743 ], [ 65.1259612, -67.6732552 ], [ 65.1300661, -67.6728701 ], [ 65.1311242, -67.6725249 ], [ 65.133308, -67.6725792 ], [ 65.1359947, -67.6733725 ], [ 65.1420588, -67.6753642 ], [ 65.1460973, -67.6766366 ], [ 65.1498351, -67.6770016 ], [ 65.1527178, -67.6775435 ], [ 65.1566739, -67.6779054 ], [ 65.1599919, -67.6784414 ], [ 65.1699246, -67.6798008 ], [ 65.1751949, -67.6802276 ], [ 65.1801557, -67.6796641 ], [ 65.1855747, -67.6793429 ], [ 65.1923458, -67.6795004 ], [ 65.1991712, -67.680237 ], [ 65.2052819, -67.68032 ], [ 65.2079174, -67.6805329 ], [ 65.2147514, -67.6813515 ], [ 65.2206446, -67.681437 ], [ 65.2243142, -67.6810555 ], [ 65.2290798, -67.6807417 ], [ 65.2296859, -67.6802363 ], [ 65.2342964, -67.6805875 ], [ 65.2396991, -67.6800989 ], [ 65.2446741, -67.6796989 ], [ 65.2461819, -67.6795125 ], [ 65.250567, -67.6797834 ], [ 65.2584033, -67.6796749 ], [ 65.2631363, -67.6790292 ], [ 65.2717709, -67.6781632 ], [ 65.2749558, -67.6772902 ], [ 65.2781325, -67.6763342 ], [ 65.2802206, -67.6753936 ], [ 65.2826144, -67.67536 ], [ 65.285919, -67.675728 ], [ 65.2907714, -67.6763226 ], [ 65.3002347, -67.6772664 ], [ 65.3065462, -67.6771771 ], [ 65.311302, -67.6767783 ], [ 65.3159678, -67.675469 ], [ 65.3185304, -67.6749353 ], [ 65.3209079, -67.6747358 ], [ 65.3237368, -67.6746954 ], [ 65.3292672, -67.6755279 ], [ 65.3356357, -67.6760167 ], [ 65.3414421, -67.6774248 ], [ 65.3498775, -67.6789605 ], [ 65.3573606, -67.679681 ], [ 65.3633286, -67.6805059 ], [ 65.3675476, -67.6812733 ], [ 65.3721185, -67.6812067 ], [ 65.3764969, -67.6813915 ], [ 65.3782884, -67.6818626 ], [ 65.3820392, -67.6823049 ], [ 65.3892561, -67.6825307 ], [ 65.3993199, -67.6828799 ], [ 65.4141813, -67.6832402 ], [ 65.4159124, -67.6832146 ], [ 65.4176642, -67.6831886 ], [ 65.4248306, -67.6829164 ], [ 65.4304132, -67.6820873 ], [ 65.4353424, -67.6812679 ], [ 65.438722, -67.6802229 ], [ 65.4397587, -67.6797101 ], [ 65.4406037, -67.6794489 ], [ 65.4453917, -67.679377 ], [ 65.4461391, -67.6802773 ], [ 65.4498541, -67.6824589 ], [ 65.4574709, -67.6844158 ], [ 65.4599064, -67.6843368 ], [ 65.4622512, -67.6842608 ], [ 65.4654818, -67.6838805 ], [ 65.4674322, -67.683768 ], [ 65.4696349, -67.6839832 ], [ 65.4719509, -67.685274 ], [ 65.4762523, -67.6867831 ], [ 65.4778809, -67.6877528 ], [ 65.4798927, -67.6882193 ], [ 65.4860674, -67.6888711 ], [ 65.4920159, -67.689443 ], [ 65.4973977, -67.6887806 ], [ 65.5032758, -67.6886903 ], [ 65.5101721, -67.6879212 ], [ 65.5176716, -67.6887171 ], [ 65.5259713, -67.6888371 ], [ 65.5309342, -67.6883458 ], [ 65.5356434, -67.6875267 ], [ 65.5396905, -67.6866349 ], [ 65.5461941, -67.6862847 ], [ 65.5509476, -67.6858788 ], [ 65.5535956, -67.6861688 ], [ 65.5557365, -67.6858038 ], [ 65.5570604, -67.6859488 ], [ 65.5590646, -67.6863316 ], [ 65.5602072, -67.6868109 ], [ 65.5621662, -67.68678 ], [ 65.5650053, -67.6868182 ], [ 65.5664018, -67.687625 ], [ 65.5717892, -67.6890317 ], [ 65.573177, -67.6897556 ], [ 65.5778667, -67.6907588 ], [ 65.5823029, -67.6914344 ], [ 65.589334, -67.6919028 ], [ 65.5961476, -67.6923745 ], [ 65.6030713, -67.6938387 ], [ 65.6079535, -67.6945892 ], [ 65.6120383, -67.6960155 ], [ 65.6169674, -67.6971795 ], [ 65.6207987, -67.6982782 ], [ 65.6237221, -67.6990599 ], [ 65.6274985, -67.6996621 ], [ 65.6285597, -67.6993963 ], [ 65.6324986, -67.6994984 ], [ 65.632837, -67.7005703 ], [ 65.6355619, -67.7015208 ], [ 65.6384862, -67.7023022 ], [ 65.6424628, -67.702735 ], [ 65.6485396, -67.7043768 ], [ 65.6521278, -67.70523 ], [ 65.6535096, -67.7058705 ], [ 65.6638704, -67.7067789 ], [ 65.6687666, -67.7076104 ], [ 65.6725173, -67.7079634 ], [ 65.6777459, -67.7078775 ], [ 65.6795361, -67.7082625 ], [ 65.681014, -67.7078238 ], [ 65.6816975, -67.7074723 ], [ 65.6827002, -67.7072988 ], [ 65.6844524, -67.7073528 ], [ 65.6860153, -67.7076586 ], [ 65.6869909, -67.7085541 ], [ 65.6910167, -67.7093994 ], [ 65.6950807, -67.7105754 ], [ 65.7008408, -67.7113088 ], [ 65.705057, -67.711902 ], [ 65.7077002, -67.7121067 ], [ 65.7115842, -67.7117105 ], [ 65.7158943, -67.7112244 ], [ 65.718035, -67.7108572 ], [ 65.7202233, -67.7109036 ], [ 65.7246578, -67.7114926 ], [ 65.7280318, -67.7123478 ], [ 65.7325436, -67.7135983 ], [ 65.7376422, -67.7142586 ], [ 65.7450266, -67.715792 ], [ 65.750373, -67.7166965 ], [ 65.7557102, -67.717518 ], [ 65.7729924, -67.7196286 ], [ 65.7841156, -67.7213453 ], [ 65.7887619, -67.721846 ], [ 65.7941618, -67.7213391 ], [ 65.7982637, -67.7209373 ], [ 65.8006615, -67.7208961 ], [ 65.8013449, -67.7211331 ], [ 65.8026822, -67.7213587 ], [ 65.8050306, -67.7209039 ], [ 65.8056645, -67.7207272 ], [ 65.8082801, -67.7206822 ], [ 65.812461, -67.7209416 ], [ 65.8232013, -67.7230768 ], [ 65.826937, -67.7232607 ], [ 65.834092, -67.7246284 ], [ 65.842458, -67.7269693 ], [ 65.8471767, -67.7280474 ], [ 65.8518054, -67.7283809 ], [ 65.858715, -67.7295032 ], [ 65.8614626, -67.7305326 ], [ 65.8652601, -67.7312119 ], [ 65.8688197, -67.7317295 ], [ 65.8710507, -67.7321047 ], [ 65.872775, -67.7319086 ], [ 65.876857, -67.7313393 ], [ 65.8788195, -67.7313046 ], [ 65.8828355, -67.7319797 ], [ 65.885929, -67.7322565 ], [ 65.8900923, -67.7323485 ], [ 65.8929575, -67.7325464 ], [ 65.8975571, -67.7326306 ], [ 65.9009174, -67.7327047 ], [ 65.9017205, -67.7327223 ], [ 65.904763, -67.7325852 ], [ 65.9127566, -67.7336031 ], [ 65.9239598, -67.7340658 ], [ 65.9272824, -67.7344206 ], [ 65.930356, -67.7345312 ], [ 65.9338243, -67.7343031 ], [ 65.9378425, -67.7349767 ], [ 65.9413835, -67.7353274 ], [ 65.9441041, -67.7361072 ], [ 65.9462536, -67.7375604 ], [ 65.9485905, -67.7387615 ], [ 65.9543034, -67.7407305 ], [ 65.9585728, -67.7416478 ], [ 65.962853, -67.7426477 ], [ 65.9679223, -67.74297 ], [ 65.9720354, -67.7426465 ], [ 65.9746216, -67.7423506 ], [ 65.9780195, -67.7432833 ], [ 65.9816358, -67.744212 ], [ 65.9878704, -67.7450926 ], [ 65.9959946, -67.7453581 ], [ 66.0036087, -67.7450524 ], [ 66.0094985, -67.7449438 ], [ 66.0113182, -67.7454905 ], [ 66.0166069, -67.7458073 ], [ 66.0196183, -67.74542 ], [ 66.0240714, -67.7443428 ], [ 66.0274869, -67.7436992 ], [ 66.0302649, -67.744891 ], [ 66.0346021, -67.7463025 ], [ 66.0376775, -67.7464111 ], [ 66.0443758, -67.7457889 ], [ 66.0511169, -67.7454972 ], [ 66.0557302, -67.7456595 ], [ 66.0583587, -67.7456931 ], [ 66.0613025, -67.7464669 ], [ 66.065065, -67.7468107 ], [ 66.0684996, -67.7479896 ], [ 66.0717272, -67.7492552 ], [ 66.074279, -67.7503677 ], [ 66.0792093, -67.7512696 ], [ 66.0838783, -67.7518446 ], [ 66.0916787, -67.7529404 ], [ 66.0943626, -67.7533869 ], [ 66.0981704, -67.7540608 ], [ 66.0999927, -67.7546065 ], [ 66.1019676, -67.7546519 ], [ 66.1028734, -67.7548834 ], [ 66.1029828, -67.7557103 ], [ 66.1027653, -67.7573724 ], [ 66.1047851, -67.7594064 ], [ 66.1085188, -67.7611592 ], [ 66.109087, -67.7621431 ], [ 66.1118272, -67.7630028 ], [ 66.1172313, -67.7641431 ], [ 66.121478, -67.7648082 ], [ 66.1254187, -67.7648156 ], [ 66.1286381, -67.7643395 ], [ 66.1309841, -67.76388 ], [ 66.133822, -67.7638256 ], [ 66.1358198, -67.7640359 ], [ 66.1390311, -67.7651348 ], [ 66.1446329, -67.7661047 ], [ 66.147745, -67.7664593 ], [ 66.1522851, -67.7660401 ], [ 66.158331, -67.7654258 ], [ 66.1647013, -67.7639759 ], [ 66.170013, -67.7627952 ], [ 66.1748764, -67.76154 ], [ 66.1763146, -67.7608488 ], [ 66.1788665, -67.7603018 ], [ 66.1845298, -67.7601084 ], [ 66.1888273, -67.7595271 ], [ 66.1938131, -67.7591809 ], [ 66.1969021, -67.7593691 ], [ 66.2004166, -67.7594661 ], [ 66.2032198, -67.7591624 ], [ 66.2096989, -67.7585377 ], [ 66.2165686, -67.7575734 ], [ 66.2286293, -67.7561745 ], [ 66.2343954, -67.7551484 ], [ 66.2405969, -67.7541134 ], [ 66.2461438, -67.7530911 ], [ 66.2496116, -67.7528563 ], [ 66.2546983, -67.7532524 ], [ 66.2579939, -67.7533524 ], [ 66.2618749, -67.7529433 ], [ 66.265159, -67.7529604 ], [ 66.2711417, -67.7535039 ], [ 66.2747942, -67.7545914 ], [ 66.276265, -67.7557225 ], [ 66.2799414, -67.7569753 ], [ 66.2832857, -67.7589808 ], [ 66.285837, -67.7600072 ], [ 66.2883417, -67.760703 ], [ 66.2927645, -67.7610283 ], [ 66.2961079, -67.7614583 ], [ 66.3016105, -67.7616788 ], [ 66.3127523, -67.7615359 ], [ 66.3158308, -67.7616392 ], [ 66.3202892, -67.7622119 ], [ 66.3250132, -67.7631106 ], [ 66.3294956, -67.7638484 ], [ 66.3321382, -67.7639603 ], [ 66.3369515, -67.7639449 ], [ 66.3398596, -67.7643829 ], [ 66.3422015, -67.7639203 ], [ 66.3447377, -67.763288 ], [ 66.3455163, -67.7626087 ], [ 66.3487306, -67.7621283 ], [ 66.3522815, -67.76247 ], [ 66.356912, -67.7627064 ], [ 66.3608639, -67.7627909 ], [ 66.3633594, -67.7634029 ], [ 66.3687993, -67.7647002 ], [ 66.3767875, -67.7654472 ], [ 66.3833351, -67.7653116 ], [ 66.3883312, -67.7650422 ], [ 66.3940775, -67.7654203 ], [ 66.39986, -67.7660462 ], [ 66.4036064, -67.7662169 ], [ 66.4077172, -67.7658823 ], [ 66.4122163, -67.7652079 ], [ 66.4171153, -67.7642763 ], [ 66.4209833, -67.7637807 ], [ 66.4245602, -67.7627935 ], [ 66.425797, -67.7622701 ], [ 66.4273004, -67.7620727 ], [ 66.4287064, -67.7627065 ], [ 66.4303917, -67.7622565 ], [ 66.4318585, -67.7618111 ], [ 66.4336042, -67.7617744 ], [ 66.4349379, -67.7619121 ], [ 66.4366229, -67.7629546 ], [ 66.4395209, -67.7648007 ], [ 66.4422373, -67.7668993 ], [ 66.4444084, -67.7682631 ], [ 66.4481076, -67.7695946 ], [ 66.4511036, -67.7706093 ], [ 66.4562585, -67.7714123 ], [ 66.4611221, -67.7717239 ], [ 66.4661674, -67.7717827 ], [ 66.4694418, -67.7717131 ], [ 66.4716493, -67.7718321 ], [ 66.4745975, -67.7725157 ], [ 66.4764177, -67.7729744 ], [ 66.4841321, -67.7733076 ], [ 66.4878555, -67.7733109 ], [ 66.4913237, -67.7730709 ], [ 66.4935685, -67.7734375 ], [ 66.5006325, -67.7752764 ], [ 66.507018, -67.7769636 ], [ 66.5157565, -67.7782683 ], [ 66.5215703, -67.7790553 ], [ 66.5281332, -67.7789964 ], [ 66.532937, -67.7788927 ], [ 66.536992, -67.779634 ], [ 66.5506426, -67.7800842 ], [ 66.5526707, -67.7804547 ], [ 66.5556976, -67.7816327 ], [ 66.5588554, -67.7822273 ], [ 66.560384, -67.782194 ], [ 66.5631599, -67.7817188 ], [ 66.5638317, -67.7803774 ], [ 66.5642055, -67.7799546 ], [ 66.5652469, -67.7796001 ], [ 66.5672751, -67.7799705 ], [ 66.570626, -67.7803947 ], [ 66.5757869, -67.7811941 ], [ 66.5791635, -67.7817835 ], [ 66.5826698, -67.7817896 ], [ 66.5868189, -67.7816984 ], [ 66.58917, -67.7813151 ], [ 66.5904674, -67.7812036 ], [ 66.5970943, -67.7815554 ], [ 66.6001894, -67.7817359 ], [ 66.6045566, -67.7816396 ], [ 66.6080758, -67.7817277 ], [ 66.6111456, -67.7817429 ], [ 66.6152943, -67.781651 ], [ 66.6161294, -67.7813837 ], [ 66.6180306, -67.780927 ], [ 66.6207923, -67.7803682 ], [ 66.6264178, -67.7799117 ], [ 66.6284859, -67.7791193 ], [ 66.6310929, -67.7789784 ], [ 66.634355, -67.7788229 ], [ 66.6395435, -67.7797855 ], [ 66.6433066, -67.7800333 ], [ 66.647429, -67.7797754 ], [ 66.6495736, -67.7794787 ], [ 66.6528742, -67.7795707 ], [ 66.6568313, -67.7810579 ], [ 66.6623932, -67.7815967 ], [ 66.6646541, -67.7820436 ], [ 66.6667359, -67.7827432 ], [ 66.6714899, -67.7837145 ], [ 66.6743804, -67.7839813 ], [ 66.6758439, -67.7835337 ], [ 66.6764991, -67.7835189 ], [ 66.6781316, -67.7841456 ], [ 66.6805623, -67.7856666 ], [ 66.6826185, -67.7862008 ], [ 66.6843918, -67.7863267 ], [ 66.6872436, -67.7863453 ], [ 66.6888183, -67.7858199 ], [ 66.6909969, -67.7856033 ], [ 66.6934342, -67.7856325 ], [ 66.696861, -67.786308 ], [ 66.6978879, -67.7872064 ], [ 66.6998626, -67.7885018 ], [ 66.7021108, -67.7889442 ], [ 66.7048203, -67.7890584 ], [ 66.7063495, -67.7889404 ], [ 66.7081744, -67.7894749 ], [ 66.7097768, -67.7896157 ], [ 66.7119819, -67.7895657 ], [ 66.7133446, -67.7897859 ], [ 66.7151082, -67.7897461 ], [ 66.7163784, -67.7893828 ], [ 66.7175951, -67.7886848 ], [ 66.7181901, -67.7882527 ], [ 66.7187994, -67.7879033 ], [ 66.7210159, -67.7879374 ], [ 66.7219525, -67.7882502 ], [ 66.7231481, -67.7888091 ], [ 66.7254325, -67.7892602 ], [ 66.7269629, -67.7891407 ], [ 66.729594, -67.788997 ], [ 66.7293296, -67.7873283 ], [ 66.7287689, -67.7865874 ], [ 66.7282348, -67.7860135 ], [ 66.7280087, -67.7845951 ], [ 66.7274613, -67.7839377 ], [ 66.726707, -67.7833688 ], [ 66.7253046, -67.7828983 ], [ 66.7238757, -67.7822607 ], [ 66.723302, -67.7814368 ], [ 66.7227553, -67.7807788 ], [ 66.7220273, -67.7803773 ], [ 66.7215333, -67.7800533 ], [ 66.7214671, -67.7796364 ], [ 66.722763, -67.7794394 ], [ 66.7244863, -67.7791489 ], [ 66.7257683, -67.7788686 ], [ 66.7299566, -67.7787728 ], [ 66.7319935, -67.7790612 ], [ 66.7334376, -67.7797813 ], [ 66.7364149, -67.7790439 ], [ 66.740055, -67.7782905 ], [ 66.7461725, -67.7778153 ], [ 66.7498656, -67.7773956 ], [ 66.7549807, -67.7761895 ], [ 66.7581524, -67.7752791 ], [ 66.7588863, -67.7743411 ], [ 66.7585915, -67.7725056 ], [ 66.7595189, -67.7713957 ], [ 66.7632645, -67.7713093 ], [ 66.765621, -67.7708363 ], [ 66.7709086, -67.7707142 ], [ 66.7767763, -67.7700762 ], [ 66.7828505, -67.7693493 ], [ 66.7859615, -67.7694446 ], [ 66.7887132, -67.7700507 ], [ 66.7925935, -67.770798 ], [ 66.7958982, -67.7707211 ], [ 66.7997789, -67.7714683 ], [ 66.8040055, -67.771621 ], [ 66.8110828, -67.7716234 ], [ 66.8152822, -67.771609 ], [ 66.8188617, -67.7718603 ], [ 66.8221369, -67.7729561 ], [ 66.8264028, -67.7746984 ], [ 66.8304645, -67.7751894 ], [ 66.8369639, -67.7757067 ], [ 66.8439316, -67.7763802 ], [ 66.8502797, -67.7773193 ], [ 66.855802, -67.7786126 ], [ 66.8610357, -67.7794939 ], [ 66.8650299, -67.7795669 ], [ 66.8692033, -67.7793843 ], [ 66.8707459, -67.7793477 ], [ 66.8719305, -67.7798221 ], [ 66.8722758, -67.7819075 ], [ 66.8741087, -67.7836227 ], [ 66.875235, -67.7849209 ], [ 66.8766161, -67.7840657 ], [ 66.8773999, -67.7834616 ], [ 66.8795772, -67.7832419 ], [ 66.8817803, -67.7831902 ], [ 66.8833636, -67.7820636 ], [ 66.8850585, -67.7816038 ], [ 66.886916, -67.7808066 ], [ 66.8890102, -67.780086 ], [ 66.8911583, -67.7796999 ], [ 66.8927004, -67.7796639 ], [ 66.8942017, -67.7799922 ], [ 66.894768, -67.7801163 ], [ 66.897976, -67.7794535 ], [ 66.8999848, -67.778233 ], [ 66.9052985, -67.7769335 ], [ 66.9075552, -67.7758745 ], [ 66.9079262, -67.7754469 ], [ 66.9086402, -67.7744248 ], [ 66.9103051, -67.7737987 ], [ 66.9120258, -67.7735062 ], [ 66.9130297, -67.7728959 ], [ 66.9138271, -67.7723743 ], [ 66.91603, -67.7723214 ], [ 66.9171867, -67.7728527 ], [ 66.9186488, -67.7734311 ], [ 66.9226981, -67.7738363 ], [ 66.9265098, -67.7728234 ], [ 66.9308875, -67.7725505 ], [ 66.9377727, -67.7727196 ], [ 66.9422488, -67.7730303 ], [ 66.9463218, -67.7722618 ], [ 66.9491242, -67.770519 ], [ 66.9505535, -67.7698144 ], [ 66.9529198, -67.7694221 ], [ 66.9564581, -67.7694201 ], [ 66.9625039, -67.7698597 ], [ 66.9721165, -67.7704635 ], [ 66.9791504, -67.7702084 ], [ 66.9848986, -67.7688955 ], [ 66.9872217, -67.7682524 ], [ 66.9928766, -67.7676955 ], [ 67.005707, -67.767716 ], [ 67.010509, -67.7673467 ], [ 67.0150192, -67.7665658 ], [ 67.0172696, -67.7655053 ], [ 67.0177585, -67.7644882 ], [ 67.0208894, -67.763406 ], [ 67.0221533, -67.7630398 ], [ 67.0250155, -67.7629692 ], [ 67.0261931, -67.7621026 ], [ 67.0267101, -67.7612522 ], [ 67.0284139, -67.7608751 ], [ 67.0323767, -67.7607772 ], [ 67.0339611, -67.7609893 ], [ 67.0354303, -67.7605342 ], [ 67.0359899, -67.759934 ], [ 67.0383973, -67.7597907 ], [ 67.0415512, -67.7601314 ], [ 67.0463617, -67.761101 ], [ 67.0568211, -67.7627677 ], [ 67.0595353, -67.7631189 ], [ 67.0622062, -67.76322 ], [ 67.06592, -67.7629599 ], [ 67.0664646, -67.7622762 ], [ 67.0666124, -67.7618538 ], [ 67.0704446, -67.7610044 ], [ 67.0721768, -67.7607936 ], [ 67.0762579, -67.7601053 ], [ 67.0768166, -67.7595051 ], [ 67.0776848, -67.7581432 ], [ 67.0789038, -67.7575264 ], [ 67.0814269, -67.7580496 ], [ 67.0861657, -67.758601 ], [ 67.0890126, -67.7584459 ], [ 67.0926233, -67.7576015 ], [ 67.0963215, -67.7572573 ], [ 67.0979204, -67.7575522 ], [ 67.105374, -67.7584537 ], [ 67.1089835, -67.7588654 ], [ 67.1140901, -67.758988 ], [ 67.1165407, -67.7590937 ], [ 67.1211046, -67.7598998 ], [ 67.1257125, -67.7609561 ], [ 67.1284862, -67.7603833 ], [ 67.1292047, -67.7594437 ], [ 67.1293218, -67.7588543 ], [ 67.1310975, -67.7588932 ], [ 67.1316848, -67.7597159 ], [ 67.1352658, -67.7599602 ], [ 67.144336, -67.7612378 ], [ 67.1488272, -67.7616263 ], [ 67.1544931, -67.7624034 ], [ 67.1624624, -67.7624516 ], [ 67.165574, -67.7625397 ], [ 67.167219, -67.7630841 ], [ 67.1704791, -67.764006 ], [ 67.1730225, -67.7658676 ], [ 67.1765631, -67.7671173 ], [ 67.179134, -67.7678892 ], [ 67.1816451, -67.7683274 ], [ 67.1972007, -67.771195 ], [ 67.2057184, -67.7718134 ], [ 67.2127951, -67.7717984 ], [ 67.2238109, -67.7727702 ], [ 67.2304626, -67.7728491 ], [ 67.2369002, -67.7741901 ], [ 67.245457, -67.7762296 ], [ 67.2484565, -67.7769054 ], [ 67.2509469, -67.7784323 ], [ 67.2533767, -67.7796256 ], [ 67.2604177, -67.7806148 ], [ 67.2665174, -67.7812933 ], [ 67.2713635, -67.7811665 ], [ 67.2763774, -67.7819568 ], [ 67.2770314, -67.7831125 ], [ 67.2791601, -67.7850673 ], [ 67.2813414, -67.7860992 ], [ 67.2870634, -67.7871219 ], [ 67.2935755, -67.787621 ], [ 67.3002161, -67.7876137 ], [ 67.3049506, -67.7880754 ], [ 67.3069436, -67.7892796 ], [ 67.3087165, -67.7904894 ], [ 67.3132621, -67.7911234 ], [ 67.313621, -67.791868 ], [ 67.3133803, -67.7929635 ], [ 67.313283, -67.7936363 ], [ 67.3134368, -67.79447 ], [ 67.315431, -67.795674 ], [ 67.316892, -67.7963894 ], [ 67.319409, -67.7968255 ], [ 67.3206036, -67.7972966 ], [ 67.3209626, -67.7980411 ], [ 67.3212866, -67.7997919 ], [ 67.3204002, -67.8009883 ], [ 67.3192317, -67.801857 ], [ 67.3204065, -67.8034178 ], [ 67.3245868, -67.8056529 ], [ 67.3281723, -67.8070661 ], [ 67.3321528, -67.8082173 ], [ 67.3355845, -67.8087965 ], [ 67.3367143, -67.8101069 ], [ 67.3405097, -67.8102575 ], [ 67.3444794, -67.810152 ], [ 67.3502257, -67.8112558 ], [ 67.3565718, -67.8120083 ], [ 67.3637048, -67.8134098 ], [ 67.3658945, -67.8132676 ], [ 67.3693432, -67.8139294 ], [ 67.369593, -67.8152632 ], [ 67.3704733, -67.8164127 ], [ 67.3730872, -67.8173482 ], [ 67.3780808, -67.8179685 ], [ 67.383264, -67.8184161 ], [ 67.3910309, -67.8196319 ], [ 67.3957579, -67.8200075 ], [ 67.3972865, -67.8198826 ], [ 67.4001858, -67.8199721 ], [ 67.4061891, -67.8212348 ], [ 67.4116573, -67.8220089 ], [ 67.4224207, -67.8226396 ], [ 67.4277323, -67.8237527 ], [ 67.4323034, -67.8244666 ], [ 67.4346671, -67.8240673 ], [ 67.4359116, -67.8236147 ], [ 67.4398829, -67.8235068 ], [ 67.4419637, -67.823953 ], [ 67.4514847, -67.8250347 ], [ 67.4602647, -67.8257169 ], [ 67.4648823, -67.825507 ], [ 67.4693271, -67.8255531 ], [ 67.4721344, -67.8263143 ], [ 67.4755242, -67.8266405 ], [ 67.4793872, -67.8271212 ], [ 67.4825599, -67.8286262 ], [ 67.4854287, -67.8285476 ], [ 67.4903915, -67.8278248 ], [ 67.4924255, -67.8280203 ], [ 67.4957513, -67.8280126 ], [ 67.4974889, -67.8289704 ], [ 67.5005344, -67.8298082 ], [ 67.5032466, -67.8300687 ], [ 67.5051523, -67.8295973 ], [ 67.5068853, -67.8293818 ], [ 67.5104481, -67.8294512 ], [ 67.5126064, -67.8291402 ], [ 67.5147323, -67.8286626 ], [ 67.5173964, -67.8286727 ], [ 67.5222506, -67.8285385 ], [ 67.5246455, -67.8283046 ], [ 67.5276375, -67.827719 ], [ 67.5303661, -67.8280623 ], [ 67.5321961, -67.8283469 ], [ 67.5358073, -67.8286657 ], [ 67.5370178, -67.8280455 ], [ 67.540058, -67.8277096 ], [ 67.5432864, -67.8272009 ], [ 67.546106, -67.8268711 ], [ 67.5502166, -67.8263378 ], [ 67.5535258, -67.8262456 ], [ 67.5588695, -67.826348 ], [ 67.5701209, -67.8260338 ], [ 67.574378, -67.8262499 ], [ 67.5762816, -67.8257776 ], [ 67.5781691, -67.8252219 ], [ 67.5809548, -67.8247249 ], [ 67.5822621, -67.8246044 ], [ 67.5891006, -67.8244125 ], [ 67.5918534, -67.8237486 ], [ 67.5953334, -67.8233993 ], [ 67.596542, -67.8227787 ], [ 67.5977669, -67.8222415 ], [ 67.6006507, -67.8222441 ], [ 67.606754, -67.8228263 ], [ 67.6144387, -67.8257941 ], [ 67.6182983, -67.8273612 ], [ 67.6216014, -67.8283572 ], [ 67.6245687, -67.8287761 ], [ 67.6269114, -67.8292863 ], [ 67.6341435, -67.8294018 ], [ 67.6397521, -67.8298834 ], [ 67.6518221, -67.8287394 ], [ 67.6566913, -67.8276396 ], [ 67.6604543, -67.8273722 ], [ 67.6656095, -67.8277056 ], [ 67.6768338, -67.8265838 ], [ 67.6861734, -67.8266366 ], [ 67.6930472, -67.8270802 ], [ 67.6957052, -67.8276445 ], [ 67.7050772, -67.8278555 ], [ 67.7162324, -67.8284952 ], [ 67.7246626, -67.8303342 ], [ 67.7334201, -67.8296002 ], [ 67.7383825, -67.8289758 ], [ 67.7471068, -67.8280818 ], [ 67.7516146, -67.82731 ], [ 67.7584582, -67.829674 ], [ 67.7635827, -67.8298451 ], [ 67.7695506, -67.8299915 ], [ 67.7721779, -67.8303954 ], [ 67.7760052, -67.8304438 ], [ 67.784019, -67.8322921 ], [ 67.7913507, -67.8328784 ], [ 67.8014048, -67.8322628 ], [ 67.8061412, -67.8326043 ], [ 67.8116884, -67.8327614 ], [ 67.8254582, -67.8378027 ], [ 67.8422607, -67.8369854 ], [ 67.8560104, -67.8357764 ], [ 67.8644104, -67.8353664 ], [ 67.8690487, -67.8352282 ], [ 67.8777482, -67.8362506 ], [ 67.8904649, -67.836191 ], [ 67.9038905, -67.8354683 ], [ 67.9054765, -67.83494 ], [ 67.9100137, -67.834323 ], [ 67.9170131, -67.8333115 ], [ 67.9210944, -67.8325477 ], [ 67.9267093, -67.8330194 ], [ 67.9357646, -67.8337076 ], [ 67.9403344, -67.833249 ], [ 67.9484278, -67.8314018 ], [ 67.9511936, -67.8324397 ], [ 67.9549383, -67.8340887 ], [ 67.9618192, -67.8345209 ], [ 67.9677089, -67.8343801 ], [ 67.9712024, -67.8341061 ], [ 67.9759408, -67.834465 ], [ 67.9806369, -67.8356632 ], [ 67.986073, -67.8361681 ], [ 67.9909369, -67.8371096 ], [ 67.9949904, -67.838411 ], [ 67.9975241, -67.8388366 ], [ 67.999748, -67.8388524 ], [ 68.0058708, -67.8384134 ], [ 68.010044, -67.8382017 ], [ 68.0156842, -67.8386156 ], [ 68.0183671, -67.8387009 ], [ 68.019029, -67.8386806 ], [ 68.0230532, -67.8388085 ], [ 68.0249438, -67.8393372 ], [ 68.0284323, -67.8400683 ], [ 68.0308181, -67.8408333 ], [ 68.0355588, -67.8411904 ], [ 68.0379088, -67.8417887 ], [ 68.0458424, -67.8435561 ], [ 68.0496433, -67.8446964 ], [ 68.0605523, -67.8478805 ], [ 68.0636743, -67.8489576 ], [ 68.0671656, -67.8496879 ], [ 68.0717241, -67.8502173 ], [ 68.075255, -67.8501077 ], [ 68.0798528, -67.8497972 ], [ 68.0832537, -67.8501107 ], [ 68.0851646, -67.8507221 ], [ 68.0863022, -67.8518605 ], [ 68.0889116, -67.8526178 ], [ 68.0917785, -67.8535346 ], [ 68.0961723, -67.8543201 ], [ 68.1021664, -67.8553071 ], [ 68.1075914, -67.8557246 ], [ 68.1134031, -67.8558784 ], [ 68.1186077, -67.8563025 ], [ 68.123242, -67.8571635 ], [ 68.1275643, -67.857615 ], [ 68.1342041, -67.8584967 ], [ 68.1398328, -67.8578167 ], [ 68.1447991, -67.8571575 ], [ 68.1470796, -67.8564149 ], [ 68.1496914, -67.856165 ], [ 68.1512362, -67.8561163 ], [ 68.1526526, -67.8564909 ], [ 68.1534076, -67.8578926 ], [ 68.1563151, -67.8599812 ], [ 68.1587257, -67.8608275 ], [ 68.1656622, -67.862034 ], [ 68.1704461, -67.8625537 ], [ 68.1737574, -67.862449 ], [ 68.1779333, -67.862233 ], [ 68.1808066, -67.8641545 ], [ 68.1837546, -67.866409 ], [ 68.1884674, -67.8676013 ], [ 68.1918353, -67.867746 ], [ 68.1933275, -67.8684533 ], [ 68.1969743, -67.8698469 ], [ 68.1998663, -67.8708451 ], [ 68.2012684, -67.8721422 ], [ 68.2051745, -67.8736951 ], [ 68.2078462, -67.8747002 ], [ 68.2103689, -67.8750392 ], [ 68.2116225, -67.8756701 ], [ 68.2124719, -67.8764817 ], [ 68.2138904, -67.8768558 ], [ 68.2156948, -67.876966 ], [ 68.2166346, -67.8771876 ], [ 68.2183522, -67.8788938 ], [ 68.2206956, -67.8804124 ], [ 68.2254506, -67.8817701 ], [ 68.2333555, -67.8832786 ], [ 68.2468934, -67.884103 ], [ 68.2550679, -67.8838407 ], [ 68.26359, -67.8831475 ], [ 68.2676231, -67.8832693 ], [ 68.2736882, -67.8844996 ], [ 68.2780751, -67.8851969 ], [ 68.2824683, -67.8869002 ], [ 68.2856055, -67.887973 ], [ 68.2894253, -67.8891076 ], [ 68.2947353, -67.8899423 ], [ 68.3005945, -67.8902558 ], [ 68.3141537, -67.893087 ], [ 68.3271513, -67.8944258 ], [ 68.3364313, -67.8960526 ], [ 68.3420612, -67.8972947 ], [ 68.3498739, -67.8973751 ], [ 68.3530549, -67.896684 ], [ 68.3557937, -67.8960073 ], [ 68.3560631, -67.8952437 ], [ 68.3599643, -67.8947805 ], [ 68.3634041, -67.8942485 ], [ 68.3680256, -67.8940131 ], [ 68.3706776, -67.8939261 ], [ 68.3745305, -67.894219 ], [ 68.379585, -67.8948918 ], [ 68.3839961, -67.8956693 ], [ 68.3874269, -67.8960597 ], [ 68.3888883, -67.8965988 ], [ 68.393626, -67.8968621 ], [ 68.4004771, -67.8966363 ], [ 68.4028498, -67.8963063 ], [ 68.4042807, -67.8957559 ], [ 68.4054129, -67.8948797 ], [ 68.4070452, -67.8942387 ], [ 68.4100225, -67.8936371 ], [ 68.4114528, -67.8930864 ], [ 68.4145463, -67.8929842 ], [ 68.4172441, -67.89214 ], [ 68.4233336, -67.8915189 ], [ 68.4256862, -67.8911055 ], [ 68.4334713, -67.8891696 ], [ 68.4400469, -67.8877768 ], [ 68.4422624, -67.8867805 ], [ 68.4508379, -67.8863273 ], [ 68.4603809, -67.8852542 ], [ 68.4678174, -67.8837476 ], [ 68.4699334, -67.8823348 ], [ 68.4736, -67.8799472 ], [ 68.4758133, -67.8789505 ], [ 68.478826, -67.8785141 ], [ 68.4848465, -67.878564 ], [ 68.4923929, -67.8784786 ], [ 68.4998451, -67.8770538 ], [ 68.5056719, -67.8753478 ], [ 68.5090106, -67.8734738 ], [ 68.5102401, -67.8720902 ], [ 68.5122267, -67.8720231 ], [ 68.5194676, -67.8725339 ], [ 68.5236387, -67.873232 ], [ 68.5279085, -67.8743461 ], [ 68.5328442, -67.8745148 ], [ 68.5430998, -67.8736641 ], [ 68.5504258, -67.8726606 ], [ 68.5533965, -67.8720564 ], [ 68.5587534, -67.8721261 ], [ 68.5638277, -67.8717418 ], [ 68.5791554, -67.8726195 ], [ 68.5901191, -67.8720965 ], [ 68.6025567, -67.8707504 ], [ 68.6062309, -67.8693826 ], [ 68.6135279, -67.8696753 ], [ 68.6266271, -67.872459 ], [ 68.6324648, -67.8727475 ], [ 68.6368677, -67.8713807 ], [ 68.6427224, -67.8705675 ], [ 68.6529451, -67.8705894 ], [ 68.666815, -67.8708935 ], [ 68.671942, -67.8698026 ], [ 68.6792475, -67.8695417 ], [ 68.6836361, -67.8689995 ], [ 68.694574, -67.8701215 ], [ 68.714252, -67.8731858 ], [ 68.7339574, -67.8743203 ], [ 68.7522153, -67.8743488 ], [ 68.7565686, -67.8771087 ], [ 68.76967, -67.8818083 ], [ 68.7835122, -67.8859572 ], [ 68.7944799, -67.8851453 ], [ 68.8047232, -67.8835058 ], [ 68.8135082, -67.8813134 ], [ 68.8193759, -67.8782912 ], [ 68.8259561, -67.8774723 ], [ 68.8347193, -67.8777567 ], [ 68.8610118, -67.8783318 ], [ 68.8748832, -67.8797196 ], [ 68.8836491, -67.879726 ], [ 68.8982615, -67.8791851 ], [ 68.9128753, -67.8780921 ], [ 68.9216482, -67.8758939 ], [ 68.9274945, -67.8747953 ], [ 68.9413739, -67.8736994 ], [ 68.9589073, -67.8704008 ], [ 68.9778969, -67.8659991 ], [ 68.988119, -67.8640728 ], [ 68.9924998, -67.8613197 ], [ 68.9939604, -67.8588417 ], [ 69.0019887, -67.8580158 ], [ 69.017315, -67.8580149 ], [ 69.0319094, -67.856636 ], [ 69.0428541, -67.8555322 ], [ 69.0640077, -67.8522212 ], [ 69.0698405, -67.8508422 ], [ 69.086607, -67.8469795 ], [ 69.1040911, -67.8417379 ], [ 69.1077211, -67.8381562 ], [ 69.1135509, -67.8373263 ], [ 69.1244766, -67.8351157 ], [ 69.1324843, -67.8329067 ], [ 69.1426673, -67.8290434 ], [ 69.1506675, -67.8262829 ], [ 69.1557639, -67.8254521 ], [ 69.1615791, -67.8232437 ], [ 69.1710305, -67.8202054 ], [ 69.1782623, -67.8130389 ], [ 69.1862003, -67.8036686 ], [ 69.1898141, -67.8003604 ], [ 69.1883227, -67.7959567 ], [ 69.1882695, -67.7893486 ], [ 69.186768, -67.7835682 ], [ 69.1917975, -67.7758529 ], [ 69.200468, -67.7692343 ], [ 69.2084018, -67.7620655 ], [ 69.2199719, -67.7557175 ], [ 69.2409903, -67.7504565 ], [ 69.2590759, -67.7435452 ], [ 69.2749924, -67.7382877 ], [ 69.2938258, -67.7346754 ], [ 69.309046, -67.7327199 ], [ 69.359784, -67.7276598 ], [ 69.39027, -67.7278651 ], [ 69.4040785, -67.7289329 ], [ 69.4186091, -67.7297223 ], [ 69.4381803, -67.7282942 ], [ 69.4562817, -67.7260418 ], [ 69.4686296, -67.7265575 ], [ 69.4838863, -67.727339 ], [ 69.4991677, -67.7292205 ], [ 69.5108462, -67.7322132 ], [ 69.5210452, -67.7338329 ], [ 69.5450456, -67.735682 ], [ 69.5675978, -67.7375326 ], [ 69.585838, -67.7410477 ], [ 69.6011997, -67.7453975 ], [ 69.6136328, -67.7486554 ], [ 69.6312362, -67.7549215 ], [ 69.6452683, -67.7631272 ], [ 69.6526975, -67.7688801 ], [ 69.6594882, -67.777664 ], [ 69.6632961, -67.7837064 ], [ 69.6634521, -67.7892128 ], [ 69.6607124, -67.7952816 ], [ 69.651404, -67.8008259 ], [ 69.6486753, -67.8074452 ], [ 69.6487821, -67.8112996 ], [ 69.6460512, -67.8179188 ], [ 69.6492177, -67.8269928 ], [ 69.6567767, -67.8365999 ], [ 69.6620675, -67.8431869 ], [ 69.6629455, -67.8484151 ], [ 69.6645374, -67.8530896 ], [ 69.666868, -67.8580364 ], [ 69.6721351, -67.8635218 ], [ 69.6781107, -67.8681782 ], [ 69.6833988, -67.8742139 ], [ 69.6835924, -67.8808215 ], [ 69.6845413, -67.888252 ], [ 69.6782212, -67.8970893 ], [ 69.6682084, -67.9048401 ], [ 69.6539006, -67.9161869 ], [ 69.6424613, -67.9258691 ], [ 69.6332237, -67.9360928 ], [ 69.6304293, -67.9410597 ], [ 69.6284034, -67.9474004 ], [ 69.6274958, -67.9680546 ], [ 69.6262894, -67.9776962 ], [ 69.6250005, -67.9843094 ], [ 69.6228168, -67.9893189 ], [ 69.6222355, -67.9906528 ], [ 69.6172369, -67.995903 ], [ 69.6122435, -68.0014286 ], [ 69.6109131, -68.006665 ], [ 69.6110801, -68.0129972 ], [ 69.6134371, -68.0187707 ], [ 69.6143254, -68.0245495 ], [ 69.6092454, -68.0270464 ], [ 69.6050076, -68.0336701 ], [ 69.6029666, -68.0400105 ], [ 69.6016534, -68.0460728 ], [ 69.6018181, -68.052405 ], [ 69.6034697, -68.0592825 ], [ 69.6073603, -68.0672531 ], [ 69.608971, -68.0724786 ], [ 69.6107281, -68.0832104 ], [ 69.6168367, -68.0911725 ], [ 69.6169621, -68.0958528 ], [ 69.6216011, -68.1038203 ], [ 69.6322214, -68.1145183 ], [ 69.6382694, -68.1197264 ], [ 69.639822, -68.1224739 ], [ 69.6459126, -68.1290584 ], [ 69.6519209, -68.1326142 ], [ 69.6527453, -68.1356397 ], [ 69.6528702, -68.1400446 ], [ 69.6516188, -68.1480343 ], [ 69.6547316, -68.1535289 ], [ 69.6682281, -68.1600831 ], [ 69.6765311, -68.1658316 ], [ 69.6818633, -68.1710412 ], [ 69.6958132, -68.1774148 ], [ 69.7035002, -68.1794439 ], [ 69.7055768, -68.1847728 ], [ 69.7114155, -68.1879505 ], [ 69.7135278, -68.1943467 ], [ 69.7159686, -68.1998209 ], [ 69.7176451, -68.2035809 ], [ 69.7294048, -68.21207 ], [ 69.7390734, -68.2148741 ], [ 69.7407554, -68.2190778 ], [ 69.7422004, -68.2226889 ], [ 69.7500518, -68.2283471 ], [ 69.7599422, -68.2375543 ], [ 69.769757, -68.2442702 ], [ 69.7833296, -68.2484771 ], [ 69.7844941, -68.2492224 ], [ 69.7921595, -68.2541288 ], [ 69.789404, -68.2577004 ], [ 69.7885915, -68.2619745 ], [ 69.799348, -68.2676167 ], [ 69.8092882, -68.2771767 ], [ 69.8220806, -68.2856544 ], [ 69.8376614, -68.2912704 ], [ 69.8484968, -68.2983325 ], [ 69.8712037, -68.3138728 ], [ 69.8808641, -68.3148897 ], [ 69.8848225, -68.3177155 ], [ 69.8944852, -68.3187315 ], [ 69.8976238, -68.3251201 ], [ 69.9123446, -68.3321572 ], [ 69.9164385, -68.3381843 ], [ 69.926401, -68.346314 ], [ 69.9460067, -68.3543887 ], [ 69.9595872, -68.3564463 ], [ 69.9702183, -68.3570966 ], [ 69.9761686, -68.3609763 ], [ 69.9907353, -68.3633816 ], [ 70.0, -68.3666915 ], [ 70.0, -68.3740226 ], [ 69.9989942, -68.3757875 ], [ 69.9964907, -68.3846989 ], [ 69.9985924, -68.3886008 ], [ 70.0, -68.3910325 ], [ 70.0, -70.0 ], [ 65.0, -70.0 ], [ 65.0, -67.671144686829905 ], [ 65.0017891, -67.6709353 ] ] ] ] } }
]
}
