{
"type": "FeatureCollection",
"name": "65_50",
"crs": { "type": "name", "properties": { "name": "urn:ogc:def:crs:OGC:1.3:CRS84" } },
"xy_coordinate_resolution": 1e-15,
"features": [
{ "type": "Feature", "properties": { "FID": 123912, "id": 1772, "left": 65.0, "top": 55.0, "right": 70.0, "bottom": 50.0, "row_index": 7, "col_index": 49, "min_lon": 65.0, "min_lat": 50.0, "tile_id": "65_50" }, "geometry": { "type": "MultiPolygon", "coordinates": [ [ [ [ 70.0, 55.0 ], [ 70.0, 50.0 ], [ 65.0, 50.0 ], [ 65.0, 55.0 ], [ 70.0, 55.0 ] ] ] ] } }
]
}
