{
"type": "FeatureCollection",
"name": "65_80",
"crs": { "type": "name", "properties": { "name": "urn:ogc:def:crs:OGC:1.3:CRS84" } },
"xy_coordinate_resolution": 1e-15,
"features": [
{ "type": "Feature", "properties": { "FID": 297553, "id": 1766, "left": 65.0, "top": 85.0, "right": 70.0, "bottom": 80.0, "row_index": 1, "col_index": 49, "min_lon": 65.0, "min_lat": 80.0, "tile_id": "65_80" }, "geometry": { "type": "MultiPolygon", "coordinates": [ [ [ [ 65.0018159, 81.1683931 ], [ 65.0045055, 81.1676349 ], [ 65.0074016, 81.1667589 ], [ 65.0105583, 81.1657471 ], [ 65.0126919, 81.1651172 ], [ 65.0153437, 81.1644576 ], [ 65.0184029, 81.1637959 ], [ 65.0216386, 81.1631421 ], [ 65.0250588, 81.1625321 ], [ 65.0284928, 81.1619848 ], [ 65.0318262, 81.1615097 ], [ 65.0349507, 81.1611432 ], [ 65.036262, 81.1610107 ], [ 65.0376836, 81.1608506 ], [ 65.0391593, 81.1606723 ], [ 65.0407515, 81.1604934 ], [ 65.0422812, 81.1602968 ], [ 65.0437547, 81.1601096 ], [ 65.0451136, 81.1599319 ], [ 65.0463581, 81.1597638 ], [ 65.0477129, 81.1595682 ], [ 65.0495191, 81.1593074 ], [ 65.0516664, 81.1590088 ], [ 65.0540945, 81.1586639 ], [ 65.0566909, 81.1582912 ], [ 65.0594598, 81.1579086 ], [ 65.0622263, 81.1575169 ], [ 65.0649344, 81.1571256 ], [ 65.0675881, 81.1567525 ], [ 65.0701314, 81.1564069 ], [ 65.0725061, 81.156089 ], [ 65.0745979, 81.1558086 ], [ 65.0764691, 81.1555831 ], [ 65.0779453, 81.1554136 ], [ 65.0789681, 81.1553004 ], [ 65.079542, 81.1552614 ], [ 65.0798892, 81.1552505 ], [ 65.0802904, 81.1552214 ], [ 65.0806854, 81.1551655 ], [ 65.0810783, 81.1551005 ], [ 65.0814691, 81.1550267 ], [ 65.0818557, 81.1549349 ], [ 65.0822423, 81.1548431 ], [ 65.0825665, 81.1547337 ], [ 65.0830611, 81.1546055 ], [ 65.0838322, 81.154413 ], [ 65.0848838, 81.1541741 ], [ 65.0861597, 81.1538981 ], [ 65.087604, 81.1535943 ], [ 65.0892185, 81.1532716 ], [ 65.0909452, 81.1529303 ], [ 65.0926738, 81.152598 ], [ 65.0983118, 81.1515447 ], [ 65.1032152, 81.150594 ], [ 65.107557, 81.149736 ], [ 65.1113913, 81.1489526 ], [ 65.1147766, 81.1482433 ], [ 65.1177626, 81.1475721 ], [ 65.1204099, 81.1469476 ], [ 65.1228263, 81.1463334 ], [ 65.1303968, 81.1443811 ], [ 65.1364865, 81.1428226 ], [ 65.1414329, 81.1416022 ], [ 65.1455126, 81.1406556 ], [ 65.1489459, 81.1399278 ], [ 65.1519503, 81.1393548 ], [ 65.1549222, 81.1388896 ], [ 65.1580164, 81.1384505 ], [ 65.1641009, 81.1376266 ], [ 65.1700615, 81.1367765 ], [ 65.1757327, 81.1359369 ], [ 65.180891, 81.135145 ], [ 65.1852529, 81.1344293 ], [ 65.1886531, 81.1338268 ], [ 65.1908707, 81.1333836 ], [ 65.1916222, 81.1331282 ], [ 65.191712, 81.1330201 ], [ 65.1920833, 81.1328745 ], [ 65.1926201, 81.1326921 ], [ 65.1933825, 81.1324814 ], [ 65.1943146, 81.1322519 ], [ 65.1954143, 81.1319944 ], [ 65.196572, 81.1317366 ], [ 65.1978457, 81.1314782 ], [ 65.2008868, 81.1308418 ], [ 65.2036372, 81.1302071 ], [ 65.2061529, 81.1295648 ], [ 65.208436, 81.1289238 ], [ 65.2104866, 81.1282842 ], [ 65.2121887, 81.1276466 ], [ 65.2136585, 81.1270104 ], [ 65.2148402, 81.1263848 ], [ 65.2160239, 81.1257682 ], [ 65.2175333, 81.12506 ], [ 65.2194331, 81.1242868 ], [ 65.221665, 81.1234488 ], [ 65.2242289, 81.122546 ], [ 65.2271268, 81.1215875 ], [ 65.2302472, 81.1205918 ], [ 65.2336456, 81.1195495 ], [ 65.234941, 81.1191563 ], [ 65.2362363, 81.1187631 ], [ 65.2374757, 81.1183792 ], [ 65.238608, 81.1180317 ], [ 65.2395731, 81.1177122 ], [ 65.2404333, 81.1174381 ], [ 65.2410751, 81.1172191 ], [ 65.241503, 81.1170731 ], [ 65.2418216, 81.1169547 ], [ 65.2422539, 81.1168266 ], [ 65.2427442, 81.1166981 ], [ 65.2432924, 81.1165693 ], [ 65.2438406, 81.1164405 ], [ 65.2444512, 81.1163293 ], [ 65.2450641, 81.116227 ], [ 65.2456234, 81.116143 ], [ 65.2461805, 81.11605 ], [ 65.2466774, 81.1159484 ], [ 65.2471119, 81.1158292 ], [ 65.2474861, 81.1157015 ], [ 65.2478024, 81.1155741 ], [ 65.2480005, 81.1154384 ], [ 65.2481406, 81.1153031 ], [ 65.2481671, 81.1151774 ], [ 65.2481958, 81.1150607 ], [ 65.2482223, 81.114935 ], [ 65.2483067, 81.114809 ], [ 65.2485093, 81.1146912 ], [ 65.2486562, 81.1145828 ], [ 65.2489212, 81.1144826 ], [ 65.2491907, 81.1144003 ], [ 65.2494624, 81.1143269 ], [ 65.2502753, 81.1140979 ], [ 65.2512772, 81.1136974 ], [ 65.2524213, 81.1131706 ], [ 65.2535473, 81.1125721 ], [ 65.2546129, 81.111965 ], [ 65.2555114, 81.1113858 ], [ 65.2561404, 81.1108889 ], [ 65.2563421, 81.1105381 ], [ 65.2564264, 81.110412 ], [ 65.2566197, 81.1102585 ], [ 65.2569244, 81.1100863 ], [ 65.2572824, 81.1098959 ], [ 65.2576961, 81.1096961 ], [ 65.2582257, 81.1094957 ], [ 65.2587551, 81.1092953 ], [ 65.2593448, 81.1091035 ], [ 65.2599787, 81.1088576 ], [ 65.2606014, 81.1085669 ], [ 65.2610991, 81.1082412 ], [ 65.2615254, 81.107862 ], [ 65.2618268, 81.1074478 ], [ 65.2621191, 81.1069978 ], [ 65.2622866, 81.1065126 ], [ 65.2623871, 81.105992 ], [ 65.2624881, 81.1050142 ], [ 65.2627433, 81.1041878 ], [ 65.2630857, 81.1034775 ], [ 65.2635709, 81.1028739 ], [ 65.26425, 81.1023498 ], [ 65.2651184, 81.1018873 ], [ 65.2661716, 81.1014685 ], [ 65.2674607, 81.1010662 ], [ 65.2680519, 81.1008833 ], [ 65.268643, 81.1007005 ], [ 65.2691139, 81.1005004 ], [ 65.2695292, 81.1003096 ], [ 65.2698866, 81.1001191 ], [ 65.2701305, 81.0999383 ], [ 65.2703234, 81.0997848 ], [ 65.2703472, 81.0996501 ], [ 65.2705641, 81.0989047 ], [ 65.2714229, 81.0979491 ], [ 65.2728235, 81.0968468 ], [ 65.2746059, 81.0956526 ], [ 65.276788, 81.0944379 ], [ 65.2790987, 81.0932763 ], [ 65.2816095, 81.092221 ], [ 65.2840498, 81.0913454 ], [ 65.2846886, 81.0911263 ], [ 65.285383, 81.090898 ], [ 65.2859617, 81.0906703 ], [ 65.2865404, 81.0904426 ], [ 65.2870636, 81.0902242 ], [ 65.2874758, 81.0900245 ], [ 65.2877791, 81.0898523 ], [ 65.2879738, 81.0897076 ], [ 65.2883631, 81.0894184 ], [ 65.2886482, 81.0891745 ], [ 65.2889424, 81.0889665 ], [ 65.2892411, 81.0887764 ], [ 65.2895445, 81.0886042 ], [ 65.289961, 81.0884224 ], [ 65.2903776, 81.0882405 ], [ 65.2909005, 81.0880221 ], [ 65.2912668, 81.0876433 ], [ 65.2911784, 81.0870701 ], [ 65.2906515, 81.086365 ], [ 65.289813, 81.0855722 ], [ 65.2886791, 81.0847543 ], [ 65.2873835, 81.0839822 ], [ 65.2859354, 81.0832918 ], [ 65.2844084, 81.0827452 ], [ 65.2833754, 81.0823212 ], [ 65.2825439, 81.0817794 ], [ 65.2819738, 81.0811284 ], [ 65.2816697, 81.0803861 ], [ 65.2815716, 81.0795439 ], [ 65.2818016, 81.078628 ], [ 65.2823065, 81.0776567 ], [ 65.2830262, 81.0766212 ], [ 65.283207, 81.0764229 ], [ 65.2833832, 81.0762066 ], [ 65.2835617, 81.0759993 ], [ 65.2837402, 81.075792 ], [ 65.2838633, 81.075594 ], [ 65.2840509, 81.0754225 ], [ 65.2841831, 81.0752604 ], [ 65.2842666, 81.0751343 ], [ 65.2856783, 81.0734133 ], [ 65.2870264, 81.0718988 ], [ 65.2883065, 81.070573 ], [ 65.2894565, 81.0694184 ], [ 65.290645, 81.0684159 ], [ 65.2917521, 81.0675484 ], [ 65.2928864, 81.0667883 ], [ 65.2940433, 81.0661177 ], [ 65.2944981, 81.0658639 ], [ 65.2948884, 81.0655836 ], [ 65.2952165, 81.0652857 ], [ 65.295487, 81.0649882 ], [ 65.2957551, 81.0646817 ], [ 65.2959126, 81.0643938 ], [ 65.2959617, 81.0641335 ], [ 65.2959577, 81.0638915 ], [ 65.2960444, 81.0633261 ], [ 65.2966245, 81.0626591 ], [ 65.2977554, 81.06189 ], [ 65.2993749, 81.0610014 ], [ 65.301538, 81.0599839 ], [ 65.3042421, 81.0588286 ], [ 65.3075975, 81.0575168 ], [ 65.3115462, 81.0560488 ], [ 65.3133911, 81.0553739 ], [ 65.3151275, 81.0547265 ], [ 65.3167048, 81.054134 ], [ 65.3180677, 81.0536055 ], [ 65.3191612, 81.0531504 ], [ 65.3199945, 81.0528045 ], [ 65.3205078, 81.0525592 ], [ 65.320708, 81.0524414 ], [ 65.3212028, 81.0521245 ], [ 65.3225421, 81.0515065 ], [ 65.324521, 81.0506873 ], [ 65.3269273, 81.0497398 ], [ 65.3294965, 81.0487554 ], [ 65.332079, 81.0478247 ], [ 65.3344059, 81.0470212 ], [ 65.3362704, 81.0464357 ], [ 65.3365876, 81.0463261 ], [ 65.3370129, 81.0461889 ], [ 65.3374265, 81.046007 ], [ 65.3378355, 81.0458072 ], [ 65.3382974, 81.0455891 ], [ 65.3387569, 81.0453621 ], [ 65.3391543, 81.0451175 ], [ 65.3395539, 81.0448819 ], [ 65.340011, 81.0446459 ], [ 65.3404728, 81.0444278 ], [ 65.3409368, 81.0442187 ], [ 65.3414653, 81.044036 ], [ 65.3419984, 81.0438713 ], [ 65.3425408, 81.0437424 ], [ 65.3430349, 81.0436496 ], [ 65.3434832, 81.0436019 ], [ 65.3439315, 81.0435543 ], [ 65.344313, 81.0434712 ], [ 65.3445748, 81.0433709 ], [ 65.3447699, 81.0432352 ], [ 65.3449028, 81.0430819 ], [ 65.3449115, 81.0428936 ], [ 65.3448005, 81.0426881 ], [ 65.3446274, 81.042465 ], [ 65.344452, 81.042233 ], [ 65.3443823, 81.0419645 ], [ 65.3443056, 81.0416691 ], [ 65.3443392, 81.0413551 ], [ 65.3444854, 81.0410314 ], [ 65.3446293, 81.0406987 ], [ 65.3448353, 81.0403836 ], [ 65.3451034, 81.040086 ], [ 65.3454219, 81.0397613 ], [ 65.3456621, 81.0393563 ], [ 65.345948, 81.0389062 ], [ 65.3461626, 81.0384027 ], [ 65.3463724, 81.0378814 ], [ 65.3465776, 81.0373421 ], [ 65.3466679, 81.0368036 ], [ 65.3467651, 81.0362919 ], [ 65.3468072, 81.0357896 ], [ 65.3469067, 81.0352868 ], [ 65.3470062, 81.0347841 ], [ 65.3471127, 81.0343083 ], [ 65.3472883, 81.0338768 ], [ 65.347418, 81.0334904 ], [ 65.347564, 81.0331667 ], [ 65.3477309, 81.0329236 ], [ 65.3483875, 81.0321304 ], [ 65.3492022, 81.0312825 ], [ 65.3501293, 81.0304249 ], [ 65.3510632, 81.0295941 ], [ 65.3519605, 81.0288442 ], [ 65.3528305, 81.0282111 ], [ 65.3535679, 81.0277312 ], [ 65.3541292, 81.0274587 ], [ 65.3549192, 81.0269606 ], [ 65.3559825, 81.0259676 ], [ 65.3572987, 81.0246233 ], [ 65.3586206, 81.0230817 ], [ 65.3598707, 81.0214868 ], [ 65.3609167, 81.0199918 ], [ 65.3617388, 81.0187402 ], [ 65.3620328, 81.0178866 ], [ 65.362033, 81.0174473 ], [ 65.3618227, 81.017081 ], [ 65.361459, 81.0167874 ], [ 65.3609398, 81.0165576 ], [ 65.36021, 81.0164009 ], [ 65.359327, 81.0163168 ], [ 65.3582883, 81.0162965 ], [ 65.3570414, 81.0163582 ], [ 65.356129, 81.0163819 ], [ 65.3553676, 81.016324 ], [ 65.3548146, 81.0161841 ], [ 65.3544721, 81.0159711 ], [ 65.3542807, 81.0156764 ], [ 65.3543572, 81.0153083 ], [ 65.354587, 81.0148675 ], [ 65.3550274, 81.0143537 ], [ 65.3553153, 81.0141366 ], [ 65.3556675, 81.0139461 ], [ 65.3560887, 81.0138 ], [ 65.3566887, 81.0136796 ], [ 65.3573529, 81.0135857 ], [ 65.3581937, 81.0135087 ], [ 65.3592134, 81.0134574 ], [ 65.3604073, 81.0134139 ], [ 65.3674147, 81.0134133 ], [ 65.3641644, 81.0126368 ], [ 65.3639552, 81.0124947 ], [ 65.3637483, 81.0123615 ], [ 65.3634817, 81.0122198 ], [ 65.3631626, 81.0120963 ], [ 65.3627862, 81.0119732 ], [ 65.3624717, 81.0118676 ], [ 65.362107, 81.0117892 ], [ 65.361747, 81.0117287 ], [ 65.3614442, 81.0116679 ], [ 65.3611391, 81.0115981 ], [ 65.3608317, 81.0115194 ], [ 65.3605816, 81.0114403 ], [ 65.3603864, 81.0113518 ], [ 65.3601936, 81.0112724 ], [ 65.360113, 81.0111832 ], [ 65.3600347, 81.011103 ], [ 65.3595065, 81.0108374 ], [ 65.3581709, 81.0103348 ], [ 65.3560969, 81.0096397 ], [ 65.3534729, 81.0088135 ], [ 65.3504826, 81.0079 ], [ 65.3472523, 81.0069432 ], [ 65.3439701, 81.0060046 ], [ 65.3407597, 81.0051193 ], [ 65.3381777, 81.0044452 ], [ 65.335374, 81.0037994 ], [ 65.3325823, 81.0031984 ], [ 65.3298116, 81.0026778 ], [ 65.3272313, 81.0022278 ], [ 65.32491, 81.0018927 ], [ 65.3229642, 81.0016808 ], [ 65.321513, 81.0016092 ], [ 65.3207623, 81.001587 ], [ 65.319714, 81.0015218 ], [ 65.3184825, 81.001413 ], [ 65.3170681, 81.0012604 ], [ 65.3155323, 81.0010817 ], [ 65.3139326, 81.0008766 ], [ 65.3123261, 81.0006445 ], [ 65.3107151, 81.0003946 ], [ 65.3051116, 80.9995418 ], [ 65.2995823, 80.9987514 ], [ 65.2941292, 80.998032 ], [ 65.2889261, 80.9973918 ], [ 65.2839774, 80.9968485 ], [ 65.279397, 80.9964016 ], [ 65.2752466, 80.9960685 ], [ 65.2715832, 80.9958489 ], [ 65.2629527, 80.9954624 ], [ 65.2600288, 80.9959106 ], [ 65.2571069, 80.9963677 ], [ 65.249627, 80.9960008 ], [ 65.2480629, 80.9959296 ], [ 65.2463867, 80.9958681 ], [ 65.2447676, 80.9958062 ], [ 65.2431509, 80.9957532 ], [ 65.2415957, 80.9957178 ], [ 65.2402143, 80.9956903 ], [ 65.2390068, 80.9956707 ], [ 65.2380323, 80.9956676 ], [ 65.2370579, 80.9956645 ], [ 65.2358482, 80.995636 ], [ 65.2344624, 80.9955905 ], [ 65.2329579, 80.9955279 ], [ 65.2313346, 80.995448 ], [ 65.2297092, 80.9953592 ], [ 65.2280794, 80.9952525 ], [ 65.2265068, 80.9951454 ], [ 65.2249914, 80.9950379 ], [ 65.2235355, 80.9949391 ], [ 65.2221962, 80.9948485 ], [ 65.2209184, 80.9947755 ], [ 65.2198738, 80.994719 ], [ 65.2189479, 80.9946797 ], [ 65.2183123, 80.9946566 ], [ 65.217912, 80.994659 ], [ 65.2176261, 80.9946607 ], [ 65.217393, 80.9946442 ], [ 65.2171555, 80.9946098 ], [ 65.2169731, 80.994566 ], [ 65.216784, 80.9944954 ], [ 65.2166522, 80.9944245 ], [ 65.2165159, 80.9943357 ], [ 65.2164941, 80.9942461 ], [ 65.2158811, 80.9938464 ], [ 65.214325, 80.9933357 ], [ 65.2120062, 80.9927489 ], [ 65.2091667, 80.9921383 ], [ 65.2059252, 80.9915211 ], [ 65.2025829, 80.9909582 ], [ 65.1992605, 80.9904759 ], [ 65.1961996, 80.9901266 ], [ 65.194556, 80.989957 ], [ 65.1927345, 80.9897616 ], [ 65.1907944, 80.989549 ], [ 65.1887952, 80.9893277 ], [ 65.1867917, 80.9890885 ], [ 65.1848477, 80.9888579 ], [ 65.1830751, 80.9886263 ], [ 65.1814784, 80.9884116 ], [ 65.1796489, 80.9881803 ], [ 65.177881, 80.9879666 ], [ 65.1761217, 80.9877887 ], [ 65.1743688, 80.9876376 ], [ 65.1726225, 80.9875134 ], [ 65.1708826, 80.9874161 ], [ 65.1692064, 80.9873452 ], [ 65.1674794, 80.9873015 ], [ 65.1648318, 80.9872363 ], [ 65.1624043, 80.987134 ], [ 65.1601969, 80.9869945 ], [ 65.1582731, 80.9868443 ], [ 65.1566858, 80.9866653 ], [ 65.1554942, 80.9864661 ], [ 65.1547027, 80.9862645 ], [ 65.1544211, 80.986042 ], [ 65.1541564, 80.9858912 ], [ 65.1534898, 80.9857337 ], [ 65.1525418, 80.9855957 ], [ 65.1513146, 80.9854863 ], [ 65.1500345, 80.9853952 ], [ 65.1486486, 80.9853405 ], [ 65.1473325, 80.9853391 ], [ 65.1461392, 80.985373 ], [ 65.145568, 80.9853763 ], [ 65.1447005, 80.9853365 ], [ 65.1435961, 80.9852622 ], [ 65.1423097, 80.9851441 ], [ 65.1409028, 80.9849999 ], [ 65.1393183, 80.9848297 ], [ 65.1377275, 80.9846327 ], [ 65.1360734, 80.9844092 ], [ 65.1329325, 80.9839432 ], [ 65.1305407, 80.9834998 ], [ 65.1288408, 80.9830793 ], [ 65.1278347, 80.9826906 ], [ 65.1276409, 80.9823511 ], [ 65.1281428, 80.9820524 ], [ 65.1294588, 80.9818117 ], [ 65.1314769, 80.9816387 ], [ 65.132325, 80.981598 ], [ 65.1331161, 80.9815576 ], [ 65.1339092, 80.9815261 ], [ 65.1346453, 80.981495 ], [ 65.1353263, 80.9814731 ], [ 65.1359523, 80.9814605 ], [ 65.1364663, 80.9814575 ], [ 65.1368089, 80.9814556 ], [ 65.1372086, 80.9814533 ], [ 65.1376612, 80.9814327 ], [ 65.1382238, 80.9813936 ], [ 65.1387822, 80.9813366 ], [ 65.1394527, 80.9812699 ], [ 65.140121, 80.9811944 ], [ 65.1407873, 80.9811098 ], [ 65.1414514, 80.9810163 ], [ 65.1445413, 80.9805412 ], [ 65.144649, 80.9809978 ], [ 65.1447272, 80.981087 ], [ 65.1448033, 80.9811672 ], [ 65.1448971, 80.9811983 ], [ 65.1451169, 80.981214 ], [ 65.1452042, 80.9812193 ], [ 65.1452946, 80.9812231 ], [ 65.1455252, 80.9812308 ], [ 65.1456, 80.9812327 ], [ 65.1456755, 80.9812336 ], [ 65.1457513, 80.9812334 ], [ 65.1458268, 80.9812322 ], [ 65.1459012, 80.98123 ], [ 65.146102, 80.9812225 ], [ 65.1462544, 80.9812216 ], [ 65.14658, 80.9812323 ], [ 65.1469019, 80.9812471 ], [ 65.1469372, 80.9812445 ], [ 65.1475061, 80.9812322 ], [ 65.1480792, 80.9812379 ], [ 65.1487729, 80.9812697 ], [ 65.1494687, 80.9813105 ], [ 65.1501666, 80.9813602 ], [ 65.1508688, 80.9814279 ], [ 65.1515752, 80.9815134 ], [ 65.1524572, 80.9816158 ], [ 65.153392, 80.9817 ], [ 65.1543798, 80.981766 ], [ 65.1554733, 80.9817955 ], [ 65.1566217, 80.9818157 ], [ 65.1578759, 80.9817994 ], [ 65.1593563, 80.9817729 ], [ 65.1609467, 80.9817277 ], [ 65.1621924, 80.9816756 ], [ 65.1633238, 80.9816242 ], [ 65.1643981, 80.981573 ], [ 65.1653011, 80.9815229 ], [ 65.1659432, 80.9814753 ], [ 65.1664482, 80.9814047 ], [ 65.1665036, 80.9813963 ], [ 65.1665539, 80.981387 ], [ 65.1665986, 80.9813772 ], [ 65.1666376, 80.9813667 ], [ 65.1672248, 80.9811906 ], [ 65.167345, 80.980982 ], [ 65.167543, 80.9806133 ], [ 65.1676839, 80.9802449 ], [ 65.167884, 80.9798852 ], [ 65.1679763, 80.9795529 ], [ 65.1681342, 80.9792561 ], [ 65.1681929, 80.9790227 ], [ 65.1682686, 80.9788609 ], [ 65.1683614, 80.9787707 ], [ 65.1686805, 80.9786702 ], [ 65.1691115, 80.9785601 ], [ 65.169773, 80.9784576 ], [ 65.1704895, 80.9783458 ], [ 65.1713222, 80.9782423 ], [ 65.1722733, 80.9781561 ], [ 65.1732244, 80.9780698 ], [ 65.1742326, 80.9779832 ], [ 65.1751266, 80.9778972 ], [ 65.1759614, 80.9778027 ], [ 65.176682, 80.9777088 ], [ 65.1772863, 80.9776066 ], [ 65.1777236, 80.9775233 ], [ 65.1779876, 80.9774321 ], [ 65.1780846, 80.9773598 ], [ 65.1782043, 80.977144 ], [ 65.1787215, 80.9769168 ], [ 65.1794711, 80.9767062 ], [ 65.1805061, 80.9764939 ], [ 65.1817187, 80.9763074 ], [ 65.183166, 80.9761465 ], [ 65.1846767, 80.976012 ], [ 65.1863145, 80.9759306 ], [ 65.1916926, 80.9757195 ], [ 65.1961662, 80.9755495 ], [ 65.1998493, 80.97542 ], [ 65.2027422, 80.9753311 ], [ 65.2049546, 80.9752641 ], [ 65.2065479, 80.9752366 ], [ 65.207575, 80.9752305 ], [ 65.2080973, 80.9752632 ], [ 65.2089706, 80.9753297 ], [ 65.2099934, 80.9753057 ], [ 65.2111128, 80.9752094 ], [ 65.21216, 80.9750507 ], [ 65.2131413, 80.9748565 ], [ 65.2139449, 80.9746366 ], [ 65.2144567, 80.9743914 ], [ 65.2146282, 80.9741573 ], [ 65.2145563, 80.9738619 ], [ 65.2147279, 80.9736278 ], [ 65.2150266, 80.9734467 ], [ 65.2155666, 80.9733179 ], [ 65.2164005, 80.9732233 ], [ 65.2175854, 80.9731624 ], [ 65.2191192, 80.9731263 ], [ 65.2210588, 80.9731146 ], [ 65.2221383, 80.9730902 ], [ 65.2233846, 80.9730468 ], [ 65.2247954, 80.9729756 ], [ 65.2262611, 80.972895 ], [ 65.2277773, 80.9727873 ], [ 65.2292912, 80.9726706 ], [ 65.2293872, 80.9726623 ], [ 65.2298121, 80.9726005 ], [ 65.23188, 80.972418 ], [ 65.2320755, 80.9724034 ], [ 65.2320819, 80.9724027 ], [ 65.2334772, 80.9722687 ], [ 65.2349865, 80.9721341 ], [ 65.2366143, 80.9720167 ], [ 65.2382465, 80.9719171 ], [ 65.2398808, 80.9718265 ], [ 65.2414646, 80.9717631 ], [ 65.2429366, 80.9717094 ], [ 65.2443033, 80.9716921 ], [ 65.2449872, 80.9716828 ], [ 65.2464986, 80.9716347 ], [ 65.247341, 80.971639 ], [ 65.2477715, 80.9716262 ], [ 65.2487323, 80.9715845 ], [ 65.249636, 80.9715431 ], [ 65.2503664, 80.9714938 ], [ 65.2508665, 80.971437 ], [ 65.2511954, 80.9713812 ], [ 65.2514673, 80.9713258 ], [ 65.2519103, 80.9712693 ], [ 65.2524696, 80.971221 ], [ 65.2531451, 80.9711811 ], [ 65.2538777, 80.9711407 ], [ 65.2546695, 80.971109 ], [ 65.2555228, 80.9710948 ], [ 65.2563761, 80.9710806 ], [ 65.2571723, 80.9710668 ], [ 65.2579686, 80.971053 ], [ 65.2587055, 80.9710305 ], [ 65.2592692, 80.9710002 ], [ 65.2597736, 80.9709613 ], [ 65.2601639, 80.970923 ], [ 65.260438, 80.9708765 ], [ 65.2604839, 80.9708314 ], [ 65.2605846, 80.970777 ], [ 65.2607972, 80.9707129 ], [ 65.2611808, 80.9706478 ], [ 65.2616763, 80.9705731 ], [ 65.2622858, 80.9704976 ], [ 65.2630094, 80.9704214 ], [ 65.26379, 80.9703449 ], [ 65.2646276, 80.9702681 ], [ 65.2654674, 80.9702002 ], [ 65.2662458, 80.9701147 ], [ 65.2669648, 80.9700206 ], [ 65.2675698, 80.9699273 ], [ 65.2680585, 80.9698257 ], [ 65.2684354, 80.9697337 ], [ 65.2686412, 80.9696428 ], [ 65.2687329, 80.9695525 ], [ 65.2687698, 80.9694716 ], [ 65.268809, 80.9693997 ], [ 65.26896, 80.969318 ], [ 65.2691725, 80.969254 ], [ 65.269442, 80.9691896 ], [ 65.2697137, 80.9691341 ], [ 65.2700469, 80.9690962 ], [ 65.2703823, 80.9690672 ], [ 65.2717519, 80.9688347 ], [ 65.2729975, 80.9683339 ], [ 65.2740092, 80.9675835 ], [ 65.2748531, 80.966619 ], [ 65.2755358, 80.9654672 ], [ 65.2759479, 80.9641467 ], [ 65.2761007, 80.9627023 ], [ 65.2760534, 80.9611426 ], [ 65.2759348, 80.9602109 ], [ 65.2759234, 80.9592517 ], [ 65.2760281, 80.9583007 ], [ 65.2761965, 80.9573762 ], [ 65.2764353, 80.9565051 ], [ 65.2767488, 80.9557052 ], [ 65.2770846, 80.9549948 ], [ 65.2775655, 80.9544091 ], [ 65.2779548, 80.9539136 ], [ 65.2783531, 80.9534539 ], [ 65.2787602, 80.95303 ], [ 65.2790647, 80.9526516 ], [ 65.2793257, 80.9523272 ], [ 65.2794907, 80.9520751 ], [ 65.2796212, 80.9519129 ], [ 65.2796579, 80.951832 ], [ 65.2798152, 80.9517773 ], [ 65.2801343, 80.9516856 ], [ 65.2806721, 80.9515568 ], [ 65.2814308, 80.9513997 ], [ 65.2822988, 80.9512239 ], [ 65.2832738, 80.9510207 ], [ 65.2844173, 80.9508074 ], [ 65.2855585, 80.9505851 ], [ 65.2868659, 80.9503439 ], [ 65.2881709, 80.9500937 ], [ 65.2895328, 80.9498432 ], [ 65.2908945, 80.9495927 ], [ 65.2921994, 80.9493425 ], [ 65.2933971, 80.9491199 ], [ 65.2944285, 80.9489162 ], [ 65.2953552, 80.948749 ], [ 65.2962818, 80.9485819 ], [ 65.2975407, 80.9483768 ], [ 65.2990818, 80.948161 ], [ 65.300732, 80.9479265 ], [ 65.3025505, 80.9476821 ], [ 65.3044258, 80.9474372 ], [ 65.3063602, 80.947201 ], [ 65.308299, 80.9469826 ], [ 65.3139897, 80.9462835 ], [ 65.3184853, 80.9455917 ], [ 65.3210723, 80.9450466 ], [ 65.3210548, 80.9450322 ], [ 65.3209919, 80.9450239 ], [ 65.3209243, 80.9450166 ], [ 65.3208526, 80.9450103 ], [ 65.3208128, 80.9450076 ], [ 65.3215962, 80.9448277 ], [ 65.3216276, 80.9448199 ], [ 65.3236541, 80.9442781 ], [ 65.3236943, 80.944266 ], [ 65.3243941, 80.944026 ], [ 65.3258814, 80.9430974 ], [ 65.3266719, 80.9419538 ], [ 65.3267777, 80.9405813 ], [ 65.3263536, 80.9389163 ], [ 65.3259136, 80.9371887 ], [ 65.3259467, 80.935754 ], [ 65.3266071, 80.9345484 ], [ 65.3280443, 80.9334903 ], [ 65.3303559, 80.9325163 ], [ 65.3337505, 80.9315533 ], [ 65.3382662, 80.9305294 ], [ 65.3441135, 80.9293804 ], [ 65.3461605, 80.928937 ], [ 65.3481276, 80.9284044 ], [ 65.3499671, 80.9278188 ], [ 65.3516269, 80.9271985 ], [ 65.3530027, 80.92658 ], [ 65.3540447, 80.9259906 ], [ 65.3546465, 80.9254577 ], [ 65.3547583, 80.9250087 ], [ 65.3544521, 80.9244817 ], [ 65.3537849, 80.9238763 ], [ 65.3529429, 80.923254 ], [ 65.3519945, 80.9226594 ], [ 65.3509489, 80.9221281 ], [ 65.3499355, 80.9217221 ], [ 65.3490204, 80.9214769 ], [ 65.3483872, 80.9214451 ], [ 65.3481105, 80.9214738 ], [ 65.3478859, 80.9214842 ], [ 65.3477089, 80.9214584 ], [ 65.3474728, 80.9214241 ], [ 65.3473433, 80.9213621 ], [ 65.3472092, 80.9212823 ], [ 65.3470705, 80.9211846 ], [ 65.3470407, 80.9210682 ], [ 65.3467764, 80.9207023 ], [ 65.3462057, 80.9202486 ], [ 65.3453989, 80.9197607 ], [ 65.3444199, 80.9192648 ], [ 65.3434524, 80.9188137 ], [ 65.3424489, 80.9184436 ], [ 65.3415343, 80.9181983 ], [ 65.3408854, 80.9181039 ], [ 65.3405996, 80.9180967 ], [ 65.340425, 80.9180799 ], [ 65.3403024, 80.9180448 ], [ 65.3401776, 80.9180008 ], [ 65.3401615, 80.9179381 ], [ 65.3402022, 80.9178751 ], [ 65.3402406, 80.9178031 ], [ 65.3403924, 80.9177304 ], [ 65.3405419, 80.9176488 ], [ 65.340578, 80.9175679 ], [ 65.3405007, 80.9174876 ], [ 65.3404257, 80.9174164 ], [ 65.340235, 80.9173369 ], [ 65.3399922, 80.9172757 ], [ 65.339695, 80.9172238 ], [ 65.3393434, 80.9171812 ], [ 65.3389918, 80.9171386 ], [ 65.3386901, 80.9170688 ], [ 65.3384404, 80.9169807 ], [ 65.3382996, 80.9168741 ], [ 65.3381542, 80.9167495 ], [ 65.3381789, 80.9166238 ], [ 65.3382013, 80.9164891 ], [ 65.3383371, 80.9163538 ], [ 65.3385273, 80.9162091 ], [ 65.3386064, 80.9160741 ], [ 65.338579, 80.9159667 ], [ 65.3384404, 80.915869 ], [ 65.3383088, 80.9157981 ], [ 65.3380116, 80.9157462 ], [ 65.3376624, 80.9157125 ], [ 65.3372066, 80.9157065 ], [ 65.3368642, 80.9156997 ], [ 65.3365218, 80.9156929 ], [ 65.3362882, 80.9156675 ], [ 65.336109, 80.9156328 ], [ 65.3360409, 80.9155884 ], [ 65.3360295, 80.9155436 ], [ 65.3361292, 80.9154892 ], [ 65.3362855, 80.9154344 ], [ 65.3364396, 80.9153706 ], [ 65.3365324, 80.9152894 ], [ 65.3365141, 80.9152177 ], [ 65.3364346, 80.9151286 ], [ 65.3363007, 80.9150488 ], [ 65.3360511, 80.9149607 ], [ 65.3357472, 80.9148819 ], [ 65.3353889, 80.9148125 ], [ 65.3349693, 80.9147255 ], [ 65.3345429, 80.9146116 ], [ 65.334164, 80.9144616 ], [ 65.3337262, 80.914303 ], [ 65.3333405, 80.9141261 ], [ 65.3330093, 80.91394 ], [ 65.332678, 80.9137538 ], [ 65.3324578, 80.9135579 ], [ 65.3321787, 80.9133535 ], [ 65.3318882, 80.9131043 ], [ 65.3315343, 80.9128286 ], [ 65.3311168, 80.9125264 ], [ 65.3306971, 80.9122153 ], [ 65.3302797, 80.9119131 ], [ 65.3298601, 80.9116019 ], [ 65.3294473, 80.9113176 ], [ 65.3274654, 80.9099943 ], [ 65.3300002, 80.909252 ], [ 65.3306299, 80.9090507 ], [ 65.3310964, 80.9088774 ], [ 65.3313976, 80.9087231 ], [ 65.3315356, 80.9085967 ], [ 65.3315037, 80.9084713 ], [ 65.3313042, 80.9083561 ], [ 65.330996, 80.9082594 ], [ 65.3305155, 80.9081549 ], [ 65.3300283, 80.9080235 ], [ 65.3295818, 80.907829 ], [ 65.3292847, 80.907553 ], [ 65.3290261, 80.907205 ], [ 65.3288603, 80.9067756 ], [ 65.328785, 80.9062561 ], [ 65.3287482, 80.9056646 ], [ 65.3288019, 80.9049828 ], [ 65.3289074, 80.9040587 ], [ 65.3289224, 80.9032247 ], [ 65.3288922, 80.9024359 ], [ 65.328794, 80.9016027 ], [ 65.3285577, 80.9006718 ], [ 65.3282216, 80.8995711 ], [ 65.3278244, 80.8982287 ], [ 65.3272346, 80.8965738 ], [ 65.3268131, 80.8958054 ], [ 65.3262402, 80.8951097 ], [ 65.3254051, 80.8944964 ], [ 65.3243642, 80.893965 ], [ 65.3232352, 80.8935328 ], [ 65.3219662, 80.8932181 ], [ 65.3206136, 80.8930205 ], [ 65.3191253, 80.8929582 ], [ 65.318786, 80.8929603 ], [ 65.3184445, 80.8929535 ], [ 65.3182138, 80.892937 ], [ 65.3180396, 80.8929202 ], [ 65.3179763, 80.8928937 ], [ 65.3179695, 80.8928669 ], [ 65.3180193, 80.8928396 ], [ 65.3181799, 80.8928028 ], [ 65.3182794, 80.8927483 ], [ 65.318259, 80.8926678 ], [ 65.3181166, 80.8925521 ], [ 65.3178, 80.8924196 ], [ 65.3174223, 80.8922696 ], [ 65.316927, 80.8921024 ], [ 65.3163142, 80.891918 ], [ 65.3156449, 80.8917339 ], [ 65.314919, 80.8915502 ], [ 65.3142497, 80.8913662 ], [ 65.3136958, 80.8911904 ], [ 65.3131441, 80.8910235 ], [ 65.3127078, 80.8908649 ], [ 65.3123936, 80.8907413 ], [ 65.3121404, 80.8906353 ], [ 65.3120659, 80.8905641 ], [ 65.3117426, 80.8904047 ], [ 65.3110057, 80.8901763 ], [ 65.3097986, 80.8898791 ], [ 65.3082977, 80.8895388 ], [ 65.3065663, 80.8891822 ], [ 65.3046609, 80.8888086 ], [ 65.302645, 80.8884447 ], [ 65.3006924, 80.8881074 ], [ 65.2971425, 80.8874931 ], [ 65.2939321, 80.8868766 ], [ 65.2910566, 80.8862401 ], [ 65.2885749, 80.8855922 ], [ 65.286489, 80.8849418 ], [ 65.2847989, 80.8842889 ], [ 65.2834501, 80.8836428 ], [ 65.2825535, 80.8829939 ], [ 65.2821234, 80.882629 ], [ 65.2817543, 80.8822816 ], [ 65.281444, 80.8819429 ], [ 65.2811403, 80.881631 ], [ 65.2808456, 80.8813549 ], [ 65.2806749, 80.8811228 ], [ 65.2805175, 80.8809445 ], [ 65.2804886, 80.8808281 ], [ 65.2800997, 80.8804002 ], [ 65.2794196, 80.8799382 ], [ 65.2783377, 80.8794519 ], [ 65.2770278, 80.8789579 ], [ 65.2753793, 80.8784661 ], [ 65.2735051, 80.8779757 ], [ 65.271412, 80.8775135 ], [ 65.2691585, 80.8770882 ], [ 65.2677353, 80.8768191 ], [ 65.2663078, 80.8765321 ], [ 65.2648781, 80.8762361 ], [ 65.2635592, 80.8759305 ], [ 65.2623555, 80.8756331 ], [ 65.2613233, 80.8753436 ], [ 65.260413, 80.8750893 ], [ 65.2597914, 80.87486 ], [ 65.2592329, 80.8746572 ], [ 65.2586766, 80.8744634 ], [ 65.2580141, 80.8742972 ], [ 65.2573538, 80.8741399 ], [ 65.2567587, 80.874018 ], [ 65.2561138, 80.8739234 ], [ 65.2555342, 80.8738642 ], [ 65.2550219, 80.8738494 ], [ 65.2545683, 80.8738433 ], [ 65.2541667, 80.8738189 ], [ 65.2538193, 80.8737851 ], [ 65.2535262, 80.8737421 ], [ 65.2533437, 80.8736894 ], [ 65.2532155, 80.8736275 ], [ 65.2531416, 80.8735562 ], [ 65.2531805, 80.8734842 ], [ 65.2531585, 80.8733947 ], [ 65.2529586, 80.8732704 ], [ 65.2526392, 80.87312 ], [ 65.2521461, 80.8729527 ], [ 65.2515359, 80.8727682 ], [ 65.2508106, 80.8725754 ], [ 65.2500268, 80.872374 ], [ 65.2491323, 80.8721823 ], [ 65.2481141, 80.8719465 ], [ 65.2472022, 80.8716831 ], [ 65.246286, 80.8714019 ], [ 65.2454784, 80.871102 ], [ 65.2447814, 80.8707925 ], [ 65.2441929, 80.8704644 ], [ 65.2436609, 80.8701359 ], [ 65.2432981, 80.8698064 ], [ 65.2430005, 80.8695124 ], [ 65.2426422, 80.8692008 ], [ 65.2422296, 80.8688985 ], [ 65.2418193, 80.8686052 ], [ 65.2413569, 80.8683301 ], [ 65.2409011, 80.8680818 ], [ 65.2405104, 80.8678691 ], [ 65.2401329, 80.86771 ], [ 65.239751, 80.867533 ], [ 65.2393538, 80.8672934 ], [ 65.2389458, 80.867009 ], [ 65.2386419, 80.8666881 ], [ 65.2382729, 80.8663318 ], [ 65.2380124, 80.8659568 ], [ 65.2377497, 80.8655729 ], [ 65.2375998, 80.8651883 ], [ 65.2374521, 80.8648127 ], [ 65.2372567, 80.8644732 ], [ 65.2370115, 80.8641609 ], [ 65.236775, 80.8638844 ], [ 65.2364951, 80.863662 ], [ 65.2362847, 80.863493 ], [ 65.2360332, 80.8633869 ], [ 65.235799, 80.8633525 ], [ 65.235567, 80.863327 ], [ 65.2353242, 80.8632568 ], [ 65.2350705, 80.8631418 ], [ 65.2348059, 80.862982 ], [ 65.2345912, 80.8627951 ], [ 65.2344264, 80.8625809 ], [ 65.234255, 80.8623399 ], [ 65.2340794, 80.862081 ], [ 65.2333572, 80.8609647 ], [ 65.232022, 80.8598791 ], [ 65.2302428, 80.8588231 ], [ 65.2279094, 80.8578063 ], [ 65.2250218, 80.8568288 ], [ 65.2216323, 80.8558722 ], [ 65.217691, 80.8549638 ], [ 65.2132481, 80.8540763 ], [ 65.2091154, 80.8533035 ], [ 65.2050874, 80.8524941 ], [ 65.2011122, 80.8516664 ], [ 65.1972503, 80.850838 ], [ 65.1936705, 80.8500078 ], [ 65.1902665, 80.8492035 ], [ 65.1872635, 80.8484236 ], [ 65.1846092, 80.8476865 ], [ 65.1832801, 80.8473089 ], [ 65.181949, 80.8469224 ], [ 65.1805618, 80.8465363 ], [ 65.1792914, 80.8461673 ], [ 65.1780274, 80.8458253 ], [ 65.1769408, 80.845518 ], [ 65.1759773, 80.8452548 ], [ 65.1752537, 80.8450529 ], [ 65.1746489, 80.8448772 ], [ 65.1740357, 80.8446657 ], [ 65.1734767, 80.8444449 ], [ 65.1729719, 80.8442148 ], [ 65.1725796, 80.8439841 ], [ 65.1722457, 80.8437619 ], [ 65.1720264, 80.8435481 ], [ 65.1718676, 80.8433518 ], [ 65.1718233, 80.8431638 ], [ 65.1716729, 80.8430033 ], [ 65.1714726, 80.84287 ], [ 65.1712203, 80.842755 ], [ 65.1709201, 80.8426761 ], [ 65.1706284, 80.842633 ], [ 65.1702867, 80.8426171 ], [ 65.1699534, 80.842637 ], [ 65.1696202, 80.842657 ], [ 65.1692827, 80.842659 ], [ 65.1689952, 80.8426338 ], [ 65.1687576, 80.8425814 ], [ 65.1685158, 80.8425111 ], [ 65.1683261, 80.8424226 ], [ 65.1682446, 80.8423155 ], [ 65.168161, 80.8421995 ], [ 65.1680107, 80.842039 ], [ 65.1677395, 80.8418434 ], [ 65.1672329, 80.8416043 ], [ 65.1666616, 80.8413298 ], [ 65.1659196, 80.8410473 ], [ 65.1651151, 80.8407383 ], [ 65.1641982, 80.84043 ], [ 65.1632251, 80.840122 ], [ 65.1621959, 80.8398144 ], [ 65.1611063, 80.8394891 ], [ 65.1600147, 80.8391549 ], [ 65.1589815, 80.8388293 ], [ 65.1579525, 80.8385217 ], [ 65.156984, 80.8382316 ], [ 65.1561926, 80.8379763 ], [ 65.1554679, 80.8377654 ], [ 65.1545121, 80.837529 ], [ 65.1529692, 80.8371885 ], [ 65.1507914, 80.83678 ], [ 65.1482058, 80.8363112 ], [ 65.1452125, 80.8357819 ], [ 65.1419324, 80.8352275 ], [ 65.1384237, 80.8346564 ], [ 65.1347448, 80.8340774 ], [ 65.1311828, 80.8335155 ], [ 65.1277919, 80.8329616 ], [ 65.1246323, 80.8324332 ], [ 65.1218787, 80.8319562 ], [ 65.1194747, 80.831531 ], [ 65.1176512, 80.831183 ], [ 65.1163518, 80.8309126 ], [ 65.1157511, 80.8307458 ], [ 65.1154998, 80.8306307 ], [ 65.1151964, 80.8305339 ], [ 65.1148368, 80.8304373 ], [ 65.1145355, 80.8303494 ], [ 65.1141841, 80.8302887 ], [ 65.113891, 80.8302367 ], [ 65.113602, 80.8302025 ], [ 65.113317, 80.8301862 ], [ 65.1129759, 80.8301702 ], [ 65.112404, 80.8301287 ], [ 65.1115972, 80.8300438 ], [ 65.110676, 80.8299505 ], [ 65.1095781, 80.8298224 ], [ 65.1084221, 80.8296857 ], [ 65.1072038, 80.8295224 ], [ 65.1058733, 80.8293598 ], [ 65.1034329, 80.8290153 ], [ 65.1012735, 80.8286692 ], [ 65.0993389, 80.8283218 ], [ 65.0977434, 80.8279813 ], [ 65.096489, 80.8276569 ], [ 65.0956359, 80.827366 ], [ 65.0951258, 80.8271 ], [ 65.0951292, 80.8268669 ], [ 65.0951712, 80.8268039 ], [ 65.095157, 80.8267412 ], [ 65.0950325, 80.8266881 ], [ 65.0948519, 80.8266354 ], [ 65.0946172, 80.8265919 ], [ 65.0943865, 80.8265663 ], [ 65.0940456, 80.8265504 ], [ 65.0937066, 80.8265434 ], [ 65.0933677, 80.8265364 ], [ 65.0930248, 80.8265114 ], [ 65.0927339, 80.8264683 ], [ 65.092439, 80.8264072 ], [ 65.0921982, 80.8263369 ], [ 65.0920115, 80.8262573 ], [ 65.0919351, 80.8261681 ], [ 65.0918587, 80.8260789 ], [ 65.0917763, 80.8259628 ], [ 65.0915795, 80.8258384 ], [ 65.0912664, 80.8256968 ], [ 65.0908951, 80.8255465 ], [ 65.0904116, 80.8253969 ], [ 65.0898699, 80.8252387 ], [ 65.0892741, 80.8250897 ], [ 65.0886804, 80.8249497 ], [ 65.0880887, 80.8248186 ], [ 65.087497, 80.8246875 ], [ 65.0870196, 80.8245648 ], [ 65.0865443, 80.8244509 ], [ 65.0861853, 80.8243544 ], [ 65.0859426, 80.8242751 ], [ 65.0858162, 80.8242131 ], [ 65.0857499, 80.8241686 ], [ 65.0857697, 80.8240072 ], [ 65.0853865, 80.8238032 ], [ 65.0847728, 80.8235736 ], [ 65.0839886, 80.8233361 ], [ 65.0830402, 80.8231174 ], [ 65.0820397, 80.8229169 ], [ 65.0810513, 80.8227702 ], [ 65.0801331, 80.8226858 ], [ 65.07962, 80.8226529 ], [ 65.0791589, 80.8226017 ], [ 65.0786958, 80.8225416 ], [ 65.0782889, 80.8224812 ], [ 65.0779922, 80.8224112 ], [ 65.0777496, 80.8223319 ], [ 65.0775631, 80.8222523 ], [ 65.0774909, 80.822181 ], [ 65.0769897, 80.8219507 ], [ 65.075795, 80.8216348 ], [ 65.0740291, 80.8212774 ], [ 65.0719788, 80.8209036 ], [ 65.0697644, 80.8205487 ], [ 65.0676763, 80.8202557 ], [ 65.0658348, 80.82006 ], [ 65.0645824, 80.8199865 ], [ 65.0640754, 80.8199804 ], [ 65.0635624, 80.8199474 ], [ 65.0629353, 80.8199062 ], [ 65.0623021, 80.819838 ], [ 65.0616109, 80.8197613 ], [ 65.0609176, 80.8196756 ], [ 65.0602224, 80.8195809 ], [ 65.0595813, 80.819477 ], [ 65.0589964, 80.8193727 ], [ 65.0584695, 80.8192771 ], [ 65.0580569, 80.8191898 ], [ 65.0577023, 80.8191111 ], [ 65.0574059, 80.8190411 ], [ 65.0572837, 80.8189969 ], [ 65.0572758, 80.8189611 ], [ 65.0573299, 80.8189518 ], [ 65.057316, 80.8188892 ], [ 65.0567712, 80.818713 ], [ 65.0557018, 80.8184501 ], [ 65.054396, 80.8181348 ], [ 65.052802, 80.8177852 ], [ 65.0511519, 80.8174359 ], [ 65.0495079, 80.8171135 ], [ 65.0480442, 80.8168439 ], [ 65.0470471, 80.8166523 ], [ 65.0457558, 80.8163996 ], [ 65.0442244, 80.8160765 ], [ 65.042511, 80.8156917 ], [ 65.0405615, 80.8152545 ], [ 65.0384303, 80.8147554 ], [ 65.0361211, 80.8142126 ], [ 65.0336323, 80.813617 ], [ 65.0327441, 80.8134068 ], [ 65.0319621, 80.8131691 ], [ 65.0311802, 80.8129315 ], [ 65.0304564, 80.8127025 ], [ 65.0298447, 80.8124728 ], [ 65.0293471, 80.8122515 ], [ 65.0289696, 80.8120653 ], [ 65.0287081, 80.8118965 ], [ 65.028082, 80.8113442 ], [ 65.02734, 80.8107746 ], [ 65.026486, 80.8102057 ], [ 65.0255799, 80.8096549 ], [ 65.0246277, 80.8091493 ], [ 65.0236313, 80.8086977 ], [ 65.0227646, 80.808326 ], [ 65.0219195, 80.8080528 ], [ 65.0180684, 80.8071151 ], [ 65.0127785, 80.806006 ], [ 65.0066321, 80.8048209 ], [ 65.0, 80.803634520437342 ], [ 65.0, 81.168860937900988 ], [ 65.0018159, 81.1683931 ] ] ] ] } }
]
}
