{
"type": "FeatureCollection",
"name": "70_-5",
"crs": { "type": "name", "properties": { "name": "urn:ogc:def:crs:OGC:1.3:CRS84" } },
"xy_coordinate_resolution": 1e-15,
"features": [
{ "type": "Feature", "properties": { "FID": 123031, "id": 1819, "left": 70.0, "top": 0.0, "right": 75.0, "bottom": -5.0, "row_index": 18, "col_index": 50, "min_lon": 70.0, "min_lat": -5.0, "tile_id": "70_-5" }, "geometry": { "type": "MultiPolygon", "coordinates": [ [ [ [ 73.1459217, -0.6857756 ], [ 73.1466258, -0.6862125 ], [ 73.1472874, -0.6866323 ], [ 73.1478526, -0.6870491 ], [ 73.1482955, -0.6872905 ], [ 73.1484899, -0.6873496 ], [ 73.1487168, -0.6873703 ], [ 73.1491537, -0.6876078 ], [ 73.1495057, -0.6876926 ], [ 73.1500359, -0.6878113 ], [ 73.1507064, -0.6881635 ], [ 73.1518894, -0.6885917 ], [ 73.1530515, -0.6889776 ], [ 73.1542476, -0.6893042 ], [ 73.1554359, -0.6894471 ], [ 73.1568221, -0.6897919 ], [ 73.1577047, -0.6899942 ], [ 73.1580988, -0.6900846 ], [ 73.1586977, -0.6901397 ], [ 73.1595281, -0.690216 ], [ 73.1607923, -0.6904019 ], [ 73.1614962, -0.6907801 ], [ 73.1620475, -0.6910176 ], [ 73.1624886, -0.6911703 ], [ 73.1633454, -0.6915732 ], [ 73.1644142, -0.6919634 ], [ 73.1651819, -0.6923196 ], [ 73.165905, -0.6927618 ], [ 73.1661342, -0.6929449 ], [ 73.1663361, -0.6931062 ], [ 73.1668577, -0.6935595 ], [ 73.1675537, -0.6939999 ], [ 73.1677209, -0.6942691 ], [ 73.1678647, -0.6944515 ], [ 73.1680075, -0.6947534 ], [ 73.1679829, -0.6949904 ], [ 73.1678691, -0.6951499 ], [ 73.1675297, -0.6958172 ], [ 73.1673558, -0.696351 ], [ 73.1672209, -0.6972108 ], [ 73.1668279, -0.6980064 ], [ 73.1662712, -0.6986917 ], [ 73.1658142, -0.699242 ], [ 73.1652444, -0.6996558 ], [ 73.1646746, -0.7000097 ], [ 73.1637688, -0.7005135 ], [ 73.1627983, -0.7006915 ], [ 73.1623172, -0.7006994 ], [ 73.1613155, -0.7008134 ], [ 73.1606917, -0.7007294 ], [ 73.1602419, -0.7007354 ], [ 73.1592281, -0.7007714 ], [ 73.1585923, -0.7007894 ], [ 73.1581814, -0.7007395 ], [ 73.1575666, -0.7006335 ], [ 73.1570148, -0.7005855 ], [ 73.156241, -0.7003456 ], [ 73.1556772, -0.7003456 ], [ 73.1549334, -0.7003036 ], [ 73.1544235, -0.7004595 ], [ 73.154531, -0.7009596 ], [ 73.1546004, -0.701088 ], [ 73.1546691, -0.7016021 ], [ 73.1546514, -0.7018077 ], [ 73.1546004, -0.7018827 ], [ 73.1546004, -0.7019667 ], [ 73.1546304, -0.7019727 ], [ 73.1549003, -0.7019007 ], [ 73.154966, -0.7020347 ], [ 73.1550473, -0.7024735 ], [ 73.1551373, -0.7026804 ], [ 73.155164, -0.7028904 ], [ 73.1552182, -0.7030912 ], [ 73.1552153, -0.7033012 ], [ 73.1556031, -0.7034568 ], [ 73.1557732, -0.7036743 ], [ 73.1551017, -0.7034088 ], [ 73.1548091, -0.7033961 ], [ 73.154654, -0.703199 ], [ 73.1545957, -0.7032634 ], [ 73.1545456, -0.7034125 ], [ 73.1544453, -0.7034659 ], [ 73.1543777, -0.7034276 ], [ 73.1543391, -0.7032879 ], [ 73.1541959, -0.7031564 ], [ 73.1539414, -0.7030037 ], [ 73.1538014, -0.7027407 ], [ 73.1538862, -0.7026093 ], [ 73.1538316, -0.7023796 ], [ 73.1537904, -0.7021598 ], [ 73.1537411, -0.7014244 ], [ 73.1536411, -0.7010874 ], [ 73.1525993, -0.7008217 ], [ 73.1515305, -0.7003637 ], [ 73.1503768, -0.6998463 ], [ 73.1490684, -0.6993309 ], [ 73.1488244, -0.698769 ], [ 73.1471949, -0.6968708 ], [ 73.1461778, -0.6957155 ], [ 73.1457741, -0.6950618 ], [ 73.1456495, -0.6947431 ], [ 73.1456383, -0.6947347 ], [ 73.1453681, -0.6945315 ], [ 73.1443422, -0.6940235 ], [ 73.1430603, -0.6934666 ], [ 73.1416122, -0.6929049 ], [ 73.1410178, -0.6927635 ], [ 73.139586, -0.692449 ], [ 73.1395701, -0.6924482 ], [ 73.1386745, -0.6924035 ], [ 73.1381147, -0.6921995 ], [ 73.1378891, -0.6921371 ], [ 73.1375641, -0.6920747 ], [ 73.1364721, -0.691953 ], [ 73.13581, -0.6918733 ], [ 73.135696, -0.6918629 ], [ 73.1355178, -0.6918543 ], [ 73.135341, -0.6918262 ], [ 73.135383, -0.6909287 ], [ 73.1357036, -0.6891285 ], [ 73.1358723, -0.688583 ], [ 73.1359708, -0.6884642 ], [ 73.1361785, -0.6884324 ], [ 73.1364295, -0.6885446 ], [ 73.1372791, -0.6888069 ], [ 73.1395858, -0.689118 ], [ 73.1406543, -0.6892928 ], [ 73.1417074, -0.6893063 ], [ 73.1423593, -0.6892306 ], [ 73.1429677, -0.6891049 ], [ 73.1436395, -0.6888477 ], [ 73.1440667, -0.6886398 ], [ 73.1442324, -0.6885659 ], [ 73.144277, -0.6885449 ], [ 73.1442846, -0.6882018 ], [ 73.1442876, -0.6878179 ], [ 73.1443536, -0.6875 ], [ 73.1444651, -0.6870498 ], [ 73.1447341, -0.6861573 ], [ 73.1446111, -0.6860343 ], [ 73.1447341, -0.6856229 ], [ 73.144908, -0.6855508 ], [ 73.1448953, -0.6853388 ], [ 73.1450819, -0.6853897 ], [ 73.1453355, -0.6855223 ], [ 73.1459217, -0.6857756 ] ] ] ] } },
{ "type": "Feature", "properties": { "FID": 123032, "id": 1819, "left": 70.0, "top": 0.0, "right": 75.0, "bottom": -5.0, "row_index": 18, "col_index": 50, "min_lon": 70.0, "min_lat": -5.0, "tile_id": "70_-5" }, "geometry": { "type": "MultiPolygon", "coordinates": [ [ [ [ 73.1310476, -0.6767455 ], [ 73.131452, -0.6769525 ], [ 73.135448, -0.6789801 ], [ 73.1350463, -0.6797563 ], [ 73.1377084, -0.6811794 ], [ 73.1379828, -0.6813261 ], [ 73.1382474, -0.680842 ], [ 73.1382982, -0.6808619 ], [ 73.1383701, -0.6807156 ], [ 73.1389575, -0.6810157 ], [ 73.1394093, -0.6813577 ], [ 73.1407527, -0.6822077 ], [ 73.1419454, -0.6831349 ], [ 73.142193, -0.6833939 ], [ 73.1423542, -0.6838693 ], [ 73.1424275, -0.6844918 ], [ 73.1423194, -0.6847647 ], [ 73.1422789, -0.684982 ], [ 73.1421407, -0.6853404 ], [ 73.1421166, -0.6854854 ], [ 73.1417831, -0.6854862 ], [ 73.1413596, -0.6860232 ], [ 73.1407174, -0.6864288 ], [ 73.1398303, -0.6867177 ], [ 73.1389092, -0.6869059 ], [ 73.137264, -0.6868869 ], [ 73.1365337, -0.68697 ], [ 73.1357059, -0.6871958 ], [ 73.1345431, -0.6876649 ], [ 73.1337226, -0.6879672 ], [ 73.1325441, -0.6878815 ], [ 73.131777, -0.6875734 ], [ 73.1312742, -0.6873851 ], [ 73.1309828, -0.687397 ], [ 73.1308418, -0.6875897 ], [ 73.1307004, -0.6873365 ], [ 73.1302879, -0.6869021 ], [ 73.1297892, -0.6864979 ], [ 73.1292735, -0.6860678 ], [ 73.128537, -0.6856159 ], [ 73.1284202, -0.6851218 ], [ 73.1282942, -0.6843451 ], [ 73.1283412, -0.6838716 ], [ 73.1287739, -0.6829977 ], [ 73.1291611, -0.6817128 ], [ 73.129525, -0.6799628 ], [ 73.1296595, -0.6798466 ], [ 73.1300866, -0.6768853 ], [ 73.1298837, -0.6767991 ], [ 73.1299738, -0.6765406 ], [ 73.1306785, -0.6765841 ], [ 73.1310476, -0.6767455 ] ] ] ] } },
{ "type": "Feature", "properties": { "FID": 123033, "id": 1819, "left": 70.0, "top": 0.0, "right": 75.0, "bottom": -5.0, "row_index": 18, "col_index": 50, "min_lon": 70.0, "min_lat": -5.0, "tile_id": "70_-5" }, "geometry": { "type": "MultiPolygon", "coordinates": [ [ [ [ 73.1127485, -0.6628276 ], [ 73.1126544, -0.6621938 ], [ 73.1126254, -0.6618673 ], [ 73.1126581, -0.6613959 ], [ 73.1125292, -0.6612198 ], [ 73.1123534, -0.6611399 ], [ 73.1119008, -0.6606193 ], [ 73.1118612, -0.6605738 ], [ 73.1118446, -0.6605016 ], [ 73.1118726, -0.6604587 ], [ 73.1118919, -0.6604473 ], [ 73.1120428, -0.6603576 ], [ 73.1121363, -0.6602886 ], [ 73.1122605, -0.6602445 ], [ 73.112428, -0.660417 ], [ 73.1124998, -0.6604712 ], [ 73.1125607, -0.6604977 ], [ 73.1125838, -0.6605078 ], [ 73.112752, -0.660508 ], [ 73.1130563, -0.6603398 ], [ 73.1132247, -0.6600588 ], [ 73.1135407, -0.6595988 ], [ 73.1138516, -0.659238 ], [ 73.1139195, -0.6591078 ], [ 73.1140185, -0.6590427 ], [ 73.1141713, -0.6587967 ], [ 73.1142165, -0.6585365 ], [ 73.1142909, -0.6584754 ], [ 73.1143688, -0.6584114 ], [ 73.1144253, -0.6583649 ], [ 73.1145822, -0.6584532 ], [ 73.1146096, -0.6584686 ], [ 73.1147415, -0.6587045 ], [ 73.1147567, -0.6587316 ], [ 73.114785, -0.6589296 ], [ 73.1148444, -0.6589833 ], [ 73.114901, -0.6589126 ], [ 73.1148387, -0.6586044 ], [ 73.1148981, -0.6584319 ], [ 73.1150961, -0.6580529 ], [ 73.1152149, -0.6577927 ], [ 73.1154214, -0.6576683 ], [ 73.115724, -0.6577955 ], [ 73.1160068, -0.6581519 ], [ 73.1160012, -0.6583046 ], [ 73.1159107, -0.6583498 ], [ 73.1155826, -0.6578917 ], [ 73.1154525, -0.6578917 ], [ 73.1150028, -0.6586129 ], [ 73.1153337, -0.6591021 ], [ 73.1151894, -0.6594358 ], [ 73.1152173, -0.6595414 ], [ 73.1154666, -0.6597413 ], [ 73.1155994, -0.6599651 ], [ 73.1156109, -0.6599845 ], [ 73.1158145, -0.6602051 ], [ 73.1160341, -0.6603005 ], [ 73.1161624, -0.6604766 ], [ 73.1162274, -0.6606463 ], [ 73.1163537, -0.6608698 ], [ 73.1166375, -0.6609856 ], [ 73.1178413, -0.6621228 ], [ 73.1183734, -0.6619883 ], [ 73.1193522, -0.6619385 ], [ 73.119458, -0.6620583 ], [ 73.1196481, -0.6618888 ], [ 73.1196223, -0.6618558 ], [ 73.1196123, -0.6618053 ], [ 73.1196173, -0.6617716 ], [ 73.1196366, -0.661738 ], [ 73.1196616, -0.6617029 ], [ 73.1196962, -0.6616726 ], [ 73.1197371, -0.6616517 ], [ 73.1197764, -0.6616434 ], [ 73.1198266, -0.6616455 ], [ 73.1198777, -0.6616571 ], [ 73.1199179, -0.6616761 ], [ 73.1199495, -0.661711 ], [ 73.1199805, -0.6617513 ], [ 73.1200004, -0.6617901 ], [ 73.120007, -0.6618409 ], [ 73.1199986, -0.6619008 ], [ 73.1207962, -0.6627662 ], [ 73.1214291, -0.6634857 ], [ 73.1214389, -0.6635279 ], [ 73.1214368, -0.6635646 ], [ 73.1214151, -0.6636115 ], [ 73.1213863, -0.6636425 ], [ 73.1213601, -0.6636637 ], [ 73.1213323, -0.6636748 ], [ 73.1213129, -0.6636815 ], [ 73.1212877, -0.6636901 ], [ 73.1209408, -0.6633162 ], [ 73.1204841, -0.662818 ], [ 73.1201717, -0.6624621 ], [ 73.1199332, -0.6622017 ], [ 73.1198776, -0.662132 ], [ 73.119698, -0.6619417 ], [ 73.1195114, -0.6621142 ], [ 73.1195545, -0.662156 ], [ 73.1187029, -0.6629338 ], [ 73.1187348, -0.6629651 ], [ 73.1187174, -0.6629835 ], [ 73.1196136, -0.6640444 ], [ 73.1208098, -0.6650114 ], [ 73.1208089, -0.6650085 ], [ 73.121241, -0.664561 ], [ 73.1212782, -0.664588 ], [ 73.1213674, -0.6644886 ], [ 73.1214938, -0.6646224 ], [ 73.1215114, -0.664641 ], [ 73.1215884, -0.6647985 ], [ 73.1215913, -0.6649632 ], [ 73.1215928, -0.6650492 ], [ 73.1215752, -0.6650839 ], [ 73.1215138, -0.6652046 ], [ 73.1214988, -0.6652341 ], [ 73.1214142, -0.6653588 ], [ 73.1214259, -0.6653647 ], [ 73.1215494, -0.6654267 ], [ 73.1218669, -0.6657242 ], [ 73.1226365, -0.6671187 ], [ 73.1228452, -0.6674968 ], [ 73.1233175, -0.6681122 ], [ 73.1239232, -0.6689015 ], [ 73.1241528, -0.669198 ], [ 73.1245059, -0.6696538 ], [ 73.1246356, -0.6698404 ], [ 73.1247764, -0.6700087 ], [ 73.1249682, -0.6702379 ], [ 73.1250122, -0.6703165 ], [ 73.1251937, -0.6704403 ], [ 73.1254813, -0.670184 ], [ 73.1253532, -0.6699683 ], [ 73.1253605, -0.6698206 ], [ 73.125801, -0.6702854 ], [ 73.1265363, -0.6701329 ], [ 73.1266303, -0.6702137 ], [ 73.1267026, -0.6702795 ], [ 73.1267996, -0.6702972 ], [ 73.1270254, -0.6705898 ], [ 73.1270307, -0.6706503 ], [ 73.1270074, -0.6706839 ], [ 73.126969, -0.6707143 ], [ 73.126919, -0.6707151 ], [ 73.1266595, -0.6704014 ], [ 73.1265596, -0.6703351 ], [ 73.1259713, -0.6704367 ], [ 73.1258923, -0.6709792 ], [ 73.1268308, -0.6720674 ], [ 73.1272692, -0.6720781 ], [ 73.1273527, -0.672065 ], [ 73.1275486, -0.671522 ], [ 73.1275294, -0.6714385 ], [ 73.1272393, -0.6710793 ], [ 73.1272359, -0.6710283 ], [ 73.1272547, -0.6709843 ], [ 73.1273047, -0.670958 ], [ 73.1273628, -0.6709635 ], [ 73.1276622, -0.6713533 ], [ 73.1276588, -0.67139 ], [ 73.1276472, -0.6714762 ], [ 73.1277031, -0.6714977 ], [ 73.1277318, -0.671545 ], [ 73.1277435, -0.6716024 ], [ 73.1274917, -0.6722857 ], [ 73.1278672, -0.6727386 ], [ 73.127888, -0.6728671 ], [ 73.127818, -0.6729316 ], [ 73.1276476, -0.6728782 ], [ 73.1272866, -0.6724572 ], [ 73.1271017, -0.672274 ], [ 73.1269043, -0.6722725 ], [ 73.1268948, -0.6724316 ], [ 73.1274433, -0.6731046 ], [ 73.1283551, -0.6738449 ], [ 73.1288331, -0.674289 ], [ 73.1291906, -0.6748292 ], [ 73.1293426, -0.6754755 ], [ 73.1293791, -0.6756779 ], [ 73.129492, -0.6760419 ], [ 73.129676, -0.6763394 ], [ 73.1298943, -0.6765056 ], [ 73.1297833, -0.6767826 ], [ 73.1293574, -0.6766464 ], [ 73.1290513, -0.6771177 ], [ 73.1288194, -0.6773659 ], [ 73.128604, -0.677416 ], [ 73.128252, -0.6775571 ], [ 73.1279019, -0.677674 ], [ 73.1274905, -0.6777047 ], [ 73.1272873, -0.6776414 ], [ 73.1270114, -0.6775554 ], [ 73.1266422, -0.6773986 ], [ 73.1264344, -0.6773103 ], [ 73.1258761, -0.6770089 ], [ 73.1252381, -0.6765479 ], [ 73.1248723, -0.6762558 ], [ 73.1247075, -0.6761506 ], [ 73.1244168, -0.6760239 ], [ 73.1241027, -0.6759055 ], [ 73.1237932, -0.6758434 ], [ 73.1235004, -0.6758761 ], [ 73.1227998, -0.6757193 ], [ 73.1221789, -0.675658 ], [ 73.1217206, -0.6757489 ], [ 73.1215061, -0.675928 ], [ 73.121218, -0.675911 ], [ 73.1208247, -0.675689 ], [ 73.1205928, -0.6755581 ], [ 73.1192933, -0.6745091 ], [ 73.1192759, -0.6744932 ], [ 73.1182472, -0.673554 ], [ 73.1178345, -0.6731175 ], [ 73.1172747, -0.6725254 ], [ 73.1166773, -0.6718275 ], [ 73.1165362, -0.6716406 ], [ 73.1161601, -0.6711425 ], [ 73.1158017, -0.6706425 ], [ 73.1155136, -0.670216 ], [ 73.1153458, -0.6699677 ], [ 73.1146907, -0.6688306 ], [ 73.1145964, -0.6686669 ], [ 73.1141212, -0.6676569 ], [ 73.1140533, -0.6675127 ], [ 73.1136097, -0.6663732 ], [ 73.1135501, -0.6662201 ], [ 73.1132557, -0.6652298 ], [ 73.113195, -0.6650115 ], [ 73.1130312, -0.6644219 ], [ 73.1129113, -0.6638113 ], [ 73.1128427, -0.6634622 ], [ 73.1127485, -0.6628276 ] ] ] ] } },
{ "type": "Feature", "properties": { "FID": 123034, "id": 1819, "left": 70.0, "top": 0.0, "right": 75.0, "bottom": -5.0, "row_index": 18, "col_index": 50, "min_lon": 70.0, "min_lat": -5.0, "tile_id": "70_-5" }, "geometry": { "type": "MultiPolygon", "coordinates": [ [ [ [ 73.0899931, -0.5782309 ], [ 73.0899931, -0.5785785 ], [ 73.0901347, -0.578733 ], [ 73.0901926, -0.5789067 ], [ 73.0902232, -0.5792384 ], [ 73.0901685, -0.5795538 ], [ 73.0899002, -0.5794665 ], [ 73.0896786, -0.5795408 ], [ 73.0896197, -0.5791191 ], [ 73.0893123, -0.5792527 ], [ 73.0891882, -0.5793302 ], [ 73.0891176, -0.5794238 ], [ 73.0889792, -0.5796528 ], [ 73.088953, -0.5798049 ], [ 73.0889696, -0.5799623 ], [ 73.0886542, -0.5804128 ], [ 73.0884804, -0.5812624 ], [ 73.0885126, -0.5821249 ], [ 73.0879977, -0.5825111 ], [ 73.0875646, -0.5829661 ], [ 73.087485, -0.5838623 ], [ 73.0874142, -0.5843707 ], [ 73.0875024, -0.5848929 ], [ 73.0882252, -0.5866106 ], [ 73.0885277, -0.587177 ], [ 73.0889203, -0.5876919 ], [ 73.0891676, -0.5882496 ], [ 73.0889911, -0.5886959 ], [ 73.0887401, -0.588992 ], [ 73.0889139, -0.5907556 ], [ 73.089004, -0.5915794 ], [ 73.0891778, -0.592384 ], [ 73.0890748, -0.5928409 ], [ 73.0888412, -0.593254 ], [ 73.0886049, -0.593285 ], [ 73.0885599, -0.5928409 ], [ 73.0884467, -0.5924075 ], [ 73.0883604, -0.5920686 ], [ 73.0884376, -0.5917789 ], [ 73.0883437, -0.5914678 ], [ 73.0880836, -0.5913348 ], [ 73.0878325, -0.5913284 ], [ 73.0875236, -0.5909937 ], [ 73.0876008, -0.5907041 ], [ 73.0881415, -0.5907298 ], [ 73.0881737, -0.5903758 ], [ 73.0879613, -0.5900604 ], [ 73.0876008, -0.5900991 ], [ 73.0873562, -0.5903243 ], [ 73.0871207, -0.5902706 ], [ 73.0870408, -0.5899382 ], [ 73.0871824, -0.5892108 ], [ 73.0871696, -0.5881489 ], [ 73.0870151, -0.5880523 ], [ 73.0865967, -0.58793 ], [ 73.086213, -0.5875565 ], [ 73.0858694, -0.587222 ], [ 73.0852579, -0.5865784 ], [ 73.0845778, -0.5860838 ], [ 73.0836487, -0.586115 ], [ 73.0830822, -0.5864356 ], [ 73.0826124, -0.5867329 ], [ 73.0824837, -0.5869517 ], [ 73.0825545, -0.5872413 ], [ 73.0829149, -0.5874473 ], [ 73.0834749, -0.5876533 ], [ 73.0836014, -0.5878475 ], [ 73.0835393, -0.5882969 ], [ 73.0832303, -0.5884964 ], [ 73.0829857, -0.5889727 ], [ 73.0829214, -0.5891915 ], [ 73.083063, -0.5894039 ], [ 73.0825159, -0.5898802 ], [ 73.0820009, -0.589951 ], [ 73.0815761, -0.5902085 ], [ 73.0814152, -0.590659 ], [ 73.0816262, -0.5909125 ], [ 73.0816984, -0.5915215 ], [ 73.0815697, -0.5919012 ], [ 73.0818078, -0.5923904 ], [ 73.081955, -0.5924326 ], [ 73.0824579, -0.592577 ], [ 73.0828763, -0.5924869 ], [ 73.0831402, -0.5920943 ], [ 73.0835071, -0.5919463 ], [ 73.0836358, -0.5921394 ], [ 73.08352, -0.5925577 ], [ 73.083593, -0.5926457 ], [ 73.0837351, -0.5926834 ], [ 73.0838975, -0.5928284 ], [ 73.0839829, -0.5930258 ], [ 73.083982, -0.5935314 ], [ 73.0841475, -0.5935127 ], [ 73.0841657, -0.5933523 ], [ 73.0843435, -0.5931572 ], [ 73.0846558, -0.5931466 ], [ 73.0846703, -0.5932925 ], [ 73.0844722, -0.593296 ], [ 73.0843756, -0.5933819 ], [ 73.0843331, -0.5937487 ], [ 73.0843133, -0.5940376 ], [ 73.0843029, -0.5943758 ], [ 73.0844155, -0.5948115 ], [ 73.0845456, -0.5950915 ], [ 73.0846827, -0.5957405 ], [ 73.0854767, -0.5974043 ], [ 73.0857599, -0.5973142 ], [ 73.0861655, -0.5981959 ], [ 73.0867898, -0.5994703 ], [ 73.0871824, -0.6005452 ], [ 73.0875151, -0.6009883 ], [ 73.0877424, -0.6011309 ], [ 73.0896734, -0.6013883 ], [ 73.0919671, -0.6016121 ], [ 73.0942566, -0.6049304 ], [ 73.0945074, -0.6052952 ], [ 73.0951333, -0.6062046 ], [ 73.0951126, -0.6062704 ], [ 73.0955035, -0.6070612 ], [ 73.0955482, -0.6071899 ], [ 73.0956168, -0.6073712 ], [ 73.0955737, -0.6074005 ], [ 73.0954427, -0.6073045 ], [ 73.0951722, -0.6071185 ], [ 73.0948509, -0.6066061 ], [ 73.0943915, -0.605934 ], [ 73.094242, -0.6058483 ], [ 73.0942132, -0.6057035 ], [ 73.0938874, -0.6052022 ], [ 73.0936905, -0.6052747 ], [ 73.0936131, -0.6055108 ], [ 73.0929901, -0.6059397 ], [ 73.0929097, -0.6059892 ], [ 73.0931462, -0.60621 ], [ 73.0931343, -0.6068135 ], [ 73.0935167, -0.6073491 ], [ 73.0947749, -0.6090717 ], [ 73.094926, -0.6090123 ], [ 73.0950583, -0.6090068 ], [ 73.0952087, -0.6091063 ], [ 73.0953163, -0.6092356 ], [ 73.0954207, -0.6094586 ], [ 73.095761, -0.6099983 ], [ 73.0960767, -0.6103509 ], [ 73.0963772, -0.6107661 ], [ 73.0966573, -0.6111923 ], [ 73.0968715, -0.6114509 ], [ 73.097187, -0.6116187 ], [ 73.0976115, -0.6117275 ], [ 73.0980222, -0.6117506 ], [ 73.0984523, -0.6117063 ], [ 73.0987322, -0.6116449 ], [ 73.0989326, -0.6115711 ], [ 73.0989472, -0.6115172 ], [ 73.0986535, -0.6109683 ], [ 73.0986599, -0.6109388 ], [ 73.0986885, -0.6109163 ], [ 73.0987239, -0.6109212 ], [ 73.0991344, -0.6116644 ], [ 73.0992556, -0.6118763 ], [ 73.0995673, -0.612405 ], [ 73.1000781, -0.6133629 ], [ 73.1006418, -0.6145007 ], [ 73.1011304, -0.6158447 ], [ 73.1014998, -0.6170015 ], [ 73.1018099, -0.6182537 ], [ 73.1019922, -0.6194209 ], [ 73.1021645, -0.6209185 ], [ 73.1021954, -0.622174 ], [ 73.1021898, -0.6233736 ], [ 73.1020564, -0.6246473 ], [ 73.1022309, -0.6249873 ], [ 73.1023374, -0.6258963 ], [ 73.1025296, -0.6272064 ], [ 73.1028155, -0.6292868 ], [ 73.1031121, -0.6305244 ], [ 73.1032485, -0.6307067 ], [ 73.1034427, -0.6308782 ], [ 73.1033127, -0.6312488 ], [ 73.1032369, -0.6317009 ], [ 73.1031848, -0.6324696 ], [ 73.1032338, -0.6332106 ], [ 73.1033842, -0.6340863 ], [ 73.1037661, -0.6352144 ], [ 73.1040757, -0.6356838 ], [ 73.1047027, -0.6365508 ], [ 73.1050989, -0.6373448 ], [ 73.1057004, -0.6387641 ], [ 73.1062972, -0.6406334 ], [ 73.1067043, -0.6421666 ], [ 73.1070273, -0.6436402 ], [ 73.1073612, -0.6456377 ], [ 73.1080056, -0.6481826 ], [ 73.1085073, -0.6494688 ], [ 73.1091631, -0.6505922 ], [ 73.1096865, -0.6514889 ], [ 73.1099376, -0.6519188 ], [ 73.110001, -0.6520086 ], [ 73.1101057, -0.652044 ], [ 73.1101676, -0.6520373 ], [ 73.1102218, -0.6520463 ], [ 73.1102709, -0.6520941 ], [ 73.1102551, -0.6521747 ], [ 73.1099532, -0.6523738 ], [ 73.1095744, -0.652601 ], [ 73.1093978, -0.6527129 ], [ 73.1094715, -0.6528749 ], [ 73.1093967, -0.6530873 ], [ 73.1091456, -0.6531611 ], [ 73.1089665, -0.6530576 ], [ 73.1089423, -0.6530436 ], [ 73.1088068, -0.6528001 ], [ 73.1087351, -0.6526845 ], [ 73.108609, -0.652532 ], [ 73.108429, -0.6523338 ], [ 73.1083431, -0.6522392 ], [ 73.1081503, -0.6519597 ], [ 73.1078816, -0.6516907 ], [ 73.1075478, -0.6512218 ], [ 73.1073398, -0.6510247 ], [ 73.1071265, -0.6508857 ], [ 73.1067744, -0.6503136 ], [ 73.1064388, -0.6496328 ], [ 73.1057728, -0.6479233 ], [ 73.1053395, -0.6469043 ], [ 73.1048629, -0.6459268 ], [ 73.1043765, -0.645027 ], [ 73.1041256, -0.6437904 ], [ 73.1039096, -0.6428482 ], [ 73.1035351, -0.6420457 ], [ 73.1029252, -0.6409995 ], [ 73.1025648, -0.6398532 ], [ 73.1024417, -0.6393226 ], [ 73.1022847, -0.6387695 ], [ 73.1017978, -0.6384128 ], [ 73.1014775, -0.6382181 ], [ 73.1011093, -0.6374289 ], [ 73.1009749, -0.6371271 ], [ 73.100718, -0.636523 ], [ 73.100728, -0.6355149 ], [ 73.100584, -0.6352621 ], [ 73.1001141, -0.6342609 ], [ 73.0995264, -0.6328086 ], [ 73.0989901, -0.6314585 ], [ 73.0985538, -0.6308767 ], [ 73.0980713, -0.6304097 ], [ 73.0971477, -0.6294862 ], [ 73.0970469, -0.6292125 ], [ 73.0961904, -0.6284333 ], [ 73.0953267, -0.6277656 ], [ 73.0946168, -0.6269962 ], [ 73.0940084, -0.6261303 ], [ 73.0932142, -0.6244415 ], [ 73.0921944, -0.6228024 ], [ 73.0911323, -0.6212062 ], [ 73.0899609, -0.6196357 ], [ 73.0890268, -0.6178767 ], [ 73.0878561, -0.6152397 ], [ 73.0866202, -0.6127038 ], [ 73.0859508, -0.6113715 ], [ 73.0854037, -0.6099877 ], [ 73.0841774, -0.6076494 ], [ 73.0831638, -0.6051412 ], [ 73.0819923, -0.6026761 ], [ 73.0813872, -0.6013695 ], [ 73.0807114, -0.6003204 ], [ 73.0795675, -0.5977926 ], [ 73.0792503, -0.5968062 ], [ 73.0789735, -0.5957828 ], [ 73.0785036, -0.5947852 ], [ 73.0779565, -0.5938969 ], [ 73.0769138, -0.592275 ], [ 73.0764439, -0.5912452 ], [ 73.0758896, -0.590448 ], [ 73.0759405, -0.5901761 ], [ 73.0759933, -0.5898936 ], [ 73.0760126, -0.5887801 ], [ 73.0758324, -0.5879369 ], [ 73.0759225, -0.5870809 ], [ 73.0760448, -0.5854718 ], [ 73.0760899, -0.5844484 ], [ 73.076353, -0.5838265 ], [ 73.0770811, -0.5832384 ], [ 73.0779629, -0.5827943 ], [ 73.0800825, -0.5821251 ], [ 73.0815375, -0.5814521 ], [ 73.0816833, -0.5813847 ], [ 73.083138, -0.5804257 ], [ 73.084567, -0.5795375 ], [ 73.0864207, -0.5789647 ], [ 73.0881779, -0.5785914 ], [ 73.0891949, -0.5785206 ], [ 73.089639, -0.5784755 ], [ 73.0897678, -0.5782631 ], [ 73.0898883, -0.5781599 ], [ 73.0899931, -0.5782309 ] ] ] ] } },
{ "type": "Feature", "properties": { "FID": 123035, "id": 1819, "left": 70.0, "top": 0.0, "right": 75.0, "bottom": -5.0, "row_index": 18, "col_index": 50, "min_lon": 70.0, "min_lat": -5.0, "tile_id": "70_-5" }, "geometry": { "type": "MultiPolygon", "coordinates": [ [ [ [ 73.1913617, -0.6715521 ], [ 73.1914749, -0.6715692 ], [ 73.1918286, -0.6718069 ], [ 73.19205, -0.6719131 ], [ 73.1922425, -0.6718891 ], [ 73.1923582, -0.6719087 ], [ 73.192458, -0.6719439 ], [ 73.1926719, -0.6719503 ], [ 73.1928748, -0.6720246 ], [ 73.1930054, -0.672032 ], [ 73.1931419, -0.6720877 ], [ 73.1934973, -0.6722692 ], [ 73.1940945, -0.6725763 ], [ 73.1942223, -0.6726419 ], [ 73.1943527, -0.6725529 ], [ 73.1944169, -0.6725652 ], [ 73.1944654, -0.6725956 ], [ 73.1945846, -0.6726703 ], [ 73.1947344, -0.6727711 ], [ 73.1948517, -0.6727965 ], [ 73.194972, -0.6727789 ], [ 73.1951234, -0.6727843 ], [ 73.1953139, -0.6728949 ], [ 73.1955225, -0.6730426 ], [ 73.1957146, -0.67298 ], [ 73.1958894, -0.6729442 ], [ 73.1961138, -0.6729491 ], [ 73.1962834, -0.6729958 ], [ 73.1964616, -0.6730812 ], [ 73.1968067, -0.6734094 ], [ 73.1970061, -0.6735596 ], [ 73.1971294, -0.6737533 ], [ 73.1972311, -0.6738416 ], [ 73.1973577, -0.6741141 ], [ 73.1973715, -0.6741437 ], [ 73.1974964, -0.6744983 ], [ 73.1975197, -0.674669 ], [ 73.1974742, -0.6749376 ], [ 73.1974649, -0.6751866 ], [ 73.1974552, -0.6754747 ], [ 73.1973774, -0.6759164 ], [ 73.197279, -0.6762774 ], [ 73.1972062, -0.6766278 ], [ 73.1971394, -0.6769105 ], [ 73.1970426, -0.6772406 ], [ 73.1969721, -0.6773838 ], [ 73.1969305, -0.677529 ], [ 73.1969285, -0.6776619 ], [ 73.1968724, -0.6778507 ], [ 73.1968457, -0.6780584 ], [ 73.1967728, -0.678135 ], [ 73.1967022, -0.6783011 ], [ 73.1965943, -0.678355 ], [ 73.1965985, -0.6785294 ], [ 73.1964822, -0.6786933 ], [ 73.1964532, -0.6787846 ], [ 73.1964677, -0.6788697 ], [ 73.1964117, -0.6789527 ], [ 73.1963183, -0.6789091 ], [ 73.1962353, -0.6790067 ], [ 73.1962124, -0.679154 ], [ 73.1962058, -0.6792951 ], [ 73.1961062, -0.679372 ], [ 73.1958928, -0.6795878 ], [ 73.1956022, -0.6798389 ], [ 73.1951145, -0.6803058 ], [ 73.1946288, -0.6807998 ], [ 73.1943839, -0.681055 ], [ 73.194126, -0.6812553 ], [ 73.1938443, -0.681659 ], [ 73.1936845, -0.6818333 ], [ 73.193562, -0.6821052 ], [ 73.1932694, -0.6824808 ], [ 73.193093, -0.6827215 ], [ 73.1930432, -0.6828813 ], [ 73.1930702, -0.6829872 ], [ 73.1929207, -0.6829996 ], [ 73.1928211, -0.6830536 ], [ 73.1924101, -0.683645 ], [ 73.1918617, -0.6844314 ], [ 73.1914886, -0.6848944 ], [ 73.1910839, -0.6853551 ], [ 73.1906211, -0.685874 ], [ 73.190286, -0.6862671 ], [ 73.1900865, -0.6864213 ], [ 73.1899221, -0.6866003 ], [ 73.1896667, -0.6869525 ], [ 73.1895934, -0.6870259 ], [ 73.1894525, -0.6871961 ], [ 73.1893116, -0.687472 ], [ 73.1893704, -0.6876352 ], [ 73.1892354, -0.6878113 ], [ 73.1890094, -0.6878583 ], [ 73.1888449, -0.6879621 ], [ 73.1887397, -0.6880979 ], [ 73.1886541, -0.6880971 ], [ 73.1884839, -0.688285 ], [ 73.1883431, -0.6884394 ], [ 73.1882344, -0.6886078 ], [ 73.1882432, -0.6886695 ], [ 73.1880966, -0.6888562 ], [ 73.1880113, -0.6889307 ], [ 73.187888, -0.6889219 ], [ 73.1876856, -0.6890998 ], [ 73.1876649, -0.6891948 ], [ 73.1875417, -0.6893738 ], [ 73.187398, -0.6895195 ], [ 73.187301, -0.6896116 ], [ 73.1871103, -0.6896251 ], [ 73.1867873, -0.689955 ], [ 73.1865202, -0.6901839 ], [ 73.1863235, -0.6902643 ], [ 73.186221, -0.6901916 ], [ 73.1862316, -0.6900456 ], [ 73.1860243, -0.6898247 ], [ 73.1860007, -0.6896996 ], [ 73.1859403, -0.6895492 ], [ 73.1859568, -0.6893756 ], [ 73.1861856, -0.6892506 ], [ 73.1864294, -0.6891761 ], [ 73.1868018, -0.688869 ], [ 73.1870544, -0.688599 ], [ 73.1872088, -0.6883654 ], [ 73.1872922, -0.6881177 ], [ 73.187298, -0.6879944 ], [ 73.1872687, -0.6878976 ], [ 73.1872653, -0.687791 ], [ 73.1873714, -0.6876628 ], [ 73.1878528, -0.6873311 ], [ 73.1881434, -0.6870816 ], [ 73.1884209, -0.6868552 ], [ 73.1887392, -0.686433 ], [ 73.1887275, -0.6862863 ], [ 73.1890501, -0.6859566 ], [ 73.1896551, -0.6853489 ], [ 73.1897151, -0.6852716 ], [ 73.1898134, -0.6852276 ], [ 73.1899147, -0.6851293 ], [ 73.1901306, -0.6848602 ], [ 73.1902669, -0.6846362 ], [ 73.1902743, -0.6844748 ], [ 73.1903596, -0.6843965 ], [ 73.1904254, -0.6843442 ], [ 73.190521, -0.6843075 ], [ 73.1906412, -0.6843911 ], [ 73.1907087, -0.6844836 ], [ 73.1907439, -0.6843911 ], [ 73.1908028, -0.6843891 ], [ 73.190876, -0.6844513 ], [ 73.1909177, -0.6845153 ], [ 73.1910433, -0.684488 ], [ 73.1910946, -0.684394 ], [ 73.1911739, -0.6843016 ], [ 73.1912365, -0.684225 ], [ 73.1913911, -0.6841182 ], [ 73.1915599, -0.6838951 ], [ 73.1917081, -0.6837322 ], [ 73.1918436, -0.6835767 ], [ 73.1920104, -0.6833228 ], [ 73.1921765, -0.6830695 ], [ 73.1923596, -0.6827241 ], [ 73.1924712, -0.6824982 ], [ 73.1926077, -0.6821884 ], [ 73.1927535, -0.6818601 ], [ 73.1928499, -0.6815706 ], [ 73.1929071, -0.6812801 ], [ 73.1929717, -0.6809763 ], [ 73.1930071, -0.6807292 ], [ 73.1931111, -0.6801149 ], [ 73.1932155, -0.6794775 ], [ 73.1933518, -0.6788587 ], [ 73.1934281, -0.6785476 ], [ 73.193465, -0.6782771 ], [ 73.1934575, -0.678012 ], [ 73.193409, -0.6779606 ], [ 73.1932505, -0.6779679 ], [ 73.1931199, -0.6779606 ], [ 73.1930407, -0.6779401 ], [ 73.1929585, -0.6778139 ], [ 73.1929497, -0.6777684 ], [ 73.1930216, -0.6777552 ], [ 73.193114, -0.6777654 ], [ 73.1931566, -0.6778329 ], [ 73.1932182, -0.6778931 ], [ 73.1933621, -0.6778843 ], [ 73.193409, -0.6778652 ], [ 73.193409, -0.6778212 ], [ 73.1934707, -0.6777375 ], [ 73.1935132, -0.6775306 ], [ 73.1935191, -0.6773281 ], [ 73.1935046, -0.6771346 ], [ 73.1934398, -0.6766986 ], [ 73.1933606, -0.6762979 ], [ 73.1933929, -0.6761996 ], [ 73.1933239, -0.6758709 ], [ 73.1932975, -0.6756581 ], [ 73.1932463, -0.6754683 ], [ 73.1931581, -0.6751122 ], [ 73.1930467, -0.6748505 ], [ 73.1927783, -0.6741471 ], [ 73.192505, -0.673586 ], [ 73.1923582, -0.6733057 ], [ 73.1921559, -0.6730851 ], [ 73.191918, -0.6727672 ], [ 73.1917259, -0.6726199 ], [ 73.1915246, -0.672393 ], [ 73.1913507, -0.6722245 ], [ 73.1913001, -0.6721039 ], [ 73.1912665, -0.6719654 ], [ 73.1912502, -0.6718192 ], [ 73.1912672, -0.6716563 ], [ 73.1913617, -0.6715521 ] ] ] ] } },
{ "type": "Feature", "properties": { "FID": 149855, "id": 1819, "left": 70.0, "top": 0.0, "right": 75.0, "bottom": -5.0, "row_index": 18, "col_index": 50, "min_lon": 70.0, "min_lat": -5.0, "tile_id": "70_-5" }, "geometry": { "type": "MultiPolygon", "coordinates": [ [ [ [ 73.1096793, -0.6535706 ], [ 73.1098402, -0.6536189 ], [ 73.110057, -0.6536358 ], [ 73.1102613, -0.6536171 ], [ 73.1107291, -0.6535784 ], [ 73.1110603, -0.6536244 ], [ 73.111258, -0.653539 ], [ 73.1116079, -0.6532464 ], [ 73.1118362, -0.6530779 ], [ 73.1119224, -0.6530793 ], [ 73.1119664, -0.6531208 ], [ 73.1119834, -0.653182 ], [ 73.1119646, -0.653242 ], [ 73.111922, -0.6532832 ], [ 73.1116776, -0.6534715 ], [ 73.1114644, -0.6536525 ], [ 73.1113614, -0.6537496 ], [ 73.1113423, -0.6538096 ], [ 73.1113593, -0.6538594 ], [ 73.1115321, -0.6540668 ], [ 73.1119428, -0.6545052 ], [ 73.1125274, -0.6550038 ], [ 73.1129452, -0.6553815 ], [ 73.1132, -0.6556278 ], [ 73.1134027, -0.6558046 ], [ 73.1136888, -0.6559752 ], [ 73.1139866, -0.6561365 ], [ 73.11417, -0.6562009 ], [ 73.1143426, -0.6562384 ], [ 73.1145197, -0.6562326 ], [ 73.114571, -0.6562107 ], [ 73.1146009, -0.6561298 ], [ 73.1145994, -0.6560335 ], [ 73.1146008, -0.6559643 ], [ 73.1146252, -0.6559109 ], [ 73.1146808, -0.6558974 ], [ 73.1147564, -0.6559119 ], [ 73.1147963, -0.6559911 ], [ 73.1147824, -0.6561201 ], [ 73.1147066, -0.6564449 ], [ 73.1145834, -0.6567286 ], [ 73.1145129, -0.6568197 ], [ 73.1144326, -0.6568858 ], [ 73.1143262, -0.6569429 ], [ 73.114252, -0.6570023 ], [ 73.114188, -0.6570699 ], [ 73.1141429, -0.6571314 ], [ 73.1141137, -0.657203 ], [ 73.114094, -0.6572845 ], [ 73.114086, -0.657352 ], [ 73.1140834, -0.6574064 ], [ 73.1140869, -0.6574723 ], [ 73.1140887, -0.6575529 ], [ 73.114093, -0.6576167 ], [ 73.1141919, -0.65788 ], [ 73.1141765, -0.6579574 ], [ 73.1141519, -0.6579715 ], [ 73.114128, -0.6579851 ], [ 73.1140676, -0.6580342 ], [ 73.1140518, -0.6580471 ], [ 73.1139996, -0.6580368 ], [ 73.1139553, -0.6579748 ], [ 73.1139277, -0.6579128 ], [ 73.1136714, -0.6575805 ], [ 73.113449, -0.6573219 ], [ 73.1132252, -0.6571109 ], [ 73.112957, -0.6568213 ], [ 73.1127263, -0.6565799 ], [ 73.1122757, -0.6562849 ], [ 73.1117446, -0.6562098 ], [ 73.1114824, -0.6563919 ], [ 73.1112681, -0.6567088 ], [ 73.1112494, -0.6568378 ], [ 73.1113202, -0.6569598 ], [ 73.1113761, -0.657028 ], [ 73.1113549, -0.6571174 ], [ 73.1112812, -0.6571443 ], [ 73.1111939, -0.6570926 ], [ 73.1111331, -0.6570037 ], [ 73.1110297, -0.6570303 ], [ 73.1109131, -0.6570251 ], [ 73.1108124, -0.6569181 ], [ 73.1106771, -0.6568749 ], [ 73.1105282, -0.656867 ], [ 73.1104219, -0.6568624 ], [ 73.1103393, -0.6568444 ], [ 73.1101192, -0.6567194 ], [ 73.1098885, -0.6563975 ], [ 73.1097329, -0.655963 ], [ 73.1096364, -0.6554856 ], [ 73.1096793, -0.6551262 ], [ 73.1097598, -0.6546435 ], [ 73.1097345, -0.6542603 ], [ 73.1097329, -0.6542358 ], [ 73.1095452, -0.653753 ], [ 73.1096793, -0.6535706 ] ] ] ] } },
{ "type": "Feature", "properties": { "FID": 153857, "id": 1819, "left": 70.0, "top": 0.0, "right": 75.0, "bottom": -5.0, "row_index": 18, "col_index": 50, "min_lon": 70.0, "min_lat": -5.0, "tile_id": "70_-5" }, "geometry": { "type": "MultiPolygon", "coordinates": [ [ [ [ 73.2145024, -0.6593847 ], [ 73.2150199, -0.659416 ], [ 73.2155765, -0.6594631 ], [ 73.2158823, -0.6593612 ], [ 73.2162116, -0.6591416 ], [ 73.2164782, -0.6588202 ], [ 73.216682, -0.6584753 ], [ 73.2169251, -0.6574874 ], [ 73.2169956, -0.6571974 ], [ 73.2170897, -0.6571503 ], [ 73.2172073, -0.6571739 ], [ 73.2173641, -0.657409 ], [ 73.2175052, -0.6577383 ], [ 73.2175288, -0.6580284 ], [ 73.2174425, -0.6583733 ], [ 73.2176385, -0.6586869 ], [ 73.217662, -0.6588516 ], [ 73.2175601, -0.659024 ], [ 73.2176228, -0.6592279 ], [ 73.2176072, -0.6596277 ], [ 73.2175209, -0.6599727 ], [ 73.2174033, -0.6602079 ], [ 73.2171995, -0.6602706 ], [ 73.2169564, -0.6603098 ], [ 73.2166271, -0.6604901 ], [ 73.2163762, -0.6605763 ], [ 73.2157098, -0.660545 ], [ 73.2154197, -0.660443 ], [ 73.2148787, -0.6599962 ], [ 73.2146122, -0.6597531 ], [ 73.2143848, -0.6596434 ], [ 73.214228, -0.6595963 ], [ 73.2142358, -0.6594788 ], [ 73.2145024, -0.6593847 ] ] ] ] } },
{ "type": "Feature", "properties": { "FID": 262654, "id": 1819, "left": 70.0, "top": 0.0, "right": 75.0, "bottom": -5.0, "row_index": 18, "col_index": 50, "min_lon": 70.0, "min_lat": -5.0, "tile_id": "70_-5" }, "geometry": { "type": "MultiPolygon", "coordinates": [ [ [ [ 73.1839112, -0.6901429 ], [ 73.1839539, -0.6903788 ], [ 73.1837901, -0.6904006 ], [ 73.1836348, -0.6904966 ], [ 73.1835169, -0.6907762 ], [ 73.1834582, -0.6910589 ], [ 73.1832659, -0.6913045 ], [ 73.1832623, -0.6915089 ], [ 73.1833085, -0.6917487 ], [ 73.1832977, -0.6921195 ], [ 73.1832484, -0.6924253 ], [ 73.1830294, -0.6925397 ], [ 73.1827866, -0.6924293 ], [ 73.1826413, -0.6922447 ], [ 73.1826512, -0.6920421 ], [ 73.1826165, -0.6917666 ], [ 73.1827039, -0.6915328 ], [ 73.1827562, -0.6914375 ], [ 73.182957, -0.6914223 ], [ 73.1829735, -0.6911022 ], [ 73.1831079, -0.6908654 ], [ 73.1832836, -0.6904759 ], [ 73.1832964, -0.6903043 ], [ 73.1833889, -0.6901453 ], [ 73.1837577, -0.6900926 ], [ 73.1839112, -0.6901429 ] ] ] ] } },
{ "type": "Feature", "properties": { "FID": 262706, "id": 1819, "left": 70.0, "top": 0.0, "right": 75.0, "bottom": -5.0, "row_index": 18, "col_index": 50, "min_lon": 70.0, "min_lat": -5.0, "tile_id": "70_-5" }, "geometry": { "type": "MultiPolygon", "coordinates": [ [ [ [ 73.1272178, -0.6819191 ], [ 73.127263, -0.6821454 ], [ 73.12737, -0.6822648 ], [ 73.1275593, -0.6823594 ], [ 73.1278063, -0.6824623 ], [ 73.1279832, -0.6825281 ], [ 73.1280779, -0.6824417 ], [ 73.1282507, -0.6823224 ], [ 73.1284277, -0.6823183 ], [ 73.1285306, -0.6824294 ], [ 73.1285182, -0.6825899 ], [ 73.1283125, -0.6827915 ], [ 73.1280779, -0.6829602 ], [ 73.1278598, -0.6832195 ], [ 73.1277322, -0.6834129 ], [ 73.1274523, -0.6835939 ], [ 73.1272671, -0.6836433 ], [ 73.127156, -0.6835775 ], [ 73.1269708, -0.6833594 ], [ 73.126584, -0.6830343 ], [ 73.126263, -0.6827668 ], [ 73.1260902, -0.6825034 ], [ 73.1261148, -0.6822565 ], [ 73.1262013, -0.682059 ], [ 73.1261766, -0.6818656 ], [ 73.1259832, -0.6815693 ], [ 73.1258432, -0.6813183 ], [ 73.1257897, -0.681166 ], [ 73.1257609, -0.6809891 ], [ 73.1256333, -0.6807422 ], [ 73.1254605, -0.6805035 ], [ 73.1252136, -0.6802689 ], [ 73.1249872, -0.6801496 ], [ 73.1245963, -0.6799192 ], [ 73.1243946, -0.6798657 ], [ 73.1242012, -0.6799068 ], [ 73.1239049, -0.6799315 ], [ 73.1237115, -0.6800303 ], [ 73.1234645, -0.6801537 ], [ 73.1232917, -0.6800508 ], [ 73.1232382, -0.6798122 ], [ 73.1231847, -0.6794788 ], [ 73.1231888, -0.6793965 ], [ 73.123337, -0.6792155 ], [ 73.1235715, -0.6789439 ], [ 73.1237855, -0.6789274 ], [ 73.1239255, -0.6789974 ], [ 73.1238185, -0.6791867 ], [ 73.1240201, -0.6792196 ], [ 73.1241888, -0.6791167 ], [ 73.1243411, -0.6788657 ], [ 73.1245675, -0.6787176 ], [ 73.1249625, -0.6786188 ], [ 73.1251477, -0.6786599 ], [ 73.1253165, -0.6788328 ], [ 73.125407, -0.6790097 ], [ 73.125477, -0.6791167 ], [ 73.1256868, -0.6792237 ], [ 73.1258844, -0.6793184 ], [ 73.1259955, -0.6794542 ], [ 73.125905, -0.6795982 ], [ 73.1259914, -0.6796805 ], [ 73.1262054, -0.6796352 ], [ 73.1263165, -0.6796146 ], [ 73.1264441, -0.6794624 ], [ 73.1266334, -0.6794583 ], [ 73.1266416, -0.6796805 ], [ 73.1266334, -0.6797875 ], [ 73.1266828, -0.6798451 ], [ 73.1266334, -0.6799562 ], [ 73.1264317, -0.6799809 ], [ 73.1261972, -0.6800467 ], [ 73.126086, -0.6801331 ], [ 73.1262836, -0.6802113 ], [ 73.1265758, -0.6802689 ], [ 73.1266745, -0.6803883 ], [ 73.1267404, -0.6805776 ], [ 73.1267856, -0.6805159 ], [ 73.1268021, -0.6803965 ], [ 73.1267404, -0.6802113 ], [ 73.126761, -0.6801208 ], [ 73.1269503, -0.6801331 ], [ 73.1270655, -0.6800879 ], [ 73.1271972, -0.6801085 ], [ 73.1272877, -0.6800838 ], [ 73.127333, -0.6801743 ], [ 73.1272589, -0.6802978 ], [ 73.1271231, -0.6804377 ], [ 73.1269461, -0.6806023 ], [ 73.1269091, -0.6807381 ], [ 73.1267733, -0.6808451 ], [ 73.1266786, -0.6809356 ], [ 73.1266992, -0.6811496 ], [ 73.1267239, -0.6812895 ], [ 73.126835, -0.6813718 ], [ 73.1267898, -0.6815282 ], [ 73.1267116, -0.681701 ], [ 73.1266951, -0.6817874 ], [ 73.1268597, -0.6817051 ], [ 73.1269256, -0.6816022 ], [ 73.1269873, -0.6814788 ], [ 73.127082, -0.6814747 ], [ 73.1271601, -0.6816228 ], [ 73.1272178, -0.6819191 ] ] ] ] } },
{ "type": "Feature", "properties": { "FID": 262707, "id": 1819, "left": 70.0, "top": 0.0, "right": 75.0, "bottom": -5.0, "row_index": 18, "col_index": 50, "min_lon": 70.0, "min_lat": -5.0, "tile_id": "70_-5" }, "geometry": { "type": "MultiPolygon", "coordinates": [ [ [ [ 73.1226003, -0.6781456 ], [ 73.122662, -0.6779933 ], [ 73.1227279, -0.6778328 ], [ 73.1228925, -0.6776518 ], [ 73.1230695, -0.6775818 ], [ 73.1232176, -0.6774213 ], [ 73.1232341, -0.6772073 ], [ 73.123197, -0.676944 ], [ 73.12323, -0.6767547 ], [ 73.1234522, -0.6766765 ], [ 73.1237362, -0.6767341 ], [ 73.1239049, -0.6768534 ], [ 73.1240818, -0.6770756 ], [ 73.1240901, -0.6772896 ], [ 73.1238596, -0.6774625 ], [ 73.1236127, -0.6777011 ], [ 73.123444, -0.6779028 ], [ 73.1233864, -0.6782361 ], [ 73.123267, -0.6784665 ], [ 73.1230324, -0.6785776 ], [ 73.1228225, -0.6784912 ], [ 73.1226119, -0.6784 ], [ 73.1225139, -0.6782855 ], [ 73.1226003, -0.6781456 ] ] ] ] } },
{ "type": "Feature", "properties": { "FID": 263035, "id": 1819, "left": 70.0, "top": 0.0, "right": 75.0, "bottom": -5.0, "row_index": 18, "col_index": 50, "min_lon": 70.0, "min_lat": -5.0, "tile_id": "70_-5" }, "geometry": { "type": "MultiPolygon", "coordinates": [ [ [ [ 73.0870002, -0.594326 ], [ 73.0871367, -0.5941803 ], [ 73.0873188, -0.5942076 ], [ 73.0874735, -0.5943624 ], [ 73.0876191, -0.5944989 ], [ 73.0876009, -0.5946537 ], [ 73.0875099, -0.5949176 ], [ 73.087519, -0.5951634 ], [ 73.0873825, -0.5953909 ], [ 73.0870912, -0.5954911 ], [ 73.0867635, -0.5954547 ], [ 73.0866451, -0.5952089 ], [ 73.0867271, -0.5950724 ], [ 73.0869455, -0.5948539 ], [ 73.0870457, -0.5946081 ], [ 73.0870002, -0.594326 ] ] ] ] } },
{ "type": "Feature", "properties": { "FID": 263036, "id": 1819, "left": 70.0, "top": 0.0, "right": 75.0, "bottom": -5.0, "row_index": 18, "col_index": 50, "min_lon": 70.0, "min_lat": -5.0, "tile_id": "70_-5" }, "geometry": { "type": "MultiPolygon", "coordinates": [ [ [ [ 73.0894085, -0.5970951 ], [ 73.0892862, -0.5972238 ], [ 73.0893248, -0.5976293 ], [ 73.0893055, -0.5979704 ], [ 73.0892347, -0.5981184 ], [ 73.0891639, -0.5983695 ], [ 73.0890995, -0.5986977 ], [ 73.0888485, -0.5988457 ], [ 73.0886425, -0.5988844 ], [ 73.088591, -0.5987814 ], [ 73.0887584, -0.5986977 ], [ 73.0889322, -0.5985497 ], [ 73.0888871, -0.5983501 ], [ 73.0889837, -0.5981184 ], [ 73.0891317, -0.5978996 ], [ 73.0891381, -0.5976228 ], [ 73.089106, -0.5972495 ], [ 73.0892476, -0.59705 ], [ 73.0894085, -0.5970951 ] ] ] ] } },
{ "type": "Feature", "properties": { "FID": 263037, "id": 1819, "left": 70.0, "top": 0.0, "right": 75.0, "bottom": -5.0, "row_index": 18, "col_index": 50, "min_lon": 70.0, "min_lat": -5.0, "tile_id": "70_-5" }, "geometry": { "type": "MultiPolygon", "coordinates": [ [ [ [ 73.0897583, -0.5928696 ], [ 73.0901042, -0.5934066 ], [ 73.0904228, -0.5939255 ], [ 73.0906413, -0.5944079 ], [ 73.0907869, -0.5949176 ], [ 73.0908689, -0.5952726 ], [ 73.0905958, -0.5956276 ], [ 73.090705, -0.5959917 ], [ 73.0906231, -0.5964013 ], [ 73.0905685, -0.5967472 ], [ 73.0904865, -0.596993 ], [ 73.0902499, -0.5969474 ], [ 73.0902317, -0.5967654 ], [ 73.0903318, -0.5964104 ], [ 73.0903318, -0.5960008 ], [ 73.0900496, -0.5958825 ], [ 73.0898949, -0.5962375 ], [ 73.0897128, -0.5965196 ], [ 73.0895489, -0.5965105 ], [ 73.0893669, -0.5962011 ], [ 73.0892668, -0.5958552 ], [ 73.0893396, -0.5956094 ], [ 73.0895489, -0.5954729 ], [ 73.089822, -0.5951452 ], [ 73.0900405, -0.5947902 ], [ 73.0900223, -0.5944443 ], [ 73.0897492, -0.5942349 ], [ 73.0895489, -0.5942532 ], [ 73.0894306, -0.5941985 ], [ 73.0895489, -0.5937343 ], [ 73.0895763, -0.5933793 ], [ 73.0894761, -0.5931245 ], [ 73.0895671, -0.5928514 ], [ 73.0897583, -0.5928696 ] ] ] ] } },
{ "type": "Feature", "properties": { "FID": 263156, "id": 1819, "left": 70.0, "top": 0.0, "right": 75.0, "bottom": -5.0, "row_index": 18, "col_index": 50, "min_lon": 70.0, "min_lat": -5.0, "tile_id": "70_-5" }, "geometry": { "type": "MultiPolygon", "coordinates": [ [ [ [ 73.1489225, -0.6116438 ], [ 73.1489447, -0.6116896 ], [ 73.1489431, -0.6117543 ], [ 73.1489178, -0.6118033 ], [ 73.148921, -0.6118601 ], [ 73.1489636, -0.6119122 ], [ 73.1489999, -0.6119517 ], [ 73.1490884, -0.6120007 ], [ 73.1491484, -0.6120354 ], [ 73.1492053, -0.6120354 ], [ 73.1493364, -0.6120891 ], [ 73.1493743, -0.6122013 ], [ 73.1493458, -0.6123639 ], [ 73.1493048, -0.6124145 ], [ 73.1492084, -0.6124745 ], [ 73.1491547, -0.6125472 ], [ 73.149101, -0.6126261 ], [ 73.1490378, -0.612683 ], [ 73.1489605, -0.6127398 ], [ 73.1489083, -0.6127604 ], [ 73.1488609, -0.6128204 ], [ 73.1488246, -0.6128725 ], [ 73.1487456, -0.6129104 ], [ 73.1486967, -0.6129562 ], [ 73.1486461, -0.6129989 ], [ 73.1485956, -0.6129783 ], [ 73.148564, -0.6129973 ], [ 73.148515, -0.6130083 ], [ 73.1484677, -0.6130257 ], [ 73.1484598, -0.6130431 ], [ 73.1484866, -0.6130699 ], [ 73.1484945, -0.6131299 ], [ 73.1484724, -0.6131663 ], [ 73.1483871, -0.6131679 ], [ 73.1483539, -0.6131157 ], [ 73.1483761, -0.6130636 ], [ 73.1484061, -0.6130257 ], [ 73.1483997, -0.6129862 ], [ 73.1483587, -0.6129783 ], [ 73.1483539, -0.612893 ], [ 73.1483571, -0.6128125 ], [ 73.1483761, -0.6127019 ], [ 73.1483713, -0.6126293 ], [ 73.1483524, -0.6125219 ], [ 73.1483413, -0.6124113 ], [ 73.1483381, -0.6123024 ], [ 73.1483682, -0.612255 ], [ 73.1484092, -0.6122123 ], [ 73.1484487, -0.6121602 ], [ 73.1485372, -0.6121065 ], [ 73.1485719, -0.6120955 ], [ 73.1486067, -0.612097 ], [ 73.1486209, -0.6121286 ], [ 73.1486146, -0.6121839 ], [ 73.1486193, -0.6122234 ], [ 73.1486382, -0.612255 ], [ 73.1486588, -0.6122945 ], [ 73.1486572, -0.6123355 ], [ 73.1486414, -0.6123876 ], [ 73.1486667, -0.6124161 ], [ 73.1487314, -0.6124587 ], [ 73.1487883, -0.612484 ], [ 73.1488436, -0.6124856 ], [ 73.148872, -0.6124619 ], [ 73.1488704, -0.612424 ], [ 73.1488973, -0.6123955 ], [ 73.1489431, -0.612375 ], [ 73.1490078, -0.6123213 ], [ 73.1490473, -0.6122581 ], [ 73.1490647, -0.6122013 ], [ 73.14906, -0.6121649 ], [ 73.149011, -0.6121207 ], [ 73.1489257, -0.612086 ], [ 73.1488531, -0.6120465 ], [ 73.1487646, -0.6119596 ], [ 73.1487204, -0.6119107 ], [ 73.1486746, -0.6118522 ], [ 73.1486446, -0.6118001 ], [ 73.1485782, -0.6118033 ], [ 73.1484914, -0.6117764 ], [ 73.1484471, -0.6117764 ], [ 73.148414, -0.6117875 ], [ 73.1483524, -0.6118507 ], [ 73.148346, -0.611917 ], [ 73.1483697, -0.6119849 ], [ 73.1483792, -0.6120891 ], [ 73.1483729, -0.6121807 ], [ 73.1483255, -0.6122265 ], [ 73.1482718, -0.6122376 ], [ 73.1482339, -0.6122155 ], [ 73.1482213, -0.6121176 ], [ 73.1481897, -0.6120386 ], [ 73.1481328, -0.6119912 ], [ 73.1480602, -0.6119817 ], [ 73.1480001, -0.6119438 ], [ 73.1479022, -0.6118459 ], [ 73.1478327, -0.6117227 ], [ 73.1477759, -0.6115774 ], [ 73.1478201, -0.6114795 ], [ 73.147918, -0.6114479 ], [ 73.1480949, -0.6114384 ], [ 73.1482465, -0.6114542 ], [ 73.1483571, -0.6114795 ], [ 73.148594, -0.6115111 ], [ 73.1487772, -0.6115458 ], [ 73.1489036, -0.6115964 ], [ 73.1489225, -0.6116438 ] ] ] ] } },
{ "type": "Feature", "properties": { "FID": 263157, "id": 1819, "left": 70.0, "top": 0.0, "right": 75.0, "bottom": -5.0, "row_index": 18, "col_index": 50, "min_lon": 70.0, "min_lat": -5.0, "tile_id": "70_-5" }, "geometry": { "type": "MultiPolygon", "coordinates": [ [ [ [ 73.1418299, -0.615003 ], [ 73.1418645, -0.6150019 ], [ 73.1419181, -0.615003 ], [ 73.141955, -0.6149986 ], [ 73.1420253, -0.6149718 ], [ 73.1420968, -0.6149662 ], [ 73.1421515, -0.6149852 ], [ 73.1421761, -0.6150242 ], [ 73.1421705, -0.6150991 ], [ 73.1421448, -0.6151583 ], [ 73.1420957, -0.615223 ], [ 73.1419862, -0.6152845 ], [ 73.14185, -0.615309 ], [ 73.1416947, -0.6153113 ], [ 73.1416344, -0.6153124 ], [ 73.1415558, -0.6153059 ], [ 73.1414728, -0.6152933 ], [ 73.1414373, -0.6153114 ], [ 73.141401, -0.6153059 ], [ 73.141367, -0.6152759 ], [ 73.1413694, -0.6152498 ], [ 73.1413899, -0.6152277 ], [ 73.1413883, -0.6152072 ], [ 73.1413409, -0.6151756 ], [ 73.141307, -0.6151574 ], [ 73.1413189, -0.6151371 ], [ 73.1413703, -0.6151393 ], [ 73.1414172, -0.6151214 ], [ 73.1414396, -0.6150946 ], [ 73.1415177, -0.6151125 ], [ 73.1415691, -0.6151125 ], [ 73.1416562, -0.6150924 ], [ 73.1417255, -0.61507 ], [ 73.1417947, -0.6150164 ], [ 73.1418299, -0.615003 ] ] ] ] } },
{ "type": "Feature", "properties": { "FID": 263158, "id": 1819, "left": 70.0, "top": 0.0, "right": 75.0, "bottom": -5.0, "row_index": 18, "col_index": 50, "min_lon": 70.0, "min_lat": -5.0, "tile_id": "70_-5" }, "geometry": { "type": "MultiPolygon", "coordinates": [ [ [ [ 73.1478651, -0.6127733 ], [ 73.1479232, -0.6127979 ], [ 73.1479232, -0.612847 ], [ 73.147883, -0.6128895 ], [ 73.1478674, -0.6129498 ], [ 73.1478272, -0.6130302 ], [ 73.1477691, -0.6131151 ], [ 73.1477021, -0.6132133 ], [ 73.1476686, -0.6133161 ], [ 73.1476351, -0.6134613 ], [ 73.1476328, -0.6135104 ], [ 73.1476529, -0.6135372 ], [ 73.1476797, -0.6135417 ], [ 73.1477356, -0.613526 ], [ 73.1477914, -0.6135573 ], [ 73.1478473, -0.613573 ], [ 73.1478718, -0.6135975 ], [ 73.1478741, -0.6136645 ], [ 73.1477959, -0.6137092 ], [ 73.1476887, -0.6137516 ], [ 73.1476373, -0.6137248 ], [ 73.147625, -0.6137003 ], [ 73.1476138, -0.6136835 ], [ 73.1475066, -0.613679 ], [ 73.1474351, -0.613679 ], [ 73.1473726, -0.6136344 ], [ 73.1473369, -0.613545 ], [ 73.1473346, -0.6134691 ], [ 73.1473681, -0.6133999 ], [ 73.1474217, -0.6133686 ], [ 73.147462, -0.613315 ], [ 73.1474999, -0.6132569 ], [ 73.1475357, -0.6131854 ], [ 73.1475759, -0.613114 ], [ 73.1476406, -0.6130402 ], [ 73.1476853, -0.6130067 ], [ 73.1476876, -0.612971 ], [ 73.1477211, -0.6129174 ], [ 73.1477501, -0.612837 ], [ 73.1478104, -0.6127789 ], [ 73.1478651, -0.6127733 ] ] ] ] } },
{ "type": "Feature", "properties": { "FID": 266700, "id": 1819, "left": 70.0, "top": 0.0, "right": 75.0, "bottom": -5.0, "row_index": 18, "col_index": 50, "min_lon": 70.0, "min_lat": -5.0, "tile_id": "70_-5" }, "geometry": { "type": "MultiPolygon", "coordinates": [ [ [ [ 73.207788, -0.5764325 ], [ 73.2082744, -0.5765861 ], [ 73.208226, -0.5769587 ], [ 73.2076259, -0.5769047 ], [ 73.2068721, -0.5774224 ], [ 73.2068209, -0.5767198 ], [ 73.207788, -0.5764325 ] ] ] ] } },
{ "type": "Feature", "properties": { "FID": 272944, "id": 1819, "left": 70.0, "top": 0.0, "right": 75.0, "bottom": -5.0, "row_index": 18, "col_index": 50, "min_lon": 70.0, "min_lat": -5.0, "tile_id": "70_-5" }, "geometry": { "type": "MultiPolygon", "coordinates": [ [ [ [ 73.2215789, -0.5858389 ], [ 73.2223777, -0.5856343 ], [ 73.2224257, -0.5856215 ], [ 73.2224416, -0.5855543 ], [ 73.2222081, -0.5841914 ], [ 73.2221633, -0.5841338 ], [ 73.2220801, -0.5841243 ], [ 73.2205668, -0.5846041 ], [ 73.2204836, -0.584329 ], [ 73.2205764, -0.5843098 ], [ 73.2203045, -0.5838843 ], [ 73.2200581, -0.58351 ], [ 73.2199418, -0.5832774 ], [ 73.2198045, -0.5830028 ], [ 73.219639, -0.5826718 ], [ 73.2195191, -0.5822655 ], [ 73.2198035, -0.5816677 ], [ 73.2198086, -0.5817504 ], [ 73.2200632, -0.5818511 ], [ 73.2202539, -0.5819899 ], [ 73.2205539, -0.5819704 ], [ 73.2207943, -0.5820469 ], [ 73.2211535, -0.5821018 ], [ 73.2215672, -0.582028 ], [ 73.2220921, -0.5820263 ], [ 73.2223683, -0.5819918 ], [ 73.2227647, -0.582025 ], [ 73.2228854, -0.5820878 ], [ 73.2229594, -0.5820901 ], [ 73.2230262, -0.5821072 ], [ 73.2230911, -0.5820548 ], [ 73.223144, -0.5820109 ], [ 73.2232003, -0.581943 ], [ 73.2232119, -0.5818383 ], [ 73.2231857, -0.5817893 ], [ 73.2232042, -0.5816709 ], [ 73.2232127, -0.5815645 ], [ 73.2232727, -0.5815959 ], [ 73.2232581, -0.5815458 ], [ 73.2232287, -0.5814561 ], [ 73.2232607, -0.581245 ], [ 73.2233215, -0.5811266 ], [ 73.2232671, -0.5809122 ], [ 73.223491, -0.5807267 ], [ 73.2237566, -0.5806851 ], [ 73.2243619, -0.5806582 ], [ 73.2251283, -0.5806258 ], [ 73.2255968, -0.5805716 ], [ 73.225833, -0.5804324 ], [ 73.2265685, -0.5803411 ], [ 73.2269376, -0.5802943 ], [ 73.2315409, -0.5797105 ], [ 73.2321964, -0.5796428 ], [ 73.2368182, -0.5791209 ], [ 73.2370858, -0.5790907 ], [ 73.2375237, -0.5790582 ], [ 73.2377648, -0.5790785 ], [ 73.2383526, -0.5793441 ], [ 73.2382367, -0.5791948 ], [ 73.2386533, -0.5794158 ], [ 73.2391591, -0.5797728 ], [ 73.2395305, -0.5802011 ], [ 73.2396637, -0.5807721 ], [ 73.2396989, -0.581371 ], [ 73.2395308, -0.5825676 ], [ 73.2392101, -0.5838829 ], [ 73.2384578, -0.5857786 ], [ 73.2378924, -0.5872195 ], [ 73.2369233, -0.5886348 ], [ 73.2356269, -0.5910448 ], [ 73.234798, -0.5923709 ], [ 73.2324942, -0.5949636 ], [ 73.2316866, -0.5957159 ], [ 73.229472, -0.5977901 ], [ 73.228826, -0.5984957 ], [ 73.2284519, -0.5987124 ], [ 73.2283329, -0.5987592 ], [ 73.2281884, -0.5986954 ], [ 73.2269089, -0.5988739 ], [ 73.2267942, -0.5988654 ], [ 73.2267049, -0.5989377 ], [ 73.2265816, -0.5989887 ], [ 73.2264584, -0.5989887 ], [ 73.2263819, -0.5989334 ], [ 73.2262714, -0.5989419 ], [ 73.2261438, -0.5990099 ], [ 73.2259398, -0.5989802 ], [ 73.225638, -0.5990269 ], [ 73.2255403, -0.5990992 ], [ 73.2254042, -0.5992565 ], [ 73.2254085, -0.5993797 ], [ 73.2254085, -0.599554 ], [ 73.2254595, -0.5996857 ], [ 73.225655, -0.5997623 ], [ 73.2257783, -0.5999875 ], [ 73.2259908, -0.6003403 ], [ 73.2262076, -0.6006973 ], [ 73.2263011, -0.6010374 ], [ 73.2262203, -0.6016919 ], [ 73.2262841, -0.6024272 ], [ 73.2261608, -0.6029543 ], [ 73.2263606, -0.6033453 ], [ 73.2263904, -0.6035238 ], [ 73.2262373, -0.6039531 ], [ 73.2263691, -0.6042889 ], [ 73.2262076, -0.6050199 ], [ 73.2262288, -0.6051517 ], [ 73.2259993, -0.6062398 ], [ 73.2258378, -0.6072939 ], [ 73.2259101, -0.6086455 ], [ 73.2258208, -0.6087602 ], [ 73.2239208, -0.608909 ], [ 73.2238188, -0.608892 ], [ 73.223789, -0.608858 ], [ 73.223772, -0.6087772 ], [ 73.2238358, -0.6086922 ], [ 73.223857, -0.6086157 ], [ 73.223891, -0.6083777 ], [ 73.2240313, -0.6083649 ], [ 73.223942, -0.6078974 ], [ 73.2238783, -0.6071281 ], [ 73.2237253, -0.605751 ], [ 73.223653, -0.6046629 ], [ 73.2235518, -0.6029324 ], [ 73.2234367, -0.6013808 ], [ 73.2229887, -0.5994925 ], [ 73.2233119, -0.5962589 ], [ 73.2232799, -0.5959805 ], [ 73.2232415, -0.5958398 ], [ 73.2233023, -0.5956606 ], [ 73.2234559, -0.5954143 ], [ 73.223523, -0.5951296 ], [ 73.2236766, -0.5947329 ], [ 73.2237886, -0.5946209 ], [ 73.2238238, -0.5944769 ], [ 73.2239262, -0.5943425 ], [ 73.2241501, -0.594125 ], [ 73.2240221, -0.5943777 ], [ 73.2241565, -0.5942434 ], [ 73.2244573, -0.5940642 ], [ 73.2246588, -0.593933 ], [ 73.2248732, -0.5938659 ], [ 73.2250108, -0.5938627 ], [ 73.2251643, -0.5938915 ], [ 73.2251643, -0.5939906 ], [ 73.2249436, -0.5940834 ], [ 73.2247388, -0.5941186 ], [ 73.2245436, -0.5941858 ], [ 73.2246076, -0.5943042 ], [ 73.2246972, -0.5944993 ], [ 73.2246268, -0.5946081 ], [ 73.2243741, -0.5946561 ], [ 73.2241405, -0.5948768 ], [ 73.2240221, -0.5951008 ], [ 73.2240029, -0.5952703 ], [ 73.2238782, -0.5955391 ], [ 73.2236446, -0.5958014 ], [ 73.2237598, -0.5958078 ], [ 73.2239742, -0.5957598 ], [ 73.2241565, -0.5956958 ], [ 73.2244573, -0.5956734 ], [ 73.22471, -0.5955582 ], [ 73.2249372, -0.5951807 ], [ 73.2256218, -0.5947137 ], [ 73.2258426, -0.5941506 ], [ 73.2260282, -0.5927941 ], [ 73.2260058, -0.5921575 ], [ 73.2258618, -0.5918632 ], [ 73.2257882, -0.5912393 ], [ 73.2257082, -0.5910282 ], [ 73.225641, -0.5906986 ], [ 73.2255866, -0.5903979 ], [ 73.2256026, -0.589902 ], [ 73.2255738, -0.5897677 ], [ 73.222686, -0.5902472 ], [ 73.2230401, -0.591717 ], [ 73.2231688, -0.5928649 ], [ 73.223083, -0.593294 ], [ 73.2230079, -0.5933798 ], [ 73.2222676, -0.5933906 ], [ 73.2221818, -0.5930982 ], [ 73.2217312, -0.5931975 ], [ 73.2216589, -0.5928937 ], [ 73.2216239, -0.5927469 ], [ 73.2221174, -0.5926396 ], [ 73.2214158, -0.5896002 ], [ 73.221396, -0.5895116 ], [ 73.2213765, -0.5894245 ], [ 73.2213646, -0.5893756 ], [ 73.2208782, -0.5894774 ], [ 73.2208059, -0.5891008 ], [ 73.220787, -0.5890027 ], [ 73.2212618, -0.5889062 ], [ 73.2212269, -0.5887131 ], [ 73.2218707, -0.5886058 ], [ 73.2219887, -0.5887238 ], [ 73.2221603, -0.5886809 ], [ 73.2223535, -0.5894024 ], [ 73.2224661, -0.5894909 ], [ 73.2226887, -0.5899844 ], [ 73.2255586, -0.5895132 ], [ 73.2255994, -0.589435 ], [ 73.225577, -0.589307 ], [ 73.2251739, -0.5892942 ], [ 73.2251675, -0.5892366 ], [ 73.2252891, -0.5892366 ], [ 73.2254139, -0.5892014 ], [ 73.2255259, -0.5890926 ], [ 73.2255291, -0.5887247 ], [ 73.2253915, -0.5880049 ], [ 73.2245404, -0.5854519 ], [ 73.2244349, -0.5854327 ], [ 73.2240093, -0.5854551 ], [ 73.223603, -0.5856151 ], [ 73.222608, -0.5856951 ], [ 73.2216079, -0.5859716 ], [ 73.2215602, -0.5859706 ], [ 73.2215344, -0.5859639 ], [ 73.2215052, -0.5859281 ], [ 73.2215025, -0.5858885 ], [ 73.221525, -0.585859 ], [ 73.2215538, -0.5858443 ], [ 73.2215789, -0.5858389 ] ] ] ] } },
{ "type": "Feature", "properties": { "FID": 272945, "id": 1819, "left": 70.0, "top": 0.0, "right": 75.0, "bottom": -5.0, "row_index": 18, "col_index": 50, "min_lon": 70.0, "min_lat": -5.0, "tile_id": "70_-5" }, "geometry": { "type": "MultiPolygon", "coordinates": [ [ [ [ 73.2183771, -0.580922 ], [ 73.2179151, -0.5804955 ], [ 73.2171306, -0.5799138 ], [ 73.2168128, -0.5796396 ], [ 73.2165926, -0.579444 ], [ 73.2161085, -0.5792291 ], [ 73.2144603, -0.578162 ], [ 73.2144494, -0.5780551 ], [ 73.2137428, -0.5776975 ], [ 73.2129619, -0.5774333 ], [ 73.2121876, -0.5773469 ], [ 73.211503, -0.5771165 ], [ 73.2108311, -0.576979 ], [ 73.2098996, -0.5768916 ], [ 73.2098812, -0.5767586 ], [ 73.2100408, -0.5767198 ], [ 73.2107447, -0.5767486 ], [ 73.2116247, -0.5769127 ], [ 73.2129911, -0.5769761 ], [ 73.2144163, -0.5776139 ], [ 73.2164931, -0.5782428 ], [ 73.216665, -0.5785098 ], [ 73.2171401, -0.5787179 ], [ 73.217312, -0.5788581 ], [ 73.2175518, -0.5789577 ], [ 73.2176147, -0.5791666 ], [ 73.2175282, -0.5792489 ], [ 73.2174875, -0.5793847 ], [ 73.2175508, -0.5795204 ], [ 73.2176594, -0.5796426 ], [ 73.2178132, -0.5797602 ], [ 73.2181797, -0.5798778 ], [ 73.2183562, -0.5799774 ], [ 73.2185372, -0.580104 ], [ 73.2187046, -0.5802715 ], [ 73.219064, -0.5805189 ], [ 73.2193141, -0.5808445 ], [ 73.2193494, -0.5807956 ], [ 73.219521, -0.5808063 ], [ 73.2197142, -0.5806132 ], [ 73.2197785, -0.5803665 ], [ 73.2199931, -0.5800231 ], [ 73.2201755, -0.5800982 ], [ 73.2195318, -0.5812569 ], [ 73.2195693, -0.5812998 ], [ 73.219167, -0.5820722 ], [ 73.2189578, -0.5819328 ], [ 73.2190061, -0.5818309 ], [ 73.2190114, -0.5817075 ], [ 73.218931, -0.5816646 ], [ 73.2189417, -0.5815868 ], [ 73.2186038, -0.5812193 ], [ 73.2183771, -0.580922 ] ] ] ] } },
{ "type": "Feature", "properties": { "FID": 272946, "id": 1819, "left": 70.0, "top": 0.0, "right": 75.0, "bottom": -5.0, "row_index": 18, "col_index": 50, "min_lon": 70.0, "min_lat": -5.0, "tile_id": "70_-5" }, "geometry": { "type": "MultiPolygon", "coordinates": [ [ [ [ 73.2219967, -0.5797807 ], [ 73.222211, -0.5798766 ], [ 73.2224382, -0.5798126 ], [ 73.2225278, -0.5799182 ], [ 73.2225182, -0.5800686 ], [ 73.2225118, -0.580187 ], [ 73.2225438, -0.5802765 ], [ 73.2225822, -0.5805069 ], [ 73.2225534, -0.5807212 ], [ 73.222611, -0.5807916 ], [ 73.2226078, -0.580942 ], [ 73.2225726, -0.5810443 ], [ 73.2224542, -0.5812715 ], [ 73.222339, -0.5814219 ], [ 73.2222558, -0.5814187 ], [ 73.2222334, -0.5813707 ], [ 73.2222078, -0.5811563 ], [ 73.2222558, -0.5809548 ], [ 73.2223198, -0.5807564 ], [ 73.222291, -0.5806189 ], [ 73.2221791, -0.5805261 ], [ 73.2220831, -0.5803885 ], [ 73.2219711, -0.5802637 ], [ 73.2217951, -0.580155 ], [ 73.2216639, -0.5800622 ], [ 73.221552, -0.5800046 ], [ 73.2214528, -0.580027 ], [ 73.2213888, -0.580075 ], [ 73.2212224, -0.5801198 ], [ 73.2211265, -0.580107 ], [ 73.2209633, -0.5800494 ], [ 73.2208705, -0.5799086 ], [ 73.2207894, -0.5797387 ], [ 73.2209168, -0.5795102 ], [ 73.2211297, -0.5794319 ], [ 73.2212384, -0.5794319 ], [ 73.2215072, -0.5794383 ], [ 73.2217157, -0.5794547 ], [ 73.2219871, -0.5797171 ], [ 73.2219967, -0.5797807 ] ] ] ] } },
{ "type": "Feature", "properties": { "FID": 272947, "id": 1819, "left": 70.0, "top": 0.0, "right": 75.0, "bottom": -5.0, "row_index": 18, "col_index": 50, "min_lon": 70.0, "min_lat": -5.0, "tile_id": "70_-5" }, "geometry": { "type": "MultiPolygon", "coordinates": [ [ [ [ 73.2258975, -0.6092864 ], [ 73.2258871, -0.6099401 ], [ 73.2258871, -0.6099972 ], [ 73.2259442, -0.6105938 ], [ 73.2259182, -0.6106976 ], [ 73.2259338, -0.612114 ], [ 73.226048, -0.6130064 ], [ 73.2260116, -0.6131413 ], [ 73.2260376, -0.6135148 ], [ 73.2261673, -0.6139299 ], [ 73.2262036, -0.6142827 ], [ 73.2260583, -0.6152633 ], [ 73.2258923, -0.6162646 ], [ 73.2258508, -0.617681 ], [ 73.2259442, -0.6188535 ], [ 73.2261362, -0.6188898 ], [ 73.226297, -0.6198185 ], [ 73.2266343, -0.6209755 ], [ 73.2270234, -0.6227862 ], [ 73.2271894, -0.6233777 ], [ 73.2270753, -0.6248926 ], [ 73.226572, -0.6270561 ], [ 73.2258197, -0.6295932 ], [ 73.2250051, -0.6324882 ], [ 73.2245588, -0.6346932 ], [ 73.2246107, -0.6348281 ], [ 73.2243305, -0.6363586 ], [ 73.2246055, -0.6368567 ], [ 73.2245433, -0.6369345 ], [ 73.2243772, -0.6371732 ], [ 73.2241905, -0.6375882 ], [ 73.2239622, -0.6380603 ], [ 73.2235575, -0.6393418 ], [ 73.2233759, -0.6398036 ], [ 73.2234174, -0.6399956 ], [ 73.2236664, -0.6403743 ], [ 73.2235004, -0.641194 ], [ 73.2226962, -0.642984 ], [ 73.2224834, -0.643674 ], [ 73.2223952, -0.6438504 ], [ 73.2221099, -0.6439853 ], [ 73.221783, -0.6439749 ], [ 73.2218245, -0.6436221 ], [ 73.2222499, -0.64246 ], [ 73.2225561, -0.6413289 ], [ 73.2229608, -0.6395027 ], [ 73.2230178, -0.6387193 ], [ 73.2236273, -0.635893 ], [ 73.2238437, -0.634246 ], [ 73.2242285, -0.631457 ], [ 73.2244449, -0.6300745 ], [ 73.2249618, -0.6285958 ], [ 73.2249979, -0.6274177 ], [ 73.2251451, -0.6244287 ], [ 73.2251542, -0.624244 ], [ 73.2251275, -0.6239548 ], [ 73.2248777, -0.620926 ], [ 73.2247214, -0.6180167 ], [ 73.2245771, -0.6165981 ], [ 73.2242525, -0.6154681 ], [ 73.2241203, -0.613737 ], [ 73.2240361, -0.6128654 ], [ 73.223958, -0.6124446 ], [ 73.2239479, -0.6122198 ], [ 73.2237777, -0.6119997 ], [ 73.2237047, -0.6118075 ], [ 73.2237002, -0.6117346 ], [ 73.2236897, -0.611561 ], [ 73.2237348, -0.6113687 ], [ 73.2237137, -0.6112184 ], [ 73.2237059, -0.611176 ], [ 73.2236876, -0.6110749 ], [ 73.2236662, -0.6107906 ], [ 73.2236394, -0.610464 ], [ 73.2237235, -0.6101815 ], [ 73.2238768, -0.6100102 ], [ 73.2238798, -0.6095774 ], [ 73.2237987, -0.6092108 ], [ 73.2238708, -0.6091326 ], [ 73.2257794, -0.6090034 ], [ 73.2258975, -0.6092864 ] ] ] ] } },
{ "type": "Feature", "properties": { "FID": 312800, "id": 1819, "left": 70.0, "top": 0.0, "right": 75.0, "bottom": -5.0, "row_index": 18, "col_index": 50, "min_lon": 70.0, "min_lat": -5.0, "tile_id": "70_-5" }, "geometry": { "type": "MultiPolygon", "coordinates": [ [ [ [ 73.4111502, -0.288965 ], [ 73.4106657, -0.2885226 ], [ 73.4103392, -0.2875959 ], [ 73.4101497, -0.2854369 ], [ 73.4101497, -0.2843417 ], [ 73.4104235, -0.283436 ], [ 73.4108132, -0.2826461 ], [ 73.4114029, -0.2819826 ], [ 73.4123086, -0.2811085 ], [ 73.4131828, -0.2804872 ], [ 73.4140358, -0.2798026 ], [ 73.4147836, -0.2789706 ], [ 73.4156682, -0.2781703 ], [ 73.4163317, -0.2776647 ], [ 73.4169425, -0.277233 ], [ 73.4176903, -0.2770329 ], [ 73.4187434, -0.2774646 ], [ 73.4192805, -0.2779386 ], [ 73.4197544, -0.2785283 ], [ 73.4199124, -0.2791497 ], [ 73.4200177, -0.2798342 ], [ 73.4201908, -0.2803837 ], [ 73.4208977, -0.2823407 ], [ 73.421741, -0.2840111 ], [ 73.4219531, -0.2843652 ], [ 73.4239407, -0.2876836 ], [ 73.4267737, -0.2912117 ], [ 73.4281936, -0.2928134 ], [ 73.4289116, -0.2936234 ], [ 73.4307544, -0.2953093 ], [ 73.4315587, -0.2960838 ], [ 73.4325119, -0.2969476 ], [ 73.4336587, -0.298437 ], [ 73.4346119, -0.2996732 ], [ 73.4355949, -0.3009391 ], [ 73.4371283, -0.3027766 ], [ 73.4382973, -0.3042036 ], [ 73.4389608, -0.3050988 ], [ 73.439777, -0.3059729 ], [ 73.4402352, -0.3065732 ], [ 73.4403194, -0.3066153 ], [ 73.4407301, -0.306668 ], [ 73.4408986, -0.3066785 ], [ 73.440946, -0.306768 ], [ 73.4409355, -0.3068523 ], [ 73.4408144, -0.3069049 ], [ 73.4405669, -0.3069365 ], [ 73.4404826, -0.3070418 ], [ 73.4404195, -0.3072893 ], [ 73.4404774, -0.3078159 ], [ 73.4404932, -0.3083402 ], [ 73.4407648, -0.3083455 ], [ 73.4407687, -0.3084109 ], [ 73.44049, -0.3084085 ], [ 73.4404488, -0.3093002 ], [ 73.4397675, -0.3102835 ], [ 73.4403032, -0.3106736 ], [ 73.4411705, -0.3094415 ], [ 73.4412379, -0.3084279 ], [ 73.4409527, -0.3084093 ], [ 73.4409513, -0.30836 ], [ 73.4410927, -0.3083668 ], [ 73.4411045, -0.3082953 ], [ 73.4412932, -0.3083147 ], [ 73.44139, -0.3070264 ], [ 73.4413771, -0.3069479 ], [ 73.4413865, -0.3069064 ], [ 73.4414215, -0.3068563 ], [ 73.4414744, -0.3068713 ], [ 73.4414991, -0.3069227 ], [ 73.4414974, -0.3070042 ], [ 73.441464, -0.307052 ], [ 73.4413973, -0.3079819 ], [ 73.4413325, -0.309321 ], [ 73.4413154, -0.3095548 ], [ 73.4405314, -0.3106619 ], [ 73.4404046, -0.3108078 ], [ 73.4403452, -0.3108761 ], [ 73.4402233, -0.3108801 ], [ 73.4397492, -0.3108113 ], [ 73.4392275, -0.3110576 ], [ 73.4387607, -0.3113211 ], [ 73.4383041, -0.3115789 ], [ 73.4365764, -0.3120406 ], [ 73.4350274, -0.3121299 ], [ 73.4336572, -0.3119661 ], [ 73.4316614, -0.3114002 ], [ 73.430172, -0.3108342 ], [ 73.4285039, -0.3097619 ], [ 73.4272528, -0.3082427 ], [ 73.426012, -0.3062524 ], [ 73.4258644, -0.3060156 ], [ 73.425823, -0.3059491 ], [ 73.424649, -0.3038465 ], [ 73.4245603, -0.3036929 ], [ 73.4243673, -0.3033585 ], [ 73.4241777, -0.3028636 ], [ 73.4240213, -0.3020743 ], [ 73.4235592, -0.3012129 ], [ 73.4230155, -0.3003773 ], [ 73.4219506, -0.2987405 ], [ 73.4201634, -0.2968342 ], [ 73.4187931, -0.2954639 ], [ 73.4172071, -0.2943723 ], [ 73.4160229, -0.2937958 ], [ 73.4148733, -0.2932562 ], [ 73.4135381, -0.2922031 ], [ 73.4122537, -0.2909907 ], [ 73.4114106, -0.2891854 ], [ 73.4111502, -0.288965 ] ] ] ] } },
{ "type": "Feature", "properties": { "FID": 319014, "id": 1819, "left": 70.0, "top": 0.0, "right": 75.0, "bottom": -5.0, "row_index": 18, "col_index": 50, "min_lon": 70.0, "min_lat": -5.0, "tile_id": "70_-5" }, "geometry": { "type": "MultiPolygon", "coordinates": [ [ [ [ 73.2210925, -0.6459477 ], [ 73.2211496, -0.6457806 ], [ 73.2213127, -0.645695 ], [ 73.2215573, -0.6456338 ], [ 73.2216388, -0.6456501 ], [ 73.2216755, -0.645752 ], [ 73.2217204, -0.6460578 ], [ 73.2216714, -0.6461678 ], [ 73.2216755, -0.6464328 ], [ 73.2216755, -0.6466529 ], [ 73.2217122, -0.6468201 ], [ 73.2218508, -0.6468079 ], [ 73.2217244, -0.6469383 ], [ 73.221545, -0.6469505 ], [ 73.2214146, -0.6468486 ], [ 73.2213086, -0.6466489 ], [ 73.221223, -0.6464165 ], [ 73.2211578, -0.6461597 ], [ 73.2210925, -0.6459477 ] ] ] ] } },
{ "type": "Feature", "properties": { "FID": 529267, "id": 1819, "left": 70.0, "top": 0.0, "right": 75.0, "bottom": -5.0, "row_index": 18, "col_index": 50, "min_lon": 70.0, "min_lat": -5.0, "tile_id": "70_-5" }, "geometry": { "type": "MultiPolygon", "coordinates": [ [ [ [ 73.0998731, -0.6021985 ], [ 73.1008011, -0.6018337 ], [ 73.1015843, -0.6014797 ], [ 73.1021851, -0.6011042 ], [ 73.1024641, -0.6010023 ], [ 73.1030059, -0.6008092 ], [ 73.1032902, -0.6006214 ], [ 73.1034404, -0.600482 ], [ 73.1035477, -0.6005463 ], [ 73.1036228, -0.6007716 ], [ 73.1035155, -0.601013 ], [ 73.1032741, -0.6011954 ], [ 73.1031239, -0.6011257 ], [ 73.1026143, -0.6013295 ], [ 73.1009781, -0.6021126 ], [ 73.1000984, -0.602515 ], [ 73.0995834, -0.602751 ], [ 73.0993044, -0.6027778 ], [ 73.0991757, -0.6027295 ], [ 73.0991435, -0.6026437 ], [ 73.0992454, -0.6025096 ], [ 73.0998731, -0.6021985 ] ] ] ] } }
]
}
