{
"type": "FeatureCollection",
"name": "70_-70",
"crs": { "type": "name", "properties": { "name": "urn:ogc:def:crs:OGC:1.3:CRS84" } },
"xy_coordinate_resolution": 1e-15,
"features": [
{ "type": "Feature", "properties": { "FID": 307096, "id": 1832, "left": 70.0, "top": -65.0, "right": 75.0, "bottom": -70.0, "row_index": 31, "col_index": 50, "min_lon": 70.0, "min_lat": -70.0, "tile_id": "70_-70" }, "geometry": { "type": "MultiPolygon", "coordinates": [ [ [ [ 70.0034712, -68.3679317 ], [ 70.0, -68.3740226 ], [ 70.0, -68.3666915 ], [ 70.0034712, -68.3679317 ] ] ], [ [ [ 70.0020168, -68.3945166 ], [ 70.0152507, -68.4017149 ], [ 70.0305182, -68.4033011 ], [ 70.042041, -68.4060289 ], [ 70.0498065, -68.4096195 ], [ 70.0501561, -68.4171754 ], [ 70.0543076, -68.4247074 ], [ 70.0705918, -68.4313223 ], [ 70.0715507, -68.4355151 ], [ 70.0667002, -68.4456236 ], [ 70.072279, -68.4509066 ], [ 70.0733852, -68.4581777 ], [ 70.0775521, -68.4657091 ], [ 70.0759911, -68.4688621 ], [ 70.0763186, -68.4693102 ], [ 70.0773262, -68.4708682 ], [ 70.0774757, -68.4711294 ], [ 70.0775745, -68.4713932 ], [ 70.0775791, -68.4717931 ], [ 70.0773866, -68.4733929 ], [ 70.0774095, -68.4756619 ], [ 70.0773686, -68.4763282 ], [ 70.0773317, -68.4765869 ], [ 70.0820831, -68.4750792 ], [ 70.0855216, -68.4745051 ], [ 70.0912233, -68.4742268 ], [ 70.0996832, -68.4741261 ], [ 70.1166796, -68.4737797 ], [ 70.1358783, -68.4732729 ], [ 70.1477343, -68.4733416 ], [ 70.1499382, -68.4733785 ], [ 70.1524649, -68.4734014 ], [ 70.1551674, -68.4734286 ], [ 70.1580085, -68.4734459 ], [ 70.1608952, -68.4734691 ], [ 70.1637136, -68.4734831 ], [ 70.1664098, -68.4734905 ], [ 70.1688845, -68.4734873 ], [ 70.1740462, -68.4736319 ], [ 70.1801001, -68.4740741 ], [ 70.1870318, -68.4748023 ], [ 70.194788, -68.4758188 ], [ 70.2033317, -68.4771091 ], [ 70.2126324, -68.4786784 ], [ 70.2226761, -68.4805153 ], [ 70.2334406, -68.4826165 ], [ 70.2395801, -68.4839461 ], [ 70.2444245, -68.4852843 ], [ 70.2481599, -68.4868352 ], [ 70.2510249, -68.488829 ], [ 70.2532599, -68.4914673 ], [ 70.2551199, -68.4949635 ], [ 70.2568064, -68.4995332 ], [ 70.2585975, -68.5053924 ], [ 70.2607738, -68.5114914 ], [ 70.2639134, -68.5182935 ], [ 70.2677773, -68.5254646 ], [ 70.2721648, -68.5326571 ], [ 70.276867, -68.5395313 ], [ 70.2816511, -68.5457448 ], [ 70.2862839, -68.5509553 ], [ 70.2905463, -68.5548314 ], [ 70.2912234, -68.5554589 ], [ 70.2924028, -68.5566814 ], [ 70.294034, -68.5584452 ], [ 70.2960374, -68.5606734 ], [ 70.2983643, -68.5632842 ], [ 70.3009497, -68.5662123 ], [ 70.3037137, -68.569381 ], [ 70.3066075, -68.5727084 ], [ 70.312322, -68.5797311 ], [ 70.3171284, -68.5864172 ], [ 70.3209423, -68.5926142 ], [ 70.3236938, -68.5981807 ], [ 70.3253296, -68.6029588 ], [ 70.3257733, -68.6067874 ], [ 70.3249557, -68.6095252 ], [ 70.3228469, -68.6110172 ], [ 70.3220444, -68.6115457 ], [ 70.3217974, -68.6124585 ], [ 70.3220616, -68.6137216 ], [ 70.3227946, -68.6152727 ], [ 70.3239688, -68.6170609 ], [ 70.3255711, -68.6190467 ], [ 70.3275591, -68.6211679 ], [ 70.3299282, -68.6233764 ], [ 70.3323437, -68.625591 ], [ 70.3345234, -68.6277558 ], [ 70.3364016, -68.6298056 ], [ 70.3379356, -68.6316783 ], [ 70.3391432, -68.6333288 ], [ 70.3398963, -68.6347027 ], [ 70.3402128, -68.6357551 ], [ 70.3400271, -68.6364208 ], [ 70.3395323, -68.6384071 ], [ 70.3408321, -68.641128 ], [ 70.343543, -68.6442878 ], [ 70.3473423, -68.647608 ], [ 70.3518378, -68.6508012 ], [ 70.3566515, -68.6535914 ], [ 70.3614677, -68.6556918 ], [ 70.365901, -68.6568067 ], [ 70.3685673, -68.6573421 ], [ 70.3709745, -68.6582218 ], [ 70.3731834, -68.6594631 ], [ 70.3752025, -68.6610577 ], [ 70.376984, -68.6630277 ], [ 70.3785593, -68.6653677 ], [ 70.3799431, -68.6680891 ], [ 70.3811438, -68.6711836 ], [ 70.3832998, -68.6766697 ], [ 70.3859297, -68.6815936 ], [ 70.3889498, -68.6859349 ], [ 70.3923467, -68.6896539 ], [ 70.3961137, -68.6927309 ], [ 70.4001978, -68.6951402 ], [ 70.4045626, -68.6968391 ], [ 70.4091859, -68.6977965 ], [ 70.411398, -68.6979788 ], [ 70.4141731, -68.6980639 ], [ 70.4174336, -68.6980511 ], [ 70.4210478, -68.6979422 ], [ 70.4248987, -68.6977505 ], [ 70.4288629, -68.6974695 ], [ 70.4328464, -68.6971153 ], [ 70.4367406, -68.6966927 ], [ 70.4405424, -68.6962582 ], [ 70.4443179, -68.6958769 ], [ 70.4479585, -68.6955536 ], [ 70.4513474, -68.6953017 ], [ 70.4544074, -68.6951206 ], [ 70.4570446, -68.6950266 ], [ 70.4591274, -68.6950215 ], [ 70.4606015, -68.6951079 ], [ 70.4660031, -68.6952949 ], [ 70.4724463, -68.6948132 ], [ 70.4794915, -68.6937668 ], [ 70.4866828, -68.6922762 ], [ 70.493543, -68.6904312 ], [ 70.4996317, -68.6883639 ], [ 70.5044492, -68.6861611 ], [ 70.5075871, -68.6839498 ], [ 70.5092341, -68.6824434 ], [ 70.511016, -68.6811717 ], [ 70.5129477, -68.6801458 ], [ 70.5150999, -68.6793466 ], [ 70.5174347, -68.6787597 ], [ 70.5200606, -68.6783802 ], [ 70.5229316, -68.6782022 ], [ 70.5261414, -68.6782093 ], [ 70.5310238, -68.6783372 ], [ 70.5346745, -68.6783442 ], [ 70.5372293, -68.6781442 ], [ 70.53876, -68.6776897 ], [ 70.5394174, -68.6769057 ], [ 70.5393209, -68.6757228 ], [ 70.5385507, -68.674085 ], [ 70.537289, -68.671912 ], [ 70.5364048, -68.6694571 ], [ 70.5371933, -68.6675762 ], [ 70.5397018, -68.666247 ], [ 70.5440072, -68.66547 ], [ 70.5501953, -68.6652369 ], [ 70.5583599, -68.6655315 ], [ 70.5685709, -68.6663622 ], [ 70.5808998, -68.6677093 ], [ 70.5894749, -68.6686776 ], [ 70.5967105, -68.6693697 ], [ 70.602815, -68.6697844 ], [ 70.60802, -68.6699231 ], [ 70.6125884, -68.6697819 ], [ 70.6167057, -68.6693564 ], [ 70.6206186, -68.6686593 ], [ 70.624544, -68.6676807 ], [ 70.6275694, -68.6669359 ], [ 70.6306114, -68.6663347 ], [ 70.6336457, -68.6659023 ], [ 70.636595, -68.6656382 ], [ 70.6394365, -68.6655396 ], [ 70.6421158, -68.6656088 ], [ 70.644579, -68.6658484 ], [ 70.6468098, -68.6662752 ], [ 70.6514392, -68.6670087 ], [ 70.6567211, -68.6671463 ], [ 70.6624451, -68.6667176 ], [ 70.6684617, -68.6657696 ], [ 70.6745605, -68.664332 ], [ 70.6805541, -68.6624377 ], [ 70.6862704, -68.6601306 ], [ 70.6914991, -68.6574406 ], [ 70.7007998, -68.6519131 ], [ 70.7090018, -68.6466889 ], [ 70.7161365, -68.6417907 ], [ 70.7221275, -68.6372182 ], [ 70.727029, -68.6329972 ], [ 70.7308039, -68.6291136 ], [ 70.7334288, -68.6255925 ], [ 70.7349195, -68.6224454 ], [ 70.7359099, -68.6200358 ], [ 70.7374054, -68.617719 ], [ 70.7395014, -68.6154222 ], [ 70.7423159, -68.6130758 ], [ 70.7459292, -68.6105955 ], [ 70.7504281, -68.6079172 ], [ 70.7559306, -68.6049709 ], [ 70.7625081, -68.6016811 ], [ 70.776606, -68.5948634 ], [ 70.7878731, -68.58957 ], [ 70.7969225, -68.585596 ], [ 70.804311, -68.5827392 ], [ 70.8106334, -68.580783 ], [ 70.8164828, -68.5795392 ], [ 70.8224523, -68.5787909 ], [ 70.8291273, -68.5783299 ], [ 70.8329694, -68.5780834 ], [ 70.8368304, -68.5777356 ], [ 70.8405862, -68.5773084 ], [ 70.8441359, -68.5768267 ], [ 70.8473565, -68.5762843 ], [ 70.8501852, -68.5757204 ], [ 70.85246, -68.5751426 ], [ 70.85415, -68.5745565 ], [ 70.85745, -68.5734684 ], [ 70.8611034, -68.5728489 ], [ 70.8649722, -68.5726805 ], [ 70.868934, -68.5729571 ], [ 70.872859, -68.5736526 ], [ 70.8765934, -68.5747665 ], [ 70.8800235, -68.576256 ], [ 70.8830104, -68.5781319 ], [ 70.8844134, -68.5790159 ], [ 70.8861935, -68.5799101 ], [ 70.8882904, -68.5807689 ], [ 70.8906504, -68.5815952 ], [ 70.8931823, -68.5823489 ], [ 70.8958099, -68.5830018 ], [ 70.8984643, -68.5835449 ], [ 70.9010693, -68.5839499 ], [ 70.9042125, -68.5846301 ], [ 70.9081134, -68.5859522 ], [ 70.9126513, -68.5878537 ], [ 70.9177285, -68.5902752 ], [ 70.9232242, -68.593154 ], [ 70.9289867, -68.5964334 ], [ 70.9349408, -68.6000567 ], [ 70.9409427, -68.6039585 ], [ 70.9470914, -68.6079255 ], [ 70.9534547, -68.6117496 ], [ 70.9598579, -68.6153429 ], [ 70.9662022, -68.6186458 ], [ 70.9723505, -68.6215847 ], [ 70.9781347, -68.6240915 ], [ 70.9834174, -68.6260924 ], [ 70.9880533, -68.6275223 ], [ 70.9988595, -68.6307813 ], [ 71.0093497, -68.6347335 ], [ 71.0191294, -68.6391414 ], [ 71.0277875, -68.6437841 ], [ 71.0349894, -68.6484412 ], [ 71.0402922, -68.6528693 ], [ 71.0433369, -68.6568452 ], [ 71.0437334, -68.6601508 ], [ 71.0433884, -68.6615851 ], [ 71.0433331, -68.663178 ], [ 71.0435227, -68.6648674 ], [ 71.0439581, -68.6666252 ], [ 71.0446333, -68.6683754 ], [ 71.045534, -68.6700784 ], [ 71.0466075, -68.6716807 ], [ 71.0478631, -68.6731175 ], [ 71.0500836, -68.6752584 ], [ 71.0520705, -68.6768524 ], [ 71.0541858, -68.6779542 ], [ 71.0568768, -68.6786103 ], [ 71.0604818, -68.6789005 ], [ 71.065425, -68.6788684 ], [ 71.0720683, -68.6785685 ], [ 71.080789, -68.6780664 ], [ 71.0889527, -68.6775509 ], [ 71.095369, -68.6769959 ], [ 71.1003103, -68.6763323 ], [ 71.1040725, -68.6754651 ], [ 71.1069596, -68.6742914 ], [ 71.1092596, -68.6727246 ], [ 71.1112835, -68.6706814 ], [ 71.113335, -68.6680584 ], [ 71.1150319, -68.6660874 ], [ 71.1175024, -68.6637048 ], [ 71.120613, -68.6609976 ], [ 71.1242605, -68.6580751 ], [ 71.1282961, -68.6550128 ], [ 71.132656, -68.6519064 ], [ 71.1371988, -68.6488511 ], [ 71.1417995, -68.6459252 ], [ 71.1464992, -68.6430024 ], [ 71.1513778, -68.639942 ], [ 71.1563023, -68.6368309 ], [ 71.1610548, -68.6337643 ], [ 71.1655795, -68.6308293 ], [ 71.1697129, -68.6281183 ], [ 71.1732606, -68.6257295 ], [ 71.1761521, -68.6237386 ], [ 71.1801983, -68.6210075 ], [ 71.1839698, -68.6189004 ], [ 71.1881092, -68.6173091 ], [ 71.1932354, -68.6161225 ], [ 71.2000063, -68.6152154 ], [ 71.2090559, -68.6144876 ], [ 71.2210568, -68.6138249 ], [ 71.2365813, -68.6131096 ], [ 71.2498194, -68.6126077 ], [ 71.2622752, -68.6123086 ], [ 71.2743268, -68.6122216 ], [ 71.2862442, -68.6123614 ], [ 71.2983824, -68.6127343 ], [ 71.311081, -68.613335 ], [ 71.3246796, -68.6141866 ], [ 71.3394719, -68.6152779 ], [ 71.3532705, -68.6164143 ], [ 71.3670706, -68.6175495 ], [ 71.3897329, -68.6196505 ], [ 71.4081502, -68.6216962 ], [ 71.42303, -68.6238125 ], [ 71.4350417, -68.6261108 ], [ 71.4449095, -68.6286993 ], [ 71.4533113, -68.6317083 ], [ 71.4609566, -68.6352342 ], [ 71.4700573, -68.6400918 ], [ 71.4767558, -68.6443172 ], [ 71.4811568, -68.6482428 ], [ 71.4833116, -68.6521475 ], [ 71.4832874, -68.6563495 ], [ 71.4812053, -68.661164 ], [ 71.4771087, -68.666878 ], [ 71.4711022, -68.6738238 ], [ 71.466197, -68.6793177 ], [ 71.4625398, -68.6837908 ], [ 71.4600536, -68.6874398 ], [ 71.4586917, -68.6904845 ], [ 71.4583531, -68.693147 ], [ 71.4590215, -68.6956414 ], [ 71.4605877, -68.6981983 ], [ 71.463028, -68.7010119 ], [ 71.4659486, -68.7039215 ], [ 71.4692594, -68.7063528 ], [ 71.4736487, -68.7085398 ], [ 71.4799213, -68.7107024 ], [ 71.4888207, -68.7130715 ], [ 71.5010911, -68.7158778 ], [ 71.5175478, -68.719332 ], [ 71.5389227, -68.7236806 ], [ 71.5596167, -68.7278208 ], [ 71.5768911, -68.731131 ], [ 71.5917506, -68.7337529 ], [ 71.6052479, -68.7358614 ], [ 71.6184444, -68.7375945 ], [ 71.6323871, -68.7391065 ], [ 71.6481312, -68.7405432 ], [ 71.6667017, -68.7420554 ], [ 71.6795386, -68.7430545 ], [ 71.6928966, -68.7440492 ], [ 71.7064187, -68.7450343 ], [ 71.7196856, -68.7459594 ], [ 71.7323169, -68.7468164 ], [ 71.7439084, -68.7475666 ], [ 71.7540873, -68.7481939 ], [ 71.7624184, -68.7486651 ], [ 71.7702837, -68.7490802 ], [ 71.7789803, -68.7495472 ], [ 71.7882674, -68.7500468 ], [ 71.7978577, -68.7505537 ], [ 71.8074332, -68.7510771 ], [ 71.8167216, -68.7515749 ], [ 71.8254126, -68.7520479 ], [ 71.8332575, -68.7524852 ], [ 71.8497574, -68.7533113 ], [ 71.8662586, -68.7541356 ], [ 71.8827612, -68.7549582 ], [ 71.8995346, -68.7556424 ], [ 71.916309, -68.7563249 ], [ 71.9330846, -68.7570056 ], [ 71.9495351, -68.7575398 ], [ 71.9659864, -68.7580723 ], [ 71.9824386, -68.7586031 ], [ 72.0057585, -68.7591564 ], [ 72.0290796, -68.7597062 ], [ 72.0501907, -68.7599976 ], [ 72.0713024, -68.7602861 ], [ 72.0893136, -68.760302 ], [ 72.1073247, -68.7603158 ], [ 72.1213799, -68.7600473 ], [ 72.1354347, -68.7597776 ], [ 72.1538669, -68.7586288 ], [ 72.1572198, -68.7583094 ], [ 72.1608621, -68.7580705 ], [ 72.1646388, -68.7579126 ], [ 72.1684487, -68.7578333 ], [ 72.1722067, -68.7578414 ], [ 72.1757419, -68.7579264 ], [ 72.1789924, -68.7580996 ], [ 72.181834, -68.758356 ], [ 72.1847065, -68.7586066 ], [ 72.1880574, -68.7587539 ], [ 72.1917781, -68.758804 ], [ 72.1957367, -68.75876 ], [ 72.1998321, -68.7586198 ], [ 72.2039323, -68.7583864 ], [ 72.2078979, -68.7580719 ], [ 72.2116279, -68.7576738 ], [ 72.215457, -68.7572217 ], [ 72.2197901, -68.7567533 ], [ 72.2244493, -68.7562947 ], [ 72.2292795, -68.7558465 ], [ 72.2341412, -68.7554205 ], [ 72.2388877, -68.7550371 ], [ 72.2433796, -68.7547082 ], [ 72.2474468, -68.7544514 ], [ 72.2554621, -68.7538675 ], [ 72.2637873, -68.7530482 ], [ 72.2719743, -68.7520629 ], [ 72.279675, -68.7509556 ], [ 72.2865119, -68.7498039 ], [ 72.2920991, -68.7486662 ], [ 72.2960423, -68.7475809 ], [ 72.2979568, -68.7466345 ], [ 72.2987103, -68.7462171 ], [ 72.3003888, -68.7456265 ], [ 72.302853, -68.7448745 ], [ 72.3060495, -68.7439924 ], [ 72.3097932, -68.7430147 ], [ 72.3140616, -68.7419669 ], [ 72.3187079, -68.7408692 ], [ 72.3235939, -68.7397619 ], [ 72.3291457, -68.7384231 ], [ 72.3356277, -68.7366686 ], [ 72.3427705, -68.7345698 ], [ 72.3503516, -68.732204 ], [ 72.3581794, -68.7296422 ], [ 72.3659542, -68.7269621 ], [ 72.3734849, -68.7242351 ], [ 72.3805423, -68.7215467 ], [ 72.3905951, -68.7176346 ], [ 72.3988051, -68.7146213 ], [ 72.4055962, -68.7124062 ], [ 72.4114766, -68.7108799 ], [ 72.4169156, -68.7099469 ], [ 72.4223897, -68.7095034 ], [ 72.4283446, -68.7094512 ], [ 72.4352874, -68.7096804 ], [ 72.4441617, -68.709786 ], [ 72.4531609, -68.709364 ], [ 72.4620997, -68.7084491 ], [ 72.4707933, -68.7070762 ], [ 72.4790185, -68.7052945 ], [ 72.4865441, -68.7031336 ], [ 72.4932088, -68.7006312 ], [ 72.4987978, -68.697828 ], [ 72.5012743, -68.6966 ], [ 72.5042891, -68.6956389 ], [ 72.5081049, -68.6949377 ], [ 72.5129454, -68.6944751 ], [ 72.5191423, -68.6942237 ], [ 72.5269045, -68.6941794 ], [ 72.5365639, -68.6943143 ], [ 72.5483296, -68.6946242 ], [ 72.5578747, -68.69495 ], [ 72.5689046, -68.6953981 ], [ 72.58104, -68.6959622 ], [ 72.5938768, -68.6966052 ], [ 72.6070429, -68.6973126 ], [ 72.6201119, -68.698073 ], [ 72.6327029, -68.6988525 ], [ 72.6444199, -68.6996342 ], [ 72.6562168, -68.7004426 ], [ 72.6690326, -68.701319 ], [ 72.6824397, -68.702224 ], [ 72.6960189, -68.7031378 ], [ 72.7093961, -68.7040182 ], [ 72.7221681, -68.7048569 ], [ 72.733883, -68.7056123 ], [ 72.7441447, -68.7062678 ], [ 72.7540738, -68.7069225 ], [ 72.7647933, -68.7077028 ], [ 72.7759598, -68.7085606 ], [ 72.7872474, -68.7094871 ], [ 72.7983288, -68.7104454 ], [ 72.8088457, -68.7114045 ], [ 72.8184631, -68.7123363 ], [ 72.8268153, -68.7132186 ], [ 72.8354402, -68.7141123 ], [ 72.8433962, -68.7148279 ], [ 72.8506127, -68.7153577 ], [ 72.8570825, -68.7157103 ], [ 72.8627655, -68.715872 ], [ 72.8676311, -68.7158487 ], [ 72.8716088, -68.7156328 ], [ 72.8746752, -68.7152216 ], [ 72.8770281, -68.714805 ], [ 72.8795287, -68.7143957 ], [ 72.882148, -68.7140275 ], [ 72.8847689, -68.7136874 ], [ 72.8873304, -68.7133871 ], [ 72.8897332, -68.713153 ], [ 72.8919307, -68.7129796 ], [ 72.8938309, -68.7128848 ], [ 72.8959472, -68.7127768 ], [ 72.8975088, -68.7125975 ], [ 72.8985066, -68.7123272 ], [ 72.8989784, -68.7119516 ], [ 72.8989009, -68.7114679 ], [ 72.8982724, -68.7108481 ], [ 72.8971396, -68.7100975 ], [ 72.8954702, -68.7091937 ], [ 72.8938172, -68.708301 ], [ 72.8927081, -68.7075529 ], [ 72.8921033, -68.7069357 ], [ 72.8920026, -68.7064495 ], [ 72.892451, -68.7060712 ], [ 72.8934251, -68.7057983 ], [ 72.8949394, -68.7056138 ], [ 72.8970082, -68.7055006 ], [ 72.8987114, -68.7053651 ], [ 72.900474, -68.7050686 ], [ 72.9021898, -68.7046458 ], [ 72.903828, -68.7041026 ], [ 72.9053508, -68.7034533 ], [ 72.9067133, -68.7027209 ], [ 72.9078633, -68.7019368 ], [ 72.9087305, -68.7010932 ], [ 72.9096679, -68.7002574 ], [ 72.911003, -68.699466 ], [ 72.9126368, -68.6987454 ], [ 72.9145622, -68.6981038 ], [ 72.9166639, -68.6975565 ], [ 72.9189366, -68.6971399 ], [ 72.9212795, -68.6968523 ], [ 72.9236406, -68.696725 ], [ 72.9288685, -68.696508 ], [ 72.9335092, -68.6960764 ], [ 72.9376166, -68.6954269 ], [ 72.9412122, -68.694534 ], [ 72.9443426, -68.6934029 ], [ 72.94706, -68.6920022 ], [ 72.9493806, -68.6903432 ], [ 72.9513564, -68.6883943 ], [ 72.9528211, -68.6871425 ], [ 72.9555071, -68.6852916 ], [ 72.9592505, -68.6829441 ], [ 72.9639088, -68.6801774 ], [ 72.9693183, -68.6770941 ], [ 72.9753202, -68.6737604 ], [ 72.9817978, -68.6702842 ], [ 72.9885551, -68.6667462 ], [ 72.9956219, -68.6630193 ], [ 73.0029433, -68.6589856 ], [ 73.0103111, -68.6547711 ], [ 73.0175034, -68.6505184 ], [ 73.0243036, -68.6463338 ], [ 73.030537, -68.6423654 ], [ 73.0359501, -68.6387339 ], [ 73.0403363, -68.6355651 ], [ 73.0443422, -68.6326052 ], [ 73.0486678, -68.6295972 ], [ 73.0531555, -68.6266073 ], [ 73.0576733, -68.6237324 ], [ 73.0620801, -68.6210499 ], [ 73.0662586, -68.6186397 ], [ 73.0700537, -68.6165962 ], [ 73.073348, -68.6149994 ], [ 73.0764938, -68.6134884 ], [ 73.0799128, -68.6117101 ], [ 73.083462, -68.6097137 ], [ 73.0870773, -68.6075759 ], [ 73.0906015, -68.6053628 ], [ 73.0939618, -68.6031316 ], [ 73.0970407, -68.6009622 ], [ 73.0997188, -68.5989064 ], [ 73.102431, -68.596901 ], [ 73.1056025, -68.5948628 ], [ 73.1091301, -68.5928549 ], [ 73.1128943, -68.5909289 ], [ 73.1167451, -68.5891428 ], [ 73.12061, -68.5875535 ], [ 73.1243695, -68.5862129 ], [ 73.1278741, -68.5851787 ], [ 73.1330428, -68.5839477 ], [ 73.1377836, -68.5830782 ], [ 73.1425353, -68.5825632 ], [ 73.1477995, -68.5824116 ], [ 73.1540007, -68.5826332 ], [ 73.1616315, -68.5832171 ], [ 73.1711096, -68.5841815 ], [ 73.1829279, -68.5855153 ], [ 73.1989002, -68.587641 ], [ 73.2149109, -68.590308 ], [ 73.2305579, -68.5933883 ], [ 73.245357, -68.5967916 ], [ 73.2589609, -68.6004147 ], [ 73.2708816, -68.6041395 ], [ 73.2807404, -68.6078692 ], [ 73.2880645, -68.6114967 ], [ 73.2948681, -68.6145835 ], [ 73.3041496, -68.6173836 ], [ 73.3152462, -68.6198054 ], [ 73.3274802, -68.6217745 ], [ 73.3402177, -68.6231936 ], [ 73.3527779, -68.6239605 ], [ 73.3644745, -68.6240099 ], [ 73.374687, -68.623228 ], [ 73.3794161, -68.6226751 ], [ 73.3838349, -68.6222833 ], [ 73.387953, -68.6220722 ], [ 73.3917773, -68.6220334 ], [ 73.3953384, -68.6221609 ], [ 73.3986059, -68.6224606 ], [ 73.4016571, -68.6229317 ], [ 73.4044383, -68.6235777 ], [ 73.4070207, -68.6241556 ], [ 73.4102852, -68.6246776 ], [ 73.4141314, -68.625142 ], [ 73.418419, -68.6255335 ], [ 73.4230077, -68.6258369 ], [ 73.4277665, -68.6260564 ], [ 73.4325388, -68.6261658 ], [ 73.437224, -68.6261636 ], [ 73.4424654, -68.6261657 ], [ 73.4479836, -68.6263277 ], [ 73.4536523, -68.6266172 ], [ 73.4594276, -68.6270573 ], [ 73.4651899, -68.6276071 ], [ 73.4708718, -68.6282873 ], [ 73.4763634, -68.6290765 ], [ 73.4815711, -68.6299648 ], [ 73.4868658, -68.6308715 ], [ 73.4933985, -68.631884 ], [ 73.5009657, -68.6329707 ], [ 73.5092774, -68.6340817 ], [ 73.5180995, -68.6351915 ], [ 73.5271444, -68.6362784 ], [ 73.536152, -68.6372864 ], [ 73.5448811, -68.6381988 ], [ 73.5626897, -68.6401895 ], [ 73.5780612, -68.6424264 ], [ 73.5915451, -68.6450804 ], [ 73.6036113, -68.6482953 ], [ 73.6148033, -68.6522501 ], [ 73.6256458, -68.6570847 ], [ 73.6366436, -68.6629643 ], [ 73.6483258, -68.6700566 ], [ 73.6534399, -68.6732277 ], [ 73.6588343, -68.6764006 ], [ 73.6643529, -68.6794844 ], [ 73.6698189, -68.6824139 ], [ 73.6750592, -68.6850871 ], [ 73.6799269, -68.6874328 ], [ 73.6842722, -68.6893517 ], [ 73.6879011, -68.6907674 ], [ 73.6963791, -68.6940809 ], [ 73.705077, -68.6980754 ], [ 73.7136494, -68.7025473 ], [ 73.7217403, -68.7072733 ], [ 73.7290431, -68.7120634 ], [ 73.7351839, -68.7166833 ], [ 73.7398316, -68.7209406 ], [ 73.7426681, -68.7246256 ], [ 73.7439951, -68.72663 ], [ 73.74579, -68.7284335 ], [ 73.7481197, -68.7300803 ], [ 73.7510882, -68.7315999 ], [ 73.7547623, -68.7330364 ], [ 73.759256, -68.7344389 ], [ 73.7646734, -68.7358369 ], [ 73.7710511, -68.7372804 ], [ 73.7770901, -68.7386693 ], [ 73.7827103, -68.7401991 ], [ 73.7879587, -68.7418748 ], [ 73.7928521, -68.7437075 ], [ 73.7973906, -68.7456972 ], [ 73.8016311, -68.7478686 ], [ 73.8055569, -68.7502105 ], [ 73.8092015, -68.7527452 ], [ 73.8159936, -68.7575763 ], [ 73.8223845, -68.7614748 ], [ 73.8289718, -68.7645869 ], [ 73.8363669, -68.7671068 ], [ 73.8451785, -68.7692002 ], [ 73.8560158, -68.7710327 ], [ 73.8694509, -68.7727844 ], [ 73.8861007, -68.7746119 ], [ 73.8957789, -68.7756895 ], [ 73.9054672, -68.7769158 ], [ 73.9149973, -68.7782454 ], [ 73.9241971, -68.7796695 ], [ 73.9328983, -68.7811428 ], [ 73.9408949, -68.7826347 ], [ 73.9480451, -68.7841305 ], [ 73.9541429, -68.7855997 ], [ 73.9619949, -68.7876958 ], [ 73.9679516, -68.7894738 ], [ 73.972275, -68.7911187 ], [ 73.9751801, -68.7928104 ], [ 73.9768822, -68.794729 ], [ 73.9776202, -68.7970569 ], [ 73.9776398, -68.7999678 ], [ 73.9771327, -68.8036392 ], [ 73.9764748, -68.8091618 ], [ 73.9758166, -68.8146845 ], [ 73.9758398, -68.8192358 ], [ 73.9758631, -68.8237872 ], [ 73.977571, -68.8312189 ], [ 73.9811234, -68.8372669 ], [ 73.9867708, -68.8421978 ], [ 73.9947501, -68.8462952 ], [ 74.0053049, -68.849834 ], [ 74.0186386, -68.8530756 ], [ 74.0359157, -68.8579179 ], [ 74.0447516, -68.8614376 ], [ 74.0535905, -68.8649567 ], [ 74.0624142, -68.8694229 ], [ 74.0712417, -68.8738887 ], [ 74.0798382, -68.8791542 ], [ 74.0884391, -68.8844193 ], [ 74.096574, -68.8903441 ], [ 74.1047135, -68.8962687 ], [ 74.1121851, -68.9027028 ], [ 74.1196613, -68.9091366 ], [ 74.1262514, -68.9159328 ], [ 74.1328459, -68.9227289 ], [ 74.1383081, -68.929742 ], [ 74.1437741, -68.9367551 ], [ 74.1485202, -68.9431572 ], [ 74.1532692, -68.9495592 ], [ 74.1580212, -68.9559613 ], [ 74.1634452, -68.9624191 ], [ 74.1688725, -68.968877 ], [ 74.1743032, -68.9753347 ], [ 74.1801315, -68.9815763 ], [ 74.1859633, -68.9878178 ], [ 74.1917987, -68.9940592 ], [ 74.197723, -68.9998216 ], [ 74.2036506, -69.0055838 ], [ 74.2095815, -69.0113458 ], [ 74.2182121, -69.0188593 ], [ 74.2268491, -69.0263726 ], [ 74.2347459, -69.0323564 ], [ 74.2426473, -69.0383399 ], [ 74.2493945, -69.0423961 ], [ 74.2561445, -69.0464521 ], [ 74.2664191, -69.0498955 ], [ 74.2718701, -69.0523706 ], [ 74.2826915, -69.0586447 ], [ 74.2899549, -69.063148 ], [ 74.2972214, -69.0676511 ], [ 74.3055663, -69.0729931 ], [ 74.3139155, -69.0783348 ], [ 74.3225011, -69.083991 ], [ 74.3310914, -69.0896469 ], [ 74.3391161, -69.0950879 ], [ 74.3471451, -69.1005286 ], [ 74.3537955, -69.1052199 ], [ 74.360449, -69.109911 ], [ 74.3693433, -69.1167597 ], [ 74.3720208, -69.1188039 ], [ 74.3755307, -69.1211439 ], [ 74.3797174, -69.1236809 ], [ 74.3844463, -69.126355 ], [ 74.3895309, -69.1290735 ], [ 74.3948806, -69.1317534 ], [ 74.4003017, -69.1343106 ], [ 74.4056419, -69.1366743 ], [ 74.4112092, -69.1391806 ], [ 74.4171539, -69.1421683 ], [ 74.4233165, -69.1455104 ], [ 74.4295408, -69.1491081 ], [ 74.4355807, -69.1528444 ], [ 74.4413107, -69.1566143 ], [ 74.4465148, -69.1602947 ], [ 74.4510053, -69.163793 ], [ 74.4588372, -69.1700369 ], [ 74.4672357, -69.1763268 ], [ 74.4763975, -69.1828116 ], [ 74.4866228, -69.1896409 ], [ 74.4981093, -69.1969635 ], [ 74.5046021, -69.2009525 ], [ 74.5110974, -69.2049413 ], [ 74.5184679, -69.2093303 ], [ 74.5258416, -69.213719 ], [ 74.5341989, -69.2185877 ], [ 74.5425602, -69.223456 ], [ 74.5501274, -69.2279265 ], [ 74.5562069, -69.2318343 ], [ 74.5610119, -69.2353393 ], [ 74.5646241, -69.23857 ], [ 74.5672331, -69.2416837 ], [ 74.568963, -69.2448223 ], [ 74.5699553, -69.2481384 ], [ 74.570341, -69.2517651 ], [ 74.570666, -69.254498 ], [ 74.5713908, -69.2574549 ], [ 74.5724611, -69.2605382 ], [ 74.5738647, -69.2636632 ], [ 74.5755055, -69.266719 ], [ 74.5773952, -69.2696233 ], [ 74.5794554, -69.2722759 ], [ 74.5816491, -69.27459 ], [ 74.5838416, -69.2768392 ], [ 74.5859225, -69.2792994 ], [ 74.5878658, -69.2819034 ], [ 74.5896171, -69.2845533 ], [ 74.5911017, -69.2871772 ], [ 74.5923002, -69.2896992 ], [ 74.5931445, -69.2920385 ], [ 74.5936219, -69.2941109 ], [ 74.5945597, -69.2996877 ], [ 74.5960169, -69.3044642 ], [ 74.5980661, -69.308549 ], [ 74.6007685, -69.3120314 ], [ 74.6042234, -69.3149856 ], [ 74.608545, -69.3175338 ], [ 74.613784, -69.3197455 ], [ 74.6200746, -69.3217169 ], [ 74.6272986, -69.3240377 ], [ 74.6335283, -69.3266962 ], [ 74.6387023, -69.3296033 ], [ 74.6427452, -69.3326871 ], [ 74.6455088, -69.3358686 ], [ 74.6469728, -69.339072 ], [ 74.647002, -69.342201 ], [ 74.645545, -69.345186 ], [ 74.6441865, -69.3483471 ], [ 74.6454955, -69.3512119 ], [ 74.6497741, -69.3538648 ], [ 74.6572272, -69.3563809 ], [ 74.6682257, -69.3588234 ], [ 74.6829923, -69.3612775 ], [ 74.7018432, -69.3638096 ], [ 74.7250508, -69.3665092 ], [ 74.7373301, -69.3678855 ], [ 74.7489921, -69.3692477 ], [ 74.7597993, -69.3705637 ], [ 74.7694408, -69.3717947 ], [ 74.777672, -69.3729175 ], [ 74.7841951, -69.3738759 ], [ 74.7887657, -69.3746469 ], [ 74.791097, -69.3751939 ], [ 74.7930842, -69.3756432 ], [ 74.796634, -69.3761404 ], [ 74.8015755, -69.3766692 ], [ 74.8076957, -69.3771997 ], [ 74.8147618, -69.3777281 ], [ 74.8226337, -69.3782315 ], [ 74.8310786, -69.378706 ], [ 74.8399077, -69.3791243 ], [ 74.8573984, -69.3800082 ], [ 74.8708096, -69.3810834 ], [ 74.8804642, -69.3825113 ], [ 74.8867026, -69.3844634 ], [ 74.8898898, -69.3871136 ], [ 74.8903303, -69.3906112 ], [ 74.8883993, -69.3951492 ], [ 74.8844005, -69.4008767 ], [ 74.8805456, -69.4068583 ], [ 74.8770257, -69.4106972 ], [ 74.867024, -69.4172281 ], [ 74.8567034, -69.4237839 ], [ 74.8433297, -69.4318321 ], [ 74.8241219, -69.4464129 ], [ 74.7707672, -69.4837008 ], [ 74.7550957, -69.4939052 ], [ 74.7296899, -69.5028032 ], [ 74.6919244, -69.5097748 ], [ 74.6253197, -69.5121782 ], [ 74.5346825, -69.5148217 ], [ 74.4721978, -69.5143411 ], [ 74.4138329, -69.5155426 ], [ 74.3225091, -69.5256326 ], [ 74.2725796, -69.5293622 ], [ 74.2665421, -69.5297219 ], [ 74.2596471, -69.52983 ], [ 74.2515905, -69.5297026 ], [ 74.2421378, -69.5293349 ], [ 74.2309781, -69.5287516 ], [ 74.2120502, -69.5280109 ], [ 74.1923294, -69.527857 ], [ 74.1723671, -69.5282612 ], [ 74.1528267, -69.5291873 ], [ 74.1342741, -69.53059 ], [ 74.1173176, -69.5324373 ], [ 74.1025413, -69.5346954 ], [ 74.0906178, -69.5373206 ], [ 74.0861912, -69.5385866 ], [ 74.0813018, -69.5400941 ], [ 74.0760966, -69.5417927 ], [ 74.0707293, -69.5436235 ], [ 74.0653716, -69.5455388 ], [ 74.0602092, -69.5474735 ], [ 74.0553719, -69.5493664 ], [ 74.0510069, -69.5511673 ], [ 74.0434145, -69.5543813 ], [ 74.0368655, -69.5568362 ], [ 74.0302806, -69.5586841 ], [ 74.0226359, -69.560073 ], [ 74.0128684, -69.5611656 ], [ 73.9998555, -69.5620996 ], [ 73.9825895, -69.5630333 ], [ 73.959964, -69.5641141 ], [ 73.930902, -69.5656775 ], [ 73.9056899, -69.5674942 ], [ 73.8837794, -69.5696502 ], [ 73.8646958, -69.5722382 ], [ 73.8478804, -69.5753233 ], [ 73.832826, -69.5790038 ], [ 73.8190471, -69.5833517 ], [ 73.7689262, -69.6013103 ], [ 73.7176247, -69.6201786 ], [ 73.715872, -69.6238956 ], [ 73.7042954, -69.6256754 ], [ 73.6987667, -69.628565 ], [ 73.6972745, -69.6315894 ], [ 73.7007184, -69.6341743 ], [ 73.7036145, -69.6368599 ], [ 73.7034037, -69.6403217 ], [ 73.7019028, -69.6410169 ], [ 73.7000615, -69.6422339 ], [ 73.6982274, -69.6433278 ], [ 73.6981144, -69.6451727 ], [ 73.6941297, -69.6467429 ], [ 73.6915201, -69.6489385 ], [ 73.6921058, -69.6509116 ], [ 73.6919773, -69.6530026 ], [ 73.6976468, -69.6585822 ], [ 73.7028074, -69.6609585 ], [ 73.7044406, -69.6631855 ], [ 73.7043204, -69.6651535 ], [ 73.7074061, -69.666776 ], [ 73.7094238, -69.6685135 ], [ 73.711464, -69.6698821 ], [ 73.7113596, -69.6716041 ], [ 73.7101862, -69.6734413 ], [ 73.7110834, -69.6761551 ], [ 73.7141785, -69.6776544 ], [ 73.7157321, -69.6812343 ], [ 73.7142419, -69.682454 ], [ 73.7094681, -69.685486 ], [ 73.7093416, -69.6873402 ], [ 73.7095084, -69.6904178 ], [ 73.7107455, -69.6933802 ], [ 73.7109651, -69.6955967 ], [ 73.7118783, -69.6980645 ], [ 73.7117811, -69.6996635 ], [ 73.7129244, -69.7018919 ], [ 73.7130487, -69.7021339 ], [ 73.7151148, -69.7031334 ], [ 73.7182069, -69.7047556 ], [ 73.7200284, -69.7098141 ], [ 73.7202343, -69.7098961 ], [ 73.7234908, -69.7111928 ], [ 73.7291914, -69.7107419 ], [ 73.7351987, -69.7112506 ], [ 73.7393379, -69.7130298 ], [ 73.7399446, -69.7147569 ], [ 73.7401893, -69.7166044 ], [ 73.7390379, -69.7180728 ], [ 73.7386027, -69.7194233 ], [ 73.7395641, -69.7211528 ], [ 73.7416406, -69.7220291 ], [ 73.7451502, -69.7226694 ], [ 73.744368, -69.7238943 ], [ 73.7428619, -69.7253603 ], [ 73.7371726, -69.7255657 ], [ 73.7311062, -69.7261373 ], [ 73.7218102, -69.7273006 ], [ 73.7157059, -69.7284867 ], [ 73.7071401, -69.7292854 ], [ 73.7049739, -69.7298848 ], [ 73.7048979, -69.7299928 ], [ 73.7034194, -69.7320883 ], [ 73.7019174, -69.7334309 ], [ 73.7047258, -69.7339437 ], [ 73.7049977, -69.7352993 ], [ 73.7038428, -69.7367674 ], [ 73.7023103, -69.738602 ], [ 73.7022275, -69.7399549 ], [ 73.705014, -69.7408369 ], [ 73.7053671, -69.7403879 ], [ 73.7053987, -69.7403477 ], [ 73.7089479, -69.7403742 ], [ 73.7110403, -69.7410048 ], [ 73.7134646, -69.7420061 ], [ 73.7137514, -69.7431167 ], [ 73.712598, -69.744584 ], [ 73.7139725, -69.7453323 ], [ 73.7127955, -69.7471696 ], [ 73.7127508, -69.7479076 ], [ 73.713778, -69.7485301 ], [ 73.7122688, -69.7499953 ], [ 73.7179049, -69.7507753 ], [ 73.7224246, -69.7524078 ], [ 73.7250276, -69.7526913 ], [ 73.730896, -69.7533304 ], [ 73.731161, -69.7533461 ], [ 73.7379767, -69.7537504 ], [ 73.7457389, -69.7546671 ], [ 73.7495293, -69.7566628 ], [ 73.7479992, -69.7584978 ], [ 73.7543135, -69.7598961 ], [ 73.7559227, -69.7599074 ], [ 73.7640449, -69.7572082 ], [ 73.7691874, -69.7551361 ], [ 73.7719805, -69.7542402 ], [ 73.7794464, -69.7526377 ], [ 73.7834923, -69.7518679 ], [ 73.788327, -69.7513851 ], [ 73.7936735, -69.7492984 ], [ 73.8036104, -69.7472126 ], [ 73.8140719, -69.7447089 ], [ 73.8260644, -69.7438487 ], [ 73.8370684, -69.7436062 ], [ 73.8401001, -69.74581 ], [ 73.846238, -69.7468178 ], [ 73.8494053, -69.7497804 ], [ 73.8519827, -69.7510677 ], [ 73.8562248, -69.7514462 ], [ 73.8615091, -69.7511229 ], [ 73.8711983, -69.7510256 ], [ 73.8756643, -69.7511837 ], [ 73.8790672, -69.7504911 ], [ 73.881091, -69.7495489 ], [ 73.8822164, -69.7481025 ], [ 73.8850638, -69.7471514 ], [ 73.8892647, -69.7470568 ], [ 73.8921877, -69.7446525 ], [ 73.8922703, -69.7430783 ], [ 73.8936935, -69.7426027 ], [ 73.8950769, -69.7428539 ], [ 73.89579, -69.7426159 ], [ 73.8948175, -69.7411562 ], [ 73.8934832, -69.7399365 ], [ 73.8939212, -69.7382433 ], [ 73.891558, -69.7366537 ], [ 73.894111, -69.7346104 ], [ 73.8966257, -69.7332938 ], [ 73.9001817, -69.7321047 ], [ 73.9026833, -69.7310301 ], [ 73.9055651, -69.7293521 ], [ 73.9056213, -69.7282623 ], [ 73.9053284, -69.7271702 ], [ 73.9060582, -69.7265692 ], [ 73.907823, -69.7262166 ], [ 73.9078529, -69.7262123 ], [ 73.9109898, -69.7257528 ], [ 73.9120722, -69.726085 ], [ 73.9130212, -69.7263775 ], [ 73.9133976, -69.7264934 ], [ 73.9136908, -69.7275854 ], [ 73.9119939, -69.728328 ], [ 73.9143558, -69.7291768 ], [ 73.9163508, -69.7297059 ], [ 73.916677, -69.7297732 ], [ 73.9209508, -69.7308854 ], [ 73.9220292, -69.7307067 ], [ 73.9252407, -69.7306336 ], [ 73.9273595, -69.7310173 ], [ 73.9292018, -69.7315846 ], [ 73.9332105, -69.7316089 ], [ 73.934312, -69.7309668 ], [ 73.9373166, -69.7296875 ], [ 73.9386945, -69.7288617 ], [ 73.9387503, -69.7283317 ], [ 73.9387455, -69.7278426 ], [ 73.9401139, -69.7272021 ], [ 73.9417169, -69.7272117 ], [ 73.942472, -69.728143 ], [ 73.946761, -69.7278907 ], [ 73.9500131, -69.7269833 ], [ 73.9543155, -69.7264529 ], [ 73.9602068, -69.7262097 ], [ 73.9636981, -69.7258596 ], [ 73.9718165, -69.7237756 ], [ 73.9729836, -69.7217435 ], [ 73.9730198, -69.7210023 ], [ 73.9755852, -69.720328 ], [ 73.9765368, -69.7200961 ], [ 73.9802804, -69.7200251 ], [ 73.9850969, -69.7198676 ], [ 73.9878033, -69.7191418 ], [ 73.9883817, -69.7182183 ], [ 73.9900283, -69.717301 ], [ 73.9926988, -69.7173164 ], [ 73.9943452, -69.716399 ], [ 73.9997561, -69.714947 ], [ 74.0029604, -69.7149651 ], [ 74.0061734, -69.714798 ], [ 74.0106782, -69.7155648 ], [ 74.014938, -69.7158667 ], [ 74.0178709, -69.7159757 ], [ 74.019986, -69.716451 ], [ 74.0196288, -69.7183951 ], [ 74.0212057, -69.7189599 ], [ 74.0230197, -69.7201748 ], [ 74.024308, -69.7212014 ], [ 74.0267206, -69.7210294 ], [ 74.0301889, -69.7211411 ], [ 74.0341448, -69.722275 ], [ 74.0370788, -69.7223837 ], [ 74.0389698, -69.7219307 ], [ 74.041357, -69.7223144 ], [ 74.0453639, -69.7223362 ], [ 74.0469875, -69.7218816 ], [ 74.0475758, -69.72068 ], [ 74.0484146, -69.7198505 ], [ 74.0505389, -69.72014 ], [ 74.0529428, -69.7201529 ], [ 74.0548, -69.7204409 ], [ 74.0588066, -69.7204624 ], [ 74.0625664, -69.7200191 ], [ 74.0629243, -69.7196946 ], [ 74.0636759, -69.7190982 ], [ 74.0680144, -69.7176385 ], [ 74.0720732, -69.7164551 ], [ 74.0763701, -69.7159217 ], [ 74.0793198, -69.7156591 ], [ 74.0840945, -69.7164254 ], [ 74.0846566, -69.7157797 ], [ 74.0847165, -69.7143898 ], [ 74.0845137, -69.712906 ], [ 74.0848126, -69.7121661 ], [ 74.0883154, -69.711443 ], [ 74.0894724, -69.7110533 ], [ 74.0899414, -69.7108953 ], [ 74.0920852, -69.710721 ], [ 74.0933963, -69.7112838 ], [ 74.0955204, -69.7115728 ], [ 74.0979153, -69.7117704 ], [ 74.1013895, -69.7116956 ], [ 74.1027172, -69.7118876 ], [ 74.1028953, -69.7120488 ], [ 74.1032316, -69.7123536 ], [ 74.1061766, -69.7121832 ], [ 74.1078619, -69.7120572 ], [ 74.1096584, -69.7119231 ], [ 74.1112612, -69.711931 ], [ 74.1147244, -69.7121338 ], [ 74.1149715, -69.7125988 ], [ 74.1157382, -69.7134363 ], [ 74.1170504, -69.7139993 ], [ 74.1197014, -69.7144756 ], [ 74.1223173, -69.714854 ], [ 74.123676, -69.7152368 ], [ 74.1274101, -69.715349 ], [ 74.1292601, -69.7158216 ], [ 74.1302734, -69.7171205 ], [ 74.131851, -69.7177806 ], [ 74.1336637, -69.7191779 ], [ 74.1318653, -69.7193473 ], [ 74.1318264, -69.719351 ], [ 74.1318649, -69.7194105 ], [ 74.132137, -69.7196061 ], [ 74.1328254, -69.7201011 ], [ 74.1327837, -69.7211203 ], [ 74.1319216, -69.7225989 ], [ 74.1332343, -69.7231613 ], [ 74.1333387, -69.7233994 ], [ 74.1355506, -69.7238126 ], [ 74.1390924, -69.7243473 ], [ 74.1401711, -69.7244926 ], [ 74.1416969, -69.7245761 ], [ 74.1443838, -69.7246802 ], [ 74.1446918, -69.7247616 ], [ 74.1454798, -69.7250554 ], [ 74.1458093, -69.725125 ], [ 74.1468984, -69.725262 ], [ 74.1498936, -69.7255245 ], [ 74.1506225, -69.7256129 ], [ 74.1509585, -69.7256785 ], [ 74.1515769, -69.7258387 ], [ 74.1524443, -69.7261164 ], [ 74.1525989, -69.7261371 ], [ 74.1557974, -69.7268851 ], [ 74.1571373, -69.7267989 ], [ 74.1589891, -69.7272712 ], [ 74.1594794, -69.7283855 ], [ 74.1621183, -69.7292321 ], [ 74.1654754, -69.7296626 ], [ 74.1661572, -69.7297807 ], [ 74.1671701, -69.7299049 ], [ 74.1719765, -69.7300201 ], [ 74.1722656, -69.7294655 ], [ 74.1730817, -69.7290986 ], [ 74.1744251, -69.7289195 ], [ 74.176256, -69.7299475 ], [ 74.177296, -69.7306937 ], [ 74.1815467, -69.7313623 ], [ 74.1834601, -69.7314253 ], [ 74.1838411, -69.7314226 ], [ 74.1861461, -69.7313353 ], [ 74.1873032, -69.7313236 ], [ 74.1884437, -69.7313939 ], [ 74.1910758, -69.7316086 ], [ 74.1926196, -69.7316256 ], [ 74.1941641, -69.7316027 ], [ 74.1953154, -69.7315654 ], [ 74.1983411, -69.7313472 ], [ 74.2009725, -69.7311321 ], [ 74.2042334, -69.7307114 ], [ 74.2082458, -69.7302261 ], [ 74.20899, -69.7301524 ], [ 74.2116239, -69.729942 ], [ 74.2149806, -69.7296308 ], [ 74.2153639, -69.729608 ], [ 74.2157486, -69.729604 ], [ 74.216129, -69.7296255 ], [ 74.2172308, -69.7297493 ], [ 74.2182911, -69.7299116 ], [ 74.2186396, -69.7299706 ], [ 74.2224836, -69.7302503 ], [ 74.2245875, -69.7311863 ], [ 74.2285896, -69.7313892 ], [ 74.2320671, -69.7313118 ], [ 74.2341817, -69.7319696 ], [ 74.2368876, -69.7310547 ], [ 74.2387983, -69.7299509 ], [ 74.2422956, -69.7293173 ], [ 74.2449811, -69.7289582 ], [ 74.245011, -69.7281242 ], [ 74.2487073, -69.7280948 ], [ 74.2491527, -69.7274373 ], [ 74.2489685, -69.7267029 ], [ 74.2485659, -69.726116 ], [ 74.2479425, -69.7258201 ], [ 74.2473277, -69.7253039 ], [ 74.2479737, -69.7249406 ], [ 74.2484168, -69.7243573 ], [ 74.2486489, -69.7237713 ], [ 74.2487146, -69.7219395 ], [ 74.249139, -69.7218682 ], [ 74.2500144, -69.7218765 ], [ 74.251035, -69.7220228 ], [ 74.251446, -69.722318 ], [ 74.2516244, -69.7232711 ], [ 74.2522376, -69.7238599 ], [ 74.2532892, -69.7243008 ], [ 74.2551616, -69.7248248 ], [ 74.256205, -69.7251956 ], [ 74.257454, -69.7257142 ], [ 74.2577484, -69.725779 ], [ 74.258981, -69.726052 ], [ 74.2658132, -69.724935 ], [ 74.2742088, -69.7229365 ], [ 74.2814455, -69.7215292 ], [ 74.2860143, -69.7217402 ], [ 74.292642, -69.7219171 ], [ 74.2975638, -69.7216926 ], [ 74.30121, -69.7196996 ], [ 74.3046999, -69.7195702 ], [ 74.3144643, -69.720052 ], [ 74.3283242, -69.7188184 ], [ 74.3375377, -69.718306 ], [ 74.3470509, -69.7199354 ], [ 74.3487822, -69.721982 ], [ 74.3476513, -69.72422 ], [ 74.3511906, -69.7273815 ], [ 74.3525712, -69.7298636 ], [ 74.3564643, -69.7325896 ], [ 74.3582982, -69.7353504 ], [ 74.3584239, -69.7377105 ], [ 74.3540008, -69.7415076 ], [ 74.3492483, -69.7473863 ], [ 74.3515371, -69.7496749 ], [ 74.3570558, -69.7482724 ], [ 74.3618965, -69.7466301 ], [ 74.3644435, -69.7468515 ], [ 74.3689517, -69.748165 ], [ 74.3707881, -69.7493763 ], [ 74.373179, -69.7499408 ], [ 74.3804229, -69.7492251 ], [ 74.381501, -69.7489509 ], [ 74.3860402, -69.7492447 ], [ 74.3871076, -69.7493411 ], [ 74.3873313, -69.7490436 ], [ 74.3873498, -69.749019 ], [ 74.3876639, -69.7486017 ], [ 74.3898278, -69.7477752 ], [ 74.3906462, -69.747222 ], [ 74.3906464, -69.7472134 ], [ 74.3906915, -69.7456468 ], [ 74.3925981, -69.7444487 ], [ 74.3918306, -69.7432414 ], [ 74.3910577, -69.7422193 ], [ 74.3913649, -69.7408303 ], [ 74.3913837, -69.7401817 ], [ 74.3948701, -69.7398231 ], [ 74.3967244, -69.7396461 ], [ 74.3967472, -69.7396439 ], [ 74.3983767, -69.7387235 ], [ 74.4013261, -69.7384551 ], [ 74.403181, -69.73911 ], [ 74.4032532, -69.7391077 ], [ 74.4058555, -69.7390264 ], [ 74.4077582, -69.7379208 ], [ 74.408586, -69.7369969 ], [ 74.4136705, -69.7368286 ], [ 74.4158091, -69.7368356 ], [ 74.4166263, -69.7362824 ], [ 74.4206311, -69.7364809 ], [ 74.423022, -69.7370447 ], [ 74.4254178, -69.7374232 ], [ 74.4283611, -69.7373402 ], [ 74.4288768, -69.7364886 ], [ 74.428921, -69.7364155 ], [ 74.4284114, -69.7354876 ], [ 74.4294856, -69.7353051 ], [ 74.4305521, -69.7354013 ], [ 74.4321283, -69.7354747 ], [ 74.4321956, -69.7354778 ], [ 74.4326882, -69.7355008 ], [ 74.4332354, -69.7350392 ], [ 74.4343357, -69.7350428 ], [ 74.4345116, -69.7350434 ], [ 74.4351064, -69.7350453 ], [ 74.437235, -69.7354227 ], [ 74.4374249, -69.7354015 ], [ 74.4388439, -69.7352425 ], [ 74.440975, -69.7355273 ], [ 74.4415121, -69.7354363 ], [ 74.4433736, -69.7358129 ], [ 74.4441632, -69.7362787 ], [ 74.4454902, -69.7366536 ], [ 74.4484333, -69.7365702 ], [ 74.4484518, -69.7365627 ], [ 74.4500542, -69.7359265 ], [ 74.4516602, -69.7358389 ], [ 74.4532493, -69.7363997 ], [ 74.4548443, -69.736776 ], [ 74.4583101, -69.7371567 ], [ 74.4601696, -69.7376258 ], [ 74.4601543, -69.7382286 ], [ 74.4601535, -69.7382601 ], [ 74.4601247, -69.7393864 ], [ 74.4598314, -69.7404049 ], [ 74.4582241, -69.7404758 ], [ 74.4554643, -69.7403853 ], [ 74.4533278, -69.7403787 ], [ 74.4528295, -69.7412822 ], [ 74.4510265, -69.7421406 ], [ 74.4518435, -69.7426779 ], [ 74.453002, -69.7437923 ], [ 74.4531038, -69.7444509 ], [ 74.4565129, -69.7457779 ], [ 74.4596997, -69.7465282 ], [ 74.4630685, -69.7471247 ], [ 74.464192, -69.7473236 ], [ 74.4665668, -69.7473308 ], [ 74.4715303, -69.7482919 ], [ 74.4768554, -69.7490484 ], [ 74.4836355, -69.7486158 ], [ 74.4866202, -69.7479663 ], [ 74.4924366, -69.7480654 ], [ 74.4983749, -69.7480413 ], [ 74.5012402, -69.7473911 ], [ 74.5064697, -69.7472002 ], [ 74.5089507, -69.746276 ], [ 74.5108145, -69.7458195 ], [ 74.5122028, -69.7450986 ], [ 74.5131897, -69.7441741 ], [ 74.5117789, -69.7435535 ], [ 74.5113257, -69.7426061 ], [ 74.5101635, -69.7415733 ], [ 74.5103098, -69.740341 ], [ 74.5112793, -69.7394797 ], [ 74.5133037, -69.739197 ], [ 74.5168588, -69.7394131 ], [ 74.5185246, -69.7392936 ], [ 74.521007, -69.7397534 ], [ 74.5223064, -69.7400449 ], [ 74.525148, -69.7403407 ], [ 74.5253757, -69.7407932 ], [ 74.5251265, -69.7413278 ], [ 74.5261899, -69.7415363 ], [ 74.5273721, -69.7417447 ], [ 74.5279588, -69.7420348 ], [ 74.5273601, -69.7423203 ], [ 74.5280645, -69.742652 ], [ 74.5294829, -69.7429434 ], [ 74.5305465, -69.7434089 ], [ 74.5305359, -69.7439428 ], [ 74.5283014, -69.7444306 ], [ 74.5282955, -69.7444544 ], [ 74.5280336, -69.7455146 ], [ 74.5281455, -69.7461231 ], [ 74.5281336, -69.7466444 ], [ 74.5284926, -69.7474273 ], [ 74.5288609, -69.7477758 ], [ 74.5296453, -69.7479974 ], [ 74.5297189, -69.7480182 ], [ 74.5313127, -69.7485788 ], [ 74.5334396, -69.7491414 ], [ 74.5346627, -69.7492854 ], [ 74.5350411, -69.74933 ], [ 74.5440991, -69.746802 ], [ 74.5484073, -69.7410142 ], [ 74.5609692, -69.7369147 ], [ 74.5681299, -69.7343485 ], [ 74.5818448, -69.7321136 ], [ 74.5946836, -69.7309763 ], [ 74.6146516, -69.7305184 ], [ 74.6325986, -69.7304566 ], [ 74.6513376, -69.7304683 ], [ 74.6732469, -69.730779 ], [ 74.6906758, -69.7356837 ], [ 74.7002574, -69.7386603 ], [ 74.708033, -69.7450097 ], [ 74.7184844, -69.7501347 ], [ 74.7295183, -69.7556091 ], [ 74.7465496, -69.7578091 ], [ 74.7594694, -69.7587331 ], [ 74.7698626, -69.7585319 ], [ 74.7788133, -69.7590801 ], [ 74.79252, -69.7609073 ], [ 74.8055998, -69.7618965 ], [ 74.815495, -69.7634172 ], [ 74.8199782, -69.7653145 ], [ 74.8183453, -69.7728379 ], [ 74.8119299, -69.7766645 ], [ 74.805944, -69.7799408 ], [ 74.8048643, -69.7813158 ], [ 74.8098509, -69.7814889 ], [ 74.8272636, -69.7810563 ], [ 74.8405507, -69.7793497 ], [ 74.8562867, -69.7766905 ], [ 74.8710731, -69.773056 ], [ 74.8842644, -69.7692716 ], [ 74.8964414, -69.765687 ], [ 74.9080336, -69.7617523 ], [ 74.924327, -69.7594362 ], [ 74.9428472, -69.7564411 ], [ 74.9636038, -69.7604385 ], [ 74.9764768, -69.7625204 ], [ 74.9784149, -69.767716 ], [ 74.9788216, -69.7715893 ], [ 74.983691, -69.7741065 ], [ 74.9973291, -69.7730116 ], [ 75.0, -69.77247804672318 ], [ 75.0, -70.0 ], [ 70.0, -70.0 ], [ 70.0, -68.3910325 ], [ 70.0020168, -68.3945166 ] ] ], [ [ [ 74.9966165, -69.6770797 ], [ 74.9902437, -69.6732416 ], [ 74.9840856, -69.6691281 ], [ 74.98285, -69.6619343 ], [ 74.9761764, -69.6562975 ], [ 74.9698142, -69.6524588 ], [ 74.9709134, -69.6469894 ], [ 74.9751742, -69.6431325 ], [ 74.9799895, -69.6402233 ], [ 74.9839987, -69.6383584 ], [ 74.9922496, -69.635994 ], [ 74.99434, -69.6332781 ], [ 74.9947916, -69.6301854 ], [ 74.9916452, -69.6267566 ], [ 74.9924923, -69.6248204 ], [ 74.9961018, -69.6217989 ], [ 74.9904724, -69.6199294 ], [ 74.992722, -69.6170048 ], [ 74.9965648, -69.6153487 ], [ 74.9919011, -69.6122259 ], [ 74.9948229, -69.6109316 ], [ 75.0, -69.611269488977229 ], [ 75.0, -69.678797187345552 ], [ 74.9966165, -69.6770797 ] ] ] ] } },
{ "type": "Feature", "properties": { "FID": 320677, "id": 1832, "left": 70.0, "top": -65.0, "right": 75.0, "bottom": -70.0, "row_index": 31, "col_index": 50, "min_lon": 70.0, "min_lat": -70.0, "tile_id": "70_-70" }, "geometry": { "type": "MultiPolygon", "coordinates": [ [ [ [ 74.3829778, -69.721454 ], [ 74.3815463, -69.7214492 ], [ 74.3805946, -69.721362 ], [ 74.3801298, -69.7209481 ], [ 74.3808536, -69.7206199 ], [ 74.3818304, -69.7203818 ], [ 74.383479, -69.7206287 ], [ 74.3834666, -69.7210425 ], [ 74.38302, -69.7214185 ], [ 74.382999, -69.7214363 ], [ 74.3829778, -69.721454 ] ] ] ] } },
{ "type": "Feature", "properties": { "FID": 320729, "id": 1832, "left": 70.0, "top": -65.0, "right": 75.0, "bottom": -70.0, "row_index": 31, "col_index": 50, "min_lon": 70.0, "min_lat": -70.0, "tile_id": "70_-70" }, "geometry": { "type": "MultiPolygon", "coordinates": [ [ [ [ 74.404333, -69.725748 ], [ 74.4019561, -69.7254089 ], [ 74.4012467, -69.7251592 ], [ 74.4014942, -69.7248288 ], [ 74.4045964, -69.7248394 ], [ 74.4062643, -69.7249276 ], [ 74.4084027, -69.725266 ], [ 74.4083981, -69.7254315 ], [ 74.4062412, -69.7257542 ], [ 74.4054534, -69.7257526 ], [ 74.404333, -69.725748 ] ] ] ] } },
{ "type": "Feature", "properties": { "FID": 320773, "id": 1832, "left": 70.0, "top": -65.0, "right": 75.0, "bottom": -70.0, "row_index": 31, "col_index": 50, "min_lon": 70.0, "min_lat": -70.0, "tile_id": "70_-70" }, "geometry": { "type": "MultiPolygon", "coordinates": [ [ [ [ 74.2156377, -69.7251662 ], [ 74.2143644, -69.7253069 ], [ 74.2120409, -69.7252967 ], [ 74.2118407, -69.7250027 ], [ 74.2121006, -69.7244808 ], [ 74.2129268, -69.7242015 ], [ 74.2146223, -69.7240633 ], [ 74.2158885, -69.7240691 ], [ 74.2165039, -69.7245841 ], [ 74.2164409, -69.7246873 ], [ 74.2162796, -69.7249492 ], [ 74.2156377, -69.7251662 ] ] ] ] } },
{ "type": "Feature", "properties": { "FID": 320885, "id": 1832, "left": 70.0, "top": -65.0, "right": 75.0, "bottom": -70.0, "row_index": 31, "col_index": 50, "min_lon": 70.0, "min_lat": -70.0, "tile_id": "70_-70" }, "geometry": { "type": "MultiPolygon", "coordinates": [ [ [ [ 74.2445185, -69.7151802 ], [ 74.2432553, -69.7151009 ], [ 74.2413838, -69.7144191 ], [ 74.2413878, -69.7141408 ], [ 74.2422377, -69.713998 ], [ 74.243296, -69.7139293 ], [ 74.2441304, -69.7142263 ], [ 74.2460197, -69.7145272 ], [ 74.2462208, -69.714821 ], [ 74.2462078, -69.7151875 ], [ 74.2454953, -69.7151844 ], [ 74.2447314, -69.7151811 ], [ 74.2445185, -69.7151802 ] ] ] ] } },
{ "type": "Feature", "properties": { "FID": 320945, "id": 1832, "left": 70.0, "top": -65.0, "right": 75.0, "bottom": -70.0, "row_index": 31, "col_index": 50, "min_lon": 70.0, "min_lat": -70.0, "tile_id": "70_-70" }, "geometry": { "type": "MultiPolygon", "coordinates": [ [ [ [ 74.4243639, -69.7360892 ], [ 74.4234842, -69.7362499 ], [ 74.4221538, -69.7362862 ], [ 74.4210434, -69.7362276 ], [ 74.4202678, -69.7360923 ], [ 74.4196647, -69.7357882 ], [ 74.4193513, -69.7354512 ], [ 74.4192834, -69.7351071 ], [ 74.4194501, -69.7348146 ], [ 74.4199668, -69.7346247 ], [ 74.4206196, -69.7345508 ], [ 74.4212633, -69.7345907 ], [ 74.4221806, -69.7349865 ], [ 74.4225937, -69.7350683 ], [ 74.4242137, -69.7351259 ], [ 74.4245885, -69.7352058 ], [ 74.4248038, -69.735359 ], [ 74.4247877, -69.7355941 ], [ 74.4246953, -69.7358772 ], [ 74.4243639, -69.7360892 ] ] ] ] } },
{ "type": "Feature", "properties": { "FID": 320950, "id": 1832, "left": 70.0, "top": -65.0, "right": 75.0, "bottom": -70.0, "row_index": 31, "col_index": 50, "min_lon": 70.0, "min_lat": -70.0, "tile_id": "70_-70" }, "geometry": { "type": "MultiPolygon", "coordinates": [ [ [ [ 74.2402349, -69.7168472 ], [ 74.241074, -69.7169981 ], [ 74.2446591, -69.7171593 ], [ 74.2456991, -69.7176039 ], [ 74.245691, -69.7178233 ], [ 74.2439975, -69.7179615 ], [ 74.2416713, -69.7180258 ], [ 74.2388906, -69.7176541 ], [ 74.2380865, -69.7174074 ], [ 74.237899, -69.7172037 ], [ 74.2387534, -69.7168488 ], [ 74.2399302, -69.7168472 ], [ 74.2400901, -69.716847 ], [ 74.2402349, -69.7168472 ] ] ] ] } },
{ "type": "Feature", "properties": { "FID": 320973, "id": 1832, "left": 70.0, "top": -65.0, "right": 75.0, "bottom": -70.0, "row_index": 31, "col_index": 50, "min_lon": 70.0, "min_lat": -70.0, "tile_id": "70_-70" }, "geometry": { "type": "MultiPolygon", "coordinates": [ [ [ [ 74.1204356, -69.712772 ], [ 74.1219121, -69.7127804 ], [ 74.1219022, -69.713053 ], [ 74.121672, -69.7135109 ], [ 74.1212371, -69.7138019 ], [ 74.1199679, -69.7138688 ], [ 74.118493, -69.7137882 ], [ 74.1172382, -69.7134887 ], [ 74.1168251, -69.7132669 ], [ 74.1168344, -69.7130473 ], [ 74.1176879, -69.7128322 ], [ 74.1182423, -69.7127802 ], [ 74.1191714, -69.7126932 ], [ 74.1204356, -69.712772 ] ] ] ] } },
{ "type": "Feature", "properties": { "FID": 321014, "id": 1832, "left": 70.0, "top": -65.0, "right": 75.0, "bottom": -70.0, "row_index": 31, "col_index": 50, "min_lon": 70.0, "min_lat": -70.0, "tile_id": "70_-70" }, "geometry": { "type": "MultiPolygon", "coordinates": [ [ [ [ 74.3991667, -69.7227516 ], [ 74.3984555, -69.722583 ], [ 74.3977547, -69.722084 ], [ 74.3977616, -69.7216628 ], [ 74.3984979, -69.7210945 ], [ 74.4004069, -69.7211009 ], [ 74.4032646, -69.7212759 ], [ 74.4051687, -69.7214484 ], [ 74.405398, -69.7217796 ], [ 74.4060946, -69.7224443 ], [ 74.4058499, -69.7226916 ], [ 74.4046454, -69.7231013 ], [ 74.4044758, -69.7231008 ], [ 74.4024976, -69.723094 ], [ 74.3991667, -69.7227516 ] ] ] ] } },
{ "type": "Feature", "properties": { "FID": 321129, "id": 1832, "left": 70.0, "top": -65.0, "right": 75.0, "bottom": -70.0, "row_index": 31, "col_index": 50, "min_lon": 70.0, "min_lat": -70.0, "tile_id": "70_-70" }, "geometry": { "type": "MultiPolygon", "coordinates": [ [ [ [ 74.4018617, -69.7326164 ], [ 74.4017489, -69.7326921 ], [ 74.4017235, -69.7336027 ], [ 74.4005364, -69.733685 ], [ 74.3993392, -69.7335112 ], [ 74.3986296, -69.7332611 ], [ 74.3984008, -69.732929 ], [ 74.3984191, -69.7322672 ], [ 74.3979516, -69.7319349 ], [ 74.3986754, -69.7316066 ], [ 74.399872, -69.7315277 ], [ 74.402016, -69.7317005 ], [ 74.4029633, -69.7319521 ], [ 74.4029523, -69.7323653 ], [ 74.402087, -69.7325117 ], [ 74.4020399, -69.7325197 ], [ 74.4018617, -69.7326164 ] ] ] ] } },
{ "type": "Feature", "properties": { "FID": 321210, "id": 1832, "left": 70.0, "top": -65.0, "right": 75.0, "bottom": -70.0, "row_index": 31, "col_index": 50, "min_lon": 70.0, "min_lat": -70.0, "tile_id": "70_-70" }, "geometry": { "type": "MultiPolygon", "coordinates": [ [ [ [ 74.3713502, -69.7192622 ], [ 74.3727795, -69.7193499 ], [ 74.3744424, -69.7196039 ], [ 74.3768281, -69.7196117 ], [ 74.3775365, -69.7198625 ], [ 74.3777554, -69.7205257 ], [ 74.3777216, -69.721684 ], [ 74.3769911, -69.722178 ], [ 74.3748391, -69.722336 ], [ 74.3721731, -69.7222408 ], [ 74.3684068, -69.7219819 ], [ 74.367475, -69.721562 ], [ 74.3672384, -69.72115 ], [ 74.3667761, -69.7206518 ], [ 74.3682348, -69.7197466 ], [ 74.3691985, -69.7194196 ], [ 74.3699695, -69.7193462 ], [ 74.3708743, -69.71926 ], [ 74.3713502, -69.7192622 ] ] ] ] } },
{ "type": "Feature", "properties": { "FID": 321309, "id": 1832, "left": 70.0, "top": -65.0, "right": 75.0, "bottom": -70.0, "row_index": 31, "col_index": 50, "min_lon": 70.0, "min_lat": -70.0, "tile_id": "70_-70" }, "geometry": { "type": "MultiPolygon", "coordinates": [ [ [ [ 74.1740574, -69.7186009 ], [ 74.1759895, -69.7178039 ], [ 74.1770567, -69.7175166 ], [ 74.1779011, -69.7175208 ], [ 74.1780922, -69.7180338 ], [ 74.1780814, -69.7183274 ], [ 74.1782842, -69.7185474 ], [ 74.1789034, -69.7189167 ], [ 74.1788923, -69.7192097 ], [ 74.1784568, -69.7195731 ], [ 74.1776023, -69.7197906 ], [ 74.177591, -69.7200821 ], [ 74.176729, -69.7205187 ], [ 74.1756737, -69.7205828 ], [ 74.1741976, -69.7204329 ], [ 74.1733618, -69.7202091 ], [ 74.1727446, -69.7197672 ], [ 74.1729816, -69.7191091 ], [ 74.1737566, -69.718913 ], [ 74.1737958, -69.7189034 ], [ 74.1739205, -69.7187806 ], [ 74.1740574, -69.7186009 ] ] ] ] } },
{ "type": "Feature", "properties": { "FID": 321424, "id": 1832, "left": 70.0, "top": -65.0, "right": 75.0, "bottom": -70.0, "row_index": 31, "col_index": 50, "min_lon": 70.0, "min_lat": -70.0, "tile_id": "70_-70" }, "geometry": { "type": "MultiPolygon", "coordinates": [ [ [ [ 74.1896296, -69.7201389 ], [ 74.1881455, -69.7202785 ], [ 74.1862421, -69.7203429 ], [ 74.1834824, -69.7205028 ], [ 74.1824467, -69.7201788 ], [ 74.1822458, -69.7198849 ], [ 74.1822607, -69.7195178 ], [ 74.1820687, -69.7190047 ], [ 74.1825108, -69.7184938 ], [ 74.1829421, -69.7182762 ], [ 74.1846429, -69.7179909 ], [ 74.1857069, -69.7177758 ], [ 74.1878215, -69.7177123 ], [ 74.189507, -69.7177936 ], [ 74.1911632, -69.718236 ], [ 74.1913724, -69.7187546 ], [ 74.1911444, -69.7191932 ], [ 74.1904968, -69.7195566 ], [ 74.1902711, -69.719922 ], [ 74.1901216, -69.7199726 ], [ 74.1896296, -69.7201389 ] ] ] ] } },
{ "type": "Feature", "properties": { "FID": 321425, "id": 1832, "left": 70.0, "top": -65.0, "right": 75.0, "bottom": -70.0, "row_index": 31, "col_index": 50, "min_lon": 70.0, "min_lat": -70.0, "tile_id": "70_-70" }, "geometry": { "type": "MultiPolygon", "coordinates": [ [ [ [ 74.1624136, -69.7222253 ], [ 74.1640349, -69.7225411 ], [ 74.1644575, -69.7231091 ], [ 74.1634088, -69.7233626 ], [ 74.1633722, -69.7242876 ], [ 74.160532, -69.7247897 ], [ 74.1584507, -69.7248821 ], [ 74.1555002, -69.7244052 ], [ 74.1540448, -69.7236776 ], [ 74.1539438, -69.722493 ], [ 74.1539685, -69.7218744 ], [ 74.152946, -69.7214581 ], [ 74.1526793, -69.7207357 ], [ 74.1528696, -69.7200905 ], [ 74.1537672, -69.7193438 ], [ 74.1567534, -69.719007 ], [ 74.1588192, -69.7193244 ], [ 74.1593817, -69.7200989 ], [ 74.1578866, -69.7204014 ], [ 74.158758, -69.7208686 ], [ 74.1624136, -69.7222253 ] ] ] ] } },
{ "type": "Feature", "properties": { "FID": 321657, "id": 1832, "left": 70.0, "top": -65.0, "right": 75.0, "bottom": -70.0, "row_index": 31, "col_index": 50, "min_lon": 70.0, "min_lat": -70.0, "tile_id": "70_-70" }, "geometry": { "type": "MultiPolygon", "coordinates": [ [ [ [ 74.3854508, -69.7253723 ], [ 74.3825986, -69.7255316 ], [ 74.3814465, -69.7259785 ], [ 74.3806926, -69.7267376 ], [ 74.3788188, -69.7267877 ], [ 74.3778493, -69.7265871 ], [ 74.3760593, -69.7266082 ], [ 74.3736977, -69.7266851 ], [ 74.3725707, -69.7262861 ], [ 74.3727479, -69.7257794 ], [ 74.372027, -69.7252935 ], [ 74.3714822, -69.7245903 ], [ 74.3708528, -69.7238543 ], [ 74.3697293, -69.7233701 ], [ 74.3703899, -69.7230063 ], [ 74.3713641, -69.7230662 ], [ 74.3720148, -69.7230685 ], [ 74.3739757, -69.7227651 ], [ 74.3755972, -69.7229125 ], [ 74.3758366, -69.7230818 ], [ 74.3766435, -69.7232829 ], [ 74.3776957, -69.7234846 ], [ 74.3787525, -69.7234874 ], [ 74.3801374, -69.7234363 ], [ 74.3814008, -69.7236332 ], [ 74.3835461, -69.723674 ], [ 74.3852541, -69.7236797 ], [ 74.3868662, -69.7238908 ], [ 74.3876818, -69.7241397 ], [ 74.3876611, -69.7248167 ], [ 74.3874799, -69.7248919 ], [ 74.3869215, -69.7251231 ], [ 74.3854508, -69.7253723 ] ] ] ] } },
{ "type": "Feature", "properties": { "FID": 321679, "id": 1832, "left": 70.0, "top": -65.0, "right": 75.0, "bottom": -70.0, "row_index": 31, "col_index": 50, "min_lon": 70.0, "min_lat": -70.0, "tile_id": "70_-70" }, "geometry": { "type": "MultiPolygon", "coordinates": [ [ [ [ 74.3830257, -69.7331782 ], [ 74.3826851, -69.7337134 ], [ 74.3834707, -69.7346753 ], [ 74.3845191, -69.7349896 ], [ 74.3845907, -69.735328 ], [ 74.3850636, -69.7358655 ], [ 74.3850447, -69.7365146 ], [ 74.3835719, -69.7368194 ], [ 74.3821907, -69.7367575 ], [ 74.3807338, -69.7364703 ], [ 74.3785751, -69.735109 ], [ 74.3780211, -69.7345708 ], [ 74.3771453, -69.7339196 ], [ 74.3772441, -69.7333276 ], [ 74.3779933, -69.7327376 ], [ 74.3769492, -69.7322826 ], [ 74.3761532, -69.731687 ], [ 74.3763332, -69.7310957 ], [ 74.3766753, -69.7305327 ], [ 74.3769442, -69.7296873 ], [ 74.3784907, -69.729665 ], [ 74.378892, -69.7298638 ], [ 74.3807596, -69.7299829 ], [ 74.3814742, -69.7305499 ], [ 74.3836762, -69.7304163 ], [ 74.3858663, -69.7306496 ], [ 74.3881337, -69.7310242 ], [ 74.3888607, -69.7311962 ], [ 74.3898196, -69.7317919 ], [ 74.3886715, -69.7321259 ], [ 74.3875438, -69.7321503 ], [ 74.3873467, -69.7329108 ], [ 74.3858732, -69.7332168 ], [ 74.3843034, -69.7330945 ], [ 74.3835992, -69.7330391 ], [ 74.3830257, -69.7331782 ] ] ] ] } },
{ "type": "Feature", "properties": { "FID": 322015, "id": 1832, "left": 70.0, "top": -65.0, "right": 75.0, "bottom": -70.0, "row_index": 31, "col_index": 50, "min_lon": 70.0, "min_lat": -70.0, "tile_id": "70_-70" }, "geometry": { "type": "MultiPolygon", "coordinates": [ [ [ [ 74.3993121, -69.7382301 ], [ 74.3981331, -69.7378249 ], [ 74.3980282, -69.737646 ], [ 74.3981534, -69.737513 ], [ 74.3988604, -69.7372707 ], [ 74.3994708, -69.7372371 ], [ 74.4000997, -69.7372718 ], [ 74.4014364, -69.7376616 ], [ 74.4015664, -69.737827 ], [ 74.4014378, -69.7380459 ], [ 74.4005781, -69.7382227 ], [ 74.3999455, -69.7382992 ], [ 74.3993121, -69.7382301 ] ] ] ] } },
{ "type": "Feature", "properties": { "FID": 322087, "id": 1832, "left": 70.0, "top": -65.0, "right": 75.0, "bottom": -70.0, "row_index": 31, "col_index": 50, "min_lon": 70.0, "min_lat": -70.0, "tile_id": "70_-70" }, "geometry": { "type": "MultiPolygon", "coordinates": [ [ [ [ 74.151698, -69.7186875 ], [ 74.1513034, -69.7180012 ], [ 74.1513409, -69.7170746 ], [ 74.1521112, -69.7163578 ], [ 74.1544824, -69.7164208 ], [ 74.1562242, -69.717407 ], [ 74.1561804, -69.7184882 ], [ 74.1539828, -69.7187987 ], [ 74.1536618, -69.7187832 ], [ 74.151698, -69.7186875 ] ] ] ] } }
]
}
