{
"type": "FeatureCollection",
"name": "70_-55",
"crs": { "type": "name", "properties": { "name": "urn:ogc:def:crs:OGC:1.3:CRS84" } },
"xy_coordinate_resolution": 1e-15,
"features": [
{ "type": "Feature", "properties": { "FID": 156674, "id": 1829, "left": 70.0, "top": -50.0, "right": 75.0, "bottom": -55.0, "row_index": 28, "col_index": 50, "min_lon": 70.0, "min_lat": -55.0, "tile_id": "70_-55" }, "geometry": { "type": "MultiPolygon", "coordinates": [ [ [ [ 72.580675, -53.021738 ], [ 72.5812433, -53.0218323 ], [ 72.5813021, -53.0221624 ], [ 72.5810669, -53.0224688 ], [ 72.5810277, -53.022846 ], [ 72.5814785, -53.0231643 ], [ 72.5815765, -53.0235533 ], [ 72.5809298, -53.0238244 ], [ 72.5801655, -53.0237419 ], [ 72.5798715, -53.023954 ], [ 72.579362, -53.0240248 ], [ 72.579264, -53.0237065 ], [ 72.5795384, -53.0235415 ], [ 72.579558, -53.0232468 ], [ 72.5789897, -53.022905 ], [ 72.5791268, -53.0225749 ], [ 72.5790093, -53.0220327 ], [ 72.5785193, -53.0222095 ], [ 72.5781078, -53.0222213 ], [ 72.5782254, -53.0218441 ], [ 72.579166, -53.0215848 ], [ 72.5797539, -53.0216555 ], [ 72.5803419, -53.0214905 ], [ 72.580675, -53.021738 ] ] ] ] } },
{ "type": "Feature", "properties": { "FID": 270680, "id": 1829, "left": 70.0, "top": -50.0, "right": 75.0, "bottom": -55.0, "row_index": 28, "col_index": 50, "min_lon": 70.0, "min_lat": -55.0, "tile_id": "70_-55" }, "geometry": { "type": "MultiPolygon", "coordinates": [ [ [ [ 72.5804398, -53.0170226 ], [ 72.5804006, -53.0172702 ], [ 72.5807142, -53.0174824 ], [ 72.5806554, -53.0179186 ], [ 72.5800283, -53.0179068 ], [ 72.5795972, -53.0175885 ], [ 72.5789701, -53.0174588 ], [ 72.5789897, -53.0170344 ], [ 72.5793032, -53.0168576 ], [ 72.5796756, -53.0169519 ], [ 72.5802439, -53.0169165 ], [ 72.5804398, -53.0170226 ] ] ] ] } },
{ "type": "Feature", "properties": { "FID": 270681, "id": 1829, "left": 70.0, "top": -50.0, "right": 75.0, "bottom": -55.0, "row_index": 28, "col_index": 50, "min_lon": 70.0, "min_lat": -55.0, "tile_id": "70_-55" }, "geometry": { "type": "MultiPolygon", "coordinates": [ [ [ [ 72.6019171, -53.0352009 ], [ 72.6025164, -53.035891 ], [ 72.6032908, -53.036196 ], [ 72.6044454, -53.0366244 ], [ 72.6059053, -53.0372872 ], [ 72.606414, -53.0381339 ], [ 72.6070201, -53.0386763 ], [ 72.6079543, -53.0392923 ], [ 72.6086318, -53.0396649 ], [ 72.6093865, -53.0397794 ], [ 72.6096663, -53.04024 ], [ 72.6097333, -53.0406222 ], [ 72.6102026, -53.0409829 ], [ 72.6106612, -53.0416226 ], [ 72.6111638, -53.0420065 ], [ 72.6115024, -53.0419504 ], [ 72.6123017, -53.042181 ], [ 72.6121294, -53.0424838 ], [ 72.6126237, -53.0427636 ], [ 72.6122151, -53.0430157 ], [ 72.6115698, -53.0433463 ], [ 72.610539, -53.0434361 ], [ 72.6094474, -53.0437473 ], [ 72.6085767, -53.0439343 ], [ 72.6081753, -53.0441272 ], [ 72.6078739, -53.0441879 ], [ 72.6077354, -53.0448543 ], [ 72.6074409, -53.0448317 ], [ 72.6072693, -53.0451026 ], [ 72.6070118, -53.0449865 ], [ 72.60649, -53.0453955 ], [ 72.6060676, -53.0459411 ], [ 72.6058638, -53.0464313 ], [ 72.6062286, -53.0472052 ], [ 72.6065884, -53.0471111 ], [ 72.6071534, -53.0473702 ], [ 72.6078462, -53.0476867 ], [ 72.6077076, -53.0481365 ], [ 72.6070979, -53.0485863 ], [ 72.6059894, -53.0491194 ], [ 72.6048254, -53.0491528 ], [ 72.6036059, -53.0495859 ], [ 72.6036614, -53.0500357 ], [ 72.6041602, -53.0502356 ], [ 72.6035505, -53.0506021 ], [ 72.6024974, -53.0507021 ], [ 72.6025164, -53.0501204 ], [ 72.6031172, -53.0497657 ], [ 72.6027524, -53.0496174 ], [ 72.6019306, -53.0494772 ], [ 72.6011958, -53.0495778 ], [ 72.600714, -53.0494239 ], [ 72.6002169, -53.0491031 ], [ 72.5994102, -53.0490655 ], [ 72.5986833, -53.0490495 ], [ 72.5974291, -53.0491673 ], [ 72.5971648, -53.0491606 ], [ 72.5967765, -53.0488176 ], [ 72.5962616, -53.0485761 ], [ 72.5956392, -53.0485532 ], [ 72.5952423, -53.0485919 ], [ 72.5949604, -53.048808 ], [ 72.5946463, -53.0491437 ], [ 72.5938821, -53.0493557 ], [ 72.5926867, -53.0493557 ], [ 72.5921771, -53.0491084 ], [ 72.5924123, -53.0486018 ], [ 72.593059, -53.0482955 ], [ 72.593157, -53.0478125 ], [ 72.5925887, -53.0476358 ], [ 72.5914913, -53.0470704 ], [ 72.5915564, -53.0469986 ], [ 72.591377, -53.0469059 ], [ 72.5912342, -53.0467944 ], [ 72.590454, -53.04674 ], [ 72.5896897, -53.046469 ], [ 72.5897877, -53.0460095 ], [ 72.5892586, -53.0456797 ], [ 72.5886511, -53.0451849 ], [ 72.5887162, -53.0449633 ], [ 72.5886992, -53.0447726 ], [ 72.5886141, -53.0445247 ], [ 72.5886588, -53.0437983 ], [ 72.5878164, -53.0434688 ], [ 72.5871485, -53.0433964 ], [ 72.5869329, -53.0427366 ], [ 72.5868655, -53.0417665 ], [ 72.5874745, -53.0414939 ], [ 72.5874353, -53.0410815 ], [ 72.5871947, -53.0404976 ], [ 72.5865127, -53.0404234 ], [ 72.5860816, -53.0400699 ], [ 72.5860228, -53.0397164 ], [ 72.5862188, -53.0395161 ], [ 72.5861882, -53.0390722 ], [ 72.5852079, -53.0388963 ], [ 72.5852508, -53.0386832 ], [ 72.585571, -53.038553 ], [ 72.5860179, -53.0385152 ], [ 72.5861838, -53.0385565 ], [ 72.5862941, -53.0386383 ], [ 72.5867108, -53.03848 ], [ 72.5867372, -53.0383312 ], [ 72.5868821, -53.0382252 ], [ 72.5868799, -53.0379421 ], [ 72.5873297, -53.0376045 ], [ 72.5874831, -53.0375998 ], [ 72.5875157, -53.0374274 ], [ 72.5877193, -53.0373145 ], [ 72.5886349, -53.0367968 ], [ 72.5892741, -53.0363954 ], [ 72.5897504, -53.036269 ], [ 72.5902109, -53.0361359 ], [ 72.5905024, -53.0359922 ], [ 72.5908887, -53.0359982 ], [ 72.5917649, -53.0360268 ], [ 72.5922073, -53.0358158 ], [ 72.5929555, -53.0357089 ], [ 72.5934284, -53.0357261 ], [ 72.5937392, -53.0356163 ], [ 72.5939681, -53.0356355 ], [ 72.5941845, -53.0355866 ], [ 72.5944462, -53.0354826 ], [ 72.5948754, -53.0355066 ], [ 72.596079, -53.0354525 ], [ 72.5967339, -53.0353443 ], [ 72.5972347, -53.0351363 ], [ 72.5981328, -53.034658 ], [ 72.5981634, -53.0344997 ], [ 72.5983032, -53.0344776 ], [ 72.5984193, -53.0345054 ], [ 72.5986044, -53.0341756 ], [ 72.5989466, -53.0342184 ], [ 72.59896, -53.0343016 ], [ 72.5988489, -53.0343407 ], [ 72.5988739, -53.0344108 ], [ 72.6002312, -53.0342136 ], [ 72.6007032, -53.0341813 ], [ 72.6008577, -53.0341897 ], [ 72.6019171, -53.0352009 ] ] ] ] } },
{ "type": "Feature", "properties": { "FID": 286839, "id": 1829, "left": 70.0, "top": -50.0, "right": 75.0, "bottom": -55.0, "row_index": 28, "col_index": 50, "min_lon": 70.0, "min_lat": -55.0, "tile_id": "70_-55" }, "geometry": { "type": "MultiPolygon", "coordinates": [ [ [ [ 73.7761692, -53.1205132 ], [ 73.7824585, -53.1200969 ], [ 73.7963399, -53.1191874 ], [ 73.797133, -53.1188701 ], [ 73.8023085, -53.1185201 ], [ 73.8094876, -53.1178743 ], [ 73.8126992, -53.1171877 ], [ 73.8173291, -53.1158899 ], [ 73.8295235, -53.112945 ], [ 73.8312044, -53.1126459 ], [ 73.8381562, -53.1124534 ], [ 73.8423142, -53.1120915 ], [ 73.8448265, -53.1117186 ], [ 73.8494739, -53.1108099 ], [ 73.8549578, -53.1094372 ], [ 73.8619418, -53.1080319 ], [ 73.8705987, -53.1063101 ], [ 73.8755554, -53.1053682 ], [ 73.8761731, -53.1053772 ], [ 73.8765908, -53.1055828 ], [ 73.8767533, -53.105863 ], [ 73.8765056, -53.1063796 ], [ 73.8746138, -53.1072603 ], [ 73.8672785, -53.1098792 ], [ 73.8582963, -53.1111738 ], [ 73.8514963, -53.1118462 ], [ 73.8491538, -53.1120718 ], [ 73.8440837, -53.1122865 ], [ 73.8392385, -53.1129238 ], [ 73.833037, -53.1132896 ], [ 73.8296541, -53.1136662 ], [ 73.8270531, -53.114229 ], [ 73.8244521, -53.1150209 ], [ 73.8188284, -53.1166376 ], [ 73.8130774, -53.1186362 ], [ 73.8081909, -53.1193325 ], [ 73.8025015, -53.1196439 ], [ 73.796585, -53.1197887 ], [ 73.780643, -53.1208551 ], [ 73.7786009, -53.1214916 ], [ 73.7756787, -53.1221078 ], [ 73.7733884, -53.1226495 ], [ 73.7716526, -53.122938 ], [ 73.7669503, -53.1235021 ], [ 73.7617099, -53.1240219 ], [ 73.7596264, -53.124171 ], [ 73.7512247, -53.1251049 ], [ 73.7468645, -53.1260538 ], [ 73.7451506, -53.1267002 ], [ 73.7433925, -53.1271802 ], [ 73.7409788, -53.1274031 ], [ 73.7378525, -53.128378 ], [ 73.7352544, -53.129553 ], [ 73.726609, -53.1328572 ], [ 73.7251901, -53.1336958 ], [ 73.7229651, -53.1351308 ], [ 73.7221481, -53.1352508 ], [ 73.7152303, -53.1365952 ], [ 73.7149382, -53.1367837 ], [ 73.7145752, -53.1369143 ], [ 73.7137411, -53.1370311 ], [ 73.7131862, -53.1372391 ], [ 73.7117726, -53.1378564 ], [ 73.7097406, -53.1385388 ], [ 73.7064954, -53.1391681 ], [ 73.7039643, -53.1399082 ], [ 73.6920399, -53.1442612 ], [ 73.6876288, -53.1455028 ], [ 73.685183, -53.1463657 ], [ 73.6834003, -53.147114 ], [ 73.6823266, -53.1478834 ], [ 73.6820513, -53.1481281 ], [ 73.6815605, -53.148653 ], [ 73.6810284, -53.1494764 ], [ 73.6802449, -53.1500165 ], [ 73.6794241, -53.1504759 ], [ 73.678791, -53.1511268 ], [ 73.6782475, -53.151603 ], [ 73.6773416, -53.1522522 ], [ 73.6768209, -53.152639 ], [ 73.67633, -53.152721 ], [ 73.6752836, -53.1527252 ], [ 73.6736094, -53.1526934 ], [ 73.6723306, -53.1528496 ], [ 73.6712086, -53.1531581 ], [ 73.670597, -53.1536301 ], [ 73.670105, -53.1542992 ], [ 73.6696292, -53.1545978 ], [ 73.6689456, -53.1549066 ], [ 73.6675894, -53.1553498 ], [ 73.6667603, -53.1555729 ], [ 73.6664655, -53.155615 ], [ 73.6661258, -53.1555764 ], [ 73.6658351, -53.1554634 ], [ 73.66519, -53.1556289 ], [ 73.6651297, -53.155768 ], [ 73.6646807, -53.1560594 ], [ 73.6639459, -53.1564095 ], [ 73.6632933, -53.156876 ], [ 73.6619505, -53.1574469 ], [ 73.6614448, -53.1576772 ], [ 73.6610013, -53.1578869 ], [ 73.660189, -53.1580822 ], [ 73.6593567, -53.1583474 ], [ 73.6585365, -53.1586536 ], [ 73.6574716, -53.1592035 ], [ 73.6566271, -53.1595503 ], [ 73.6560442, -53.1598497 ], [ 73.6554164, -53.1600809 ], [ 73.6547915, -53.1602645 ], [ 73.6548691, -53.1604032 ], [ 73.654576, -53.1604208 ], [ 73.6538476, -53.160689 ], [ 73.653497, -53.1607056 ], [ 73.6532292, -53.1607926 ], [ 73.6527535, -53.1608949 ], [ 73.6521756, -53.160983 ], [ 73.6511544, -53.1612219 ], [ 73.6498786, -53.1614161 ], [ 73.6485827, -53.1614999 ], [ 73.6479588, -53.1615594 ], [ 73.6468961, -53.1617175 ], [ 73.6460532, -53.1616976 ], [ 73.6454139, -53.1617632 ], [ 73.6449294, -53.1616867 ], [ 73.6446118, -53.1617536 ], [ 73.6442285, -53.1618596 ], [ 73.6436213, -53.1619779 ], [ 73.6432416, -53.1619946 ], [ 73.6428079, -53.1620769 ], [ 73.6426126, -53.1621559 ], [ 73.6420386, -53.1622775 ], [ 73.6417595, -53.1624314 ], [ 73.6412871, -53.1625243 ], [ 73.6408919, -53.1627589 ], [ 73.6407033, -53.163007 ], [ 73.6402196, -53.1633526 ], [ 73.6401887, -53.1634337 ], [ 73.6400048, -53.1634492 ], [ 73.6394334, -53.163761 ], [ 73.6387018, -53.1643333 ], [ 73.638184, -53.1648323 ], [ 73.6380909, -53.1653267 ], [ 73.6377794, -53.1656969 ], [ 73.6377051, -53.1658051 ], [ 73.6376064, -53.1662035 ], [ 73.6376503, -53.1664799 ], [ 73.6378194, -53.1667152 ], [ 73.637608, -53.1670761 ], [ 73.6373197, -53.1673013 ], [ 73.6367974, -53.1676256 ], [ 73.6363, -53.1676832 ], [ 73.6356295, -53.1678385 ], [ 73.6348557, -53.1679999 ], [ 73.6340185, -53.1680271 ], [ 73.633446, -53.1680299 ], [ 73.6331154, -53.1679134 ], [ 73.6323321, -53.1678512 ], [ 73.6317021, -53.1678612 ], [ 73.6307686, -53.167983 ], [ 73.6295127, -53.1683409 ], [ 73.6281883, -53.1689381 ], [ 73.6272643, -53.1695504 ], [ 73.6265761, -53.170328 ], [ 73.6262922, -53.171034 ], [ 73.6256112, -53.1716789 ], [ 73.6253177, -53.1719677 ], [ 73.6249632, -53.1724884 ], [ 73.6240987, -53.1729269 ], [ 73.6234294, -53.1733643 ], [ 73.6224647, -53.1737895 ], [ 73.6219811, -53.1738892 ], [ 73.6212176, -53.1744244 ], [ 73.6201513, -53.1751035 ], [ 73.6196858, -53.175453 ], [ 73.6186121, -53.1760178 ], [ 73.6183177, -53.17622 ], [ 73.6180404, -53.176378 ], [ 73.6178445, -53.1764139 ], [ 73.6171066, -53.1767909 ], [ 73.6164453, -53.1774595 ], [ 73.6159778, -53.1778935 ], [ 73.615578, -53.1780182 ], [ 73.6147914, -53.1783686 ], [ 73.6144193, -53.1786178 ], [ 73.6138993, -53.1788357 ], [ 73.6136673, -53.1791463 ], [ 73.6135778, -53.1794325 ], [ 73.6132767, -53.1796631 ], [ 73.6119517, -53.1801672 ], [ 73.6113047, -53.1806096 ], [ 73.6105864, -53.1810824 ], [ 73.6095571, -53.1814913 ], [ 73.6092658, -53.1817831 ], [ 73.608547, -53.1822091 ], [ 73.6082495, -53.1825364 ], [ 73.6073899, -53.1829958 ], [ 73.6066932, -53.1835313 ], [ 73.6053856, -53.1844572 ], [ 73.603931, -53.1855892 ], [ 73.6023861, -53.186328 ], [ 73.6012023, -53.186723 ], [ 73.6007111, -53.1868869 ], [ 73.5994434, -53.1872384 ], [ 73.5984962, -53.18749 ], [ 73.5973958, -53.1876271 ], [ 73.5960754, -53.1879186 ], [ 73.5947753, -53.1880943 ], [ 73.5936412, -53.1882991 ], [ 73.5925132, -53.1884892 ], [ 73.5904616, -53.1889357 ], [ 73.5898337, -53.1890051 ], [ 73.589158, -53.1891696 ], [ 73.5886961, -53.1892133 ], [ 73.5881058, -53.1893481 ], [ 73.5874175, -53.189456 ], [ 73.5867236, -53.1896052 ], [ 73.5860669, -53.1897572 ], [ 73.5857912, -53.1897666 ], [ 73.5854146, -53.1898805 ], [ 73.5843438, -53.1901748 ], [ 73.5831938, -53.1904553 ], [ 73.582266, -53.1906502 ], [ 73.5816493, -53.1908402 ], [ 73.581035, -53.1909728 ], [ 73.5802932, -53.1910845 ], [ 73.5799372, -53.1911271 ], [ 73.5796856, -53.1911837 ], [ 73.5792965, -53.1913402 ], [ 73.5790105, -53.1913969 ], [ 73.5786292, -53.1914056 ], [ 73.5780729, -53.1915085 ], [ 73.5770399, -53.1917144 ], [ 73.5759874, -53.1919101 ], [ 73.5748713, -53.1920392 ], [ 73.5740685, -53.1921357 ], [ 73.5735729, -53.1922266 ], [ 73.572886, -53.1923022 ], [ 73.5722944, -53.1922636 ], [ 73.5717622, -53.1921577 ], [ 73.570952, -53.1920032 ], [ 73.5703052, -53.1918644 ], [ 73.569849, -53.1917637 ], [ 73.5694288, -53.191667 ], [ 73.5690332, -53.1916066 ], [ 73.5686229, -53.1914955 ], [ 73.5681995, -53.191435 ], [ 73.5677338, -53.1912854 ], [ 73.5671855, -53.1912228 ], [ 73.5669232, -53.1911507 ], [ 73.5666685, -53.1911588 ], [ 73.5664289, -53.1911273 ], [ 73.5660452, -53.1910454 ], [ 73.565643, -53.1910242 ], [ 73.5652319, -53.1910246 ], [ 73.5647653, -53.1909916 ], [ 73.5641972, -53.1908971 ], [ 73.5639028, -53.1908699 ], [ 73.5633934, -53.1907584 ], [ 73.563121, -53.1907257 ], [ 73.5628937, -53.190708 ], [ 73.5624392, -53.1905677 ], [ 73.5621019, -53.1905061 ], [ 73.5619037, -53.190478 ], [ 73.5613326, -53.1903743 ], [ 73.5605398, -53.1902619 ], [ 73.5601294, -53.1901704 ], [ 73.5593458, -53.1900958 ], [ 73.5589751, -53.1900308 ], [ 73.5585196, -53.1899673 ], [ 73.5579103, -53.1898307 ], [ 73.5576604, -53.1898336 ], [ 73.5572241, -53.1897728 ], [ 73.5568437, -53.1896796 ], [ 73.5566485, -53.189563 ], [ 73.5563103, -53.1894179 ], [ 73.5560627, -53.1893846 ], [ 73.5558374, -53.1893655 ], [ 73.555657, -53.1892893 ], [ 73.5554548, -53.1892607 ], [ 73.5551457, -53.189289 ], [ 73.5550357, -53.1892409 ], [ 73.5549427, -53.1891734 ], [ 73.5548521, -53.189219 ], [ 73.5547026, -53.1891866 ], [ 73.5543925, -53.1891419 ], [ 73.5540506, -53.189102 ], [ 73.5536686, -53.1890507 ], [ 73.5533016, -53.188948 ], [ 73.5531711, -53.1889615 ], [ 73.5530689, -53.18896 ], [ 73.5528803, -53.1889093 ], [ 73.5525667, -53.1888176 ], [ 73.5523047, -53.1888244 ], [ 73.5519236, -53.1888094 ], [ 73.5516061, -53.188751 ], [ 73.5511457, -53.1886722 ], [ 73.5506855, -53.1885716 ], [ 73.5503686, -53.1885227 ], [ 73.5500524, -53.1884345 ], [ 73.5498169, -53.1884198 ], [ 73.549549, -53.188366 ], [ 73.5493049, -53.1883693 ], [ 73.5489993, -53.1883094 ], [ 73.5488644, -53.1883228 ], [ 73.5484201, -53.1881972 ], [ 73.5481191, -53.1880984 ], [ 73.5478505, -53.188053 ], [ 73.5475039, -53.1879526 ], [ 73.5472438, -53.1879004 ], [ 73.5470789, -53.1878529 ], [ 73.546781, -53.1877675 ], [ 73.5464788, -53.1876918 ], [ 73.5463113, -53.187645 ], [ 73.5460398, -53.1876372 ], [ 73.5457358, -53.1875455 ], [ 73.5455588, -53.1874824 ], [ 73.5453954, -53.1874227 ], [ 73.5452116, -53.187389 ], [ 73.5450504, -53.1873787 ], [ 73.5447122, -53.1873772 ], [ 73.5444009, -53.187298 ], [ 73.5442994, -53.1872096 ], [ 73.543923, -53.1871892 ], [ 73.5435308, -53.1871212 ], [ 73.5433181, -53.1870613 ], [ 73.5429596, -53.1870026 ], [ 73.5426077, -53.1869614 ], [ 73.5423009, -53.1869455 ], [ 73.5420172, -53.1869745 ], [ 73.5414953, -53.1869226 ], [ 73.5408485, -53.1868474 ], [ 73.5404125, -53.1868206 ], [ 73.5399533, -53.1867576 ], [ 73.5393685, -53.1866792 ], [ 73.5388976, -53.1866461 ], [ 73.538575, -53.1866084 ], [ 73.5382807, -53.1866214 ], [ 73.5379944, -53.1867106 ], [ 73.5376282, -53.1867747 ], [ 73.5374833, -53.1868459 ], [ 73.5372094, -53.1869026 ], [ 73.5369634, -53.186997 ], [ 73.5367255, -53.1870431 ], [ 73.5364561, -53.1870211 ], [ 73.5362667, -53.1870437 ], [ 73.5360149, -53.1870223 ], [ 73.5356938, -53.1869188 ], [ 73.5353887, -53.1867772 ], [ 73.5351118, -53.1867701 ], [ 73.5348597, -53.1867272 ], [ 73.5345938, -53.1866794 ], [ 73.5341733, -53.1865744 ], [ 73.5338879, -53.1865452 ], [ 73.5332695, -53.1864868 ], [ 73.5329462, -53.1865108 ], [ 73.5324701, -53.1865104 ], [ 73.5320473, -53.1865097 ], [ 73.5316701, -53.186435 ], [ 73.5313636, -53.1864319 ], [ 73.5309965, -53.1864023 ], [ 73.5307007, -53.1863421 ], [ 73.5301294, -53.1862218 ], [ 73.5295774, -53.1861155 ], [ 73.5291046, -53.1860186 ], [ 73.52879, -53.1859775 ], [ 73.5283443, -53.1859317 ], [ 73.527921, -53.1858769 ], [ 73.5275632, -53.1858526 ], [ 73.5271569, -53.1857906 ], [ 73.5264351, -53.1857774 ], [ 73.5256023, -53.1857022 ], [ 73.525199, -53.1857347 ], [ 73.5247997, -53.1857511 ], [ 73.5240215, -53.185796 ], [ 73.5237172, -53.1858778 ], [ 73.5235758, -53.1859046 ], [ 73.5233744, -53.1858851 ], [ 73.5230735, -53.1859314 ], [ 73.5228105, -53.1859588 ], [ 73.5225708, -53.1860152 ], [ 73.5224431, -53.1860168 ], [ 73.5223098, -53.1860076 ], [ 73.5221246, -53.1860138 ], [ 73.5219986, -53.1860627 ], [ 73.5217263, -53.1860994 ], [ 73.5216499, -53.1861607 ], [ 73.5215175, -53.1861734 ], [ 73.5213577, -53.1862243 ], [ 73.5200491, -53.1866233 ], [ 73.5190561, -53.1868697 ], [ 73.5186787, -53.1870332 ], [ 73.5183035, -53.1871859 ], [ 73.517476, -53.1877802 ], [ 73.5157068, -53.1890292 ], [ 73.5153424, -53.1893134 ], [ 73.5143463, -53.1907415 ], [ 73.5140176, -53.191469 ], [ 73.5121521, -53.1929173 ], [ 73.5114741, -53.1933845 ], [ 73.5107253, -53.1938422 ], [ 73.5097271, -53.1942291 ], [ 73.5090065, -53.1944161 ], [ 73.508244, -53.1945404 ], [ 73.5073489, -53.1946732 ], [ 73.5064283, -53.1947382 ], [ 73.5056537, -53.1947182 ], [ 73.5049022, -53.1946717 ], [ 73.5023291, -53.1945847 ], [ 73.4999903, -53.1947481 ], [ 73.4976527, -53.1949116 ], [ 73.4958685, -53.1947904 ], [ 73.4952556, -53.1946361 ], [ 73.4943417, -53.1944061 ], [ 73.4930441, -53.1939857 ], [ 73.4924617, -53.1935683 ], [ 73.492054, -53.1929101 ], [ 73.4909125, -53.1922316 ], [ 73.4884169, -53.190598 ], [ 73.4874278, -53.1901874 ], [ 73.4865002, -53.1895346 ], [ 73.4858138, -53.1891809 ], [ 73.4853675, -53.18902 ], [ 73.4849585, -53.1890373 ], [ 73.4847311, -53.1889489 ], [ 73.4845287, -53.1887211 ], [ 73.4841898, -53.1885528 ], [ 73.4837146, -53.1884488 ], [ 73.4832683, -53.1885057 ], [ 73.4826693, -53.1883233 ], [ 73.4822148, -53.1882267 ], [ 73.4818801, -53.1882391 ], [ 73.4814131, -53.1883208 ], [ 73.4806765, -53.1883338 ], [ 73.4801264, -53.1880869 ], [ 73.4798677, -53.1878493 ], [ 73.479782, -53.1876216 ], [ 73.4795249, -53.1875165 ], [ 73.4792269, -53.187478 ], [ 73.478736, -53.1872924 ], [ 73.4784555, -53.1871909 ], [ 73.4780581, -53.1872084 ], [ 73.4772634, -53.1870823 ], [ 73.4770471, -53.1869563 ], [ 73.4768134, -53.1868687 ], [ 73.4765679, -53.1868547 ], [ 73.4763283, -53.1869983 ], [ 73.4759251, -53.1868477 ], [ 73.4756329, -53.1866166 ], [ 73.4753174, -53.1865571 ], [ 73.4749726, -53.1865956 ], [ 73.4744759, -53.1867462 ], [ 73.4741354, -53.1867552 ], [ 73.4740445, -53.1864927 ], [ 73.4739704, -53.186102 ], [ 73.4732399, -53.1856503 ], [ 73.4702066, -53.1846472 ], [ 73.4686054, -53.1840239 ], [ 73.4668245, -53.1835124 ], [ 73.4659262, -53.1828567 ], [ 73.4634587, -53.1802315 ], [ 73.4519297, -53.1722742 ], [ 73.4513983, -53.17202 ], [ 73.4506314, -53.1716531 ], [ 73.4481028, -53.1704434 ], [ 73.4408388, -53.1673495 ], [ 73.4366105, -53.1649451 ], [ 73.430725, -53.1606397 ], [ 73.4255871, -53.1560504 ], [ 73.4226314, -53.1516279 ], [ 73.4224349, -53.1513338 ], [ 73.4218339, -53.1504345 ], [ 73.4193644, -53.146739 ], [ 73.4156949, -53.1439158 ], [ 73.4116928, -53.1421412 ], [ 73.409442, -53.1406589 ], [ 73.4073652, -53.1381875 ], [ 73.4058504, -53.1354219 ], [ 73.4040679, -53.1334545 ], [ 73.4041047, -53.1332537 ], [ 73.4044799, -53.1326131 ], [ 73.4022307, -53.1306126 ], [ 73.4020983, -53.1288785 ], [ 73.4011676, -53.1218937 ], [ 73.4008254, -53.1194718 ], [ 73.4005395, -53.1174486 ], [ 73.4004129, -53.1165528 ], [ 73.39837, -53.1136822 ], [ 73.3985818, -53.1107855 ], [ 73.3974041, -53.1064867 ], [ 73.3966634, -53.1027872 ], [ 73.3962871, -53.1024321 ], [ 73.3964644, -53.10209 ], [ 73.3966053, -53.101676 ], [ 73.3964408, -53.1014142 ], [ 73.3960322, -53.1011422 ], [ 73.3958801, -53.1006849 ], [ 73.3958216, -53.099758 ], [ 73.3960504, -53.0992229 ], [ 73.3964034, -53.0986387 ], [ 73.3963262, -53.0982696 ], [ 73.3960413, -53.0980802 ], [ 73.3955758, -53.0980286 ], [ 73.3950887, -53.0980508 ], [ 73.3946887, -53.0980952 ], [ 73.394437, -53.09809 ], [ 73.3943251, -53.0979542 ], [ 73.3943886, -53.0977453 ], [ 73.3945115, -53.0971749 ], [ 73.3942166, -53.0969022 ], [ 73.3942274, -53.0966235 ], [ 73.3939357, -53.0964892 ], [ 73.3939266, -53.0961265 ], [ 73.3940129, -53.0958087 ], [ 73.3938199, -53.0955024 ], [ 73.3935384, -53.0951406 ], [ 73.3935236, -53.0947775 ], [ 73.3938857, -53.0944432 ], [ 73.3938787, -53.0940255 ], [ 73.393656, -53.0938484 ], [ 73.393576, -53.0935258 ], [ 73.3937294, -53.0928648 ], [ 73.3935923, -53.092405 ], [ 73.3936053, -53.0918775 ], [ 73.3938546, -53.0914007 ], [ 73.3936862, -53.0910258 ], [ 73.393976, -53.0906836 ], [ 73.3936941, -53.0905165 ], [ 73.3937306, -53.0902921 ], [ 73.3941431, -53.089953 ], [ 73.3942468, -53.0893716 ], [ 73.3940242, -53.0891429 ], [ 73.393605, -53.0890149 ], [ 73.3937064, -53.0886805 ], [ 73.3929695, -53.0886544 ], [ 73.3925137, -53.0886023 ], [ 73.3923853, -53.0884823 ], [ 73.3935643, -53.0882111 ], [ 73.3935468, -53.0877783 ], [ 73.3933029, -53.0873989 ], [ 73.3929195, -53.0869851 ], [ 73.3924921, -53.087004 ], [ 73.392055, -53.0869636 ], [ 73.3918335, -53.0867572 ], [ 73.3917973, -53.0862929 ], [ 73.3911085, -53.0859775 ], [ 73.3903175, -53.0857924 ], [ 73.3901661, -53.0854034 ], [ 73.390307, -53.0850489 ], [ 73.389858, -53.0848416 ], [ 73.3889337, -53.0846778 ], [ 73.3883384, -53.0844914 ], [ 73.3885052, -53.0843538 ], [ 73.3896221, -53.0841569 ], [ 73.3895845, -53.083873 ], [ 73.3893363, -53.0835565 ], [ 73.3890655, -53.0832112 ], [ 73.388602, -53.0823893 ], [ 73.3876743, -53.0813251 ], [ 73.3870078, -53.0806687 ], [ 73.3862489, -53.0799674 ], [ 73.3850967, -53.0789882 ], [ 73.3844891, -53.0785823 ], [ 73.3836133, -53.077943 ], [ 73.3828398, -53.0776521 ], [ 73.3824839, -53.077424 ], [ 73.3817461, -53.0771402 ], [ 73.3810276, -53.0766667 ], [ 73.3802433, -53.0763785 ], [ 73.3794577, -53.0762568 ], [ 73.3787817, -53.0761671 ], [ 73.3784059, -53.0763204 ], [ 73.3779675, -53.0764703 ], [ 73.3774694, -53.0766131 ], [ 73.3768491, -53.0766707 ], [ 73.3763203, -53.0766654 ], [ 73.3759153, -53.076702 ], [ 73.3753923, -53.0766654 ], [ 73.3750514, -53.076655 ], [ 73.3746566, -53.076838 ], [ 73.3742586, -53.0769217 ], [ 73.3738282, -53.0769323 ], [ 73.3735155, -53.0768593 ], [ 73.373099, -53.0768702 ], [ 73.3728403, -53.0770332 ], [ 73.3725578, -53.0771083 ], [ 73.3721495, -53.0770859 ], [ 73.3718812, -53.0770098 ], [ 73.3716055, -53.0770613 ], [ 73.3713675, -53.0772429 ], [ 73.3709541, -53.0772661 ], [ 73.3703188, -53.0772736 ], [ 73.3691005, -53.07732 ], [ 73.3678385, -53.0773029 ], [ 73.3669853, -53.0773159 ], [ 73.3666104, -53.0774515 ], [ 73.366487, -53.0772995 ], [ 73.3664773, -53.0769344 ], [ 73.3661934, -53.0766713 ], [ 73.3657301, -53.0764587 ], [ 73.3652996, -53.0760649 ], [ 73.365065, -53.0756851 ], [ 73.3648195, -53.0752602 ], [ 73.3644958, -53.074945 ], [ 73.3639854, -53.0749534 ], [ 73.3629138, -53.0749774 ], [ 73.3627546, -53.0752293 ], [ 73.362384, -53.0753723 ], [ 73.361927, -53.0752528 ], [ 73.361718, -53.0750941 ], [ 73.361822, -53.0749178 ], [ 73.3614035, -53.0747692 ], [ 73.3614281, -53.074613 ], [ 73.3618121, -53.0745736 ], [ 73.3623788, -53.0743696 ], [ 73.3626507, -53.0740556 ], [ 73.3631945, -53.0739765 ], [ 73.3633946, -53.0738026 ], [ 73.3633248, -53.0736431 ], [ 73.3634462, -53.0734026 ], [ 73.3636369, -53.0731568 ], [ 73.3642532, -53.0730416 ], [ 73.3648592, -53.0727641 ], [ 73.3658899, -53.0727499 ], [ 73.3669729, -53.0726964 ], [ 73.3684409, -53.0723512 ], [ 73.3695827, -53.0718648 ], [ 73.3709785, -53.0714801 ], [ 73.3724648, -53.0712285 ], [ 73.3733751, -53.0707409 ], [ 73.3740118, -53.0702687 ], [ 73.3747007, -53.0696474 ], [ 73.3750343, -53.0690794 ], [ 73.3754665, -53.068508 ], [ 73.3762265, -53.0680869 ], [ 73.3775376, -53.0674485 ], [ 73.378463, -53.066658 ], [ 73.3793478, -53.0657358 ], [ 73.3802644, -53.0645 ], [ 73.3808808, -53.0634759 ], [ 73.3813304, -53.062871 ], [ 73.3816553, -53.062179 ], [ 73.3820441, -53.0615952 ], [ 73.3821689, -53.0611178 ], [ 73.3819226, -53.0608063 ], [ 73.381952, -53.0605754 ], [ 73.3822772, -53.0603724 ], [ 73.3819236, -53.0598635 ], [ 73.3819736, -53.0593006 ], [ 73.3826478, -53.0587867 ], [ 73.3828997, -53.0582923 ], [ 73.383012, -53.0578685 ], [ 73.3826624, -53.0573973 ], [ 73.3823024, -53.0568786 ], [ 73.3824439, -53.0561551 ], [ 73.3825477, -53.0558868 ], [ 73.3823122, -53.0555871 ], [ 73.3818672, -53.0554427 ], [ 73.3817865, -53.0552638 ], [ 73.382069, -53.0549531 ], [ 73.3819813, -53.0546455 ], [ 73.3817536, -53.0542343 ], [ 73.3817421, -53.0539297 ], [ 73.3819802, -53.0536343 ], [ 73.3821952, -53.053373 ], [ 73.3821031, -53.0532271 ], [ 73.3816579, -53.0532019 ], [ 73.3814723, -53.0530732 ], [ 73.3814666, -53.05291 ], [ 73.3821601, -53.052662 ], [ 73.3822156, -53.0524013 ], [ 73.3818307, -53.0521938 ], [ 73.3815308, -53.0518417 ], [ 73.3815314, -53.0514513 ], [ 73.3816893, -53.0510784 ], [ 73.3812218, -53.0507721 ], [ 73.3811745, -53.0500182 ], [ 73.3806961, -53.0495117 ], [ 73.3806428, -53.0491805 ], [ 73.3805439, -53.0485657 ], [ 73.3802885, -53.0477544 ], [ 73.3797851, -53.0470136 ], [ 73.3797968, -53.0468779 ], [ 73.3798747, -53.0459715 ], [ 73.3791488, -53.0454942 ], [ 73.3787624, -53.0452208 ], [ 73.3784594, -53.0447919 ], [ 73.3778068, -53.0442172 ], [ 73.3773239, -53.0438624 ], [ 73.3765408, -53.0435136 ], [ 73.3762964, -53.0431651 ], [ 73.3759476, -53.0427067 ], [ 73.3749889, -53.0423707 ], [ 73.3742321, -53.0423024 ], [ 73.3732404, -53.0421241 ], [ 73.3726011, -53.041891 ], [ 73.372275, -53.0420345 ], [ 73.3720496, -53.0423213 ], [ 73.3719024, -53.0429535 ], [ 73.3710293, -53.0433188 ], [ 73.3702345, -53.0439038 ], [ 73.3695746, -53.0442441 ], [ 73.3679851, -53.0443818 ], [ 73.3675524, -53.0441711 ], [ 73.3674328, -53.0437721 ], [ 73.3670372, -53.0436804 ], [ 73.3664547, -53.0433557 ], [ 73.3658021, -53.0424389 ], [ 73.3654839, -53.0421725 ], [ 73.3662379, -53.0415162 ], [ 73.3665351, -53.0406843 ], [ 73.3672486, -53.0403459 ], [ 73.3682793, -53.0400299 ], [ 73.3694272, -53.0398348 ], [ 73.3708134, -53.0389347 ], [ 73.3711309, -53.03857 ], [ 73.3712562, -53.0378544 ], [ 73.3708794, -53.0373299 ], [ 73.3708296, -53.0370338 ], [ 73.3712901, -53.0365838 ], [ 73.3711187, -53.0360469 ], [ 73.3707484, -53.0359495 ], [ 73.3704117, -53.0357212 ], [ 73.3704707, -53.0354718 ], [ 73.3704835, -53.0352061 ], [ 73.3697033, -53.0351337 ], [ 73.3694471, -53.0348258 ], [ 73.3692521, -53.0345913 ], [ 73.3688115, -53.0345948 ], [ 73.3683541, -53.0346185 ], [ 73.3677794, -53.0345029 ], [ 73.3675256, -53.0341634 ], [ 73.3670137, -53.0340741 ], [ 73.3658324, -53.0338037 ], [ 73.3649962, -53.0335863 ], [ 73.3645283, -53.0336909 ], [ 73.3644626, -53.0339808 ], [ 73.365101, -53.0342585 ], [ 73.3652065, -53.0344718 ], [ 73.3647144, -53.0346167 ], [ 73.3641821, -53.0345441 ], [ 73.3639312, -53.0353877 ], [ 73.3631785, -53.0355566 ], [ 73.3621144, -53.0353314 ], [ 73.361433, -53.0342729 ], [ 73.3611311, -53.0339504 ], [ 73.3609631, -53.033487 ], [ 73.3609958, -53.0330839 ], [ 73.3604094, -53.0325098 ], [ 73.3604874, -53.0320727 ], [ 73.3608138, -53.0320078 ], [ 73.3612266, -53.0315261 ], [ 73.3618235, -53.0313263 ], [ 73.3623607, -53.0312864 ], [ 73.3633489, -53.031045 ], [ 73.3639857, -53.0308137 ], [ 73.3643387, -53.0308613 ], [ 73.3646595, -53.0306173 ], [ 73.3653275, -53.0301607 ], [ 73.3658697, -53.0297817 ], [ 73.3668973, -53.0297549 ], [ 73.367604, -53.0301635 ], [ 73.3680095, -53.0304915 ], [ 73.3685643, -53.0307602 ], [ 73.3691147, -53.030111 ], [ 73.3700448, -53.030044 ], [ 73.3710507, -53.0293067 ], [ 73.3717796, -53.0287316 ], [ 73.3720734, -53.0282372 ], [ 73.3724844, -53.0275981 ], [ 73.3725057, -53.0269967 ], [ 73.3720418, -53.0264658 ], [ 73.3715124, -53.026115 ], [ 73.3710216, -53.0255637 ], [ 73.3704022, -53.0251515 ], [ 73.3701629, -53.024315 ], [ 73.3697335, -53.0236402 ], [ 73.3693662, -53.0232064 ], [ 73.3689012, -53.0227975 ], [ 73.3661969, -53.0226212 ], [ 73.362764, -53.0215685 ], [ 73.3593547, -53.021372 ], [ 73.3555531, -53.0215126 ], [ 73.3542472, -53.0211801 ], [ 73.352605, -53.0213533 ], [ 73.3488162, -53.020958 ], [ 73.3413275, -53.0214197 ], [ 73.3341652, -53.0202934 ], [ 73.3274637, -53.0182904 ], [ 73.3257211, -53.0181079 ], [ 73.32246, -53.0177663 ], [ 73.3192227, -53.0176905 ], [ 73.3161458, -53.0181937 ], [ 73.3085569, -53.0201542 ], [ 73.3014529, -53.0217146 ], [ 73.299032, -53.0231723 ], [ 73.2985789, -53.023445 ], [ 73.2979316, -53.0240183 ], [ 73.2962831, -53.0241355 ], [ 73.2952231, -53.0238472 ], [ 73.2951944, -53.022829 ], [ 73.2949616, -53.0221212 ], [ 73.2943715, -53.0203267 ], [ 73.2918497, -53.019327 ], [ 73.2808037, -53.0153594 ], [ 73.2773215, -53.0147471 ], [ 73.2726779, -53.0150143 ], [ 73.2712011, -53.0148784 ], [ 73.2702193, -53.0144002 ], [ 73.2704531, -53.0135283 ], [ 73.2690933, -53.0134656 ], [ 73.2669024, -53.0138365 ], [ 73.2636913, -53.0126445 ], [ 73.2593859, -53.0095314 ], [ 73.2597005, -53.0079308 ], [ 73.2588031, -53.0052744 ], [ 73.2578837, -53.0042185 ], [ 73.2567108, -53.0034428 ], [ 73.2554626, -53.0035423 ], [ 73.2542641, -53.0023491 ], [ 73.2543352, -53.0009677 ], [ 73.2554461, -53.0003576 ], [ 73.2558515, -52.9982082 ], [ 73.2554205, -52.99302 ], [ 73.253978, -52.9911061 ], [ 73.2517321, -52.9899904 ], [ 73.2512342, -52.9884794 ], [ 73.2530738, -52.987024 ], [ 73.2578405, -52.9820087 ], [ 73.2614944, -52.9809118 ], [ 73.2631584, -52.9798221 ], [ 73.2651939, -52.979298 ], [ 73.2665303, -52.979623 ], [ 73.2682765, -52.9796753 ], [ 73.2700305, -52.978828 ], [ 73.2699352, -52.9777877 ], [ 73.2704972, -52.9773 ], [ 73.2716529, -52.9775209 ], [ 73.2724806, -52.9783649 ], [ 73.2733092, -52.9787045 ], [ 73.2759021, -52.9782853 ], [ 73.2783392, -52.9774907 ], [ 73.2798672, -52.9758421 ], [ 73.2840951, -52.9744445 ], [ 73.2883545, -52.9737843 ], [ 73.2919628, -52.9729078 ], [ 73.2947442, -52.972202 ], [ 73.2967735, -52.971693 ], [ 73.2975525, -52.9715283 ], [ 73.2982606, -52.9713296 ], [ 73.2986232, -52.9712946 ], [ 73.2990141, -52.9713192 ], [ 73.2996302, -52.9715929 ], [ 73.300724, -52.9723052 ], [ 73.3011461, -52.9726259 ], [ 73.3012083, -52.9727097 ], [ 73.3012433, -52.9727755 ], [ 73.3012752, -52.9728431 ], [ 73.3013394, -52.972882 ], [ 73.3014686, -52.972908 ], [ 73.3016195, -52.9729237 ], [ 73.301775, -52.9729557 ], [ 73.3018997, -52.9730137 ], [ 73.3021074, -52.973069 ], [ 73.3025598, -52.9731204 ], [ 73.3030051, -52.973165 ], [ 73.3031768, -52.9732087 ], [ 73.3033204, -52.9732973 ], [ 73.3034478, -52.9734591 ], [ 73.3035745, -52.9737003 ], [ 73.3036358, -52.9739331 ], [ 73.303811, -52.9742792 ], [ 73.303908, -52.9744902 ], [ 73.3040569, -52.9746899 ], [ 73.3042317, -52.9748165 ], [ 73.3044686, -52.9749444 ], [ 73.3046027, -52.9749655 ], [ 73.3047195, -52.97495 ], [ 73.304874, -52.974875 ], [ 73.3049809, -52.9748167 ], [ 73.3050338, -52.9747941 ], [ 73.3051, -52.9747908 ], [ 73.3052353, -52.9747956 ], [ 73.3053883, -52.9747955 ], [ 73.3054662, -52.9747858 ], [ 73.3055468, -52.9747583 ], [ 73.3056571, -52.9746936 ], [ 73.3057543, -52.974624 ], [ 73.3058508, -52.9744914 ], [ 73.3059221, -52.9743576 ], [ 73.3059471, -52.9742138 ], [ 73.3060281, -52.9741094 ], [ 73.3059596, -52.9740218 ], [ 73.3059659, -52.9739399 ], [ 73.3058417, -52.973899 ], [ 73.3057613, -52.9738285 ], [ 73.3057125, -52.9737324 ], [ 73.3057552, -52.9736473 ], [ 73.3058872, -52.9735837 ], [ 73.3060508, -52.9735546 ], [ 73.3066214, -52.9735923 ], [ 73.30722, -52.9736694 ], [ 73.3076793, -52.9738292 ], [ 73.3081888, -52.9742598 ], [ 73.3091142, -52.9751393 ], [ 73.3096968, -52.9755024 ], [ 73.3103743, -52.9759359 ], [ 73.3108955, -52.9762043 ], [ 73.3114917, -52.9764405 ], [ 73.3122214, -52.9765871 ], [ 73.3131334, -52.9766281 ], [ 73.3135787, -52.9766034 ], [ 73.3160303, -52.9751767 ], [ 73.3198859, -52.9749848 ], [ 73.3214746, -52.9762379 ], [ 73.3229386, -52.9785599 ], [ 73.3265088, -52.9788673 ], [ 73.3283366, -52.9793972 ], [ 73.3309097, -52.9804887 ], [ 73.3321515, -52.9812085 ], [ 73.3329181, -52.9822461 ], [ 73.3333768, -52.983494 ], [ 73.333928, -52.9851473 ], [ 73.3337278, -52.9862553 ], [ 73.3338707, -52.9868151 ], [ 73.334447, -52.9871399 ], [ 73.3352564, -52.9873129 ], [ 73.3393047, -52.9909231 ], [ 73.3403307, -52.9932794 ], [ 73.3412569, -52.9946875 ], [ 73.3420776, -52.9953487 ], [ 73.3427948, -52.9956224 ], [ 73.344839, -52.9982592 ], [ 73.3451935, -52.9989576 ], [ 73.3476186, -53.0007833 ], [ 73.3488095, -53.0013436 ], [ 73.3511357, -53.0018959 ], [ 73.3527255, -53.0026828 ], [ 73.3565803, -53.0055789 ], [ 73.3577423, -53.006378 ], [ 73.358271, -53.0072296 ], [ 73.3584378, -53.0081913 ], [ 73.359196, -53.0089426 ], [ 73.3613534, -53.0103372 ], [ 73.362157, -53.0106644 ], [ 73.3623122, -53.0108421 ], [ 73.3624114, -53.0112135 ], [ 73.3633225, -53.0124964 ], [ 73.3652779, -53.0159906 ], [ 73.3657285, -53.0165626 ], [ 73.3661016, -53.0171508 ], [ 73.366387, -53.018191 ], [ 73.3666953, -53.018557 ], [ 73.3667207, -53.0193916 ], [ 73.3676562, -53.0201073 ], [ 73.3695967, -53.0210728 ], [ 73.3708773, -53.0213792 ], [ 73.3726578, -53.0211539 ], [ 73.3736528, -53.0210516 ], [ 73.3751874, -53.0217562 ], [ 73.3762727, -53.0222898 ], [ 73.3771501, -53.0228887 ], [ 73.378563, -53.0235481 ], [ 73.3795493, -53.0239765 ], [ 73.3802984, -53.0244664 ], [ 73.3811145, -53.0251979 ], [ 73.3811683, -53.0267859 ], [ 73.3813915, -53.0276009 ], [ 73.3814138, -53.0279453 ], [ 73.3817679, -53.0282357 ], [ 73.3828729, -53.0286293 ], [ 73.384131, -53.0287182 ], [ 73.3861613, -53.0285099 ], [ 73.3879216, -53.0279706 ], [ 73.3906083, -53.0267529 ], [ 73.3922471, -53.0257542 ], [ 73.3927488, -53.0253352 ], [ 73.3930023, -53.0248422 ], [ 73.3932435, -53.023833 ], [ 73.3933765, -53.0232895 ], [ 73.3933397, -53.0227925 ], [ 73.3931994, -53.0220053 ], [ 73.3927222, -53.0212262 ], [ 73.3920836, -53.0206339 ], [ 73.3912657, -53.0203185 ], [ 73.3904072, -53.0200589 ], [ 73.389861, -53.0200252 ], [ 73.3894604, -53.0202467 ], [ 73.3893961, -53.0205791 ], [ 73.3895034, -53.0207662 ], [ 73.3894497, -53.0208662 ], [ 73.3893317, -53.0209501 ], [ 73.3889088, -53.0209772 ], [ 73.3883822, -53.0208178 ], [ 73.3878108, -53.0202207 ], [ 73.3870411, -53.0190947 ], [ 73.387202, -53.0185913 ], [ 73.386966, -53.0183912 ], [ 73.3869265, -53.0178013 ], [ 73.3885686, -53.0143795 ], [ 73.3899271, -53.0127371 ], [ 73.3917081, -53.0107102 ], [ 73.392663, -53.0100905 ], [ 73.3939397, -53.0085154 ], [ 73.3939183, -53.0081087 ], [ 73.3945191, -53.0078182 ], [ 73.3945513, -53.0073663 ], [ 73.3958004, -53.0060763 ], [ 73.3978343, -53.0042158 ], [ 73.3997131, -53.0019415 ], [ 73.4035833, -53.0006614 ], [ 73.405602, -53.0007165 ], [ 73.4064817, -53.0010328 ], [ 73.4078058, -53.0009364 ], [ 73.4086707, -53.0005003 ], [ 73.408437, -52.9995578 ], [ 73.4091616, -52.9990935 ], [ 73.4097927, -52.9991217 ], [ 73.4100966, -52.9996844 ], [ 73.4107277, -53.0004018 ], [ 73.4102751, -53.0015556 ], [ 73.4119085, -53.0035863 ], [ 73.4116852, -53.0044547 ], [ 73.4130667, -53.0049657 ], [ 73.4139812, -53.0057007 ], [ 73.414346, -53.0060041 ], [ 73.4147537, -53.0063592 ], [ 73.415333, -53.0065787 ], [ 73.415842, -53.0067892 ], [ 73.4165823, -53.0076158 ], [ 73.4168672, -53.0079215 ], [ 73.4172642, -53.0083217 ], [ 73.4171355, -53.00858 ], [ 73.4165776, -53.0086639 ], [ 73.4161484, -53.0088253 ], [ 73.4153759, -53.0093288 ], [ 73.4155052, -53.0095158 ], [ 73.4153116, -53.0095935 ], [ 73.4146893, -53.0098258 ], [ 73.4154618, -53.0104326 ], [ 73.4157729, -53.0113686 ], [ 73.4156478, -53.011682 ], [ 73.4164704, -53.0132333 ], [ 73.4160551, -53.0145761 ], [ 73.4139275, -53.0162032 ], [ 73.4129834, -53.0171714 ], [ 73.4113287, -53.017766 ], [ 73.4097862, -53.0186558 ], [ 73.4095073, -53.0191205 ], [ 73.4089494, -53.0195981 ], [ 73.4080638, -53.0197772 ], [ 73.4082842, -53.0210566 ], [ 73.4093065, -53.0225311 ], [ 73.4125658, -53.0247232 ], [ 73.4151382, -53.0260829 ], [ 73.4175968, -53.0270194 ], [ 73.4203815, -53.0277658 ], [ 73.4256621, -53.0292556 ], [ 73.4264448, -53.0293162 ], [ 73.4332569, -53.0302805 ], [ 73.4354487, -53.03033 ], [ 73.4370956, -53.0304972 ], [ 73.4429383, -53.0305166 ], [ 73.4487963, -53.0302843 ], [ 73.4605403, -53.0292523 ], [ 73.4660716, -53.0283369 ], [ 73.4771863, -53.0250833 ], [ 73.4869711, -53.0227963 ], [ 73.4909955, -53.020824 ], [ 73.4928182, -53.019588 ], [ 73.4938682, -53.0177751 ], [ 73.4924338, -53.0164548 ], [ 73.4916288, -53.0147657 ], [ 73.492266, -53.0129193 ], [ 73.4964077, -53.0107591 ], [ 73.500936, -53.0112981 ], [ 73.5022354, -53.0122694 ], [ 73.5064447, -53.0121304 ], [ 73.507515, -53.0130969 ], [ 73.5070026, -53.0145849 ], [ 73.5062078, -53.0158506 ], [ 73.5071808, -53.0169603 ], [ 73.5115239, -53.0178453 ], [ 73.5157848, -53.0177174 ], [ 73.5221688, -53.0174442 ], [ 73.5291057, -53.0161275 ], [ 73.5344567, -53.0135354 ], [ 73.5367115, -53.0130893 ], [ 73.5401135, -53.0141542 ], [ 73.5423141, -53.0159862 ], [ 73.5426962, -53.0170332 ], [ 73.5466484, -53.018266 ], [ 73.5491159, -53.0190654 ], [ 73.5515038, -53.0193846 ], [ 73.5533818, -53.0198069 ], [ 73.5627013, -53.0205563 ], [ 73.5649468, -53.0194098 ], [ 73.5708371, -53.0188391 ], [ 73.5752345, -53.0199922 ], [ 73.5838617, -53.024165 ], [ 73.5948597, -53.029484 ], [ 73.602838, -53.0334427 ], [ 73.6092848, -53.0360638 ], [ 73.6175683, -53.0364892 ], [ 73.6233813, -53.0365378 ], [ 73.6275362, -53.0383694 ], [ 73.6311128, -53.0380343 ], [ 73.6352659, -53.0385189 ], [ 73.6379956, -53.0397621 ], [ 73.6418487, -53.0403397 ], [ 73.6471973, -53.0451319 ], [ 73.6485909, -53.0481871 ], [ 73.6499585, -53.0495884 ], [ 73.6506063, -53.0511825 ], [ 73.6512834, -53.0530501 ], [ 73.6516305, -53.054111 ], [ 73.652526, -53.0554111 ], [ 73.6534854, -53.0565784 ], [ 73.6545559, -53.0577228 ], [ 73.6563859, -53.0593299 ], [ 73.6570516, -53.0599144 ], [ 73.6571145, -53.0599697 ], [ 73.658133, -53.0610093 ], [ 73.658482, -53.0614962 ], [ 73.6588936, -53.0623213 ], [ 73.6589923, -53.0626771 ], [ 73.6594948, -53.0634981 ], [ 73.6598804, -53.0641892 ], [ 73.6605428, -53.064912 ], [ 73.660974, -53.0653825 ], [ 73.6615137, -53.0659329 ], [ 73.6647617, -53.0680151 ], [ 73.6648856, -53.0686308 ], [ 73.6654476, -53.0691522 ], [ 73.6662492, -53.0695346 ], [ 73.6666099, -53.0697778 ], [ 73.666704, -53.0698412 ], [ 73.6682227, -53.0708652 ], [ 73.6716108, -53.0732956 ], [ 73.6743644, -53.0761058 ], [ 73.6744658, -53.076739 ], [ 73.6744201, -53.0771943 ], [ 73.6743957, -53.0774376 ], [ 73.6744775, -53.0777921 ], [ 73.6746762, -53.0781888 ], [ 73.6747814, -53.0787049 ], [ 73.675319, -53.0795509 ], [ 73.6757924, -53.080439 ], [ 73.6760476, -53.0811527 ], [ 73.6759861, -53.0829299 ], [ 73.6762277, -53.0839084 ], [ 73.6763084, -53.0842354 ], [ 73.6769117, -53.0855955 ], [ 73.6773288, -53.0861453 ], [ 73.6777972, -53.0867627 ], [ 73.6790024, -53.087567 ], [ 73.6800546, -53.0882691 ], [ 73.6910987, -53.0926534 ], [ 73.700247, -53.0957514 ], [ 73.702628, -53.0965577 ], [ 73.7086422, -53.0987765 ], [ 73.7125674, -53.1010887 ], [ 73.719446, -53.1055632 ], [ 73.7249654, -53.1073534 ], [ 73.7260089, -53.1076919 ], [ 73.7289349, -53.1095384 ], [ 73.7350467, -53.113395 ], [ 73.7377869, -53.115124 ], [ 73.7391085, -53.1154898 ], [ 73.740161, -53.1156224 ], [ 73.7406519, -53.1162465 ], [ 73.7438158, -53.1171895 ], [ 73.7516682, -53.1192192 ], [ 73.7601591, -53.120337 ], [ 73.7642839, -53.120506 ], [ 73.7706584, -53.1207671 ], [ 73.7761692, -53.1205132 ] ] ] ] } },
{ "type": "Feature", "properties": { "FID": 343511, "id": 1829, "left": 70.0, "top": -50.0, "right": 75.0, "bottom": -55.0, "row_index": 28, "col_index": 50, "min_lon": 70.0, "min_lat": -55.0, "tile_id": "70_-55" }, "geometry": { "type": "MultiPolygon", "coordinates": [ [ [ [ 73.5875025, -52.9285522 ], [ 73.5871632, -52.9283924 ], [ 73.5865905, -52.9276892 ], [ 73.5857898, -52.9275033 ], [ 73.5863218, -52.9272444 ], [ 73.586791, -52.9271561 ], [ 73.587623, -52.9267639 ], [ 73.5892743, -52.9268828 ], [ 73.5892737, -52.9274057 ], [ 73.5878793, -52.9275582 ], [ 73.5882872, -52.9282517 ], [ 73.5884076, -52.9290366 ], [ 73.5875025, -52.9285522 ] ] ] ] } },
{ "type": "Feature", "properties": { "FID": 343512, "id": 1829, "left": 70.0, "top": -50.0, "right": 75.0, "bottom": -55.0, "row_index": 28, "col_index": 50, "min_lon": 70.0, "min_lat": -55.0, "tile_id": "70_-55" }, "geometry": { "type": "MultiPolygon", "coordinates": [ [ [ [ 73.5824024, -52.9218647 ], [ 73.5822762, -52.9218979 ], [ 73.5821292, -52.9218006 ], [ 73.5820403, -52.9218759 ], [ 73.5819196, -52.9217837 ], [ 73.5815874, -52.9216927 ], [ 73.5815184, -52.9215824 ], [ 73.5811623, -52.9215924 ], [ 73.5809498, -52.9215446 ], [ 73.5809131, -52.9216422 ], [ 73.5802159, -52.9216891 ], [ 73.579744, -52.9216893 ], [ 73.5797188, -52.9217376 ], [ 73.5793892, -52.9217332 ], [ 73.5792981, -52.9216717 ], [ 73.5789997, -52.9217065 ], [ 73.5788621, -52.9217776 ], [ 73.5786794, -52.921628 ], [ 73.5785365, -52.9216659 ], [ 73.5784717, -52.9215832 ], [ 73.5783617, -52.9215494 ], [ 73.5784028, -52.9214367 ], [ 73.5783612, -52.9212881 ], [ 73.5783564, -52.9211698 ], [ 73.5783595, -52.9210083 ], [ 73.5785063, -52.920986 ], [ 73.5788286, -52.9209732 ], [ 73.5786378, -52.9209453 ], [ 73.5786215, -52.9208441 ], [ 73.5785254, -52.9207429 ], [ 73.5784503, -52.9206111 ], [ 73.5786017, -52.920413 ], [ 73.5788105, -52.9203396 ], [ 73.579131, -52.9202662 ], [ 73.5795632, -52.9203034 ], [ 73.5799307, -52.9202836 ], [ 73.5800029, -52.9202352 ], [ 73.5801306, -52.9202255 ], [ 73.5803221, -52.9201196 ], [ 73.5801666, -52.9199801 ], [ 73.5798836, -52.9198983 ], [ 73.5798201, -52.9197973 ], [ 73.5796927, -52.9197636 ], [ 73.5796929, -52.9196914 ], [ 73.5798686, -52.9196433 ], [ 73.5799167, -52.9194894 ], [ 73.579691, -52.9193944 ], [ 73.5799039, -52.9193475 ], [ 73.5802498, -52.919321 ], [ 73.5801661, -52.9192145 ], [ 73.5804324, -52.9191052 ], [ 73.5808506, -52.9192162 ], [ 73.5813167, -52.9193561 ], [ 73.5815395, -52.9193302 ], [ 73.5820249, -52.91936 ], [ 73.5819926, -52.9192796 ], [ 73.5818724, -52.9192071 ], [ 73.581934, -52.9189974 ], [ 73.5821212, -52.9188859 ], [ 73.5818709, -52.9188248 ], [ 73.5819554, -52.9187349 ], [ 73.5820879, -52.9187124 ], [ 73.5822139, -52.9187876 ], [ 73.5823208, -52.9186858 ], [ 73.5824551, -52.9186989 ], [ 73.5826533, -52.9186926 ], [ 73.5827943, -52.9186619 ], [ 73.5829831, -52.9186504 ], [ 73.5829645, -52.9185667 ], [ 73.5826589, -52.9184927 ], [ 73.5826099, -52.9182862 ], [ 73.5826407, -52.9181085 ], [ 73.582447, -52.9182245 ], [ 73.5822788, -52.918127 ], [ 73.5823184, -52.9179797 ], [ 73.5823244, -52.9178585 ], [ 73.5821984, -52.9178036 ], [ 73.5823853, -52.9177639 ], [ 73.5824301, -52.9176946 ], [ 73.5825979, -52.9177219 ], [ 73.5828033, -52.9177575 ], [ 73.5829726, -52.917646 ], [ 73.5828651, -52.9175912 ], [ 73.5827515, -52.9174778 ], [ 73.5825582, -52.9173644 ], [ 73.5827996, -52.9172991 ], [ 73.5826028, -52.9171254 ], [ 73.5826529, -52.9170168 ], [ 73.5829757, -52.9170382 ], [ 73.5830334, -52.9168084 ], [ 73.5829187, -52.9166791 ], [ 73.582804, -52.9165691 ], [ 73.5826804, -52.9164111 ], [ 73.582997, -52.9161275 ], [ 73.5831939, -52.9160314 ], [ 73.5835126, -52.9159992 ], [ 73.583632, -52.9159045 ], [ 73.5840462, -52.9157728 ], [ 73.5840499, -52.9156444 ], [ 73.5839739, -52.9155353 ], [ 73.5838857, -52.9155767 ], [ 73.5836745, -52.9154354 ], [ 73.5835112, -52.9153855 ], [ 73.5834238, -52.915228 ], [ 73.5835362, -52.9150542 ], [ 73.5836639, -52.9147396 ], [ 73.5832572, -52.9145163 ], [ 73.5829863, -52.9143439 ], [ 73.5827292, -52.9143413 ], [ 73.5826157, -52.9142328 ], [ 73.5831702, -52.9142949 ], [ 73.5836926, -52.9143532 ], [ 73.5837793, -52.9144706 ], [ 73.5839139, -52.9144919 ], [ 73.5840353, -52.9146066 ], [ 73.584029, -52.9147501 ], [ 73.5843196, -52.9148353 ], [ 73.584355, -52.9150118 ], [ 73.5844604, -52.9150761 ], [ 73.5847125, -52.9150553 ], [ 73.5846836, -52.915174 ], [ 73.5849008, -52.9150826 ], [ 73.5850005, -52.9152686 ], [ 73.5850468, -52.9154062 ], [ 73.5848857, -52.9155245 ], [ 73.5848837, -52.9156752 ], [ 73.584794, -52.9158452 ], [ 73.5846464, -52.9158004 ], [ 73.5844949, -52.9159801 ], [ 73.5842874, -52.9158586 ], [ 73.5841437, -52.9160004 ], [ 73.5841752, -52.9162454 ], [ 73.5843373, -52.9164165 ], [ 73.5843901, -52.9165955 ], [ 73.5843232, -52.9167648 ], [ 73.5842214, -52.9168726 ], [ 73.5841904, -52.9170017 ], [ 73.584, -52.9174867 ], [ 73.5841614, -52.9175237 ], [ 73.5842744, -52.9176133 ], [ 73.5843884, -52.9176457 ], [ 73.5845379, -52.9178023 ], [ 73.5842886, -52.9178963 ], [ 73.5842924, -52.9180266 ], [ 73.5841963, -52.9180949 ], [ 73.583765, -52.9181642 ], [ 73.5839876, -52.9182623 ], [ 73.5842421, -52.9183219 ], [ 73.5842075, -52.9184933 ], [ 73.5844811, -52.9184897 ], [ 73.5845898, -52.9185787 ], [ 73.5845519, -52.9187087 ], [ 73.5843637, -52.9187021 ], [ 73.5845009, -52.918819 ], [ 73.5845105, -52.9189167 ], [ 73.5844372, -52.9190863 ], [ 73.5847213, -52.919031 ], [ 73.584811, -52.9191033 ], [ 73.5851834, -52.9192014 ], [ 73.5854042, -52.9193236 ], [ 73.5854568, -52.9194231 ], [ 73.5856131, -52.9195227 ], [ 73.5857023, -52.9196833 ], [ 73.5858702, -52.9197885 ], [ 73.5857972, -52.919875 ], [ 73.5858546, -52.9199514 ], [ 73.5858843, -52.9200927 ], [ 73.5858184, -52.9202821 ], [ 73.5857564, -52.920423 ], [ 73.5855987, -52.9204917 ], [ 73.5855705, -52.9205426 ], [ 73.5853828, -52.9205671 ], [ 73.5852748, -52.9206156 ], [ 73.5852894, -52.9207424 ], [ 73.585085, -52.920804 ], [ 73.5849763, -52.9207838 ], [ 73.5844398, -52.9208397 ], [ 73.5840438, -52.9207102 ], [ 73.5840306, -52.9208116 ], [ 73.5838606, -52.9208604 ], [ 73.5835525, -52.9210542 ], [ 73.5834148, -52.9211821 ], [ 73.5832329, -52.9211742 ], [ 73.5831167, -52.9212085 ], [ 73.5831057, -52.9212733 ], [ 73.5831634, -52.9213164 ], [ 73.5830157, -52.9213642 ], [ 73.5830035, -52.9215273 ], [ 73.5829435, -52.9216905 ], [ 73.5825598, -52.9218815 ], [ 73.5824024, -52.9218647 ] ] ] ] } },
{ "type": "Feature", "properties": { "FID": 343537, "id": 1829, "left": 70.0, "top": -50.0, "right": 75.0, "bottom": -55.0, "row_index": 28, "col_index": 50, "min_lon": 70.0, "min_lat": -55.0, "tile_id": "70_-55" }, "geometry": { "type": "MultiPolygon", "coordinates": [ [ [ [ 73.4082417, -53.1763885 ], [ 73.4082265, -53.1763794 ], [ 73.4082479, -53.176352 ], [ 73.4082991, -53.1763483 ], [ 73.4083281, -53.1763752 ], [ 73.4083073, -53.1763943 ], [ 73.4082417, -53.1763885 ] ] ] ] } },
{ "type": "Feature", "properties": { "FID": 343538, "id": 1829, "left": 70.0, "top": -50.0, "right": 75.0, "bottom": -55.0, "row_index": 28, "col_index": 50, "min_lon": 70.0, "min_lat": -55.0, "tile_id": "70_-55" }, "geometry": { "type": "MultiPolygon", "coordinates": [ [ [ [ 73.4063093, -53.1773928 ], [ 73.4063689, -53.1774373 ], [ 73.4063523, -53.1774789 ], [ 73.4062331, -53.1775029 ], [ 73.4061344, -53.1774619 ], [ 73.4061452, -53.1774268 ], [ 73.4062683, -53.177384 ], [ 73.4063093, -53.1773928 ] ] ] ] } },
{ "type": "Feature", "properties": { "FID": 343539, "id": 1829, "left": 70.0, "top": -50.0, "right": 75.0, "bottom": -55.0, "row_index": 28, "col_index": 50, "min_lon": 70.0, "min_lat": -55.0, "tile_id": "70_-55" }, "geometry": { "type": "MultiPolygon", "coordinates": [ [ [ [ 73.4327837, -53.1684728 ], [ 73.4328874, -53.1684422 ], [ 73.4329661, -53.168472 ], [ 73.4329731, -53.1685085 ], [ 73.4329067, -53.1685424 ], [ 73.4328031, -53.1685697 ], [ 73.4327243, -53.1685374 ], [ 73.4327837, -53.1684728 ] ] ] ] } },
{ "type": "Feature", "properties": { "FID": 343540, "id": 1829, "left": 70.0, "top": -50.0, "right": 75.0, "bottom": -55.0, "row_index": 28, "col_index": 50, "min_lon": 70.0, "min_lat": -55.0, "tile_id": "70_-55" }, "geometry": { "type": "MultiPolygon", "coordinates": [ [ [ [ 73.4247721, -53.1640163 ], [ 73.4247555, -53.1639608 ], [ 73.4248136, -53.1638821 ], [ 73.4248771, -53.1638705 ], [ 73.4249669, -53.1639252 ], [ 73.4249835, -53.1639948 ], [ 73.4248315, -53.1640445 ], [ 73.4247721, -53.1640163 ] ] ] ] } },
{ "type": "Feature", "properties": { "FID": 343541, "id": 1829, "left": 70.0, "top": -50.0, "right": 75.0, "bottom": -55.0, "row_index": 28, "col_index": 50, "min_lon": 70.0, "min_lat": -55.0, "tile_id": "70_-55" }, "geometry": { "type": "MultiPolygon", "coordinates": [ [ [ [ 73.43141, -53.1692457 ], [ 73.4314657, -53.1692796 ], [ 73.4315068, -53.1693329 ], [ 73.4314716, -53.1693862 ], [ 73.4313944, -53.1694108 ], [ 73.4312576, -53.169378 ], [ 73.4312156, -53.1693247 ], [ 73.4312654, -53.1692515 ], [ 73.43141, -53.1692457 ] ] ] ] } },
{ "type": "Feature", "properties": { "FID": 343542, "id": 1829, "left": 70.0, "top": -50.0, "right": 75.0, "bottom": -55.0, "row_index": 28, "col_index": 50, "min_lon": 70.0, "min_lat": -55.0, "tile_id": "70_-55" }, "geometry": { "type": "MultiPolygon", "coordinates": [ [ [ [ 73.4353762, -53.171011 ], [ 73.4353624, -53.1709729 ], [ 73.4354466, -53.1708917 ], [ 73.4356083, -53.170784 ], [ 73.4357852, -53.1707617 ], [ 73.4358073, -53.1707873 ], [ 73.4357783, -53.1708851 ], [ 73.4356816, -53.1709687 ], [ 73.4354701, -53.1710226 ], [ 73.4353762, -53.171011 ] ] ] ] } },
{ "type": "Feature", "properties": { "FID": 345063, "id": 1829, "left": 70.0, "top": -50.0, "right": 75.0, "bottom": -55.0, "row_index": 28, "col_index": 50, "min_lon": 70.0, "min_lat": -55.0, "tile_id": "70_-55" }, "geometry": { "type": "MultiPolygon", "coordinates": [ [ [ [ 73.570197, -53.0176715 ], [ 73.5705384, -53.0180864 ], [ 73.5703235, -53.0180721 ], [ 73.5700028, -53.0178574 ], [ 73.5698553, -53.0176116 ], [ 73.569901, -53.0175024 ], [ 73.570197, -53.0176715 ] ] ] ] } },
{ "type": "Feature", "properties": { "FID": 345064, "id": 1829, "left": 70.0, "top": -50.0, "right": 75.0, "bottom": -55.0, "row_index": 28, "col_index": 50, "min_lon": 70.0, "min_lat": -55.0, "tile_id": "70_-55" }, "geometry": { "type": "MultiPolygon", "coordinates": [ [ [ [ 73.3598562, -53.0785521 ], [ 73.3601613, -53.078069 ], [ 73.3622691, -53.0774358 ], [ 73.3637391, -53.0773025 ], [ 73.3650565, -53.0778774 ], [ 73.3653893, -53.0784688 ], [ 73.3645157, -53.0790353 ], [ 73.3625465, -53.0794102 ], [ 73.3602584, -53.0789603 ], [ 73.3598562, -53.0785521 ] ] ] ] } },
{ "type": "Feature", "properties": { "FID": 345065, "id": 1829, "left": 70.0, "top": -50.0, "right": 75.0, "bottom": -55.0, "row_index": 28, "col_index": 50, "min_lon": 70.0, "min_lat": -55.0, "tile_id": "70_-55" }, "geometry": { "type": "MultiPolygon", "coordinates": [ [ [ [ 73.5682048, -52.9031405 ], [ 73.5683579, -52.9030281 ], [ 73.5684183, -52.9029516 ], [ 73.5685415, -52.9028828 ], [ 73.5687178, -52.9029408 ], [ 73.5687367, -52.90308 ], [ 73.5685312, -52.9031897 ], [ 73.568509, -52.9032301 ], [ 73.5683206, -52.9032967 ], [ 73.5682389, -52.9032642 ], [ 73.5682099, -52.9032576 ], [ 73.5682048, -52.9031405 ] ] ] ] } },
{ "type": "Feature", "properties": { "FID": 345078, "id": 1829, "left": 70.0, "top": -50.0, "right": 75.0, "bottom": -55.0, "row_index": 28, "col_index": 50, "min_lon": 70.0, "min_lat": -55.0, "tile_id": "70_-55" }, "geometry": { "type": "MultiPolygon", "coordinates": [ [ [ [ 73.3664498, -53.0382925 ], [ 73.3660743, -53.0383247 ], [ 73.3656022, -53.0383118 ], [ 73.3654735, -53.0381248 ], [ 73.365275, -53.0380322 ], [ 73.3652481, -53.0378989 ], [ 73.3651409, -53.0377796 ], [ 73.3649711, -53.0376229 ], [ 73.3649371, -53.0373635 ], [ 73.3649719, -53.0370586 ], [ 73.3654465, -53.0367962 ], [ 73.3658383, -53.0369119 ], [ 73.3662674, -53.03697 ], [ 73.3666429, -53.0371247 ], [ 73.3667824, -53.0372344 ], [ 73.3667931, -53.0372925 ], [ 73.3667713, -53.037339 ], [ 73.3666663, -53.0374554 ], [ 73.3666107, -53.0374925 ], [ 73.36659, -53.0375427 ], [ 73.3666215, -53.0377183 ], [ 73.366711, -53.0378455 ], [ 73.3665571, -53.0380796 ], [ 73.3665356, -53.0381893 ], [ 73.3664498, -53.0382925 ] ] ] ] } },
{ "type": "Feature", "properties": { "FID": 345079, "id": 1829, "left": 70.0, "top": -50.0, "right": 75.0, "bottom": -55.0, "row_index": 28, "col_index": 50, "min_lon": 70.0, "min_lat": -55.0, "tile_id": "70_-55" }, "geometry": { "type": "MultiPolygon", "coordinates": [ [ [ [ 73.3032408, -52.9625345 ], [ 73.3032935, -52.96248 ], [ 73.3034149, -52.962472 ], [ 73.3035644, -52.962509 ], [ 73.3037706, -52.9626173 ], [ 73.3039587, -52.9626715 ], [ 73.3042084, -52.962609 ], [ 73.304397, -52.9624925 ], [ 73.3045573, -52.9622651 ], [ 73.3047876, -52.9620887 ], [ 73.3051208, -52.9619746 ], [ 73.3054201, -52.9618669 ], [ 73.3059531, -52.9618573 ], [ 73.306791, -52.9619332 ], [ 73.3076267, -52.9622918 ], [ 73.307989, -52.9625743 ], [ 73.3083583, -52.9629932 ], [ 73.3088554, -52.9638754 ], [ 73.3090226, -52.9642648 ], [ 73.3090283, -52.9648943 ], [ 73.3090383, -52.9653711 ], [ 73.3088783, -52.9659587 ], [ 73.3082025, -52.9672755 ], [ 73.3076704, -52.9678334 ], [ 73.3074113, -52.968415 ], [ 73.3072514, -52.9690264 ], [ 73.3069855, -52.9697353 ], [ 73.3069276, -52.9700833 ], [ 73.3068987, -52.9703607 ], [ 73.3068671, -52.9706324 ], [ 73.3068147, -52.9707511 ], [ 73.306767, -52.9708016 ], [ 73.3066909, -52.9708373 ], [ 73.3065477, -52.9708952 ], [ 73.3064395, -52.9709106 ], [ 73.3063485, -52.9709032 ], [ 73.3062655, -52.9708712 ], [ 73.3061846, -52.9708093 ], [ 73.3061685, -52.9707196 ], [ 73.3061483, -52.9706714 ], [ 73.30613, -52.9706404 ], [ 73.3060854, -52.970669 ], [ 73.3060233, -52.9707007 ], [ 73.3059547, -52.970719 ], [ 73.305886, -52.9707226 ], [ 73.3057352, -52.9706928 ], [ 73.3056302, -52.9706655 ], [ 73.3055677, -52.9706211 ], [ 73.3055601, -52.9705738 ], [ 73.3056271, -52.9705288 ], [ 73.3056587, -52.9704625 ], [ 73.3056505, -52.970385 ], [ 73.3056201, -52.9702981 ], [ 73.305616, -52.9701883 ], [ 73.3055375, -52.9699377 ], [ 73.3055462, -52.969778 ], [ 73.3054763, -52.9696491 ], [ 73.3053104, -52.9695634 ], [ 73.3051814, -52.9695034 ], [ 73.3051308, -52.9694576 ], [ 73.3051444, -52.9693728 ], [ 73.305176, -52.9693155 ], [ 73.3051837, -52.9692605 ], [ 73.3051384, -52.9691862 ], [ 73.3050972, -52.969123 ], [ 73.3050432, -52.9690562 ], [ 73.3050034, -52.9690107 ], [ 73.3049424, -52.9689908 ], [ 73.3048663, -52.9689915 ], [ 73.3048043, -52.9690177 ], [ 73.3047335, -52.9690801 ], [ 73.3046485, -52.9691622 ], [ 73.3045634, -52.9692838 ], [ 73.3044905, -52.9694053 ], [ 73.3043941, -52.9695117 ], [ 73.304256, -52.9697208 ], [ 73.3042096, -52.9699238 ], [ 73.3041733, -52.9700066 ], [ 73.3041093, -52.9700857 ], [ 73.3040716, -52.9701055 ], [ 73.3040309, -52.9701197 ], [ 73.3039625, -52.9701283 ], [ 73.3039035, -52.9701148 ], [ 73.3038709, -52.9700913 ], [ 73.3038406, -52.97008 ], [ 73.3038073, -52.9700808 ], [ 73.3037868, -52.9700981 ], [ 73.303789, -52.9701291 ], [ 73.3037973, -52.970167 ], [ 73.3038386, -52.9702409 ], [ 73.3038514, -52.970307 ], [ 73.3038122, -52.9703445 ], [ 73.3037665, -52.9703547 ], [ 73.3037239, -52.9703482 ], [ 73.3036726, -52.9702925 ], [ 73.3035974, -52.9703925 ], [ 73.3034643, -52.9705363 ], [ 73.303317, -52.9706801 ], [ 73.3032667, -52.9707334 ], [ 73.3032483, -52.9707952 ], [ 73.3032681, -52.9708549 ], [ 73.3033219, -52.9709061 ], [ 73.3034152, -52.9710255 ], [ 73.3034643, -52.9710948 ], [ 73.3034907, -52.9711744 ], [ 73.3034818, -52.9712434 ], [ 73.3035123, -52.9713046 ], [ 73.3035676, -52.9713403 ], [ 73.3036356, -52.9713988 ], [ 73.3036656, -52.9714816 ], [ 73.3036312, -52.9715752 ], [ 73.3035614, -52.9716431 ], [ 73.303361, -52.9717167 ], [ 73.3031263, -52.9717407 ], [ 73.3028208, -52.9717135 ], [ 73.302519, -52.9717541 ], [ 73.3021705, -52.9717504 ], [ 73.3018715, -52.9716957 ], [ 73.3016275, -52.9715605 ], [ 73.301426, -52.9713849 ], [ 73.3013376, -52.9712561 ], [ 73.3011401, -52.9710225 ], [ 73.3010038, -52.970772 ], [ 73.3008839, -52.9704314 ], [ 73.3009232, -52.9701508 ], [ 73.3010446, -52.969848 ], [ 73.3012445, -52.9696171 ], [ 73.3016872, -52.9693105 ], [ 73.3022079, -52.968917 ], [ 73.3028844, -52.9681559 ], [ 73.3033284, -52.9674008 ], [ 73.3036875, -52.9667224 ], [ 73.3037627, -52.966152 ], [ 73.3037429, -52.9659987 ], [ 73.3036523, -52.9658795 ], [ 73.3035278, -52.9657691 ], [ 73.303293, -52.9656997 ], [ 73.3030494, -52.9656443 ], [ 73.302849, -52.9656149 ], [ 73.3026577, -52.9656155 ], [ 73.3025527, -52.9655596 ], [ 73.3024476, -52.9655306 ], [ 73.3024104, -52.965485 ], [ 73.302405, -52.9654476 ], [ 73.3024387, -52.9653785 ], [ 73.3024846, -52.9653339 ], [ 73.3026057, -52.96526 ], [ 73.3026886, -52.9652156 ], [ 73.3027626, -52.9651678 ], [ 73.3027894, -52.9651304 ], [ 73.3027439, -52.9650553 ], [ 73.3027309, -52.9650048 ], [ 73.3027457, -52.9649694 ], [ 73.3028215, -52.9648923 ], [ 73.3028389, -52.9648336 ], [ 73.3028656, -52.9647481 ], [ 73.3029099, -52.9647199 ], [ 73.302983, -52.964688 ], [ 73.3030131, -52.9646594 ], [ 73.3030138, -52.9646057 ], [ 73.3029984, -52.9645585 ], [ 73.3030104, -52.9645222 ], [ 73.303048, -52.9645126 ], [ 73.3031157, -52.9645195 ], [ 73.3031804, -52.9645351 ], [ 73.3032476, -52.9645332 ], [ 73.3032987, -52.9645006 ], [ 73.3032976, -52.9644712 ], [ 73.3032642, -52.9644273 ], [ 73.3032136, -52.9643847 ], [ 73.303158, -52.96435 ], [ 73.3031437, -52.9643248 ], [ 73.3031498, -52.9642935 ], [ 73.3031737, -52.9642592 ], [ 73.3032059, -52.9642298 ], [ 73.3032131, -52.9641856 ], [ 73.3032049, -52.9641506 ], [ 73.3031763, -52.9641168 ], [ 73.3031197, -52.9640715 ], [ 73.3030724, -52.9639988 ], [ 73.303027, -52.9639621 ], [ 73.3029602, -52.9639641 ], [ 73.3029043, -52.9639714 ], [ 73.3028198, -52.9639692 ], [ 73.302758, -52.9639519 ], [ 73.30273, -52.9638823 ], [ 73.3026805, -52.9638257 ], [ 73.3025279, -52.9637479 ], [ 73.3023622, -52.9636667 ], [ 73.3022723, -52.963669 ], [ 73.3022049, -52.9636381 ], [ 73.3021829, -52.9635665 ], [ 73.3021076, -52.9635506 ], [ 73.3020296, -52.9635121 ], [ 73.302016, -52.9634622 ], [ 73.3019542, -52.9634341 ], [ 73.3019528, -52.9634071 ], [ 73.3020031, -52.9633839 ], [ 73.3021033, -52.9633691 ], [ 73.3021749, -52.9633794 ], [ 73.3022295, -52.9634137 ], [ 73.3022165, -52.9634518 ], [ 73.302225, -52.9635126 ], [ 73.3022826, -52.9635521 ], [ 73.3023617, -52.9635787 ], [ 73.3025225, -52.963564 ], [ 73.3026672, -52.9635347 ], [ 73.302782, -52.9634631 ], [ 73.3028362, -52.9633578 ], [ 73.3028698, -52.9631977 ], [ 73.3028903, -52.9629958 ], [ 73.3029575, -52.9628276 ], [ 73.3030191, -52.9627576 ], [ 73.3031536, -52.9627246 ], [ 73.303347, -52.962725 ], [ 73.3033722, -52.962686 ], [ 73.3032956, -52.9625919 ], [ 73.3032408, -52.9625345 ] ] ] ] } },
{ "type": "Feature", "properties": { "FID": 688326, "id": 1829, "left": 70.0, "top": -50.0, "right": 75.0, "bottom": -55.0, "row_index": 28, "col_index": 50, "min_lon": 70.0, "min_lat": -55.0, "tile_id": "70_-55" }, "geometry": { "type": "MultiPolygon", "coordinates": [ [ [ [ 73.3042694, -52.9721252 ], [ 73.30414, -52.9720659 ], [ 73.3040783, -52.9720028 ], [ 73.3040537, -52.9719397 ], [ 73.3040783, -52.9718729 ], [ 73.30414, -52.9718247 ], [ 73.3042201, -52.9718024 ], [ 73.3043556, -52.9717987 ], [ 73.3044296, -52.9717467 ], [ 73.3045528, -52.971654 ], [ 73.3046206, -52.9715797 ], [ 73.3046946, -52.9714907 ], [ 73.3048178, -52.9714127 ], [ 73.304941, -52.9713645 ], [ 73.3051197, -52.9713126 ], [ 73.30528, -52.971242 ], [ 73.3054094, -52.9711678 ], [ 73.3054744, -52.9711113 ], [ 73.305493, -52.9710495 ], [ 73.3054884, -52.9709764 ], [ 73.3054884, -52.9708948 ], [ 73.3055444, -52.9708442 ], [ 73.3056285, -52.9708189 ], [ 73.3057312, -52.9708104 ], [ 73.305862, -52.9708104 ], [ 73.3060067, -52.9708273 ], [ 73.3061608, -52.9708695 ], [ 73.3062823, -52.9709201 ], [ 73.3065765, -52.9710607 ], [ 73.30681, -52.9711985 ], [ 73.3070014, -52.9713335 ], [ 73.3071555, -52.971491 ], [ 73.307277, -52.9716654 ], [ 73.3073517, -52.9718566 ], [ 73.3073797, -52.9719775 ], [ 73.3073797, -52.9721097 ], [ 73.3073143, -52.9721997 ], [ 73.3072863, -52.9722925 ], [ 73.3072723, -52.9724219 ], [ 73.3072536, -52.9725709 ], [ 73.3072116, -52.9727256 ], [ 73.3071182, -52.9729422 ], [ 73.3070388, -52.9730603 ], [ 73.3069267, -52.9731362 ], [ 73.3066699, -52.9732149 ], [ 73.306399, -52.9732627 ], [ 73.3061795, -52.9732881 ], [ 73.3060021, -52.9732852 ], [ 73.3057966, -52.9732571 ], [ 73.3056565, -52.9732149 ], [ 73.3055397, -52.9731474 ], [ 73.3054463, -52.9730968 ], [ 73.3053389, -52.9730687 ], [ 73.3051895, -52.9730406 ], [ 73.3050447, -52.973004 ], [ 73.3048859, -52.9729281 ], [ 73.3047505, -52.9728522 ], [ 73.3046384, -52.9728072 ], [ 73.3045357, -52.9727453 ], [ 73.3044329, -52.972675 ], [ 73.3043115, -52.9726272 ], [ 73.3042181, -52.9726159 ], [ 73.3040827, -52.9726103 ], [ 73.3039986, -52.9725906 ], [ 73.3039426, -52.97254 ], [ 73.3039379, -52.9724669 ], [ 73.3039566, -52.972391 ], [ 73.3040126, -52.972346 ], [ 73.3041014, -52.9723206 ], [ 73.3042555, -52.9722756 ], [ 73.3043162, -52.9722447 ], [ 73.3043278, -52.9721734 ], [ 73.3042694, -52.9721252 ] ] ] ] } },
{ "type": "Feature", "properties": { "FID": 713349, "id": 1829, "left": 70.0, "top": -50.0, "right": 75.0, "bottom": -55.0, "row_index": 28, "col_index": 50, "min_lon": 70.0, "min_lat": -55.0, "tile_id": "70_-55" }, "geometry": { "type": "MultiPolygon", "coordinates": [ [ [ [ 73.5678877, -52.9027879 ], [ 73.5679444, -52.9027878 ], [ 73.5679824, -52.90279 ], [ 73.5679935, -52.9028099 ], [ 73.5679798, -52.9028227 ], [ 73.5679937, -52.9028468 ], [ 73.5679598, -52.9028646 ], [ 73.5679286, -52.9028569 ], [ 73.5678754, -52.9028526 ], [ 73.5678554, -52.9027994 ], [ 73.5678877, -52.9027879 ] ] ] ] } },
{ "type": "Feature", "properties": { "FID": 713350, "id": 1829, "left": 70.0, "top": -50.0, "right": 75.0, "bottom": -55.0, "row_index": 28, "col_index": 50, "min_lon": 70.0, "min_lat": -55.0, "tile_id": "70_-55" }, "geometry": { "type": "MultiPolygon", "coordinates": [ [ [ [ 73.567761, -52.9027574 ], [ 73.5677785, -52.9027823 ], [ 73.5678421, -52.9028283 ], [ 73.5678159, -52.9028876 ], [ 73.5677718, -52.9029043 ], [ 73.5677057, -52.9028928 ], [ 73.5676718, -52.9028696 ], [ 73.5676363, -52.9028246 ], [ 73.5675931, -52.9028163 ], [ 73.5676079, -52.9027909 ], [ 73.5676868, -52.9027685 ], [ 73.5677271, -52.9027408 ], [ 73.567761, -52.9027574 ] ] ] ] } },
{ "type": "Feature", "properties": { "FID": 713351, "id": 1829, "left": 70.0, "top": -50.0, "right": 75.0, "bottom": -55.0, "row_index": 28, "col_index": 50, "min_lon": 70.0, "min_lat": -55.0, "tile_id": "70_-55" }, "geometry": { "type": "MultiPolygon", "coordinates": [ [ [ [ 73.5681215, -52.9027484 ], [ 73.5681392, -52.9027548 ], [ 73.5681651, -52.9027688 ], [ 73.5681805, -52.9027835 ], [ 73.5681977, -52.9028111 ], [ 73.5681936, -52.9028246 ], [ 73.5681783, -52.9028432 ], [ 73.568126, -52.9028644 ], [ 73.5680997, -52.9028742 ], [ 73.5680639, -52.902878 ], [ 73.5680396, -52.9028683 ], [ 73.5680297, -52.9028479 ], [ 73.5680499, -52.9028297 ], [ 73.568053, -52.9028071 ], [ 73.5680671, -52.902784 ], [ 73.5680864, -52.9027569 ], [ 73.5681215, -52.9027484 ] ] ] ] } },
{ "type": "Feature", "properties": { "FID": 713909, "id": 1829, "left": 70.0, "top": -50.0, "right": 75.0, "bottom": -55.0, "row_index": 28, "col_index": 50, "min_lon": 70.0, "min_lat": -55.0, "tile_id": "70_-55" }, "geometry": { "type": "MultiPolygon", "coordinates": [ [ [ [ 73.5695448, -53.0172171 ], [ 73.5694626, -53.0171005 ], [ 73.569674, -53.0170934 ], [ 73.569909, -53.0172241 ], [ 73.5695448, -53.0172171 ] ] ] ] } },
{ "type": "Feature", "properties": { "FID": 717582, "id": 1829, "left": 70.0, "top": -50.0, "right": 75.0, "bottom": -55.0, "row_index": 28, "col_index": 50, "min_lon": 70.0, "min_lat": -55.0, "tile_id": "70_-55" }, "geometry": { "type": "MultiPolygon", "coordinates": [ [ [ [ 73.313939, -52.9760039 ], [ 73.3138814, -52.9762157 ], [ 73.3137151, -52.9762966 ], [ 73.3134528, -52.9761464 ], [ 73.3132033, -52.9760231 ], [ 73.3132481, -52.9759191 ], [ 73.3133825, -52.9758459 ], [ 73.3135232, -52.9759808 ], [ 73.3135744, -52.9758652 ], [ 73.3138111, -52.9759345 ], [ 73.313939, -52.9760039 ] ] ] ] } },
{ "type": "Feature", "properties": { "FID": 775558, "id": 1829, "left": 70.0, "top": -50.0, "right": 75.0, "bottom": -55.0, "row_index": 28, "col_index": 50, "min_lon": 70.0, "min_lat": -55.0, "tile_id": "70_-55" }, "geometry": { "type": "MultiPolygon", "coordinates": [ [ [ [ 72.6002015, -53.0328871 ], [ 72.600157, -53.0328533 ], [ 72.6001613, -53.0328006 ], [ 72.6001216, -53.0327644 ], [ 72.5999629, -53.032749 ], [ 72.5994795, -53.0327555 ], [ 72.5993702, -53.0327011 ], [ 72.5992804, -53.0326997 ], [ 72.5992071, -53.0326164 ], [ 72.5991644, -53.032599 ], [ 72.5991557, -53.0325341 ], [ 72.5991618, -53.0325024 ], [ 72.5990922, -53.0324792 ], [ 72.5990618, -53.032487 ], [ 72.5989598, -53.0322902 ], [ 72.5988568, -53.0323047 ], [ 72.5987864, -53.0322472 ], [ 72.5987784, -53.032201 ], [ 72.5987386, -53.0321997 ], [ 72.5987253, -53.032157 ], [ 72.5986839, -53.0321289 ], [ 72.5986359, -53.0321354 ], [ 72.5985533, -53.0320775 ], [ 72.5985927, -53.0320547 ], [ 72.5984705, -53.0319318 ], [ 72.5983836, -53.0319247 ], [ 72.5983707, -53.0318699 ], [ 72.5985165, -53.0317058 ], [ 72.5984829, -53.0316392 ], [ 72.5985204, -53.0315851 ], [ 72.5984853, -53.0315557 ], [ 72.5984298, -53.0313062 ], [ 72.5984274, -53.0310974 ], [ 72.5984124, -53.0310632 ], [ 72.5984286, -53.030988 ], [ 72.5983749, -53.0308879 ], [ 72.5984189, -53.0308226 ], [ 72.5985479, -53.0307574 ], [ 72.5984859, -53.0307229 ], [ 72.5984936, -53.0306398 ], [ 72.5984023, -53.0305793 ], [ 72.598173, -53.0305725 ], [ 72.5981229, -53.0305123 ], [ 72.5980982, -53.0303712 ], [ 72.5982204, -53.0302456 ], [ 72.5985053, -53.0301648 ], [ 72.5985383, -53.0301119 ], [ 72.5985193, -53.0300849 ], [ 72.5984771, -53.0300664 ], [ 72.5981738, -53.0300555 ], [ 72.5976857, -53.029888 ], [ 72.5976122, -53.029807 ], [ 72.5974954, -53.0297923 ], [ 72.5973964, -53.0297468 ], [ 72.597333, -53.0296315 ], [ 72.5973504, -53.0294839 ], [ 72.5974387, -53.0293287 ], [ 72.5975816, -53.0292761 ], [ 72.5976251, -53.0292374 ], [ 72.5976723, -53.029235 ], [ 72.5976612, -53.0292748 ], [ 72.5977104, -53.0292911 ], [ 72.5977326, -53.0292679 ], [ 72.5977976, -53.0292299 ], [ 72.5978705, -53.0292399 ], [ 72.5979192, -53.0292085 ], [ 72.598015, -53.0292031 ], [ 72.5980903, -53.0292212 ], [ 72.5982527, -53.0292877 ], [ 72.5982802, -53.0293258 ], [ 72.5983183, -53.0293768 ], [ 72.5983633, -53.0294046 ], [ 72.5984458, -53.0294196 ], [ 72.5988346, -53.0293838 ], [ 72.5989336, -53.0294818 ], [ 72.5990019, -53.0295112 ], [ 72.5990453, -53.029597 ], [ 72.5990217, -53.0296596 ], [ 72.599022, -53.029689 ], [ 72.599182, -53.0296883 ], [ 72.5992526, -53.0296579 ], [ 72.5992535, -53.0295858 ], [ 72.5991818, -53.0295204 ], [ 72.599215, -53.0294911 ], [ 72.5991999, -53.0294589 ], [ 72.5993011, -53.0293608 ], [ 72.5993183, -53.0293649 ], [ 72.5994582, -53.0292475 ], [ 72.5994329, -53.0291974 ], [ 72.5994893, -53.0291341 ], [ 72.5995799, -53.0291301 ], [ 72.5996705, -53.0290897 ], [ 72.5998736, -53.0291628 ], [ 72.5999531, -53.029179 ], [ 72.6001147, -53.0293408 ], [ 72.6001655, -53.0293743 ], [ 72.6001702, -53.0293884 ], [ 72.6001387, -53.0294163 ], [ 72.6001602, -53.0294297 ], [ 72.6001707, -53.0294888 ], [ 72.600197, -53.0295288 ], [ 72.6002298, -53.0295647 ], [ 72.6002485, -53.029619 ], [ 72.6002216, -53.0296342 ], [ 72.6002248, -53.0296564 ], [ 72.6001917, -53.0296532 ], [ 72.6001893, -53.0297133 ], [ 72.6002431, -53.0297659 ], [ 72.6002598, -53.0297478 ], [ 72.6003012, -53.0297525 ], [ 72.6003331, -53.0297845 ], [ 72.6003968, -53.0297814 ], [ 72.6005279, -53.0298432 ], [ 72.6005496, -53.0298875 ], [ 72.60061, -53.0299784 ], [ 72.6006044, -53.0300474 ], [ 72.6005553, -53.0300771 ], [ 72.6005262, -53.0301296 ], [ 72.6005655, -53.0302081 ], [ 72.6004987, -53.030305 ], [ 72.6005996, -53.0303118 ], [ 72.6006223, -53.0303459 ], [ 72.6006235, -53.0303818 ], [ 72.6006099, -53.0303917 ], [ 72.6006099, -53.0304728 ], [ 72.6004716, -53.0306125 ], [ 72.6005194, -53.0306333 ], [ 72.600413, -53.0306767 ], [ 72.6004146, -53.0307633 ], [ 72.600358, -53.0307795 ], [ 72.6002719, -53.0308498 ], [ 72.6001844, -53.0309845 ], [ 72.6001961, -53.0310584 ], [ 72.6001733, -53.0312056 ], [ 72.6002083, -53.0312512 ], [ 72.6001692, -53.0313035 ], [ 72.6001607, -53.0313788 ], [ 72.6000556, -53.0315615 ], [ 72.6000355, -53.0316251 ], [ 72.6000426, -53.0316821 ], [ 72.6001121, -53.0316356 ], [ 72.6001435, -53.0318536 ], [ 72.6003737, -53.0316014 ], [ 72.6004155, -53.0316272 ], [ 72.600519, -53.0316121 ], [ 72.6005883, -53.0316543 ], [ 72.6005822, -53.0316979 ], [ 72.6005756, -53.0318139 ], [ 72.6004667, -53.0319333 ], [ 72.6004407, -53.0321306 ], [ 72.600351, -53.032278 ], [ 72.6003775, -53.0323339 ], [ 72.6005102, -53.0323838 ], [ 72.6005667, -53.0324594 ], [ 72.6005992, -53.0326231 ], [ 72.6005579, -53.0327666 ], [ 72.6004695, -53.0328221 ], [ 72.6002815, -53.0328897 ], [ 72.6002015, -53.0328871 ] ] ] ] } }
]
}
