{
"type": "FeatureCollection",
"name": "70_35",
"crs": { "type": "name", "properties": { "name": "urn:ogc:def:crs:OGC:1.3:CRS84" } },
"xy_coordinate_resolution": 1e-15,
"features": [
{ "type": "Feature", "properties": { "FID": 123912, "id": 1811, "left": 70.0, "top": 40.0, "right": 75.0, "bottom": 35.0, "row_index": 10, "col_index": 50, "min_lon": 70.0, "min_lat": 35.0, "tile_id": "70_35" }, "geometry": { "type": "MultiPolygon", "coordinates": [ [ [ [ 75.0, 40.0 ], [ 75.0, 35.0 ], [ 70.0, 35.0 ], [ 70.0, 40.0 ], [ 75.0, 40.0 ] ] ] ] } }
]
}
