{
"type": "FeatureCollection",
"name": "75_-40",
"crs": { "type": "name", "properties": { "name": "urn:ogc:def:crs:OGC:1.3:CRS84" } },
"xy_coordinate_resolution": 1e-15,
"features": [
{ "type": "Feature", "properties": { "FID": 285975, "id": 1862, "left": 75.0, "top": -35.0, "right": 80.0, "bottom": -40.0, "row_index": 25, "col_index": 51, "min_lon": 75.0, "min_lat": -40.0, "tile_id": "75_-40" }, "geometry": { "type": "MultiPolygon", "coordinates": [ [ [ [ 77.5466913, -37.7970588 ], [ 77.5478284, -37.7967153 ], [ 77.5488652, -37.7962528 ], [ 77.5495174, -37.7958035 ], [ 77.550019, -37.795275 ], [ 77.5512565, -37.7952882 ], [ 77.5522765, -37.7951164 ], [ 77.5532798, -37.7948654 ], [ 77.5539153, -37.7942972 ], [ 77.5545883, -37.7939866 ], [ 77.5548392, -37.7938809 ], [ 77.5548392, -37.793577 ], [ 77.5551067, -37.7933259 ], [ 77.5553743, -37.7935373 ], [ 77.5555415, -37.7934581 ], [ 77.5558927, -37.7932334 ], [ 77.5560097, -37.7929823 ], [ 77.556411, -37.7928502 ], [ 77.5572137, -37.7927973 ], [ 77.5579328, -37.7925991 ], [ 77.5588859, -37.7924802 ], [ 77.5595548, -37.7925331 ], [ 77.5601234, -37.7927445 ], [ 77.5608758, -37.7929295 ], [ 77.5622178, -37.7934052 ], [ 77.5630873, -37.7935373 ], [ 77.5640907, -37.7935902 ], [ 77.5650773, -37.793762 ], [ 77.5660806, -37.7939073 ], [ 77.5670672, -37.7941452 ], [ 77.5678364, -37.7943302 ], [ 77.5696508, -37.7947134 ], [ 77.5704869, -37.7949512 ], [ 77.5713899, -37.7951098 ], [ 77.5715571, -37.7951098 ], [ 77.5716407, -37.7949248 ], [ 77.5723096, -37.7949248 ], [ 77.5726775, -37.7950702 ], [ 77.5729331, -37.7953135 ], [ 77.5732167, -37.7951357 ], [ 77.5733149, -37.7951269 ], [ 77.5733727, -37.7951948 ], [ 77.5732675, -37.7954457 ], [ 77.5736975, -37.7953873 ], [ 77.574032, -37.7954269 ], [ 77.5744166, -37.7952684 ], [ 77.5750186, -37.795678 ], [ 77.575052, -37.7958234 ], [ 77.5752527, -37.7959819 ], [ 77.5755369, -37.7959026 ], [ 77.5758547, -37.7958366 ], [ 77.5762894, -37.7964576 ], [ 77.577276, -37.7976865 ], [ 77.5777108, -37.7982547 ], [ 77.5785344, -37.7988823 ], [ 77.5787685, -37.7991994 ], [ 77.5795711, -37.7997808 ], [ 77.5796213, -37.8002432 ], [ 77.5801606, -37.8013531 ], [ 77.5808295, -37.8024894 ], [ 77.581398, -37.8030708 ], [ 77.5821004, -37.8035068 ], [ 77.5828696, -37.8041145 ], [ 77.583388, -37.8044845 ], [ 77.5843746, -37.8063474 ], [ 77.5846087, -37.8068098 ], [ 77.5850602, -37.8073118 ], [ 77.5853779, -37.8075629 ], [ 77.5854448, -37.8080649 ], [ 77.5855618, -37.8084348 ], [ 77.5859841, -37.8095314 ], [ 77.5866697, -37.8103505 ], [ 77.5869874, -37.810694 ], [ 77.5869874, -37.811196 ], [ 77.5873386, -37.8118301 ], [ 77.587673, -37.8121736 ], [ 77.5880242, -37.8126492 ], [ 77.5885927, -37.8130587 ], [ 77.5889606, -37.8135475 ], [ 77.5892616, -37.8140495 ], [ 77.5896295, -37.8142741 ], [ 77.5895626, -37.8148421 ], [ 77.5895124, -37.8152781 ], [ 77.5896964, -37.8155027 ], [ 77.5895124, -37.8156876 ], [ 77.5898803, -37.816467 ], [ 77.5901144, -37.8173124 ], [ 77.5901813, -37.817788 ], [ 77.5906161, -37.8184089 ], [ 77.5909505, -37.8190561 ], [ 77.5907499, -37.8195185 ], [ 77.5908167, -37.8198619 ], [ 77.5910592, -37.8202846 ], [ 77.5912264, -37.8208526 ], [ 77.5915442, -37.8215527 ], [ 77.5920291, -37.8218565 ], [ 77.5923803, -37.822266 ], [ 77.5924137, -37.8227151 ], [ 77.592698, -37.8232699 ], [ 77.592698, -37.823719 ], [ 77.5928652, -37.8253701 ], [ 77.5930993, -37.8261626 ], [ 77.5932164, -37.8267834 ], [ 77.5930324, -37.8273909 ], [ 77.5934505, -37.8290551 ], [ 77.5939689, -37.8302042 ], [ 77.594203, -37.8307061 ], [ 77.594203, -37.831208 ], [ 77.594504, -37.8330042 ], [ 77.5946043, -37.8336513 ], [ 77.594922, -37.8344041 ], [ 77.5950892, -37.8346947 ], [ 77.5952105, -37.8358106 ], [ 77.5955616, -37.8364446 ], [ 77.5953777, -37.8370124 ], [ 77.5954446, -37.8376331 ], [ 77.595478, -37.8388613 ], [ 77.5955115, -37.8397461 ], [ 77.5956954, -37.8405649 ], [ 77.5958292, -37.8424335 ], [ 77.5959128, -37.8438464 ], [ 77.5963309, -37.8446916 ], [ 77.5963977, -37.8456423 ], [ 77.5965148, -37.8463026 ], [ 77.5964646, -37.8471873 ], [ 77.5967155, -37.8477947 ], [ 77.5970666, -37.8484021 ], [ 77.596682, -37.8490623 ], [ 77.5966151, -37.8497225 ], [ 77.5964814, -37.8501582 ], [ 77.5967489, -37.8511948 ], [ 77.5967155, -37.8518417 ], [ 77.5970332, -37.8526604 ], [ 77.5969663, -37.853545 ], [ 77.5966319, -37.854324 ], [ 77.5963977, -37.8550766 ], [ 77.5962138, -37.8558028 ], [ 77.5959964, -37.8564497 ], [ 77.5954111, -37.8573079 ], [ 77.5944245, -37.8583113 ], [ 77.5935884, -37.8591563 ], [ 77.5924262, -37.8602653 ], [ 77.5916403, -37.8612554 ], [ 77.5907708, -37.8616251 ], [ 77.5894163, -37.8623248 ], [ 77.5888644, -37.8626284 ], [ 77.5881788, -37.8631697 ], [ 77.58751, -37.8636186 ], [ 77.5865066, -37.8643578 ], [ 77.5860384, -37.8650839 ], [ 77.5858043, -37.865744 ], [ 77.5851689, -37.8662456 ], [ 77.5845167, -37.8664568 ], [ 77.5837308, -37.8665229 ], [ 77.5832458, -37.8669057 ], [ 77.5824682, -37.8675195 ], [ 77.5815987, -37.8681796 ], [ 77.5808964, -37.8688132 ], [ 77.5805118, -37.8690244 ], [ 77.5804783, -37.8692752 ], [ 77.5801439, -37.8696185 ], [ 77.5795586, -37.8696581 ], [ 77.5790904, -37.8702785 ], [ 77.5778028, -37.8712817 ], [ 77.577251, -37.8717305 ], [ 77.5768663, -37.8722321 ], [ 77.5765319, -37.8725753 ], [ 77.5750854, -37.8732419 ], [ 77.5740654, -37.8739811 ], [ 77.5731791, -37.8747599 ], [ 77.5720922, -37.8752351 ], [ 77.571624, -37.8758027 ], [ 77.5709384, -37.8762382 ], [ 77.5701023, -37.8763702 ], [ 77.5694668, -37.8766738 ], [ 77.5688314, -37.8771754 ], [ 77.5679117, -37.877677 ], [ 77.5672762, -37.8781917 ], [ 77.5668164, -37.8784095 ], [ 77.5659803, -37.8785679 ], [ 77.5651107, -37.8789903 ], [ 77.5639903, -37.8794258 ], [ 77.5629536, -37.8797822 ], [ 77.561967, -37.8799274 ], [ 77.5610138, -37.8799274 ], [ 77.5600105, -37.8801914 ], [ 77.5592914, -37.8804421 ], [ 77.558656, -37.8805609 ], [ 77.5583884, -37.8805081 ], [ 77.5581042, -37.8803497 ], [ 77.5575022, -37.8802045 ], [ 77.5570674, -37.8802177 ], [ 77.5566661, -37.8800726 ], [ 77.555947, -37.880033 ], [ 77.5553952, -37.8802177 ], [ 77.554927, -37.8802837 ], [ 77.5544755, -37.8800462 ], [ 77.5539571, -37.8798218 ], [ 77.5530039, -37.879637 ], [ 77.552218, -37.8796502 ], [ 77.5514655, -37.879505 ], [ 77.5508133, -37.8793862 ], [ 77.5501988, -37.8789111 ], [ 77.5494797, -37.8783831 ], [ 77.548861, -37.8781059 ], [ 77.5473728, -37.8778156 ], [ 77.5464698, -37.8776308 ], [ 77.5455501, -37.8776044 ], [ 77.5451153, -37.8775648 ], [ 77.5445969, -37.8769708 ], [ 77.5441621, -37.8763108 ], [ 77.5437608, -37.8759281 ], [ 77.5435267, -37.8756773 ], [ 77.5429581, -37.8754265 ], [ 77.5418879, -37.8751493 ], [ 77.541219, -37.8748325 ], [ 77.5407675, -37.8747401 ], [ 77.5404498, -37.8746477 ], [ 77.540015, -37.8744233 ], [ 77.5396973, -37.8741725 ], [ 77.5391789, -37.8740801 ], [ 77.5385101, -37.8740933 ], [ 77.5381087, -37.8740537 ], [ 77.5378746, -37.8739217 ], [ 77.5378244, -37.8737633 ], [ 77.5376238, -37.8736049 ], [ 77.5373061, -37.8735125 ], [ 77.5371556, -37.8734465 ], [ 77.5370803, -37.8731759 ], [ 77.5368128, -37.8727667 ], [ 77.5363278, -37.8725819 ], [ 77.5361272, -37.8723971 ], [ 77.5364449, -37.8717107 ], [ 77.5367124, -37.8709187 ], [ 77.5366957, -37.8703247 ], [ 77.5364114, -37.8700343 ], [ 77.5365954, -37.8693478 ], [ 77.536495, -37.8686548 ], [ 77.5361272, -37.867876 ], [ 77.5354583, -37.8668331 ], [ 77.5349064, -37.8661466 ], [ 77.5342877, -37.8660146 ], [ 77.5340202, -37.8658694 ], [ 77.5336021, -37.8650905 ], [ 77.5331673, -37.8648001 ], [ 77.5326322, -37.8639552 ], [ 77.5323145, -37.8635195 ], [ 77.5315119, -37.8630707 ], [ 77.5308764, -37.8625294 ], [ 77.5305587, -37.8622654 ], [ 77.5304166, -37.8620673 ], [ 77.5301323, -37.8616713 ], [ 77.52943, -37.8612884 ], [ 77.5290621, -37.8610112 ], [ 77.5284601, -37.8607867 ], [ 77.5275069, -37.8604171 ], [ 77.5272394, -37.8601662 ], [ 77.5270554, -37.8599154 ], [ 77.5266374, -37.8595589 ], [ 77.5261524, -37.8592817 ], [ 77.525517, -37.8590836 ], [ 77.5247645, -37.8588064 ], [ 77.5240454, -37.8587008 ], [ 77.5235772, -37.8583707 ], [ 77.5230672, -37.8579944 ], [ 77.5226659, -37.8575984 ], [ 77.5224318, -37.8568458 ], [ 77.5223482, -37.8562517 ], [ 77.5219134, -37.8557764 ], [ 77.5212445, -37.8556179 ], [ 77.5209602, -37.8555915 ], [ 77.5208766, -37.8557896 ], [ 77.5201241, -37.85608 ], [ 77.5196392, -37.8561064 ], [ 77.5192546, -37.8560272 ], [ 77.5190037, -37.8557764 ], [ 77.5187696, -37.8554859 ], [ 77.5185355, -37.855301 ], [ 77.51887, -37.855037 ], [ 77.5191877, -37.8551954 ], [ 77.519589, -37.8553803 ], [ 77.5201074, -37.8550898 ], [ 77.5204251, -37.8547729 ], [ 77.5203081, -37.8537695 ], [ 77.5193716, -37.8529773 ], [ 77.5186359, -37.8524161 ], [ 77.5186359, -37.8517031 ], [ 77.5183683, -37.8510429 ], [ 77.5179001, -37.8502507 ], [ 77.5174653, -37.8496301 ], [ 77.5169804, -37.8493132 ], [ 77.5164954, -37.8490755 ], [ 77.5164453, -37.8487454 ], [ 77.5162279, -37.8479267 ], [ 77.5161108, -37.8471741 ], [ 77.5161275, -37.8469892 ], [ 77.5162948, -37.8462695 ], [ 77.5161443, -37.8460187 ], [ 77.5156259, -37.8459262 ], [ 77.514957, -37.8453056 ], [ 77.5146393, -37.8448962 ], [ 77.5149403, -37.8443548 ], [ 77.5152078, -37.8440115 ], [ 77.5152245, -37.8434833 ], [ 77.514957, -37.842823 ], [ 77.5151744, -37.8421628 ], [ 77.515074, -37.8415025 ], [ 77.5148567, -37.8404328 ], [ 77.5146894, -37.8401159 ], [ 77.5141878, -37.8394028 ], [ 77.5135523, -37.83865 ], [ 77.5132012, -37.8381086 ], [ 77.5130005, -37.8376992 ], [ 77.5127831, -37.836537 ], [ 77.5130005, -37.8359163 ], [ 77.5134854, -37.8349522 ], [ 77.5136694, -37.8336579 ], [ 77.5141711, -37.8325353 ], [ 77.5145724, -37.8318485 ], [ 77.5150072, -37.8310693 ], [ 77.5149403, -37.8306203 ], [ 77.5154587, -37.8301184 ], [ 77.515977, -37.8295835 ], [ 77.5162948, -37.8290551 ], [ 77.5169177, -37.8276551 ], [ 77.5170347, -37.8266645 ], [ 77.5172354, -37.8257267 ], [ 77.5177872, -37.8248153 ], [ 77.51864, -37.8227746 ], [ 77.5191083, -37.8220216 ], [ 77.5193758, -37.8214933 ], [ 77.520028, -37.8207007 ], [ 77.5204126, -37.8201063 ], [ 77.5204795, -37.8191948 ], [ 77.5211358, -37.8184749 ], [ 77.5214034, -37.8177352 ], [ 77.5221224, -37.8171407 ], [ 77.5226742, -37.8169161 ], [ 77.5233766, -37.8162821 ], [ 77.5238448, -37.8147497 ], [ 77.5241959, -37.8137325 ], [ 77.5245137, -37.8132965 ], [ 77.5255546, -37.8120547 ], [ 77.5265914, -37.81076 ], [ 77.5268088, -37.8100995 ], [ 77.5272435, -37.809571 ], [ 77.5280128, -37.8088378 ], [ 77.5283305, -37.8080055 ], [ 77.5282803, -37.8070674 ], [ 77.5277787, -37.8064068 ], [ 77.5281298, -37.8060501 ], [ 77.528598, -37.8056141 ], [ 77.5289826, -37.8052838 ], [ 77.528899, -37.8049799 ], [ 77.5284643, -37.8047025 ], [ 77.5281298, -37.8042268 ], [ 77.5287151, -37.8041344 ], [ 77.529083, -37.8037908 ], [ 77.5292168, -37.8034209 ], [ 77.5287151, -37.803302 ], [ 77.5288823, -37.8028263 ], [ 77.5289325, -37.8019807 ], [ 77.5292, -37.8018222 ], [ 77.5297184, -37.8012804 ], [ 77.5294509, -37.8009105 ], [ 77.5291164, -37.8003688 ], [ 77.5297519, -37.7999063 ], [ 77.5303204, -37.7996354 ], [ 77.5311063, -37.7997411 ], [ 77.5316247, -37.799794 ], [ 77.5321431, -37.7996883 ], [ 77.5324943, -37.7994901 ], [ 77.5328956, -37.799609 ], [ 77.5336147, -37.7997279 ], [ 77.5343003, -37.7994637 ], [ 77.5353705, -37.799239 ], [ 77.5358053, -37.7990541 ], [ 77.5365578, -37.798552 ], [ 77.5369925, -37.7982348 ], [ 77.5378788, -37.7981291 ], [ 77.5381463, -37.7984595 ], [ 77.5393503, -37.7983934 ], [ 77.5399858, -37.7982745 ], [ 77.5417667, -37.798182 ], [ 77.5418336, -37.7980234 ], [ 77.5421178, -37.7982348 ], [ 77.543071, -37.7980498 ], [ 77.5435894, -37.7977724 ], [ 77.5439071, -37.7974949 ], [ 77.5447098, -37.7973627 ], [ 77.5452616, -37.7973627 ], [ 77.5458134, -37.7972835 ], [ 77.5459388, -37.7972042 ], [ 77.5466913, -37.7970588 ] ] ] ] } },
{ "type": "Feature", "properties": { "FID": 285976, "id": 1862, "left": 75.0, "top": -35.0, "right": 80.0, "bottom": -40.0, "row_index": 25, "col_index": 51, "min_lon": 75.0, "min_lat": -40.0, "tile_id": "75_-40" }, "geometry": { "type": "MultiPolygon", "coordinates": [ [ [ [ 77.524488, -38.7161299 ], [ 77.52415, -38.7163517 ], [ 77.5241661, -38.7164731 ], [ 77.5240213, -38.716607 ], [ 77.5237048, -38.7167703 ], [ 77.5236618, -38.7169419 ], [ 77.523399, -38.7170926 ], [ 77.5231093, -38.7171637 ], [ 77.5229859, -38.7172725 ], [ 77.5229216, -38.7174065 ], [ 77.5228411, -38.7177246 ], [ 77.5227123, -38.7178752 ], [ 77.5225085, -38.7183105 ], [ 77.5225997, -38.7184361 ], [ 77.5226748, -38.7185993 ], [ 77.5227123, -38.7188295 ], [ 77.5225621, -38.7191141 ], [ 77.5224709, -38.7192606 ], [ 77.5225568, -38.7193402 ], [ 77.5226158, -38.7194322 ], [ 77.5225675, -38.7195997 ], [ 77.5223851, -38.7199931 ], [ 77.5222993, -38.7201228 ], [ 77.5223583, -38.7203781 ], [ 77.5222057, -38.7207869 ], [ 77.5222122, -38.7209449 ], [ 77.5223355, -38.7210864 ], [ 77.5224637, -38.7211859 ], [ 77.5224976, -38.7212673 ], [ 77.5224978, -38.7214433 ], [ 77.5228295, -38.7218817 ], [ 77.5229913, -38.7220816 ], [ 77.5231239, -38.7222006 ], [ 77.5236431, -38.72268 ], [ 77.5237228, -38.7228219 ], [ 77.5238347, -38.7229021 ], [ 77.5239998, -38.7230714 ], [ 77.5241339, -38.7231321 ], [ 77.5243755, -38.723271 ], [ 77.5245336, -38.7232869 ], [ 77.524648, -38.7233546 ], [ 77.52479, -38.7234847 ], [ 77.5249466, -38.7235254 ], [ 77.5252386, -38.7236776 ], [ 77.5254616, -38.7238833 ], [ 77.5256717, -38.7239855 ], [ 77.5259712, -38.7240925 ], [ 77.5260839, -38.7241679 ], [ 77.5264084, -38.7242893 ], [ 77.5265467, -38.7243813 ], [ 77.5265573, -38.7244428 ], [ 77.5266418, -38.7245027 ], [ 77.5267333, -38.7244814 ], [ 77.5268456, -38.7243813 ], [ 77.5269583, -38.724419 ], [ 77.5272721, -38.7245759 ], [ 77.5274035, -38.7247119 ], [ 77.5275324, -38.7247301 ], [ 77.527861, -38.7249186 ], [ 77.5282063, -38.7249674 ], [ 77.5285405, -38.7250222 ], [ 77.5287693, -38.7250262 ], [ 77.5293824, -38.7249597 ], [ 77.5300996, -38.7250848 ], [ 77.530474, -38.7250602 ], [ 77.5310911, -38.7251574 ], [ 77.5313437, -38.7252121 ], [ 77.5316071, -38.7251762 ], [ 77.5319908, -38.7251099 ], [ 77.5323551, -38.7251357 ], [ 77.5327626, -38.7251165 ], [ 77.5331128, -38.7249797 ], [ 77.5332416, -38.7247984 ], [ 77.5337738, -38.7244022 ], [ 77.5338382, -38.7242851 ], [ 77.5341117, -38.724057 ], [ 77.5341788, -38.723967 ], [ 77.5341412, -38.7239 ], [ 77.5341332, -38.723831 ], [ 77.5342324, -38.7237515 ], [ 77.534278, -38.7236824 ], [ 77.5344148, -38.7235087 ], [ 77.534624, -38.7233413 ], [ 77.5349298, -38.7231613 ], [ 77.5350156, -38.7230379 ], [ 77.535249, -38.7229207 ], [ 77.5353429, -38.7228265 ], [ 77.535646, -38.7225901 ], [ 77.5355762, -38.7224499 ], [ 77.5355145, -38.7223452 ], [ 77.5355346, -38.7222448 ], [ 77.5354542, -38.7221632 ], [ 77.5354689, -38.7220899 ], [ 77.5355601, -38.7219979 ], [ 77.5357586, -38.721776 ], [ 77.5357747, -38.721571 ], [ 77.5358605, -38.7213449 ], [ 77.536, -38.7211608 ], [ 77.5361019, -38.7209013 ], [ 77.5361019, -38.7205623 ], [ 77.5360912, -38.7202316 ], [ 77.5359974, -38.719978 ], [ 77.5359303, -38.7196938 ], [ 77.535941, -38.719518 ], [ 77.5358203, -38.7193067 ], [ 77.5358525, -38.7192481 ], [ 77.5358398, -38.7191823 ], [ 77.535823, -38.7190953 ], [ 77.5358552, -38.7189781 ], [ 77.5355065, -38.7187144 ], [ 77.5351257, -38.7184256 ], [ 77.5346407, -38.7182181 ], [ 77.5342083, -38.7180762 ], [ 77.5339347, -38.7179192 ], [ 77.5336343, -38.7179359 ], [ 77.5335592, -38.718005 ], [ 77.5333929, -38.7180008 ], [ 77.5333071, -38.717938 ], [ 77.5331193, -38.7179108 ], [ 77.533004, -38.7178313 ], [ 77.5328806, -38.7178648 ], [ 77.5327787, -38.7178439 ], [ 77.5326365, -38.7177183 ], [ 77.5326258, -38.7176157 ], [ 77.5323683, -38.7174672 ], [ 77.5323039, -38.7172683 ], [ 77.5323549, -38.7171574 ], [ 77.5324112, -38.7170946 ], [ 77.5324649, -38.716967 ], [ 77.5326526, -38.7169858 ], [ 77.5328591, -38.7170381 ], [ 77.5329906, -38.7170695 ], [ 77.5332803, -38.71717 ], [ 77.5335377, -38.7172788 ], [ 77.5336719, -38.7172286 ], [ 77.5337228, -38.7171888 ], [ 77.5338811, -38.7173102 ], [ 77.5338891, -38.7173855 ], [ 77.5341198, -38.7174337 ], [ 77.5343558, -38.7176157 ], [ 77.534565, -38.7178836 ], [ 77.5350559, -38.7180385 ], [ 77.5353187, -38.7182436 ], [ 77.5353885, -38.7182959 ], [ 77.5354984, -38.718321 ], [ 77.5355253, -38.7183775 ], [ 77.5356272, -38.7184508 ], [ 77.5358925, -38.7185173 ], [ 77.5360751, -38.71866 ], [ 77.5362736, -38.7188505 ], [ 77.5365365, -38.7189718 ], [ 77.5366491, -38.7189886 ], [ 77.5367644, -38.7191916 ], [ 77.5369924, -38.7193862 ], [ 77.5373438, -38.7196666 ], [ 77.5378883, -38.7199889 ], [ 77.538017, -38.720194 ], [ 77.5381994, -38.7203447 ], [ 77.5386018, -38.720759 ], [ 77.5390148, -38.721098 ], [ 77.5392562, -38.7213408 ], [ 77.5395191, -38.7218472 ], [ 77.53968, -38.7221443 ], [ 77.539857, -38.7223703 ], [ 77.540018, -38.7224875 ], [ 77.5403613, -38.7229563 ], [ 77.5403076, -38.7232032 ], [ 77.5405973, -38.7236803 ], [ 77.5411928, -38.7241365 ], [ 77.5416219, -38.7244839 ], [ 77.5418955, -38.724714 ], [ 77.5419974, -38.7249819 ], [ 77.5422335, -38.7252916 ], [ 77.5426358, -38.7257687 ], [ 77.54336, -38.7263085 ], [ 77.5436389, -38.7264885 ], [ 77.5440788, -38.726568 ], [ 77.5444275, -38.7267187 ], [ 77.5445455, -38.7268149 ], [ 77.5449693, -38.7269781 ], [ 77.5454521, -38.72702 ], [ 77.5457847, -38.7271581 ], [ 77.546128, -38.7272083 ], [ 77.5464553, -38.7273339 ], [ 77.5465947, -38.7273841 ], [ 77.5466162, -38.7275557 ], [ 77.5466806, -38.7276603 ], [ 77.5468898, -38.7278319 ], [ 77.5470078, -38.727903 ], [ 77.5468576, -38.728083 ], [ 77.5467825, -38.728355 ], [ 77.5467932, -38.7286814 ], [ 77.5468844, -38.7288739 ], [ 77.5468469, -38.7294598 ], [ 77.5469702, -38.7296104 ], [ 77.5469649, -38.7297862 ], [ 77.5470293, -38.7299662 ], [ 77.5472867, -38.730326 ], [ 77.5476032, -38.7307989 ], [ 77.5477803, -38.7310249 ], [ 77.5478768, -38.7313513 ], [ 77.5481451, -38.7317363 ], [ 77.5482845, -38.7318911 ], [ 77.5482899, -38.7321631 ], [ 77.5483221, -38.7324728 ], [ 77.5484347, -38.7327532 ], [ 77.5486171, -38.7328704 ], [ 77.5485662, -38.7329436 ], [ 77.5485447, -38.7332512 ], [ 77.5486144, -38.7333286 ], [ 77.5486198, -38.7336089 ], [ 77.5486466, -38.7340316 ], [ 77.5487056, -38.734063 ], [ 77.5485742, -38.7341718 ], [ 77.5485527, -38.7342534 ], [ 77.548593, -38.7345023 ], [ 77.5485206, -38.7345484 ], [ 77.5485232, -38.7347032 ], [ 77.5484428, -38.7348308 ], [ 77.5484669, -38.7349626 ], [ 77.5483623, -38.7350505 ], [ 77.5484642, -38.7351112 ], [ 77.5484776, -38.7353811 ], [ 77.5483006, -38.7354543 ], [ 77.5482818, -38.7356991 ], [ 77.5481602, -38.7356171 ], [ 77.5480029, -38.7354125 ], [ 77.5478983, -38.7353183 ], [ 77.5478473, -38.7353497 ], [ 77.5479251, -38.735425 ], [ 77.5478098, -38.7355213 ], [ 77.5475523, -38.7356217 ], [ 77.5474691, -38.7355108 ], [ 77.5472894, -38.7354313 ], [ 77.5471485, -38.7352727 ], [ 77.546981, -38.7352284 ], [ 77.5467208, -38.7351656 ], [ 77.5465867, -38.7351635 ], [ 77.5464472, -38.735243 ], [ 77.5463882, -38.7353706 ], [ 77.5462273, -38.7354543 ], [ 77.5462702, -38.7352555 ], [ 77.5461414, -38.7352597 ], [ 77.5459349, -38.7354229 ], [ 77.5458249, -38.7353623 ], [ 77.5457257, -38.7351991 ], [ 77.5454602, -38.7350045 ], [ 77.5449049, -38.7349247 ], [ 77.5445536, -38.7348852 ], [ 77.5444865, -38.7347806 ], [ 77.5440574, -38.7347325 ], [ 77.5437784, -38.7347932 ], [ 77.5434458, -38.7349041 ], [ 77.5432983, -38.7350128 ], [ 77.5431401, -38.735038 ], [ 77.543022, -38.735084 ], [ 77.5431052, -38.7351656 ], [ 77.5427592, -38.735197 ], [ 77.5426117, -38.7352514 ], [ 77.5424856, -38.7352451 ], [ 77.5424024, -38.735174 ], [ 77.5422978, -38.7351886 ], [ 77.5421128, -38.7352116 ], [ 77.5418365, -38.735289 ], [ 77.541571, -38.7353246 ], [ 77.5413296, -38.7354815 ], [ 77.5412464, -38.7354522 ], [ 77.5408789, -38.7355819 ], [ 77.5407824, -38.7356761 ], [ 77.5406617, -38.7356928 ], [ 77.5406295, -38.7358121 ], [ 77.5403854, -38.7359251 ], [ 77.5402674, -38.7358853 ], [ 77.5401413, -38.7359209 ], [ 77.5399938, -38.7359899 ], [ 77.5400287, -38.7361196 ], [ 77.5398973, -38.7363602 ], [ 77.5396076, -38.7364816 ], [ 77.5393581, -38.7365213 ], [ 77.5391382, -38.736446 ], [ 77.539039, -38.7363372 ], [ 77.5388083, -38.7364188 ], [ 77.5386393, -38.7364983 ], [ 77.5385106, -38.7367745 ], [ 77.5382531, -38.7371699 ], [ 77.5382718, -38.7372139 ], [ 77.5382718, -38.7373917 ], [ 77.5381458, -38.7374796 ], [ 77.5380251, -38.7374858 ], [ 77.5380251, -38.7375863 ], [ 77.5379258, -38.7376428 ], [ 77.5377434, -38.7377746 ], [ 77.5375423, -38.7379147 ], [ 77.537553, -38.7380047 ], [ 77.5376818, -38.7380842 ], [ 77.5375637, -38.738216 ], [ 77.5375637, -38.7383353 ], [ 77.5374135, -38.7383562 ], [ 77.5374082, -38.738465 ], [ 77.5373223, -38.7385026 ], [ 77.5372338, -38.7386324 ], [ 77.5372848, -38.7386867 ], [ 77.537148, -38.7387139 ], [ 77.5370622, -38.7388625 ], [ 77.5369254, -38.7390027 ], [ 77.5365606, -38.7390508 ], [ 77.536452, -38.7391485 ], [ 77.536169, -38.7391428 ], [ 77.5359383, -38.7390445 ], [ 77.5353992, -38.7390944 ], [ 77.5350317, -38.7389525 ], [ 77.5347881, -38.7389122 ], [ 77.5347528, -38.738737 ], [ 77.5346043, -38.7387776 ], [ 77.5345769, -38.7386402 ], [ 77.5344765, -38.7385257 ], [ 77.5344309, -38.7382913 ], [ 77.5344765, -38.7381909 ], [ 77.534447, -38.7381051 ], [ 77.5343639, -38.7380591 ], [ 77.5343263, -38.7379566 ], [ 77.5342432, -38.7378185 ], [ 77.5341225, -38.7378143 ], [ 77.5339846, -38.7377431 ], [ 77.5340286, -38.7375507 ], [ 77.5339857, -38.7374084 ], [ 77.5339186, -38.7373645 ], [ 77.5337362, -38.7373457 ], [ 77.5334063, -38.7372724 ], [ 77.5332507, -38.7372976 ], [ 77.5331005, -38.7373561 ], [ 77.5328001, -38.7374147 ], [ 77.5324166, -38.7374691 ], [ 77.5321752, -38.7375842 ], [ 77.5318801, -38.7376909 ], [ 77.5316173, -38.7377327 ], [ 77.5313491, -38.7377683 ], [ 77.5310218, -38.7377474 ], [ 77.5307268, -38.7377683 ], [ 77.5305846, -38.7378227 ], [ 77.5304666, -38.7377871 ], [ 77.5302601, -38.7378039 ], [ 77.530185, -38.7378645 ], [ 77.5299087, -38.7377976 ], [ 77.5294366, -38.7376449 ], [ 77.529147, -38.7376302 ], [ 77.5286561, -38.7376783 ], [ 77.5285059, -38.7377662 ], [ 77.5283852, -38.7377223 ], [ 77.528286, -38.7377746 ], [ 77.5280499, -38.7377453 ], [ 77.5274599, -38.7376595 ], [ 77.5270012, -38.7376574 ], [ 77.5267088, -38.7376951 ], [ 77.5266874, -38.7376428 ], [ 77.5265621, -38.7375407 ], [ 77.5266927, -38.7374084 ], [ 77.5266767, -38.7373373 ], [ 77.5265747, -38.7372285 ], [ 77.5265667, -38.7371406 ], [ 77.5263917, -38.7368673 ], [ 77.5261912, -38.7366971 ], [ 77.525636, -38.7365737 ], [ 77.5254264, -38.7364456 ], [ 77.5254267, -38.7363498 ], [ 77.5254106, -38.7362996 ], [ 77.5252309, -38.7362054 ], [ 77.5250754, -38.7361615 ], [ 77.5248688, -38.7361447 ], [ 77.5247213, -38.7361489 ], [ 77.5245899, -38.7361615 ], [ 77.5243616, -38.7363155 ], [ 77.5240671, -38.736252 ], [ 77.5238945, -38.7362034 ], [ 77.5235921, -38.7362682 ], [ 77.5234955, -38.7361678 ], [ 77.5233289, -38.7360969 ], [ 77.5227982, -38.7360422 ], [ 77.5227123, -38.7361385 ], [ 77.52253, -38.7360255 ], [ 77.5226426, -38.7359669 ], [ 77.5224388, -38.7358372 ], [ 77.522192, -38.735833 ], [ 77.522074, -38.7356656 ], [ 77.5218594, -38.7355401 ], [ 77.5216019, -38.7354522 ], [ 77.5212854, -38.7354564 ], [ 77.5210172, -38.735561 ], [ 77.520816, -38.7357723 ], [ 77.5205827, -38.7358644 ], [ 77.5204486, -38.7358916 ], [ 77.5202903, -38.7360443 ], [ 77.5196949, -38.7362054 ], [ 77.519027, -38.736174 ], [ 77.518512, -38.7361259 ], [ 77.5182491, -38.7359544 ], [ 77.5180507, -38.7359502 ], [ 77.5178629, -38.7358958 ], [ 77.5177664, -38.7357451 ], [ 77.5176564, -38.7355443 ], [ 77.5176188, -38.7353978 ], [ 77.5174633, -38.7353141 ], [ 77.5173077, -38.7353999 ], [ 77.5172326, -38.7353518 ], [ 77.5170287, -38.7352911 ], [ 77.5168759, -38.7353183 ], [ 77.5166318, -38.7352953 ], [ 77.5163931, -38.7352284 ], [ 77.5161597, -38.7352242 ], [ 77.5159612, -38.7352807 ], [ 77.5156206, -38.7353288 ], [ 77.5153899, -38.7353769 ], [ 77.5152746, -38.7354292 ], [ 77.5150895, -38.7354292 ], [ 77.5149447, -38.7355924 ], [ 77.5147113, -38.7357723 ], [ 77.5144109, -38.7358518 ], [ 77.514089, -38.7358728 ], [ 77.5137028, -38.7358895 ], [ 77.5135687, -38.7358205 ], [ 77.5133139, -38.7358707 ], [ 77.5129938, -38.7358859 ], [ 77.5126112, -38.7360601 ], [ 77.5124288, -38.7361761 ], [ 77.5121176, -38.7362556 ], [ 77.5116119, -38.7361333 ], [ 77.5114046, -38.735907 ], [ 77.5114641, -38.7358227 ], [ 77.5113934, -38.7357284 ], [ 77.5114524, -38.735561 ], [ 77.5112915, -38.735469 ], [ 77.5112754, -38.7352932 ], [ 77.51135, -38.7351687 ], [ 77.5113532, -38.7351133 ], [ 77.5112861, -38.7350484 ], [ 77.5112674, -38.7349522 ], [ 77.5110233, -38.7350087 ], [ 77.5108446, -38.7350298 ], [ 77.5107872, -38.7348957 ], [ 77.5107497, -38.7348308 ], [ 77.5105593, -38.7347743 ], [ 77.5103393, -38.7348026 ], [ 77.5102401, -38.7346153 ], [ 77.5102848, -38.7341704 ], [ 77.5104316, -38.7336389 ], [ 77.5104922, -38.7334478 ], [ 77.5103259, -38.7333725 ], [ 77.5102884, -38.733293 ], [ 77.5104278, -38.7333055 ], [ 77.5106478, -38.7332553 ], [ 77.5107756, -38.7330227 ], [ 77.5108784, -38.7327406 ], [ 77.5108155, -38.7324696 ], [ 77.5109187, -38.7322929 ], [ 77.5108758, -38.7318932 ], [ 77.5109562, -38.7317426 ], [ 77.5109267, -38.7315313 ], [ 77.5109965, -38.7314099 ], [ 77.5110608, -38.7309077 ], [ 77.5110233, -38.7305897 ], [ 77.5111037, -38.7305185 ], [ 77.5112003, -38.7303051 ], [ 77.511152, -38.7301252 ], [ 77.5112271, -38.7299787 ], [ 77.511236, -38.7297963 ], [ 77.511147, -38.7294881 ], [ 77.5112754, -38.7293928 ], [ 77.5110608, -38.7290413 ], [ 77.5108087, -38.7286563 ], [ 77.5105613, -38.7284582 ], [ 77.5103527, -38.7285182 ], [ 77.5100952, -38.7284764 ], [ 77.509886, -38.7283592 ], [ 77.5096802, -38.7281106 ], [ 77.5096983, -38.7278528 ], [ 77.5096661, -38.7276436 ], [ 77.5097841, -38.7274217 ], [ 77.5096124, -38.7274259 ], [ 77.5097395, -38.7272733 ], [ 77.509827, -38.7271748 ], [ 77.5099665, -38.7271999 ], [ 77.5101167, -38.7271497 ], [ 77.510106, -38.7270158 ], [ 77.5103259, -38.7268275 ], [ 77.5104654, -38.7267982 ], [ 77.5104117, -38.7267521 ], [ 77.5104601, -38.7264508 ], [ 77.510401, -38.7262207 ], [ 77.5101381, -38.7261244 ], [ 77.5101228, -38.7260279 ], [ 77.5099933, -38.7258942 ], [ 77.5097573, -38.7256933 ], [ 77.5095963, -38.7256096 ], [ 77.5094783, -38.7254046 ], [ 77.5092745, -38.7252874 ], [ 77.509253, -38.7250823 ], [ 77.5092637, -38.724622 ], [ 77.5093818, -38.724601 ], [ 77.5093281, -38.7244211 ], [ 77.509414, -38.724329 ], [ 77.5093013, -38.7241365 ], [ 77.5093067, -38.7238979 ], [ 77.509532, -38.72381 ], [ 77.5095695, -38.7235924 ], [ 77.509473, -38.7231697 ], [ 77.5091699, -38.7230379 ], [ 77.5088919, -38.7227576 ], [ 77.5088963, -38.7225293 ], [ 77.5089882, -38.7223635 ], [ 77.5091109, -38.7222887 ], [ 77.5092587, -38.722085 ], [ 77.5092906, -38.7218409 ], [ 77.5091726, -38.7216379 ], [ 77.5090492, -38.7213742 ], [ 77.5087425, -38.7212915 ], [ 77.5085235, -38.7210352 ], [ 77.5083867, -38.7208281 ], [ 77.508178, -38.720617 ], [ 77.5080246, -38.7204325 ], [ 77.5078234, -38.7204618 ], [ 77.5077644, -38.7203802 ], [ 77.5076008, -38.7203677 ], [ 77.5075713, -38.7202589 ], [ 77.507405, -38.720263 ], [ 77.5072709, -38.7201668 ], [ 77.5071555, -38.7200412 ], [ 77.5069841, -38.7199081 ], [ 77.5069517, -38.7196687 ], [ 77.5067049, -38.7194595 ], [ 77.5064689, -38.7193046 ], [ 77.5062776, -38.719243 ], [ 77.506295, -38.7191513 ], [ 77.5061899, -38.7189949 ], [ 77.5062543, -38.7188756 ], [ 77.5061738, -38.7187375 ], [ 77.5062624, -38.7186642 ], [ 77.5062329, -38.7185282 ], [ 77.5060022, -38.7182687 ], [ 77.5058646, -38.7181756 ], [ 77.5057152, -38.7178815 ], [ 77.5054792, -38.7175655 ], [ 77.5053611, -38.7173709 ], [ 77.5051546, -38.7171512 ], [ 77.5051466, -38.7168896 ], [ 77.5051251, -38.7167263 ], [ 77.5052217, -38.7165966 ], [ 77.5051197, -38.7165568 ], [ 77.5052163, -38.7164375 ], [ 77.5053129, -38.7163873 ], [ 77.5051707, -38.7163098 ], [ 77.5052619, -38.7161927 ], [ 77.5052646, -38.716065 ], [ 77.5054389, -38.715975 ], [ 77.5054631, -38.7157699 ], [ 77.5053611, -38.7156506 ], [ 77.505514, -38.7154581 ], [ 77.5055435, -38.7152216 ], [ 77.5054201, -38.7149077 ], [ 77.5054041, -38.7147423 ], [ 77.505455, -38.7144368 ], [ 77.5054255, -38.7142505 ], [ 77.5052458, -38.7141207 ], [ 77.5051922, -38.7139491 ], [ 77.504999, -38.7137733 ], [ 77.5049186, -38.7136561 ], [ 77.5047576, -38.7135473 ], [ 77.5045752, -38.7134092 ], [ 77.5046074, -38.7133255 ], [ 77.5045913, -38.7132501 ], [ 77.5046933, -38.7131622 ], [ 77.504704, -38.7130952 ], [ 77.5045752, -38.7129864 ], [ 77.5047523, -38.7128315 ], [ 77.504822, -38.7127646 ], [ 77.5048327, -38.7126725 ], [ 77.5049776, -38.7125595 ], [ 77.5050688, -38.7124339 ], [ 77.5050473, -38.7121953 ], [ 77.5049829, -38.7120069 ], [ 77.5047952, -38.711852 ], [ 77.5046825, -38.711693 ], [ 77.5047684, -38.7115339 ], [ 77.5046235, -38.7115255 ], [ 77.5047308, -38.7113707 ], [ 77.504881, -38.7112242 ], [ 77.5049883, -38.7110442 ], [ 77.505101, -38.7110065 ], [ 77.5052029, -38.7108684 ], [ 77.5051922, -38.7105921 ], [ 77.5050956, -38.7103535 ], [ 77.5050634, -38.7100981 ], [ 77.5051707, -38.7098554 ], [ 77.5051922, -38.7095079 ], [ 77.505219, -38.708947 ], [ 77.5051814, -38.7087921 ], [ 77.5052834, -38.7087 ], [ 77.5053424, -38.7084363 ], [ 77.505278, -38.7082103 ], [ 77.5053745, -38.7080554 ], [ 77.5053531, -38.7079047 ], [ 77.5052512, -38.7077079 ], [ 77.5050741, -38.707687 ], [ 77.504999, -38.7076493 ], [ 77.5049422, -38.7076335 ], [ 77.5049561, -38.7075614 ], [ 77.5051278, -38.7075154 ], [ 77.5052029, -38.7073647 ], [ 77.5051546, -38.7073102 ], [ 77.5051492, -38.707193 ], [ 77.5052297, -38.7071805 ], [ 77.5052834, -38.7070842 ], [ 77.5051653, -38.7070423 ], [ 77.5052029, -38.7069293 ], [ 77.5053209, -38.7069544 ], [ 77.5053745, -38.706833 ], [ 77.5053638, -38.7067535 ], [ 77.5054228, -38.706653 ], [ 77.5056052, -38.7064688 ], [ 77.5056589, -38.7062846 ], [ 77.5055677, -38.7061507 ], [ 77.5055462, -38.7059121 ], [ 77.5055945, -38.7057865 ], [ 77.5056374, -38.7057028 ], [ 77.505742, -38.7055583 ], [ 77.5059324, -38.7053972 ], [ 77.5061014, -38.7051125 ], [ 77.5062087, -38.704966 ], [ 77.5063857, -38.7045808 ], [ 77.5067693, -38.7042857 ], [ 77.506898, -38.7039278 ], [ 77.5070617, -38.7035322 ], [ 77.5069356, -38.7034443 ], [ 77.5068659, -38.7033375 ], [ 77.5069758, -38.7032475 ], [ 77.5072172, -38.703147 ], [ 77.5075176, -38.7031554 ], [ 77.5078127, -38.7029796 ], [ 77.5078019, -38.7028728 ], [ 77.5080809, -38.7026593 ], [ 77.5083411, -38.7025442 ], [ 77.5089553, -38.7024479 ], [ 77.5092101, -38.7023788 ], [ 77.5093871, -38.7022637 ], [ 77.5095803, -38.7022176 ], [ 77.509658, -38.7022574 ], [ 77.5098377, -38.7022469 ], [ 77.5099477, -38.7021904 ], [ 77.51035, -38.70227 ], [ 77.510452, -38.702337 ], [ 77.5106639, -38.7023558 ], [ 77.5108033, -38.7024772 ], [ 77.511093, -38.7025588 ], [ 77.5113425, -38.7027033 ], [ 77.5112869, -38.7027968 ], [ 77.511785, -38.7029712 ], [ 77.5118628, -38.7029565 ], [ 77.5121123, -38.7030319 ], [ 77.5122893, -38.703124 ], [ 77.5127721, -38.7032266 ], [ 77.5132844, -38.7034296 ], [ 77.5136036, -38.7034108 ], [ 77.5136518, -38.7035112 ], [ 77.5138728, -38.7035782 ], [ 77.5141534, -38.7035531 ], [ 77.5143358, -38.7034631 ], [ 77.5144458, -38.7035364 ], [ 77.5146228, -38.7035887 ], [ 77.5148132, -38.703551 ], [ 77.514961, -38.7034827 ], [ 77.5151324, -38.7033856 ], [ 77.5152665, -38.7032873 ], [ 77.5153765, -38.7031282 ], [ 77.5153309, -38.7030277 ], [ 77.5154114, -38.7030172 ], [ 77.5156505, -38.702846 ], [ 77.5158405, -38.7029607 ], [ 77.5160739, -38.7029796 ], [ 77.5162858, -38.7029649 ], [ 77.516664, -38.7030465 ], [ 77.516723, -38.7030947 ], [ 77.5170797, -38.703124 ], [ 77.5172755, -38.7031575 ], [ 77.5175384, -38.7031219 ], [ 77.5176188, -38.7031407 ], [ 77.5176939, -38.7030612 ], [ 77.5177878, -38.7031784 ], [ 77.5178605, -38.7032102 ], [ 77.5180346, -38.7032203 ], [ 77.518107, -38.703281 ], [ 77.5184557, -38.7032496 ], [ 77.5185201, -38.7033396 ], [ 77.5188446, -38.703394 ], [ 77.5188768, -38.7034736 ], [ 77.5189787, -38.7034694 ], [ 77.5190565, -38.7035091 ], [ 77.5190243, -38.7035782 ], [ 77.5191665, -38.7036452 ], [ 77.5194991, -38.703641 ], [ 77.5195259, -38.7035489 ], [ 77.5194803, -38.7035217 ], [ 77.5195232, -38.7034254 ], [ 77.5196224, -38.7034003 ], [ 77.5196573, -38.7034861 ], [ 77.5196144, -38.7035489 ], [ 77.5196412, -38.7036305 ], [ 77.5197646, -38.7036347 ], [ 77.5199389, -38.7037624 ], [ 77.5200999, -38.7038106 ], [ 77.5201213, -38.703932 ], [ 77.520183, -38.7040136 ], [ 77.5203171, -38.7040324 ], [ 77.5203252, -38.7041769 ], [ 77.5204137, -38.7042062 ], [ 77.5204137, -38.7042962 ], [ 77.5204834, -38.7043192 ], [ 77.5204834, -38.704382 ], [ 77.5206578, -38.7045055 ], [ 77.5207447, -38.7046531 ], [ 77.5209179, -38.7047629 ], [ 77.5209394, -38.7048425 ], [ 77.5210386, -38.7048822 ], [ 77.5210628, -38.7049618 ], [ 77.5211513, -38.7050644 ], [ 77.5212827, -38.7051732 ], [ 77.5214517, -38.7052234 ], [ 77.5215054, -38.705326 ], [ 77.5217146, -38.705439 ], [ 77.5218567, -38.7056065 ], [ 77.5222671, -38.7060042 ], [ 77.5224629, -38.7060837 ], [ 77.522648, -38.7061737 ], [ 77.5228438, -38.7063077 ], [ 77.5229028, -38.7063935 ], [ 77.5230074, -38.7064102 ], [ 77.523458, -38.7068163 ], [ 77.5240561, -38.7070905 ], [ 77.5241983, -38.7071281 ], [ 77.5243404, -38.7071512 ], [ 77.5245228, -38.7072516 ], [ 77.5245631, -38.7073144 ], [ 77.5248688, -38.7075091 ], [ 77.5250968, -38.7075677 ], [ 77.5254589, -38.7077498 ], [ 77.5256681, -38.7078147 ], [ 77.5259981, -38.7079591 ], [ 77.5261161, -38.7079465 ], [ 77.5261778, -38.708001 ], [ 77.5263306, -38.7080554 ], [ 77.5264245, -38.7080616 ], [ 77.5267652, -38.708271 ], [ 77.5268671, -38.7082772 ], [ 77.527315, -38.7084719 ], [ 77.5275189, -38.7085242 ], [ 77.5277093, -38.7085033 ], [ 77.5278541, -38.7085765 ], [ 77.5279051, -38.7086289 ], [ 77.5280285, -38.7086247 ], [ 77.5281089, -38.7086958 ], [ 77.5285864, -38.7090935 ], [ 77.5289914, -38.7094514 ], [ 77.5292167, -38.7095435 ], [ 77.5298363, -38.7099307 ], [ 77.5299329, -38.7100165 ], [ 77.5299409, -38.710094 ], [ 77.530134, -38.7101735 ], [ 77.5301582, -38.7104037 ], [ 77.5302762, -38.7106716 ], [ 77.5304478, -38.7109939 ], [ 77.5306088, -38.7111739 ], [ 77.5308019, -38.7113246 ], [ 77.5309789, -38.7113832 ], [ 77.5310433, -38.7112618 ], [ 77.5310379, -38.7111195 ], [ 77.5310969, -38.7110944 ], [ 77.5310916, -38.710973 ], [ 77.5311559, -38.7109144 ], [ 77.5312364, -38.7109521 ], [ 77.5312793, -38.7112786 ], [ 77.5312096, -38.7113163 ], [ 77.5312632, -38.7115925 ], [ 77.5312203, -38.7116762 ], [ 77.5311828, -38.7119148 ], [ 77.5312096, -38.7120613 ], [ 77.531333, -38.7121325 ], [ 77.531392, -38.7121116 ], [ 77.5314456, -38.712346 ], [ 77.5314563, -38.7124841 ], [ 77.5316548, -38.712639 ], [ 77.5319016, -38.7126432 ], [ 77.532143, -38.7128859 ], [ 77.5322932, -38.7128566 ], [ 77.532379, -38.7128943 ], [ 77.5323415, -38.7131287 ], [ 77.5324434, -38.7130115 ], [ 77.5326043, -38.7130366 ], [ 77.5325614, -38.7132208 ], [ 77.5326633, -38.7132878 ], [ 77.532717, -38.7134845 ], [ 77.532894, -38.7137817 ], [ 77.5329423, -38.7139994 ], [ 77.5329423, -38.7143258 ], [ 77.5328726, -38.7143551 ], [ 77.5326446, -38.7148219 ], [ 77.5326365, -38.7149537 ], [ 77.5325105, -38.7151588 ], [ 77.53243, -38.7151546 ], [ 77.5323629, -38.7152404 ], [ 77.5323388, -38.715412 ], [ 77.5322503, -38.7154978 ], [ 77.5322342, -38.715728 ], [ 77.5321698, -38.7158578 ], [ 77.5321698, -38.7160273 ], [ 77.5321001, -38.7161759 ], [ 77.5319579, -38.7162868 ], [ 77.5316414, -38.7163161 ], [ 77.5314081, -38.7163329 ], [ 77.5312203, -38.7163496 ], [ 77.5311586, -38.7162994 ], [ 77.5311264, -38.7161801 ], [ 77.5312445, -38.7160148 ], [ 77.5315046, -38.7158076 ], [ 77.53151, -38.7156883 ], [ 77.5316817, -38.7154874 ], [ 77.5317004, -38.7153576 ], [ 77.5317683, -38.7153212 ], [ 77.5318959, -38.7150264 ], [ 77.5318882, -38.7149077 ], [ 77.5318319, -38.7148784 ], [ 77.5318614, -38.7148428 ], [ 77.5318345, -38.7147549 ], [ 77.5318935, -38.7147088 ], [ 77.5318614, -38.7146314 ], [ 77.5317863, -38.7145113 ], [ 77.5316098, -38.7143996 ], [ 77.5313072, -38.714317 ], [ 77.5306874, -38.7142493 ], [ 77.5302784, -38.7142687 ], [ 77.5295966, -38.7143751 ], [ 77.5285929, -38.7145923 ], [ 77.5281222, -38.7148037 ], [ 77.527771, -38.7148114 ], [ 77.5272135, -38.7148369 ], [ 77.5270092, -38.7150249 ], [ 77.5268104, -38.7151222 ], [ 77.5264501, -38.7152217 ], [ 77.526184, -38.715183 ], [ 77.5259364, -38.7152551 ], [ 77.5257548, -38.7153433 ], [ 77.525635, -38.7156013 ], [ 77.5252899, -38.7158834 ], [ 77.5250695, -38.715919 ], [ 77.5245889, -38.7160386 ], [ 77.524488, -38.7161299 ] ] ] ] } },
{ "type": "Feature", "properties": { "FID": 311159, "id": 1862, "left": 75.0, "top": -35.0, "right": 80.0, "bottom": -40.0, "row_index": 25, "col_index": 51, "min_lon": 75.0, "min_lat": -40.0, "tile_id": "75_-40" }, "geometry": { "type": "MultiPolygon", "coordinates": [ [ [ [ 77.5349915, -38.7117997 ], [ 77.5351551, -38.7118227 ], [ 77.5351766, -38.7116741 ], [ 77.5352731, -38.7117014 ], [ 77.5351712, -38.711919 ], [ 77.5351927, -38.7120153 ], [ 77.5353563, -38.7121053 ], [ 77.535308, -38.7122204 ], [ 77.5352061, -38.7123334 ], [ 77.5348601, -38.7122853 ], [ 77.5347868, -38.7123616 ], [ 77.5346589, -38.7124527 ], [ 77.5344256, -38.7125071 ], [ 77.5341815, -38.7124799 ], [ 77.5338864, -38.7123292 ], [ 77.5338918, -38.7121116 ], [ 77.5339339, -38.7119806 ], [ 77.5340688, -38.7118688 ], [ 77.5341466, -38.7117495 ], [ 77.5341618, -38.7116375 ], [ 77.5343317, -38.7115653 ], [ 77.5344872, -38.7113623 ], [ 77.5345463, -38.7114251 ], [ 77.534549, -38.71149 ], [ 77.5346777, -38.7114942 ], [ 77.5347877, -38.711423 ], [ 77.5348735, -38.7113162 ], [ 77.5349861, -38.7114397 ], [ 77.5351042, -38.7112639 ], [ 77.5351471, -38.7112011 ], [ 77.5351363, -38.7110944 ], [ 77.535257, -38.7110902 ], [ 77.5353241, -38.7111237 ], [ 77.5352517, -38.7112116 ], [ 77.5353026, -38.7112786 ], [ 77.5353026, -38.7114083 ], [ 77.5352436, -38.7114481 ], [ 77.5350612, -38.7115737 ], [ 77.5349057, -38.7116218 ], [ 77.5348332, -38.7116595 ], [ 77.5349539, -38.7116951 ], [ 77.5349218, -38.7117788 ], [ 77.5349593, -38.7119023 ], [ 77.5349915, -38.7117997 ] ] ] ] } },
{ "type": "Feature", "properties": { "FID": 311160, "id": 1862, "left": 75.0, "top": -35.0, "right": 80.0, "bottom": -40.0, "row_index": 25, "col_index": 51, "min_lon": 75.0, "min_lat": -40.0, "tile_id": "75_-40" }, "geometry": { "type": "MultiPolygon", "coordinates": [ [ [ [ 77.5196945, -38.7024826 ], [ 77.5197583, -38.7024934 ], [ 77.5198464, -38.7025308 ], [ 77.5198957, -38.7025505 ], [ 77.5198948, -38.7026301 ], [ 77.5198805, -38.7027307 ], [ 77.5198279, -38.7027882 ], [ 77.5197302, -38.7028345 ], [ 77.5196734, -38.7028453 ], [ 77.5195597, -38.7028148 ], [ 77.5195303, -38.7027875 ], [ 77.5194638, -38.7027859 ], [ 77.5194333, -38.7028022 ], [ 77.5193921, -38.702804 ], [ 77.5193523, -38.7027955 ], [ 77.5193283, -38.7027788 ], [ 77.5192917, -38.7027242 ], [ 77.5192842, -38.7026491 ], [ 77.5192797, -38.702587 ], [ 77.5193005, -38.7025276 ], [ 77.5193279, -38.7024802 ], [ 77.5193751, -38.7024658 ], [ 77.5194475, -38.7024923 ], [ 77.5194894, -38.7025219 ], [ 77.5195515, -38.7025332 ], [ 77.519641, -38.7024981 ], [ 77.5196945, -38.7024826 ] ] ] ] } },
{ "type": "Feature", "properties": { "FID": 708720, "id": 1862, "left": 75.0, "top": -35.0, "right": 80.0, "bottom": -40.0, "row_index": 25, "col_index": 51, "min_lon": 75.0, "min_lat": -40.0, "tile_id": "75_-40" }, "geometry": { "type": "MultiPolygon", "coordinates": [ [ [ [ 77.532763, -38.7127855 ], [ 77.5326906, -38.7129194 ], [ 77.5326555, -38.7127875 ], [ 77.532763, -38.7127855 ] ] ] ] } },
{ "type": "Feature", "properties": { "FID": 708722, "id": 1862, "left": 75.0, "top": -35.0, "right": 80.0, "bottom": -40.0, "row_index": 25, "col_index": 51, "min_lon": 75.0, "min_lat": -40.0, "tile_id": "75_-40" }, "geometry": { "type": "MultiPolygon", "coordinates": [ [ [ [ 77.529788, -38.7079989 ], [ 77.5298899, -38.7079141 ], [ 77.5299718, -38.7079601 ], [ 77.5299436, -38.708047 ], [ 77.5300321, -38.7080219 ], [ 77.5300616, -38.7080679 ], [ 77.5299597, -38.7081579 ], [ 77.5298659, -38.7082019 ], [ 77.5297102, -38.7082019 ], [ 77.5296566, -38.7081056 ], [ 77.5297235, -38.7080343 ], [ 77.529788, -38.7079989 ] ] ] ] } }
]
}
