{
"type": "FeatureCollection",
"name": "75_15",
"crs": { "type": "name", "properties": { "name": "urn:ogc:def:crs:OGC:1.3:CRS84" } },
"xy_coordinate_resolution": 1e-15,
"features": [
{ "type": "Feature", "properties": { "FID": 123912, "id": 1851, "left": 75.0, "top": 20.0, "right": 80.0, "bottom": 15.0, "row_index": 14, "col_index": 51, "min_lon": 75.0, "min_lat": 15.0, "tile_id": "75_15" }, "geometry": { "type": "MultiPolygon", "coordinates": [ [ [ [ 80.0, 20.0 ], [ 80.0, 15.0 ], [ 75.0, 15.0 ], [ 75.0, 20.0 ], [ 80.0, 20.0 ] ] ] ] } }
]
}
