{
"type": "FeatureCollection",
"name": "75_20",
"crs": { "type": "name", "properties": { "name": "urn:ogc:def:crs:OGC:1.3:CRS84" } },
"xy_coordinate_resolution": 1e-15,
"features": [
{ "type": "Feature", "properties": { "FID": 123912, "id": 1850, "left": 75.0, "top": 25.0, "right": 80.0, "bottom": 20.0, "row_index": 13, "col_index": 51, "min_lon": 75.0, "min_lat": 20.0, "tile_id": "75_20" }, "geometry": { "type": "MultiPolygon", "coordinates": [ [ [ [ 80.0, 25.0 ], [ 80.0, 20.0 ], [ 75.0, 20.0 ], [ 75.0, 25.0 ], [ 80.0, 25.0 ] ] ] ] } }
]
}
