{
"type": "FeatureCollection",
"name": "75_40",
"crs": { "type": "name", "properties": { "name": "urn:ogc:def:crs:OGC:1.3:CRS84" } },
"xy_coordinate_resolution": 1e-15,
"features": [
{ "type": "Feature", "properties": { "FID": 123912, "id": 1846, "left": 75.0, "top": 45.0, "right": 80.0, "bottom": 40.0, "row_index": 9, "col_index": 51, "min_lon": 75.0, "min_lat": 40.0, "tile_id": "75_40" }, "geometry": { "type": "MultiPolygon", "coordinates": [ [ [ [ 80.0, 45.0 ], [ 80.0, 40.0 ], [ 75.0, 40.0 ], [ 75.0, 45.0 ], [ 80.0, 45.0 ] ] ] ] } }
]
}
