{
"type": "FeatureCollection",
"name": "75_55",
"crs": { "type": "name", "properties": { "name": "urn:ogc:def:crs:OGC:1.3:CRS84" } },
"xy_coordinate_resolution": 1e-15,
"features": [
{ "type": "Feature", "properties": { "FID": 123912, "id": 1843, "left": 75.0, "top": 60.0, "right": 80.0, "bottom": 55.0, "row_index": 6, "col_index": 51, "min_lon": 75.0, "min_lat": 55.0, "tile_id": "75_55" }, "geometry": { "type": "MultiPolygon", "coordinates": [ [ [ [ 80.0, 60.0 ], [ 80.0, 55.0 ], [ 75.0, 55.0 ], [ 75.0, 60.0 ], [ 80.0, 60.0 ] ] ] ] } }
]
}
