{
"type": "FeatureCollection",
"name": "75_60",
"crs": { "type": "name", "properties": { "name": "urn:ogc:def:crs:OGC:1.3:CRS84" } },
"xy_coordinate_resolution": 1e-15,
"features": [
{ "type": "Feature", "properties": { "FID": 123912, "id": 1842, "left": 75.0, "top": 65.0, "right": 80.0, "bottom": 60.0, "row_index": 5, "col_index": 51, "min_lon": 75.0, "min_lat": 60.0, "tile_id": "75_60" }, "geometry": { "type": "MultiPolygon", "coordinates": [ [ [ [ 80.0, 65.0 ], [ 80.0, 60.0 ], [ 75.0, 60.0 ], [ 75.0, 65.0 ], [ 80.0, 65.0 ] ] ] ] } }
]
}
