{
"type": "FeatureCollection",
"name": "75_80",
"crs": { "type": "name", "properties": { "name": "urn:ogc:def:crs:OGC:1.3:CRS84" } },
"xy_coordinate_resolution": 1e-15,
"features": [
{ "type": "Feature", "properties": { "FID": 344631, "id": 1838, "left": 75.0, "top": 85.0, "right": 80.0, "bottom": 80.0, "row_index": 1, "col_index": 51, "min_lon": 75.0, "min_lat": 80.0, "tile_id": "75_80" }, "geometry": { "type": "MultiPolygon", "coordinates": [ [ [ [ 79.3169974, 80.8886343 ], [ 79.3238638, 80.8892867 ], [ 79.3290137, 80.8898846 ], [ 79.3341635, 80.8906728 ], [ 79.3387984, 80.8914337 ], [ 79.3420599, 80.8920587 ], [ 79.3448065, 80.892575 ], [ 79.3487547, 80.8931999 ], [ 79.3545912, 80.8941237 ], [ 79.3604277, 80.8949115 ], [ 79.371929, 80.8967313 ], [ 79.3794821, 80.8978991 ], [ 79.3923567, 80.899284 ], [ 79.4040297, 80.9001256 ], [ 79.4110678, 80.9003971 ], [ 79.4198225, 80.9003157 ], [ 79.4237708, 80.9002749 ], [ 79.4287489, 80.9002071 ], [ 79.4332121, 80.9002885 ], [ 79.4373321, 80.9004107 ], [ 79.4402503, 80.9005736 ], [ 79.4447135, 80.9008993 ], [ 79.4499492, 80.9013065 ], [ 79.4534682, 80.9015373 ], [ 79.4581889, 80.9019173 ], [ 79.4629096, 80.9022566 ], [ 79.4685744, 80.9025009 ], [ 79.4771575, 80.902908 ], [ 79.4891737, 80.903383 ], [ 79.4974135, 80.9036543 ], [ 79.5049666, 80.9038715 ], [ 79.5126913, 80.90417 ], [ 79.5183562, 80.9043057 ], [ 79.5273685, 80.9045092 ], [ 79.5356082, 80.9045363 ], [ 79.5455646, 80.9046313 ], [ 79.552431, 80.9046313 ], [ 79.5586967, 80.9045499 ], [ 79.5619582, 80.9043735 ], [ 79.5657348, 80.9041835 ], [ 79.5698547, 80.90398 ], [ 79.5726871, 80.9039121 ], [ 79.5756911, 80.9039664 ], [ 79.5791244, 80.9040614 ], [ 79.5811843, 80.9040614 ], [ 79.5832442, 80.9039664 ], [ 79.5849609, 80.903695 ], [ 79.5867633, 80.9032744 ], [ 79.5898532, 80.9025959 ], [ 79.5915698, 80.9022566 ], [ 79.5933723, 80.9020259 ], [ 79.5969771, 80.9017408 ], [ 79.6011829, 80.9013744 ], [ 79.6039294, 80.9010351 ], [ 79.6073627, 80.9005736 ], [ 79.6098518, 80.9002885 ], [ 79.6138, 80.8998677 ], [ 79.6163749, 80.8995962 ], [ 79.6209239, 80.8991075 ], [ 79.6275329, 80.8981571 ], [ 79.6339702, 80.8971251 ], [ 79.6404933, 80.8961338 ], [ 79.6442699, 80.8957264 ], [ 79.6507072, 80.8951559 ], [ 79.6571445, 80.8946806 ], [ 79.6617793, 80.8943002 ], [ 79.6646976, 80.8940422 ], [ 79.6692466, 80.8934988 ], [ 79.6719073, 80.8931728 ], [ 79.6731948, 80.8930233 ], [ 79.6743964, 80.8930233 ], [ 79.6759414, 80.8931592 ], [ 79.676628, 80.8934716 ], [ 79.6767997, 80.894015 ], [ 79.6767997, 80.8945176 ], [ 79.6774005, 80.8946941 ], [ 79.678688, 80.8947213 ], [ 79.6800613, 80.8946262 ], [ 79.6816062, 80.8943002 ], [ 79.6828078, 80.8938248 ], [ 79.6876144, 80.8922761 ], [ 79.6918201, 80.8908766 ], [ 79.6955108, 80.8900749 ], [ 79.7022914, 80.888811 ], [ 79.709072, 80.8877508 ], [ 79.7149085, 80.8868128 ], [ 79.7204875, 80.8859971 ], [ 79.7237491, 80.8855893 ], [ 79.727354, 80.8851406 ], [ 79.7301005, 80.8848414 ], [ 79.7316455, 80.8846783 ], [ 79.7339629, 80.8844607 ], [ 79.7366237, 80.8840936 ], [ 79.7385978, 80.8837808 ], [ 79.7401427, 80.8834952 ], [ 79.7419452, 80.8832232 ], [ 79.7436618, 80.8829376 ], [ 79.7455501, 80.8827064 ], [ 79.7483825, 80.8824344 ], [ 79.752674, 80.8820536 ], [ 79.757738, 80.8815367 ], [ 79.765377, 80.880911 ], [ 79.7719001, 80.8805437 ], [ 79.7775649, 80.8802988 ], [ 79.784088, 80.8799587 ], [ 79.792242, 80.8794553 ], [ 79.8007392, 80.8789519 ], [ 79.8071765, 80.8785029 ], [ 79.8136996, 80.8781628 ], [ 79.8212527, 80.8778906 ], [ 79.8264884, 80.8777954 ], [ 79.8330974, 80.8776457 ], [ 79.8365306, 80.8776049 ], [ 79.8394488, 80.877564 ], [ 79.8420238, 80.8774552 ], [ 79.8453712, 80.8773191 ], [ 79.8506068, 80.8771013 ], [ 79.85713, 80.8767339 ], [ 79.862709, 80.8765025 ], [ 79.8693179, 80.8761215 ], [ 79.8735236, 80.8757948 ], [ 79.877386, 80.8754546 ], [ 79.881935, 80.875019 ], [ 79.8849391, 80.8747195 ], [ 79.8874282, 80.8744881 ], [ 79.8904323, 80.8742567 ], [ 79.8931789, 80.8741342 ], [ 79.8961829, 80.8740117 ], [ 79.899702, 80.8739164 ], [ 79.9043368, 80.873998 ], [ 79.9118899, 80.8740797 ], [ 79.9222755, 80.8740797 ], [ 79.927082, 80.8740117 ], [ 79.9317168, 80.8738347 ], [ 79.9387549, 80.8735352 ], [ 79.9441623, 80.8732765 ], [ 79.948368, 80.8730995 ], [ 79.9555778, 80.8728272 ], [ 79.9641608, 80.8723371 ], [ 79.9692248, 80.8720375 ], [ 79.9751472, 80.8716835 ], [ 79.9847602, 80.8710435 ], [ 79.9902534, 80.8705396 ], [ 79.9943732, 80.8702945 ], [ 79.9972056, 80.87024 ], [ 79.9990081, 80.87024 ], [ 80.0, 80.870275772064815 ], [ 80.0, 80.780623483171084 ], [ 79.9988794, 80.7804519 ], [ 79.998064, 80.7802319 ], [ 79.9969482, 80.7799156 ], [ 79.9948024, 80.7793792 ], [ 79.9931287, 80.7790148 ], [ 79.9914121, 80.778664 ], [ 79.9903392, 80.7784577 ], [ 79.9892664, 80.7782583 ], [ 79.9872922, 80.7779213 ], [ 79.9850606, 80.7775224 ], [ 79.9832582, 80.777206 ], [ 79.981842, 80.7769515 ], [ 79.9806833, 80.7767176 ], [ 79.9794387, 80.77647 ], [ 79.9788379, 80.7763599 ], [ 79.9781513, 80.776243 ], [ 79.9760484, 80.7758371 ], [ 79.9745893, 80.7756032 ], [ 79.9724435, 80.7752799 ], [ 79.9695682, 80.7749152 ], [ 79.965534, 80.7743855 ], [ 79.9619291, 80.77378 ], [ 79.9579809, 80.7731194 ], [ 79.954891, 80.7724038 ], [ 79.9509428, 80.7713577 ], [ 79.9468229, 80.7700912 ], [ 79.9418448, 80.7686318 ], [ 79.9377249, 80.7675302 ], [ 79.933605, 80.7666213 ], [ 79.9298285, 80.7659327 ], [ 79.923992, 80.7649134 ], [ 79.9183272, 80.7639216 ], [ 79.9111174, 80.7629021 ], [ 79.9052809, 80.7621305 ], [ 79.8992727, 80.7612762 ], [ 79.8930929, 80.760725 ], [ 79.8882864, 80.7604218 ], [ 79.88142, 80.7600359 ], [ 79.8767851, 80.7597327 ], [ 79.8724936, 80.7594019 ], [ 79.8680304, 80.7589333 ], [ 79.8611639, 80.7582165 ], [ 79.8561857, 80.7577203 ], [ 79.8517225, 80.7573894 ], [ 79.8460577, 80.757031 ], [ 79.8410795, 80.7567553 ], [ 79.8354147, 80.7565347 ], [ 79.8295782, 80.756452 ], [ 79.8237417, 80.7563692 ], [ 79.8187636, 80.7562589 ], [ 79.8118971, 80.7560659 ], [ 79.8027991, 80.7558177 ], [ 79.7957609, 80.7556247 ], [ 79.7912977, 80.7554041 ], [ 79.7856329, 80.7550731 ], [ 79.7799681, 80.754687 ], [ 79.7749899, 80.7543561 ], [ 79.7712134, 80.7541354 ], [ 79.7676085, 80.7539148 ], [ 79.7633169, 80.7536665 ], [ 79.759712, 80.7533907 ], [ 79.7555922, 80.7530873 ], [ 79.7513006, 80.7528115 ], [ 79.7456358, 80.7524528 ], [ 79.7397993, 80.7519839 ], [ 79.7348211, 80.7515976 ], [ 79.727268, 80.7510183 ], [ 79.7224615, 80.7507148 ], [ 79.7167967, 80.7503837 ], [ 79.7121618, 80.7501077 ], [ 79.7051237, 80.7497766 ], [ 79.697914, 80.7495007 ], [ 79.6943091, 80.7491419 ], [ 79.6917341, 80.7486452 ], [ 79.6891592, 80.7476516 ], [ 79.686756, 80.7464647 ], [ 79.6845244, 80.7458574 ], [ 79.6805762, 80.7453881 ], [ 79.674053, 80.7449188 ], [ 79.6678732, 80.7445599 ], [ 79.6598051, 80.7442562 ], [ 79.6524237, 80.7440077 ], [ 79.6452139, 80.7437316 ], [ 79.6376608, 80.7434555 ], [ 79.6302794, 80.7433174 ], [ 79.6232413, 80.7432069 ], [ 79.6155165, 80.7431793 ], [ 79.6074484, 80.7430689 ], [ 79.6002386, 80.7429032 ], [ 79.5928572, 80.7426823 ], [ 79.5880507, 80.742627 ], [ 79.5825575, 80.7425718 ], [ 79.5746611, 80.7425442 ], [ 79.5700262, 80.742489 ], [ 79.5624731, 80.7424061 ], [ 79.554405, 80.7422404 ], [ 79.5420454, 80.7420747 ], [ 79.5315741, 80.7419643 ], [ 79.5221327, 80.7419366 ], [ 79.5126913, 80.7419366 ], [ 79.5020483, 80.7420471 ], [ 79.4948385, 80.7421576 ], [ 79.4872854, 80.7421576 ], [ 79.4787025, 80.7421161 ], [ 79.4684886, 80.7421576 ], [ 79.456129, 80.7421438 ], [ 79.4521808, 80.7421299 ], [ 79.4455718, 80.7421023 ], [ 79.4408511, 80.7421023 ], [ 79.4381904, 80.7420747 ], [ 79.4335555, 80.7420609 ], [ 79.4280624, 80.7420609 ], [ 79.4242858, 80.7420609 ], [ 79.4220542, 80.7420471 ], [ 79.4176768, 80.7420885 ], [ 79.4119261, 80.7421576 ], [ 79.4050596, 80.7421576 ], [ 79.3930433, 80.7421023 ], [ 79.3849753, 80.74213 ], [ 79.3707274, 80.7421852 ], [ 79.3612861, 80.7422542 ], [ 79.3510722, 80.7425028 ], [ 79.3426608, 80.7426408 ], [ 79.3346786, 80.7426546 ], [ 79.327383, 80.7426546 ], [ 79.3229198, 80.742627 ], [ 79.3156671, 80.7425373 ], [ 79.3137359, 80.7424751 ], [ 79.3114185, 80.7424406 ], [ 79.3068265, 80.742344 ], [ 79.3039511, 80.7423233 ], [ 79.2998312, 80.742268 ], [ 79.295454, 80.7421921 ], [ 79.2903898, 80.7420747 ], [ 79.2830084, 80.741909 ], [ 79.2761419, 80.7417433 ], [ 79.2665289, 80.7414948 ], [ 79.2565726, 80.7412462 ], [ 79.251766, 80.7411357 ], [ 79.2445563, 80.7410528 ], [ 79.2383764, 80.7409976 ], [ 79.2296217, 80.7409424 ], [ 79.2220686, 80.7408871 ], [ 79.2136572, 80.7408595 ], [ 79.2076491, 80.7408043 ], [ 79.2028425, 80.740749 ], [ 79.1959761, 80.7406938 ], [ 79.1851615, 80.7406385 ], [ 79.1791534, 80.7405971 ], [ 79.1758917, 80.7405833 ], [ 79.1716002, 80.7405557 ], [ 79.1632747, 80.7405833 ], [ 79.155464, 80.7406109 ], [ 79.1492842, 80.7405281 ], [ 79.1420744, 80.7405004 ], [ 79.1377829, 80.7404728 ], [ 79.1302298, 80.7405557 ], [ 79.1231917, 80.7407766 ], [ 79.1140936, 80.7410252 ], [ 79.1065405, 80.7413843 ], [ 79.0984724, 80.7416605 ], [ 79.0897177, 80.7419366 ], [ 79.079933, 80.7421852 ], [ 79.0701483, 80.7425166 ], [ 79.0629385, 80.7426547 ], [ 79.0529822, 80.7429032 ], [ 79.0468023, 80.7430136 ], [ 79.0387343, 80.743345 ], [ 79.0282629, 80.7438696 ], [ 79.0229414, 80.7441457 ], [ 79.0147876, 80.7444218 ], [ 79.0086936, 80.7447946 ], [ 79.0036296, 80.7450706 ], [ 78.9958189, 80.7453881 ], [ 78.9882658, 80.7455814 ], [ 78.9793394, 80.745747 ], [ 78.9721297, 80.7459403 ], [ 78.9583967, 80.7466028 ], [ 78.9455221, 80.7473756 ], [ 78.9340208, 80.7482588 ], [ 78.9250944, 80.7490591 ], [ 78.917713, 80.7496662 ], [ 78.9103316, 80.7500801 ], [ 78.8986586, 80.7509079 ], [ 78.8938521, 80.7512114 ], [ 78.8873289, 80.7519563 ], [ 78.8789175, 80.7530873 ], [ 78.8708494, 80.7543009 ], [ 78.8674162, 80.7548801 ], [ 78.8545416, 80.7568931 ], [ 78.8502501, 80.7574721 ], [ 78.8445852, 80.7583268 ], [ 78.8401221, 80.7589057 ], [ 78.8366888, 80.7595398 ], [ 78.830509, 80.7606147 ], [ 78.8279341, 80.7612211 ], [ 78.8205527, 80.7627092 ], [ 78.8152312, 80.7637563 ], [ 78.8109396, 80.7648308 ], [ 78.8059614, 80.7662357 ], [ 78.8018416, 80.7676679 ], [ 78.799095, 80.7689898 ], [ 78.7963484, 80.7706969 ], [ 78.7953184, 80.7717982 ], [ 78.7941168, 80.773202 ], [ 78.7929152, 80.7755138 ], [ 78.7930868, 80.7781001 ], [ 78.7944601, 80.7804382 ], [ 78.7949751, 80.7826382 ], [ 78.7954901, 80.7842879 ], [ 78.7977217, 80.7865144 ], [ 78.8002966, 80.7874764 ], [ 78.8042448, 80.7884657 ], [ 78.8064764, 80.7893175 ], [ 78.8078497, 80.7902792 ], [ 78.808708, 80.7911858 ], [ 78.8076781, 80.7921472 ], [ 78.8071631, 80.793136 ], [ 78.8078497, 80.7937403 ], [ 78.8095663, 80.7941522 ], [ 78.8129996, 80.7949761 ], [ 78.8171194, 80.7962117 ], [ 78.8191794, 80.7974746 ], [ 78.8207243, 80.7991216 ], [ 78.8202093, 80.8002469 ], [ 78.819351, 80.8009605 ], [ 78.8178061, 80.801866 ], [ 78.8145445, 80.8031282 ], [ 78.8123129, 80.8043627 ], [ 78.8116263, 80.8050485 ], [ 78.8123129, 80.8065296 ], [ 78.8154028, 80.8083122 ], [ 78.8184927, 80.8100395 ], [ 78.8217543, 80.8120132 ], [ 78.8251875, 80.8137947 ], [ 78.8269041, 80.814699 ], [ 78.8289641, 80.815795 ], [ 78.8308523, 80.8174388 ], [ 78.8334273, 80.819411 ], [ 78.8354872, 80.820835 ], [ 78.8370321, 80.8218755 ], [ 78.8385402, 80.8226924 ], [ 78.8394192, 80.8233296 ], [ 78.8407325, 80.8239643 ], [ 78.8419693, 80.824688 ], [ 78.8430256, 80.8254645 ], [ 78.8438494, 80.8262755 ], [ 78.8451736, 80.8280835 ], [ 78.8456753, 80.8285881 ], [ 78.8468074, 80.8295262 ], [ 78.8480372, 80.8302857 ], [ 78.8492643, 80.8314403 ], [ 78.8508416, 80.832157 ], [ 78.8552283, 80.8337512 ], [ 78.8598631, 80.8353097 ], [ 78.8631247, 80.83654 ], [ 78.8667296, 80.8377701 ], [ 78.8691328, 80.8386447 ], [ 78.8708494, 80.8394373 ], [ 78.8727377, 80.8403118 ], [ 78.874626, 80.8412408 ], [ 78.8763426, 80.8418966 ], [ 78.8777159, 80.8424703 ], [ 78.8801192, 80.8434264 ], [ 78.884239, 80.8446283 ], [ 78.8900755, 80.8464854 ], [ 78.895912, 80.8477961 ], [ 78.9051817, 80.8494888 ], [ 78.9101599, 80.8503896 ], [ 78.9132498, 80.8511266 ], [ 78.9149664, 80.8516179 ], [ 78.9175413, 80.8522456 ], [ 78.9213179, 80.8530097 ], [ 78.9266394, 80.8539102 ], [ 78.9305876, 80.8547015 ], [ 78.9347075, 80.8554654 ], [ 78.938999, 80.8562838 ], [ 78.9436339, 80.8571839 ], [ 78.9458655, 80.8577022 ], [ 78.9482687, 80.8581386 ], [ 78.9501571, 80.8587522 ], [ 78.9520453, 80.8593931 ], [ 78.9535903, 80.8599521 ], [ 78.9555644, 80.8603338 ], [ 78.9575423, 80.860602 ], [ 78.9601801, 80.8609122 ], [ 78.9629714, 80.8612947 ], [ 78.9659122, 80.8617677 ], [ 78.9690067, 80.8623131 ], [ 78.9721423, 80.8629304 ], [ 78.9784812, 80.864164 ], [ 78.9831161, 80.8651179 ], [ 78.9865493, 80.8656766 ], [ 78.9926433, 80.8664941 ], [ 78.9999389, 80.8675703 ], [ 79.0063762, 80.8684966 ], [ 79.0108394, 80.8690823 ], [ 79.0163325, 80.8696408 ], [ 79.01865, 80.869954 ], [ 79.0212249, 80.8702809 ], [ 79.0252589, 80.8707439 ], [ 79.0301512, 80.8713567 ], [ 79.0349577, 80.8721465 ], [ 79.0402792, 80.8728817 ], [ 79.0507506, 80.8741886 ], [ 79.0574454, 80.8751143 ], [ 79.0653418, 80.8759037 ], [ 79.0706633, 80.8764753 ], [ 79.0742682, 80.8768292 ], [ 79.0782164, 80.8771558 ], [ 79.0816497, 80.8774824 ], [ 79.0866279, 80.8780131 ], [ 79.0916061, 80.8785982 ], [ 79.0970992, 80.8792785 ], [ 79.1016482, 80.8799315 ], [ 79.1055106, 80.8803532 ], [ 79.1129779, 80.8808158 ], [ 79.1182136, 80.8810606 ], [ 79.125595, 80.8813191 ], [ 79.135208, 80.8814823 ], [ 79.1424177, 80.8814551 ], [ 79.1504858, 80.8813735 ], [ 79.1583822, 80.8812103 ], [ 79.166622, 80.881047 ], [ 79.1716002, 80.8808838 ], [ 79.1764067, 80.880775 ], [ 79.1923712, 80.8803397 ], [ 79.2012976, 80.8800948 ], [ 79.2105673, 80.8799043 ], [ 79.2170904, 80.8797139 ], [ 79.2227553, 80.8795778 ], [ 79.2275618, 80.879605 ], [ 79.2339132, 80.8797955 ], [ 79.2376041, 80.8799587 ], [ 79.2399214, 80.8800948 ], [ 79.2438697, 80.8804213 ], [ 79.2504787, 80.8809382 ], [ 79.2565726, 80.8814415 ], [ 79.2663573, 80.8825432 ], [ 79.2727087, 80.883332 ], [ 79.2782019, 80.8841208 ], [ 79.2843817, 80.8847191 ], [ 79.2878149, 80.8851542 ], [ 79.2903898, 80.8855349 ], [ 79.2945097, 80.8860787 ], [ 79.2993162, 80.8867313 ], [ 79.3025779, 80.8870983 ], [ 79.305067, 80.8873702 ], [ 79.3097876, 80.8879547 ], [ 79.3169974, 80.8886343 ] ] ] ] } }
]
}
