{
"type": "FeatureCollection",
"name": "80_-75",
"crs": { "type": "name", "properties": { "name": "urn:ogc:def:crs:OGC:1.3:CRS84" } },
"xy_coordinate_resolution": 1e-15,
"features": [
{ "type": "Feature", "properties": { "FID": 307096, "id": 1905, "left": 80.0, "top": -70.0, "right": 85.0, "bottom": -75.0, "row_index": 32, "col_index": 52, "min_lon": 80.0, "min_lat": -75.0, "tile_id": "80_-75" }, "geometry": { "type": "MultiPolygon", "coordinates": [ [ [ [ 85.0, -70.0 ], [ 85.0, -75.0 ], [ 80.0, -75.0 ], [ 80.0, -70.0 ], [ 85.0, -70.0 ] ] ] ] } }
]
}
