{
"type": "FeatureCollection",
"name": "80_25",
"crs": { "type": "name", "properties": { "name": "urn:ogc:def:crs:OGC:1.3:CRS84" } },
"xy_coordinate_resolution": 1e-15,
"features": [
{ "type": "Feature", "properties": { "FID": 123912, "id": 1885, "left": 80.0, "top": 30.0, "right": 85.0, "bottom": 25.0, "row_index": 12, "col_index": 52, "min_lon": 80.0, "min_lat": 25.0, "tile_id": "80_25" }, "geometry": { "type": "MultiPolygon", "coordinates": [ [ [ [ 85.0, 30.0 ], [ 85.0, 25.0 ], [ 80.0, 25.0 ], [ 80.0, 30.0 ], [ 85.0, 30.0 ] ] ] ] } }
]
}
