{
"type": "FeatureCollection",
"name": "80_80",
"crs": { "type": "name", "properties": { "name": "urn:ogc:def:crs:OGC:1.3:CRS84" } },
"xy_coordinate_resolution": 1e-15,
"features": [
{ "type": "Feature", "properties": { "FID": 344631, "id": 1874, "left": 80.0, "top": 85.0, "right": 85.0, "bottom": 80.0, "row_index": 1, "col_index": 52, "min_lon": 80.0, "min_lat": 80.0, "tile_id": "80_80" }, "geometry": { "type": "MultiPolygon", "coordinates": [ [ [ [ 80.0008964, 80.8703081 ], [ 80.0023555, 80.8704851 ], [ 80.0045013, 80.8710707 ], [ 80.0069903, 80.8719286 ], [ 80.0091361, 80.8722962 ], [ 80.0117969, 80.8723915 ], [ 80.0160884, 80.8721873 ], [ 80.0220107, 80.871629 ], [ 80.030937, 80.8706486 ], [ 80.0350569, 80.8701856 ], [ 80.0400351, 80.8697225 ], [ 80.0469015, 80.8691505 ], [ 80.0529097, 80.8686873 ], [ 80.0585745, 80.8682787 ], [ 80.0650976, 80.8677338 ], [ 80.0726507, 80.8670254 ], [ 80.0778006, 80.8665077 ], [ 80.087242, 80.8652814 ], [ 80.0994299, 80.863837 ], [ 80.1102446, 80.862365 ], [ 80.1256941, 80.8604292 ], [ 80.134277, 80.8590386 ], [ 80.1450918, 80.8570203 ], [ 80.1579664, 80.8541012 ], [ 80.1668928, 80.8520273 ], [ 80.173931, 80.8495707 ], [ 80.1773642, 80.8473046 ], [ 80.1797674, 80.8459119 ], [ 80.1814841, 80.8448195 ], [ 80.1833723, 80.8436177 ], [ 80.1850889, 80.8427708 ], [ 80.1861189, 80.8417326 ], [ 80.1868056, 80.8405577 ], [ 80.1876639, 80.8395193 ], [ 80.1892088, 80.8380708 ], [ 80.1890372, 80.8368407 ], [ 80.1885222, 80.8357198 ], [ 80.1874922, 80.8343801 ], [ 80.1856039, 80.8330401 ], [ 80.183029, 80.8310983 ], [ 80.1818274, 80.8298673 ], [ 80.1802824, 80.8290465 ], [ 80.1766775, 80.8274595 ], [ 80.1732443, 80.8262828 ], [ 80.1710127, 80.8254617 ], [ 80.1682661, 80.8244764 ], [ 80.1651762, 80.8230802 ], [ 80.1634596, 80.8221494 ], [ 80.1619147, 80.8213827 ], [ 80.1595114, 80.8203969 ], [ 80.1571081, 80.8191918 ], [ 80.1545332, 80.8180962 ], [ 80.1509283, 80.81648 ], [ 80.149555, 80.8157402 ], [ 80.1474951, 80.814973 ], [ 80.1462935, 80.814288 ], [ 80.1437185, 80.8130273 ], [ 80.140457, 80.8117117 ], [ 80.1361654, 80.8099847 ], [ 80.1332472, 80.8085864 ], [ 80.1308439, 80.8072427 ], [ 80.1275824, 80.8057617 ], [ 80.1238058, 80.8040061 ], [ 80.1200293, 80.8025246 ], [ 80.1167677, 80.8010702 ], [ 80.1141928, 80.8000548 ], [ 80.1107596, 80.7986276 ], [ 80.1076697, 80.7973373 ], [ 80.1042364, 80.7963215 ], [ 80.1013182, 80.7955802 ], [ 80.0975416, 80.7947289 ], [ 80.0937651, 80.7939325 ], [ 80.0899885, 80.7932459 ], [ 80.0855253, 80.7924494 ], [ 80.0820921, 80.7917626 ], [ 80.0791739, 80.7912132 ], [ 80.074539, 80.7902792 ], [ 80.0705908, 80.7895373 ], [ 80.0650976, 80.7883558 ], [ 80.0590895, 80.7872565 ], [ 80.0511931, 80.7859922 ], [ 80.0426959, 80.784439 ], [ 80.034027, 80.7828719 ], [ 80.0313663, 80.7824732 ], [ 80.0290488, 80.7822945 ], [ 80.0268172, 80.7822807 ], [ 80.024929, 80.782377 ], [ 80.0216674, 80.7825694 ], [ 80.0184917, 80.7826794 ], [ 80.0152301, 80.7826794 ], [ 80.012226, 80.7825694 ], [ 80.0105094, 80.7824045 ], [ 80.0090503, 80.782157 ], [ 80.007162, 80.7817995 ], [ 80.0044584, 80.7812082 ], [ 80.0028705, 80.7809813 ], [ 80.0008106, 80.7807476 ], [ 80.0, 80.780623483171084 ], [ 80.0, 80.870275772064815 ], [ 80.0008964, 80.8703081 ] ] ] ] } }
]
}
