{
"type": "FeatureCollection",
"name": "85_-70",
"crs": { "type": "name", "properties": { "name": "urn:ogc:def:crs:OGC:1.3:CRS84" } },
"xy_coordinate_resolution": 1e-15,
"features": [
{ "type": "Feature", "properties": { "FID": 307096, "id": 1940, "left": 85.0, "top": -65.0, "right": 90.0, "bottom": -70.0, "row_index": 31, "col_index": 53, "min_lon": 85.0, "min_lat": -70.0, "tile_id": "85_-70" }, "geometry": { "type": "MultiPolygon", "coordinates": [ [ [ [ 85.00293, -66.6458931 ], [ 85.0067759, -66.6443563 ], [ 85.0156149, -66.6424356 ], [ 85.0187026, -66.6411506 ], [ 85.0233636, -66.6390849 ], [ 85.0344686, -66.6364066 ], [ 85.0408525, -66.6360699 ], [ 85.0498992, -66.6363812 ], [ 85.0465727, -66.638772 ], [ 85.0401594, -66.642448 ], [ 85.0367101, -66.645391 ], [ 85.0346525, -66.6483821 ], [ 85.0286279, -66.6534631 ], [ 85.0224187, -66.659373 ], [ 85.0328371, -66.6566704 ], [ 85.0459783, -66.6543392 ], [ 85.057329, -66.6505537 ], [ 85.0642577, -66.6477295 ], [ 85.0693964, -66.643452 ], [ 85.0689652, -66.6389838 ], [ 85.0679336, -66.6372785 ], [ 85.0665915, -66.6305526 ], [ 85.0675522, -66.6261323 ], [ 85.0667012, -66.6235982 ], [ 85.0647, -66.6199114 ], [ 85.0593428, -66.6155528 ], [ 85.0574374, -66.6146523 ], [ 85.0532927, -66.6111701 ], [ 85.0475184, -66.6087448 ], [ 85.0467907, -66.6056583 ], [ 85.0501726, -66.6029916 ], [ 85.0507141, -66.6005055 ], [ 85.0518301, -66.5985958 ], [ 85.0523714, -66.5961098 ], [ 85.0565057, -66.5931907 ], [ 85.0642916, -66.5895622 ], [ 85.0699919, -66.5858619 ], [ 85.0765641, -66.5813565 ], [ 85.0846412, -66.576346 ], [ 85.0866482, -66.5702928 ], [ 85.0827458, -66.5657071 ], [ 85.0871689, -66.5614065 ], [ 85.0885779, -66.5581156 ], [ 85.0836856, -66.5548874 ], [ 85.0819263, -66.5500969 ], [ 85.0803835, -66.5475398 ], [ 85.0797727, -66.5439018 ], [ 85.080392, -66.5378018 ], [ 85.0826723, -66.5337066 ], [ 85.0881175, -66.531111 ], [ 85.0940372, -66.5263058 ], [ 85.0987867, -66.5236861 ], [ 85.1059494, -66.522818 ], [ 85.1174614, -66.5179249 ], [ 85.1282602, -66.5163451 ], [ 85.1389989, -66.5150406 ], [ 85.1439628, -66.5146526 ], [ 85.1472611, -66.5122608 ], [ 85.1486582, -66.5089699 ], [ 85.1494218, -66.5053795 ], [ 85.1491998, -66.5031466 ], [ 85.1475936, -66.5008669 ], [ 85.1473718, -66.498634 ], [ 85.1508435, -66.4954137 ], [ 85.1570806, -66.4922869 ], [ 85.1645822, -66.4897589 ], [ 85.1729489, -66.4864255 ], [ 85.1833291, -66.4834375 ], [ 85.1962453, -66.478309 ], [ 85.2154915, -66.4728354 ], [ 85.2317342, -66.4683718 ], [ 85.2437677, -66.4640449 ], [ 85.2563155, -66.4605684 ], [ 85.2660967, -66.4569995 ], [ 85.2776046, -66.4551556 ], [ 85.2908328, -66.451699 ], [ 85.3048045, -66.4479878 ], [ 85.3138824, -66.444393 ], [ 85.3222673, -66.4407752 ], [ 85.3282971, -66.4384702 ], [ 85.3367337, -66.4345753 ], [ 85.3574016, -66.4285761 ], [ 85.3661283, -66.4266355 ], [ 85.3786928, -66.4228726 ], [ 85.3887949, -66.4209753 ], [ 85.3998861, -66.4210551 ], [ 85.4109221, -66.4214102 ], [ 85.4193652, -66.4208474 ], [ 85.42836, -66.4244714 ], [ 85.4336585, -66.4257529 ], [ 85.4448375, -66.4288897 ], [ 85.454498, -66.4291975 ], [ 85.4646845, -66.4303552 ], [ 85.4779054, -66.4302185 ], [ 85.4885837, -66.4288884 ], [ 85.4985163, -66.4278119 ], [ 85.5113163, -66.4262691 ], [ 85.5275646, -66.4248332 ], [ 85.5433359, -66.4222689 ], [ 85.553424, -66.42036 ], [ 85.5645214, -66.4168142 ], [ 85.5738665, -66.4115459 ], [ 85.5814022, -66.4084444 ], [ 85.5920657, -66.403494 ], [ 85.60299, -66.4007742 ], [ 85.6143893, -66.3991798 ], [ 85.6259452, -66.3967557 ], [ 85.6360679, -66.3945649 ], [ 85.6397766, -66.3932889 ], [ 85.6470803, -66.3876768 ], [ 85.6552349, -66.384869 ], [ 85.6628554, -66.3812111 ], [ 85.6679379, -66.3799763 ], [ 85.6785295, -66.3789085 ], [ 85.6858845, -66.3766307 ], [ 85.6945118, -66.3749466 ], [ 85.7006422, -66.3717978 ], [ 85.7066674, -66.3692011 ], [ 85.7091977, -66.3667769 ], [ 85.7098174, -66.3634618 ], [ 85.7118134, -66.360188 ], [ 85.7141875, -66.3585926 ], [ 85.7179889, -66.3567623 ], [ 85.7203106, -66.3554431 ], [ 85.7235775, -66.3527632 ], [ 85.7274288, -66.3506563 ], [ 85.7318131, -66.3493989 ], [ 85.7398925, -66.3468628 ], [ 85.7391317, -66.3435066 ], [ 85.7373761, -66.3417874 ], [ 85.7348818, -66.3403237 ], [ 85.729104, -66.3379282 ], [ 85.7310951, -66.3346545 ], [ 85.7355274, -66.3331207 ], [ 85.7438054, -66.3294797 ], [ 85.7517232, -66.3277719 ], [ 85.7589017, -66.3263195 ], [ 85.7702028, -66.3249894 ], [ 85.7746814, -66.3231782 ], [ 85.7802013, -66.3194535 ], [ 85.7873755, -66.3179996 ], [ 85.7944983, -66.3168218 ], [ 85.8026603, -66.31373 ], [ 85.8096299, -66.3133801 ], [ 85.8179731, -66.3130702 ], [ 85.8285773, -66.3117153 ], [ 85.8384434, -66.3106158 ], [ 85.8458606, -66.3077778 ], [ 85.8489067, -66.3062005 ], [ 85.8588689, -66.3045471 ], [ 85.8688791, -66.3026166 ], [ 85.8747189, -66.3008423 ], [ 85.8813924, -66.2982589 ], [ 85.888603, -66.2965238 ], [ 85.901892, -66.2955193 ], [ 85.913905, -66.2939214 ], [ 85.9198859, -66.2913165 ], [ 85.9253257, -66.2878629 ], [ 85.9321365, -66.2844484 ], [ 85.940025, -66.2827305 ], [ 85.9486469, -66.2807555 ], [ 85.9632478, -66.2800606 ], [ 85.9738282, -66.278695 ], [ 85.9808329, -66.2780605 ], [ 85.9907252, -66.2766742 ], [ 85.996645, -66.2743426 ], [ 86.0045253, -66.2726211 ], [ 86.0100601, -66.2724991 ], [ 86.0160894, -66.2735013 ], [ 86.0212903, -66.2753128 ], [ 86.0281212, -66.2796683 ], [ 86.0317143, -66.2828226 ], [ 86.0362321, -66.2846144 ], [ 86.0403971, -66.284453 ], [ 86.0452957, -66.2840341 ], [ 86.0502414, -66.2833389 ], [ 86.0565591, -66.2826815 ], [ 86.060132, -66.2819478 ], [ 86.067727, -66.2818806 ], [ 86.0780198, -66.2821651 ], [ 86.09087, -66.2836297 ], [ 86.0976389, -66.284371 ], [ 86.1058277, -66.2848733 ], [ 86.112784, -66.2845086 ], [ 86.1236252, -66.2856376 ], [ 86.1348757, -66.2884424 ], [ 86.1455348, -66.290675 ], [ 86.1533115, -66.2936617 ], [ 86.1568314, -66.2973656 ], [ 86.1598502, -66.2999456 ], [ 86.1629155, -66.3022491 ], [ 86.1618141, -66.3047179 ], [ 86.1570925, -66.3081993 ], [ 86.1527394, -66.3094696 ], [ 86.1525083, -66.3108514 ], [ 86.1586923, -66.3110186 ], [ 86.1630917, -66.3094717 ], [ 86.1692783, -66.3054743 ], [ 86.1749119, -66.3047932 ], [ 86.1834301, -66.3033565 ], [ 86.1880552, -66.300427 ], [ 86.1910769, -66.2988425 ], [ 86.196982, -66.2965022 ], [ 86.2041226, -66.2950276 ], [ 86.2075066, -66.2912318 ], [ 86.212858, -66.2880437 ], [ 86.2187129, -66.285979 ], [ 86.2267161, -66.2834161 ], [ 86.240614, -66.278511 ], [ 86.2444503, -66.2761145 ], [ 86.2505242, -66.2726668 ], [ 86.2548201, -66.27167 ], [ 86.2623665, -66.2718688 ], [ 86.2739845, -66.2724516 ], [ 86.2889892, -66.2733995 ], [ 86.3002982, -66.2759147 ], [ 86.3195116, -66.2764138 ], [ 86.332462, -66.2773038 ], [ 86.3408286, -66.2766869 ], [ 86.3582034, -66.2757459 ], [ 86.3655016, -66.2731577 ], [ 86.3743006, -66.269775 ], [ 86.3819775, -66.2691383 ], [ 86.3953528, -66.2716983 ], [ 86.4045708, -66.2744295 ], [ 86.4153356, -66.2760889 ], [ 86.4280751, -66.2783523 ], [ 86.4379006, -66.2816514 ], [ 86.4463984, -66.2846391 ], [ 86.4547706, -66.2884556 ], [ 86.4634505, -66.2947767 ], [ 86.4663334, -66.2984559 ], [ 86.4832128, -66.3008169 ], [ 86.4878536, -66.3020415 ], [ 86.4991982, -66.3045412 ], [ 86.5084416, -66.3072659 ], [ 86.5151051, -66.3088167 ], [ 86.521477, -66.3123027 ], [ 86.5269546, -66.317154 ], [ 86.5291212, -66.3210918 ], [ 86.533039, -66.3225749 ], [ 86.5412922, -66.3227757 ], [ 86.5456499, -66.3259341 ], [ 86.538064, -66.3304675 ], [ 86.5413375, -66.3316571 ], [ 86.55097, -66.3318907 ], [ 86.558704, -66.3309678 ], [ 86.56652, -66.3294914 ], [ 86.57644, -66.3277878 ], [ 86.5842536, -66.3263104 ], [ 86.5927543, -66.3248492 ], [ 86.6052992, -66.3240389 ], [ 86.6197033, -66.3246592 ], [ 86.6263794, -66.3262049 ], [ 86.6401798, -66.330971 ], [ 86.6620844, -66.3370357 ], [ 86.6718002, -66.336708 ], [ 86.6874715, -66.3381833 ], [ 86.6969493, -66.3395133 ], [ 86.7040852, -66.3427308 ], [ 86.712917, -66.3437673 ], [ 86.7265692, -66.344914 ], [ 86.7403405, -66.3452297 ], [ 86.751514, -66.3443749 ], [ 86.7604263, -66.3448553 ], [ 86.7712884, -66.3462117 ], [ 86.7798531, -66.3491801 ], [ 86.7929716, -66.3541928 ], [ 86.8080886, -66.3548095 ], [ 86.8234742, -66.3534884 ], [ 86.8343058, -66.3551167 ], [ 86.8447159, -66.3547926 ], [ 86.8597213, -66.3562336 ], [ 86.8692541, -66.3572756 ], [ 86.8770714, -66.3607765 ], [ 86.8946525, -66.3636574 ], [ 86.9094065, -66.3670298 ], [ 86.9197094, -66.3675301 ], [ 86.9287821, -66.3668934 ], [ 86.9426063, -66.366913 ], [ 86.954868, -66.368285 ], [ 86.9609264, -66.369524 ], [ 86.974424, -66.3720303 ], [ 86.990102, -66.3737491 ], [ 87.0012078, -66.3734281 ], [ 87.0107181, -66.3747373 ], [ 87.0271171, -66.3709187 ], [ 87.0437017, -66.3709859 ], [ 87.0516568, -66.3736472 ], [ 87.0591365, -66.3746338 ], [ 87.0686151, -66.3762159 ], [ 87.081206, -66.3750869 ], [ 87.0916216, -66.3747448 ], [ 87.1047606, -66.3747346 ], [ 87.120693, -66.3745022 ], [ 87.149661, -66.3750838 ], [ 87.1695955, -66.3760353 ], [ 87.1778727, -66.3761992 ], [ 87.1888753, -66.3766938 ], [ 87.2004672, -66.3780312 ], [ 87.2149542, -66.3783146 ], [ 87.2231659, -66.3790293 ], [ 87.2318676, -66.3814174 ], [ 87.2418847, -66.3843851 ], [ 87.2648199, -66.3892644 ], [ 87.2756995, -66.3908593 ], [ 87.2826023, -66.3909908 ], [ 87.287467, -66.3908059 ], [ 87.2937774, -66.3900935 ], [ 87.3047892, -66.3905792 ], [ 87.3238917, -66.39288 ], [ 87.3339259, -66.3958414 ], [ 87.3412966, -66.3979204 ], [ 87.3492312, -66.4011188 ], [ 87.3606855, -66.4038273 ], [ 87.3674974, -66.404785 ], [ 87.3750957, -66.4049248 ], [ 87.3831953, -66.4067376 ], [ 87.3876213, -66.4104244 ], [ 87.3941533, -66.4138721 ], [ 87.4015666, -66.4156713 ], [ 87.411777, -66.4172434 ], [ 87.4167086, -66.4165004 ], [ 87.42852, -66.4161587 ], [ 87.4477483, -66.4176127 ], [ 87.4543838, -66.4202273 ], [ 87.4615279, -66.4245149 ], [ 87.465401, -66.4270799 ], [ 87.4732714, -66.4311024 ], [ 87.4864118, -66.4313339 ], [ 87.5013257, -66.4343688 ], [ 87.5044526, -66.4374745 ], [ 87.509596, -66.44117 ], [ 87.5177192, -66.4429753 ], [ 87.5293636, -66.4442864 ], [ 87.5357478, -66.4493892 ], [ 87.5479699, -66.451818 ], [ 87.5610347, -66.4528733 ], [ 87.570727, -66.4530381 ], [ 87.5783716, -66.4528903 ], [ 87.5866795, -66.4530305 ], [ 87.5914093, -66.4542197 ], [ 87.5972337, -66.4582008 ], [ 87.6018491, -66.4604971 ], [ 87.6129011, -66.4609591 ], [ 87.6280519, -66.4620429 ], [ 87.6397408, -66.4630681 ], [ 87.6512318, -66.4660307 ], [ 87.6626127, -66.4701 ], [ 87.6750565, -66.4705799 ], [ 87.6825102, -66.4723648 ], [ 87.6906299, -66.4744375 ], [ 87.7036583, -66.4760337 ], [ 87.7167717, -66.476798 ], [ 87.7297758, -66.4786687 ], [ 87.7428916, -66.4794306 ], [ 87.7565655, -66.4815867 ], [ 87.768162, -66.4837093 ], [ 87.7822121, -66.4891973 ], [ 87.8000845, -66.4983484 ], [ 87.8094793, -66.5018207 ], [ 87.8197557, -66.5033641 ], [ 87.8305699, -66.5065791 ], [ 87.8416489, -66.5070236 ], [ 87.8508022, -66.505774 ], [ 87.8611093, -66.5070375 ], [ 87.8736286, -66.5069463 ], [ 87.889286, -66.5105058 ], [ 87.8953297, -66.5128135 ], [ 87.9032034, -66.5179214 ], [ 87.9106143, -66.5205258 ], [ 87.9257933, -66.5218554 ], [ 87.9420638, -66.5265275 ], [ 87.9529558, -66.5291795 ], [ 87.9714202, -66.5327699 ], [ 87.9857204, -66.5362996 ], [ 87.9980368, -66.5386908 ], [ 88.0095638, -66.5421794 ], [ 88.0164679, -66.5428297 ], [ 88.0253143, -66.5451705 ], [ 88.0335387, -66.5466701 ], [ 88.0397019, -66.5478639 ], [ 88.0486474, -66.549095 ], [ 88.0597275, -66.5497998 ], [ 88.0623918, -66.5512226 ], [ 88.0664709, -66.552387 ], [ 88.0733095, -66.5538657 ], [ 88.0877315, -66.5562772 ], [ 88.0945958, -66.5574779 ], [ 88.104336, -66.5576066 ], [ 88.1140075, -66.5585659 ], [ 88.1264176, -66.560115 ], [ 88.1387613, -66.5624943 ], [ 88.1484589, -66.5631742 ], [ 88.1580899, -66.5646847 ], [ 88.1657902, -66.5642283 ], [ 88.1747711, -66.5651747 ], [ 88.1822724, -66.5672113 ], [ 88.1912772, -66.5678796 ], [ 88.2113983, -66.5689632 ], [ 88.2242363, -66.5741149 ], [ 88.241109, -66.5812565 ], [ 88.2480527, -66.5816186 ], [ 88.259682, -66.5845334 ], [ 88.2720108, -66.5874557 ], [ 88.2789569, -66.5878163 ], [ 88.2886278, -66.589041 ], [ 88.2989552, -66.5908277 ], [ 88.304509, -66.5911705 ], [ 88.3127684, -66.5926545 ], [ 88.3232014, -66.5930537 ], [ 88.3287764, -66.5931185 ], [ 88.3316655, -66.5917651 ], [ 88.3358871, -66.5912592 ], [ 88.341462, -66.5913235 ], [ 88.3517945, -66.5931064 ], [ 88.3613717, -66.595712 ], [ 88.3771065, -66.6000508 ], [ 88.3928862, -66.6038336 ], [ 88.4121388, -66.6079304 ], [ 88.4313218, -66.6131333 ], [ 88.4381453, -66.6154264 ], [ 88.4471009, -66.6171875 ], [ 88.4560955, -66.6183936 ], [ 88.4707476, -66.6185498 ], [ 88.4784781, -66.6177994 ], [ 88.4861345, -66.6181574 ], [ 88.4979958, -66.6182814 ], [ 88.5124307, -66.6217596 ], [ 88.5227005, -66.6249164 ], [ 88.53172, -66.6258407 ], [ 88.5575451, -66.6261012 ], [ 88.5728662, -66.6268085 ], [ 88.5846289, -66.6285886 ], [ 88.5970573, -66.6309291 ], [ 88.6073939, -66.6332482 ], [ 88.6141903, -66.6363649 ], [ 88.6203237, -66.6389201 ], [ 88.6278723, -66.6412112 ], [ 88.6375014, -66.6437989 ], [ 88.6430237, -66.6449605 ], [ 88.6471327, -66.646386 ], [ 88.65116, -66.6491976 ], [ 88.6496473, -66.6511252 ], [ 88.6426761, -66.6507824 ], [ 88.633442, -66.6531919 ], [ 88.6346566, -66.6562548 ], [ 88.6351555, -66.6595884 ], [ 88.6335408, -66.6631793 ], [ 88.6270642, -66.6661695 ], [ 88.621302, -66.6688887 ], [ 88.6182685, -66.6727436 ], [ 88.6172485, -66.6780048 ], [ 88.6141792, -66.6824142 ], [ 88.6049294, -66.6848222 ], [ 88.5992625, -66.685877 ], [ 88.5919545, -66.6907999 ], [ 88.5896305, -66.694384 ], [ 88.5846088, -66.6962771 ], [ 88.578799, -66.6995495 ], [ 88.5793431, -66.7020519 ], [ 88.5769986, -66.7059132 ], [ 88.5697318, -66.7100035 ], [ 88.5661061, -66.7119098 ], [ 88.5673322, -66.7146966 ], [ 88.5679102, -66.7166446 ], [ 88.562181, -66.71853 ], [ 88.5648437, -66.7207762 ], [ 88.5718003, -66.7216774 ], [ 88.5794932, -66.7220306 ], [ 88.5907258, -66.7218628 ], [ 88.5984018, -66.7224923 ], [ 88.6010859, -66.7244606 ], [ 88.5978377, -66.7267082 ], [ 88.5874554, -66.7293227 ], [ 88.5827491, -66.7315846 ], [ 88.6008603, -66.7313772 ], [ 88.611083, -66.7325596 ], [ 88.6122146, -66.7338469 ], [ 88.6123159, -66.7358231 ], [ 88.6037381, -66.7355837 ], [ 88.6068717, -66.7383622 ], [ 88.6149036, -66.7391243 ], [ 88.6238884, -66.7345307 ], [ 88.6335194, -66.7313897 ], [ 88.6383265, -66.73242 ], [ 88.648678, -66.7328859 ], [ 88.6676702, -66.7332304 ], [ 88.6729185, -66.7317603 ], [ 88.6811385, -66.731448 ], [ 88.6874721, -66.734133 ], [ 88.6908478, -66.7381718 ], [ 88.6914836, -66.742315 ], [ 88.6904688, -66.7455161 ], [ 88.6906705, -66.7469567 ], [ 88.6971339, -66.7489272 ], [ 88.7034274, -66.7492784 ], [ 88.7130242, -66.7515132 ], [ 88.7071351, -66.7488415 ], [ 88.7069014, -66.7475794 ], [ 88.7105855, -66.7473625 ], [ 88.7111237, -66.747254 ], [ 88.7091038, -66.745857 ], [ 88.7094532, -66.7438536 ], [ 88.7123465, -66.7434851 ], [ 88.7159011, -66.7458184 ], [ 88.7229133, -66.7477982 ], [ 88.7274027, -66.7512749 ], [ 88.7323568, -66.7520802 ], [ 88.7394494, -66.7536141 ], [ 88.7440192, -66.7566451 ], [ 88.7460035, -66.7582642 ], [ 88.747309, -66.760536 ], [ 88.7484221, -66.7639207 ], [ 88.7519445, -66.7664759 ], [ 88.7542631, -66.7694457 ], [ 88.759222, -66.7702502 ], [ 88.7636557, -66.7708167 ], [ 88.7650786, -66.7724205 ], [ 88.7624775, -66.7743634 ], [ 88.764119, -66.7779858 ], [ 88.7692602, -66.7810312 ], [ 88.7703354, -66.7826665 ], [ 88.7706074, -66.7830802 ], [ 88.7743647, -66.7842992 ], [ 88.7848923, -66.7856991 ], [ 88.7894058, -66.7858197 ], [ 88.8020084, -66.7850375 ], [ 88.8119739, -66.7864207 ], [ 88.8167484, -66.7883365 ], [ 88.8193379, -66.7931014 ], [ 88.8264441, -66.7979859 ], [ 88.833329, -66.8008515 ], [ 88.8415333, -66.8026333 ], [ 88.8497765, -66.8041922 ], [ 88.8539174, -66.8065373 ], [ 88.8737981, -66.8097418 ], [ 88.8835491, -66.8091019 ], [ 88.8899112, -66.8083733 ], [ 88.8920958, -66.8088773 ], [ 88.9050861, -66.8092149 ], [ 88.9096787, -66.8088868 ], [ 88.9217989, -66.8076351 ], [ 88.9253727, -66.8066093 ], [ 88.9400567, -66.8069877 ], [ 88.9500256, -66.8050078 ], [ 88.9569861, -66.8040682 ], [ 88.9612907, -66.7985883 ], [ 88.9658441, -66.7984812 ], [ 88.9742768, -66.7989201 ], [ 88.9812347, -66.7979795 ], [ 88.9960037, -66.7943302 ], [ 89.0002457, -66.7926489 ], [ 89.0021931, -66.7911331 ], [ 89.0095312, -66.7913189 ], [ 89.0135548, -66.7909734 ], [ 89.0206894, -66.7889176 ], [ 89.026862, -66.7892968 ], [ 89.0306689, -66.790287 ], [ 89.0415276, -66.793243 ], [ 89.0471371, -66.7936072 ], [ 89.056949, -66.7925112 ], [ 89.0732851, -66.7931422 ], [ 89.077486, -66.7916816 ], [ 89.0821799, -66.7906803 ], [ 89.0855316, -66.7909871 ], [ 89.0876477, -66.7919339 ], [ 89.0958324, -66.7939253 ], [ 89.1103709, -66.7951787 ], [ 89.1136528, -66.7959303 ], [ 89.1294281, -66.7965416 ], [ 89.1418861, -66.7966231 ], [ 89.1510956, -66.7957301 ], [ 89.1617199, -66.7966596 ], [ 89.1749165, -66.7956387 ], [ 89.1757334, -66.7976705 ], [ 89.177185, -66.7992707 ], [ 89.1778107, -66.7997253 ], [ 89.179513, -66.8009622 ], [ 89.1797314, -66.8011208 ], [ 89.1907395, -66.7995984 ], [ 89.1991769, -66.8000254 ], [ 89.2034196, -66.801916 ], [ 89.206003, -66.803543 ], [ 89.2100954, -66.8049974 ], [ 89.2104451, -66.8051217 ], [ 89.2146215, -66.8057025 ], [ 89.2272249, -66.8069653 ], [ 89.2289731, -66.8074876 ], [ 89.2320721, -66.8103518 ], [ 89.2294142, -66.8111592 ], [ 89.2289133, -66.8113361 ], [ 89.2286984, -66.8114385 ], [ 89.2287017, -66.8115712 ], [ 89.228799, -66.8116982 ], [ 89.2289524, -66.8118158 ], [ 89.2295283, -66.8121444 ], [ 89.2428734, -66.8194752 ], [ 89.244283, -66.8202195 ], [ 89.2449838, -66.8205062 ], [ 89.2463127, -66.8205901 ], [ 89.2472882, -66.8206924 ], [ 89.2559614, -66.8217677 ], [ 89.2581934, -66.8220667 ], [ 89.2587528, -66.8222137 ], [ 89.259276, -66.8223801 ], [ 89.2696911, -66.8259539 ], [ 89.2709774, -66.8263823 ], [ 89.2715153, -66.8265425 ], [ 89.2720983, -66.8266737 ], [ 89.2727203, -66.8267759 ], [ 89.2809847, -66.8279185 ], [ 89.281912, -66.8280761 ], [ 89.2824993, -66.8282046 ], [ 89.2833038, -66.8284457 ], [ 89.2918206, -66.831261 ], [ 89.2928057, -66.8316241 ], [ 89.2932027, -66.8318357 ], [ 89.2936576, -66.8320308 ], [ 89.2939175, -66.8321161 ], [ 89.2942061, -66.8321839 ], [ 89.3053953, -66.8340293 ], [ 89.3203983, -66.8367455 ], [ 89.3213414, -66.836887 ], [ 89.3216698, -66.8369169 ], [ 89.3223432, -66.8369271 ], [ 89.322676, -66.8369481 ], [ 89.3233252, -66.8370201 ], [ 89.3304665, -66.8382077 ], [ 89.3320368, -66.8384468 ], [ 89.3323618, -66.8384819 ], [ 89.333029, -66.8385203 ], [ 89.3337004, -66.8385411 ], [ 89.3414491, -66.8386268 ], [ 89.3424582, -66.8386517 ], [ 89.3431239, -66.8386945 ], [ 89.3440995, -66.8387962 ], [ 89.3460098, -66.8390588 ], [ 89.347295, -66.8392176 ], [ 89.3479567, -66.8392666 ], [ 89.3482929, -66.8392575 ], [ 89.3492569, -66.8393768 ], [ 89.3498586, -66.8394963 ], [ 89.3518878, -66.8399698 ], [ 89.3527929, -66.8401463 ], [ 89.3534283, -66.8402359 ], [ 89.3547481, -66.8403435 ], [ 89.3574122, -66.8405074 ], [ 89.3587515, -66.8405664 ], [ 89.3594248, -66.840565 ], [ 89.359742, -66.8406088 ], [ 89.3602971, -66.840759 ], [ 89.3621672, -66.8415237 ], [ 89.3629054, -66.841795 ], [ 89.3631807, -66.8418732 ], [ 89.3643702, -66.8421217 ], [ 89.3649256, -66.8422727 ], [ 89.3693534, -66.8437049 ], [ 89.3699027, -66.8438577 ], [ 89.3702061, -66.8439148 ], [ 89.3705354, -66.8439445 ], [ 89.3708716, -66.843953 ], [ 89.3718821, -66.8439397 ], [ 89.3749077, -66.8438528 ], [ 89.3759166, -66.8438748 ], [ 89.3762139, -66.8439362 ], [ 89.3772704, -66.8442654 ], [ 89.3778652, -66.8443901 ], [ 89.3797211, -66.8447077 ], [ 89.3812838, -66.844955 ], [ 89.3819286, -66.8450329 ], [ 89.3822638, -66.8450476 ], [ 89.3825976, -66.8450296 ], [ 89.3832307, -66.8449393 ], [ 89.3864968, -66.8442471 ], [ 89.3871242, -66.8441507 ], [ 89.3874536, -66.8441229 ], [ 89.3877906, -66.8441181 ], [ 89.3891277, -66.844183 ], [ 89.3917675, -66.8444002 ], [ 89.3930685, -66.8445383 ], [ 89.3939241, -66.8447498 ], [ 89.3993872, -66.8465243 ], [ 89.3999217, -66.8466857 ], [ 89.4004902, -66.846827 ], [ 89.4008013, -66.8468796 ], [ 89.4020943, -66.8470282 ], [ 89.4073515, -66.8475036 ], [ 89.4076716, -66.8475465 ], [ 89.4079538, -66.8476184 ], [ 89.4086871, -66.8478912 ], [ 89.4122338, -66.849492 ], [ 89.4128687, -66.8498015 ], [ 89.4142789, -66.850546 ], [ 89.4149252, -66.850852 ], [ 89.4151617, -66.8509477 ], [ 89.4160946, -66.8511001 ], [ 89.4170788, -66.8511925 ], [ 89.4187322, -66.8513229 ], [ 89.4200579, -66.8514211 ], [ 89.4210607, -66.8514738 ], [ 89.4217348, -66.8514765 ], [ 89.4251014, -66.8514057 ], [ 89.4257755, -66.8514128 ], [ 89.4261089, -66.8514318 ], [ 89.4264284, -66.8514747 ], [ 89.4270288, -66.8515947 ], [ 89.4312507, -66.8526907 ], [ 89.4324062, -66.852965 ], [ 89.4327188, -66.8530149 ], [ 89.4386459, -66.8535307 ], [ 89.4396476, -66.8535859 ], [ 89.43996, -66.8535358 ], [ 89.4402187, -66.8534509 ], [ 89.4408105, -66.8533223 ], [ 89.4411459, -66.8533085 ], [ 89.4418156, -66.8533421 ], [ 89.4438013, -66.853493 ], [ 89.4441364, -66.8535075 ], [ 89.4448077, -66.8534836 ], [ 89.4454663, -66.8535392 ], [ 89.4463956, -66.8536958 ], [ 89.4506352, -66.8545143 ], [ 89.4567964, -66.8555947 ], [ 89.460349, -66.8563582 ], [ 89.4612588, -66.8565314 ], [ 89.4615833, -66.8565663 ], [ 89.4622575, -66.8565749 ], [ 89.4625912, -66.8565965 ], [ 89.4632443, -66.8566609 ], [ 89.467634, -66.857345 ], [ 89.4685826, -66.8574856 ], [ 89.4692269, -66.8575631 ], [ 89.4705664, -66.8576255 ], [ 89.4746074, -66.8577154 ], [ 89.4756101, -66.8577676 ], [ 89.4759277, -66.8578104 ], [ 89.4765319, -66.8579302 ], [ 89.479984, -66.858761 ], [ 89.4805768, -66.858887 ], [ 89.4808942, -66.8589324 ], [ 89.481563, -66.8589657 ], [ 89.4822368, -66.858977 ], [ 89.485606, -66.858911 ], [ 89.4869547, -66.8589096 ], [ 89.4903123, -66.8590364 ], [ 89.4943359, -66.8592115 ], [ 89.4950004, -66.859258 ], [ 89.4959298, -66.8594143 ], [ 89.500087, -66.8602957 ], [ 89.5010011, -66.8604669 ], [ 89.5013244, -66.8605034 ], [ 89.5016606, -66.8605152 ], [ 89.5023324, -66.8604936 ], [ 89.5053214, -66.8602844 ], [ 89.5056579, -66.8602749 ], [ 89.5059944, -66.8602849 ], [ 89.5063165, -66.8603231 ], [ 89.506871, -66.8604737 ], [ 89.507932, -66.860802 ], [ 89.5113148, -66.8618999 ], [ 89.5123356, -66.8622483 ], [ 89.5132941, -66.8626205 ], [ 89.5179912, -66.8645278 ], [ 89.5187171, -66.8648045 ], [ 89.5193903, -66.86482 ], [ 89.5197225, -66.8648432 ], [ 89.5210181, -66.864989 ], [ 89.5247904, -66.8655676 ], [ 89.525717, -66.8657299 ], [ 89.5263023, -66.8658601 ], [ 89.5266257, -66.8658983 ], [ 89.5272911, -66.865943 ], [ 89.5279628, -66.8659673 ], [ 89.5326823, -66.8660488 ], [ 89.5340218, -66.8661124 ], [ 89.534349, -66.8661444 ], [ 89.5352665, -66.8663137 ], [ 89.5362169, -66.8664494 ], [ 89.5404137, -66.8669511 ], [ 89.5413687, -66.8670851 ], [ 89.5419759, -66.8671994 ], [ 89.5423133, -66.8672031 ], [ 89.5426453, -66.867182 ], [ 89.5432754, -66.8670867 ], [ 89.5456743, -66.8666005 ], [ 89.5462129, -66.8664411 ], [ 89.5464441, -66.8663445 ], [ 89.5466203, -66.86623 ], [ 89.5468949, -66.8659876 ], [ 89.5477753, -66.8649861 ], [ 89.5483807, -66.8642244 ], [ 89.5487531, -66.8634425 ], [ 89.5504157, -66.8593803 ], [ 89.550711, -66.8588637 ], [ 89.5513472, -66.8581065 ], [ 89.5516829, -66.8575926 ], [ 89.5525519, -66.8560381 ], [ 89.5527317, -66.8556449 ], [ 89.5528212, -66.8552488 ], [ 89.552961, -66.8551281 ], [ 89.5535242, -66.854798 ], [ 89.5551266, -66.8539447 ], [ 89.5561803, -66.8534259 ], [ 89.5566782, -66.8532478 ], [ 89.5572765, -66.8531258 ], [ 89.5579131, -66.8530375 ], [ 89.5608213, -66.8526968 ], [ 89.5624112, -66.852476 ], [ 89.5633071, -66.8522929 ], [ 89.5682259, -66.8511326 ], [ 89.5697048, -66.850814 ], [ 89.5757859, -66.8496667 ], [ 89.5810691, -66.8487928 ], [ 89.5825947, -66.8485097 ], [ 89.5837178, -66.8482165 ], [ 89.5913651, -66.846037 ], [ 89.592213, -66.8458208 ], [ 89.5928137, -66.8457004 ], [ 89.5937882, -66.8455952 ], [ 89.5971184, -66.8453895 ], [ 89.60183, -66.845283 ], [ 89.6028122, -66.845191 ], [ 89.6050792, -66.8449318 ], [ 89.6057417, -66.8448823 ], [ 89.6090797, -66.8446966 ], [ 89.6100691, -66.8446152 ], [ 89.6107175, -66.8445418 ], [ 89.6151742, -66.8439325 ], [ 89.6164351, -66.843743 ], [ 89.6173093, -66.8435445 ], [ 89.623496, -66.8419328 ], [ 89.6241073, -66.8418211 ], [ 89.6250478, -66.8416758 ], [ 89.6288308, -66.8411122 ], [ 89.6301043, -66.8409385 ], [ 89.6317512, -66.8407993 ], [ 89.6323965, -66.8407231 ], [ 89.6343026, -66.8404563 ], [ 89.6349492, -66.8403827 ], [ 89.6352795, -66.8403544 ], [ 89.6356154, -66.8403446 ], [ 89.6359509, -66.8403561 ], [ 89.636284, -66.8403374 ], [ 89.6366064, -66.8402984 ], [ 89.6372123, -66.8401823 ], [ 89.6392418, -66.8397078 ], [ 89.6401517, -66.8395349 ], [ 89.6408068, -66.8394728 ], [ 89.6411403, -66.8394559 ], [ 89.6438249, -66.8393564 ], [ 89.644827, -66.8393031 ], [ 89.6454884, -66.8392516 ], [ 89.6458086, -66.8392108 ], [ 89.6461055, -66.839147 ], [ 89.6466466, -66.838989 ], [ 89.6498713, -66.8378228 ], [ 89.6522949, -66.837105 ], [ 89.6543419, -66.8364136 ], [ 89.6546222, -66.8363349 ], [ 89.654853, -66.836241 ], [ 89.6579142, -66.8346815 ], [ 89.6636161, -66.8331206 ], [ 89.6707611, -66.8299086 ], [ 89.6780905, -66.8298227 ], [ 89.7003365, -66.8276466 ], [ 89.7010733, -66.8267013 ], [ 89.7080188, -66.8249246 ], [ 89.7144111, -66.8211411 ], [ 89.7199566, -66.8191748 ], [ 89.7226535, -66.8169602 ], [ 89.7246695, -66.8162451 ], [ 89.7300874, -66.8152221 ], [ 89.731877, -66.8162052 ], [ 89.7386307, -66.8159662 ], [ 89.7454093, -66.8155384 ], [ 89.7492647, -66.8154285 ], [ 89.753724, -66.814385 ], [ 89.7553101, -66.8132822 ], [ 89.7596688, -66.8129933 ], [ 89.7612547, -66.8118905 ], [ 89.7665457, -66.8118096 ], [ 89.7685851, -66.8109053 ], [ 89.7699648, -66.8077168 ], [ 89.7737867, -66.8041999 ], [ 89.7804293, -66.8011188 ], [ 89.7918305, -66.7983234 ], [ 89.7993279, -66.7960157 ], [ 89.7986661, -66.7937318 ], [ 89.7988136, -66.7925995 ], [ 89.8042724, -66.7911964 ], [ 89.8073389, -66.7897447 ], [ 89.8165742, -66.788796 ], [ 89.8206206, -66.7871747 ], [ 89.8249739, -66.786884 ], [ 89.8282247, -66.7877061 ], [ 89.8410907, -66.7883425 ], [ 89.8481689, -66.7892409 ], [ 89.8557742, -66.7897709 ], [ 89.8629979, -66.7895362 ], [ 89.8744804, -66.7859799 ], [ 89.878355, -66.7856782 ], [ 89.8850751, -66.7856218 ], [ 89.8918906, -66.7848101 ], [ 89.8955737, -66.7860177 ], [ 89.8963397, -66.7875465 ], [ 89.8988526, -66.7904338 ], [ 89.9027536, -66.7937268 ], [ 89.9093333, -66.7948018 ], [ 89.9208408, -66.7948374 ], [ 89.9343566, -66.7941544 ], [ 89.938757, -66.793483 ], [ 89.94653, -66.7926875 ], [ 89.9537305, -66.7926375 ], [ 89.9635565, -66.7907456 ], [ 89.9766369, -66.7896723 ], [ 89.9834968, -66.7884792 ], [ 89.991313, -66.7873041 ], [ 90.0, -66.7859065 ], [ 90.0, -70.0 ], [ 85.0, -70.0 ], [ 85.0, -66.648273116383464 ], [ 85.00293, -66.6458931 ] ] ] ] } }
]
}
