{
"type": "FeatureCollection",
"name": "85_25",
"crs": { "type": "name", "properties": { "name": "urn:ogc:def:crs:OGC:1.3:CRS84" } },
"xy_coordinate_resolution": 1e-15,
"features": [
{ "type": "Feature", "properties": { "FID": 123912, "id": 1921, "left": 85.0, "top": 30.0, "right": 90.0, "bottom": 25.0, "row_index": 12, "col_index": 53, "min_lon": 85.0, "min_lat": 25.0, "tile_id": "85_25" }, "geometry": { "type": "MultiPolygon", "coordinates": [ [ [ [ 90.0, 30.0 ], [ 90.0, 25.0 ], [ 85.0, 25.0 ], [ 85.0, 30.0 ], [ 90.0, 30.0 ] ] ] ] } },
{ "type": "Feature", "properties": { "FID": 811232, "id": 1921, "left": 85.0, "top": 30.0, "right": 90.0, "bottom": 25.0, "row_index": 12, "col_index": 53, "min_lon": 85.0, "min_lat": 25.0, "tile_id": "85_25" }, "geometry": { "type": "MultiPolygon", "coordinates": [ [ [ [ 85.8102608, 26.7947574 ], [ 85.8104297, 26.7949681 ], [ 85.8106282, 26.7952076 ], [ 85.8107114, 26.795344 ], [ 85.8107302, 26.7954925 ], [ 85.8108535, 26.7956529 ], [ 85.8111942, 26.7960862 ], [ 85.8112264, 26.7961724 ], [ 85.8113283, 26.796419 ], [ 85.811508, 26.7966034 ], [ 85.8116528, 26.7967039 ], [ 85.8117843, 26.7968404 ], [ 85.8118352, 26.7970463 ], [ 85.8119452, 26.7975036 ], [ 85.8120042, 26.7979082 ], [ 85.8120525, 26.7983511 ], [ 85.8120525, 26.7984636 ], [ 85.8119988, 26.798569 ], [ 85.8118889, 26.798648 ], [ 85.8118379, 26.7988036 ], [ 85.8118138, 26.7990095 ], [ 85.811846, 26.7990957 ], [ 85.8118433, 26.7993806 ], [ 85.8116904, 26.7995841 ], [ 85.8116609, 26.7996846 ], [ 85.8114624, 26.8001826 ], [ 85.8113283, 26.8003406 ], [ 85.8111861, 26.8008314 ], [ 85.8111352, 26.8012049 ], [ 85.8110842, 26.8015353 ], [ 85.8110279, 26.8017842 ], [ 85.8111014, 26.8022238 ], [ 85.8112907, 26.8026054 ], [ 85.8112451, 26.8029023 ], [ 85.81128, 26.8032494 ], [ 85.8113685, 26.8035343 ], [ 85.8113497, 26.8037474 ], [ 85.8112049, 26.8038814 ], [ 85.8115402, 26.8044584 ], [ 85.8119425, 26.8044584 ], [ 85.8124897, 26.8044368 ], [ 85.8124495, 26.8043147 ], [ 85.8122912, 26.8040442 ], [ 85.8123395, 26.8036324 ], [ 85.8120579, 26.8030315 ], [ 85.811913, 26.8025886 ], [ 85.8119318, 26.8024282 ], [ 85.8118218, 26.8022152 ], [ 85.8118272, 26.8019399 ], [ 85.811846, 26.801224 ], [ 85.8119425, 26.8006135 ], [ 85.8119452, 26.8003191 ], [ 85.8119586, 26.8001275 ], [ 85.8118781, 26.8000126 ], [ 85.811846, 26.7999432 ], [ 85.812023, 26.7996655 ], [ 85.8121303, 26.7994883 ], [ 85.8124199, 26.7994907 ], [ 85.8123744, 26.7993734 ], [ 85.8123717, 26.7990167 ], [ 85.8123878, 26.7985043 ], [ 85.8124468, 26.7981093 ], [ 85.8123851, 26.7976568 ], [ 85.8124736, 26.7974724 ], [ 85.8124682, 26.7971301 ], [ 85.8125916, 26.7969146 ], [ 85.8126506, 26.7968141 ], [ 85.8124843, 26.7968141 ], [ 85.8124307, 26.7965962 ], [ 85.8122563, 26.7960838 ], [ 85.8121356, 26.7956265 ], [ 85.811972, 26.7951094 ], [ 85.8117789, 26.7947143 ], [ 85.8113283, 26.7946593 ], [ 85.8101857, 26.7946736 ], [ 85.8102608, 26.7947574 ] ] ] ] } },
{ "type": "Feature", "properties": { "FID": 811317, "id": 1921, "left": 85.0, "top": 30.0, "right": 90.0, "bottom": 25.0, "row_index": 12, "col_index": 53, "min_lon": 85.0, "min_lat": 25.0, "tile_id": "85_25" }, "geometry": { "type": "MultiPolygon", "coordinates": [ [ [ [ 85.838483, 26.8147545 ], [ 85.8385956, 26.8152237 ], [ 85.8386359, 26.8155014 ], [ 85.8386573, 26.8159682 ], [ 85.838652, 26.8164014 ], [ 85.8385634, 26.8172752 ], [ 85.8384588, 26.8180507 ], [ 85.8383931, 26.818654 ], [ 85.8383717, 26.8191339 ], [ 85.8382268, 26.8191949 ], [ 85.8383368, 26.8195396 ], [ 85.8384106, 26.8196282 ], [ 85.8385473, 26.8196713 ], [ 85.8392447, 26.8196713 ], [ 85.8398187, 26.8196713 ], [ 85.8398938, 26.8194965 ], [ 85.839934, 26.8183523 ], [ 85.8399904, 26.8173972 ], [ 85.8401486, 26.8165475 ], [ 85.8402532, 26.815797 ], [ 85.8403029, 26.8155517 ], [ 85.8404209, 26.8150621 ], [ 85.8404356, 26.8147545 ], [ 85.8403605, 26.8144517 ], [ 85.8402787, 26.8142794 ], [ 85.8397771, 26.8142746 ], [ 85.8390959, 26.8142782 ], [ 85.8383556, 26.8142746 ], [ 85.838483, 26.8147545 ] ] ] ] } },
{ "type": "Feature", "properties": { "FID": 811482, "id": 1921, "left": 85.0, "top": 30.0, "right": 90.0, "bottom": 25.0, "row_index": 12, "col_index": 53, "min_lon": 85.0, "min_lat": 25.0, "tile_id": "85_25" }, "geometry": { "type": "MultiPolygon", "coordinates": [ [ [ [ 85.7909274, 26.7643708 ], [ 85.7907879, 26.7642032 ], [ 85.7906431, 26.7640547 ], [ 85.7904044, 26.7638703 ], [ 85.7900718, 26.7636595 ], [ 85.7897392, 26.7634081 ], [ 85.7895756, 26.7631925 ], [ 85.7895112, 26.762783 ], [ 85.7893959, 26.7622969 ], [ 85.7893369, 26.7615975 ], [ 85.7890418, 26.7611281 ], [ 85.7889211, 26.7608264 ], [ 85.7887951, 26.7607282 ], [ 85.7884759, 26.7609701 ], [ 85.788036, 26.761382 ], [ 85.7877624, 26.7618322 ], [ 85.7878321, 26.762055 ], [ 85.7879502, 26.7626585 ], [ 85.7878482, 26.7629315 ], [ 85.7878911, 26.7630321 ], [ 85.7880306, 26.7630608 ], [ 85.788323, 26.7631303 ], [ 85.7885724, 26.7633793 ], [ 85.7889533, 26.7635997 ], [ 85.7893074, 26.7636236 ], [ 85.7899618, 26.7637673 ], [ 85.7908523, 26.7644139 ], [ 85.7909274, 26.7643708 ] ] ] ] } },
{ "type": "Feature", "properties": { "FID": 812437, "id": 1921, "left": 85.0, "top": 30.0, "right": 90.0, "bottom": 25.0, "row_index": 12, "col_index": 53, "min_lon": 85.0, "min_lat": 25.0, "tile_id": "85_25" }, "geometry": { "type": "MultiPolygon", "coordinates": [ [ [ [ 85.8254421, 26.7277955 ], [ 85.8261904, 26.7278961 ], [ 85.8269468, 26.7280039 ], [ 85.8280116, 26.728107 ], [ 85.828819, 26.7282411 ], [ 85.828886, 26.7282004 ], [ 85.8288485, 26.7280614 ], [ 85.828701, 26.7278315 ], [ 85.8281082, 26.7275057 ], [ 85.8279633, 26.7275248 ], [ 85.8274242, 26.7276518 ], [ 85.8269709, 26.7276757 ], [ 85.8267409, 26.7275524 ], [ 85.8266276, 26.7274667 ], [ 85.8263192, 26.727417 ], [ 85.8261676, 26.7272469 ], [ 85.8260496, 26.7270589 ], [ 85.8256808, 26.7269618 ], [ 85.8253133, 26.7270912 ], [ 85.8251819, 26.7272649 ], [ 85.8251806, 26.7278327 ], [ 85.8254421, 26.7277955 ] ] ] ] } },
{ "type": "Feature", "properties": { "FID": 812438, "id": 1921, "left": 85.0, "top": 30.0, "right": 90.0, "bottom": 25.0, "row_index": 12, "col_index": 53, "min_lon": 85.0, "min_lat": 25.0, "tile_id": "85_25" }, "geometry": { "type": "MultiPolygon", "coordinates": [ [ [ [ 85.8331829, 26.7357535 ], [ 85.8333009, 26.7355547 ], [ 85.8332902, 26.7351475 ], [ 85.8333063, 26.7349031 ], [ 85.8331776, 26.7343761 ], [ 85.8332956, 26.7337198 ], [ 85.8335799, 26.7332934 ], [ 85.8340359, 26.7327568 ], [ 85.8340734, 26.7323783 ], [ 85.8339447, 26.7318896 ], [ 85.8338749, 26.7316356 ], [ 85.8336335, 26.7314153 ], [ 85.8334351, 26.7311374 ], [ 85.8331186, 26.731099 ], [ 85.8326653, 26.7311278 ], [ 85.8324158, 26.7308954 ], [ 85.832161, 26.7309026 ], [ 85.8320618, 26.7309984 ], [ 85.8322978, 26.7314608 ], [ 85.8324051, 26.7317554 ], [ 85.8324051, 26.7319614 ], [ 85.83233, 26.7325436 ], [ 85.8322388, 26.7331808 ], [ 85.8322898, 26.733588 ], [ 85.8325767, 26.734218 ], [ 85.8327806, 26.7346779 ], [ 85.8330327, 26.735799 ], [ 85.8331829, 26.7357535 ] ] ] ] } }
]
}
