{
"type": "FeatureCollection",
"name": "85_30",
"crs": { "type": "name", "properties": { "name": "urn:ogc:def:crs:OGC:1.3:CRS84" } },
"xy_coordinate_resolution": 1e-15,
"features": [
{ "type": "Feature", "properties": { "FID": 123912, "id": 1920, "left": 85.0, "top": 35.0, "right": 90.0, "bottom": 30.0, "row_index": 11, "col_index": 53, "min_lon": 85.0, "min_lat": 30.0, "tile_id": "85_30" }, "geometry": { "type": "MultiPolygon", "coordinates": [ [ [ [ 90.0, 35.0 ], [ 90.0, 30.0 ], [ 85.0, 30.0 ], [ 85.0, 35.0 ], [ 90.0, 35.0 ] ] ] ] } }
]
}
