{
"type": "FeatureCollection",
"name": "85_45",
"crs": { "type": "name", "properties": { "name": "urn:ogc:def:crs:OGC:1.3:CRS84" } },
"xy_coordinate_resolution": 1e-15,
"features": [
{ "type": "Feature", "properties": { "FID": 123912, "id": 1917, "left": 85.0, "top": 50.0, "right": 90.0, "bottom": 45.0, "row_index": 8, "col_index": 53, "min_lon": 85.0, "min_lat": 45.0, "tile_id": "85_45" }, "geometry": { "type": "MultiPolygon", "coordinates": [ [ [ [ 90.0, 50.0 ], [ 90.0, 45.0 ], [ 85.0, 45.0 ], [ 85.0, 50.0 ], [ 90.0, 50.0 ] ] ] ] } }
]
}
