{
"type": "FeatureCollection",
"name": "90_-75",
"crs": { "type": "name", "properties": { "name": "urn:ogc:def:crs:OGC:1.3:CRS84" } },
"xy_coordinate_resolution": 1e-15,
"features": [
{ "type": "Feature", "properties": { "FID": 307096, "id": 1977, "left": 90.0, "top": -70.0, "right": 95.0, "bottom": -75.0, "row_index": 32, "col_index": 54, "min_lon": 90.0, "min_lat": -75.0, "tile_id": "90_-75" }, "geometry": { "type": "MultiPolygon", "coordinates": [ [ [ [ 95.0, -70.0 ], [ 95.0, -75.0 ], [ 90.0, -75.0 ], [ 90.0, -70.0 ], [ 95.0, -70.0 ] ] ] ] } }
]
}
