{
"type": "FeatureCollection",
"name": "90_-90",
"crs": { "type": "name", "properties": { "name": "urn:ogc:def:crs:OGC:1.3:CRS84" } },
"xy_coordinate_resolution": 1e-15,
"features": [
{ "type": "Feature", "properties": { "FID": 307096, "id": 1980, "left": 90.0, "top": -85.0, "right": 95.0, "bottom": -90.0, "row_index": 35, "col_index": 54, "min_lon": 90.0, "min_lat": -90.0, "tile_id": "90_-90" }, "geometry": { "type": "MultiPolygon", "coordinates": [ [ [ [ 94.0, -90.0 ], [ 93.0, -90.0 ], [ 92.0, -90.0 ], [ 91.0, -90.0 ], [ 90.0, -90.0 ], [ 90.0, -85.0 ], [ 95.0, -85.0 ], [ 95.0, -90.0 ], [ 94.0, -90.0 ] ] ] ] } }
]
}
