{
"type": "FeatureCollection",
"name": "90_25",
"crs": { "type": "name", "properties": { "name": "urn:ogc:def:crs:OGC:1.3:CRS84" } },
"xy_coordinate_resolution": 1e-15,
"features": [
{ "type": "Feature", "properties": { "FID": 123912, "id": 1957, "left": 90.0, "top": 30.0, "right": 95.0, "bottom": 25.0, "row_index": 12, "col_index": 54, "min_lon": 90.0, "min_lat": 25.0, "tile_id": "90_25" }, "geometry": { "type": "MultiPolygon", "coordinates": [ [ [ [ 95.0, 30.0 ], [ 95.0, 25.0 ], [ 90.0, 25.0 ], [ 90.0, 30.0 ], [ 95.0, 30.0 ] ] ] ] } }
]
}
