{
"type": "FeatureCollection",
"name": "90_40",
"crs": { "type": "name", "properties": { "name": "urn:ogc:def:crs:OGC:1.3:CRS84" } },
"xy_coordinate_resolution": 1e-15,
"features": [
{ "type": "Feature", "properties": { "FID": 123912, "id": 1954, "left": 90.0, "top": 45.0, "right": 95.0, "bottom": 40.0, "row_index": 9, "col_index": 54, "min_lon": 90.0, "min_lat": 40.0, "tile_id": "90_40" }, "geometry": { "type": "MultiPolygon", "coordinates": [ [ [ [ 95.0, 45.0 ], [ 95.0, 40.0 ], [ 90.0, 40.0 ], [ 90.0, 45.0 ], [ 95.0, 45.0 ] ] ] ] } }
]
}
