{
"type": "FeatureCollection",
"name": "90_65",
"crs": { "type": "name", "properties": { "name": "urn:ogc:def:crs:OGC:1.3:CRS84" } },
"xy_coordinate_resolution": 1e-15,
"features": [
{ "type": "Feature", "properties": { "FID": 123912, "id": 1949, "left": 90.0, "top": 70.0, "right": 95.0, "bottom": 65.0, "row_index": 4, "col_index": 54, "min_lon": 90.0, "min_lat": 65.0, "tile_id": "90_65" }, "geometry": { "type": "MultiPolygon", "coordinates": [ [ [ [ 95.0, 70.0 ], [ 95.0, 65.0 ], [ 90.0, 65.0 ], [ 90.0, 70.0 ], [ 95.0, 70.0 ] ] ] ] } }
]
}
