{
"type": "FeatureCollection",
"name": "95_-70",
"crs": { "type": "name", "properties": { "name": "urn:ogc:def:crs:OGC:1.3:CRS84" } },
"xy_coordinate_resolution": 1e-15,
"features": [
{ "type": "Feature", "properties": { "FID": 307096, "id": 2012, "left": 95.0, "top": -65.0, "right": 100.0, "bottom": -70.0, "row_index": 31, "col_index": 55, "min_lon": 95.0, "min_lat": -70.0, "tile_id": "95_-70" }, "geometry": { "type": "MultiPolygon", "coordinates": [ [ [ [ 95.0038075, -66.2112567 ], [ 95.0126752, -66.210255 ], [ 95.0186753, -66.2091252 ], [ 95.0214925, -66.2090252 ], [ 95.0273067, -66.2122583 ], [ 95.0323604, -66.214601 ], [ 95.0380285, -66.217151 ], [ 95.042471, -66.2192858 ], [ 95.0444108, -66.2203633 ], [ 95.052187, -66.2221498 ], [ 95.0538782, -66.2220894 ], [ 95.0549212, -66.2190712 ], [ 95.0609215, -66.2179395 ], [ 95.0627764, -66.2160387 ], [ 95.0668213, -66.2163525 ], [ 95.0718801, -66.2186938 ], [ 95.0780169, -66.2207671 ], [ 95.0820005, -66.223376 ], [ 95.0848071, -66.2257979 ], [ 95.0868733, -66.2222838 ], [ 95.0915949, -66.2205088 ], [ 95.0990332, -66.2181771 ], [ 95.1056451, -66.2172507 ], [ 95.1128703, -66.2165313 ], [ 95.1172187, -66.2182088 ], [ 95.1191031, -66.2215807 ], [ 95.1253968, -66.2243344 ], [ 95.1291837, -66.226032 ], [ 95.1351758, -66.2274203 ], [ 95.1426007, -66.2301324 ], [ 95.1519778, -66.231397 ], [ 95.1589986, -66.2322883 ], [ 95.1664307, -66.232476 ], [ 95.1722226, -66.2329528 ], [ 95.1783211, -66.2347942 ], [ 95.1836009, -66.2355186 ], [ 95.1911882, -66.2363876 ], [ 95.19693, -66.2366358 ], [ 95.2002111, -66.2360566 ], [ 95.2069783, -66.235808 ], [ 95.2099005, -66.2361593 ], [ 95.2123107, -66.2367588 ], [ 95.2182588, -66.237916 ], [ 95.2291803, -66.2384308 ], [ 95.2387159, -66.2378491 ], [ 95.2468698, -66.2386943 ], [ 95.2519453, -66.2385062 ], [ 95.261584, -66.2383778 ], [ 95.2705027, -66.2375874 ], [ 95.2780939, -66.2384518 ], [ 95.2891214, -66.2394169 ], [ 95.2963478, -66.238688 ], [ 95.2996788, -66.2383341 ], [ 95.311468, -66.237663 ], [ 95.3204897, -66.2373244 ], [ 95.3313079, -66.2373764 ], [ 95.3510418, -66.2366321 ], [ 95.3568911, -66.2373287 ], [ 95.3619127, -66.2369093 ], [ 95.3698588, -66.2368376 ], [ 95.3797616, -66.2378385 ], [ 95.38707, -66.2350368 ], [ 95.3921752, -66.2325479 ], [ 95.3949716, -66.2299175 ], [ 95.3968532, -66.2282397 ], [ 95.3975545, -66.2263773 ], [ 95.4005093, -66.2244291 ], [ 95.4054509, -66.2212577 ], [ 95.4100174, -66.2164943 ], [ 95.4092707, -66.2133107 ], [ 95.4109131, -66.2082004 ], [ 95.4139178, -66.2064793 ], [ 95.4204891, -66.2030156 ], [ 95.4296027, -66.2031248 ], [ 95.4338643, -66.2043377 ], [ 95.4415312, -66.2079435 ], [ 95.447778, -66.2079325 ], [ 95.4565963, -66.2043802 ], [ 95.4621424, -66.2014128 ], [ 95.4630528, -66.2004598 ], [ 95.4675255, -66.197763 ], [ 95.4722128, -66.1959755 ], [ 95.4778399, -66.1957576 ], [ 95.4884987, -66.1928202 ], [ 95.4944167, -66.191443 ], [ 95.5005384, -66.1861569 ], [ 95.500051, -66.1841109 ], [ 95.5050784, -66.1813911 ], [ 95.5126795, -66.1799475 ], [ 95.5192094, -66.1787747 ], [ 95.5208062, -66.1759589 ], [ 95.5245063, -66.170078 ], [ 95.5300722, -66.1696307 ], [ 95.5395717, -66.1690289 ], [ 95.5491798, -66.1688811 ], [ 95.5558141, -66.1681614 ], [ 95.5590367, -66.1650515 ], [ 95.556188, -66.1626397 ], [ 95.5533008, -66.1577054 ], [ 95.5526455, -66.1549778 ], [ 95.5569504, -66.1493016 ], [ 95.5571294, -66.1476885 ], [ 95.5546261, -66.1443455 ], [ 95.5532616, -66.1386634 ], [ 95.5553427, -66.1378931 ], [ 95.5608206, -66.1324003 ], [ 95.5631342, -66.1302441 ], [ 95.5647769, -66.1276556 ], [ 95.5629994, -66.1249726 ], [ 95.557748, -66.1219679 ], [ 95.5588847, -66.1196288 ], [ 95.5643975, -66.1166582 ], [ 95.5678992, -66.1123903 ], [ 95.5707298, -66.1076902 ], [ 95.5703609, -66.1038047 ], [ 95.568188, -66.101826 ], [ 95.5659207, -66.097098 ], [ 95.5586132, -66.0925693 ], [ 95.5507486, -66.0880624 ], [ 95.5468607, -66.0836279 ], [ 95.5394526, -66.078644 ], [ 95.5412741, -66.0744435 ], [ 95.5377701, -66.0715995 ], [ 95.5305667, -66.0698186 ], [ 95.5242131, -66.0668572 ], [ 95.5198824, -66.0628988 ], [ 95.519758, -66.0576285 ], [ 95.5205709, -66.0539269 ], [ 95.5231507, -66.0529082 ], [ 95.5309972, -66.0503061 ], [ 95.5333052, -66.0481511 ], [ 95.5308161, -66.0448089 ], [ 95.5252984, -66.0429619 ], [ 95.5204484, -66.0415471 ], [ 95.5163932, -66.0387249 ], [ 95.5174218, -66.0359325 ], [ 95.5183425, -66.0326857 ], [ 95.5269395, -66.0261556 ], [ 95.5292997, -66.0242281 ], [ 95.5256427, -66.0207029 ], [ 95.518348, -66.0184672 ], [ 95.5084248, -66.0170224 ], [ 95.5021753, -66.0168089 ], [ 95.4973322, -66.0153935 ], [ 95.4937888, -66.0123219 ], [ 95.4932519, -66.0100498 ], [ 95.4932946, -66.0054621 ], [ 95.4907621, -66.0018925 ], [ 95.4923179, -65.9965578 ], [ 95.4947317, -65.9948582 ], [ 95.4924146, -65.9921975 ], [ 95.4901195, -65.9872431 ], [ 95.4890261, -65.984993 ], [ 95.4863356, -65.980742 ], [ 95.4872266, -65.9749753 ], [ 95.4854603, -65.9674785 ], [ 95.4823225, -65.9637039 ], [ 95.4804065, -65.9603399 ], [ 95.4789948, -65.956727 ], [ 95.4839758, -65.9540103 ], [ 95.4866752, -65.9511535 ], [ 95.4927141, -65.9481656 ], [ 95.4991476, -65.9444743 ], [ 95.5018235, -65.9439106 ], [ 95.506008, -65.9425998 ], [ 95.5133165, -65.9402488 ], [ 95.5196719, -65.9386227 ], [ 95.5242495, -65.936608 ], [ 95.5288802, -65.9348203 ], [ 95.5269957, -65.9339778 ], [ 95.5213969, -65.931677 ], [ 95.5162481, -65.9288999 ], [ 95.5143108, -65.9278301 ], [ 95.5120712, -65.9231042 ], [ 95.5164316, -65.9201814 ], [ 95.5179924, -65.9196614 ], [ 95.516397, -65.9176612 ], [ 95.5164351, -65.913075 ], [ 95.5135676, -65.9104373 ], [ 95.5131042, -65.9061002 ], [ 95.5138594, -65.9021737 ], [ 95.5110668, -65.8974702 ], [ 95.5092592, -65.8945616 ], [ 95.5080809, -65.8895654 ], [ 95.5035182, -65.8844735 ], [ 95.4985957, -65.8826046 ], [ 95.4906529, -65.8774164 ], [ 95.4845161, -65.8751365 ], [ 95.4812087, -65.8729745 ], [ 95.4805698, -65.8702494 ], [ 95.4784793, -65.868498 ], [ 95.4755154, -65.8654058 ], [ 95.4708349, -65.8621518 ], [ 95.4688758, -65.8585618 ], [ 95.4681325, -65.8553826 ], [ 95.4692651, -65.8530465 ], [ 95.4710583, -65.8511428 ], [ 95.4781289, -65.8478861 ], [ 95.4797083, -65.8450741 ], [ 95.4786223, -65.8428252 ], [ 95.4761094, -65.8392574 ], [ 95.4765272, -65.8362619 ], [ 95.4809822, -65.8337953 ], [ 95.4853299, -65.8308743 ], [ 95.485693, -65.8276519 ], [ 95.484523, -65.8226566 ], [ 95.4829371, -65.8206567 ], [ 95.47966, -65.8162029 ], [ 95.4815247, -65.8122341 ], [ 95.4825701, -65.807152 ], [ 95.4868064, -65.8037773 ], [ 95.4928819, -65.7987259 ], [ 95.4970296, -65.7926047 ], [ 95.4935197, -65.7895356 ], [ 95.4964535, -65.7830043 ], [ 95.5008636, -65.7780186 ], [ 95.5020628, -65.7736179 ], [ 95.5025495, -65.7685582 ], [ 95.5026763, -65.7667203 ], [ 95.5080071, -65.7633017 ], [ 95.5119459, -65.7610836 ], [ 95.5145132, -65.7577742 ], [ 95.517293, -65.7553728 ], [ 95.5184693, -65.7532642 ], [ 95.5217118, -65.7480951 ], [ 95.5245966, -65.7461476 ], [ 95.5278012, -65.7455619 ], [ 95.5319665, -65.7419596 ], [ 95.5375887, -65.7350916 ], [ 95.542195, -65.7310132 ], [ 95.5437215, -65.7256831 ], [ 95.543968, -65.7220078 ], [ 95.5416143, -65.7120223 ], [ 95.538428, -65.7032157 ], [ 95.5367922, -65.7009904 ], [ 95.5364719, -65.6996288 ], [ 95.5329347, -65.6940435 ], [ 95.5295414, -65.6914302 ], [ 95.528582, -65.6873455 ], [ 95.534352, -65.6811598 ], [ 95.531102, -65.6744182 ], [ 95.5252447, -65.6707584 ], [ 95.5216432, -65.6672375 ], [ 95.52317, -65.6619089 ], [ 95.5279776, -65.6587396 ], [ 95.5302655, -65.6542968 ], [ 95.5271086, -65.6503004 ], [ 95.5279597, -65.6468312 ], [ 95.5278711, -65.6440865 ], [ 95.5227491, -65.6387948 ], [ 95.5172203, -65.6364963 ], [ 95.5140494, -65.6347908 ], [ 95.5142123, -65.6283723 ], [ 95.5132581, -65.6242885 ], [ 95.5108693, -65.6211778 ], [ 95.5117216, -65.617709 ], [ 95.5107348, -65.6111078 ], [ 95.5068601, -65.6087435 ], [ 95.5035018, -65.6038399 ], [ 95.5037004, -65.5999395 ], [ 95.5003442, -65.5950359 ], [ 95.4977487, -65.591018 ], [ 95.4930139, -65.5873141 ], [ 95.4891137, -65.5824324 ], [ 95.4792391, -65.5780169 ], [ 95.4833297, -65.5741914 ], [ 95.4831412, -65.5709937 ], [ 95.483448, -65.5675474 ], [ 95.4826593, -65.5641448 ], [ 95.4787125, -65.5590363 ], [ 95.4730492, -65.5560563 ], [ 95.4680923, -65.5537349 ], [ 95.4656115, -65.5501706 ], [ 95.4567447, -65.545257 ], [ 95.4491848, -65.5412069 ], [ 95.4422011, -65.5396517 ], [ 95.4387877, -65.5368109 ], [ 95.4345413, -65.5351472 ], [ 95.4298003, -65.533732 ], [ 95.4272483, -65.5322304 ], [ 95.4255827, -65.5297782 ], [ 95.4222246, -65.5271639 ], [ 95.4175381, -65.5259751 ], [ 95.4134791, -65.5227017 ], [ 95.4129609, -65.5204333 ], [ 95.4131218, -65.5163074 ], [ 95.4125808, -65.5115225 ], [ 95.4062581, -65.5103978 ], [ 95.4012137, -65.5076207 ], [ 95.4016865, -65.5048559 ], [ 95.4050462, -65.5026643 ], [ 95.4017241, -65.4977602 ], [ 95.4023517, -65.495676 ], [ 95.4047728, -65.4942077 ], [ 95.407562, -65.4895213 ], [ 95.4064025, -65.4820152 ], [ 95.4064612, -65.4774363 ], [ 95.4055832, -65.4735807 ], [ 95.4112758, -65.4719838 ], [ 95.4178238, -65.4717258 ], [ 95.4294381, -65.471954 ], [ 95.4321143, -65.4716194 ], [ 95.4389999, -65.4704318 ], [ 95.4471318, -65.4698808 ], [ 95.4522504, -65.4705932 ], [ 95.4594476, -65.4707653 ], [ 95.4639166, -65.4710453 ], [ 95.4716073, -65.4709682 ], [ 95.4765924, -65.4687099 ], [ 95.4792155, -65.4681477 ], [ 95.4805601, -65.4644325 ], [ 95.4842734, -65.4638266 ], [ 95.4885842, -65.4634256 ], [ 95.4949716, -65.4624838 ], [ 95.4987893, -65.462331 ], [ 95.5031721, -65.459867 ], [ 95.5071141, -65.4578781 ], [ 95.5117583, -65.4565477 ], [ 95.517387, -65.4547197 ], [ 95.5202894, -65.4530011 ], [ 95.5248265, -65.4512166 ], [ 95.5271298, -65.4492931 ], [ 95.5333706, -65.4453801 ], [ 95.5354089, -65.4423229 ], [ 95.5352671, -65.4393535 ], [ 95.5333688, -65.4382859 ], [ 95.5292562, -65.43479 ], [ 95.5261288, -65.4307969 ], [ 95.5332088, -65.4305116 ], [ 95.5382853, -65.4287049 ], [ 95.540813, -65.4253991 ], [ 95.5460251, -65.4194675 ], [ 95.546971, -65.4164545 ], [ 95.5484078, -65.4131927 ], [ 95.5496483, -65.4067353 ], [ 95.551802, -65.4018427 ], [ 95.5545517, -65.3971549 ], [ 95.5545667, -65.3948661 ], [ 95.553547, -65.3928481 ], [ 95.5520895, -65.3913054 ], [ 95.5490168, -65.3875401 ], [ 95.550852, -65.381288 ], [ 95.5521277, -65.3773466 ], [ 95.5509659, -65.3723601 ], [ 95.5504006, -65.3675783 ], [ 95.5484173, -65.3637693 ], [ 95.5513894, -65.3577003 ], [ 95.5530334, -65.3553457 ], [ 95.5510285, -65.3467335 ], [ 95.5472608, -65.3423108 ], [ 95.5428102, -65.3349421 ], [ 95.5392563, -65.331426 ], [ 95.5370316, -65.3241959 ], [ 95.5343543, -65.3197294 ], [ 95.5305415, -65.3150802 ], [ 95.5287929, -65.3098899 ], [ 95.5260139, -65.3049703 ], [ 95.5256994, -65.3036106 ], [ 95.5255597, -65.3006428 ], [ 95.5251584, -65.296542 ], [ 95.5167762, -65.2886471 ], [ 95.5127628, -65.2830916 ], [ 95.5097815, -65.2772658 ], [ 95.5073231, -65.2737058 ], [ 95.5104702, -65.2660318 ], [ 95.5102285, -65.2626111 ], [ 95.5105796, -65.2593953 ], [ 95.5101101, -65.2573561 ], [ 95.5107742, -65.2554998 ], [ 95.5113007, -65.2506762 ], [ 95.5242737, -65.2501509 ], [ 95.5312483, -65.2496393 ], [ 95.5396343, -65.2481552 ], [ 95.5517345, -65.2485775 ], [ 95.5661025, -65.2493635 ], [ 95.5752903, -65.2489879 ], [ 95.5874446, -65.2496335 ], [ 95.5996524, -65.2505046 ], [ 95.6134294, -65.2510814 ], [ 95.6259666, -65.2510217 ], [ 95.6414192, -65.2517553 ], [ 95.6563325, -65.2525094 ], [ 95.6747041, -65.254033 ], [ 95.6894584, -65.254104 ], [ 95.7017801, -65.255419 ], [ 95.7112385, -65.2561668 ], [ 95.719076, -65.2569819 ], [ 95.7274002, -65.2575474 ], [ 95.7439412, -65.2582238 ], [ 95.7563182, -65.2574728 ], [ 95.7665326, -65.2568122 ], [ 95.7790658, -65.2544509 ], [ 95.7898733, -65.2539921 ], [ 95.799756, -65.2519702 ], [ 95.8062305, -65.2494064 ], [ 95.8164849, -65.2466809 ], [ 95.8272221, -65.2437052 ], [ 95.8293274, -65.2433864 ], [ 95.8332417, -65.2482524 ], [ 95.8399392, -65.2578043 ], [ 95.8503706, -65.2669674 ], [ 95.8565947, -65.2767689 ], [ 95.8566085, -65.2701321 ], [ 95.8510507, -65.2630482 ], [ 95.8449431, -65.2536999 ], [ 95.8376064, -65.2460062 ], [ 95.8362813, -65.2405717 ], [ 95.837515, -65.2389172 ], [ 95.8387914, -65.2352017 ], [ 95.8377977, -65.231126 ], [ 95.8410119, -65.2264123 ], [ 95.8409993, -65.2241249 ], [ 95.8451381, -65.220973 ], [ 95.8491651, -65.2173681 ], [ 95.8530385, -65.2153713 ], [ 95.8555975, -65.2102278 ], [ 95.8543394, -65.2073079 ], [ 95.8552658, -65.1999472 ], [ 95.8597575, -65.1938055 ], [ 95.8618844, -65.1891385 ], [ 95.8644941, -65.1842218 ], [ 95.8660659, -65.1772911 ], [ 95.8709228, -65.1704472 ], [ 95.8744789, -65.1627447 ], [ 95.8769326, -65.159436 ], [ 95.8805012, -65.1540202 ], [ 95.8815611, -65.1516868 ], [ 95.8831032, -65.1491038 ], [ 95.8858318, -65.1469268 ], [ 95.8859649, -65.1430325 ], [ 95.8909756, -65.1368678 ], [ 95.8954082, -65.1327867 ], [ 95.90186, -65.1258728 ], [ 95.9074191, -65.121971 ], [ 95.9116236, -65.1169844 ], [ 95.9210501, -65.1133707 ], [ 95.9290299, -65.1105057 ], [ 95.9361573, -65.1085925 ], [ 95.944637, -65.1077633 ], [ 95.9540779, -65.1064337 ], [ 95.9685742, -65.1057958 ], [ 95.9802728, -65.1048223 ], [ 95.9903601, -65.1039191 ], [ 95.9996842, -65.1021338 ], [ 96.0120012, -65.0993001 ], [ 96.0216885, -65.0968108 ], [ 96.0346852, -65.0939324 ], [ 96.0519701, -65.0879627 ], [ 96.0653193, -65.0873652 ], [ 96.0776547, -65.0850791 ], [ 96.0919763, -65.0836926 ], [ 96.103085, -65.0812116 ], [ 96.1232864, -65.0775759 ], [ 96.1371829, -65.0722426 ], [ 96.1484691, -65.0704923 ], [ 96.1575931, -65.0648785 ], [ 96.1580357, -65.0574318 ], [ 96.1601994, -65.0521347 ], [ 96.1588571, -65.0422944 ], [ 96.1595653, -65.0335985 ], [ 96.1570669, -65.0238116 ], [ 96.1571631, -65.0195995 ], [ 96.157888, -65.008676 ], [ 96.1547352, -65.0008999 ], [ 96.154691231718786, -65.0 ], [ 96.64711524180801, -65.0 ], [ 96.6498686, -65.0007939 ], [ 96.6618292, -65.0038609 ], [ 96.6782094, -65.0094951 ], [ 96.6929265, -65.0120749 ], [ 96.712761, -65.0152697 ], [ 96.7185693, -65.0168967 ], [ 96.7295169, -65.0177445 ], [ 96.745009, -65.0201064 ], [ 96.7543335, -65.0210335 ], [ 96.7780543, -65.023328 ], [ 96.7859204, -65.0234552 ], [ 96.7975998, -65.0268746 ], [ 96.8095615, -65.0283622 ], [ 96.811867, -65.0306852 ], [ 96.8116367, -65.0327877 ], [ 96.8131601, -65.0367184 ], [ 96.8134464, -65.0421057 ], [ 96.8135204, -65.0482007 ], [ 96.817694, -65.0556575 ], [ 96.8231085, -65.0616575 ], [ 96.8283794, -65.067142 ], [ 96.8312077, -65.077107 ], [ 96.8366461, -65.086069 ], [ 96.8443868, -65.0943921 ], [ 96.8512021, -65.0994502 ], [ 96.8604818, -65.102989 ], [ 96.8716061, -65.1057363 ], [ 96.8788175, -65.1078102 ], [ 96.8859669, -65.1111072 ], [ 96.8876416, -65.116949 ], [ 96.8912448, -65.1237387 ], [ 96.9020234, -65.1266764 ], [ 96.9313424, -65.1321525 ], [ 96.9416931, -65.1321455 ], [ 96.9531786, -65.1303357 ], [ 96.9680167, -65.130096 ], [ 96.972854, -65.1310676 ], [ 96.9851364, -65.1320038 ], [ 96.9949788, -65.1316701 ], [ 97.010533, -65.1310401 ], [ 97.0217436, -65.1325517 ], [ 97.0320944, -65.1325377 ], [ 97.0454433, -65.1356805 ], [ 97.0515553, -65.1381527 ], [ 97.0575597, -65.1430721 ], [ 97.0603549, -65.1469378 ], [ 97.0633498, -65.1528861 ], [ 97.0594071, -65.1578007 ], [ 97.0612319, -65.1625894 ], [ 97.0654582, -65.1670785 ], [ 97.0717551, -65.1827979 ], [ 97.081239, -65.1938164 ], [ 97.0807258, -65.1948899 ], [ 97.0782608, -65.2006008 ], [ 97.0756903, -65.207364 ], [ 97.0769039, -65.2142791 ], [ 97.0787795, -65.2234278 ], [ 97.0808675, -65.2290764 ], [ 97.0773363, -65.234887 ], [ 97.0782768, -65.2450886 ], [ 97.0781324, -65.2533839 ], [ 97.0740211, -65.2588324 ], [ 97.0774152, -65.2597464 ], [ 97.0887491, -65.2646093 ], [ 97.0968847, -65.267457 ], [ 97.1032268, -65.2712706 ], [ 97.1118784, -65.275836 ], [ 97.1121965, -65.2804003 ], [ 97.1143746, -65.2859583 ], [ 97.1155917, -65.2900396 ], [ 97.1080458, -65.292307 ], [ 97.1001934, -65.2975886 ], [ 97.0970489, -65.3019284 ], [ 97.0928787, -65.3065537 ], [ 97.0860461, -65.3096931 ], [ 97.078458, -65.3140314 ], [ 97.0691642, -65.3163696 ], [ 97.059796, -65.320335 ], [ 97.0469415, -65.3237838 ], [ 97.0254773, -65.3262831 ], [ 97.0114537, -65.3295564 ], [ 96.997772, -65.3321147 ], [ 96.9871682, -65.333818 ], [ 96.9713049, -65.3346294 ], [ 96.9582966, -65.3376129 ], [ 96.9506902, -65.3400882 ], [ 96.9394512, -65.3434436 ], [ 96.9207296, -65.3497289 ], [ 96.9100791, -65.3551393 ], [ 96.897931, -65.3592327 ], [ 96.8867232, -65.3646691 ], [ 96.881859, -65.3651462 ], [ 96.861634, -65.3682508 ], [ 96.8459412, -65.3697337 ], [ 96.8249628, -65.3721745 ], [ 96.8068763, -65.3730764 ], [ 96.793421, -65.3707309 ], [ 96.788358, -65.3705186 ], [ 96.7700938, -65.3649313 ], [ 96.7532873, -65.3585744 ], [ 96.7429673, -65.3535191 ], [ 96.7419122, -65.3596 ], [ 96.7426895, -65.3623442 ], [ 96.7525949, -65.3678841 ], [ 96.7672525, -65.3764351 ], [ 96.7692225, -65.3774971 ], [ 96.7701713, -65.382784 ], [ 96.768889, -65.3860942 ], [ 96.760679, -65.3943854 ], [ 96.7563702, -65.4027154 ], [ 96.7491834, -65.4107234 ], [ 96.740439, -65.4171843 ], [ 96.7310105, -65.4232142 ], [ 96.7241977, -65.4325941 ], [ 96.7177352, -65.4412606 ], [ 96.713629, -65.4484199 ], [ 96.7072551, -65.4594012 ], [ 96.7001655, -65.4639227 ], [ 96.6941405, -65.4702474 ], [ 96.6882073, -65.478887 ], [ 96.6789645, -65.4876873 ], [ 96.6700792, -65.4918305 ], [ 96.6592076, -65.4988528 ], [ 96.6463272, -65.5027238 ], [ 96.6273389, -65.5087438 ], [ 96.6157033, -65.5151031 ], [ 96.6007281, -65.519534 ], [ 96.5823302, -65.5257507 ], [ 96.5730959, -65.5287437 ], [ 96.5637519, -65.5333648 ], [ 96.5448268, -65.5377454 ], [ 96.5268096, -65.5413843 ], [ 96.5098919, -65.5449687 ], [ 96.5060882, -65.5453804 ], [ 96.4873185, -65.5483535 ], [ 96.4609327, -65.5521453 ], [ 96.4385325, -65.5562092 ], [ 96.4297587, -65.5589381 ], [ 96.4250398, -65.562173 ], [ 96.4274383, -65.5627568 ], [ 96.4522847, -65.5676251 ], [ 96.4640333, -65.5696256 ], [ 96.48002, -65.5707301 ], [ 96.5062779, -65.572508 ], [ 96.5275457, -65.5724299 ], [ 96.5458761, -65.57388 ], [ 96.5641891, -65.5732407 ], [ 96.5908593, -65.5724315 ], [ 96.6098913, -65.5703598 ], [ 96.6294729, -65.5682588 ], [ 96.6440494, -65.5643084 ], [ 96.65969, -65.5621609 ], [ 96.6731175, -65.5601188 ], [ 96.6918083, -65.5568915 ], [ 96.6983416, -65.5542536 ], [ 96.7158537, -65.5469035 ], [ 96.7297171, -65.5385694 ], [ 96.7443539, -65.5329801 ], [ 96.7603405, -65.5243061 ], [ 96.7695495, -65.5213007 ], [ 96.7754473, -65.5184579 ], [ 96.7922265, -65.5106687 ], [ 96.802933, -65.5031781 ], [ 96.8121527, -65.4983126 ], [ 96.8213924, -65.4915891 ], [ 96.8295917, -65.4851488 ], [ 96.8390194, -65.4791107 ], [ 96.8505331, -65.4706476 ], [ 96.8598424, -65.4680941 ], [ 96.8695473, -65.4669124 ], [ 96.8757982, -65.4672953 ], [ 96.8941837, -65.4710133 ], [ 96.9116242, -65.4733844 ], [ 96.9337015, -65.4725025 ], [ 96.9474431, -65.4736638 ], [ 96.9565825, -65.4743611 ], [ 96.9598041, -65.4758223 ], [ 96.9576309, -65.4817346 ], [ 96.9537377, -65.4875021 ], [ 96.9518712, -65.488757 ], [ 96.9413092, -65.5022886 ], [ 96.9323975, -65.5062201 ], [ 96.9227187, -65.5190093 ], [ 96.9121431, -65.5230231 ], [ 96.905358, -65.5266134 ], [ 96.8962616, -65.5338008 ], [ 96.8899126, -65.5485095 ], [ 96.886811, -65.5551639 ], [ 96.885194, -65.5649938 ], [ 96.886128, -65.5681968 ], [ 96.8880263, -65.5785477 ], [ 96.8984356, -65.5949735 ], [ 96.905069, -65.6099641 ], [ 96.9121303, -65.6244698 ], [ 96.9155215, -65.6321943 ], [ 96.9166148, -65.6416596 ], [ 96.9123327, -65.6481435 ], [ 96.9063004, -65.6563403 ], [ 96.8971366, -65.6653897 ], [ 96.8876976, -65.6735234 ], [ 96.8791229, -65.6846321 ], [ 96.870045, -65.6901921 ], [ 96.8637865, -65.6977015 ], [ 96.8591245, -65.7048993 ], [ 96.856036, -65.7078391 ], [ 96.8605955, -65.7099355 ], [ 96.8696163, -65.7041469 ], [ 96.8809223, -65.6984762 ], [ 96.8918383, -65.6895726 ], [ 96.9007765, -65.6835535 ], [ 96.9083311, -65.6766739 ], [ 96.9142676, -65.6719649 ], [ 96.9187394, -65.6680256 ], [ 96.923142, -65.6638573 ], [ 96.9283829, -65.658718 ], [ 96.9328346, -65.6566368 ], [ 96.9415044, -65.6555048 ], [ 96.9527291, -65.6554049 ], [ 96.9658202, -65.6559066 ], [ 96.9813222, -65.65884 ], [ 97.0095737, -65.6629838 ], [ 97.0253592, -65.6668277 ], [ 97.067908, -65.6716269 ], [ 97.0901618, -65.6725778 ], [ 97.1172013, -65.6744407 ], [ 97.1407069, -65.6739254 ], [ 97.1590133, -65.6748371 ], [ 97.1692764, -65.6752346 ], [ 97.1796098, -65.6758599 ], [ 97.1982694, -65.6779102 ], [ 97.2070107, -65.678849 ], [ 97.2204715, -65.6804703 ], [ 97.2409255, -65.6791679 ], [ 97.2540963, -65.6780125 ], [ 97.2727523, -65.6781941 ], [ 97.2838695, -65.6813274 ], [ 97.2927839, -65.6864356 ], [ 97.2964812, -65.6892621 ], [ 97.296877, -65.6959819 ], [ 97.2956075, -65.7027897 ], [ 97.2981973, -65.7056748 ], [ 97.3070528, -65.7105539 ], [ 97.3174916, -65.7132568 ], [ 97.3245131, -65.7140476 ], [ 97.3371059, -65.7164028 ], [ 97.3424081, -65.7189113 ], [ 97.3476575, -65.72305 ], [ 97.3477993, -65.7307147 ], [ 97.3487311, -65.7336878 ], [ 97.3516177, -65.7374871 ], [ 97.3645849, -65.7409834 ], [ 97.371865, -65.7389685 ], [ 97.3775881, -65.740989 ], [ 97.3832401, -65.7427806 ], [ 97.390119, -65.7484596 ], [ 97.3945172, -65.7498527 ], [ 97.4025856, -65.7557005 ], [ 97.4023622, -65.7603634 ], [ 97.4115266, -65.7642922 ], [ 97.4151057, -65.766659 ], [ 97.4234045, -65.7678429 ], [ 97.4323088, -65.7673659 ], [ 97.4488841, -65.7678719 ], [ 97.4547664, -65.7703467 ], [ 97.4680776, -65.7712586 ], [ 97.4802937, -65.7687393 ], [ 97.488466, -65.7659722 ], [ 97.4967067, -65.7624027 ], [ 97.5074997, -65.7635471 ], [ 97.5163584, -65.7646953 ], [ 97.5243256, -65.7665892 ], [ 97.5312548, -65.7687718 ], [ 97.5353293, -65.7708767 ], [ 97.5459353, -65.7721609 ], [ 97.555617, -65.7723316 ], [ 97.5645943, -65.7720748 ], [ 97.5774665, -65.7716045 ], [ 97.5970151, -65.7707674 ], [ 97.6029869, -65.7699747 ], [ 97.6157442, -65.7674131 ], [ 97.6240139, -65.7667258 ], [ 97.636624, -65.767195 ], [ 97.6493175, -65.7713815 ], [ 97.6590417, -65.7734042 ], [ 97.668361, -65.7759142 ], [ 97.6802831, -65.7794432 ], [ 97.6930517, -65.7803643 ], [ 97.7088297, -65.7818154 ], [ 97.7269391, -65.7817385 ], [ 97.7451508, -65.7802569 ], [ 97.7561014, -65.7808086 ], [ 97.7649027, -65.7817126 ], [ 97.7797494, -65.7820442 ], [ 97.7992765, -65.7828094 ], [ 97.820899, -65.7813587 ], [ 97.83076, -65.7803364 ], [ 97.8408133, -65.776509 ], [ 97.8516688, -65.771704 ], [ 97.8574208, -65.7685843 ], [ 97.8689788, -65.7642036 ], [ 97.8813365, -65.7588448 ], [ 97.893518, -65.7546589 ], [ 97.9064511, -65.7543868 ], [ 97.9204952, -65.7540499 ], [ 97.9325351, -65.7561547 ], [ 97.945223, -65.7568244 ], [ 97.9559345, -65.7566751 ], [ 97.9695792, -65.756822 ], [ 97.9739349, -65.7579684 ], [ 97.9873368, -65.7590589 ], [ 97.9923275, -65.7604011 ], [ 97.9991419, -65.7621036 ], [ 98.0064348, -65.7635453 ], [ 98.0159278, -65.76975 ], [ 98.0201241, -65.7720691 ], [ 98.0276422, -65.7774563 ], [ 98.0314351, -65.7818947 ], [ 98.038095, -65.7847695 ], [ 98.046903, -65.7872865 ], [ 98.0618309, -65.7894473 ], [ 98.0780322, -65.7919984 ], [ 98.0893122, -65.7934373 ], [ 98.1032166, -65.7942561 ], [ 98.1154529, -65.7951712 ], [ 98.1322997, -65.7962809 ], [ 98.1461274, -65.7968672 ], [ 98.1722763, -65.7985904 ], [ 98.1918294, -65.7993007 ], [ 98.2019221, -65.7989371 ], [ 98.2199682, -65.8001988 ], [ 98.2286335, -65.8006169 ], [ 98.2490686, -65.8021993 ], [ 98.261952, -65.8032967 ], [ 98.2727021, -65.806385 ], [ 98.2861669, -65.810709 ], [ 98.3024307, -65.8164961 ], [ 98.3101655, -65.8190633 ], [ 98.323196, -65.8269076 ], [ 98.336288, -65.8317169 ], [ 98.3510564, -65.8364246 ], [ 98.3634386, -65.8408085 ], [ 98.3793323, -65.8454462 ], [ 98.386217, -65.8487614 ], [ 98.3946294, -65.85315 ], [ 98.4055845, -65.856685 ], [ 98.4144356, -65.8638449 ], [ 98.4241177, -65.8732866 ], [ 98.43767, -65.8792283 ], [ 98.4537476, -65.8826832 ], [ 98.4682753, -65.883432 ], [ 98.4923706, -65.8838285 ], [ 98.5123115, -65.8837755 ], [ 98.5280967, -65.8832748 ], [ 98.5445779, -65.8815629 ], [ 98.5537822, -65.8833299 ], [ 98.5738992, -65.8883904 ], [ 98.5880767, -65.8912488 ], [ 98.5944664, -65.891554 ], [ 98.6129763, -65.8953092 ], [ 98.6327921, -65.8964142 ], [ 98.643696, -65.8950368 ], [ 98.654271, -65.8897116 ], [ 98.6613146, -65.8871725 ], [ 98.6745282, -65.8858819 ], [ 98.6827688, -65.8835003 ], [ 98.6744995, -65.8812161 ], [ 98.6651171, -65.8790008 ], [ 98.6550091, -65.8763635 ], [ 98.6495809, -65.8725011 ], [ 98.649339, -65.8687824 ], [ 98.640401, -65.8646716 ], [ 98.6279044, -65.8617149 ], [ 98.617656, -65.8555847 ], [ 98.6092343, -65.8528407 ], [ 98.5976937, -65.8493562 ], [ 98.5908107, -65.8476825 ], [ 98.5854411, -65.8377498 ], [ 98.5915338, -65.8344408 ], [ 98.5829827, -65.8312845 ], [ 98.5731169, -65.8259147 ], [ 98.5674927, -65.8229965 ], [ 98.5606196, -65.8213215 ], [ 98.5507702, -65.8177306 ], [ 98.5388927, -65.8116984 ], [ 98.5350556, -65.8105353 ], [ 98.52691, -65.808471 ], [ 98.5201273, -65.8070222 ], [ 98.5065388, -65.8024928 ], [ 98.5050113, -65.8014205 ], [ 98.5074057, -65.7970758 ], [ 98.5143542, -65.7943169 ], [ 98.5232451, -65.7937702 ], [ 98.5340805, -65.7954354 ], [ 98.5391933, -65.7969862 ], [ 98.5509212, -65.7995282 ], [ 98.563596, -65.8015444 ], [ 98.5665958, -65.8004261 ], [ 98.5595863, -65.7952615 ], [ 98.5489417, -65.7910208 ], [ 98.5354401, -65.7867225 ], [ 98.5461867, -65.7834944 ], [ 98.5633191, -65.7822029 ], [ 98.5681496, -65.7814376 ], [ 98.5662026, -65.7792258 ], [ 98.5482376, -65.7782371 ], [ 98.5357997, -65.7799372 ], [ 98.5226942, -65.7798117 ], [ 98.5155876, -65.7774505 ], [ 98.5126184, -65.7755343 ], [ 98.5032102, -65.773081 ], [ 98.4935807, -65.7715735 ], [ 98.4779039, -65.7690369 ], [ 98.4509254, -65.7697539 ], [ 98.4375178, -65.7703385 ], [ 98.4270298, -65.7695785 ], [ 98.4164603, -65.7685895 ], [ 98.4186249, -65.7637592 ], [ 98.426129, -65.7609712 ], [ 98.4297469, -65.7584197 ], [ 98.4411714, -65.7523612 ], [ 98.4481747, -65.7482036 ], [ 98.4601074, -65.7451429 ], [ 98.4642502, -65.7409261 ], [ 98.4648409, -65.7378592 ], [ 98.467814, -65.7351127 ], [ 98.4716, -65.7283531 ], [ 98.472496, -65.7245681 ], [ 98.465965, -65.722171 ], [ 98.4543671, -65.7198506 ], [ 98.4446583, -65.7164815 ], [ 98.4344404, -65.7164064 ], [ 98.4239765, -65.7156463 ], [ 98.4105796, -65.7145979 ], [ 98.4055121, -65.7146732 ], [ 98.3974925, -65.7128303 ], [ 98.3889662, -65.7079879 ], [ 98.3914362, -65.7022444 ], [ 98.3952937, -65.7003784 ], [ 98.4071654, -65.7003553 ], [ 98.4155516, -65.7000775 ], [ 98.4301296, -65.7012859 ], [ 98.4455094, -65.7031431 ], [ 98.4637425, -65.7050569 ], [ 98.4756403, -65.7066583 ], [ 98.4852177, -65.7065363 ], [ 98.4978116, -65.7069275 ], [ 98.5036533, -65.7058684 ], [ 98.4973472, -65.7025267 ], [ 98.4909027, -65.700359 ], [ 98.4816093, -65.6981329 ], [ 98.4761916, -65.6956684 ], [ 98.4677145, -65.6894289 ], [ 98.4657252, -65.6886186 ], [ 98.458405, -65.6855711 ], [ 98.4518041, -65.6829456 ], [ 98.4404909, -65.6766461 ], [ 98.4358604, -65.6732004 ], [ 98.4416751, -65.6705139 ], [ 98.4335857, -65.6684453 ], [ 98.4245762, -65.6685299 ], [ 98.4167542, -65.6687745 ], [ 98.4103456, -65.6682333 ], [ 98.4046973, -65.6650822 ], [ 98.4053563, -65.6606143 ], [ 98.403579, -65.6572273 ], [ 98.3991209, -65.6542367 ], [ 98.3946186, -65.6542779 ], [ 98.3867196, -65.6542927 ], [ 98.3735219, -65.6536971 ], [ 98.3658505, -65.6527649 ], [ 98.3561975, -65.6510205 ], [ 98.3556639, -65.6447621 ], [ 98.3574365, -65.6402279 ], [ 98.3608648, -65.6355931 ], [ 98.3559296, -65.6312331 ], [ 98.3442396, -65.6300781 ], [ 98.3297906, -65.6290891 ], [ 98.3211863, -65.6286774 ], [ 98.3107399, -65.6246494 ], [ 98.2989063, -65.6246643 ], [ 98.2954908, -65.6213761 ], [ 98.3020215, -65.619119 ], [ 98.309103, -65.6168282 ], [ 98.3071936, -65.6146141 ], [ 98.3155929, -65.6096811 ], [ 98.3269076, -65.605037 ], [ 98.3365923, -65.6037517 ], [ 98.3471361, -65.6017147 ], [ 98.3594781, -65.5984028 ], [ 98.358749, -65.5963505 ], [ 98.3502069, -65.5929093 ], [ 98.3578921, -65.5891813 ], [ 98.3633872, -65.5872166 ], [ 98.372576, -65.5845607 ], [ 98.3789269, -65.5818443 ], [ 98.3851777, -65.57727 ], [ 98.3886271, -65.5758947 ], [ 98.3974467, -65.5690663 ], [ 98.4065244, -65.564551 ], [ 98.4087502, -65.5597557 ], [ 98.4165165, -65.5578822 ], [ 98.4251175, -65.5536276 ], [ 98.4357131, -65.5518122 ], [ 98.4449231, -65.5524107 ], [ 98.4533384, -65.5523586 ], [ 98.4648086, -65.5514189 ], [ 98.4797179, -65.5491008 ], [ 98.4879678, -65.5485908 ], [ 98.4971529, -65.5475564 ], [ 98.5036699, -65.5469199 ], [ 98.5115331, -65.5468984 ], [ 98.5128798, -65.5475138 ], [ 98.5232725, -65.5482668 ], [ 98.5349029, -65.547777 ], [ 98.5451852, -65.546671 ], [ 98.5540654, -65.5463508 ], [ 98.5675093, -65.5462112 ], [ 98.5779861, -65.5471879 ], [ 98.5869803, -65.5487227 ], [ 98.5917943, -65.5495867 ], [ 98.603489, -65.5523498 ], [ 98.6147697, -65.5539728 ], [ 98.6261848, -65.5544212 ], [ 98.6351503, -65.5543236 ], [ 98.6428486, -65.553839 ], [ 98.6580771, -65.5524129 ], [ 98.678969, -65.5510931 ], [ 98.7007448, -65.5506464 ], [ 98.7107235, -65.5502464 ], [ 98.7222667, -65.5495131 ], [ 98.7366834, -65.5504609 ], [ 98.7499594, -65.549848 ], [ 98.7612056, -65.5498297 ], [ 98.7730014, -65.5497753 ], [ 98.7879247, -65.5490533 ], [ 98.8015777, -65.5479448 ], [ 98.8141306, -65.5469055 ], [ 98.8260479, -65.5456728 ], [ 98.8386839, -65.5448591 ], [ 98.8504637, -65.5417673 ], [ 98.8623765, -65.5405314 ], [ 98.8681609, -65.5394578 ], [ 98.879265, -65.537573 ], [ 98.8879472, -65.5337453 ], [ 98.8986367, -65.5337514 ], [ 98.9141487, -65.5346094 ], [ 98.926109, -65.5349973 ], [ 98.9387916, -65.5358036 ], [ 98.9480381, -65.534967 ], [ 98.9561862, -65.5342015 ], [ 98.9681754, -65.5376164 ], [ 98.9768447, -65.5426478 ], [ 98.9834059, -65.5436177 ], [ 98.9945342, -65.5447545 ], [ 99.0073114, -65.5457821 ], [ 99.018503, -65.5485461 ], [ 99.0251545, -65.5497417 ], [ 99.0321814, -65.5504457 ], [ 99.0397828, -65.5497115 ], [ 99.0496291, -65.5460286 ], [ 99.0576506, -65.5419987 ], [ 99.0751979, -65.5364045 ], [ 99.0834523, -65.5344575 ], [ 99.0884789, -65.5343575 ], [ 99.0943839, -65.5365327 ], [ 99.0965361, -65.5391902 ], [ 99.1012785, -65.5398087 ], [ 99.1134206, -65.5406355 ], [ 99.1191733, -65.540953 ], [ 99.1229754, -65.5435005 ], [ 99.1261211, -65.5472586 ], [ 99.1251796, -65.5491883 ], [ 99.1207265, -65.5536856 ], [ 99.1250601, -65.5575984 ], [ 99.1287968, -65.5585167 ], [ 99.13581, -65.5606172 ], [ 99.1442581, -65.5649558 ], [ 99.1539488, -65.5724793 ], [ 99.1601351, -65.5753344 ], [ 99.1632733, -65.5804939 ], [ 99.1637701, -65.5846627 ], [ 99.1665729, -65.5875104 ], [ 99.1689171, -65.5978592 ], [ 99.1663978, -65.6015293 ], [ 99.1675173, -65.6072912 ], [ 99.1691334, -65.6099849 ], [ 99.1743365, -65.6117389 ], [ 99.1823317, -65.6177422 ], [ 99.1842175, -65.6211185 ], [ 99.1849297, -65.6229388 ], [ 99.1906874, -65.6246555 ], [ 99.20091, -65.6291088 ], [ 99.2056581, -65.6311261 ], [ 99.2058954, -65.6346128 ], [ 99.2075028, -65.6387085 ], [ 99.2063553, -65.6429887 ], [ 99.2050289, -65.6468138 ], [ 99.2144293, -65.6520228 ], [ 99.2204791, -65.6530188 ], [ 99.2201676, -65.6565428 ], [ 99.2246449, -65.6679203 ], [ 99.2298234, -65.6738794 ], [ 99.234466, -65.6784731 ], [ 99.2404577, -65.6864801 ], [ 99.24445, -65.6922855 ], [ 99.2534026, -65.6991598 ], [ 99.2591598, -65.7036789 ], [ 99.2643667, -65.708235 ], [ 99.269113, -65.7130557 ], [ 99.2757112, -65.7168174 ], [ 99.2777768, -65.7234539 ], [ 99.2833424, -65.7303225 ], [ 99.2884694, -65.7346505 ], [ 99.2892734, -65.7381012 ], [ 99.2900672, -65.7429547 ], [ 99.2969293, -65.7502039 ], [ 99.3001304, -65.7539608 ], [ 99.302044, -65.7573372 ], [ 99.305882, -65.7626872 ], [ 99.3073431, -65.7649256 ], [ 99.313572, -65.7719844 ], [ 99.317506, -65.7775619 ], [ 99.3206973, -65.7841245 ], [ 99.3214251, -65.7859452 ], [ 99.3214908, -65.7903814 ], [ 99.3276478, -65.7958096 ], [ 99.3323258, -65.8018051 ], [ 99.3350609, -65.8086328 ], [ 99.3399261, -65.8150835 ], [ 99.3426792, -65.8191054 ], [ 99.3422011, -65.8221765 ], [ 99.3479987, -65.8280971 ], [ 99.3525971, -65.8338649 ], [ 99.3560995, -65.8369014 ], [ 99.3619956, -65.8430493 ], [ 99.3642062, -65.8457056 ], [ 99.3645552, -65.8508255 ], [ 99.3663941, -65.8539746 ], [ 99.3727722, -65.8570507 ], [ 99.3832321, -65.8589154 ], [ 99.387298, -65.8619138 ], [ 99.3857037, -65.8678675 ], [ 99.3888344, -65.8742029 ], [ 99.3897542, -65.8764791 ], [ 99.3935479, -65.8787947 ], [ 99.3928872, -65.8828147 ], [ 99.397868, -65.8922995 ], [ 99.3989737, -65.895031 ], [ 99.4062998, -65.8961721 ], [ 99.4133467, -65.8980333 ], [ 99.4192862, -65.8971629 ], [ 99.4274522, -65.896141 ], [ 99.4338568, -65.8936011 ], [ 99.4380365, -65.8884055 ], [ 99.440264, -65.8868507 ], [ 99.4473134, -65.8845 ], [ 99.4534346, -65.8812766 ], [ 99.4591833, -65.878546 ], [ 99.4700288, -65.8757012 ], [ 99.4783708, -65.8751316 ], [ 99.486435, -65.8752822 ], [ 99.4970959, -65.8761902 ], [ 99.5082262, -65.8796384 ], [ 99.5131507, -65.8846813 ], [ 99.5206725, -65.8890781 ], [ 99.5266175, -65.8924134 ], [ 99.5360901, -65.8959742 ], [ 99.546851, -65.8957026 ], [ 99.5572842, -65.8952524 ], [ 99.5663838, -65.8943677 ], [ 99.5711954, -65.895326 ], [ 99.5752832, -65.8945281 ], [ 99.580486, -65.8918473 ], [ 99.5837362, -65.8874951 ], [ 99.5872957, -65.8838955 ], [ 99.589939, -65.881133 ], [ 99.5946877, -65.8790841 ], [ 99.5937881, -65.8760339 ], [ 99.6067465, -65.8714566 ], [ 99.6088577, -65.8658927 ], [ 99.6104588, -65.860622 ], [ 99.608913, -65.8584074 ], [ 99.6064249, -65.8523886 ], [ 99.605577, -65.847288 ], [ 99.6108501, -65.8417631 ], [ 99.6128736, -65.839043 ], [ 99.6129574, -65.8361997 ], [ 99.6127404, -65.8341511 ], [ 99.6093411, -65.8289701 ], [ 99.6049368, -65.8259224 ], [ 99.6048145, -65.8225777 ], [ 99.6116255, -65.8192675 ], [ 99.6102848, -65.813672 ], [ 99.6044386, -65.8109967 ], [ 99.6023796, -65.8075287 ], [ 99.5961466, -65.8046083 ], [ 99.5966455, -65.8027682 ], [ 99.6013182, -65.8003806 ], [ 99.6041569, -65.7981202 ], [ 99.6006434, -65.7895952 ], [ 99.5915601, -65.7858415 ], [ 99.5783166, -65.7841809 ], [ 99.572203, -65.7830571 ], [ 99.5708646, -65.7797975 ], [ 99.5805219, -65.7773231 ], [ 99.5924206, -65.775724 ], [ 99.5962802, -65.7744245 ], [ 99.5950421, -65.7714158 ], [ 99.5914668, -65.7688274 ], [ 99.592163, -65.7659424 ], [ 99.5976362, -65.7624676 ], [ 99.6002646, -65.7597062 ], [ 99.6035206, -65.7599956 ], [ 99.6001433, -65.7563623 ], [ 99.5982105, -65.7562388 ], [ 99.5928936, -65.7509352 ], [ 99.5944048, -65.7485094 ], [ 99.5973413, -65.7465002 ], [ 99.601205, -65.7467472 ], [ 99.6038406, -65.7455324 ], [ 99.600268, -65.7429444 ], [ 99.5954687, -65.7388947 ], [ 99.6002138, -65.7336654 ], [ 99.6006169, -65.7331216 ], [ 99.6173553, -65.7296348 ], [ 99.6228373, -65.7292525 ], [ 99.6320771, -65.7288653 ], [ 99.6366281, -65.7262265 ], [ 99.6415919, -65.7245902 ], [ 99.6509995, -65.7200638 ], [ 99.6611549, -65.720384 ], [ 99.6693941, -65.7221275 ], [ 99.676313, -65.7237052 ], [ 99.6798765, -65.7247446 ], [ 99.6833365, -65.7255333 ], [ 99.7015614, -65.7301844 ], [ 99.7086932, -65.7322618 ], [ 99.6965393, -65.7256371 ], [ 99.6840204, -65.7226482 ], [ 99.6745484, -65.7194448 ], [ 99.6615041, -65.7136546 ], [ 99.6522583, -65.7124973 ], [ 99.6517161, -65.7081515 ], [ 99.6558593, -65.7060561 ], [ 99.6637426, -65.7024089 ], [ 99.6755842, -65.6992569 ], [ 99.6869327, -65.6979435 ], [ 99.6980875, -65.6976742 ], [ 99.7130992, -65.697648 ], [ 99.7258694, -65.6967467 ], [ 99.7361204, -65.697312 ], [ 99.7448422, -65.697211 ], [ 99.7574599, -65.7004446 ], [ 99.7683613, -65.704057 ], [ 99.7812795, -65.7064938 ], [ 99.7874258, -65.7107007 ], [ 99.8004547, -65.7133863 ], [ 99.8098133, -65.7147843 ], [ 99.8230341, -65.7164224 ], [ 99.828826, -65.7167834 ], [ 99.846258, -65.7150228 ], [ 99.8522357, -65.7143375 ], [ 99.8615192, -65.711093 ], [ 99.874264, -65.7086317 ], [ 99.8830677, -65.7072262 ], [ 99.8856843, -65.7060063 ], [ 99.8938501, -65.7030974 ], [ 99.898028, -65.7040874 ], [ 99.9017047, -65.7053714 ], [ 99.9102567, -65.7122403 ], [ 99.9107699, -65.717881 ], [ 99.9109645, -65.7227706 ], [ 99.9144492, -65.7191648 ], [ 99.9139057, -65.7119777 ], [ 99.9139231, -65.7075892 ], [ 99.9157939, -65.7046157 ], [ 99.9260222, -65.7036208 ], [ 99.9350339, -65.7027128 ], [ 99.9488009, -65.7012025 ], [ 99.953631, -65.6993048 ], [ 99.959889, -65.6978198 ], [ 99.9723294, -65.6961448 ], [ 99.9807289, -65.6952779 ], [ 99.9884478, -65.6957504 ], [ 99.9946304, -65.6955597 ], [ 100.0, -65.6945729 ], [ 100.0, -70.0 ], [ 95.0, -70.0 ], [ 95.0, -66.211281258017664 ], [ 95.0038075, -66.2112567 ] ] ] ] } }
]
}
