{
"type": "FeatureCollection",
"name": "95_-80",
"crs": { "type": "name", "properties": { "name": "urn:ogc:def:crs:OGC:1.3:CRS84" } },
"xy_coordinate_resolution": 1e-15,
"features": [
{ "type": "Feature", "properties": { "FID": 307096, "id": 2014, "left": 95.0, "top": -75.0, "right": 100.0, "bottom": -80.0, "row_index": 33, "col_index": 55, "min_lon": 95.0, "min_lat": -80.0, "tile_id": "95_-80" }, "geometry": { "type": "MultiPolygon", "coordinates": [ [ [ [ 100.0, -75.0 ], [ 100.0, -80.0 ], [ 95.0, -80.0 ], [ 95.0, -75.0 ], [ 100.0, -75.0 ] ] ] ] } }
]
}
