{
"type": "FeatureCollection",
"name": "95_25",
"crs": { "type": "name", "properties": { "name": "urn:ogc:def:crs:OGC:1.3:CRS84" } },
"xy_coordinate_resolution": 1e-15,
"features": [
{ "type": "Feature", "properties": { "FID": 123912, "id": 1993, "left": 95.0, "top": 30.0, "right": 100.0, "bottom": 25.0, "row_index": 12, "col_index": 55, "min_lon": 95.0, "min_lat": 25.0, "tile_id": "95_25" }, "geometry": { "type": "MultiPolygon", "coordinates": [ [ [ [ 100.0, 30.0 ], [ 100.0, 25.0 ], [ 95.0, 25.0 ], [ 95.0, 30.0 ], [ 100.0, 30.0 ] ] ] ] } }
]
}
