{
"type": "FeatureCollection",
"name": "95_50",
"crs": { "type": "name", "properties": { "name": "urn:ogc:def:crs:OGC:1.3:CRS84" } },
"xy_coordinate_resolution": 1e-15,
"features": [
{ "type": "Feature", "properties": { "FID": 123912, "id": 1988, "left": 95.0, "top": 55.0, "right": 100.0, "bottom": 50.0, "row_index": 7, "col_index": 55, "min_lon": 95.0, "min_lat": 50.0, "tile_id": "95_50" }, "geometry": { "type": "MultiPolygon", "coordinates": [ [ [ [ 100.0, 55.0 ], [ 100.0, 50.0 ], [ 95.0, 50.0 ], [ 95.0, 55.0 ], [ 100.0, 55.0 ] ] ] ] } }
]
}
