{
"type": "FeatureCollection",
"name": "95_65",
"crs": { "type": "name", "properties": { "name": "urn:ogc:def:crs:OGC:1.3:CRS84" } },
"xy_coordinate_resolution": 1e-15,
"features": [
{ "type": "Feature", "properties": { "FID": 123912, "id": 1985, "left": 95.0, "top": 70.0, "right": 100.0, "bottom": 65.0, "row_index": 4, "col_index": 55, "min_lon": 95.0, "min_lat": 65.0, "tile_id": "95_65" }, "geometry": { "type": "MultiPolygon", "coordinates": [ [ [ [ 100.0, 70.0 ], [ 100.0, 65.0 ], [ 95.0, 65.0 ], [ 95.0, 70.0 ], [ 100.0, 70.0 ] ] ] ] } }
]
}
